City,Conditions,DateUTC,Dew PointF,Events,Gust SpeedMPH,Humidity,PrecipitationIn,Sea Level PressureIn,Sea Level Pressurein,State,TemperatureF,Time,TimeCDT,TimeCST,TimeEST,TimeMST,TimePDT,TimePST,Unnamed: 0.1,Unnamed: 0.1.1,VisibilityMPH,VisibilityMi,Wind Direction,Wind SpeedMPH,WindDirDegrees,Zip
Atlanta,Fog,1970-01-01 05:00:00,30.9,Fog,-,89.0,0.01,30.08,,Georgia,34.0,,,,12:00 AM,,,,,,5.0,,WSW,6.9,240.0,30301.0
Atlanta,Fog,1970-01-01 06:00:00,30.9,Fog,-,89.0,,30.04,,Georgia,34.0,,,,1:00 AM,,,,,,5.0,,West,8.1,270.0,30301.0
Atlanta,Fog,1970-01-01 07:00:00,30.9,Fog,-,89.0,,30.04,,Georgia,34.0,,,,2:00 AM,,,,,,5.0,,West,8.1,270.0,30301.0
Atlanta,Fog,1970-01-01 08:00:00,30.9,Fog,-,89.0,,30.04,,Georgia,34.0,,,,3:00 AM,,,,,,6.0,,West,6.9,280.0,30301.0
Atlanta,Fog,1970-01-01 09:00:00,30.9,Fog,-,89.0,,30.04,,Georgia,34.0,,,,4:00 AM,,,,,,6.0,,WSW,6.9,240.0,30301.0
Atlanta,Unknown,1970-01-01 10:00:00,30.9,,-,89.0,,30.04,,Georgia,34.0,,,,5:00 AM,,,,,,7.0,,West,9.2,280.0,30301.0
Atlanta,Unknown,1970-01-01 11:00:00,30.0,,-,89.0,,30.04,,Georgia,33.1,,,,6:00 AM,,,,,,7.0,,NW,9.2,310.0,30301.0
Atlanta,Unknown,1970-01-01 12:00:00,28.9,,-,82.0,,30.08,,Georgia,34.0,,,,7:00 AM,,,,,,8.0,,WNW,10.4,290.0,30301.0
Atlanta,Fog,1970-01-01 13:00:00,28.0,Fog,-,76.0,,30.09,,Georgia,35.1,,,,8:00 AM,,,,,,5.0,,WNW,13.8,290.0,30301.0
Atlanta,Smoke,1970-01-01 14:00:00,28.9,,-,78.0,,30.11,,Georgia,35.1,,,,9:00 AM,,,,,,4.0,,WNW,11.5,300.0,30301.0
Atlanta,Unknown,1970-01-01 15:00:00,28.0,,-,73.0,,30.13,,Georgia,36.0,,,,10:00 AM,,,,,,8.0,,WNW,11.5,290.0,30301.0
Atlanta,Unknown,1970-01-01 16:00:00,27.0,,-,70.0,,30.12,,Georgia,36.0,,,,11:00 AM,,,,,,8.0,,WNW,9.2,300.0,30301.0
Atlanta,Unknown,1970-01-01 17:00:00,27.0,,-,67.0,,30.09,,Georgia,37.0,,,,12:00 PM,,,,,,8.0,,WNW,10.4,300.0,30301.0
Atlanta,Unknown,1970-01-01 18:00:00,26.1,,-,65.0,,30.07,,Georgia,37.0,,,,1:00 PM,,,,,,8.0,,WNW,11.5,300.0,30301.0
Atlanta,Unknown,1970-01-01 19:00:00,25.0,,-,62.0,,30.08,,Georgia,37.0,,,,2:00 PM,,,,,,8.0,,WNW,10.4,300.0,30301.0
Atlanta,Unknown,1970-01-01 20:00:00,25.0,,-,62.0,,30.08,,Georgia,37.0,,,,3:00 PM,,,,,,8.0,,NW,11.5,310.0,30301.0
Atlanta,Unknown,1970-01-01 21:00:00,26.1,,-,58.0,,30.08,,Georgia,39.9,,,,4:00 PM,,,,,,8.0,,WNW,11.5,300.0,30301.0
Atlanta,Unknown,1970-01-01 22:00:00,25.0,,-,62.0,,30.11,,Georgia,37.0,,,,5:00 PM,,,,,,8.0,,NNW,15.0,330.0,30301.0
Atlanta,Unknown,1970-01-01 23:00:00,23.0,,-,59.0,,30.11,,Georgia,36.0,,,,6:00 PM,,,,,,8.0,,NW,11.5,320.0,30301.0
Atlanta,Unknown,1970-01-02 00:00:00,21.9,,-,61.0,,30.11,,Georgia,34.0,,,,7:00 PM,,,,,,8.0,,NW,5.8,320.0,30301.0
Atlanta,Unknown,1970-01-02 01:00:00,21.9,,-,66.0,,30.12,,Georgia,32.0,,,,8:00 PM,,,,,,8.0,,NW,5.8,320.0,30301.0
Atlanta,Unknown,1970-01-02 02:00:00,23.0,,-,72.0,,30.13,,Georgia,30.9,,,,9:00 PM,,,,,,8.0,,West,8.1,270.0,30301.0
Atlanta,Unknown,1970-01-02 03:00:00,19.9,,-,75.0,,30.13,,Georgia,27.0,,,,10:00 PM,,,,,,8.0,,West,9.2,280.0,30301.0
Atlanta,Clear,1970-01-02 04:00:00,21.9,,-,78.0,,30.14,,Georgia,28.0,,,,11:00 PM,,,,,,8.0,,West,8.1,280.0,30301.0
Atlanta,Unknown,1970-01-03 05:00:00,24.1,,-,57.0,,30.04,,Georgia,37.9,,,,12:00 AM,,,,,,10.0,,WNW,6.9,290.0,30301.0
Atlanta,Unknown,1970-01-03 06:00:00,25.0,,-,67.0,,30.04,,Georgia,35.1,,,,1:00 AM,,,,,,10.0,,West,6.9,280.0,30301.0
Atlanta,Unknown,1970-01-03 07:00:00,21.9,,-,64.0,,30.03,,Georgia,33.1,,,,2:00 AM,,,,,,10.0,,WNW,6.9,290.0,30301.0
Atlanta,Unknown,1970-01-03 08:00:00,23.0,,-,66.0,,30.04,,Georgia,33.1,,,,3:00 AM,,,,,,10.0,,WNW,9.2,290.0,30301.0
Atlanta,Unknown,1970-01-03 09:00:00,24.1,,-,67.0,,30.03,,Georgia,34.0,,,,4:00 AM,,,,,,10.0,,WNW,6.9,290.0,30301.0
Atlanta,Unknown,1970-01-03 10:00:00,26.1,,-,67.0,,30.01,,Georgia,36.0,,,,5:00 AM,,,,,,10.0,,NW,6.9,310.0,30301.0
Atlanta,Unknown,1970-01-03 11:00:00,28.9,,-,78.0,,30.01,,Georgia,35.1,,,,6:00 AM,,,,,,10.0,,WNW,10.4,300.0,30301.0
Atlanta,Unknown,1970-01-03 12:00:00,28.0,,-,76.0,,30.03,,Georgia,35.1,,,,7:00 AM,,,,,,10.0,,NW,15.0,310.0,30301.0
Atlanta,Unknown,1970-01-03 13:00:00,24.1,,-,67.0,,30.05,,Georgia,34.0,,,,8:00 AM,,,,,,10.0,,NNW,11.5,330.0,30301.0
Atlanta,Unknown,1970-01-03 14:00:00,19.9,,-,64.0,,30.08,,Georgia,30.9,,,,9:00 AM,,,,,,10.0,,NW,13.8,320.0,30301.0
Atlanta,Unknown,1970-01-03 15:00:00,18.0,,-,56.0,,30.09,,Georgia,32.0,,,,10:00 AM,,,,,,10.0,,NNW,15.0,340.0,30301.0
Atlanta,Unknown,1970-01-03 16:00:00,17.1,,-,50.0,,30.07,,Georgia,34.0,,,,11:00 AM,,,,,,15.0,,NW,11.5,320.0,30301.0
Atlanta,Unknown,1970-01-03 17:00:00,16.0,,-,48.0,,30.06,,Georgia,34.0,,,,12:00 PM,,,,,,15.0,,NW,13.8,320.0,30301.0
Atlanta,Unknown,1970-01-03 18:00:00,16.0,,-,44.0,,30.05,,Georgia,36.0,,,,1:00 PM,,,,,,15.0,,WNW,15.0,300.0,30301.0
Atlanta,Unknown,1970-01-03 19:00:00,14.0,,-,35.0,,30.01,,Georgia,39.9,,,,2:00 PM,,,,,,15.0,,WNW,11.5,290.0,30301.0
Atlanta,Unknown,1970-01-03 20:00:00,14.0,,-,36.0,,30.01,,Georgia,39.0,,,,3:00 PM,,,,,,15.0,,NW,11.5,320.0,30301.0
Atlanta,Unknown,1970-01-03 21:00:00,12.0,,-,32.0,,30.01,,Georgia,39.9,,,,4:00 PM,,,,,,15.0,,North,11.5,360.0,30301.0
Atlanta,Unknown,1970-01-03 22:00:00,12.0,,-,33.0,,30.03,,Georgia,39.0,,,,5:00 PM,,,,,,15.0,,NW,6.9,320.0,30301.0
Atlanta,Clear,1970-01-03 23:00:00,12.9,,-,40.0,,30.04,,Georgia,35.1,,,,6:00 PM,,,,,,15.0,,NW,9.2,310.0,30301.0
Atlanta,Clear,1970-01-04 00:00:00,12.9,,-,47.0,,30.06,,Georgia,30.9,,,,7:00 PM,,,,,,15.0,,WNW,9.2,290.0,30301.0
Atlanta,Clear,1970-01-04 01:00:00,14.0,,-,50.0,,30.07,,Georgia,30.9,,,,8:00 PM,,,,,,15.0,,WNW,10.4,300.0,30301.0
Atlanta,Clear,1970-01-04 02:00:00,14.0,,-,51.0,,30.09,,Georgia,30.0,,,,9:00 PM,,,,,,15.0,,NW,10.4,310.0,30301.0
Atlanta,Clear,1970-01-04 03:00:00,14.0,,-,54.0,,30.09,,Georgia,28.9,,,,10:00 PM,,,,,,15.0,,NW,9.2,310.0,30301.0
Atlanta,Clear,1970-01-04 04:00:00,14.0,,-,56.0,,30.1,,Georgia,28.0,,,,11:00 PM,,,,,,15.0,,NW,9.2,320.0,30301.0
Atlanta,Clear,1970-01-04 05:00:00,14.0,,-,60.0,,30.11,,Georgia,26.1,,,,12:00 AM,,,,,,15.0,,NW,8.1,310.0,30301.0
Atlanta,Clear,1970-01-04 06:00:00,12.9,,-,60.0,,30.12,,Georgia,25.0,,,,1:00 AM,,,,,,15.0,,NW,11.5,320.0,30301.0
Atlanta,Clear,1970-01-04 07:00:00,12.9,,-,60.0,,30.13,,Georgia,25.0,,,,2:00 AM,,,,,,15.0,,NW,12.7,310.0,30301.0
Atlanta,Clear,1970-01-04 08:00:00,12.0,,-,60.0,,30.17,,Georgia,24.1,,,,3:00 AM,,,,,,15.0,,WNW,9.2,300.0,30301.0
Atlanta,Clear,1970-01-04 09:00:00,12.0,,-,60.0,,30.17,,Georgia,24.1,,,,4:00 AM,,,,,,15.0,,NNW,11.5,330.0,30301.0
Atlanta,Unknown,1970-01-04 10:00:00,12.0,,-,63.0,,30.17,,Georgia,23.0,,,,5:00 AM,,,,,,15.0,,NW,9.2,320.0,30301.0
Atlanta,Unknown,1970-01-04 11:00:00,12.0,,-,63.0,,30.19,,Georgia,23.0,,,,6:00 AM,,,,,,15.0,,NW,6.9,320.0,30301.0
Atlanta,Unknown,1970-01-04 12:00:00,12.0,,-,63.0,,30.25,,Georgia,23.0,,,,7:00 AM,,,,,,15.0,,WNW,10.4,300.0,30301.0
Atlanta,Clear,1970-01-04 13:00:00,10.9,,-,63.0,,30.28,,Georgia,21.9,,,,8:00 AM,,,,,,15.0,,NW,6.9,320.0,30301.0
Atlanta,Clear,1970-01-04 14:00:00,12.0,,-,58.0,,30.31,,Georgia,25.0,,,,9:00 AM,,,,,,15.0,,NNW,5.8,340.0,30301.0
Atlanta,Clear,1970-01-04 15:00:00,12.0,,-,47.0,,30.32,,Georgia,30.0,,,,10:00 AM,,,,,,15.0,,NW,4.6,320.0,30301.0
Atlanta,Clear,1970-01-04 16:00:00,12.0,,-,40.0,,30.31,,Georgia,34.0,,,,11:00 AM,,,,,,15.0,,WNW,8.1,300.0,30301.0
Atlanta,Clear,1970-01-04 17:00:00,12.0,,-,33.0,,30.3,,Georgia,39.0,,,,12:00 PM,,,,,,15.0,,WNW,13.8,300.0,30301.0
Atlanta,Clear,1970-01-04 18:00:00,12.0,,-,29.0,,30.28,,Georgia,42.1,,,,1:00 PM,,,,,,15.0,,WNW,13.8,300.0,30301.0
Atlanta,Clear,1970-01-04 19:00:00,12.0,,-,27.0,,30.28,,Georgia,44.1,,,,2:00 PM,,,,,,15.0,,WNW,15.0,300.0,30301.0
Atlanta,Clear,1970-01-04 20:00:00,12.0,,-,26.0,,30.27,,Georgia,45.0,,,,3:00 PM,,,,,,15.0,,NNW,11.5,340.0,30301.0
Atlanta,Unknown,1970-01-04 21:00:00,12.0,,-,26.0,,30.28,,Georgia,45.0,,,,4:00 PM,,,,,,15.0,,NW,11.5,310.0,30301.0
Atlanta,Unknown,1970-01-04 22:00:00,17.1,,-,34.0,,30.29,,Georgia,44.1,,,,5:00 PM,,,,,,15.0,,NNW,9.2,340.0,30301.0
Atlanta,Unknown,1970-01-04 23:00:00,17.1,,-,38.0,,30.31,,Georgia,41.0,,,,6:00 PM,,,,,,15.0,,NNW,6.9,340.0,30301.0
Atlanta,Clear,1970-01-05 00:00:00,17.1,,-,41.0,,30.33,,Georgia,39.0,,,,7:00 PM,,,,,,15.0,,NNW,6.9,340.0,30301.0
Atlanta,Clear,1970-01-05 01:00:00,18.0,,-,46.0,,30.35,,Georgia,37.0,,,,8:00 PM,,,,,,15.0,,North,3.5,360.0,30301.0
Atlanta,Clear,1970-01-05 02:00:00,18.0,,-,45.0,,30.35,,Georgia,37.9,,,,9:00 PM,,,,,,15.0,,North,4.6,350.0,30301.0
Atlanta,Unknown,1970-01-05 03:00:00,19.0,,-,61.0,,30.38,,Georgia,30.9,,,,10:00 PM,,,,,,15.0,,Calm,Calm,0.0,30301.0
Atlanta,Unknown,1970-01-05 04:00:00,19.0,,-,54.0,,30.37,,Georgia,34.0,,,,11:00 PM,,,,,,15.0,,Calm,Calm,0.0,30301.0
Atlanta,Unknown,1970-01-05 05:00:00,19.9,,-,61.0,,30.37,,Georgia,32.0,,,,12:00 AM,,,,,,10.0,,Calm,Calm,0.0,30301.0
Atlanta,Unknown,1970-01-05 06:00:00,19.9,,-,66.0,,30.34,,Georgia,30.0,,,,1:00 AM,,,,,,10.0,,Calm,Calm,0.0,30301.0
Atlanta,Unknown,1970-01-05 07:00:00,21.0,,-,64.0,,30.34,,Georgia,32.0,,,,2:00 AM,,,,,,10.0,,Calm,Calm,0.0,30301.0
Atlanta,Unknown,1970-01-05 08:00:00,19.9,,-,59.0,,30.34,,Georgia,33.1,,,,3:00 AM,,,,,,10.0,,North,3.5,360.0,30301.0
Atlanta,Unknown,1970-01-05 09:00:00,19.9,,-,64.0,,30.35,,Georgia,30.9,,,,4:00 AM,,,,,,10.0,,Calm,Calm,0.0,30301.0
Atlanta,Unknown,1970-01-05 10:00:00,19.0,,-,69.0,,30.36,,Georgia,28.0,,,,5:00 AM,,,,,,10.0,,Calm,Calm,0.0,30301.0
Atlanta,Unknown,1970-01-05 11:00:00,21.0,,-,72.0,,30.38,,Georgia,28.9,,,,6:00 AM,,,,,,10.0,,WNW,3.5,290.0,30301.0
Atlanta,Unknown,1970-01-05 12:00:00,21.0,,-,69.0,,30.41,,Georgia,30.0,,,,7:00 AM,,,,,,7.0,,Calm,Calm,0.0,30301.0
Atlanta,Smoke,1970-01-05 13:00:00,21.0,,-,67.0,,30.43,,Georgia,30.9,,,,8:00 AM,,,,,,6.0,,Calm,Calm,0.0,30301.0
Atlanta,Smoke,1970-01-05 14:00:00,19.9,,-,61.0,,30.44,,Georgia,32.0,,,,9:00 AM,,,,,,6.0,,East,5.8,90.0,30301.0
Atlanta,Smoke,1970-01-05 15:00:00,21.9,,-,54.0,,30.44,,Georgia,37.0,,,,10:00 AM,,,,,,6.0,,East,8.1,100.0,30301.0
Atlanta,Smoke,1970-01-05 16:00:00,21.0,,-,47.0,,30.44,,Georgia,39.9,,,,11:00 AM,,,,,,6.0,,ESE,9.2,120.0,30301.0
Atlanta,Unknown,1970-01-05 17:00:00,21.0,,-,45.0,,30.41,,Georgia,41.0,,,,12:00 PM,,,,,,7.0,,ESE,9.2,120.0,30301.0
Atlanta,Unknown,1970-01-05 18:00:00,19.9,,-,38.0,,30.39,,Georgia,44.1,,,,1:00 PM,,,,,,10.0,,East,6.9,90.0,30301.0
Atlanta,Unknown,1970-01-05 19:00:00,18.0,,-,32.0,,30.34,,Georgia,46.9,,,,2:00 PM,,,,,,15.0,,ESE,9.2,120.0,30301.0
Atlanta,Unknown,1970-01-05 20:00:00,16.0,,-,30.0,,30.32,,Georgia,46.0,,,,3:00 PM,,,,,,15.0,,ESE,5.8,120.0,30301.0
Atlanta,Unknown,1970-01-05 21:00:00,17.1,,-,33.0,,30.3,,Georgia,45.0,,,,4:00 PM,,,,,,15.0,,SE,10.4,130.0,30301.0
Atlanta,Unknown,1970-01-05 22:00:00,16.0,,-,32.0,,30.3,,Georgia,44.1,,,,5:00 PM,,,,,,10.0,,ESE,9.2,110.0,30301.0
Atlanta,Unknown,1970-01-05 23:00:00,17.1,,-,34.0,,30.29,,Georgia,44.1,,,,6:00 PM,,,,,,10.0,,ESE,8.1,110.0,30301.0
Atlanta,Unknown,1970-01-06 00:00:00,17.1,,-,35.0,,30.28,,Georgia,43.0,,,,7:00 PM,,,,,,10.0,,ESE,9.2,110.0,30301.0
Atlanta,Unknown,1970-01-06 01:00:00,17.1,,-,37.0,,30.26,,Georgia,42.1,,,,8:00 PM,,,,,,10.0,,East,9.2,100.0,30301.0
Atlanta,Unknown,1970-01-06 02:00:00,18.0,,-,38.0,,30.23,,Georgia,42.1,,,,9:00 PM,,,,,,10.0,,East,11.5,100.0,30301.0
Atlanta,Light Rain,1970-01-06 03:00:00,21.0,Rain,-,45.0,,30.21,,Georgia,41.0,,,,10:00 PM,,,,,,8.0,,East,10.4,100.0,30301.0
Atlanta,Light Rain,1970-01-06 04:00:00,24.1,Rain,-,53.0,,30.21,,Georgia,39.9,,,,11:00 PM,,,,,,8.0,,ESE,6.9,120.0,30301.0
Atlanta,Light Snow,1970-01-06 05:00:00,27.0,Snow,-,70.0,0.01,30.21,,Georgia,36.0,,,,12:00 AM,,,,,,10.5,,East,11.5,100.0,30301.0
Atlanta,Ice Pellets,1970-01-06 06:00:00,28.9,,-,82.0,0.07,30.18,,Georgia,34.0,,,,1:00 AM,,,,,,4.0,,ENE,9.2,60.0,30301.0
Atlanta,Light Rain,1970-01-06 07:00:00,30.0,Rain,-,85.0,0.05,30.14,,Georgia,34.0,,,,2:00 AM,,,,,,5.0,,ENE,10.4,70.0,30301.0
Atlanta,Light Rain,1970-01-06 08:00:00,30.0,Fog-Rain,-,89.0,0.07,30.09,,Georgia,33.1,,,,3:00 AM,,,,,,5.0,,ENE,13.8,60.0,30301.0
Atlanta,Light Rain,1970-01-06 09:00:00,30.9,Fog-Rain,-,92.0,0.1,30.05,,Georgia,33.1,,,,4:00 AM,,,,,,5.0,,ENE,15.0,70.0,30301.0
Atlanta,Rain,1970-01-06 10:00:00,30.9,Fog-Rain,-,92.0,0.1,30.0,,Georgia,33.1,,,,5:00 AM,,,,,,4.0,,ENE,15.0,70.0,30301.0
Atlanta,Light Rain,1970-01-06 11:00:00,32.0,Fog-Rain,-,92.0,0.1,30.01,,Georgia,34.0,,,,6:00 AM,,,,,,4.0,,ENE,12.7,60.0,30301.0
Atlanta,Light Rain,1970-01-06 12:00:00,32.0,Fog-Rain,-,92.0,0.08,30.0,,Georgia,34.0,,,,7:00 AM,,,,,,4.0,,ENE,13.8,70.0,30301.0
Atlanta,Light Rain,1970-01-06 13:00:00,30.9,Fog-Rain,-,89.0,0.05,29.97,,Georgia,34.0,,,,8:00 AM,,,,,,4.0,,East,13.8,80.0,30301.0
Atlanta,Light Rain,1970-01-06 14:00:00,30.9,Fog-Rain,-,89.0,0.03,29.95,,Georgia,34.0,,,,9:00 AM,,,,,,2.0,,ENE,13.8,70.0,30301.0
Atlanta,Light Rain,1970-01-06 15:00:00,30.9,Fog-Rain,-,85.0,0.04,29.94,,Georgia,35.1,,,,10:00 AM,,,,,,4.0,,ENE,9.2,70.0,30301.0
Atlanta,Light Rain,1970-01-06 16:00:00,33.1,Fog-Rain,-,89.0,0.01,29.92,,Georgia,36.0,,,,11:00 AM,,,,,,4.0,,ENE,11.5,60.0,30301.0
Atlanta,Light Rain,1970-01-06 17:00:00,33.1,Fog-Rain,-,89.0,0.01,29.86,,Georgia,36.0,,,,12:00 PM,,,,,,4.0,,East,11.5,80.0,30301.0
Atlanta,Light Drizzle,1970-01-06 18:00:00,33.1,Fog,-,86.0,0.01,29.85,,Georgia,37.0,,,,1:00 PM,,,,,,4.0,,East,11.5,80.0,30301.0
Atlanta,Light Drizzle,1970-01-06 19:00:00,33.1,Fog,-,86.0,,29.81,,Georgia,37.0,,,,2:00 PM,,,,,,4.0,,NE,9.2,40.0,30301.0
Atlanta,Light Drizzle,1970-01-06 20:00:00,35.1,Fog,-,89.0,,29.8,,Georgia,37.9,,,,3:00 PM,,,,,,0.8,,NNE,9.2,30.0,30301.0
Atlanta,Light Rain,1970-01-06 21:00:00,35.1,Fog-Rain,-,89.0,,29.81,,Georgia,37.9,,,,4:00 PM,,,,,,0.5,,North,11.5,350.0,30301.0
Atlanta,Light Rain,1970-01-06 22:00:00,33.1,Fog-Rain,-,89.0,0.01,29.85,,Georgia,36.0,,,,5:00 PM,,,,,,5.5,,NW,11.5,320.0,30301.0
Atlanta,Light Rain,1970-01-06 23:00:00,30.9,Fog-Rain-Snow,-,89.0,0.01,29.86,,Georgia,34.0,,,,6:00 PM,,,,,,5.0,,NNW,15.0,340.0,30301.0
Atlanta,Light Snow,1970-01-07 00:00:00,30.9,Fog-Snow,-,89.0,,29.88,,Georgia,34.0,,,,7:00 PM,,,,,,4.0,,NW,15.0,320.0,30301.0
Atlanta,Light Snow,1970-01-07 01:00:00,30.9,Fog-Snow,-,89.0,,29.87,,Georgia,34.0,,,,8:00 PM,,,,,,5.0,,NW,13.8,320.0,30301.0
Atlanta,Unknown,1970-01-07 02:00:00,30.0,,-,85.0,,29.87,,Georgia,34.0,,,,9:00 PM,,,,,,7.0,,NW,16.1,320.0,30301.0
Atlanta,Unknown,1970-01-07 03:00:00,28.9,,-,82.0,,29.89,,Georgia,34.0,,,,10:00 PM,,,,,,7.0,,NNW,16.1,330.0,30301.0
Atlanta,Unknown,1970-01-07 04:00:00,27.0,,-,82.0,,29.9,,Georgia,32.0,,,,11:00 PM,,,,,,7.0,,NW,17.3,320.0,30301.0
Atlanta,Unknown,1970-01-07 05:00:00,25.0,,-,82.0,,29.93,,Georgia,30.0,,,,12:00 AM,,,,,,8.0,,WNW,16.1,300.0,30301.0
Atlanta,Unknown,1970-01-07 06:00:00,24.1,,-,82.0,,29.94,,Georgia,28.9,,,,1:00 AM,,,,,,8.0,,NW,16.1,320.0,30301.0
Atlanta,Unknown,1970-01-07 07:00:00,19.9,,-,78.0,,29.96,,Georgia,26.1,,,,2:00 AM,,,,,,8.0,,NW,19.6,320.0,30301.0
Atlanta,Unknown,1970-01-07 08:00:00,19.0,,-,78.0,,29.99,,Georgia,25.0,,,,3:00 AM,,,,,,8.0,,NW,16.1,320.0,30301.0
Atlanta,Unknown,1970-01-07 09:00:00,17.1,,-,78.0,,30.01,,Georgia,23.0,,,,4:00 AM,,,,,,10.0,,WNW,19.6,300.0,30301.0
Atlanta,Unknown,1970-01-07 10:00:00,14.0,,-,74.0,,30.02,,Georgia,21.0,,,,5:00 AM,,,,,,10.0,,NW,18.4,310.0,30301.0
Atlanta,Unknown,1970-01-07 11:00:00,12.9,,-,74.0,,30.04,,Georgia,19.9,,,,6:00 AM,,,,,,10.0,,NW,19.6,320.0,30301.0
Atlanta,Unknown,1970-01-07 12:00:00,10.9,,-,74.0,,30.07,,Georgia,18.0,,,,7:00 AM,,,,,,15.0,,NW,18.4,310.0,30301.0
Atlanta,Unknown,1970-01-07 13:00:00,8.1,,-,74.0,,30.11,,Georgia,15.1,,,,8:00 AM,,,,,,15.0,,NW,17.3,320.0,30301.0
Atlanta,Clear,1970-01-07 14:00:00,6.1,,-,68.0,,30.14,,Georgia,15.1,,,,9:00 AM,,,,,,15.0,,NW,16.1,320.0,30301.0
Atlanta,Clear,1970-01-07 15:00:00,6.1,,-,62.0,,30.15,,Georgia,17.1,,,,10:00 AM,,,,,,15.0,,NW,17.3,320.0,30301.0
Atlanta,Clear,1970-01-07 16:00:00,5.0,,-,54.0,,30.17,,Georgia,19.0,,,,11:00 AM,,,,,,15.0,,NW,18.4,320.0,30301.0
Atlanta,Clear,1970-01-07 17:00:00,5.0,,-,52.0,,30.15,,Georgia,19.9,,,,12:00 PM,,,,,,15.0,,NW,17.3,320.0,30301.0
Atlanta,Clear,1970-01-07 18:00:00,5.0,,-,48.0,,30.13,,Georgia,21.9,,,,1:00 PM,,,,,,15.0,,NW,17.3,320.0,30301.0
Atlanta,Clear,1970-01-07 19:00:00,5.0,,-,48.0,,30.13,,Georgia,21.9,,,,2:00 PM,,,,,,15.0,,NW,16.1,320.0,30301.0
Atlanta,Clear,1970-01-07 20:00:00,5.0,,-,48.0,,30.13,,Georgia,21.9,,,,3:00 PM,,,,,,15.0,,NW,17.3,320.0,30301.0
Atlanta,Unknown,1970-01-07 21:00:00,5.0,,-,52.0,,30.16,,Georgia,19.9,,,,4:00 PM,,,,,,15.0,,WNW,19.6,290.0,30301.0
Atlanta,Unknown,1970-01-07 22:00:00,3.0,,-,57.0,,30.2,,Georgia,16.0,,,,5:00 PM,,,,,,15.0,,WNW,16.1,300.0,30301.0
Atlanta,Unknown,1970-01-07 23:00:00,1.9,,-,62.0,,30.22,,Georgia,12.9,,,,6:00 PM,,,,,,15.0,,WNW,17.3,300.0,30301.0
Atlanta,Unknown,1970-01-08 00:00:00,1.9,,-,62.0,,30.25,,Georgia,12.9,,,,7:00 PM,,,,,,15.0,,WNW,16.1,300.0,30301.0
Atlanta,Clear,1970-01-08 01:00:00,1.9,,-,64.0,,30.27,,Georgia,12.0,,,,8:00 PM,,,,,,15.0,,NW,15.0,310.0,30301.0
Atlanta,Unknown,1970-01-08 02:00:00,1.9,,-,64.0,,30.28,,Georgia,12.0,,,,9:00 PM,,,,,,15.0,,WNW,15.0,300.0,30301.0
Atlanta,Unknown,1970-01-08 03:00:00,1.9,,-,64.0,,30.28,,Georgia,12.0,,,,10:00 PM,,,,,,15.0,,NW,13.8,310.0,30301.0
Atlanta,Clear,1970-01-08 04:00:00,1.9,,-,67.0,,30.28,,Georgia,10.9,,,,11:00 PM,,,,,,15.0,,WNW,10.4,300.0,30301.0
Atlanta,Clear,1970-01-08 05:00:00,3.0,,-,70.0,,30.26,,Georgia,10.9,,,,12:00 AM,,,,,,15.0,,NW,11.5,320.0,30301.0
Atlanta,Clear,1970-01-08 06:00:00,3.0,,-,70.0,,30.27,,Georgia,10.9,,,,1:00 AM,,,,,,15.0,,NW,15.0,320.0,30301.0
Atlanta,Clear,1970-01-08 07:00:00,1.9,,-,70.0,,30.26,,Georgia,10.0,,,,2:00 AM,,,,,,15.0,,NW,9.2,320.0,30301.0
Atlanta,Clear,1970-01-08 08:00:00,1.9,,-,73.0,,30.28,,Georgia,9.0,,,,3:00 AM,,,,,,15.0,,WNW,6.9,300.0,30301.0
Atlanta,Clear,1970-01-08 09:00:00,3.0,,-,77.0,,30.26,,Georgia,9.0,,,,4:00 AM,,,,,,15.0,,West,8.1,270.0,30301.0
Atlanta,Unknown,1970-01-08 10:00:00,5.0,,-,80.0,,30.29,,Georgia,10.0,,,,5:00 AM,,,,,,15.0,,WNW,10.4,290.0,30301.0
Atlanta,Unknown,1970-01-08 11:00:00,5.0,,-,80.0,,30.3,,Georgia,10.0,,,,6:00 AM,,,,,,15.0,,West,9.2,270.0,30301.0
Atlanta,Unknown,1970-01-08 12:00:00,5.0,,-,80.0,,30.3,,Georgia,10.0,,,,7:00 AM,,,,,,15.0,,West,9.2,260.0,30301.0
Atlanta,Unknown,1970-01-08 13:00:00,5.0,,-,80.0,,30.32,,Georgia,10.0,,,,8:00 AM,,,,,,15.0,,WSW,11.5,240.0,30301.0
Atlanta,Clear,1970-01-08 14:00:00,5.0,,-,73.0,,30.33,,Georgia,12.0,,,,9:00 AM,,,,,,15.0,,West,11.5,270.0,30301.0
Atlanta,Ice Crystals,1970-01-08 15:00:00,5.0,,-,64.0,,30.33,,Georgia,15.1,,,,10:00 AM,,,,,,15.0,,West,17.3,270.0,30301.0
Atlanta,Unknown,1970-01-08 16:00:00,1.0,,-,50.0,,30.36,,Georgia,17.1,,,,11:00 AM,,,,,,15.0,,WNW,18.4,300.0,30301.0
Atlanta,Unknown,1970-01-08 17:00:00,-0.0,,-,43.0,,30.35,,Georgia,19.0,,,,12:00 PM,,,,,,15.0,,WNW,18.4,300.0,30301.0
Atlanta,Unknown,1970-01-08 18:00:00,-0.0,,-,40.0,,30.33,,Georgia,21.0,,,,1:00 PM,,,,,,15.0,,NW,19.6,310.0,30301.0
Atlanta,Unknown,1970-01-08 19:00:00,-0.0,,-,38.0,,30.32,,Georgia,21.9,,,,2:00 PM,,,,,,15.0,,NW,20.7,310.0,30301.0
Atlanta,Unknown,1970-01-08 20:00:00,-0.0,,-,38.0,,30.33,,Georgia,21.9,,,,3:00 PM,,,,,,15.0,,NW,18.4,310.0,30301.0
Atlanta,Unknown,1970-01-08 21:00:00,-0.9,,-,40.0,,30.36,,Georgia,19.9,,,,4:00 PM,,,,,,15.0,,NW,18.4,310.0,30301.0
Atlanta,Clear,1970-01-08 22:00:00,-2.0,,-,43.0,,30.39,,Georgia,17.1,,,,5:00 PM,,,,,,15.0,,WNW,18.4,300.0,30301.0
Atlanta,Clear,1970-01-08 23:00:00,-2.9,,-,47.0,,30.43,,Georgia,14.0,,,,6:00 PM,,,,,,15.0,,NW,13.8,310.0,30301.0
Atlanta,Clear,1970-01-09 00:00:00,-2.0,,-,53.0,,30.46,,Georgia,12.0,,,,7:00 PM,,,,,,15.0,,NW,16.1,310.0,30301.0
Atlanta,Clear,1970-01-09 01:00:00,-2.0,,-,56.0,,30.47,,Georgia,10.9,,,,8:00 PM,,,,,,15.0,,NW,12.7,310.0,30301.0
Atlanta,Clear,1970-01-09 02:00:00,-0.9,,-,61.0,,30.47,,Georgia,10.0,,,,9:00 PM,,,,,,15.0,,NW,12.7,310.0,30301.0
Atlanta,Clear,1970-01-09 03:00:00,-0.9,,-,64.0,,30.47,,Georgia,9.0,,,,10:00 PM,,,,,,15.0,,NW,11.5,310.0,30301.0
Atlanta,Clear,1970-01-09 04:00:00,-0.9,,-,70.0,,30.47,,Georgia,7.0,,,,11:00 PM,,,,,,15.0,,NW,9.2,310.0,30301.0
Atlanta,Clear,1970-01-09 05:00:00,-0.9,,-,70.0,,30.47,,Georgia,7.0,,,,12:00 AM,,,,,,15.0,,WNW,6.9,290.0,30301.0
Atlanta,Clear,1970-01-09 06:00:00,-2.0,,-,73.0,,30.47,,Georgia,5.0,,,,1:00 AM,,,,,,15.0,,West,6.9,270.0,30301.0
Atlanta,Clear,1970-01-09 07:00:00,-2.0,,-,76.0,,30.47,,Georgia,3.9,,,,2:00 AM,,,,,,15.0,,West,6.9,280.0,30301.0
Atlanta,Clear,1970-01-09 08:00:00,-2.9,,-,73.0,,30.48,,Georgia,3.9,,,,3:00 AM,,,,,,15.0,,West,9.2,280.0,30301.0
Atlanta,Clear,1970-01-09 09:00:00,-2.9,,-,70.0,,30.46,,Georgia,5.0,,,,4:00 AM,,,,,,15.0,,NW,11.5,320.0,30301.0
Atlanta,Clear,1970-01-09 10:00:00,-2.9,,-,73.0,,30.45,,Georgia,3.9,,,,5:00 AM,,,,,,15.0,,WNW,11.5,300.0,30301.0
Atlanta,Clear,1970-01-09 11:00:00,-4.0,,-,70.0,,30.44,,Georgia,3.9,,,,6:00 AM,,,,,,15.0,,WNW,13.8,300.0,30301.0
Atlanta,Clear,1970-01-09 12:00:00,-5.1,,-,69.0,,30.44,,Georgia,3.0,,,,7:00 AM,,,,,,15.0,,NW,11.5,310.0,30301.0
Atlanta,Clear,1970-01-09 13:00:00,-4.0,,-,73.0,,30.45,,Georgia,3.0,,,,8:00 AM,,,,,,15.0,,WNW,11.5,290.0,30301.0
Atlanta,Clear,1970-01-09 14:00:00,-2.9,,-,70.0,,30.45,,Georgia,5.0,,,,9:00 AM,,,,,,15.0,,WNW,12.7,290.0,30301.0
Atlanta,Clear,1970-01-09 15:00:00,-0.9,,-,64.0,,30.45,,Georgia,9.0,,,,10:00 AM,,,,,,15.0,,WNW,15.0,300.0,30301.0
Atlanta,Clear,1970-01-09 16:00:00,-2.0,,-,49.0,,30.44,,Georgia,14.0,,,,11:00 AM,,,,,,15.0,,WNW,13.8,300.0,30301.0
Atlanta,Clear,1970-01-09 17:00:00,-0.9,,-,44.0,,30.41,,Georgia,18.0,,,,12:00 PM,,,,,,15.0,,WNW,19.6,290.0,30301.0
Atlanta,Clear,1970-01-09 18:00:00,-0.0,,-,40.0,,30.37,,Georgia,21.0,,,,1:00 PM,,,,,,15.0,,West,19.6,280.0,30301.0
Atlanta,Clear,1970-01-09 19:00:00,1.9,,-,38.0,,30.34,,Georgia,24.1,,,,2:00 PM,,,,,,15.0,,WNW,16.1,300.0,30301.0
Atlanta,Unknown,1970-01-09 20:00:00,3.0,,-,37.0,,30.33,,Georgia,26.1,,,,3:00 PM,,,,,,15.0,,West,15.0,270.0,30301.0
Atlanta,Unknown,1970-01-09 21:00:00,5.0,,-,39.0,,30.33,,Georgia,27.0,,,,4:00 PM,,,,,,15.0,,West,13.8,270.0,30301.0
Atlanta,Unknown,1970-01-09 22:00:00,6.1,,-,45.0,,30.33,,Georgia,25.0,,,,5:00 PM,,,,,,15.0,,WNW,15.0,290.0,30301.0
Atlanta,Clear,1970-01-09 23:00:00,7.0,,-,53.0,,30.35,,Georgia,21.9,,,,6:00 PM,,,,,,15.0,,NW,13.8,320.0,30301.0
Atlanta,Clear,1970-01-10 00:00:00,9.0,,-,41.0,,30.38,,Georgia,30.0,,,,7:00 PM,,,,,,15.0,,WNW,13.8,300.0,30301.0
Atlanta,Clear,1970-01-10 01:00:00,6.1,,-,60.0,,30.41,,Georgia,18.0,,,,8:00 PM,,,,,,15.0,,NW,15.0,310.0,30301.0
Atlanta,Clear,1970-01-10 02:00:00,6.1,,-,62.0,,30.4,,Georgia,17.1,,,,9:00 PM,,,,,,15.0,,NW,13.8,310.0,30301.0
Atlanta,Clear,1970-01-10 03:00:00,6.1,,-,65.0,,30.4,,Georgia,16.0,,,,10:00 PM,,,,,,15.0,,NNW,12.7,330.0,30301.0
Atlanta,Clear,1970-01-10 04:00:00,5.0,,-,64.0,,30.41,,Georgia,15.1,,,,11:00 PM,,,,,,15.0,,NNW,13.8,330.0,30301.0
Atlanta,Clear,1970-01-10 05:00:00,5.0,,-,67.0,,30.4,,Georgia,14.0,,,,12:00 AM,,,,,,15.0,,NW,9.2,320.0,30301.0
Atlanta,Clear,1970-01-10 06:00:00,3.9,,-,67.0,,30.41,,Georgia,12.9,,,,1:00 AM,,,,,,15.0,,NNW,9.2,340.0,30301.0
Atlanta,Clear,1970-01-10 07:00:00,1.9,,-,64.0,,30.43,,Georgia,12.0,,,,2:00 AM,,,,,,15.0,,NNW,12.7,330.0,30301.0
Atlanta,Clear,1970-01-10 08:00:00,1.9,,-,67.0,,30.43,,Georgia,10.9,,,,3:00 AM,,,,,,15.0,,NW,11.5,320.0,30301.0
Atlanta,Clear,1970-01-10 09:00:00,1.0,,-,67.0,,30.41,,Georgia,10.0,,,,4:00 AM,,,,,,15.0,,NNW,13.8,340.0,30301.0
Atlanta,Clear,1970-01-10 10:00:00,-0.0,,-,67.0,,30.41,,Georgia,9.0,,,,5:00 AM,,,,,,15.0,,NW,8.1,320.0,30301.0
Atlanta,Clear,1970-01-10 11:00:00,-0.0,,-,70.0,,30.41,,Georgia,8.1,,,,6:00 AM,,,,,,15.0,,NW,9.2,320.0,30301.0
Atlanta,Clear,1970-01-10 12:00:00,-0.0,,-,70.0,,30.44,,Georgia,8.1,,,,7:00 AM,,,,,,15.0,,NNW,11.5,340.0,30301.0
Atlanta,Clear,1970-01-10 13:00:00,-0.0,,-,73.0,,30.44,,Georgia,7.0,,,,8:00 AM,,,,,,15.0,,NNW,10.4,340.0,30301.0
Atlanta,Clear,1970-01-10 14:00:00,1.0,,-,67.0,,30.43,,Georgia,10.0,,,,9:00 AM,,,,,,15.0,,WNW,9.2,300.0,30301.0
Atlanta,Unknown,1970-01-10 15:00:00,1.9,,-,59.0,,30.46,,Georgia,14.0,,,,10:00 AM,,,,,,15.0,,NW,9.2,320.0,30301.0
Atlanta,Unknown,1970-01-10 16:00:00,1.9,,-,47.0,,30.46,,Georgia,19.0,,,,11:00 AM,,,,,,15.0,,West,8.1,280.0,30301.0
Atlanta,Clear,1970-01-10 17:00:00,3.0,,-,42.0,,30.44,,Georgia,23.0,,,,12:00 PM,,,,,,15.0,,WNW,9.2,290.0,30301.0
Atlanta,Clear,1970-01-10 18:00:00,3.0,,-,36.0,,30.38,,Georgia,27.0,,,,1:00 PM,,,,,,15.0,,WNW,9.2,300.0,30301.0
Atlanta,Unknown,1970-01-10 19:00:00,3.0,,-,32.0,,30.35,,Georgia,30.0,,,,2:00 PM,,,,,,15.0,,NW,8.1,310.0,30301.0
Atlanta,Unknown,1970-01-10 20:00:00,3.9,,-,32.0,,30.33,,Georgia,30.9,,,,3:00 PM,,,,,,15.0,,West,6.9,280.0,30301.0
Atlanta,Unknown,1970-01-10 21:00:00,3.9,,-,29.0,,30.3,,Georgia,33.1,,,,4:00 PM,,,,,,15.0,,WSW,5.8,240.0,30301.0
Atlanta,Unknown,1970-01-10 22:00:00,5.0,,-,33.0,,30.3,,Georgia,30.9,,,,5:00 PM,,,,,,15.0,,WNW,5.8,300.0,30301.0
Atlanta,Unknown,1970-01-10 23:00:00,6.1,,-,38.0,,30.29,,Georgia,28.9,,,,6:00 PM,,,,,,15.0,,NW,5.8,310.0,30301.0
Atlanta,Unknown,1970-01-11 00:00:00,7.0,,-,41.0,,30.29,,Georgia,28.0,,,,7:00 PM,,,,,,15.0,,NW,4.6,320.0,30301.0
Atlanta,Unknown,1970-01-11 01:00:00,7.0,,-,43.0,,30.28,,Georgia,27.0,,,,8:00 PM,,,,,,15.0,,NNW,4.6,340.0,30301.0
Atlanta,Unknown,1970-01-11 02:00:00,9.0,,-,47.0,,30.27,,Georgia,27.0,,,,9:00 PM,,,,,,15.0,,North,4.6,360.0,30301.0
Atlanta,Unknown,1970-01-11 03:00:00,10.0,,-,49.0,,30.24,,Georgia,27.0,,,,10:00 PM,,,,,,15.0,,NNE,4.6,20.0,30301.0
Atlanta,Unknown,1970-01-11 04:00:00,12.9,,-,58.0,,30.22,,Georgia,26.1,,,,11:00 PM,,,,,,15.0,,ESE,4.6,110.0,30301.0
Atlanta,Unknown,1970-01-11 05:00:00,12.9,,-,60.0,,30.18,,Georgia,25.0,,,,12:00 AM,,,,,,15.0,,SE,5.8,140.0,30301.0
Atlanta,Unknown,1970-01-11 06:00:00,9.0,,-,49.0,,30.16,,Georgia,26.1,,,,1:00 AM,,,,,,15.0,,ESE,3.5,110.0,30301.0
Atlanta,Unknown,1970-01-11 07:00:00,10.0,,-,49.0,,30.17,,Georgia,27.0,,,,2:00 AM,,,,,,15.0,,Calm,Calm,0.0,30301.0
Atlanta,Clear,1970-01-11 08:00:00,10.9,,-,57.0,,30.17,,Georgia,24.1,,,,3:00 AM,,,,,,15.0,,Calm,Calm,0.0,30301.0
Atlanta,Unknown,1970-01-11 09:00:00,10.0,,-,49.0,,30.19,,Georgia,27.0,,,,4:00 AM,,,,,,15.0,,Calm,Calm,0.0,30301.0
Atlanta,Unknown,1970-01-11 10:00:00,10.9,,-,51.0,,30.21,,Georgia,27.0,,,,5:00 AM,,,,,,15.0,,West,5.8,280.0,30301.0
Atlanta,Unknown,1970-01-11 11:00:00,12.0,,-,53.0,,30.19,,Georgia,27.0,,,,6:00 AM,,,,,,15.0,,WSW,3.5,250.0,30301.0
Atlanta,Unknown,1970-01-11 12:00:00,14.0,,-,56.0,,30.19,,Georgia,28.0,,,,7:00 AM,,,,,,15.0,,South,4.6,180.0,30301.0
Atlanta,Unknown,1970-01-11 13:00:00,14.0,,-,58.0,,30.18,,Georgia,27.0,,,,8:00 AM,,,,,,15.0,,Calm,Calm,0.0,30301.0
Atlanta,Snow Grains,1970-01-11 14:00:00,16.0,Snow,-,61.0,,30.17,,Georgia,28.0,,,,9:00 AM,,,,,,6.0,,SSE,5.8,160.0,30301.0
Atlanta,Light Freezing Rain,1970-01-11 15:00:00,17.1,Rain-Snow,-,63.0,,30.14,,Georgia,28.0,,,,10:00 AM,,,,,,6.0,,SE,9.2,130.0,30301.0
Atlanta,Light Freezing Rain,1970-01-11 16:00:00,21.0,Fog-Rain,-,72.0,0.01,30.13,,Georgia,28.9,,,,11:00 AM,,,,,,5.0,,ESE,9.2,120.0,30301.0
Atlanta,Light Freezing Drizzle,1970-01-11 17:00:00,24.1,Fog-Rain,-,79.0,0.01,30.1,,Georgia,30.0,,,,12:00 PM,,,,,,5.0,,ESE,10.4,120.0,30301.0
Atlanta,Light Freezing Rain,1970-01-11 18:00:00,27.0,Fog-Rain,-,88.0,0.01,30.04,,Georgia,30.0,,,,1:00 PM,,,,,,5.0,,SE,11.5,130.0,30301.0
Atlanta,Light Freezing Drizzle,1970-01-11 19:00:00,27.0,Fog-Rain,-,85.0,0.02,30.0,,Georgia,30.9,,,,2:00 PM,,,,,,5.0,,ESE,11.5,120.0,30301.0
Atlanta,Light Freezing Drizzle,1970-01-11 20:00:00,27.0,Fog-Rain,-,88.0,0.01,30.0,,Georgia,30.0,,,,3:00 PM,,,,,,2.0,,SE,11.5,130.0,30301.0
Atlanta,Fog,1970-01-11 21:00:00,27.0,Fog,-,88.0,,29.97,,Georgia,30.0,,,,4:00 PM,,,,,,3.0,,ESE,10.4,120.0,30301.0
Atlanta,Fog,1970-01-11 22:00:00,27.0,Fog,-,88.0,,29.97,,Georgia,30.0,,,,5:00 PM,,,,,,5.0,,East,12.7,100.0,30301.0
Atlanta,Light Freezing Drizzle,1970-01-11 23:00:00,26.1,Fog,-,89.0,,29.94,,Georgia,28.9,,,,6:00 PM,,,,,,4.0,,ESE,11.5,120.0,30301.0
Atlanta,Light Freezing Rain,1970-01-12 00:00:00,26.1,Fog-Rain,-,89.0,,29.94,,Georgia,28.9,,,,7:00 PM,,,,,,4.0,,ESE,9.2,110.0,30301.0
Atlanta,Light Freezing Rain,1970-01-12 01:00:00,27.0,Fog-Rain,-,88.0,0.03,29.94,,Georgia,30.0,,,,8:00 PM,,,,,,2.0,,ESE,11.5,120.0,30301.0
Atlanta,Light Freezing Drizzle,1970-01-12 02:00:00,28.0,Fog,-,92.0,0.03,29.94,,Georgia,30.0,,,,9:00 PM,,,,,,2.0,,ESE,10.4,120.0,30301.0
Atlanta,Light Freezing Rain,1970-01-12 03:00:00,30.0,Fog-Rain,-,96.0,0.04,29.94,,Georgia,30.9,,,,10:00 PM,,,,,,2.0,,ESE,11.5,110.0,30301.0
Atlanta,Light Freezing Rain,1970-01-12 04:00:00,30.9,Fog-Rain,-,96.0,0.03,29.94,,Georgia,32.0,,,,11:00 PM,,,,,,2.0,,East,8.1,100.0,30301.0
Atlanta,Light Freezing Drizzle,1970-01-12 05:00:00,30.9,Fog,-,92.0,0.03,29.94,,Georgia,33.1,,,,12:00 AM,,,,,,2.0,,East,8.1,90.0,30301.0
Atlanta,Light Freezing Drizzle,1970-01-12 06:00:00,30.9,Fog,-,96.0,0.01,29.91,,Georgia,32.0,,,,1:00 AM,,,,,,2.0,,East,9.2,80.0,30301.0
Atlanta,Light Drizzle,1970-01-12 07:00:00,30.9,Fog,-,96.0,,29.91,,Georgia,32.0,,,,2:00 AM,,,,,,1.0,,East,8.1,80.0,30301.0
Atlanta,Light Drizzle,1970-01-12 08:00:00,30.9,Fog,-,96.0,0.01,29.91,,Georgia,32.0,,,,3:00 AM,,,,,,1.0,,ENE,8.1,60.0,30301.0
Atlanta,Light Drizzle,1970-01-12 09:00:00,30.9,Fog,-,96.0,,29.88,,Georgia,32.0,,,,4:00 AM,,,,,,1.0,,East,6.9,80.0,30301.0
Atlanta,Fog,1970-01-12 10:00:00,30.0,Fog,-,96.0,,29.88,,Georgia,30.9,,,,5:00 AM,,,,,,1.0,,NE,5.8,40.0,30301.0
Atlanta,Fog,1970-01-12 11:00:00,30.0,Fog,-,96.0,,29.91,,Georgia,30.9,,,,6:00 AM,,,,,,5.5,,NNE,5.8,20.0,30301.0
Atlanta,Fog,1970-01-12 12:00:00,30.9,Fog,-,96.0,,29.92,,Georgia,32.0,,,,7:00 AM,,,,,,5.5,,North,5.8,360.0,30301.0
Atlanta,Fog,1970-01-12 13:00:00,30.9,Fog,-,96.0,,29.92,,Georgia,32.0,,,,8:00 AM,,,,,,0.5,,NNW,4.6,330.0,30301.0
Atlanta,Fog,1970-01-12 14:00:00,30.0,Fog,-,92.0,,29.92,,Georgia,32.0,,,,9:00 AM,,,,,,1.0,,NNW,5.8,340.0,30301.0
Atlanta,Fog,1970-01-12 15:00:00,30.0,Fog,-,92.0,,29.94,,Georgia,32.0,,,,10:00 AM,,,,,,1.0,,NW,5.8,320.0,30301.0
Atlanta,Fog,1970-01-12 16:00:00,30.0,Fog,-,89.0,,29.96,,Georgia,33.1,,,,11:00 AM,,,,,,2.0,,NW,5.8,310.0,30301.0
Atlanta,Fog,1970-01-12 17:00:00,30.9,Fog,-,89.0,,29.95,,Georgia,34.0,,,,12:00 PM,,,,,,2.0,,NNW,8.1,330.0,30301.0
Atlanta,Fog,1970-01-12 18:00:00,32.0,Fog,-,89.0,,29.94,,Georgia,35.1,,,,1:00 PM,,,,,,2.0,,NW,10.4,310.0,30301.0
Atlanta,Fog,1970-01-12 19:00:00,33.1,Fog,-,89.0,,29.93,,Georgia,36.0,,,,2:00 PM,,,,,,2.0,,NNW,11.5,330.0,30301.0
Atlanta,Fog,1970-01-12 20:00:00,33.1,Fog,-,86.0,,29.96,,Georgia,37.0,,,,3:00 PM,,,,,,2.0,,NW,11.5,310.0,30301.0
Atlanta,Fog,1970-01-12 21:00:00,34.0,Fog,-,86.0,,29.96,,Georgia,37.9,,,,4:00 PM,,,,,,4.0,,NW,11.5,310.0,30301.0
Atlanta,Fog,1970-01-12 22:00:00,34.0,Fog,-,86.0,,29.96,,Georgia,37.9,,,,5:00 PM,,,,,,5.0,,NNW,11.5,340.0,30301.0
Atlanta,Fog,1970-01-12 23:00:00,32.0,Fog,-,86.0,,29.98,,Georgia,36.0,,,,6:00 PM,,,,,,6.0,,NW,11.5,310.0,30301.0
Atlanta,Unknown,1970-01-13 00:00:00,30.9,,-,85.0,,30.02,,Georgia,35.1,,,,7:00 PM,,,,,,7.0,,NW,12.7,310.0,30301.0
Atlanta,Unknown,1970-01-13 01:00:00,30.0,,-,82.0,,30.02,,Georgia,35.1,,,,8:00 PM,,,,,,8.0,,NNW,13.8,330.0,30301.0
Atlanta,Unknown,1970-01-13 02:00:00,30.0,,-,82.0,,30.04,,Georgia,35.1,,,,9:00 PM,,,,,,10.0,,NW,11.5,320.0,30301.0
Atlanta,Unknown,1970-01-13 03:00:00,28.9,,-,85.0,,30.06,,Georgia,33.1,,,,10:00 PM,,,,,,15.0,,NW,8.1,320.0,30301.0
Atlanta,Unknown,1970-01-13 04:00:00,28.0,,-,82.0,,30.06,,Georgia,33.1,,,,11:00 PM,,,,,,15.0,,NNW,13.8,340.0,30301.0
Atlanta,Clear,1970-01-13 05:00:00,28.0,,-,85.0,,30.06,,Georgia,32.0,,,,12:00 AM,,,,,,15.0,,NNW,11.5,340.0,30301.0
Atlanta,Clear,1970-01-13 06:00:00,28.0,,-,85.0,,30.09,,Georgia,32.0,,,,1:00 AM,,,,,,10.0,,NW,9.2,320.0,30301.0
Atlanta,Unknown,1970-01-13 07:00:00,27.0,,-,85.0,,30.12,,Georgia,30.9,,,,2:00 AM,,,,,,10.0,,NNW,8.1,340.0,30301.0
Atlanta,Unknown,1970-01-13 08:00:00,27.0,,-,85.0,,30.14,,Georgia,30.9,,,,3:00 AM,,,,,,10.0,,NNW,8.1,340.0,30301.0
Atlanta,Clear,1970-01-13 09:00:00,26.1,,-,85.0,,30.14,,Georgia,30.0,,,,4:00 AM,,,,,,10.0,,NNW,8.1,340.0,30301.0
Atlanta,Unknown,1970-01-13 10:00:00,26.1,,-,85.0,,30.14,,Georgia,30.0,,,,5:00 AM,,,,,,10.0,,NNW,9.2,340.0,30301.0
Atlanta,Unknown,1970-01-13 11:00:00,26.1,,-,89.0,,30.14,,Georgia,28.9,,,,6:00 AM,,,,,,10.0,,NNW,8.1,340.0,30301.0
Atlanta,Unknown,1970-01-13 12:00:00,26.1,,-,85.0,,30.19,,Georgia,30.0,,,,7:00 AM,,,,,,8.0,,NNW,8.1,340.0,30301.0
Atlanta,Fog,1970-01-13 13:00:00,25.0,Fog,-,88.0,,30.21,,Georgia,28.0,,,,8:00 AM,,,,,,4.0,,NNW,5.8,330.0,30301.0
Atlanta,Fog,1970-01-13 14:00:00,27.0,Fog,-,85.0,,30.23,,Georgia,30.9,,,,9:00 AM,,,,,,4.0,,North,4.6,350.0,30301.0
Atlanta,Fog,1970-01-13 15:00:00,28.9,Fog,-,76.0,,30.25,,Georgia,36.0,,,,10:00 AM,,,,,,3.0,,NNE,6.9,20.0,30301.0
Atlanta,Clear,1970-01-13 16:00:00,26.1,,-,58.0,,30.28,,Georgia,39.9,,,,11:00 AM,,,,,,7.0,,East,10.4,80.0,30301.0
Atlanta,Clear,1970-01-13 17:00:00,21.9,,-,42.0,,30.28,,Georgia,44.1,,,,12:00 PM,,,,,,10.0,,ESE,9.2,120.0,30301.0
Atlanta,Clear,1970-01-13 18:00:00,19.0,,-,34.0,,30.25,,Georgia,46.0,,,,1:00 PM,,,,,,15.0,,East,10.4,100.0,30301.0
Atlanta,Clear,1970-01-13 19:00:00,16.0,,-,28.0,,30.22,,Georgia,48.0,,,,2:00 PM,,,,,,15.0,,ENE,4.6,60.0,30301.0
Atlanta,Clear,1970-01-13 20:00:00,16.0,,-,28.0,,30.22,,Georgia,48.0,,,,3:00 PM,,,,,,15.0,,SE,6.9,140.0,30301.0
Atlanta,Clear,1970-01-13 21:00:00,12.9,,-,24.0,,30.22,,Georgia,48.9,,,,4:00 PM,,,,,,15.0,,ESE,5.8,110.0,30301.0
Atlanta,Clear,1970-01-13 22:00:00,10.9,,-,23.0,,30.22,,Georgia,46.9,,,,5:00 PM,,,,,,15.0,,ENE,6.9,60.0,30301.0
Atlanta,Clear,1970-01-13 23:00:00,10.9,,-,27.0,,30.25,,Georgia,43.0,,,,6:00 PM,,,,,,15.0,,ESE,5.8,120.0,30301.0
Atlanta,Clear,1970-01-14 00:00:00,12.9,,-,32.0,,30.27,,Georgia,41.0,,,,7:00 PM,,,,,,15.0,,ESE,3.5,120.0,30301.0
Atlanta,Clear,1970-01-14 01:00:00,12.0,,-,31.0,,30.28,,Georgia,41.0,,,,8:00 PM,,,,,,10.0,,Calm,Calm,0.0,30301.0
Atlanta,Clear,1970-01-14 02:00:00,12.9,,-,34.0,,30.28,,Georgia,39.0,,,,9:00 PM,,,,,,10.0,,SSE,4.6,160.0,30301.0
Atlanta,Clear,1970-01-14 03:00:00,18.0,,-,43.0,,30.29,,Georgia,39.0,,,,10:00 PM,,,,,,10.0,,North,4.6,350.0,30301.0
Atlanta,Clear,1970-01-14 04:00:00,19.9,,-,52.0,,30.29,,Georgia,36.0,,,,11:00 PM,,,,,,10.0,,NNE,4.6,20.0,30301.0
Atlanta,Clear,1970-01-14 05:00:00,19.9,,-,52.0,,30.29,,Georgia,36.0,,,,12:00 AM,,,,,,10.0,,NNE,4.6,20.0,30301.0
Atlanta,Clear,1970-01-14 06:00:00,19.9,,-,52.0,,30.26,,Georgia,36.0,,,,1:00 AM,,,,,,10.0,,Calm,Calm,0.0,30301.0
Atlanta,Clear,1970-01-14 07:00:00,19.9,,-,56.0,,30.26,,Georgia,34.0,,,,2:00 AM,,,,,,10.0,,Calm,Calm,0.0,30301.0
Atlanta,Clear,1970-01-14 08:00:00,19.9,,-,56.0,,30.27,,Georgia,34.0,,,,3:00 AM,,,,,,10.0,,Calm,Calm,0.0,30301.0
Atlanta,Clear,1970-01-14 09:00:00,19.9,,-,69.0,,30.28,,Georgia,28.9,,,,4:00 AM,,,,,,10.0,,NNW,4.6,330.0,30301.0
Atlanta,Clear,1970-01-14 10:00:00,19.0,,-,75.0,,30.28,,Georgia,26.1,,,,5:00 AM,,,,,,10.0,,NNW,4.6,330.0,30301.0
Atlanta,Clear,1970-01-14 11:00:00,19.0,,-,75.0,,30.28,,Georgia,26.1,,,,6:00 AM,,,,,,10.0,,NW,4.6,320.0,30301.0
Atlanta,Smoke,1970-01-14 12:00:00,19.0,,-,67.0,,30.3,,Georgia,28.9,,,,7:00 AM,,,,,,6.0,,NW,4.6,320.0,30301.0
Atlanta,Smoke,1970-01-14 13:00:00,19.9,,-,75.0,,30.3,,Georgia,27.0,,,,8:00 AM,,,,,,5.0,,Calm,Calm,0.0,30301.0
Atlanta,Smoke,1970-01-14 14:00:00,25.0,,-,70.0,,30.32,,Georgia,34.0,,,,9:00 AM,,,,,,5.0,,Calm,Calm,0.0,30301.0
Atlanta,Smoke,1970-01-14 15:00:00,19.9,,-,46.0,,30.33,,Georgia,39.0,,,,10:00 AM,,,,,,6.0,,West,3.5,270.0,30301.0
Atlanta,Smoke,1970-01-14 16:00:00,19.9,,-,41.0,,30.33,,Georgia,42.1,,,,11:00 AM,,,,,,6.0,,West,3.5,270.0,30301.0
Atlanta,Smoke,1970-01-14 17:00:00,19.0,,-,33.0,,30.3,,Georgia,46.9,,,,12:00 PM,,,,,,6.0,,Calm,Calm,0.0,30301.0
Atlanta,Smoke,1970-01-14 18:00:00,15.1,,-,25.0,,30.27,,Georgia,50.0,,,,1:00 PM,,,,,,6.0,,Calm,Calm,0.0,30301.0
Atlanta,Unknown,1970-01-14 19:00:00,16.0,,-,23.0,,30.24,,Georgia,53.1,,,,2:00 PM,,,,,,8.0,,SSE,3.5,160.0,30301.0
Atlanta,Unknown,1970-01-14 20:00:00,16.0,,-,22.0,,30.2,,Georgia,54.0,,,,3:00 PM,,,,,,8.0,,North,3.5,360.0,30301.0
Atlanta,Unknown,1970-01-14 21:00:00,14.0,,-,22.0,,30.2,,Georgia,52.0,,,,4:00 PM,,,,,,8.0,,NNE,8.1,20.0,30301.0
Atlanta,Unknown,1970-01-14 22:00:00,12.9,,-,23.0,,30.22,,Georgia,50.0,,,,5:00 PM,,,,,,7.0,,North,5.8,350.0,30301.0
Atlanta,Smoke,1970-01-14 23:00:00,16.0,,-,29.0,,30.24,,Georgia,46.9,,,,6:00 PM,,,,,,6.0,,NE,3.5,50.0,30301.0
Atlanta,Smoke,1970-01-15 00:00:00,17.1,,-,33.0,,30.23,,Georgia,45.0,,,,7:00 PM,,,,,,6.0,,North,5.8,10.0,30301.0
Atlanta,Smoke,1970-01-15 01:00:00,14.0,,-,29.0,,30.22,,Georgia,45.0,,,,8:00 PM,,,,,,6.0,,NNE,5.8,20.0,30301.0
Atlanta,Smoke,1970-01-15 02:00:00,18.0,,-,38.0,,30.22,,Georgia,42.1,,,,9:00 PM,,,,,,6.0,,East,6.9,100.0,30301.0
Atlanta,Unknown,1970-01-15 03:00:00,16.0,,-,36.0,,30.22,,Georgia,41.0,,,,10:00 PM,,,,,,7.0,,Calm,Calm,0.0,30301.0
Atlanta,Unknown,1970-01-15 04:00:00,16.0,,-,38.0,,30.23,,Georgia,39.9,,,,11:00 PM,,,,,,7.0,,ESE,3.5,110.0,30301.0
Atlanta,Unknown,1970-01-15 05:00:00,16.0,,-,38.0,,30.23,,Georgia,39.9,,,,12:00 AM,,,,,,7.0,,Calm,Calm,0.0,30301.0
Atlanta,Unknown,1970-01-15 06:00:00,16.0,,-,38.0,,30.2,,Georgia,39.9,,,,1:00 AM,,,,,,7.0,,Calm,Calm,0.0,30301.0
Atlanta,Unknown,1970-01-15 07:00:00,16.0,,-,39.0,,30.19,,Georgia,39.0,,,,2:00 AM,,,,,,7.0,,Calm,Calm,0.0,30301.0
Atlanta,Unknown,1970-01-15 08:00:00,16.0,,-,39.0,,30.19,,Georgia,39.0,,,,3:00 AM,,,,,,7.0,,Calm,Calm,0.0,30301.0
Atlanta,Unknown,1970-01-15 09:00:00,18.0,,-,43.0,,30.19,,Georgia,39.0,,,,4:00 AM,,,,,,7.0,,Calm,Calm,0.0,30301.0
Atlanta,Unknown,1970-01-15 10:00:00,18.0,,-,41.0,,30.17,,Georgia,39.9,,,,5:00 AM,,,,,,7.0,,ENE,5.8,70.0,30301.0
Atlanta,Unknown,1970-01-15 11:00:00,18.0,,-,41.0,,30.17,,Georgia,39.9,,,,6:00 AM,,,,,,7.0,,ENE,6.9,70.0,30301.0
Atlanta,Unknown,1970-01-15 12:00:00,16.0,,-,36.0,,30.19,,Georgia,41.0,,,,7:00 AM,,,,,,7.0,,ENE,6.9,70.0,30301.0
Atlanta,Unknown,1970-01-15 13:00:00,17.1,,-,41.0,,30.21,,Georgia,39.0,,,,8:00 AM,,,,,,7.0,,East,6.9,100.0,30301.0
Atlanta,Unknown,1970-01-15 14:00:00,19.9,,-,46.0,,30.21,,Georgia,39.0,,,,9:00 AM,,,,,,15.0,,SSE,3.5,160.0,30301.0
Atlanta,Unknown,1970-01-15 15:00:00,19.9,,-,40.0,,30.23,,Georgia,43.0,,,,10:00 AM,,,,,,15.0,,East,5.8,80.0,30301.0
Atlanta,Unknown,1970-01-15 16:00:00,21.0,,-,40.0,,30.25,,Georgia,44.1,,,,11:00 AM,,,,,,15.0,,East,6.9,80.0,30301.0
Atlanta,Unknown,1970-01-15 17:00:00,21.0,,-,37.0,,30.23,,Georgia,46.0,,,,12:00 PM,,,,,,15.0,,SE,5.8,130.0,30301.0
Atlanta,Light Rain,1970-01-15 18:00:00,26.1,Rain,-,46.0,,30.19,,Georgia,46.0,,,,1:00 PM,,,,,,10.0,,East,6.9,80.0,30301.0
Atlanta,Light Rain,1970-01-15 19:00:00,28.9,Rain,-,50.0,,30.17,,Georgia,46.9,,,,2:00 PM,,,,,,10.0,,East,8.1,100.0,30301.0
Atlanta,Light Rain,1970-01-15 20:00:00,30.9,Rain,-,54.0,,30.17,,Georgia,46.9,,,,3:00 PM,,,,,,10.0,,ESE,5.8,110.0,30301.0
Atlanta,Unknown,1970-01-15 21:00:00,30.9,,-,54.0,,30.16,,Georgia,46.9,,,,4:00 PM,,,,,,10.0,,ESE,9.2,120.0,30301.0
Atlanta,Unknown,1970-01-15 22:00:00,30.9,,-,52.0,,30.17,,Georgia,48.0,,,,5:00 PM,,,,,,10.0,,ENE,5.8,60.0,30301.0
Atlanta,Unknown,1970-01-15 23:00:00,28.0,,-,48.0,,30.17,,Georgia,46.9,,,,6:00 PM,,,,,,10.0,,ENE,8.1,70.0,30301.0
Atlanta,Unknown,1970-01-16 00:00:00,27.0,,-,46.0,,30.2,,Georgia,46.9,,,,7:00 PM,,,,,,10.0,,NE,8.1,40.0,30301.0
Atlanta,Unknown,1970-01-16 01:00:00,26.1,,-,44.0,,30.21,,Georgia,46.9,,,,8:00 PM,,,,,,10.0,,NE,8.1,40.0,30301.0
Atlanta,Unknown,1970-01-16 02:00:00,25.0,,-,44.0,,30.19,,Georgia,46.0,,,,9:00 PM,,,,,,10.0,,East,10.4,80.0,30301.0
Atlanta,Clear,1970-01-16 03:00:00,24.1,,-,45.0,,30.2,,Georgia,44.1,,,,10:00 PM,,,,,,10.0,,East,9.2,80.0,30301.0
Atlanta,Clear,1970-01-16 04:00:00,24.1,,-,51.0,,30.2,,Georgia,41.0,,,,11:00 PM,,,,,,10.0,,East,9.2,100.0,30301.0
Atlanta,Clear,1970-01-16 05:00:00,23.0,,-,53.0,,30.21,,Georgia,39.0,,,,12:00 AM,,,,,,10.0,,East,8.1,100.0,30301.0
Atlanta,Clear,1970-01-16 06:00:00,23.0,,-,57.0,,30.23,,Georgia,37.0,,,,1:00 AM,,,,,,10.0,,East,8.1,100.0,30301.0
Atlanta,Clear,1970-01-16 07:00:00,23.0,,-,57.0,,30.23,,Georgia,37.0,,,,2:00 AM,,,,,,10.0,,East,8.1,80.0,30301.0
Atlanta,Clear,1970-01-16 08:00:00,23.0,,-,57.0,,30.23,,Georgia,37.0,,,,3:00 AM,,,,,,10.0,,ENE,10.4,70.0,30301.0
Atlanta,Clear,1970-01-16 09:00:00,23.0,,-,57.0,,30.21,,Georgia,37.0,,,,4:00 AM,,,,,,10.0,,ENE,11.5,70.0,30301.0
Atlanta,Clear,1970-01-16 10:00:00,23.0,,-,57.0,,30.22,,Georgia,37.0,,,,5:00 AM,,,,,,10.0,,East,8.1,90.0,30301.0
Atlanta,Clear,1970-01-16 11:00:00,23.0,,-,57.0,,30.23,,Georgia,37.0,,,,6:00 AM,,,,,,10.0,,East,11.5,80.0,30301.0
Atlanta,Unknown,1970-01-16 12:00:00,23.0,,-,55.0,,30.25,,Georgia,37.9,,,,7:00 AM,,,,,,10.0,,East,11.5,80.0,30301.0
Atlanta,Unknown,1970-01-16 13:00:00,23.0,,-,57.0,,30.27,,Georgia,37.0,,,,8:00 AM,,,,,,10.0,,East,10.4,80.0,30301.0
Atlanta,Unknown,1970-01-16 14:00:00,24.1,,-,57.0,,30.29,,Georgia,37.9,,,,9:00 AM,,,,,,10.0,,East,10.4,80.0,30301.0
Atlanta,Unknown,1970-01-16 15:00:00,23.0,,-,51.0,,30.3,,Georgia,39.9,,,,10:00 AM,,,,,,10.0,,East,11.5,80.0,30301.0
Atlanta,Unknown,1970-01-16 16:00:00,21.0,,-,40.0,,30.31,,Georgia,44.1,,,,11:00 AM,,,,,,10.0,,ENE,10.4,70.0,30301.0
Atlanta,Unknown,1970-01-16 17:00:00,23.0,,-,36.0,,30.29,,Georgia,48.9,,,,12:00 PM,,,,,,10.0,,ENE,15.0,70.0,30301.0
Atlanta,Unknown,1970-01-16 18:00:00,21.0,,-,31.0,,30.24,,Georgia,51.1,,,,1:00 PM,,,,,,15.0,,ENE,13.8,70.0,30301.0
Atlanta,Unknown,1970-01-16 19:00:00,21.9,,-,29.0,,30.19,,Georgia,54.0,,,,2:00 PM,,,,,,15.0,,East,12.7,80.0,30301.0
Atlanta,Unknown,1970-01-16 20:00:00,21.9,,-,29.0,,30.18,,Georgia,54.0,,,,3:00 PM,,,,,,15.0,,ENE,12.7,70.0,30301.0
Atlanta,Unknown,1970-01-16 21:00:00,24.1,,-,32.0,,30.17,,Georgia,53.1,,,,4:00 PM,,,,,,15.0,,East,9.2,100.0,30301.0
Atlanta,Unknown,1970-01-16 22:00:00,25.0,,-,35.0,,30.15,,Georgia,52.0,,,,5:00 PM,,,,,,15.0,,East,12.7,90.0,30301.0
Atlanta,Unknown,1970-01-16 23:00:00,25.0,,-,36.0,,30.17,,Georgia,51.1,,,,6:00 PM,,,,,,10.0,,East,12.7,80.0,30301.0
Atlanta,Unknown,1970-01-17 00:00:00,25.0,,-,38.0,,30.17,,Georgia,50.0,,,,7:00 PM,,,,,,10.0,,NE,9.2,50.0,30301.0
Atlanta,Unknown,1970-01-17 01:00:00,24.1,,-,36.0,,30.17,,Georgia,50.0,,,,8:00 PM,,,,,,10.0,,East,9.2,80.0,30301.0
Atlanta,Light Rain,1970-01-17 02:00:00,27.0,Rain,-,43.0,,30.17,,Georgia,48.9,,,,9:00 PM,,,,,,5.0,,ENE,11.5,70.0,30301.0
Atlanta,Light Rain,1970-01-17 03:00:00,25.0,Rain,-,39.0,,30.16,,Georgia,48.9,,,,10:00 PM,,,,,,7.0,,East,11.5,80.0,30301.0
Atlanta,Light Rain,1970-01-17 04:00:00,28.9,Rain,-,51.0,,30.16,,Georgia,46.0,,,,11:00 PM,,,,,,7.0,,East,10.4,80.0,30301.0
Atlanta,Unknown,1970-01-17 05:00:00,28.9,,-,53.0,0.02,30.15,,Georgia,45.0,,,,12:00 AM,,,,,,7.0,,East,9.2,90.0,30301.0
Atlanta,Light Rain,1970-01-17 06:00:00,30.0,Rain,-,58.0,0.01,30.13,,Georgia,44.1,,,,1:00 AM,,,,,,7.0,,East,10.4,80.0,30301.0
Atlanta,Unknown,1970-01-17 07:00:00,30.0,,-,60.0,0.01,30.11,,Georgia,43.0,,,,2:00 AM,,,,,,9.0,,East,12.7,90.0,30301.0
Atlanta,Light Rain,1970-01-17 08:00:00,35.1,Rain,-,79.0,0.01,30.07,,Georgia,41.0,,,,3:00 AM,,,,,,5.0,,East,13.8,80.0,30301.0
Atlanta,Light Rain,1970-01-17 09:00:00,35.1,Rain,-,79.0,,30.07,,Georgia,41.0,,,,4:00 AM,,,,,,5.0,,East,13.8,80.0,30301.0
Atlanta,Unknown,1970-01-17 10:00:00,35.1,,-,79.0,0.01,30.05,,Georgia,41.0,,,,5:00 AM,,,,,,8.0,,East,12.7,90.0,30301.0
Atlanta,Light Rain,1970-01-17 11:00:00,36.0,Rain,-,82.0,0.01,30.04,,Georgia,41.0,,,,6:00 AM,,,,,,4.0,,East,12.7,80.0,30301.0
Atlanta,Light Rain,1970-01-17 12:00:00,37.0,Rain,-,86.0,0.03,30.03,,Georgia,41.0,,,,7:00 AM,,,,,,3.0,,East,6.9,80.0,30301.0
Atlanta,Light Rain,1970-01-17 13:00:00,37.9,Fog-Rain,-,89.0,0.01,30.03,,Georgia,41.0,,,,8:00 AM,,,,,,2.0,,ENE,13.8,60.0,30301.0
Atlanta,Light Rain,1970-01-17 14:00:00,37.9,Fog-Rain,-,89.0,0.1,30.01,,Georgia,41.0,,,,9:00 AM,,,,,,1.0,,ENE,9.2,70.0,30301.0
Atlanta,Light Rain,1970-01-17 15:00:00,39.0,Fog-Rain,-,93.0,0.11,30.03,,Georgia,41.0,,,,10:00 AM,,,,,,1.0,,ENE,8.1,70.0,30301.0
Atlanta,Light Rain,1970-01-17 16:00:00,39.9,Fog-Rain,-,92.0,0.03,30.03,,Georgia,42.1,,,,11:00 AM,,,,,,1.0,,East,8.1,90.0,30301.0
Atlanta,Fog,1970-01-17 17:00:00,41.0,Fog,-,89.0,0.01,29.99,,Georgia,44.1,,,,12:00 PM,,,,,,1.0,,East,8.1,80.0,30301.0
Atlanta,Fog,1970-01-17 18:00:00,41.0,Fog,-,89.0,,29.95,,Georgia,44.1,,,,1:00 PM,,,,,,1.0,,ENE,8.1,70.0,30301.0
Atlanta,Light Rain,1970-01-17 19:00:00,44.1,Fog-Rain,-,90.0,,29.89,,Georgia,46.9,,,,2:00 PM,,,,,,0.8,,ENE,5.8,70.0,30301.0
Atlanta,Light Drizzle,1970-01-17 20:00:00,45.0,Fog,-,93.0,,29.86,,Georgia,46.9,,,,3:00 PM,,,,,,5.5,,ENE,6.9,70.0,30301.0
Atlanta,Fog,1970-01-17 21:00:00,44.1,Fog,-,90.0,,29.86,,Georgia,46.9,,,,4:00 PM,,,,,,5.5,,ENE,6.9,70.0,30301.0
Atlanta,Fog,1970-01-17 22:00:00,44.1,Fog,-,90.0,,29.85,,Georgia,46.9,,,,5:00 PM,,,,,,5.5,,East,6.9,100.0,30301.0
Atlanta,Fog,1970-01-17 23:00:00,44.1,Fog,-,90.0,,29.86,,Georgia,46.9,,,,6:00 PM,,,,,,5.5,,NNE,3.5,20.0,30301.0
Atlanta,Light Drizzle,1970-01-18 00:00:00,45.0,Fog,-,93.0,,29.86,,Georgia,46.9,,,,7:00 PM,,,,,,1.0,,North,4.6,360.0,30301.0
Atlanta,Light Drizzle,1970-01-18 01:00:00,45.0,Fog,-,96.0,,29.88,,Georgia,46.0,,,,8:00 PM,,,,,,1.0,,Calm,Calm,0.0,30301.0
Atlanta,Fog,1970-01-18 02:00:00,44.1,Fog,-,97.0,,29.83,,Georgia,45.0,,,,9:00 PM,,,,,,0.2,,East,6.9,90.0,30301.0
Atlanta,Fog,1970-01-18 03:00:00,44.1,Fog,-,93.0,,29.85,,Georgia,46.0,,,,10:00 PM,,,,,,1.0,,North,2.3,10.0,30301.0
Atlanta,Light Drizzle,1970-01-18 04:00:00,44.1,Fog,-,93.0,,29.85,,Georgia,46.0,,,,11:00 PM,,,,,,5.5,,Calm,Calm,0.0,30301.0
Atlanta,Light Drizzle,1970-01-18 05:00:00,45.0,Fog,-,96.0,,29.84,,Georgia,46.0,,,,12:00 AM,,,,,,1.0,,Calm,Calm,0.0,30301.0
Atlanta,Fog,1970-01-18 06:00:00,44.1,Fog,-,93.0,,29.82,,Georgia,46.0,,,,1:00 AM,,,,,,0.5,,Calm,Calm,0.0,30301.0
Atlanta,Fog,1970-01-18 07:00:00,44.1,Fog,-,93.0,,29.82,,Georgia,46.0,,,,2:00 AM,,,,,,0.5,,Calm,Calm,0.0,30301.0
Atlanta,Fog,1970-01-18 08:00:00,43.0,Fog,-,93.0,,29.79,,Georgia,45.0,,,,3:00 AM,,,,,,0.5,,WNW,3.5,290.0,30301.0
Atlanta,Fog,1970-01-18 09:00:00,44.1,Fog,-,97.0,,29.8,,Georgia,45.0,,,,4:00 AM,,,,,,0.2,,NW,4.6,310.0,30301.0
Atlanta,Fog,1970-01-18 10:00:00,44.1,Fog,-,97.0,,29.8,,Georgia,45.0,,,,5:00 AM,,,,,,0.1,,WNW,6.9,290.0,30301.0
Atlanta,Fog,1970-01-18 11:00:00,44.1,Fog,-,93.0,,29.81,,Georgia,46.0,,,,6:00 AM,,,,,,0.2,,NW,6.9,320.0,30301.0
Atlanta,Light Drizzle,1970-01-18 12:00:00,44.1,Fog,-,93.0,,29.82,,Georgia,46.0,,,,7:00 AM,,,,,,1.0,,NNW,10.4,330.0,30301.0
Atlanta,Light Drizzle,1970-01-18 13:00:00,45.0,Fog,-,96.0,,29.84,,Georgia,46.0,,,,8:00 AM,,,,,,1.0,,NW,9.2,320.0,30301.0
Atlanta,Fog,1970-01-18 14:00:00,44.1,Fog,-,93.0,,29.84,,Georgia,46.0,,,,9:00 AM,,,,,,4.0,,NNW,11.5,330.0,30301.0
Atlanta,Unknown,1970-01-18 15:00:00,44.1,,-,86.0,,29.84,,Georgia,48.0,,,,10:00 AM,,,,,,8.0,,NNW,9.2,330.0,30301.0
Atlanta,Unknown,1970-01-18 16:00:00,45.0,,-,83.0,,29.86,,Georgia,50.0,,,,11:00 AM,,,,,,8.0,,NW,12.7,310.0,30301.0
Atlanta,Unknown,1970-01-18 17:00:00,45.0,,-,77.0,,29.86,,Georgia,52.0,,,,12:00 PM,,,,,,10.0,,NW,10.4,320.0,30301.0
Atlanta,Unknown,1970-01-18 18:00:00,45.0,,-,72.0,,29.84,,Georgia,54.0,,,,1:00 PM,,,,,,10.0,,NW,9.2,320.0,30301.0
Atlanta,Unknown,1970-01-18 19:00:00,44.1,,-,77.0,,29.81,,Georgia,51.1,,,,2:00 PM,,,,,,10.0,,NW,12.7,320.0,30301.0
Atlanta,Unknown,1970-01-18 20:00:00,44.1,,-,74.0,,29.81,,Georgia,52.0,,,,3:00 PM,,,,,,15.0,,NW,11.5,320.0,30301.0
Atlanta,Unknown,1970-01-18 21:00:00,44.1,,-,71.0,,29.81,,Georgia,53.1,,,,4:00 PM,,,,,,15.0,,NW,11.5,320.0,30301.0
Atlanta,Unknown,1970-01-18 22:00:00,42.1,,-,71.0,,29.84,,Georgia,51.1,,,,5:00 PM,,,,,,15.0,,NW,17.3,320.0,30301.0
Atlanta,Unknown,1970-01-18 23:00:00,41.0,,-,74.0,,29.86,,Georgia,48.9,,,,6:00 PM,,,,,,15.0,,NW,11.5,320.0,30301.0
Atlanta,Clear,1970-01-19 00:00:00,42.1,,-,83.0,,29.88,,Georgia,46.9,,,,7:00 PM,,,,,,10.0,,NW,10.4,320.0,30301.0
Atlanta,Clear,1970-01-19 01:00:00,41.0,,-,80.0,,29.89,,Georgia,46.9,,,,8:00 PM,,,,,,10.0,,NW,11.5,320.0,30301.0
Atlanta,Clear,1970-01-19 02:00:00,39.9,,-,82.0,,29.89,,Georgia,45.0,,,,9:00 PM,,,,,,10.0,,NW,13.8,320.0,30301.0
Atlanta,Clear,1970-01-19 03:00:00,39.0,,-,86.0,,29.9,,Georgia,43.0,,,,10:00 PM,,,,,,10.0,,NW,8.1,320.0,30301.0
Atlanta,Clear,1970-01-19 04:00:00,37.0,,-,86.0,,29.93,,Georgia,41.0,,,,11:00 PM,,,,,,10.0,,NW,9.2,320.0,30301.0
Atlanta,Unknown,1970-01-19 05:00:00,36.0,,-,86.0,,29.93,,Georgia,39.9,,,,12:00 AM,,,,,,8.0,,NW,10.4,310.0,30301.0
Atlanta,Unknown,1970-01-19 06:00:00,35.1,,-,86.0,,29.94,,Georgia,39.0,,,,1:00 AM,,,,,,8.0,,NW,11.5,320.0,30301.0
Atlanta,Unknown,1970-01-19 07:00:00,35.1,,-,86.0,,29.93,,Georgia,39.0,,,,2:00 AM,,,,,,7.0,,North,9.2,350.0,30301.0
Atlanta,Fog,1970-01-19 08:00:00,34.0,Fog,-,89.0,,29.95,,Georgia,37.0,,,,3:00 AM,,,,,,6.0,,North,10.4,350.0,30301.0
Atlanta,Fog,1970-01-19 09:00:00,33.1,Fog,-,89.0,,29.95,,Georgia,36.0,,,,4:00 AM,,,,,,4.0,,NW,9.2,320.0,30301.0
Atlanta,Fog,1970-01-19 10:00:00,32.0,Fog,-,89.0,,29.95,,Georgia,35.1,,,,5:00 AM,,,,,,1.0,,NW,10.4,320.0,30301.0
Atlanta,Fog,1970-01-19 11:00:00,32.0,Fog,-,92.0,,29.96,,Georgia,34.0,,,,6:00 AM,,,,,,1.0,,NW,11.5,320.0,30301.0
Atlanta,Fog,1970-01-19 12:00:00,32.0,Fog,-,92.0,,29.98,,Georgia,34.0,,,,7:00 AM,,,,,,1.0,,NW,9.2,310.0,30301.0
Atlanta,Fog,1970-01-19 13:00:00,32.0,Fog,-,92.0,,29.98,,Georgia,34.0,,,,8:00 AM,,,,,,2.0,,NW,11.5,320.0,30301.0
Atlanta,Fog,1970-01-19 14:00:00,32.0,Fog,-,96.0,,30.0,,Georgia,33.1,,,,9:00 AM,,,,,,1.0,,NW,8.1,320.0,30301.0
Atlanta,Fog,1970-01-19 15:00:00,32.0,Fog,-,89.0,,30.04,,Georgia,35.1,,,,10:00 AM,,,,,,2.0,,NNW,11.5,330.0,30301.0
Atlanta,Smoke,1970-01-19 16:00:00,30.9,,-,79.0,,30.05,,Georgia,37.0,,,,11:00 AM,,,,,,3.0,,NW,9.2,310.0,30301.0
Atlanta,Smoke,1970-01-19 17:00:00,30.9,,-,73.0,,30.04,,Georgia,39.0,,,,12:00 PM,,,,,,6.0,,NW,13.8,310.0,30301.0
Atlanta,Light Rain,1970-01-19 18:00:00,30.9,Rain,-,73.0,,30.01,,Georgia,39.0,,,,1:00 PM,,,,,,6.0,,NW,11.5,310.0,30301.0
Atlanta,Light Rain,1970-01-19 19:00:00,34.0,Rain,-,86.0,,29.99,,Georgia,37.9,,,,2:00 PM,,,,,,6.0,,WNW,11.5,300.0,30301.0
Atlanta,Light Rain,1970-01-19 20:00:00,33.1,Fog-Rain,-,89.0,0.07,29.99,,Georgia,36.0,,,,3:00 PM,,,,,,5.5,,WNW,12.7,290.0,30301.0
Atlanta,Light Rain,1970-01-19 21:00:00,34.0,Fog-Rain,-,89.0,0.07,29.99,,Georgia,37.0,,,,4:00 PM,,,,,,1.0,,NW,9.2,320.0,30301.0
Atlanta,Light Rain,1970-01-19 22:00:00,32.0,Fog-Rain,-,86.0,0.03,30.01,,Georgia,36.0,,,,5:00 PM,,,,,,1.0,,WNW,12.7,300.0,30301.0
Atlanta,Light Rain,1970-01-19 23:00:00,33.1,Fog-Rain,-,89.0,0.04,30.02,,Georgia,36.0,,,,6:00 PM,,,,,,1.0,,NW,9.2,310.0,30301.0
Atlanta,Light Drizzle,1970-01-20 00:00:00,32.0,Fog,-,89.0,,30.03,,Georgia,35.1,,,,7:00 PM,,,,,,1.0,,NW,10.4,310.0,30301.0
Atlanta,Light Drizzle,1970-01-20 01:00:00,30.9,Fog,-,89.0,,30.04,,Georgia,34.0,,,,8:00 PM,,,,,,2.0,,NW,11.5,310.0,30301.0
Atlanta,Fog,1970-01-20 02:00:00,30.9,Fog,-,89.0,,30.03,,Georgia,34.0,,,,9:00 PM,,,,,,2.0,,NW,8.1,310.0,30301.0
Atlanta,Fog,1970-01-20 03:00:00,30.0,Fog,-,89.0,,30.02,,Georgia,33.1,,,,10:00 PM,,,,,,10.5,,WNW,6.9,290.0,30301.0
Atlanta,Fog,1970-01-20 04:00:00,28.9,Fog,-,88.0,,30.04,,Georgia,32.0,,,,11:00 PM,,,,,,5.5,,WNW,8.1,290.0,30301.0
Atlanta,Fog,1970-01-20 05:00:00,28.9,Fog,-,88.0,,30.04,,Georgia,32.0,,,,12:00 AM,,,,,,4.0,,WNW,5.8,300.0,30301.0
Atlanta,Fog,1970-01-20 06:00:00,28.9,Fog,-,88.0,,30.02,,Georgia,32.0,,,,1:00 AM,,,,,,4.0,,NW,9.2,320.0,30301.0
Atlanta,Unknown,1970-01-20 07:00:00,27.0,,-,82.0,,30.0,,Georgia,32.0,,,,2:00 AM,,,,,,7.0,,WNW,5.8,290.0,30301.0
Atlanta,Unknown,1970-01-20 08:00:00,27.0,,-,82.0,,30.03,,Georgia,32.0,,,,3:00 AM,,,,,,7.0,,WNW,8.1,290.0,30301.0
Atlanta,Unknown,1970-01-20 09:00:00,27.0,,-,82.0,,30.01,,Georgia,32.0,,,,4:00 AM,,,,,,7.0,,WNW,6.9,300.0,30301.0
Atlanta,Unknown,1970-01-20 10:00:00,28.0,,-,85.0,,30.01,,Georgia,32.0,,,,5:00 AM,,,,,,7.0,,WNW,8.1,290.0,30301.0
Atlanta,Unknown,1970-01-20 11:00:00,27.0,,-,82.0,,30.0,,Georgia,32.0,,,,6:00 AM,,,,,,7.0,,WNW,5.8,290.0,30301.0
Atlanta,Unknown,1970-01-20 12:00:00,27.0,,-,82.0,,30.02,,Georgia,32.0,,,,7:00 AM,,,,,,7.0,,WNW,6.9,290.0,30301.0
Atlanta,Fog,1970-01-20 13:00:00,28.0,Fog,-,85.0,,30.04,,Georgia,32.0,,,,8:00 AM,,,,,,3.0,,WNW,8.1,290.0,30301.0
Atlanta,Light Snow Showers,1970-01-20 14:00:00,28.9,Fog-Snow,-,88.0,,30.06,,Georgia,32.0,,,,9:00 AM,,,,,,5.5,,West,8.1,280.0,30301.0
Atlanta,Light Snow,1970-01-20 15:00:00,30.0,Fog-Snow,-,89.0,,30.06,,Georgia,33.1,,,,10:00 AM,,,,,,5.5,,WNW,9.2,290.0,30301.0
Atlanta,Light Snow,1970-01-20 16:00:00,28.9,Snow,-,82.0,,30.06,,Georgia,34.0,,,,11:00 AM,,,,,,5.0,,NW,12.7,310.0,30301.0
Atlanta,Light Snow,1970-01-20 17:00:00,27.0,Snow,-,75.0,,30.06,,Georgia,34.0,,,,12:00 PM,,,,,,6.0,,WNW,12.7,300.0,30301.0
Atlanta,Unknown,1970-01-20 18:00:00,26.1,,-,70.0,,30.03,,Georgia,35.1,,,,1:00 PM,,,,,,7.0,,WNW,13.8,290.0,30301.0
Atlanta,Unknown,1970-01-20 19:00:00,25.0,,-,70.0,,30.0,,Georgia,34.0,,,,2:00 PM,,,,,,8.0,,West,15.0,270.0,30301.0
Atlanta,Unknown,1970-01-20 20:00:00,26.1,,-,73.0,,30.01,,Georgia,34.0,,,,3:00 PM,,,,,,8.0,,WNW,15.0,290.0,30301.0
Atlanta,Unknown,1970-01-20 21:00:00,26.1,,-,73.0,,30.02,,Georgia,34.0,,,,4:00 PM,,,,,,8.0,,WNW,15.0,290.0,30301.0
Atlanta,Unknown,1970-01-20 22:00:00,25.0,,-,72.0,,30.05,,Georgia,33.1,,,,5:00 PM,,,,,,7.0,,WNW,11.5,290.0,30301.0
Atlanta,Unknown,1970-01-20 23:00:00,23.0,,-,69.0,,30.07,,Georgia,32.0,,,,6:00 PM,,,,,,10.0,,WNW,16.1,300.0,30301.0
Atlanta,Unknown,1970-01-21 00:00:00,21.0,,-,67.0,,30.1,,Georgia,30.9,,,,7:00 PM,,,,,,10.0,,WNW,15.0,300.0,30301.0
Atlanta,Unknown,1970-01-21 01:00:00,19.9,,-,69.0,,30.11,,Georgia,28.9,,,,8:00 PM,,,,,,10.0,,NW,15.0,310.0,30301.0
Atlanta,Unknown,1970-01-21 02:00:00,19.9,,-,69.0,,30.13,,Georgia,28.9,,,,9:00 PM,,,,,,10.0,,NW,17.3,310.0,30301.0
Atlanta,Unknown,1970-01-21 03:00:00,18.0,,-,64.0,,30.14,,Georgia,28.9,,,,10:00 PM,,,,,,15.0,,NNW,17.3,330.0,30301.0
Atlanta,Unknown,1970-01-21 04:00:00,15.1,,-,58.0,,30.16,,Georgia,28.0,,,,11:00 PM,,,,,,15.0,,NW,18.4,310.0,30301.0
Atlanta,Unknown,1970-01-21 05:00:00,14.0,,-,60.0,,30.19,,Georgia,26.1,,,,12:00 AM,,,,,,15.0,,NW,16.1,320.0,30301.0
Atlanta,Clear,1970-01-21 06:00:00,10.9,,-,57.0,,30.18,,Georgia,24.1,,,,1:00 AM,,,,,,15.0,,NNW,16.1,330.0,30301.0
Atlanta,Clear,1970-01-21 07:00:00,9.0,,-,58.0,,30.19,,Georgia,21.9,,,,2:00 AM,,,,,,15.0,,NNW,15.0,340.0,30301.0
Atlanta,Clear,1970-01-21 08:00:00,6.1,,-,55.0,,30.24,,Georgia,19.9,,,,3:00 AM,,,,,,15.0,,NNW,13.8,340.0,30301.0
Atlanta,Clear,1970-01-21 09:00:00,1.0,,-,48.0,,30.24,,Georgia,18.0,,,,4:00 AM,,,,,,15.0,,NNW,13.8,330.0,30301.0
Atlanta,Clear,1970-01-21 10:00:00,1.0,,-,52.0,,30.27,,Georgia,16.0,,,,5:00 AM,,,,,,15.0,,NNW,13.8,340.0,30301.0
Atlanta,Clear,1970-01-21 11:00:00,-0.0,,-,51.0,,30.27,,Georgia,15.1,,,,6:00 AM,,,,,,15.0,,NW,15.0,310.0,30301.0
Atlanta,Clear,1970-01-21 12:00:00,1.0,,-,59.0,,30.31,,Georgia,12.9,,,,7:00 AM,,,,,,15.0,,NNW,13.8,330.0,30301.0
Atlanta,Unknown,1970-01-21 13:00:00,-0.0,,-,56.0,,30.34,,Georgia,12.9,,,,8:00 AM,,,,,,15.0,,NNW,13.8,340.0,30301.0
Atlanta,Unknown,1970-01-21 14:00:00,1.0,,-,56.0,,30.37,,Georgia,14.0,,,,9:00 AM,,,,,,15.0,,NNW,15.0,330.0,30301.0
Atlanta,Unknown,1970-01-21 15:00:00,-0.0,,-,47.0,,30.38,,Georgia,17.1,,,,10:00 AM,,,,,,15.0,,North,16.1,350.0,30301.0
Atlanta,Unknown,1970-01-21 16:00:00,-0.0,,-,47.0,,30.41,,Georgia,17.1,,,,11:00 AM,,,,,,15.0,,NNW,12.7,340.0,30301.0
Atlanta,Unknown,1970-01-21 17:00:00,1.0,,-,44.0,,30.42,,Georgia,19.9,,,,12:00 PM,,,,,,15.0,,NNW,13.8,330.0,30301.0
Atlanta,Unknown,1970-01-21 18:00:00,-0.0,,-,40.0,,30.41,,Georgia,21.0,,,,1:00 PM,,,,,,15.0,,North,10.4,360.0,30301.0
Atlanta,Unknown,1970-01-21 19:00:00,1.9,,-,37.0,,30.38,,Georgia,25.0,,,,2:00 PM,,,,,,15.0,,NNW,12.7,340.0,30301.0
Atlanta,Unknown,1970-01-21 20:00:00,1.9,,-,35.0,,30.37,,Georgia,26.1,,,,3:00 PM,,,,,,15.0,,NW,9.2,320.0,30301.0
Atlanta,Clear,1970-01-21 21:00:00,-0.0,,-,32.0,,30.35,,Georgia,26.1,,,,4:00 PM,,,,,,15.0,,North,6.9,360.0,30301.0
Atlanta,Clear,1970-01-21 22:00:00,-0.9,,-,31.0,,30.36,,Georgia,26.1,,,,5:00 PM,,,,,,15.0,,NNW,10.4,340.0,30301.0
Atlanta,Clear,1970-01-21 23:00:00,-0.0,,-,34.0,,30.37,,Georgia,25.0,,,,6:00 PM,,,,,,15.0,,NNW,11.5,340.0,30301.0
Atlanta,Clear,1970-01-22 00:00:00,-0.0,,-,35.0,,30.36,,Georgia,24.1,,,,7:00 PM,,,,,,15.0,,NNW,11.5,340.0,30301.0
Atlanta,Clear,1970-01-22 01:00:00,-0.0,,-,40.0,,30.37,,Georgia,21.0,,,,8:00 PM,,,,,,15.0,,NNW,8.1,330.0,30301.0
Atlanta,Clear,1970-01-22 02:00:00,-0.0,,-,42.0,,30.37,,Georgia,19.9,,,,9:00 PM,,,,,,15.0,,NNW,9.2,340.0,30301.0
Atlanta,Clear,1970-01-22 03:00:00,-0.0,,-,45.0,,30.37,,Georgia,18.0,,,,10:00 PM,,,,,,15.0,,NW,11.5,320.0,30301.0
Atlanta,Unknown,1970-01-22 04:00:00,-0.0,,-,47.0,,30.38,,Georgia,17.1,,,,11:00 PM,,,,,,15.0,,NNW,8.1,330.0,30301.0
Atlanta,Unknown,1970-01-22 05:00:00,-0.9,,-,47.0,,30.36,,Georgia,16.0,,,,12:00 AM,,,,,,15.0,,NNW,11.5,330.0,30301.0
Atlanta,Unknown,1970-01-22 06:00:00,-0.0,,-,49.0,,30.36,,Georgia,16.0,,,,1:00 AM,,,,,,15.0,,NNW,8.1,330.0,30301.0
Atlanta,Unknown,1970-01-22 07:00:00,1.0,,-,54.0,,30.38,,Georgia,15.1,,,,2:00 AM,,,,,,15.0,,NW,6.9,320.0,30301.0
Atlanta,Unknown,1970-01-22 08:00:00,1.9,,-,54.0,,30.38,,Georgia,16.0,,,,3:00 AM,,,,,,15.0,,NNW,5.8,340.0,30301.0
Atlanta,Unknown,1970-01-22 09:00:00,3.0,,-,54.0,,30.36,,Georgia,17.1,,,,4:00 AM,,,,,,15.0,,NW,8.1,310.0,30301.0
Atlanta,Unknown,1970-01-22 10:00:00,3.0,,-,57.0,,30.38,,Georgia,16.0,,,,5:00 AM,,,,,,15.0,,NW,6.9,310.0,30301.0
Atlanta,Unknown,1970-01-22 11:00:00,3.0,,-,57.0,,30.37,,Georgia,16.0,,,,6:00 AM,,,,,,15.0,,NW,6.9,310.0,30301.0
Atlanta,Unknown,1970-01-22 12:00:00,3.0,,-,57.0,,30.37,,Georgia,16.0,,,,7:00 AM,,,,,,15.0,,NNW,4.6,330.0,30301.0
Atlanta,Unknown,1970-01-22 13:00:00,3.9,,-,54.0,,30.37,,Georgia,18.0,,,,8:00 AM,,,,,,10.0,,NE,4.6,40.0,30301.0
Atlanta,Unknown,1970-01-22 14:00:00,5.0,,-,54.0,,30.37,,Georgia,19.0,,,,9:00 AM,,,,,,8.0,,East,3.5,80.0,30301.0
Atlanta,Unknown,1970-01-22 15:00:00,7.0,,-,55.0,,30.36,,Georgia,21.0,,,,10:00 AM,,,,,,8.0,,SE,4.6,130.0,30301.0
Atlanta,Unknown,1970-01-22 16:00:00,6.1,,-,48.0,,30.38,,Georgia,23.0,,,,11:00 AM,,,,,,7.0,,ESE,5.8,120.0,30301.0
Atlanta,Unknown,1970-01-22 17:00:00,6.1,,-,43.0,,30.36,,Georgia,26.1,,,,12:00 PM,,,,,,8.0,,South,6.9,190.0,30301.0
Atlanta,Unknown,1970-01-22 18:00:00,6.1,,-,38.0,,30.33,,Georgia,28.9,,,,1:00 PM,,,,,,10.0,,WSW,3.5,240.0,30301.0
Atlanta,Unknown,1970-01-22 19:00:00,7.0,,-,37.0,,30.27,,Georgia,30.9,,,,2:00 PM,,,,,,10.0,,South,4.6,170.0,30301.0
Atlanta,Unknown,1970-01-22 20:00:00,9.0,,-,37.0,,30.27,,Georgia,33.1,,,,3:00 PM,,,,,,15.0,,South,4.6,190.0,30301.0
Atlanta,Unknown,1970-01-22 21:00:00,10.0,,-,37.0,,30.24,,Georgia,34.0,,,,4:00 PM,,,,,,15.0,,WSW,8.1,240.0,30301.0
Atlanta,Unknown,1970-01-22 22:00:00,10.9,,-,37.0,,30.23,,Georgia,35.1,,,,5:00 PM,,,,,,15.0,,SW,8.1,220.0,30301.0
Atlanta,Unknown,1970-01-22 23:00:00,12.0,,-,46.0,,30.22,,Georgia,30.9,,,,6:00 PM,,,,,,15.0,,South,6.9,180.0,30301.0
Atlanta,Clear,1970-01-23 00:00:00,12.9,,-,53.0,,30.21,,Georgia,28.0,,,,7:00 PM,,,,,,15.0,,SE,5.8,140.0,30301.0
Atlanta,Clear,1970-01-23 01:00:00,12.9,,-,53.0,,30.2,,Georgia,28.0,,,,8:00 PM,,,,,,15.0,,SSE,5.8,160.0,30301.0
Atlanta,Clear,1970-01-23 02:00:00,15.1,,-,58.0,,30.19,,Georgia,28.0,,,,9:00 PM,,,,,,15.0,,SE,6.9,140.0,30301.0
Atlanta,Clear,1970-01-23 03:00:00,14.0,,-,58.0,,30.19,,Georgia,27.0,,,,10:00 PM,,,,,,15.0,,SSE,4.6,160.0,30301.0
Atlanta,Unknown,1970-01-23 04:00:00,14.0,,-,58.0,,30.19,,Georgia,27.0,,,,11:00 PM,,,,,,15.0,,SSE,5.8,150.0,30301.0
Atlanta,Unknown,1970-01-23 05:00:00,15.1,,-,61.0,,30.17,,Georgia,27.0,,,,12:00 AM,,,,,,15.0,,SSE,6.9,150.0,30301.0
Atlanta,Unknown,1970-01-23 06:00:00,15.1,,-,61.0,,30.14,,Georgia,27.0,,,,1:00 AM,,,,,,15.0,,SSE,6.9,160.0,30301.0
Atlanta,Unknown,1970-01-23 07:00:00,15.1,,-,61.0,,30.11,,Georgia,27.0,,,,2:00 AM,,,,,,15.0,,SE,6.9,140.0,30301.0
Atlanta,Unknown,1970-01-23 08:00:00,15.1,,-,58.0,,30.09,,Georgia,28.0,,,,3:00 AM,,,,,,15.0,,SSE,6.9,160.0,30301.0
Atlanta,Light Snow Showers,1970-01-23 09:00:00,16.0,Snow,-,58.0,,30.06,,Georgia,28.9,,,,4:00 AM,,,,,,8.0,,SE,5.8,130.0,30301.0
Atlanta,Light Snow Showers,1970-01-23 10:00:00,17.1,Snow,-,61.0,,30.03,,Georgia,28.9,,,,5:00 AM,,,,,,7.0,,SE,5.8,140.0,30301.0
Atlanta,Light Freezing Rain,1970-01-23 11:00:00,21.0,Rain,-,72.0,0.01,30.02,,Georgia,28.9,,,,6:00 AM,,,,,,7.0,,SE,6.9,130.0,30301.0
Atlanta,Light Freezing Rain,1970-01-23 12:00:00,23.0,Rain-Snow,-,81.0,0.02,30.02,,Georgia,28.0,,,,7:00 AM,,,,,,5.0,,ESE,9.2,120.0,30301.0
Atlanta,Light Snow,1970-01-23 13:00:00,25.0,Fog-Snow,-,88.0,0.03,30.03,,Georgia,28.0,,,,8:00 AM,,,,,,2.0,,SSE,4.6,160.0,30301.0
Atlanta,Fog,1970-01-23 14:00:00,26.1,Fog,-,92.0,0.01,29.99,,Georgia,28.0,,,,9:00 AM,,,,,,1.0,,SE,3.5,140.0,30301.0
Atlanta,Light Freezing Drizzle,1970-01-23 15:00:00,27.0,Fog,-,92.0,,30.01,,Georgia,28.9,,,,10:00 AM,,,,,,1.0,,East,3.5,90.0,30301.0
Atlanta,Light Freezing Drizzle,1970-01-23 16:00:00,28.0,Fog,-,92.0,,30.03,,Georgia,30.0,,,,11:00 AM,,,,,,0.8,,North,3.5,10.0,30301.0
Atlanta,Light Freezing Drizzle,1970-01-23 17:00:00,28.0,Fog,-,92.0,,30.02,,Georgia,30.0,,,,12:00 PM,,,,,,0.8,,NW,3.5,320.0,30301.0
Atlanta,Fog,1970-01-23 18:00:00,28.9,Fog,-,88.0,,29.99,,Georgia,32.0,,,,1:00 PM,,,,,,0.8,,WNW,6.9,300.0,30301.0
Atlanta,Light Drizzle,1970-01-23 19:00:00,30.0,Fog,-,92.0,,29.99,,Georgia,32.0,,,,2:00 PM,,,,,,0.8,,WNW,9.2,290.0,30301.0
Atlanta,Fog,1970-01-23 20:00:00,30.0,Fog,-,89.0,,29.97,,Georgia,33.1,,,,3:00 PM,,,,,,5.5,,NW,11.5,310.0,30301.0
Atlanta,Drizzle,1970-01-23 21:00:00,30.0,,-,89.0,,29.99,,Georgia,33.1,,,,4:00 PM,,,,,,4.0,,NW,11.5,310.0,30301.0
Atlanta,Drizzle,1970-01-23 22:00:00,28.0,,-,82.0,,30.01,,Georgia,33.1,,,,5:00 PM,,,,,,4.0,,NW,11.5,310.0,30301.0
Atlanta,Drizzle,1970-01-23 23:00:00,28.0,,-,82.0,,30.04,,Georgia,33.1,,,,6:00 PM,,,,,,4.0,,NW,9.2,310.0,30301.0
Atlanta,Drizzle,1970-01-24 00:00:00,28.0,,-,82.0,,30.06,,Georgia,33.1,,,,7:00 PM,,,,,,4.0,,NW,9.2,310.0,30301.0
Atlanta,Drizzle,1970-01-24 01:00:00,28.0,,-,82.0,,30.08,,Georgia,33.1,,,,8:00 PM,,,,,,4.0,,NW,9.2,310.0,30301.0
Atlanta,Drizzle,1970-01-24 02:00:00,28.0,,-,82.0,,30.08,,Georgia,33.1,,,,9:00 PM,,,,,,4.0,,NW,9.2,310.0,30301.0
Atlanta,Drizzle,1970-01-24 03:00:00,27.0,,-,78.0,,30.1,,Georgia,33.1,,,,10:00 PM,,,,,,4.0,,WNW,11.5,300.0,30301.0
Atlanta,Drizzle,1970-01-24 04:00:00,27.0,,-,78.0,,30.1,,Georgia,33.1,,,,11:00 PM,,,,,,6.0,,WNW,9.2,300.0,30301.0
Atlanta,Unknown,1970-01-24 05:00:00,25.0,,-,72.0,,30.12,,Georgia,33.1,,,,12:00 AM,,,,,,15.0,,NNW,16.1,340.0,30301.0
Atlanta,Unknown,1970-01-24 06:00:00,25.0,,-,72.0,,30.12,,Georgia,33.1,,,,1:00 AM,,,,,,15.0,,NW,9.2,320.0,30301.0
Atlanta,Unknown,1970-01-24 07:00:00,24.1,,-,73.0,,30.14,,Georgia,32.0,,,,2:00 AM,,,,,,15.0,,NW,15.0,320.0,30301.0
Atlanta,Unknown,1970-01-24 08:00:00,24.1,,-,73.0,,30.14,,Georgia,32.0,,,,3:00 AM,,,,,,15.0,,NW,13.8,320.0,30301.0
Atlanta,Unknown,1970-01-24 09:00:00,23.0,,-,72.0,,30.14,,Georgia,30.9,,,,4:00 AM,,,,,,15.0,,NNW,11.5,330.0,30301.0
Atlanta,Unknown,1970-01-24 10:00:00,23.0,,-,75.0,,30.14,,Georgia,30.0,,,,5:00 AM,,,,,,15.0,,NW,9.2,310.0,30301.0
Atlanta,Unknown,1970-01-24 11:00:00,21.9,,-,72.0,,30.17,,Georgia,30.0,,,,6:00 AM,,,,,,15.0,,WNW,9.2,290.0,30301.0
Atlanta,Unknown,1970-01-24 12:00:00,23.0,,-,75.0,,30.2,,Georgia,30.0,,,,7:00 AM,,,,,,15.0,,WNW,8.1,300.0,30301.0
Atlanta,Unknown,1970-01-24 13:00:00,23.0,,-,75.0,,30.21,,Georgia,30.0,,,,8:00 AM,,,,,,15.0,,NNW,10.4,330.0,30301.0
Atlanta,Unknown,1970-01-24 14:00:00,23.0,,-,75.0,,30.24,,Georgia,30.0,,,,9:00 AM,,,,,,10.0,,NW,10.4,320.0,30301.0
Atlanta,Unknown,1970-01-24 15:00:00,24.1,,-,70.0,,30.28,,Georgia,33.1,,,,10:00 AM,,,,,,10.0,,NW,11.5,320.0,30301.0
Atlanta,Unknown,1970-01-24 16:00:00,24.1,,-,62.0,,30.28,,Georgia,36.0,,,,11:00 AM,,,,,,10.0,,North,8.1,350.0,30301.0
Atlanta,Unknown,1970-01-24 17:00:00,24.1,,-,55.0,,30.27,,Georgia,39.0,,,,12:00 PM,,,,,,10.0,,NNE,6.9,30.0,30301.0
Atlanta,Unknown,1970-01-24 18:00:00,25.0,,-,47.0,,30.23,,Georgia,44.1,,,,1:00 PM,,,,,,10.0,,North,4.6,360.0,30301.0
Atlanta,Unknown,1970-01-24 19:00:00,21.0,,-,37.0,,30.18,,Georgia,46.0,,,,2:00 PM,,,,,,8.0,,ESE,4.6,110.0,30301.0
Atlanta,Unknown,1970-01-24 20:00:00,24.1,,-,38.0,,30.17,,Georgia,48.9,,,,3:00 PM,,,,,,8.0,,SSW,3.5,210.0,30301.0
Atlanta,Unknown,1970-01-24 21:00:00,21.9,,-,32.0,,30.14,,Georgia,51.1,,,,4:00 PM,,,,,,8.0,,SSE,3.5,160.0,30301.0
Atlanta,Clear,1970-01-24 22:00:00,21.9,,-,30.0,,30.14,,Georgia,53.1,,,,5:00 PM,,,,,,10.0,,South,8.1,180.0,30301.0
Atlanta,Clear,1970-01-24 23:00:00,23.0,,-,36.0,,30.14,,Georgia,48.9,,,,6:00 PM,,,,,,15.0,,South,5.8,180.0,30301.0
Atlanta,Unknown,1970-01-25 00:00:00,23.0,,-,42.0,,30.16,,Georgia,45.0,,,,7:00 PM,,,,,,15.0,,South,5.8,180.0,30301.0
Atlanta,Unknown,1970-01-25 01:00:00,23.0,,-,45.0,,30.19,,Georgia,43.0,,,,8:00 PM,,,,,,15.0,,South,5.8,180.0,30301.0
Atlanta,Unknown,1970-01-25 02:00:00,23.0,,-,49.0,,30.19,,Georgia,41.0,,,,9:00 PM,,,,,,15.0,,South,4.6,180.0,30301.0
Atlanta,Unknown,1970-01-25 03:00:00,23.0,,-,51.0,,30.19,,Georgia,39.9,,,,10:00 PM,,,,,,15.0,,South,4.6,180.0,30301.0
Atlanta,Unknown,1970-01-25 04:00:00,23.0,,-,55.0,,30.19,,Georgia,37.9,,,,11:00 PM,,,,,,15.0,,South,5.8,180.0,30301.0
Atlanta,Unknown,1970-01-25 05:00:00,25.0,,-,64.0,,30.17,,Georgia,36.0,,,,12:00 AM,,,,,,15.0,,South,4.6,190.0,30301.0
Atlanta,Unknown,1970-01-25 06:00:00,25.0,,-,64.0,,30.15,,Georgia,36.0,,,,1:00 AM,,,,,,15.0,,South,4.6,180.0,30301.0
Atlanta,Unknown,1970-01-25 07:00:00,26.1,,-,67.0,,30.14,,Georgia,36.0,,,,2:00 AM,,,,,,15.0,,SSW,4.6,200.0,30301.0
Atlanta,Unknown,1970-01-25 08:00:00,26.1,,-,73.0,,30.14,,Georgia,34.0,,,,3:00 AM,,,,,,15.0,,SSW,4.6,200.0,30301.0
Atlanta,Unknown,1970-01-25 09:00:00,26.1,,-,75.0,,30.14,,Georgia,33.1,,,,4:00 AM,,,,,,15.0,,SE,3.5,140.0,30301.0
Atlanta,Unknown,1970-01-25 10:00:00,28.9,,-,78.0,,30.12,,Georgia,35.1,,,,5:00 AM,,,,,,15.0,,East,4.6,100.0,30301.0
Atlanta,Unknown,1970-01-25 11:00:00,28.0,,-,76.0,,30.09,,Georgia,35.1,,,,6:00 AM,,,,,,15.0,,SSE,5.8,160.0,30301.0
Atlanta,Unknown,1970-01-25 12:00:00,30.0,,-,73.0,,30.1,,Georgia,37.9,,,,7:00 AM,,,,,,15.0,,SSE,5.8,150.0,30301.0
Atlanta,Unknown,1970-01-25 13:00:00,30.0,,-,70.0,,30.12,,Georgia,39.0,,,,8:00 AM,,,,,,15.0,,SSW,3.5,210.0,30301.0
Atlanta,Unknown,1970-01-25 14:00:00,34.0,,-,71.0,,30.09,,Georgia,43.0,,,,9:00 AM,,,,,,15.0,,South,6.9,180.0,30301.0
Atlanta,Unknown,1970-01-25 15:00:00,37.0,,-,74.0,,30.09,,Georgia,45.0,,,,10:00 AM,,,,,,15.0,,SSW,12.7,210.0,30301.0
Atlanta,Unknown,1970-01-25 16:00:00,39.0,,-,74.0,,30.09,,Georgia,46.9,,,,11:00 AM,,,,,,15.0,,SSW,10.4,210.0,30301.0
Atlanta,Unknown,1970-01-25 17:00:00,43.0,,-,83.0,,30.09,,Georgia,48.0,,,,12:00 PM,,,,,,8.0,,South,8.1,180.0,30301.0
Atlanta,Drizzle,1970-01-25 18:00:00,44.1,,-,80.0,,30.05,,Georgia,50.0,,,,1:00 PM,,,,,,6.0,,South,11.5,180.0,30301.0
Atlanta,Drizzle,1970-01-25 19:00:00,48.0,,-,80.0,,29.99,,Georgia,54.0,,,,2:00 PM,,,,,,6.0,,South,15.0,180.0,30301.0
Atlanta,Drizzle,1970-01-25 20:00:00,50.0,,-,83.0,,29.98,,Georgia,55.0,,,,3:00 PM,,,,,,6.0,,SSW,10.4,200.0,30301.0
Atlanta,Drizzle,1970-01-25 21:00:00,50.0,,-,83.0,,29.98,,Georgia,55.0,,,,4:00 PM,,,,,,6.0,,South,9.2,180.0,30301.0
Atlanta,Drizzle,1970-01-25 22:00:00,50.0,,-,83.0,,29.98,,Georgia,55.0,,,,5:00 PM,,,,,,4.0,,South,8.1,180.0,30301.0
Atlanta,Light Drizzle,1970-01-25 23:00:00,50.0,Fog,-,83.0,,29.97,,Georgia,55.0,,,,6:00 PM,,,,,,4.0,,South,5.8,180.0,30301.0
Atlanta,Unknown,1970-01-26 00:00:00,54.0,,-,89.0,,29.97,,Georgia,57.0,,,,7:00 PM,,,,,,7.0,,SSW,9.2,210.0,30301.0
Atlanta,Unknown,1970-01-26 01:00:00,54.0,,-,87.0,,29.97,,Georgia,57.9,,,,8:00 PM,,,,,,7.0,,South,12.7,180.0,30301.0
Atlanta,Unknown,1970-01-26 02:00:00,55.0,,-,83.0,,29.94,,Georgia,60.1,,,,9:00 PM,,,,,,7.0,,SSW,12.7,210.0,30301.0
Atlanta,Unknown,1970-01-26 03:00:00,55.9,,-,83.0,,29.94,,Georgia,61.0,,,,10:00 PM,,,,,,7.0,,SW,16.1,230.0,30301.0
Atlanta,Unknown,1970-01-26 04:00:00,57.0,,-,87.0,,29.91,,Georgia,61.0,,,,11:00 PM,,,,,,10.0,,SW,13.8,230.0,30301.0
Atlanta,Unknown,1970-01-26 05:00:00,57.9,,-,86.0,,29.9,,Georgia,62.1,,,,12:00 AM,,,,,,10.0,,SW,13.8,220.0,30301.0
Atlanta,Unknown,1970-01-26 06:00:00,57.9,,-,86.0,,29.88,,Georgia,62.1,,,,1:00 AM,,,,,,10.0,,SW,13.8,220.0,30301.0
Atlanta,Unknown,1970-01-26 07:00:00,57.9,,-,86.0,,29.85,,Georgia,62.1,,,,2:00 AM,,,,,,10.0,,SW,15.0,220.0,30301.0
Atlanta,Unknown,1970-01-26 08:00:00,57.9,,-,86.0,,29.85,,Georgia,62.1,,,,3:00 AM,,,,,,10.0,,SW,13.8,230.0,30301.0
Atlanta,Rain Showers,1970-01-26 09:00:00,53.1,Rain,-,97.0,0.3,29.9,,Georgia,54.0,,,,4:00 AM,,,,,,5.0,,WNW,11.5,290.0,30301.0
Atlanta,Light Rain Showers,1970-01-26 10:00:00,53.1,Rain,-,97.0,0.24,29.91,,Georgia,54.0,,,,5:00 AM,,,,,,6.0,,WNW,10.4,290.0,30301.0
Atlanta,Unknown,1970-01-26 11:00:00,53.1,,-,93.0,0.02,29.92,,Georgia,55.0,,,,6:00 AM,,,,,,10.0,,West,9.2,280.0,30301.0
Atlanta,Unknown,1970-01-26 12:00:00,51.1,,-,90.0,,29.96,,Georgia,54.0,,,,7:00 AM,,,,,,15.0,,WNW,9.2,290.0,30301.0
Atlanta,Unknown,1970-01-26 13:00:00,46.9,,-,86.0,,29.99,,Georgia,51.1,,,,8:00 AM,,,,,,15.0,,WNW,6.9,290.0,30301.0
Atlanta,Clear,1970-01-26 14:00:00,48.0,,-,86.0,,30.01,,Georgia,52.0,,,,9:00 AM,,,,,,15.0,,WNW,8.1,290.0,30301.0
Atlanta,Unknown,1970-01-26 15:00:00,45.0,,-,69.0,,30.02,,Georgia,55.0,,,,10:00 AM,,,,,,15.0,,WNW,11.5,300.0,30301.0
Atlanta,Clear,1970-01-26 16:00:00,42.1,,-,56.0,,30.03,,Georgia,57.9,,,,11:00 AM,,,,,,15.0,,WNW,5.8,300.0,30301.0
Atlanta,Unknown,1970-01-26 17:00:00,37.9,,-,41.0,,30.02,,Georgia,62.1,,,,12:00 PM,,,,,,15.0,,WNW,9.2,290.0,30301.0
Atlanta,Unknown,1970-01-26 18:00:00,36.0,,-,35.0,,29.99,,Georgia,64.0,,,,1:00 PM,,,,,,15.0,,West,11.5,270.0,30301.0
Atlanta,Unknown,1970-01-26 19:00:00,32.0,,-,28.0,,29.98,,Georgia,66.0,,,,2:00 PM,,,,,,15.0,,West,16.1,270.0,30301.0
Atlanta,Unknown,1970-01-26 20:00:00,32.0,,-,28.0,,29.98,,Georgia,66.0,,,,3:00 PM,,,,,,15.0,,West,11.5,270.0,30301.0
Atlanta,Unknown,1970-01-26 21:00:00,30.0,,-,24.0,,29.99,,Georgia,68.0,,,,4:00 PM,,,,,,15.0,,WNW,15.0,300.0,30301.0
Atlanta,Unknown,1970-01-26 22:00:00,30.0,,-,27.0,,30.0,,Georgia,64.9,,,,5:00 PM,,,,,,15.0,,WNW,11.5,300.0,30301.0
Atlanta,Unknown,1970-01-26 23:00:00,32.0,,-,34.0,,30.02,,Georgia,61.0,,,,6:00 PM,,,,,,15.0,,NW,5.8,310.0,30301.0
Atlanta,Unknown,1970-01-27 00:00:00,30.9,,-,37.0,,30.02,,Georgia,57.0,,,,7:00 PM,,,,,,15.0,,NW,8.1,310.0,30301.0
Atlanta,Unknown,1970-01-27 01:00:00,30.9,,-,40.0,,30.06,,Georgia,55.0,,,,8:00 PM,,,,,,15.0,,West,8.1,260.0,30301.0
Atlanta,Unknown,1970-01-27 02:00:00,30.9,,-,50.0,,30.06,,Georgia,48.9,,,,9:00 PM,,,,,,15.0,,West,8.1,280.0,30301.0
Atlanta,Unknown,1970-01-27 03:00:00,30.9,,-,54.0,,30.06,,Georgia,46.9,,,,10:00 PM,,,,,,15.0,,West,8.1,280.0,30301.0
Atlanta,Unknown,1970-01-27 04:00:00,32.0,,-,56.0,,30.06,,Georgia,46.9,,,,11:00 PM,,,,,,15.0,,WNW,9.2,290.0,30301.0
Atlanta,Unknown,1970-01-27 05:00:00,33.1,,-,56.0,,30.07,,Georgia,48.0,,,,12:00 AM,,,,,,15.0,,WNW,10.4,300.0,30301.0
Atlanta,Unknown,1970-01-27 06:00:00,32.0,,-,60.0,,30.09,,Georgia,45.0,,,,1:00 AM,,,,,,10.0,,WNW,9.2,290.0,30301.0
Atlanta,Unknown,1970-01-27 07:00:00,30.9,,-,62.0,,30.1,,Georgia,43.0,,,,2:00 AM,,,,,,10.0,,WNW,8.1,290.0,30301.0
Atlanta,Unknown,1970-01-27 08:00:00,33.1,,-,68.0,,30.11,,Georgia,43.0,,,,3:00 AM,,,,,,10.0,,West,8.1,270.0,30301.0
Atlanta,Unknown,1970-01-27 09:00:00,32.0,,-,67.0,,30.1,,Georgia,42.1,,,,4:00 AM,,,,,,10.0,,WSW,6.9,250.0,30301.0
Atlanta,Unknown,1970-01-27 10:00:00,30.9,,-,65.0,,30.09,,Georgia,42.1,,,,5:00 AM,,,,,,10.0,,WSW,3.5,250.0,30301.0
Atlanta,Unknown,1970-01-27 11:00:00,30.0,,-,70.0,,30.1,,Georgia,39.0,,,,6:00 AM,,,,,,10.0,,NW,5.8,310.0,30301.0
Atlanta,Unknown,1970-01-27 12:00:00,30.9,,-,58.0,,30.11,,Georgia,45.0,,,,7:00 AM,,,,,,10.0,,North,9.2,350.0,30301.0
Atlanta,Unknown,1970-01-27 13:00:00,32.0,,-,58.0,,30.14,,Georgia,46.0,,,,8:00 AM,,,,,,10.0,,NNW,8.1,330.0,30301.0
Atlanta,Unknown,1970-01-27 14:00:00,32.0,,-,58.0,,30.18,,Georgia,46.0,,,,9:00 AM,,,,,,10.0,,NNW,8.1,340.0,30301.0
Atlanta,Unknown,1970-01-27 15:00:00,33.1,,-,56.0,,30.19,,Georgia,48.0,,,,10:00 AM,,,,,,10.0,,NNW,8.1,340.0,30301.0
Atlanta,Unknown,1970-01-27 16:00:00,34.0,,-,50.0,,30.21,,Georgia,52.0,,,,11:00 AM,,,,,,10.0,,WSW,5.8,240.0,30301.0
Atlanta,Unknown,1970-01-27 17:00:00,30.0,,-,35.0,,30.19,,Georgia,57.9,,,,12:00 PM,,,,,,10.0,,SW,3.5,230.0,30301.0
Atlanta,Unknown,1970-01-27 18:00:00,27.0,,-,26.0,,30.14,,Georgia,62.1,,,,1:00 PM,,,,,,10.0,,West,5.8,270.0,30301.0
Atlanta,Unknown,1970-01-27 19:00:00,28.0,,-,25.0,,30.11,,Georgia,64.9,,,,2:00 PM,,,,,,10.0,,WSW,5.8,250.0,30301.0
Atlanta,Clear,1970-01-27 20:00:00,30.0,,-,26.0,,30.1,,Georgia,66.0,,,,3:00 PM,,,,,,10.0,,West,5.8,270.0,30301.0
Atlanta,Clear,1970-01-27 21:00:00,27.0,,-,21.0,,30.1,,Georgia,69.1,,,,4:00 PM,,,,,,15.0,,West,5.8,270.0,30301.0
Atlanta,Clear,1970-01-27 22:00:00,30.9,,-,26.0,,30.11,,Georgia,66.9,,,,5:00 PM,,,,,,15.0,,Calm,Calm,0.0,30301.0
Atlanta,Clear,1970-01-27 23:00:00,27.0,,-,25.0,,30.11,,Georgia,64.0,,,,6:00 PM,,,,,,15.0,,Calm,Calm,0.0,30301.0
Atlanta,Clear,1970-01-28 00:00:00,30.9,,-,33.0,,30.13,,Georgia,60.1,,,,7:00 PM,,,,,,15.0,,Calm,Calm,0.0,30301.0
Atlanta,Clear,1970-01-28 01:00:00,30.0,,-,37.0,,30.15,,Georgia,55.9,,,,8:00 PM,,,,,,15.0,,Calm,Calm,0.0,30301.0
Atlanta,Clear,1970-01-28 02:00:00,30.0,,-,41.0,,30.15,,Georgia,53.1,,,,9:00 PM,,,,,,15.0,,Calm,Calm,0.0,30301.0
Atlanta,Clear,1970-01-28 03:00:00,28.0,,-,41.0,,30.14,,Georgia,51.1,,,,10:00 PM,,,,,,15.0,,South,5.8,180.0,30301.0
Atlanta,Clear,1970-01-28 04:00:00,28.9,,-,48.0,,30.13,,Georgia,48.0,,,,11:00 PM,,,,,,15.0,,SSE,4.6,160.0,30301.0
Atlanta,Clear,1970-01-28 05:00:00,28.0,,-,50.0,,30.13,,Georgia,46.0,,,,12:00 AM,,,,,,15.0,,SSW,6.9,210.0,30301.0
Atlanta,Clear,1970-01-28 06:00:00,30.0,,-,54.0,,30.13,,Georgia,46.0,,,,1:00 AM,,,,,,10.0,,SSW,5.8,200.0,30301.0
Atlanta,Unknown,1970-01-28 07:00:00,30.0,,-,60.0,,30.13,,Georgia,43.0,,,,2:00 AM,,,,,,10.0,,South,3.5,190.0,30301.0
Atlanta,Clear,1970-01-28 08:00:00,30.9,,-,62.0,,30.14,,Georgia,43.0,,,,3:00 AM,,,,,,10.0,,SSE,3.5,160.0,30301.0
Atlanta,Unknown,1970-01-28 09:00:00,32.0,,-,67.0,,30.13,,Georgia,42.1,,,,4:00 AM,,,,,,10.0,,Calm,Calm,0.0,30301.0
Atlanta,Unknown,1970-01-28 10:00:00,30.9,,-,70.0,,30.13,,Georgia,39.9,,,,5:00 AM,,,,,,10.0,,North,3.5,10.0,30301.0
Atlanta,Unknown,1970-01-28 11:00:00,30.9,,-,79.0,,30.13,,Georgia,37.0,,,,6:00 AM,,,,,,10.0,,East,3.5,100.0,30301.0
Atlanta,Unknown,1970-01-28 12:00:00,32.0,,-,73.0,,30.16,,Georgia,39.9,,,,7:00 AM,,,,,,10.0,,ESE,5.8,110.0,30301.0
Atlanta,Unknown,1970-01-28 13:00:00,32.0,,-,76.0,,30.18,,Georgia,39.0,,,,8:00 AM,,,,,,10.0,,East,3.5,90.0,30301.0
Atlanta,Unknown,1970-01-28 14:00:00,35.1,,-,76.0,,30.19,,Georgia,42.1,,,,9:00 AM,,,,,,10.0,,East,6.9,90.0,30301.0
Atlanta,Unknown,1970-01-28 15:00:00,36.0,,-,71.0,,30.2,,Georgia,45.0,,,,10:00 AM,,,,,,7.0,,East,5.8,100.0,30301.0
Atlanta,Unknown,1970-01-28 16:00:00,41.0,,-,71.0,,30.21,,Georgia,50.0,,,,11:00 AM,,,,,,7.0,,SE,4.6,140.0,30301.0
Atlanta,Unknown,1970-01-28 17:00:00,46.0,,-,80.0,,30.18,,Georgia,52.0,,,,12:00 PM,,,,,,7.0,,East,9.2,100.0,30301.0
Atlanta,Unknown,1970-01-28 18:00:00,48.0,,-,75.0,,30.15,,Georgia,55.9,,,,1:00 PM,,,,,,7.0,,SE,5.8,130.0,30301.0
Atlanta,Unknown,1970-01-28 19:00:00,50.0,,-,63.0,,30.11,,Georgia,63.0,,,,2:00 PM,,,,,,8.0,,SSE,9.2,160.0,30301.0
Atlanta,Unknown,1970-01-28 20:00:00,53.1,,-,63.0,,30.08,,Georgia,66.0,,,,3:00 PM,,,,,,10.0,,South,11.5,180.0,30301.0
Atlanta,Unknown,1970-01-28 21:00:00,53.1,,-,59.0,,30.07,,Georgia,68.0,,,,4:00 PM,,,,,,15.0,,South,11.5,170.0,30301.0
Atlanta,Unknown,1970-01-28 22:00:00,52.0,,-,56.0,,30.06,,Georgia,68.0,,,,5:00 PM,,,,,,15.0,,SSW,9.2,200.0,30301.0
Atlanta,Unknown,1970-01-28 23:00:00,52.0,,-,63.0,,30.07,,Georgia,64.9,,,,6:00 PM,,,,,,15.0,,SSE,9.2,160.0,30301.0
Atlanta,Unknown,1970-01-29 00:00:00,52.0,,-,67.0,,30.09,,Georgia,63.0,,,,7:00 PM,,,,,,15.0,,SSE,6.9,160.0,30301.0
Atlanta,Unknown,1970-01-29 01:00:00,52.0,,-,72.0,,30.1,,Georgia,61.0,,,,8:00 PM,,,,,,15.0,,SE,5.8,140.0,30301.0
Atlanta,Unknown,1970-01-29 02:00:00,52.0,,-,75.0,,30.1,,Georgia,60.1,,,,9:00 PM,,,,,,15.0,,SSE,6.9,160.0,30301.0
Atlanta,Unknown,1970-01-29 03:00:00,51.1,,-,72.0,,30.1,,Georgia,60.1,,,,10:00 PM,,,,,,15.0,,SSE,5.8,160.0,30301.0
Atlanta,Unknown,1970-01-29 04:00:00,51.1,,-,86.0,,30.09,,Georgia,55.0,,,,11:00 PM,,,,,,15.0,,South,4.6,180.0,30301.0
Atlanta,Unknown,1970-01-29 05:00:00,52.0,,-,87.0,,30.07,,Georgia,55.9,,,,12:00 AM,,,,,,15.0,,South,8.1,190.0,30301.0
Atlanta,Unknown,1970-01-29 06:00:00,53.1,,-,84.0,,30.09,,Georgia,57.9,,,,1:00 AM,,,,,,10.0,,SSW,8.1,200.0,30301.0
Atlanta,Unknown,1970-01-29 07:00:00,54.0,,-,87.0,,30.07,,Georgia,57.9,,,,2:00 AM,,,,,,10.0,,SSW,6.9,210.0,30301.0
Atlanta,Unknown,1970-01-29 08:00:00,53.1,,-,87.0,,30.06,,Georgia,57.0,,,,3:00 AM,,,,,,8.0,,SSW,8.1,200.0,30301.0
Atlanta,Unknown,1970-01-29 09:00:00,55.9,,-,90.0,,30.05,,Georgia,59.0,,,,4:00 AM,,,,,,7.0,,SSW,9.2,210.0,30301.0
Atlanta,Unknown,1970-01-29 10:00:00,57.0,,-,87.0,,30.03,,Georgia,61.0,,,,5:00 AM,,,,,,7.0,,SW,9.2,220.0,30301.0
Atlanta,Unknown,1970-01-29 11:00:00,57.9,,-,86.0,,30.01,,Georgia,62.1,,,,6:00 AM,,,,,,7.0,,SW,15.0,230.0,30301.0
Atlanta,Unknown,1970-01-29 12:00:00,57.9,,-,86.0,,30.03,,Georgia,62.1,,,,7:00 AM,,,,,,7.0,,SW,12.7,220.0,30301.0
Atlanta,Smoke,1970-01-29 13:00:00,57.9,,-,86.0,,30.02,,Georgia,62.1,,,,8:00 AM,,,,,,4.0,,SW,10.4,220.0,30301.0
Atlanta,Smoke,1970-01-29 14:00:00,59.0,,-,87.0,,30.02,,Georgia,63.0,,,,9:00 AM,,,,,,4.0,,SW,13.8,220.0,30301.0
Atlanta,Smoke,1970-01-29 15:00:00,59.0,,-,84.0,,30.02,,Georgia,64.0,,,,10:00 AM,,,,,,4.0,,SW,13.8,220.0,30301.0
Atlanta,Unknown,1970-01-29 16:00:00,59.0,,-,84.0,,30.02,,Georgia,64.0,,,,11:00 AM,,,,,,7.0,,SW,15.0,220.0,30301.0
Atlanta,Light Rain,1970-01-29 17:00:00,59.0,Rain,-,84.0,,30.01,,Georgia,64.0,,,,12:00 PM,,,,,,7.0,,SSW,13.8,210.0,30301.0
Atlanta,Light Rain,1970-01-29 18:00:00,59.0,Rain,-,81.0,,29.98,,Georgia,64.9,,,,1:00 PM,,,,,,7.0,,SW,12.7,220.0,30301.0
Atlanta,Light Rain,1970-01-29 19:00:00,59.0,Fog-Rain,-,84.0,,29.94,,Georgia,64.0,,,,2:00 PM,,,,,,2.0,,SW,8.1,220.0,30301.0
Atlanta,Thunderstorms and Rain,1970-01-29 20:00:00,57.9,Fog-Rain-Thunderstorm,-,86.0,0.17,29.94,,Georgia,62.1,,,,3:00 PM,,,,,,5.5,,SW,15.0,230.0,30301.0
Atlanta,Unknown,1970-01-29 21:00:00,57.0,,-,87.0,0.19,29.9,,Georgia,61.0,,,,4:00 PM,,,,,,10.0,,SSW,15.0,210.0,30301.0
Atlanta,Thunderstorms and Rain,1970-01-29 22:00:00,59.0,Rain-Thunderstorm,-,90.0,0.22,29.9,,Georgia,62.1,,,,5:00 PM,,,,,,0.5,,SW,13.8,230.0,30301.0
Atlanta,Unknown,1970-01-29 23:00:00,55.9,,-,90.0,0.18,29.91,,Georgia,59.0,,,,6:00 PM,,,,,,10.0,,WNW,8.1,300.0,30301.0
Atlanta,Unknown,1970-01-30 00:00:00,53.1,,-,84.0,,29.95,,Georgia,57.9,,,,7:00 PM,,,,,,15.0,,WNW,13.8,300.0,30301.0
Atlanta,Unknown,1970-01-30 01:00:00,48.0,,-,77.0,,29.98,,Georgia,55.0,,,,8:00 PM,,,,,,15.0,,NNW,16.1,330.0,30301.0
Atlanta,Unknown,1970-01-30 02:00:00,45.0,,-,77.0,,30.0,,Georgia,52.0,,,,9:00 PM,,,,,,15.0,,NW,16.1,320.0,30301.0
Atlanta,Unknown,1970-01-30 03:00:00,43.0,,-,80.0,,30.03,,Georgia,48.9,,,,10:00 PM,,,,,,15.0,,WNW,15.0,300.0,30301.0
Atlanta,Unknown,1970-01-30 04:00:00,37.0,,-,74.0,,30.06,,Georgia,45.0,,,,11:00 PM,,,,,,15.0,,NW,15.0,320.0,30301.0
Atlanta,Unknown,1970-01-30 05:00:00,30.0,,-,68.0,,30.09,,Georgia,39.9,,,,12:00 AM,,,,,,15.0,,NNW,15.0,330.0,30301.0
Atlanta,Unknown,1970-01-30 06:00:00,28.0,,-,65.0,,30.09,,Georgia,39.0,,,,1:00 AM,,,,,,15.0,,NNW,15.0,340.0,30301.0
Atlanta,Unknown,1970-01-30 07:00:00,27.0,,-,65.0,,30.08,,Georgia,37.9,,,,2:00 AM,,,,,,15.0,,NNW,13.8,330.0,30301.0
Atlanta,Unknown,1970-01-30 08:00:00,25.0,,-,62.0,,30.09,,Georgia,37.0,,,,3:00 AM,,,,,,15.0,,NW,11.5,320.0,30301.0
Atlanta,Unknown,1970-01-30 09:00:00,25.0,,-,64.0,,30.09,,Georgia,36.0,,,,4:00 AM,,,,,,15.0,,NNW,13.8,330.0,30301.0
Atlanta,Unknown,1970-01-30 10:00:00,24.1,,-,64.0,,30.13,,Georgia,35.1,,,,5:00 AM,,,,,,15.0,,NW,11.5,320.0,30301.0
Atlanta,Unknown,1970-01-30 11:00:00,21.9,,-,59.0,,30.15,,Georgia,35.1,,,,6:00 AM,,,,,,15.0,,NNW,15.0,330.0,30301.0
Atlanta,Unknown,1970-01-30 12:00:00,21.0,,-,59.0,,30.17,,Georgia,34.0,,,,7:00 AM,,,,,,15.0,,NNW,16.1,340.0,30301.0
Atlanta,Unknown,1970-01-30 13:00:00,19.9,,-,59.0,,30.2,,Georgia,33.1,,,,8:00 AM,,,,,,15.0,,NNW,16.1,340.0,30301.0
Atlanta,Unknown,1970-01-30 14:00:00,19.0,,-,54.0,,30.24,,Georgia,34.0,,,,9:00 AM,,,,,,15.0,,NW,11.5,320.0,30301.0
Atlanta,Unknown,1970-01-30 15:00:00,19.9,,-,52.0,,30.26,,Georgia,36.0,,,,10:00 AM,,,,,,15.0,,NW,17.3,320.0,30301.0
Atlanta,Unknown,1970-01-30 16:00:00,19.9,,-,52.0,,30.28,,Georgia,36.0,,,,11:00 AM,,,,,,15.0,,NNW,16.1,340.0,30301.0
Atlanta,Unknown,1970-01-30 17:00:00,19.9,,-,50.0,,30.28,,Georgia,37.0,,,,12:00 PM,,,,,,15.0,,NNW,17.3,340.0,30301.0
Atlanta,Unknown,1970-01-30 18:00:00,19.9,,-,45.0,,30.27,,Georgia,39.9,,,,1:00 PM,,,,,,15.0,,NNW,17.3,340.0,30301.0
Atlanta,Clear,1970-01-30 19:00:00,19.0,,-,41.0,,30.27,,Georgia,41.0,,,,2:00 PM,,,,,,15.0,,NW,18.4,320.0,30301.0
Atlanta,Clear,1970-01-30 20:00:00,15.1,,-,34.0,,30.26,,Georgia,42.1,,,,3:00 PM,,,,,,15.0,,NNW,18.4,340.0,30301.0
Atlanta,Clear,1970-01-30 21:00:00,14.0,,-,31.0,,30.27,,Georgia,43.0,,,,4:00 PM,,,,,,15.0,,WNW,17.3,300.0,30301.0
Atlanta,Clear,1970-01-30 22:00:00,14.0,,-,32.0,,30.29,,Georgia,42.1,,,,5:00 PM,,,,,,15.0,,NW,11.5,320.0,30301.0
Atlanta,Clear,1970-01-30 23:00:00,12.9,,-,32.0,,30.3,,Georgia,41.0,,,,6:00 PM,,,,,,15.0,,NW,11.5,320.0,30301.0
Atlanta,Clear,1970-01-31 00:00:00,12.9,,-,36.0,,30.33,,Georgia,37.9,,,,7:00 PM,,,,,,15.0,,NW,6.9,320.0,30301.0
Atlanta,Clear,1970-01-31 01:00:00,14.0,,-,42.0,,30.35,,Georgia,35.1,,,,8:00 PM,,,,,,15.0,,NW,6.9,310.0,30301.0
Atlanta,Clear,1970-01-31 02:00:00,12.9,,-,40.0,,30.37,,Georgia,35.1,,,,9:00 PM,,,,,,15.0,,NW,9.2,320.0,30301.0
Atlanta,Clear,1970-01-31 03:00:00,12.9,,-,42.0,,30.39,,Georgia,34.0,,,,10:00 PM,,,,,,15.0,,NW,6.9,320.0,30301.0
Atlanta,Clear,1970-01-31 04:00:00,12.9,,-,45.0,,30.41,,Georgia,32.0,,,,11:00 PM,,,,,,15.0,,NW,6.9,320.0,30301.0
Atlanta,Clear,1970-01-31 05:00:00,14.0,,-,54.0,,30.42,,Georgia,28.9,,,,12:00 AM,,,,,,15.0,,WNW,6.9,300.0,30301.0
Atlanta,Clear,1970-01-31 06:00:00,15.1,,-,58.0,,30.42,,Georgia,28.0,,,,1:00 AM,,,,,,15.0,,West,8.1,280.0,30301.0
Atlanta,Clear,1970-01-31 07:00:00,16.0,,-,61.0,,30.43,,Georgia,28.0,,,,2:00 AM,,,,,,15.0,,West,5.8,270.0,30301.0
Atlanta,Clear,1970-01-31 08:00:00,16.0,,-,69.0,,30.44,,Georgia,25.0,,,,3:00 AM,,,,,,15.0,,West,6.9,280.0,30301.0
Atlanta,Clear,1970-01-31 09:00:00,16.0,,-,69.0,,30.44,,Georgia,25.0,,,,4:00 AM,,,,,,15.0,,West,8.1,280.0,30301.0
Atlanta,Clear,1970-01-31 10:00:00,16.0,,-,69.0,,30.45,,Georgia,25.0,,,,5:00 AM,,,,,,15.0,,WNW,6.9,300.0,30301.0
Atlanta,Clear,1970-01-31 11:00:00,15.1,,-,69.0,,30.45,,Georgia,24.1,,,,6:00 AM,,,,,,15.0,,West,8.1,270.0,30301.0
Atlanta,Clear,1970-01-31 12:00:00,15.1,,-,69.0,,30.48,,Georgia,24.1,,,,7:00 AM,,,,,,15.0,,West,8.1,270.0,30301.0
Atlanta,Clear,1970-01-31 13:00:00,14.0,,-,63.0,,30.48,,Georgia,25.0,,,,8:00 AM,,,,,,15.0,,West,8.1,270.0,30301.0
Atlanta,Clear,1970-01-31 14:00:00,15.1,,-,52.0,,30.49,,Georgia,30.9,,,,9:00 AM,,,,,,15.0,,West,9.2,270.0,30301.0
Atlanta,Clear,1970-01-31 15:00:00,14.0,,-,41.0,,30.52,,Georgia,36.0,,,,10:00 AM,,,,,,15.0,,West,8.1,270.0,30301.0
Atlanta,Clear,1970-01-31 16:00:00,14.0,,-,33.0,,30.52,,Georgia,41.0,,,,11:00 AM,,,,,,15.0,,West,5.8,270.0,30301.0
Atlanta,Clear,1970-01-31 17:00:00,17.1,,-,33.0,,30.5,,Georgia,45.0,,,,12:00 PM,,,,,,15.0,,West,8.1,270.0,30301.0
Atlanta,Clear,1970-01-31 18:00:00,17.1,,-,29.0,,30.45,,Georgia,48.0,,,,1:00 PM,,,,,,15.0,,West,8.1,270.0,30301.0
Atlanta,Clear,1970-01-31 19:00:00,15.1,,-,24.0,,30.4,,Georgia,51.1,,,,2:00 PM,,,,,,15.0,,West,5.8,270.0,30301.0
Atlanta,Clear,1970-01-31 20:00:00,15.1,,-,24.0,,30.39,,Georgia,51.1,,,,3:00 PM,,,,,,15.0,,West,5.8,270.0,30301.0
Atlanta,Clear,1970-01-31 21:00:00,14.0,,-,22.0,,30.38,,Georgia,52.0,,,,4:00 PM,,,,,,15.0,,WSW,6.9,240.0,30301.0
Atlanta,Clear,1970-01-31 22:00:00,15.1,,-,23.0,,30.38,,Georgia,52.0,,,,5:00 PM,,,,,,15.0,,WSW,6.9,240.0,30301.0
Atlanta,Clear,1970-01-31 23:00:00,17.1,,-,29.0,,30.39,,Georgia,48.0,,,,6:00 PM,,,,,,15.0,,West,6.9,260.0,30301.0
Atlanta,Clear,1970-02-01 00:00:00,18.0,,-,34.0,,30.39,,Georgia,45.0,,,,7:00 PM,,,,,,15.0,,WSW,5.8,240.0,30301.0
Atlanta,Clear,1970-02-01 01:00:00,18.0,,-,37.0,,30.4,,Georgia,43.0,,,,8:00 PM,,,,,,15.0,,WSW,5.8,250.0,30301.0
Atlanta,Clear,1970-02-01 02:00:00,18.0,,-,41.0,,30.39,,Georgia,39.9,,,,9:00 PM,,,,,,15.0,,SW,5.8,220.0,30301.0
Atlanta,Clear,1970-02-01 03:00:00,18.0,,-,46.0,,30.38,,Georgia,37.0,,,,10:00 PM,,,,,,15.0,,Calm,Calm,0.0,30301.0
Atlanta,Clear,1970-02-01 04:00:00,21.0,,-,55.0,,30.36,,Georgia,36.0,,,,11:00 PM,,,,,,15.0,,Calm,Calm,0.0,30301.0
Boise,Clear,1970-01-01 09:00:00,12.0,,-,81.0,,30.43,,Idaho,17.1,,,,,2:00 AM,,,,,20.0,,SSE,6.9,160.0,83701.0
Boise,Clear,1970-01-01 12:00:00,10.0,,-,77.0,,30.44,,Idaho,16.0,,,,,5:00 AM,,,,,20.0,,SE,6.9,140.0,83701.0
Boise,Clear,1970-01-01 15:00:00,6.1,,-,74.0,,30.49,,Idaho,12.9,,,,,8:00 AM,,,,,30.0,,SSE,5.8,150.0,83701.0
Boise,Clear,1970-01-01 18:00:00,10.9,,-,65.0,,30.55,,Idaho,21.0,,,,,11:00 AM,,,,,30.0,,SE,11.5,140.0,83701.0
Boise,Clear,1970-01-01 21:00:00,12.0,,-,53.0,,30.52,,Idaho,27.0,,,,,2:00 PM,,,,,30.0,,SE,6.9,130.0,83701.0
Boise,Clear,1970-01-02 00:00:00,12.9,,-,51.0,,30.52,,Idaho,28.9,,,,,5:00 PM,,,,,30.0,,NW,4.6,310.0,83701.0
Boise,Clear,1970-01-02 03:00:00,10.9,,-,77.0,,30.55,,Idaho,17.1,,,,,8:00 PM,,,,,30.0,,SE,8.1,130.0,83701.0
Boise,Unknown,1970-01-02 06:00:00,10.9,,-,77.0,,30.52,,Idaho,17.1,,,,,11:00 PM,,,,,30.0,,SE,10.4,130.0,83701.0
Boise,Unknown,1970-01-03 09:00:00,15.1,,-,72.0,,30.25,,Idaho,23.0,,,,,2:00 AM,,,,,20.0,,SE,11.5,130.0,83701.0
Boise,Clear,1970-01-03 12:00:00,12.9,,-,71.0,,30.19,,Idaho,21.0,,,,,5:00 AM,,,,,20.0,,SE,13.8,130.0,83701.0
Boise,Clear,1970-01-03 15:00:00,12.0,,-,71.0,,30.15,,Idaho,19.9,,,,,8:00 AM,,,,,30.0,,SE,15.0,140.0,83701.0
Boise,Clear,1970-01-03 18:00:00,12.9,,-,56.0,,30.09,,Idaho,27.0,,,,,11:00 AM,,,,,20.0,,East,13.8,100.0,83701.0
Boise,Clear,1970-01-03 21:00:00,10.9,,-,40.0,,29.99,,Idaho,33.1,,,,,2:00 PM,,,,,30.0,,South,9.2,170.0,83701.0
Boise,Clear,1970-01-04 00:00:00,14.0,,-,50.0,,29.98,,Idaho,30.9,,,,,5:00 PM,,,,,30.0,,NW,10.4,310.0,83701.0
Boise,Clear,1970-01-04 03:00:00,10.9,,-,77.0,,30.0,,Idaho,17.1,,,,,8:00 PM,,,,,30.0,,ESE,8.1,120.0,83701.0
Boise,Unknown,1970-01-04 06:00:00,12.0,,-,74.0,,29.98,,Idaho,19.0,,,,,11:00 PM,,,,,30.0,,SE,12.7,130.0,83701.0
Boise,Unknown,1970-01-04 09:00:00,12.9,,-,71.0,,29.96,,Idaho,21.0,,,,,2:00 AM,,,,,15.0,,SE,9.2,130.0,83701.0
Boise,Light Snow,1970-01-04 12:00:00,17.1,Snow,-,85.0,0.03,29.97,,Idaho,21.0,,,,,5:00 AM,,,,,5.5,,ESE,5.8,110.0,83701.0
Boise,Light Snow,1970-01-04 15:00:00,18.0,Snow,-,85.0,0.01,30.04,,Idaho,21.9,,,,,8:00 AM,,,,,8.0,,Calm,Calm,0.0,83701.0
Boise,Light Snow,1970-01-04 18:00:00,18.0,Fog-Snow,-,81.0,,30.11,,Idaho,23.0,,,,,11:00 AM,,,,,5.0,,WNW,4.6,290.0,83701.0
Boise,Light Snow,1970-01-04 21:00:00,19.9,Snow,-,81.0,,30.12,,Idaho,25.0,,,,,2:00 PM,,,,,5.0,,WNW,6.9,300.0,83701.0
Boise,Unknown,1970-01-05 00:00:00,17.1,,-,75.0,,30.19,,Idaho,24.1,,,,,5:00 PM,,,,,10.0,,SE,11.5,130.0,83701.0
Boise,Light Snow,1970-01-05 03:00:00,17.1,Snow,-,75.0,,30.28,,Idaho,24.1,,,,,8:00 PM,,,,,10.0,,SSE,6.9,150.0,83701.0
Boise,Light Snow,1970-01-05 06:00:00,17.1,Snow,-,78.0,,30.33,,Idaho,23.0,,,,,11:00 PM,,,,,10.0,,ESE,6.9,110.0,83701.0
Boise,Unknown,1970-01-05 09:00:00,15.1,,-,78.0,,30.38,,Idaho,21.0,,,,,2:00 AM,,,,,10.0,,ESE,5.8,120.0,83701.0
Boise,Unknown,1970-01-05 12:00:00,16.0,,-,74.0,,30.42,,Idaho,23.0,,,,,5:00 AM,,,,,10.0,,SE,9.2,140.0,83701.0
Boise,Unknown,1970-01-05 15:00:00,15.1,,-,75.0,,30.49,,Idaho,21.9,,,,,8:00 AM,,,,,15.0,,SE,9.2,140.0,83701.0
Boise,Unknown,1970-01-05 18:00:00,12.9,,-,68.0,,30.57,,Idaho,21.9,,,,,11:00 AM,,,,,20.0,,SSE,8.1,160.0,83701.0
Boise,Unknown,1970-01-05 21:00:00,12.9,,-,58.0,,30.56,,Idaho,26.1,,,,,2:00 PM,,,,,20.0,,SSE,5.8,150.0,83701.0
Boise,Unknown,1970-01-06 00:00:00,12.0,,-,58.0,,30.57,,Idaho,25.0,,,,,5:00 PM,,,,,30.0,,SE,10.4,130.0,83701.0
Boise,Unknown,1970-01-06 03:00:00,7.0,,-,74.0,,30.63,,Idaho,14.0,,,,,8:00 PM,,,,,30.0,,SE,11.5,130.0,83701.0
Boise,Unknown,1970-01-06 06:00:00,10.0,,-,74.0,,30.64,,Idaho,17.1,,,,,11:00 PM,,,,,30.0,,SE,11.5,130.0,83701.0
Boise,Unknown,1970-01-06 09:00:00,9.0,,-,71.0,,30.67,,Idaho,17.1,,,,,2:00 AM,,,,,20.0,,SE,12.7,130.0,83701.0
Boise,Unknown,1970-01-06 12:00:00,6.1,,-,68.0,,30.66,,Idaho,15.1,,,,,5:00 AM,,,,,20.0,,SE,11.5,130.0,83701.0
Boise,Unknown,1970-01-06 15:00:00,3.0,,-,77.0,,30.71,,Idaho,9.0,,,,,8:00 AM,,,,,30.0,,ESE,6.9,110.0,83701.0
Boise,Unknown,1970-01-06 18:00:00,3.9,,-,59.0,,30.7,,Idaho,16.0,,,,,11:00 AM,,,,,20.0,,SE,15.0,140.0,83701.0
Boise,Unknown,1970-01-06 21:00:00,7.0,,-,57.0,,30.63,,Idaho,19.9,,,,,2:00 PM,,,,,20.0,,SSE,8.1,160.0,83701.0
Boise,Unknown,1970-01-07 00:00:00,8.1,,-,60.0,,30.59,,Idaho,19.9,,,,,5:00 PM,,,,,15.0,,ENE,5.8,60.0,83701.0
Boise,Unknown,1970-01-07 03:00:00,5.0,,-,73.0,,30.61,,Idaho,12.0,,,,,8:00 PM,,,,,20.0,,SE,8.1,130.0,83701.0
Boise,Unknown,1970-01-07 06:00:00,6.1,,-,77.0,,30.58,,Idaho,12.0,,,,,11:00 PM,,,,,20.0,,ESE,8.1,120.0,83701.0
Boise,Unknown,1970-01-07 09:00:00,6.1,,-,74.0,,30.57,,Idaho,12.9,,,,,2:00 AM,,,,,20.0,,SE,9.2,130.0,83701.0
Boise,Unknown,1970-01-07 12:00:00,5.0,,-,73.0,,30.54,,Idaho,12.0,,,,,5:00 AM,,,,,30.0,,SSE,9.2,150.0,83701.0
Boise,Unknown,1970-01-07 15:00:00,1.9,,-,70.0,,30.56,,Idaho,10.0,,,,,8:00 AM,,,,,30.0,,SE,9.2,140.0,83701.0
Boise,Unknown,1970-01-07 18:00:00,3.9,,-,61.0,,30.56,,Idaho,15.1,,,,,11:00 AM,,,,,30.0,,ESE,13.8,120.0,83701.0
Boise,Unknown,1970-01-07 21:00:00,7.0,,-,57.0,,30.44,,Idaho,19.9,,,,,2:00 PM,,,,,30.0,,SE,11.5,130.0,83701.0
Boise,Unknown,1970-01-08 00:00:00,10.9,,-,55.0,,30.37,,Idaho,25.0,,,,,5:00 PM,,,,,30.0,,SE,9.2,130.0,83701.0
Boise,Unknown,1970-01-08 03:00:00,12.0,,-,66.0,,30.32,,Idaho,21.9,,,,,8:00 PM,,,,,30.0,,SE,10.4,140.0,83701.0
Boise,Unknown,1970-01-08 06:00:00,10.9,,-,63.0,,30.3,,Idaho,21.9,,,,,11:00 PM,,,,,30.0,,ESE,9.2,110.0,83701.0
Boise,Unknown,1970-01-08 09:00:00,10.9,,-,60.0,,30.27,,Idaho,23.0,,,,,2:00 AM,,,,,30.0,,SSE,6.9,160.0,83701.0
Boise,Unknown,1970-01-08 12:00:00,12.0,,-,60.0,,30.2,,Idaho,24.1,,,,,5:00 AM,,,,,30.0,,South,11.5,170.0,83701.0
Boise,Unknown,1970-01-08 15:00:00,12.0,,-,58.0,,30.2,,Idaho,25.0,,,,,8:00 AM,,,,,30.0,,South,8.1,190.0,83701.0
Boise,Unknown,1970-01-08 18:00:00,12.9,,-,53.0,,30.2,,Idaho,28.0,,,,,11:00 AM,,,,,30.0,,SSE,15.0,160.0,83701.0
Boise,Light Snow,1970-01-08 21:00:00,18.0,Snow,-,52.0,,30.1,,Idaho,34.0,,,,,2:00 PM,,,,,20.0,,ESE,13.8,120.0,83701.0
Boise,Unknown,1970-01-09 00:00:00,17.1,,-,50.0,,30.07,,Idaho,34.0,,,,,5:00 PM,,,,,30.0,,SE,13.8,130.0,83701.0
Boise,Unknown,1970-01-09 03:00:00,19.0,,-,56.0,,30.05,,Idaho,33.1,,,,,8:00 PM,,,,,20.0,,SE,15.0,140.0,83701.0
Boise,Light Rain,1970-01-09 06:00:00,28.0,Rain-Snow,-,73.0,,30.0,,Idaho,36.0,,,,,11:00 PM,,,,,10.0,,SSE,9.2,160.0,83701.0
Boise,Light Rain,1970-01-09 09:00:00,30.9,Rain-Snow,-,89.0,,29.95,,Idaho,34.0,,,,,2:00 AM,,,,,3.0,,SE,23.0,130.0,83701.0
Boise,Light Rain,1970-01-09 12:00:00,32.0,Rain,-,79.0,0.01,29.94,,Idaho,37.9,,,,,5:00 AM,,,,,10.0,,South,11.5,180.0,83701.0
Boise,Light Rain,1970-01-09 15:00:00,32.0,Rain,-,82.0,0.01,29.93,,Idaho,37.0,,,,,8:00 AM,,,,,10.0,,South,18.4,180.0,83701.0
Boise,Unknown,1970-01-09 18:00:00,32.0,,-,79.0,,29.92,,Idaho,37.9,,,,,11:00 AM,,,,,30.0,,SE,19.6,140.0,83701.0
Boise,Unknown,1970-01-09 21:00:00,33.1,,-,68.0,,29.81,,Idaho,43.0,,,,,2:00 PM,,,,,30.0,,ESE,19.6,120.0,83701.0
Boise,Unknown,1970-01-10 00:00:00,32.0,,-,65.0,,29.75,,Idaho,43.0,,,,,5:00 PM,,,,,15.0,,ESE,19.6,110.0,83701.0
Boise,Unknown,1970-01-10 03:00:00,32.0,,-,65.0,,29.69,,Idaho,43.0,,,,,8:00 PM,,,,,15.0,,SE,17.3,130.0,83701.0
Boise,Unknown,1970-01-10 06:00:00,34.0,,-,73.0,0.02,29.68,,Idaho,42.1,,,,,11:00 PM,,,,,15.0,,ESE,16.1,110.0,83701.0
Boise,Unknown,1970-01-10 09:00:00,32.0,,-,60.0,,29.65,,Idaho,45.0,,,,,2:00 AM,,,,,20.0,,ESE,18.4,120.0,83701.0
Boise,Unknown,1970-01-10 12:00:00,32.0,,-,63.0,,29.71,,Idaho,44.1,,,,,5:00 AM,,,,,30.0,,SE,15.0,140.0,83701.0
Boise,Light Rain,1970-01-10 15:00:00,34.0,Rain,-,79.0,0.02,29.77,,Idaho,39.9,,,,,8:00 AM,,,,,7.0,,ENE,3.5,60.0,83701.0
Boise,Unknown,1970-01-10 18:00:00,35.1,,-,83.0,,29.9,,Idaho,39.9,,,,,11:00 AM,,,,,20.0,,WNW,11.5,290.0,83701.0
Boise,Unknown,1970-01-10 21:00:00,35.1,,-,76.0,,29.93,,Idaho,42.1,,,,,2:00 PM,,,,,30.0,,NNW,11.5,340.0,83701.0
Boise,Unknown,1970-01-11 00:00:00,32.0,,-,70.0,,29.99,,Idaho,41.0,,,,,5:00 PM,,,,,30.0,,WNW,8.1,300.0,83701.0
Boise,Unknown,1970-01-11 03:00:00,30.0,,-,85.0,,30.05,,Idaho,34.0,,,,,8:00 PM,,,,,20.0,,East,5.8,100.0,83701.0
Boise,Light Rain,1970-01-11 06:00:00,30.9,Rain-Snow,-,89.0,,30.05,,Idaho,34.0,,,,,11:00 PM,,,,,10.0,,SE,6.9,140.0,83701.0
Boise,Unknown,1970-01-11 09:00:00,30.9,,-,89.0,,30.04,,Idaho,34.0,,,,,2:00 AM,,,,,20.0,,ESE,8.1,120.0,83701.0
Boise,Light Snow,1970-01-11 12:00:00,32.0,Snow,-,89.0,0.02,30.05,,Idaho,35.1,,,,,5:00 AM,,,,,5.0,,SSW,5.8,200.0,83701.0
Boise,Unknown,1970-01-11 15:00:00,30.9,,-,89.0,,30.09,,Idaho,34.0,,,,,8:00 AM,,,,,15.0,,WSW,5.8,250.0,83701.0
Boise,Fog,1970-01-11 18:00:00,32.0,Fog,-,89.0,,30.11,,Idaho,35.1,,,,,11:00 AM,,,,,1.0,,North,4.6,360.0,83701.0
Boise,Fog,1970-01-11 21:00:00,34.0,Fog,-,86.0,,30.05,,Idaho,37.9,,,,,2:00 PM,,,,,3.0,,NNE,4.6,20.0,83701.0
Boise,Fog,1970-01-12 00:00:00,35.1,Fog,-,93.0,,30.04,,Idaho,37.0,,,,,5:00 PM,,,,,0.1,,WNW,5.8,300.0,83701.0
Boise,Fog,1970-01-12 03:00:00,32.0,Fog,-,92.0,,30.04,,Idaho,34.0,,,,,8:00 PM,,,,,0.2,,SSE,5.8,160.0,83701.0
Boise,Fog,1970-01-12 06:00:00,33.1,Fog,-,96.0,,30.03,,Idaho,34.0,,,,,11:00 PM,,,,,4.0,,SE,5.8,130.0,83701.0
Boise,Light Rain,1970-01-12 09:00:00,30.9,Fog-Rain,-,89.0,,30.0,,Idaho,34.0,,,,,2:00 AM,,,,,4.0,,Calm,Calm,0.0,83701.0
Boise,Light Rain,1970-01-12 12:00:00,30.9,Fog-Rain,-,85.0,0.01,29.99,,Idaho,35.1,,,,,5:00 AM,,,,,4.0,,East,6.9,100.0,83701.0
Boise,Unknown,1970-01-12 15:00:00,32.0,,-,79.0,,29.96,,Idaho,37.9,,,,,8:00 AM,,,,,10.0,,ESE,11.5,120.0,83701.0
Boise,Light Rain,1970-01-12 18:00:00,33.1,Rain,-,77.0,,29.99,,Idaho,39.9,,,,,11:00 AM,,,,,20.0,,SE,15.0,130.0,83701.0
Boise,Light Rain,1970-01-12 21:00:00,37.0,Rain,-,86.0,0.02,29.95,,Idaho,41.0,,,,,2:00 PM,,,,,20.0,,East,13.8,100.0,83701.0
Boise,Unknown,1970-01-13 00:00:00,35.1,,-,76.0,,29.91,,Idaho,42.1,,,,,5:00 PM,,,,,20.0,,ESE,13.8,110.0,83701.0
Boise,Light Rain,1970-01-13 03:00:00,35.1,Rain,-,74.0,,29.89,,Idaho,43.0,,,,,8:00 PM,,,,,15.0,,SE,16.1,130.0,83701.0
Boise,Light Rain,1970-01-13 06:00:00,37.0,Rain,-,82.0,0.02,29.92,,Idaho,42.1,,,,,11:00 PM,,,,,10.0,,ESE,11.5,120.0,83701.0
Boise,Unknown,1970-01-13 09:00:00,35.1,,-,79.0,,29.95,,Idaho,41.0,,,,,2:00 AM,,,,,10.0,,SE,13.8,130.0,83701.0
Boise,Unknown,1970-01-13 12:00:00,34.0,,-,79.0,,29.99,,Idaho,39.9,,,,,5:00 AM,,,,,20.0,,ESE,9.2,110.0,83701.0
Boise,Light Rain,1970-01-13 15:00:00,34.0,Rain,-,76.0,,30.0,,Idaho,41.0,,,,,8:00 AM,,,,,15.0,,ESE,13.8,110.0,83701.0
Boise,Unknown,1970-01-13 18:00:00,36.0,,-,76.0,,30.04,,Idaho,43.0,,,,,11:00 AM,,,,,30.0,,ESE,15.0,110.0,83701.0
Boise,Light Rain,1970-01-13 21:00:00,36.0,Rain,-,71.0,,29.99,,Idaho,45.0,,,,,2:00 PM,,,,,15.0,,ESE,11.5,120.0,83701.0
Boise,Unknown,1970-01-14 00:00:00,36.0,,-,71.0,,29.97,,Idaho,45.0,,,,,5:00 PM,,,,,20.0,,ESE,17.3,120.0,83701.0
Boise,Unknown,1970-01-14 03:00:00,35.1,,-,68.0,,29.95,,Idaho,45.0,,,,,8:00 PM,,,,,20.0,,SE,23.0,130.0,83701.0
Boise,Unknown,1970-01-14 06:00:00,35.1,,-,68.0,,29.93,,Idaho,45.0,,,,,11:00 PM,,,,,15.0,,ESE,18.4,120.0,83701.0
Boise,Unknown,1970-01-14 09:00:00,33.1,,-,63.0,,29.91,,Idaho,45.0,,,,,2:00 AM,,,,,15.0,,ESE,20.7,120.0,83701.0
Boise,Light Rain,1970-01-14 12:00:00,37.0,Rain,-,74.0,0.02,29.85,,Idaho,45.0,,,,,5:00 AM,,,,,10.0,,ESE,15.0,110.0,83701.0
Boise,Unknown,1970-01-14 15:00:00,37.0,,-,76.0,,0.0,,Idaho,44.1,,,,,8:00 AM,,,,,15.0,,ESE,16.1,120.0,83701.0
Boise,Unknown,1970-01-14 18:00:00,37.0,,-,74.0,,29.85,,Idaho,45.0,,,,,11:00 AM,,,,,30.0,,ESE,13.8,120.0,83701.0
Boise,Light Rain,1970-01-14 21:00:00,39.0,Rain,-,80.0,,29.79,,Idaho,45.0,,,,,2:00 PM,,,,,10.0,,ESE,9.2,110.0,83701.0
Boise,Light Rain,1970-01-15 00:00:00,39.9,Fog-Rain,-,85.0,0.03,29.78,,Idaho,44.1,,,,,5:00 PM,,,,,4.0,,ESE,9.2,110.0,83701.0
Boise,Light Rain,1970-01-15 03:00:00,37.9,Rain,-,85.0,0.07,29.81,,Idaho,42.1,,,,,8:00 PM,,,,,10.0,,ESE,11.5,120.0,83701.0
Boise,Unknown,1970-01-15 06:00:00,36.0,,-,86.0,,29.84,,Idaho,39.9,,,,,11:00 PM,,,,,10.0,,ESE,9.2,120.0,83701.0
Boise,Unknown,1970-01-15 09:00:00,33.1,,-,86.0,,29.9,,Idaho,37.0,,,,,2:00 AM,,,,,10.0,,SE,9.2,130.0,83701.0
Boise,Unknown,1970-01-15 12:00:00,32.0,,-,82.0,,29.94,,Idaho,37.0,,,,,5:00 AM,,,,,20.0,,ESE,5.8,120.0,83701.0
Boise,Unknown,1970-01-15 15:00:00,33.1,,-,89.0,,29.98,,Idaho,36.0,,,,,8:00 AM,,,,,30.0,,ESE,8.1,120.0,83701.0
Boise,Light Rain Showers,1970-01-15 18:00:00,37.0,Rain,-,82.0,,30.04,,Idaho,42.1,,,,,11:00 AM,,,,,20.0,,East,8.1,100.0,83701.0
Boise,Unknown,1970-01-15 21:00:00,35.1,,-,61.0,,29.98,,Idaho,48.0,,,,,2:00 PM,,,,,30.0,,East,6.9,80.0,83701.0
Boise,Unknown,1970-01-16 00:00:00,37.0,,-,68.0,,29.99,,Idaho,46.9,,,,,5:00 PM,,,,,30.0,,ESE,8.1,110.0,83701.0
Boise,Unknown,1970-01-16 03:00:00,36.0,,-,73.0,,29.96,,Idaho,44.1,,,,,8:00 PM,,,,,30.0,,ESE,11.5,110.0,83701.0
Boise,Unknown,1970-01-16 06:00:00,34.0,,-,65.0,,29.89,,Idaho,45.0,,,,,11:00 PM,,,,,30.0,,ESE,16.1,110.0,83701.0
Boise,Light Rain,1970-01-16 09:00:00,35.1,Rain,-,76.0,0.03,29.84,,Idaho,42.1,,,,,2:00 AM,,,,,10.0,,SE,17.3,140.0,83701.0
Boise,Light Rain,1970-01-16 12:00:00,34.0,Rain,-,79.0,0.01,29.76,,Idaho,39.9,,,,,5:00 AM,,,,,10.0,,ESE,19.6,120.0,83701.0
Boise,Light Rain,1970-01-16 15:00:00,36.0,Rain,-,82.0,0.02,29.73,,Idaho,41.0,,,,,8:00 AM,,,,,20.0,,East,11.5,100.0,83701.0
Boise,Light Rain,1970-01-16 18:00:00,36.0,Rain,-,79.0,,29.73,,Idaho,42.1,,,,,11:00 AM,,,,,30.0,,ESE,15.0,120.0,83701.0
Boise,Light Rain,1970-01-16 21:00:00,37.0,Rain,-,80.0,0.03,29.72,,Idaho,43.0,,,,,2:00 PM,,,,,10.0,,ESE,13.8,120.0,83701.0
Boise,Light Rain,1970-01-17 00:00:00,37.9,Rain,-,85.0,0.04,29.72,,Idaho,42.1,,,,,5:00 PM,,,,,7.0,,ESE,9.2,120.0,83701.0
Boise,Light Rain,1970-01-17 03:00:00,37.0,Rain,-,86.0,0.06,29.78,,Idaho,41.0,,,,,8:00 PM,,,,,6.0,,ESE,11.5,110.0,83701.0
Boise,Unknown,1970-01-17 06:00:00,36.0,,-,86.0,,29.8,,Idaho,39.9,,,,,11:00 PM,,,,,20.0,,ESE,10.4,120.0,83701.0
Boise,Light Drizzle,1970-01-17 09:00:00,36.0,,-,86.0,,29.78,,Idaho,39.9,,,,,2:00 AM,,,,,15.0,,ESE,11.5,110.0,83701.0
Boise,Light Rain,1970-01-17 12:00:00,37.0,Rain,-,86.0,0.01,29.8,,Idaho,41.0,,,,,5:00 AM,,,,,7.0,,East,8.1,100.0,83701.0
Boise,Light Rain,1970-01-17 15:00:00,37.0,Rain,-,86.0,0.02,29.83,,Idaho,41.0,,,,,8:00 AM,,,,,7.0,,ESE,9.2,120.0,83701.0
Boise,Light Rain,1970-01-17 18:00:00,39.0,Rain,-,89.0,0.01,29.89,,Idaho,42.1,,,,,11:00 AM,,,,,30.0,,ESE,6.9,110.0,83701.0
Boise,Light Rain,1970-01-17 21:00:00,41.0,Rain,-,83.0,0.01,29.89,,Idaho,46.0,,,,,2:00 PM,,,,,30.0,,SE,4.6,130.0,83701.0
Boise,Unknown,1970-01-18 00:00:00,42.1,,-,83.0,,29.93,,Idaho,46.9,,,,,5:00 PM,,,,,30.0,,ENE,4.6,60.0,83701.0
Boise,Unknown,1970-01-18 03:00:00,39.9,,-,82.0,,29.97,,Idaho,45.0,,,,,8:00 PM,,,,,30.0,,SSE,6.9,150.0,83701.0
Boise,Light Rain,1970-01-18 06:00:00,39.9,Rain,-,82.0,0.01,30.01,,Idaho,45.0,,,,,11:00 PM,,,,,30.0,,ESE,8.1,120.0,83701.0
Boise,Light Drizzle,1970-01-18 09:00:00,39.0,,-,82.0,,30.01,,Idaho,44.1,,,,,2:00 AM,,,,,15.0,,ESE,9.2,120.0,83701.0
Boise,Light Rain,1970-01-18 12:00:00,39.0,Rain,-,86.0,0.01,30.03,,Idaho,43.0,,,,,5:00 AM,,,,,10.0,,ESE,8.1,110.0,83701.0
Boise,Light Rain,1970-01-18 15:00:00,39.0,Rain,-,86.0,0.03,30.04,,Idaho,43.0,,,,,8:00 AM,,,,,15.0,,East,8.1,100.0,83701.0
Boise,Light Rain,1970-01-18 18:00:00,41.0,Rain,-,89.0,0.02,30.08,,Idaho,44.1,,,,,11:00 AM,,,,,10.0,,ESE,9.2,120.0,83701.0
Boise,Light Rain,1970-01-18 21:00:00,42.1,Rain,-,90.0,0.02,30.05,,Idaho,45.0,,,,,2:00 PM,,,,,10.0,,East,9.2,80.0,83701.0
Boise,Light Rain,1970-01-19 00:00:00,43.0,Rain,-,89.0,,30.04,,Idaho,46.0,,,,,5:00 PM,,,,,30.0,,ESE,8.1,120.0,83701.0
Boise,Light Rain,1970-01-19 03:00:00,39.9,Rain,-,82.0,,30.03,,Idaho,45.0,,,,,8:00 PM,,,,,20.0,,ESE,9.2,120.0,83701.0
Boise,Light Rain,1970-01-19 06:00:00,39.9,Rain,-,85.0,0.02,30.05,,Idaho,44.1,,,,,11:00 PM,,,,,15.0,,ESE,9.2,110.0,83701.0
Boise,Unknown,1970-01-19 09:00:00,37.9,,-,79.0,,30.03,,Idaho,44.1,,,,,2:00 AM,,,,,20.0,,SE,10.4,130.0,83701.0
Boise,Unknown,1970-01-19 12:00:00,36.0,,-,86.0,,30.03,,Idaho,39.9,,,,,5:00 AM,,,,,20.0,,SE,10.4,130.0,83701.0
Boise,Unknown,1970-01-19 15:00:00,35.1,,-,83.0,,30.03,,Idaho,39.9,,,,,8:00 AM,,,,,30.0,,SE,11.5,130.0,83701.0
Boise,Unknown,1970-01-19 18:00:00,37.9,,-,79.0,,30.02,,Idaho,44.1,,,,,11:00 AM,,,,,30.0,,SE,15.0,130.0,83701.0
Boise,Light Rain,1970-01-19 21:00:00,39.9,Rain,-,74.0,0.01,29.98,,Idaho,48.0,,,,,2:00 PM,,,,,10.0,,SE,11.5,140.0,83701.0
Boise,Light Rain,1970-01-20 00:00:00,41.0,Rain,-,83.0,0.06,30.02,,Idaho,46.0,,,,,5:00 PM,,,,,10.0,,ESE,12.7,120.0,83701.0
Boise,Unknown,1970-01-20 03:00:00,37.9,,-,76.0,,30.01,,Idaho,45.0,,,,,8:00 PM,,,,,30.0,,SE,13.8,130.0,83701.0
Boise,Unknown,1970-01-20 06:00:00,37.0,,-,76.0,,29.99,,Idaho,44.1,,,,,11:00 PM,,,,,30.0,,ESE,16.1,110.0,83701.0
Boise,Light Rain,1970-01-20 09:00:00,37.0,Rain,-,76.0,,30.04,,Idaho,44.1,,,,,2:00 AM,,,,,10.0,,East,4.6,100.0,83701.0
Boise,Unknown,1970-01-20 12:00:00,36.0,,-,86.0,,30.12,,Idaho,39.9,,,,,5:00 AM,,,,,20.0,,ESE,8.1,120.0,83701.0
Boise,Unknown,1970-01-20 15:00:00,35.1,,-,83.0,,30.15,,Idaho,39.9,,,,,8:00 AM,,,,,30.0,,ESE,8.1,120.0,83701.0
Boise,Unknown,1970-01-20 18:00:00,39.9,,-,85.0,,30.2,,Idaho,44.1,,,,,11:00 AM,,,,,30.0,,ESE,6.9,120.0,83701.0
Boise,Unknown,1970-01-20 21:00:00,37.9,,-,63.0,,30.18,,Idaho,50.0,,,,,2:00 PM,,,,,30.0,,NE,5.8,50.0,83701.0
Boise,Unknown,1970-01-21 00:00:00,37.9,,-,61.0,,30.17,,Idaho,51.1,,,,,5:00 PM,,,,,30.0,,ESE,9.2,120.0,83701.0
Boise,Unknown,1970-01-21 03:00:00,36.0,,-,66.0,,30.14,,Idaho,46.9,,,,,8:00 PM,,,,,30.0,,ESE,15.0,120.0,83701.0
Boise,Unknown,1970-01-21 06:00:00,35.1,,-,63.0,,30.14,,Idaho,46.9,,,,,11:00 PM,,,,,30.0,,ESE,13.8,120.0,83701.0
Boise,Light Rain,1970-01-21 09:00:00,37.0,Rain,-,76.0,0.06,30.13,,Idaho,44.1,,,,,2:00 AM,,,,,7.0,,ESE,12.7,120.0,83701.0
Boise,Light Rain,1970-01-21 12:00:00,37.9,Rain,-,76.0,,30.06,,Idaho,45.0,,,,,5:00 AM,,,,,10.0,,ESE,17.3,110.0,83701.0
Boise,Light Rain,1970-01-21 15:00:00,37.9,Rain,-,76.0,0.04,30.04,,Idaho,45.0,,,,,8:00 AM,,,,,10.0,,ESE,20.7,110.0,83701.0
Boise,Unknown,1970-01-21 18:00:00,39.9,,-,82.0,,30.05,,Idaho,45.0,,,,,11:00 AM,,,,,20.0,,ESE,20.7,120.0,83701.0
Boise,Light Rain,1970-01-21 21:00:00,39.9,Rain,-,79.0,,30.01,,Idaho,46.0,,,,,2:00 PM,,,,,15.0,,ESE,19.6,120.0,83701.0
Boise,Light Rain,1970-01-22 00:00:00,41.0,Rain,-,80.0,,29.99,,Idaho,46.9,,,,,5:00 PM,,,,,15.0,,ESE,16.1,120.0,83701.0
Boise,Light Rain,1970-01-22 03:00:00,44.1,Rain,-,86.0,0.03,30.06,,Idaho,48.0,,,,,8:00 PM,,,,,6.0,,North,6.9,10.0,83701.0
Boise,Light Rain,1970-01-22 06:00:00,41.0,Fog-Rain,-,86.0,0.04,30.1,,Idaho,45.0,,,,,11:00 PM,,,,,5.0,,East,6.9,100.0,83701.0
Boise,Light Rain,1970-01-22 09:00:00,41.0,Rain,-,86.0,0.05,30.09,,Idaho,45.0,,,,,2:00 AM,,,,,5.0,,ESE,5.8,120.0,83701.0
Boise,Light Rain,1970-01-22 12:00:00,39.0,Rain,-,86.0,0.02,30.1,,Idaho,43.0,,,,,5:00 AM,,,,,10.0,,ESE,5.8,110.0,83701.0
Boise,Light Rain,1970-01-22 15:00:00,39.0,Rain,-,86.0,0.05,30.08,,Idaho,43.0,,,,,8:00 AM,,,,,10.0,,ESE,9.2,120.0,83701.0
Boise,Light Rain,1970-01-22 18:00:00,39.9,Rain,-,85.0,0.05,30.07,,Idaho,44.1,,,,,11:00 AM,,,,,8.0,,SE,11.5,130.0,83701.0
Boise,Unknown,1970-01-22 21:00:00,41.0,,-,83.0,,29.98,,Idaho,46.0,,,,,2:00 PM,,,,,15.0,,ESE,21.9,120.0,83701.0
Boise,Unknown,1970-01-23 00:00:00,41.0,,-,80.0,,30.01,,Idaho,46.9,,,,,5:00 PM,,,,,30.0,,ESE,16.1,120.0,83701.0
Boise,Unknown,1970-01-23 03:00:00,41.0,,-,80.0,,30.02,,Idaho,46.9,,,,,8:00 PM,,,,,30.0,,ESE,17.3,120.0,83701.0
Boise,Unknown,1970-01-23 06:00:00,39.9,,-,77.0,,30.01,,Idaho,46.9,,,,,11:00 PM,,,,,30.0,,ESE,13.8,120.0,83701.0
Boise,Unknown,1970-01-23 09:00:00,39.0,,-,71.0,,29.97,,Idaho,48.0,,,,,2:00 AM,,,,,30.0,,ESE,11.5,120.0,83701.0
Boise,Unknown,1970-01-23 12:00:00,39.9,,-,74.0,,29.96,,Idaho,48.0,,,,,5:00 AM,,,,,20.0,,ESE,12.7,120.0,83701.0
Boise,Light Rain,1970-01-23 15:00:00,39.0,Rain,-,71.0,0.01,29.93,,Idaho,48.0,,,,,8:00 AM,,,,,15.0,,SSE,11.5,150.0,83701.0
Boise,Light Rain,1970-01-23 18:00:00,42.1,Rain,-,83.0,0.03,29.92,,Idaho,46.9,,,,,11:00 AM,,,,,20.0,,ESE,15.0,110.0,83701.0
Boise,Unknown,1970-01-23 21:00:00,42.1,,-,69.0,,29.78,,Idaho,52.0,,,,,2:00 PM,,,,,30.0,,ESE,18.4,110.0,83701.0
Boise,Unknown,1970-01-24 00:00:00,37.0,,-,57.0,,29.7,,Idaho,52.0,,,,,5:00 PM,,,,,30.0,,ESE,16.1,120.0,83701.0
Boise,Unknown,1970-01-24 03:00:00,35.1,,-,50.0,,29.62,,Idaho,53.1,,,,,8:00 PM,,,,,30.0,,ESE,17.3,120.0,83701.0
Boise,Unknown,1970-01-24 06:00:00,36.0,,-,54.0,,29.61,,Idaho,52.0,,,,,11:00 PM,,,,,20.0,,South,11.5,190.0,83701.0
Boise,Unknown,1970-01-24 09:00:00,39.9,,-,71.0,,29.53,,Idaho,48.9,,,,,2:00 AM,,,,,20.0,,East,11.5,100.0,83701.0
Boise,Unknown,1970-01-24 12:00:00,36.0,,-,56.0,,29.49,,Idaho,51.1,,,,,5:00 AM,,,,,20.0,,South,10.4,180.0,83701.0
Boise,Unknown,1970-01-24 15:00:00,32.0,,-,52.0,,29.62,,Idaho,48.9,,,,,8:00 AM,,,,,30.0,,SW,17.3,220.0,83701.0
Boise,Unknown,1970-01-24 18:00:00,27.0,,-,44.0,,29.73,,Idaho,48.0,,,,,11:00 AM,,,,,30.0,,NNE,6.9,20.0,83701.0
Boise,Unknown,1970-01-24 21:00:00,35.1,,-,66.0,,29.75,,Idaho,46.0,,,,,2:00 PM,,,,,15.0,,ENE,8.1,70.0,83701.0
Boise,Unknown,1970-01-25 00:00:00,36.0,,-,71.0,,29.78,,Idaho,45.0,,,,,5:00 PM,,,,,30.0,,ESE,11.5,110.0,83701.0
Boise,Unknown,1970-01-25 03:00:00,30.9,,-,56.0,,29.91,,Idaho,46.0,,,,,8:00 PM,,,,,30.0,,WNW,11.5,290.0,83701.0
Boise,Unknown,1970-01-25 06:00:00,30.0,,-,58.0,,30.03,,Idaho,44.1,,,,,11:00 PM,,,,,30.0,,West,6.9,270.0,83701.0
Boise,Unknown,1970-01-25 09:00:00,30.0,,-,70.0,,30.1,,Idaho,39.0,,,,,2:00 AM,,,,,30.0,,SSE,5.8,160.0,83701.0
Boise,Unknown,1970-01-25 12:00:00,28.0,,-,70.0,,30.13,,Idaho,37.0,,,,,5:00 AM,,,,,30.0,,ESE,8.1,120.0,83701.0
Boise,Unknown,1970-01-25 15:00:00,28.9,,-,73.0,,30.13,,Idaho,37.0,,,,,8:00 AM,,,,,30.0,,SE,11.5,130.0,83701.0
Boise,Unknown,1970-01-25 18:00:00,30.9,,-,58.0,,30.12,,Idaho,45.0,,,,,11:00 AM,,,,,30.0,,ESE,19.6,120.0,83701.0
Boise,Unknown,1970-01-25 21:00:00,30.0,,-,52.0,,30.07,,Idaho,46.9,,,,,2:00 PM,,,,,30.0,,SSE,16.1,160.0,83701.0
Boise,Light Rain Showers,1970-01-26 00:00:00,27.0,Rain,-,44.0,,30.07,,Idaho,48.0,,,,,5:00 PM,,,,,30.0,,SW,13.8,220.0,83701.0
Boise,Unknown,1970-01-26 03:00:00,30.0,,-,54.0,,30.12,,Idaho,46.0,,,,,8:00 PM,,,,,30.0,,WSW,11.5,240.0,83701.0
Boise,Unknown,1970-01-26 06:00:00,33.1,,-,63.0,,30.13,,Idaho,45.0,,,,,11:00 PM,,,,,20.0,,West,9.2,260.0,83701.0
Boise,Unknown,1970-01-26 09:00:00,35.1,,-,76.0,,30.15,,Idaho,42.1,,,,,2:00 AM,,,,,20.0,,ENE,8.1,70.0,83701.0
Boise,Light Rain,1970-01-26 12:00:00,35.1,Rain,-,83.0,0.02,30.15,,Idaho,39.9,,,,,5:00 AM,,,,,10.0,,ESE,8.1,120.0,83701.0
Boise,Unknown,1970-01-26 15:00:00,35.1,,-,79.0,,30.08,,Idaho,41.0,,,,,8:00 AM,,,,,20.0,,ESE,13.8,110.0,83701.0
Boise,Light Rain,1970-01-26 18:00:00,35.1,Rain,-,68.0,,30.04,,Idaho,45.0,,,,,11:00 AM,,,,,20.0,,ESE,12.7,110.0,83701.0
Boise,Light Rain,1970-01-26 21:00:00,37.0,Rain,-,74.0,,29.97,,Idaho,45.0,,,,,2:00 PM,,,,,10.0,,ESE,18.4,120.0,83701.0
Boise,Light Rain,1970-01-27 00:00:00,37.0,Rain,-,80.0,0.05,29.89,,Idaho,43.0,,,,,5:00 PM,,,,,7.0,,ESE,18.4,120.0,83701.0
Boise,Light Rain,1970-01-27 03:00:00,37.0,Rain,-,82.0,0.07,29.81,,Idaho,42.1,,,,,8:00 PM,,,,,7.0,,ESE,18.4,120.0,83701.0
Boise,Light Rain,1970-01-27 06:00:00,37.0,Rain,-,80.0,0.03,29.71,,Idaho,43.0,,,,,11:00 PM,,,,,8.0,,SE,17.3,130.0,83701.0
Boise,Light Rain,1970-01-27 09:00:00,39.0,Rain,-,82.0,0.03,29.65,,Idaho,44.1,,,,,2:00 AM,,,,,15.0,,East,13.8,100.0,83701.0
Boise,Unknown,1970-01-27 12:00:00,39.0,,-,80.0,,29.62,,Idaho,45.0,,,,,5:00 AM,,,,,20.0,,ESE,12.7,110.0,83701.0
Boise,Unknown,1970-01-27 15:00:00,36.0,,-,71.0,,29.67,,Idaho,45.0,,,,,8:00 AM,,,,,30.0,,NW,15.0,310.0,83701.0
Boise,Unknown,1970-01-27 18:00:00,28.9,,-,53.0,,29.77,,Idaho,45.0,,,,,11:00 AM,,,,,30.0,,WNW,23.0,300.0,83701.0
Boise,Unknown,1970-01-27 21:00:00,23.0,,-,42.0,,29.8,,Idaho,45.0,,,,,2:00 PM,,,,,30.0,,NW,28.8,310.0,83701.0
Boise,Unknown,1970-01-28 00:00:00,21.9,,-,54.0,0.01,29.92,,Idaho,37.0,,,,,5:00 PM,,,,,20.0,,NNW,21.9,330.0,83701.0
Boise,Unknown,1970-01-28 03:00:00,21.9,,-,59.0,,29.99,,Idaho,35.1,,,,,8:00 PM,,,,,15.0,,NW,15.0,320.0,83701.0
Boise,Unknown,1970-01-28 06:00:00,21.9,,-,64.0,,30.08,,Idaho,33.1,,,,,11:00 PM,,,,,15.0,,WNW,12.7,300.0,83701.0
Boise,Unknown,1970-01-28 09:00:00,19.9,,-,61.0,,30.17,,Idaho,32.0,,,,,2:00 AM,,,,,15.0,,WNW,17.3,290.0,83701.0
Boise,Unknown,1970-01-28 12:00:00,19.0,,-,59.0,,30.27,,Idaho,32.0,,,,,5:00 AM,,,,,30.0,,WNW,18.4,300.0,83701.0
Boise,Unknown,1970-01-28 15:00:00,18.0,,-,56.0,,30.36,,Idaho,32.0,,,,,8:00 AM,,,,,30.0,,NW,11.5,320.0,83701.0
Boise,Unknown,1970-01-28 18:00:00,19.0,,-,56.0,,30.46,,Idaho,33.1,,,,,11:00 AM,,,,,30.0,,NNW,8.1,340.0,83701.0
Boise,Unknown,1970-01-28 21:00:00,18.0,,-,45.0,,30.45,,Idaho,37.9,,,,,2:00 PM,,,,,30.0,,NNW,13.8,330.0,83701.0
Boise,Unknown,1970-01-29 00:00:00,18.0,,-,43.0,,30.48,,Idaho,39.0,,,,,5:00 PM,,,,,20.0,,NNW,11.5,340.0,83701.0
Boise,Clear,1970-01-29 03:00:00,21.0,,-,61.0,,30.52,,Idaho,33.1,,,,,8:00 PM,,,,,20.0,,ENE,5.8,70.0,83701.0
Boise,Unknown,1970-01-29 06:00:00,21.9,,-,78.0,,30.55,,Idaho,28.0,,,,,11:00 PM,,,,,20.0,,ESE,8.1,120.0,83701.0
Boise,Unknown,1970-01-29 09:00:00,21.0,,-,72.0,,30.54,,Idaho,28.9,,,,,2:00 AM,,,,,15.0,,SE,8.1,130.0,83701.0
Boise,Unknown,1970-01-29 12:00:00,19.9,,-,69.0,,30.54,,Idaho,28.9,,,,,5:00 AM,,,,,30.0,,SE,10.4,130.0,83701.0
Boise,Clear,1970-01-29 15:00:00,18.0,,-,64.0,,30.55,,Idaho,28.9,,,,,8:00 AM,,,,,30.0,,ESE,13.8,120.0,83701.0
Boise,Unknown,1970-01-29 18:00:00,19.0,,-,50.0,,30.56,,Idaho,36.0,,,,,11:00 AM,,,,,30.0,,ESE,17.3,110.0,83701.0
Boise,Unknown,1970-01-29 21:00:00,19.9,,-,46.0,,30.46,,Idaho,39.0,,,,,2:00 PM,,,,,30.0,,ESE,13.8,120.0,83701.0
Boise,Unknown,1970-01-30 00:00:00,21.0,,-,49.0,,30.4,,Idaho,39.0,,,,,5:00 PM,,,,,30.0,,ESE,11.5,120.0,83701.0
Boise,Unknown,1970-01-30 03:00:00,16.0,,-,44.0,,30.37,,Idaho,36.0,,,,,8:00 PM,,,,,20.0,,ESE,11.5,120.0,83701.0
Boise,Unknown,1970-01-30 06:00:00,19.0,,-,59.0,,30.34,,Idaho,32.0,,,,,11:00 PM,,,,,20.0,,SSE,9.2,150.0,83701.0
Boise,Unknown,1970-01-30 09:00:00,19.9,,-,61.0,,30.29,,Idaho,32.0,,,,,2:00 AM,,,,,20.0,,South,9.2,180.0,83701.0
Boise,Unknown,1970-01-30 12:00:00,21.0,,-,72.0,,30.3,,Idaho,28.9,,,,,5:00 AM,,,,,20.0,,ESE,6.9,120.0,83701.0
Boise,Unknown,1970-01-30 15:00:00,18.0,,-,64.0,,30.32,,Idaho,28.9,,,,,8:00 AM,,,,,30.0,,SE,10.4,140.0,83701.0
Boise,Unknown,1970-01-30 18:00:00,19.0,,-,52.0,,30.35,,Idaho,35.1,,,,,11:00 AM,,,,,30.0,,North,4.6,10.0,83701.0
Boise,Clear,1970-01-30 21:00:00,19.9,,-,45.0,,30.32,,Idaho,39.9,,,,,2:00 PM,,,,,30.0,,NW,11.5,320.0,83701.0
Boise,Clear,1970-01-31 00:00:00,21.0,,-,47.0,,30.32,,Idaho,39.9,,,,,5:00 PM,,,,,30.0,,WNW,11.5,290.0,83701.0
Boise,Unknown,1970-01-31 03:00:00,21.9,,-,64.0,,30.37,,Idaho,33.1,,,,,8:00 PM,,,,,20.0,,West,4.6,260.0,83701.0
Boise,Unknown,1970-01-31 06:00:00,21.0,,-,75.0,,30.39,,Idaho,28.0,,,,,11:00 PM,,,,,20.0,,ESE,4.6,110.0,83701.0
Boise,Clear,1970-01-31 09:00:00,19.9,,-,78.0,,30.38,,Idaho,26.1,,,,,2:00 AM,,,,,20.0,,ESE,8.1,120.0,83701.0
Boise,Unknown,1970-01-31 12:00:00,19.9,,-,75.0,,30.35,,Idaho,27.0,,,,,5:00 AM,,,,,20.0,,ESE,8.1,120.0,83701.0
Boise,Unknown,1970-01-31 15:00:00,19.0,,-,69.0,,30.32,,Idaho,28.0,,,,,8:00 AM,,,,,30.0,,SE,13.8,130.0,83701.0
Boise,Unknown,1970-01-31 18:00:00,19.9,,-,56.0,,30.27,,Idaho,34.0,,,,,11:00 AM,,,,,30.0,,ESE,17.3,120.0,83701.0
Boise,Unknown,1970-01-31 21:00:00,21.0,,-,55.0,,30.16,,Idaho,36.0,,,,,2:00 PM,,,,,30.0,,ESE,15.0,120.0,83701.0
Boise,Light Snow,1970-02-01 00:00:00,30.0,Snow,-,85.0,0.01,30.12,,Idaho,34.0,,,,,5:00 PM,,,,,0.8,,East,10.4,100.0,83701.0
Boise,Unknown,1970-02-01 03:00:00,28.0,,-,82.0,,30.06,,Idaho,33.1,,,,,8:00 PM,,,,,10.0,,ESE,11.5,120.0,83701.0
Boise,Unknown,1970-02-01 06:00:00,30.9,,-,89.0,0.03,30.09,,Idaho,34.0,,,,,11:00 PM,,,,,15.0,,NNW,11.5,330.0,83701.0
Boston,Clear,1970-01-01 05:00:00,3.9,,-,50.0,,29.91,,Massachusetts,19.9,,,,12:00 AM,,,,,,15.0,,NW,16.1,310.0,2101.0
Boston,Clear,1970-01-01 06:00:00,1.9,,-,47.0,,29.92,,Massachusetts,19.0,,,,1:00 AM,,,,,,15.0,,NW,12.7,320.0,2101.0
Boston,Clear,1970-01-01 07:00:00,1.9,,-,50.0,,29.95,,Massachusetts,18.0,,,,2:00 AM,,,,,,15.0,,NW,11.5,310.0,2101.0
Boston,Clear,1970-01-01 08:00:00,1.0,,-,48.0,,29.97,,Massachusetts,18.0,,,,3:00 AM,,,,,,15.0,,WNW,9.2,300.0,2101.0
Boston,Clear,1970-01-01 09:00:00,1.0,,-,48.0,,29.95,,Massachusetts,18.0,,,,4:00 AM,,,,,,15.0,,WNW,12.7,300.0,2101.0
Boston,Clear,1970-01-01 10:00:00,1.9,,-,54.0,,29.94,,Massachusetts,16.0,,,,5:00 AM,,,,,,15.0,,NW,12.7,310.0,2101.0
Boston,Clear,1970-01-01 11:00:00,1.9,,-,52.0,,29.97,,Massachusetts,17.1,,,,6:00 AM,,,,,,15.0,,WNW,17.3,300.0,2101.0
Boston,Unknown,1970-01-01 12:00:00,1.0,,-,50.0,,29.99,,Massachusetts,17.1,,,,7:00 AM,,,,,,15.0,,WNW,17.3,300.0,2101.0
Boston,Unknown,1970-01-01 13:00:00,1.9,,-,52.0,,29.99,,Massachusetts,17.1,,,,8:00 AM,,,,,,15.0,,NW,13.8,310.0,2101.0
Boston,Unknown,1970-01-01 14:00:00,3.0,,-,52.0,,30.01,,Massachusetts,18.0,,,,9:00 AM,,,,,,15.0,,NW,17.3,310.0,2101.0
Boston,Unknown,1970-01-01 15:00:00,3.9,,-,52.0,,29.98,,Massachusetts,19.0,,,,10:00 AM,,,,,,15.0,,NW,17.3,310.0,2101.0
Boston,Unknown,1970-01-01 16:00:00,5.0,,-,52.0,,29.96,,Massachusetts,19.9,,,,11:00 AM,,,,,,10.0,,NW,11.5,320.0,2101.0
Boston,Unknown,1970-01-01 17:00:00,6.1,,-,46.0,,29.94,,Massachusetts,24.1,,,,12:00 PM,,,,,,15.0,,NW,12.7,310.0,2101.0
Boston,Unknown,1970-01-01 18:00:00,7.0,,-,46.0,,29.89,,Massachusetts,25.0,,,,1:00 PM,,,,,,15.0,,WNW,9.2,300.0,2101.0
Boston,Unknown,1970-01-01 19:00:00,9.0,,-,47.0,,29.91,,Massachusetts,27.0,,,,2:00 PM,,,,,,15.0,,WNW,13.8,290.0,2101.0
Boston,Unknown,1970-01-01 20:00:00,10.9,,-,49.0,,29.91,,Massachusetts,28.0,,,,3:00 PM,,,,,,15.0,,WNW,10.4,290.0,2101.0
Boston,Unknown,1970-01-01 21:00:00,12.9,,-,53.0,,29.9,,Massachusetts,28.0,,,,4:00 PM,,,,,,15.0,,West,13.8,280.0,2101.0
Boston,Unknown,1970-01-01 22:00:00,12.9,,-,56.0,,29.88,,Massachusetts,27.0,,,,5:00 PM,,,,,,15.0,,WNW,15.0,290.0,2101.0
Boston,Unknown,1970-01-01 23:00:00,12.9,,-,58.0,,29.88,,Massachusetts,26.1,,,,6:00 PM,,,,,,15.0,,WNW,13.8,290.0,2101.0
Boston,Unknown,1970-01-02 00:00:00,12.0,,-,60.0,,29.88,,Massachusetts,24.1,,,,7:00 PM,,,,,,15.0,,WNW,10.4,290.0,2101.0
Boston,Unknown,1970-01-02 01:00:00,10.9,,-,57.0,,29.88,,Massachusetts,24.1,,,,8:00 PM,,,,,,15.0,,WNW,18.4,290.0,2101.0
Boston,Clear,1970-01-02 02:00:00,9.0,,-,55.0,,29.86,,Massachusetts,23.0,,,,9:00 PM,,,,,,15.0,,WNW,11.5,300.0,2101.0
Boston,Clear,1970-01-02 03:00:00,7.0,,-,53.0,,29.85,,Massachusetts,21.9,,,,10:00 PM,,,,,,15.0,,NW,15.0,310.0,2101.0
Boston,Unknown,1970-01-02 04:00:00,7.0,,-,55.0,,29.83,,Massachusetts,21.0,,,,11:00 PM,,,,,,15.0,,NW,10.4,310.0,2101.0
Boston,Clear,1970-01-03 05:00:00,7.0,,-,57.0,,29.99,,Massachusetts,19.9,,,,12:00 AM,,,,,,15.0,,West,18.4,280.0,2101.0
Boston,Clear,1970-01-03 06:00:00,7.0,,-,57.0,,30.01,,Massachusetts,19.9,,,,1:00 AM,,,,,,15.0,,West,15.0,270.0,2101.0
Boston,Clear,1970-01-03 07:00:00,8.1,,-,60.0,,30.01,,Massachusetts,19.9,,,,2:00 AM,,,,,,10.0,,West,11.5,280.0,2101.0
Boston,Clear,1970-01-03 08:00:00,8.1,,-,60.0,,30.02,,Massachusetts,19.9,,,,3:00 AM,,,,,,10.0,,West,12.7,260.0,2101.0
Boston,Clear,1970-01-03 09:00:00,8.1,,-,62.0,,30.01,,Massachusetts,19.0,,,,4:00 AM,,,,,,10.0,,West,10.4,280.0,2101.0
Boston,Clear,1970-01-03 10:00:00,8.1,,-,62.0,,30.0,,Massachusetts,19.0,,,,5:00 AM,,,,,,10.0,,West,6.9,280.0,2101.0
Boston,Clear,1970-01-03 11:00:00,8.1,,-,62.0,,30.01,,Massachusetts,19.0,,,,6:00 AM,,,,,,10.0,,West,8.1,280.0,2101.0
Boston,Clear,1970-01-03 12:00:00,8.1,,-,65.0,,30.01,,Massachusetts,18.0,,,,7:00 AM,,,,,,10.0,,West,5.8,280.0,2101.0
Boston,Clear,1970-01-03 13:00:00,10.0,,-,68.0,,30.04,,Massachusetts,19.0,,,,8:00 AM,,,,,,10.0,,West,8.1,260.0,2101.0
Boston,Clear,1970-01-03 14:00:00,10.9,,-,68.0,,30.04,,Massachusetts,19.9,,,,9:00 AM,,,,,,7.0,,SW,3.5,230.0,2101.0
Boston,Unknown,1970-01-03 15:00:00,10.0,,-,53.0,,30.04,,Massachusetts,25.0,,,,10:00 AM,,,,,,10.0,,Calm,Calm,0.0,2101.0
Boston,Unknown,1970-01-03 16:00:00,10.9,,-,53.0,,30.01,,Massachusetts,26.1,,,,11:00 AM,,,,,,10.0,,West,2.3,260.0,2101.0
Boston,Unknown,1970-01-03 17:00:00,10.9,,-,51.0,,29.97,,Massachusetts,27.0,,,,12:00 PM,,,,,,10.0,,WSW,4.6,240.0,2101.0
Boston,Unknown,1970-01-03 18:00:00,10.0,,-,45.0,,29.94,,Massachusetts,28.9,,,,1:00 PM,,,,,,10.0,,WSW,2.3,240.0,2101.0
Boston,Unknown,1970-01-03 19:00:00,12.9,,-,51.0,,29.94,,Massachusetts,28.9,,,,2:00 PM,,,,,,15.0,,South,3.5,190.0,2101.0
Boston,Unknown,1970-01-03 20:00:00,14.0,,-,54.0,,29.94,,Massachusetts,28.9,,,,3:00 PM,,,,,,15.0,,West,5.8,260.0,2101.0
Boston,Unknown,1970-01-03 21:00:00,16.0,,-,61.0,,29.94,,Massachusetts,28.0,,,,4:00 PM,,,,,,15.0,,NNW,6.9,340.0,2101.0
Boston,Light Snow,1970-01-03 22:00:00,17.1,Snow,-,63.0,,29.94,,Massachusetts,28.0,,,,5:00 PM,,,,,,3.0,,NE,3.5,40.0,2101.0
Boston,Light Snow,1970-01-03 23:00:00,21.0,Snow,-,85.0,0.01,29.95,,Massachusetts,25.0,,,,6:00 PM,,,,,,1.0,,ENE,2.3,60.0,2101.0
Boston,Light Snow,1970-01-04 00:00:00,24.1,Snow,-,92.0,0.04,29.93,,Massachusetts,26.1,,,,7:00 PM,,,,,,2.0,,East,3.5,100.0,2101.0
Boston,Light Snow,1970-01-04 01:00:00,23.0,Snow,-,88.0,,29.92,,Massachusetts,26.1,,,,8:00 PM,,,,,,4.0,,SE,3.5,140.0,2101.0
Boston,Light Snow,1970-01-04 02:00:00,24.1,Snow,-,89.0,,29.89,,Massachusetts,27.0,,,,9:00 PM,,,,,,3.0,,NNW,4.6,340.0,2101.0
Boston,Light Snow,1970-01-04 03:00:00,24.1,Snow,-,92.0,0.01,29.88,,Massachusetts,26.1,,,,10:00 PM,,,,,,2.0,,North,8.1,350.0,2101.0
Boston,Light Snow,1970-01-04 04:00:00,24.1,Snow,-,92.0,0.05,29.88,,Massachusetts,26.1,,,,11:00 PM,,,,,,0.8,,NNW,6.9,330.0,2101.0
Boston,Light Snow,1970-01-04 05:00:00,23.0,Snow,-,88.0,0.03,29.88,,Massachusetts,26.1,,,,12:00 AM,,,,,,1.0,,North,10.4,350.0,2101.0
Boston,Light Snow,1970-01-04 06:00:00,21.9,Snow,-,88.0,0.02,29.88,,Massachusetts,25.0,,,,1:00 AM,,,,,,2.0,,North,10.4,350.0,2101.0
Boston,Light Snow,1970-01-04 07:00:00,19.9,Snow,-,81.0,,29.91,,Massachusetts,25.0,,,,2:00 AM,,,,,,5.0,,North,11.5,350.0,2101.0
Boston,Light Snow,1970-01-04 08:00:00,19.0,Snow,-,81.0,,29.91,,Massachusetts,24.1,,,,3:00 AM,,,,,,7.0,,North,11.5,350.0,2101.0
Boston,Unknown,1970-01-04 09:00:00,19.0,,-,81.0,,29.89,,Massachusetts,24.1,,,,4:00 AM,,,,,,8.0,,North,10.4,350.0,2101.0
Boston,Unknown,1970-01-04 10:00:00,17.1,,-,82.0,,29.91,,Massachusetts,21.9,,,,5:00 AM,,,,,,8.0,,North,10.4,350.0,2101.0
Boston,Unknown,1970-01-04 11:00:00,16.0,,-,85.0,,29.94,,Massachusetts,19.9,,,,6:00 AM,,,,,,8.0,,NNW,11.5,330.0,2101.0
Boston,Unknown,1970-01-04 12:00:00,14.0,,-,81.0,,29.96,,Massachusetts,19.0,,,,7:00 AM,,,,,,8.0,,NNW,9.2,330.0,2101.0
Boston,Unknown,1970-01-04 13:00:00,10.9,,-,71.0,,29.98,,Massachusetts,19.0,,,,8:00 AM,,,,,,10.0,,NNW,11.5,330.0,2101.0
Boston,Unknown,1970-01-04 14:00:00,9.0,,-,65.0,,29.99,,Massachusetts,19.0,,,,9:00 AM,,,,,,10.0,,NW,9.2,320.0,2101.0
Boston,Unknown,1970-01-04 15:00:00,9.0,,-,58.0,,30.0,,Massachusetts,21.9,,,,10:00 AM,,,,,,10.0,,NNW,10.4,330.0,2101.0
Boston,Unknown,1970-01-04 16:00:00,9.0,,-,58.0,,29.98,,Massachusetts,21.9,,,,11:00 AM,,,,,,10.0,,NNW,10.4,340.0,2101.0
Boston,Unknown,1970-01-04 17:00:00,9.0,,-,53.0,,29.96,,Massachusetts,24.1,,,,12:00 PM,,,,,,15.0,,NW,12.7,320.0,2101.0
Boston,Unknown,1970-01-04 18:00:00,7.0,,-,46.0,,29.96,,Massachusetts,25.0,,,,1:00 PM,,,,,,15.0,,NW,12.7,310.0,2101.0
Boston,Unknown,1970-01-04 19:00:00,7.0,,-,46.0,,29.97,,Massachusetts,25.0,,,,2:00 PM,,,,,,15.0,,WNW,17.3,300.0,2101.0
Boston,Unknown,1970-01-04 20:00:00,6.1,,-,41.0,,29.97,,Massachusetts,27.0,,,,3:00 PM,,,,,,15.0,,NW,12.7,320.0,2101.0
Boston,Unknown,1970-01-04 21:00:00,5.0,,-,41.0,,29.99,,Massachusetts,26.1,,,,4:00 PM,,,,,,15.0,,NW,15.0,320.0,2101.0
Boston,Unknown,1970-01-04 22:00:00,3.9,,-,39.0,,30.0,,Massachusetts,26.1,,,,5:00 PM,,,,,,15.0,,NW,15.0,310.0,2101.0
Boston,Unknown,1970-01-04 23:00:00,3.9,,-,42.0,,30.02,,Massachusetts,24.1,,,,6:00 PM,,,,,,15.0,,WNW,11.5,300.0,2101.0
Boston,Unknown,1970-01-05 00:00:00,3.9,,-,44.0,,30.04,,Massachusetts,23.0,,,,7:00 PM,,,,,,15.0,,WNW,15.0,300.0,2101.0
Boston,Unknown,1970-01-05 01:00:00,6.1,,-,51.0,,30.05,,Massachusetts,21.9,,,,8:00 PM,,,,,,15.0,,WNW,16.1,300.0,2101.0
Boston,Unknown,1970-01-05 02:00:00,6.1,,-,55.0,,30.06,,Massachusetts,19.9,,,,9:00 PM,,,,,,15.0,,WNW,16.1,300.0,2101.0
Boston,Unknown,1970-01-05 03:00:00,6.1,,-,55.0,,30.07,,Massachusetts,19.9,,,,10:00 PM,,,,,,15.0,,WNW,16.1,300.0,2101.0
Boston,Unknown,1970-01-05 04:00:00,5.0,,-,54.0,,30.09,,Massachusetts,19.0,,,,11:00 PM,,,,,,15.0,,WNW,17.3,300.0,2101.0
Boston,Unknown,1970-01-05 05:00:00,5.0,,-,54.0,,30.1,,Massachusetts,19.0,,,,12:00 AM,,,,,,15.0,,WNW,12.7,300.0,2101.0
Boston,Unknown,1970-01-05 06:00:00,5.0,,-,54.0,,30.12,,Massachusetts,19.0,,,,1:00 AM,,,,,,15.0,,WNW,15.0,290.0,2101.0
Boston,Unknown,1970-01-05 07:00:00,6.1,,-,60.0,,30.14,,Massachusetts,18.0,,,,2:00 AM,,,,,,15.0,,WNW,13.8,290.0,2101.0
Boston,Unknown,1970-01-05 08:00:00,7.0,,-,62.0,,30.14,,Massachusetts,18.0,,,,3:00 AM,,,,,,15.0,,WNW,13.8,290.0,2101.0
Boston,Unknown,1970-01-05 09:00:00,9.0,,-,68.0,,30.12,,Massachusetts,18.0,,,,4:00 AM,,,,,,10.0,,WNW,11.5,300.0,2101.0
Boston,Clear,1970-01-05 10:00:00,10.0,,-,71.0,,30.14,,Massachusetts,18.0,,,,5:00 AM,,,,,,10.0,,WNW,13.8,300.0,2101.0
Boston,Clear,1970-01-05 11:00:00,10.0,,-,71.0,,30.17,,Massachusetts,18.0,,,,6:00 AM,,,,,,8.0,,WNW,13.8,300.0,2101.0
Boston,Clear,1970-01-05 12:00:00,10.9,,-,71.0,,30.18,,Massachusetts,19.0,,,,7:00 AM,,,,,,7.0,,WNW,15.0,290.0,2101.0
Boston,Clear,1970-01-05 13:00:00,12.0,,-,71.0,,30.21,,Massachusetts,19.9,,,,8:00 AM,,,,,,7.0,,West,17.3,280.0,2101.0
Boston,Clear,1970-01-05 14:00:00,12.0,,-,68.0,,30.2,,Massachusetts,21.0,,,,9:00 AM,,,,,,8.0,,WNW,15.0,290.0,2101.0
Boston,Clear,1970-01-05 15:00:00,12.0,,-,66.0,,30.2,,Massachusetts,21.9,,,,10:00 AM,,,,,,8.0,,West,13.8,280.0,2101.0
Boston,Clear,1970-01-05 16:00:00,12.9,,-,60.0,,30.17,,Massachusetts,25.0,,,,11:00 AM,,,,,,10.0,,WNW,6.9,290.0,2101.0
Boston,Clear,1970-01-05 17:00:00,14.0,,-,58.0,,30.15,,Massachusetts,27.0,,,,12:00 PM,,,,,,10.0,,West,16.1,270.0,2101.0
Boston,Clear,1970-01-05 18:00:00,15.1,,-,58.0,,30.12,,Massachusetts,28.0,,,,1:00 PM,,,,,,10.0,,West,13.8,280.0,2101.0
Boston,Clear,1970-01-05 19:00:00,16.0,,-,56.0,,30.12,,Massachusetts,30.0,,,,2:00 PM,,,,,,10.0,,West,17.3,280.0,2101.0
Boston,Clear,1970-01-05 20:00:00,16.0,,-,56.0,,30.12,,Massachusetts,30.0,,,,3:00 PM,,,,,,10.0,,West,17.3,270.0,2101.0
Boston,Clear,1970-01-05 21:00:00,16.0,,-,58.0,,30.12,,Massachusetts,28.9,,,,4:00 PM,,,,,,10.0,,West,16.1,260.0,2101.0
Boston,Clear,1970-01-05 22:00:00,16.0,,-,58.0,,30.12,,Massachusetts,28.9,,,,5:00 PM,,,,,,8.0,,WSW,12.7,250.0,2101.0
Boston,Clear,1970-01-05 23:00:00,16.0,,-,61.0,,30.12,,Massachusetts,28.0,,,,6:00 PM,,,,,,10.0,,WSW,16.1,240.0,2101.0
Boston,Clear,1970-01-06 00:00:00,15.1,,-,58.0,,30.12,,Massachusetts,28.0,,,,7:00 PM,,,,,,10.0,,WSW,18.4,240.0,2101.0
Boston,Clear,1970-01-06 01:00:00,15.1,,-,63.0,,30.12,,Massachusetts,26.1,,,,8:00 PM,,,,,,10.0,,WSW,17.3,240.0,2101.0
Boston,Clear,1970-01-06 02:00:00,16.0,,-,66.0,,30.12,,Massachusetts,26.1,,,,9:00 PM,,,,,,10.0,,WSW,15.0,250.0,2101.0
Boston,Unknown,1970-01-06 03:00:00,15.1,,-,63.0,,30.12,,Massachusetts,26.1,,,,10:00 PM,,,,,,10.0,,WSW,16.1,250.0,2101.0
Boston,Unknown,1970-01-06 04:00:00,16.0,,-,66.0,,30.11,,Massachusetts,26.1,,,,11:00 PM,,,,,,10.0,,WSW,13.8,240.0,2101.0
Boston,Clear,1970-01-06 05:00:00,16.0,,-,69.0,,30.1,,Massachusetts,25.0,,,,12:00 AM,,,,,,10.0,,WSW,12.7,240.0,2101.0
Boston,Clear,1970-01-06 06:00:00,16.0,,-,69.0,,30.09,,Massachusetts,25.0,,,,1:00 AM,,,,,,10.0,,WSW,11.5,240.0,2101.0
Boston,Clear,1970-01-06 07:00:00,16.0,,-,69.0,,30.09,,Massachusetts,25.0,,,,2:00 AM,,,,,,8.0,,WSW,10.4,250.0,2101.0
Boston,Unknown,1970-01-06 08:00:00,16.0,,-,69.0,,30.09,,Massachusetts,25.0,,,,3:00 AM,,,,,,8.0,,West,13.8,270.0,2101.0
Boston,Unknown,1970-01-06 09:00:00,16.0,,-,69.0,,30.08,,Massachusetts,25.0,,,,4:00 AM,,,,,,8.0,,West,15.0,280.0,2101.0
Boston,Unknown,1970-01-06 10:00:00,15.1,,-,69.0,,30.09,,Massachusetts,24.1,,,,5:00 AM,,,,,,8.0,,WNW,17.3,290.0,2101.0
Boston,Clear,1970-01-06 11:00:00,15.1,,-,69.0,,30.1,,Massachusetts,24.1,,,,6:00 AM,,,,,,8.0,,West,13.8,280.0,2101.0
Boston,Smoke,1970-01-06 12:00:00,15.1,,-,69.0,,30.12,,Massachusetts,24.1,,,,7:00 AM,,,,,,5.0,,West,16.1,260.0,2101.0
Boston,Clear,1970-01-06 13:00:00,15.1,,-,66.0,,30.13,,Massachusetts,25.0,,,,8:00 AM,,,,,,7.0,,WSW,10.4,240.0,2101.0
Boston,Clear,1970-01-06 14:00:00,16.0,,-,66.0,,30.11,,Massachusetts,26.1,,,,9:00 AM,,,,,,8.0,,West,11.5,270.0,2101.0
Boston,Clear,1970-01-06 15:00:00,16.0,,-,63.0,,30.1,,Massachusetts,27.0,,,,10:00 AM,,,,,,10.0,,West,15.0,280.0,2101.0
Boston,Clear,1970-01-06 16:00:00,16.0,,-,61.0,,30.08,,Massachusetts,28.0,,,,11:00 AM,,,,,,10.0,,West,11.5,280.0,2101.0
Boston,Clear,1970-01-06 17:00:00,12.9,,-,49.0,,30.06,,Massachusetts,30.0,,,,12:00 PM,,,,,,10.0,,WNW,12.7,290.0,2101.0
Boston,Unknown,1970-01-06 18:00:00,12.9,,-,47.0,,30.04,,Massachusetts,30.9,,,,1:00 PM,,,,,,10.0,,West,13.8,280.0,2101.0
Boston,Unknown,1970-01-06 19:00:00,12.0,,-,46.0,,30.04,,Massachusetts,30.9,,,,2:00 PM,,,,,,10.0,,West,16.1,280.0,2101.0
Boston,Unknown,1970-01-06 20:00:00,12.9,,-,49.0,,30.05,,Massachusetts,30.0,,,,3:00 PM,,,,,,10.0,,West,18.4,280.0,2101.0
Boston,Unknown,1970-01-06 21:00:00,14.0,,-,51.0,,30.06,,Massachusetts,30.0,,,,4:00 PM,,,,,,10.0,,WNW,12.7,290.0,2101.0
Boston,Unknown,1970-01-06 22:00:00,14.0,,-,54.0,,30.05,,Massachusetts,28.9,,,,5:00 PM,,,,,,10.0,,WNW,16.1,300.0,2101.0
Boston,Unknown,1970-01-06 23:00:00,14.0,,-,56.0,,30.03,,Massachusetts,28.0,,,,6:00 PM,,,,,,10.0,,West,15.0,280.0,2101.0
Boston,Unknown,1970-01-07 00:00:00,14.0,,-,56.0,,30.04,,Massachusetts,28.0,,,,7:00 PM,,,,,,10.0,,WNW,9.2,300.0,2101.0
Boston,Unknown,1970-01-07 01:00:00,10.9,,-,49.0,,30.04,,Massachusetts,28.0,,,,8:00 PM,,,,,,10.0,,NW,10.4,320.0,2101.0
Boston,Unknown,1970-01-07 02:00:00,10.9,,-,53.0,,30.02,,Massachusetts,26.1,,,,9:00 PM,,,,,,10.0,,NW,5.8,320.0,2101.0
Boston,Unknown,1970-01-07 03:00:00,12.9,,-,58.0,,30.0,,Massachusetts,26.1,,,,10:00 PM,,,,,,10.0,,NNW,5.8,340.0,2101.0
Boston,Unknown,1970-01-07 04:00:00,10.9,,-,53.0,,29.99,,Massachusetts,26.1,,,,11:00 PM,,,,,,10.0,,North,6.9,360.0,2101.0
Boston,Unknown,1970-01-07 05:00:00,10.9,,-,53.0,,29.98,,Massachusetts,26.1,,,,12:00 AM,,,,,,10.0,,North,9.2,350.0,2101.0
Boston,Unknown,1970-01-07 06:00:00,10.0,,-,53.0,,29.96,,Massachusetts,25.0,,,,1:00 AM,,,,,,10.0,,North,6.9,350.0,2101.0
Boston,Unknown,1970-01-07 07:00:00,8.1,,-,51.0,,29.94,,Massachusetts,24.1,,,,2:00 AM,,,,,,10.0,,North,12.7,360.0,2101.0
Boston,Unknown,1970-01-07 08:00:00,8.1,,-,53.0,,29.94,,Massachusetts,23.0,,,,3:00 AM,,,,,,10.0,,NNW,11.5,340.0,2101.0
Boston,Unknown,1970-01-07 09:00:00,8.1,,-,53.0,,29.91,,Massachusetts,23.0,,,,4:00 AM,,,,,,10.0,,NNW,11.5,340.0,2101.0
Boston,Unknown,1970-01-07 10:00:00,9.0,,-,55.0,,29.91,,Massachusetts,23.0,,,,5:00 AM,,,,,,10.0,,North,15.0,350.0,2101.0
Boston,Light Snow,1970-01-07 11:00:00,10.0,Snow,-,60.0,,29.89,,Massachusetts,21.9,,,,6:00 AM,,,,,,4.0,,NW,11.5,320.0,2101.0
Boston,Light Snow,1970-01-07 12:00:00,15.1,Snow,-,81.0,0.02,29.88,,Massachusetts,19.9,,,,7:00 AM,,,,,,10.5,,NNW,11.5,340.0,2101.0
Boston,Light Snow,1970-01-07 13:00:00,16.0,Snow,-,85.0,0.03,29.88,,Massachusetts,19.9,,,,8:00 AM,,,,,,1.0,,North,16.1,360.0,2101.0
Boston,Light Snow,1970-01-07 14:00:00,17.1,Snow,-,85.0,,29.86,,Massachusetts,21.0,,,,9:00 AM,,,,,,1.0,,North,18.4,360.0,2101.0
Boston,Light Snow,1970-01-07 15:00:00,17.1,Snow,-,82.0,0.02,29.85,,Massachusetts,21.9,,,,10:00 AM,,,,,,5.0,,North,17.3,10.0,2101.0
Boston,Light Snow,1970-01-07 16:00:00,16.0,Snow,-,74.0,,29.81,,Massachusetts,23.0,,,,11:00 AM,,,,,,7.0,,North,16.1,10.0,2101.0
Boston,Light Snow,1970-01-07 17:00:00,15.1,Snow,-,66.0,,29.79,,Massachusetts,25.0,,,,12:00 PM,,,,,,10.0,,North,17.3,360.0,2101.0
Boston,Light Snow,1970-01-07 18:00:00,15.1,Snow,-,66.0,,29.78,,Massachusetts,25.0,,,,1:00 PM,,,,,,10.0,,North,12.7,10.0,2101.0
Boston,Light Snow,1970-01-07 19:00:00,15.1,Snow,-,66.0,,29.78,,Massachusetts,25.0,,,,2:00 PM,,,,,,10.0,,North,11.5,360.0,2101.0
Boston,Light Snow,1970-01-07 20:00:00,12.9,Snow,-,60.0,,29.76,,Massachusetts,25.0,,,,3:00 PM,,,,,,10.0,,North,17.3,360.0,2101.0
Boston,Light Snow,1970-01-07 21:00:00,9.0,Snow,-,51.0,,29.78,,Massachusetts,25.0,,,,4:00 PM,,,,,,10.0,,North,11.5,360.0,2101.0
Boston,Unknown,1970-01-07 22:00:00,7.0,,-,46.0,,29.78,,Massachusetts,25.0,,,,5:00 PM,,,,,,10.0,,North,13.8,10.0,2101.0
Boston,Unknown,1970-01-07 23:00:00,7.0,,-,46.0,,29.81,,Massachusetts,25.0,,,,6:00 PM,,,,,,15.0,,NW,9.2,320.0,2101.0
Boston,Unknown,1970-01-08 00:00:00,9.0,,-,53.0,,29.79,,Massachusetts,24.1,,,,7:00 PM,,,,,,15.0,,NNW,9.2,330.0,2101.0
Boston,Unknown,1970-01-08 01:00:00,7.0,,-,48.0,,29.79,,Massachusetts,24.1,,,,8:00 PM,,,,,,15.0,,North,6.9,350.0,2101.0
Boston,Unknown,1970-01-08 02:00:00,8.1,,-,55.0,,29.79,,Massachusetts,21.9,,,,9:00 PM,,,,,,15.0,,NW,9.2,320.0,2101.0
Boston,Unknown,1970-01-08 03:00:00,8.1,,-,57.0,,29.79,,Massachusetts,21.0,,,,10:00 PM,,,,,,15.0,,NNW,11.5,330.0,2101.0
Boston,Unknown,1970-01-08 04:00:00,7.0,,-,57.0,,29.77,,Massachusetts,19.9,,,,11:00 PM,,,,,,15.0,,NW,8.1,320.0,2101.0
Boston,Clear,1970-01-08 05:00:00,7.0,,-,59.0,,29.78,,Massachusetts,19.0,,,,12:00 AM,,,,,,15.0,,NW,11.5,310.0,2101.0
Boston,Clear,1970-01-08 06:00:00,7.0,,-,59.0,,29.75,,Massachusetts,19.0,,,,1:00 AM,,,,,,15.0,,NW,9.2,310.0,2101.0
Boston,Clear,1970-01-08 07:00:00,5.0,,-,62.0,,29.75,,Massachusetts,16.0,,,,2:00 AM,,,,,,15.0,,NW,12.7,310.0,2101.0
Boston,Clear,1970-01-08 08:00:00,5.0,,-,62.0,,29.76,,Massachusetts,16.0,,,,3:00 AM,,,,,,15.0,,NW,12.7,310.0,2101.0
Boston,Clear,1970-01-08 09:00:00,5.0,,-,62.0,,29.76,,Massachusetts,16.0,,,,4:00 AM,,,,,,15.0,,NW,13.8,310.0,2101.0
Boston,Unknown,1970-01-08 10:00:00,3.9,,-,64.0,,29.75,,Massachusetts,14.0,,,,5:00 AM,,,,,,15.0,,NW,12.7,310.0,2101.0
Boston,Unknown,1970-01-08 11:00:00,3.9,,-,64.0,,29.77,,Massachusetts,14.0,,,,6:00 AM,,,,,,15.0,,NW,11.5,310.0,2101.0
Boston,Unknown,1970-01-08 12:00:00,3.9,,-,64.0,,29.79,,Massachusetts,14.0,,,,7:00 AM,,,,,,15.0,,NW,15.0,310.0,2101.0
Boston,Unknown,1970-01-08 13:00:00,5.0,,-,67.0,,29.81,,Massachusetts,14.0,,,,8:00 AM,,,,,,15.0,,NW,11.5,310.0,2101.0
Boston,Clear,1970-01-08 14:00:00,5.0,,-,64.0,,29.83,,Massachusetts,15.1,,,,9:00 AM,,,,,,10.0,,WNW,13.8,300.0,2101.0
Boston,Clear,1970-01-08 15:00:00,6.1,,-,57.0,,29.82,,Massachusetts,19.0,,,,10:00 AM,,,,,,10.0,,NW,11.5,310.0,2101.0
Boston,Clear,1970-01-08 16:00:00,7.0,,-,57.0,,29.79,,Massachusetts,19.9,,,,11:00 AM,,,,,,10.0,,WNW,12.7,300.0,2101.0
Boston,Clear,1970-01-08 17:00:00,7.0,,-,53.0,,29.75,,Massachusetts,21.9,,,,12:00 PM,,,,,,15.0,,WNW,12.7,300.0,2101.0
Boston,Clear,1970-01-08 18:00:00,7.0,,-,50.0,,29.72,,Massachusetts,23.0,,,,1:00 PM,,,,,,15.0,,WNW,11.5,300.0,2101.0
Boston,Unknown,1970-01-08 19:00:00,7.0,,-,48.0,,29.71,,Massachusetts,24.1,,,,2:00 PM,,,,,,15.0,,NW,5.8,320.0,2101.0
Boston,Unknown,1970-01-08 20:00:00,6.1,,-,46.0,,29.7,,Massachusetts,24.1,,,,3:00 PM,,,,,,15.0,,NNW,3.5,330.0,2101.0
Boston,Unknown,1970-01-08 21:00:00,8.1,,-,51.0,,29.7,,Massachusetts,24.1,,,,4:00 PM,,,,,,15.0,,NNW,2.3,340.0,2101.0
Boston,Unknown,1970-01-08 22:00:00,9.0,,-,53.0,,29.7,,Massachusetts,24.1,,,,5:00 PM,,,,,,15.0,,NNW,2.3,340.0,2101.0
Boston,Unknown,1970-01-08 23:00:00,8.1,,-,51.0,,29.71,,Massachusetts,24.1,,,,6:00 PM,,,,,,15.0,,North,6.9,360.0,2101.0
Boston,Light Snow Showers,1970-01-09 00:00:00,10.0,Snow,-,58.0,,29.71,,Massachusetts,23.0,,,,7:00 PM,,,,,,10.0,,North,8.1,360.0,2101.0
Boston,Light Snow Showers,1970-01-09 01:00:00,14.0,Snow,-,72.0,,29.7,,Massachusetts,21.9,,,,8:00 PM,,,,,,10.0,,NNW,5.8,330.0,2101.0
Boston,Light Snow Showers,1970-01-09 02:00:00,14.0,Snow,-,72.0,,29.69,,Massachusetts,21.9,,,,9:00 PM,,,,,,10.0,,NW,9.2,320.0,2101.0
Boston,Light Snow Showers,1970-01-09 03:00:00,15.1,Snow,-,78.0,,29.68,,Massachusetts,21.0,,,,10:00 PM,,,,,,10.0,,NNW,8.1,330.0,2101.0
Boston,Light Snow,1970-01-09 04:00:00,15.1,Snow,-,81.0,0.01,29.68,,Massachusetts,19.9,,,,11:00 PM,,,,,,4.0,,North,12.7,350.0,2101.0
Boston,Light Snow,1970-01-09 05:00:00,14.0,Snow,-,81.0,,29.68,,Massachusetts,19.0,,,,12:00 AM,,,,,,10.5,,NW,11.5,320.0,2101.0
Boston,Light Snow,1970-01-09 06:00:00,12.0,Snow,-,78.0,,29.7,,Massachusetts,18.0,,,,1:00 AM,,,,,,4.0,,NW,15.0,310.0,2101.0
Boston,Unknown,1970-01-09 07:00:00,8.1,,-,65.0,,29.73,,Massachusetts,18.0,,,,2:00 AM,,,,,,8.0,,NW,13.8,310.0,2101.0
Boston,Unknown,1970-01-09 08:00:00,7.0,,-,68.0,,29.73,,Massachusetts,16.0,,,,3:00 AM,,,,,,8.0,,NW,17.3,310.0,2101.0
Boston,Unknown,1970-01-09 09:00:00,6.1,,-,65.0,,29.73,,Massachusetts,16.0,,,,4:00 AM,,,,,,8.0,,WNW,16.1,300.0,2101.0
Boston,Unknown,1970-01-09 10:00:00,5.0,,-,64.0,,29.73,,Massachusetts,15.1,,,,5:00 AM,,,,,,8.0,,WNW,17.3,300.0,2101.0
Boston,Clear,1970-01-09 11:00:00,1.9,,-,62.0,,29.75,,Massachusetts,12.9,,,,6:00 AM,,,,,,10.0,,WNW,15.0,300.0,2101.0
Boston,Clear,1970-01-09 12:00:00,1.0,,-,61.0,,29.76,,Massachusetts,12.0,,,,7:00 AM,,,,,,10.0,,WNW,16.1,300.0,2101.0
Boston,Clear,1970-01-09 13:00:00,-0.0,,-,61.0,,29.79,,Massachusetts,10.9,,,,8:00 AM,,,,,,10.0,,WNW,17.3,290.0,2101.0
Boston,Unknown,1970-01-09 14:00:00,1.0,,-,64.0,,29.81,,Massachusetts,10.9,,,,9:00 AM,,,,,,10.0,,WNW,16.1,290.0,2101.0
Boston,Clear,1970-01-09 15:00:00,1.0,,-,59.0,,29.83,,Massachusetts,12.9,,,,10:00 AM,,,,,,15.0,,West,16.1,280.0,2101.0
Boston,Clear,1970-01-09 16:00:00,3.0,,-,57.0,,29.8,,Massachusetts,16.0,,,,11:00 AM,,,,,,15.0,,WNW,17.3,290.0,2101.0
Boston,Clear,1970-01-09 17:00:00,3.9,,-,54.0,,29.77,,Massachusetts,18.0,,,,12:00 PM,,,,,,15.0,,WNW,18.4,300.0,2101.0
Boston,Clear,1970-01-09 18:00:00,5.0,,-,52.0,,29.76,,Massachusetts,19.9,,,,1:00 PM,,,,,,15.0,,West,17.3,270.0,2101.0
Boston,Clear,1970-01-09 19:00:00,5.0,,-,50.0,,29.75,,Massachusetts,21.0,,,,2:00 PM,,,,,,15.0,,WNW,20.7,300.0,2101.0
Boston,Clear,1970-01-09 20:00:00,5.0,,-,50.0,,29.74,,Massachusetts,21.0,,,,3:00 PM,,,,,,15.0,,WNW,18.4,290.0,2101.0
Boston,Clear,1970-01-09 21:00:00,6.1,,-,53.0,,29.75,,Massachusetts,21.0,,,,4:00 PM,,,,,,15.0,,West,19.6,270.0,2101.0
Boston,Clear,1970-01-09 22:00:00,3.9,,-,50.0,,29.76,,Massachusetts,19.9,,,,5:00 PM,,,,,,15.0,,WSW,20.7,250.0,2101.0
Boston,Clear,1970-01-09 23:00:00,5.0,,-,54.0,,29.78,,Massachusetts,19.0,,,,6:00 PM,,,,,,15.0,,West,23.0,280.0,2101.0
Boston,Clear,1970-01-10 00:00:00,3.9,,-,54.0,,29.77,,Massachusetts,18.0,,,,7:00 PM,,,,,,15.0,,West,20.7,280.0,2101.0
Boston,Clear,1970-01-10 01:00:00,3.0,,-,57.0,,29.76,,Massachusetts,16.0,,,,8:00 PM,,,,,,15.0,,West,20.7,280.0,2101.0
Boston,Clear,1970-01-10 02:00:00,1.9,,-,56.0,,29.75,,Massachusetts,15.1,,,,9:00 PM,,,,,,15.0,,West,23.0,280.0,2101.0
Boston,Clear,1970-01-10 03:00:00,1.9,,-,56.0,,29.74,,Massachusetts,15.1,,,,10:00 PM,,,,,,15.0,,West,19.6,280.0,2101.0
Boston,Clear,1970-01-10 04:00:00,1.9,,-,59.0,,29.73,,Massachusetts,14.0,,,,11:00 PM,,,,,,15.0,,West,23.0,280.0,2101.0
Boston,Clear,1970-01-10 05:00:00,1.9,,-,62.0,,29.71,,Massachusetts,12.9,,,,12:00 AM,,,,,,15.0,,WNW,20.7,290.0,2101.0
Boston,Clear,1970-01-10 06:00:00,1.9,,-,62.0,,29.71,,Massachusetts,12.9,,,,1:00 AM,,,,,,15.0,,West,17.3,270.0,2101.0
Boston,Unknown,1970-01-10 07:00:00,5.0,,-,64.0,,29.71,,Massachusetts,15.1,,,,2:00 AM,,,,,,10.0,,West,18.4,280.0,2101.0
Boston,Unknown,1970-01-10 08:00:00,5.0,,-,62.0,,29.7,,Massachusetts,16.0,,,,3:00 AM,,,,,,10.0,,West,16.1,280.0,2101.0
Boston,Unknown,1970-01-10 09:00:00,5.0,,-,62.0,,29.68,,Massachusetts,16.0,,,,4:00 AM,,,,,,10.0,,West,16.1,260.0,2101.0
Boston,Unknown,1970-01-10 10:00:00,5.0,,-,64.0,,29.66,,Massachusetts,15.1,,,,5:00 AM,,,,,,10.0,,WSW,13.8,250.0,2101.0
Boston,Unknown,1970-01-10 11:00:00,5.0,,-,64.0,,29.66,,Massachusetts,15.1,,,,6:00 AM,,,,,,10.0,,West,15.0,260.0,2101.0
Boston,Unknown,1970-01-10 12:00:00,5.0,,-,64.0,,29.66,,Massachusetts,15.1,,,,7:00 AM,,,,,,10.0,,West,17.3,270.0,2101.0
Boston,Unknown,1970-01-10 13:00:00,5.0,,-,62.0,,29.68,,Massachusetts,16.0,,,,8:00 AM,,,,,,10.0,,West,15.0,280.0,2101.0
Boston,Unknown,1970-01-10 14:00:00,5.0,,-,59.0,,29.7,,Massachusetts,17.1,,,,9:00 AM,,,,,,10.0,,West,10.4,280.0,2101.0
Boston,Unknown,1970-01-10 15:00:00,6.1,,-,57.0,,29.7,,Massachusetts,19.0,,,,10:00 AM,,,,,,15.0,,WNW,13.8,300.0,2101.0
Boston,Unknown,1970-01-10 16:00:00,7.0,,-,57.0,,29.68,,Massachusetts,19.9,,,,11:00 AM,,,,,,15.0,,WNW,15.0,300.0,2101.0
Boston,Unknown,1970-01-10 17:00:00,6.1,,-,53.0,,29.66,,Massachusetts,21.0,,,,12:00 PM,,,,,,15.0,,WNW,19.6,300.0,2101.0
Boston,Unknown,1970-01-10 18:00:00,8.1,,-,53.0,,29.66,,Massachusetts,23.0,,,,1:00 PM,,,,,,15.0,,West,20.7,280.0,2101.0
Boston,Unknown,1970-01-10 19:00:00,9.0,,-,51.0,,29.65,,Massachusetts,25.0,,,,2:00 PM,,,,,,15.0,,WNW,26.5,300.0,2101.0
Boston,Unknown,1970-01-10 20:00:00,9.0,,-,51.0,,29.66,,Massachusetts,25.0,,,,3:00 PM,,,,,,15.0,,WNW,25.3,300.0,2101.0
Boston,Unknown,1970-01-10 21:00:00,9.0,,-,51.0,,29.68,,Massachusetts,25.0,,,,4:00 PM,,,,,,15.0,,WNW,24.2,300.0,2101.0
Boston,Unknown,1970-01-10 22:00:00,7.0,,-,46.0,,29.69,,Massachusetts,25.0,,,,5:00 PM,,,,,,15.0,,WNW,25.3,300.0,2101.0
Boston,Unknown,1970-01-10 23:00:00,9.0,,-,53.0,,29.71,,Massachusetts,24.1,,,,6:00 PM,,,,,,15.0,,WNW,20.7,290.0,2101.0
Boston,Unknown,1970-01-11 00:00:00,7.0,,-,50.0,,29.73,,Massachusetts,23.0,,,,7:00 PM,,,,,,15.0,,West,27.6,280.0,2101.0
Boston,Unknown,1970-01-11 01:00:00,6.1,,-,51.0,,29.74,,Massachusetts,21.9,,,,8:00 PM,,,,,,15.0,,WNW,25.3,290.0,2101.0
Boston,Unknown,1970-01-11 02:00:00,6.1,,-,53.0,,29.74,,Massachusetts,21.0,,,,9:00 PM,,,,,,15.0,,WNW,21.9,290.0,2101.0
Boston,Clear,1970-01-11 03:00:00,5.0,,-,52.0,,29.76,,Massachusetts,19.9,,,,10:00 PM,,,,,,15.0,,WNW,20.7,290.0,2101.0
Boston,Clear,1970-01-11 04:00:00,5.0,,-,54.0,,29.78,,Massachusetts,19.0,,,,11:00 PM,,,,,,15.0,,WNW,19.6,290.0,2101.0
Boston,Clear,1970-01-11 05:00:00,3.0,,-,52.0,,29.78,,Massachusetts,18.0,,,,12:00 AM,,,,,,15.0,,WNW,17.3,290.0,2101.0
Boston,Clear,1970-01-11 06:00:00,3.0,,-,54.0,,29.81,,Massachusetts,17.1,,,,1:00 AM,,,,,,15.0,,WNW,17.3,290.0,2101.0
Boston,Clear,1970-01-11 07:00:00,3.0,,-,54.0,,29.83,,Massachusetts,17.1,,,,2:00 AM,,,,,,15.0,,West,18.4,280.0,2101.0
Boston,Clear,1970-01-11 08:00:00,1.9,,-,54.0,,29.84,,Massachusetts,16.0,,,,3:00 AM,,,,,,15.0,,West,17.3,280.0,2101.0
Boston,Clear,1970-01-11 09:00:00,1.0,,-,52.0,,29.83,,Massachusetts,16.0,,,,4:00 AM,,,,,,15.0,,West,15.0,280.0,2101.0
Boston,Clear,1970-01-11 10:00:00,-0.0,,-,51.0,,29.83,,Massachusetts,15.1,,,,5:00 AM,,,,,,15.0,,West,15.0,280.0,2101.0
Boston,Clear,1970-01-11 11:00:00,-0.0,,-,51.0,,29.85,,Massachusetts,15.1,,,,6:00 AM,,,,,,15.0,,West,13.8,280.0,2101.0
Boston,Clear,1970-01-11 12:00:00,-0.0,,-,54.0,,29.87,,Massachusetts,14.0,,,,7:00 AM,,,,,,15.0,,West,13.8,280.0,2101.0
Boston,Clear,1970-01-11 13:00:00,1.9,,-,54.0,,29.88,,Massachusetts,16.0,,,,8:00 AM,,,,,,15.0,,West,17.3,280.0,2101.0
Boston,Clear,1970-01-11 14:00:00,1.0,,-,50.0,,29.91,,Massachusetts,17.1,,,,9:00 AM,,,,,,15.0,,West,15.0,280.0,2101.0
Boston,Clear,1970-01-11 15:00:00,3.0,,-,52.0,,29.91,,Massachusetts,18.0,,,,10:00 AM,,,,,,15.0,,West,20.7,280.0,2101.0
Boston,Clear,1970-01-11 16:00:00,3.9,,-,50.0,,29.91,,Massachusetts,19.9,,,,11:00 AM,,,,,,15.0,,West,19.6,280.0,2101.0
Boston,Clear,1970-01-11 17:00:00,6.1,,-,48.0,,29.86,,Massachusetts,23.0,,,,12:00 PM,,,,,,15.0,,West,21.9,280.0,2101.0
Boston,Clear,1970-01-11 18:00:00,7.0,,-,46.0,,29.84,,Massachusetts,25.0,,,,1:00 PM,,,,,,15.0,,WNW,23.0,290.0,2101.0
Boston,Clear,1970-01-11 19:00:00,9.0,,-,47.0,,29.84,,Massachusetts,27.0,,,,2:00 PM,,,,,,15.0,,West,23.0,280.0,2101.0
Boston,Clear,1970-01-11 20:00:00,9.0,,-,47.0,,29.84,,Massachusetts,27.0,,,,3:00 PM,,,,,,15.0,,WNW,18.4,300.0,2101.0
Boston,Clear,1970-01-11 21:00:00,10.0,,-,47.0,,29.86,,Massachusetts,28.0,,,,4:00 PM,,,,,,15.0,,West,21.9,280.0,2101.0
Boston,Clear,1970-01-11 22:00:00,10.0,,-,49.0,,29.86,,Massachusetts,27.0,,,,5:00 PM,,,,,,15.0,,West,18.4,280.0,2101.0
Boston,Clear,1970-01-11 23:00:00,10.9,,-,53.0,,29.88,,Massachusetts,26.1,,,,6:00 PM,,,,,,15.0,,West,15.0,270.0,2101.0
Boston,Clear,1970-01-12 00:00:00,12.0,,-,55.0,,29.89,,Massachusetts,26.1,,,,7:00 PM,,,,,,15.0,,West,16.1,270.0,2101.0
Boston,Clear,1970-01-12 01:00:00,12.0,,-,58.0,,29.91,,Massachusetts,25.0,,,,8:00 PM,,,,,,15.0,,West,12.7,270.0,2101.0
Boston,Clear,1970-01-12 02:00:00,12.0,,-,58.0,,29.92,,Massachusetts,25.0,,,,9:00 PM,,,,,,15.0,,West,16.1,270.0,2101.0
Boston,Clear,1970-01-12 03:00:00,10.9,,-,57.0,,29.94,,Massachusetts,24.1,,,,10:00 PM,,,,,,15.0,,WNW,15.0,290.0,2101.0
Boston,Clear,1970-01-12 04:00:00,6.1,,-,57.0,,29.96,,Massachusetts,19.0,,,,11:00 PM,,,,,,15.0,,NNW,9.2,340.0,2101.0
Boston,Unknown,1970-01-12 05:00:00,3.9,,-,54.0,,29.97,,Massachusetts,18.0,,,,12:00 AM,,,,,,15.0,,NW,9.2,320.0,2101.0
Boston,Unknown,1970-01-12 06:00:00,3.0,,-,57.0,,29.99,,Massachusetts,16.0,,,,1:00 AM,,,,,,15.0,,NNW,9.2,340.0,2101.0
Boston,Unknown,1970-01-12 07:00:00,1.9,,-,56.0,,30.01,,Massachusetts,15.1,,,,2:00 AM,,,,,,15.0,,NNW,10.4,330.0,2101.0
Boston,Unknown,1970-01-12 08:00:00,1.0,,-,56.0,,30.01,,Massachusetts,14.0,,,,3:00 AM,,,,,,15.0,,NNW,10.4,330.0,2101.0
Boston,Unknown,1970-01-12 09:00:00,1.0,,-,59.0,,30.01,,Massachusetts,12.9,,,,4:00 AM,,,,,,15.0,,NW,6.9,310.0,2101.0
Boston,Unknown,1970-01-12 10:00:00,1.0,,-,56.0,,30.0,,Massachusetts,14.0,,,,5:00 AM,,,,,,15.0,,NW,6.9,320.0,2101.0
Boston,Unknown,1970-01-12 11:00:00,1.0,,-,56.0,,30.01,,Massachusetts,14.0,,,,6:00 AM,,,,,,15.0,,NNW,4.6,340.0,2101.0
Boston,Unknown,1970-01-12 12:00:00,1.9,,-,56.0,,29.99,,Massachusetts,15.1,,,,7:00 AM,,,,,,15.0,,North,5.8,350.0,2101.0
Boston,Unknown,1970-01-12 13:00:00,3.0,,-,57.0,,29.99,,Massachusetts,16.0,,,,8:00 AM,,,,,,10.0,,North,4.6,360.0,2101.0
Boston,Unknown,1970-01-12 14:00:00,5.0,,-,59.0,,29.99,,Massachusetts,17.1,,,,9:00 AM,,,,,,10.0,,NE,3.5,40.0,2101.0
Boston,Unknown,1970-01-12 15:00:00,6.1,,-,57.0,,29.99,,Massachusetts,19.0,,,,10:00 AM,,,,,,10.0,,North,2.3,360.0,2101.0
Boston,Light Snow,1970-01-12 16:00:00,7.0,Snow,-,57.0,,29.97,,Massachusetts,19.9,,,,11:00 AM,,,,,,5.0,,ENE,2.3,70.0,2101.0
Boston,Light Snow,1970-01-12 17:00:00,14.0,Fog-Snow,-,78.0,0.01,29.94,,Massachusetts,19.9,,,,12:00 PM,,,,,,5.5,,East,2.3,100.0,2101.0
Boston,Light Snow,1970-01-12 18:00:00,14.0,Snow,-,78.0,,29.92,,Massachusetts,19.9,,,,1:00 PM,,,,,,2.8,,NE,3.5,40.0,2101.0
Boston,Light Snow,1970-01-12 19:00:00,15.1,Snow,-,81.0,0.01,29.91,,Massachusetts,19.9,,,,2:00 PM,,,,,,1.0,,NE,4.6,40.0,2101.0
Boston,Light Snow,1970-01-12 20:00:00,15.1,Snow,-,81.0,,29.92,,Massachusetts,19.9,,,,3:00 PM,,,,,,3.0,,North,2.3,10.0,2101.0
Boston,Light Snow,1970-01-12 21:00:00,16.0,Snow,-,81.0,,29.92,,Massachusetts,21.0,,,,4:00 PM,,,,,,3.0,,Calm,Calm,0.0,2101.0
Boston,Light Snow,1970-01-12 22:00:00,17.1,Snow,-,85.0,,29.91,,Massachusetts,21.0,,,,5:00 PM,,,,,,10.5,,North,2.3,10.0,2101.0
Boston,Light Snow,1970-01-12 23:00:00,17.1,Snow,-,85.0,0.01,29.9,,Massachusetts,21.0,,,,6:00 PM,,,,,,4.0,,North,4.6,360.0,2101.0
Boston,Light Snow,1970-01-13 00:00:00,17.1,Snow,-,85.0,,29.9,,Massachusetts,21.0,,,,7:00 PM,,,,,,4.0,,North,6.9,350.0,2101.0
Boston,Light Snow,1970-01-13 01:00:00,16.0,Snow,-,85.0,,29.89,,Massachusetts,19.9,,,,8:00 PM,,,,,,4.0,,North,9.2,360.0,2101.0
Boston,Light Snow,1970-01-13 02:00:00,16.0,Snow,-,85.0,,29.88,,Massachusetts,19.9,,,,9:00 PM,,,,,,4.0,,NNW,5.8,340.0,2101.0
Boston,Light Snow,1970-01-13 03:00:00,16.0,Snow,-,85.0,0.01,29.87,,Massachusetts,19.9,,,,10:00 PM,,,,,,4.0,,NNW,5.8,330.0,2101.0
Boston,Light Snow,1970-01-13 04:00:00,16.0,Snow,-,85.0,,29.86,,Massachusetts,19.9,,,,11:00 PM,,,,,,5.0,,North,5.8,350.0,2101.0
Boston,Light Snow,1970-01-13 05:00:00,16.0,Snow,-,85.0,,29.85,,Massachusetts,19.9,,,,12:00 AM,,,,,,4.0,,NW,6.9,320.0,2101.0
Boston,Light Snow,1970-01-13 06:00:00,15.1,Snow,-,81.0,,29.85,,Massachusetts,19.9,,,,1:00 AM,,,,,,5.0,,NW,9.2,320.0,2101.0
Boston,Light Snow,1970-01-13 07:00:00,5.0,Snow,-,52.0,,29.86,,Massachusetts,19.9,,,,2:00 AM,,,,,,4.0,,NNW,8.1,340.0,2101.0
Boston,Light Snow,1970-01-13 08:00:00,15.1,Snow,-,81.0,,29.84,,Massachusetts,19.9,,,,3:00 AM,,,,,,5.0,,NW,9.2,310.0,2101.0
Boston,Light Snow,1970-01-13 09:00:00,15.1,Snow,-,81.0,0.01,29.83,,Massachusetts,19.9,,,,4:00 AM,,,,,,5.0,,NW,8.1,310.0,2101.0
Boston,Light Snow,1970-01-13 10:00:00,15.1,Snow,-,81.0,,29.82,,Massachusetts,19.9,,,,5:00 AM,,,,,,7.0,,WNW,6.9,300.0,2101.0
Boston,Light Snow,1970-01-13 11:00:00,15.1,Snow,-,81.0,,29.83,,Massachusetts,19.9,,,,6:00 AM,,,,,,7.0,,West,12.7,280.0,2101.0
Boston,Unknown,1970-01-13 12:00:00,14.0,,-,74.0,,29.83,,Massachusetts,21.0,,,,7:00 AM,,,,,,7.0,,NW,12.7,310.0,2101.0
Boston,Unknown,1970-01-13 13:00:00,14.0,,-,72.0,,29.84,,Massachusetts,21.9,,,,8:00 AM,,,,,,8.0,,WNW,13.8,300.0,2101.0
Boston,Clear,1970-01-13 14:00:00,14.0,,-,72.0,,29.86,,Massachusetts,21.9,,,,9:00 AM,,,,,,10.0,,WNW,15.0,290.0,2101.0
Boston,Clear,1970-01-13 15:00:00,14.0,,-,65.0,,29.86,,Massachusetts,24.1,,,,10:00 AM,,,,,,10.0,,WNW,15.0,290.0,2101.0
Boston,Clear,1970-01-13 16:00:00,14.0,,-,60.0,,29.83,,Massachusetts,26.1,,,,11:00 AM,,,,,,10.0,,WNW,13.8,300.0,2101.0
Boston,Unknown,1970-01-13 17:00:00,14.0,,-,60.0,,29.79,,Massachusetts,26.1,,,,12:00 PM,,,,,,10.0,,WNW,17.3,300.0,2101.0
Boston,Unknown,1970-01-13 18:00:00,14.0,,-,56.0,,29.77,,Massachusetts,28.0,,,,1:00 PM,,,,,,10.0,,WNW,19.6,290.0,2101.0
Boston,Unknown,1970-01-13 19:00:00,12.9,,-,53.0,,29.78,,Massachusetts,28.0,,,,2:00 PM,,,,,,10.0,,WNW,20.7,300.0,2101.0
Boston,Unknown,1970-01-13 20:00:00,12.9,,-,49.0,,29.79,,Massachusetts,30.0,,,,3:00 PM,,,,,,10.0,,WNW,24.2,300.0,2101.0
Boston,Clear,1970-01-13 21:00:00,10.9,,-,49.0,,29.81,,Massachusetts,28.0,,,,4:00 PM,,,,,,10.0,,NW,25.3,310.0,2101.0
Boston,Clear,1970-01-13 22:00:00,12.0,,-,51.0,,29.82,,Massachusetts,28.0,,,,5:00 PM,,,,,,10.0,,WNW,17.3,290.0,2101.0
Boston,Clear,1970-01-13 23:00:00,12.0,,-,53.0,,29.83,,Massachusetts,27.0,,,,6:00 PM,,,,,,10.0,,WNW,18.4,300.0,2101.0
Boston,Clear,1970-01-14 00:00:00,12.9,,-,58.0,,29.84,,Massachusetts,26.1,,,,7:00 PM,,,,,,10.0,,West,18.4,270.0,2101.0
Boston,Clear,1970-01-14 01:00:00,10.9,,-,55.0,,29.85,,Massachusetts,25.0,,,,8:00 PM,,,,,,10.0,,West,20.7,270.0,2101.0
Boston,Clear,1970-01-14 02:00:00,10.0,,-,55.0,,29.84,,Massachusetts,24.1,,,,9:00 PM,,,,,,15.0,,West,18.4,270.0,2101.0
Boston,Clear,1970-01-14 03:00:00,9.0,,-,55.0,,29.83,,Massachusetts,23.0,,,,10:00 PM,,,,,,15.0,,West,21.9,280.0,2101.0
Boston,Clear,1970-01-14 04:00:00,8.1,,-,55.0,,29.83,,Massachusetts,21.9,,,,11:00 PM,,,,,,15.0,,WNW,20.7,290.0,2101.0
Boston,Clear,1970-01-14 05:00:00,8.1,,-,57.0,,29.83,,Massachusetts,21.0,,,,12:00 AM,,,,,,15.0,,WNW,19.6,290.0,2101.0
Boston,Clear,1970-01-14 06:00:00,8.1,,-,62.0,,29.84,,Massachusetts,19.0,,,,1:00 AM,,,,,,15.0,,NW,16.1,320.0,2101.0
Boston,Clear,1970-01-14 07:00:00,5.0,,-,57.0,,29.86,,Massachusetts,18.0,,,,2:00 AM,,,,,,15.0,,WNW,16.1,300.0,2101.0
Boston,Clear,1970-01-14 08:00:00,3.0,,-,54.0,,29.86,,Massachusetts,17.1,,,,3:00 AM,,,,,,15.0,,WNW,18.4,290.0,2101.0
Boston,Clear,1970-01-14 09:00:00,3.9,,-,59.0,,29.86,,Massachusetts,16.0,,,,4:00 AM,,,,,,15.0,,WNW,19.6,290.0,2101.0
Boston,Clear,1970-01-14 10:00:00,3.0,,-,59.0,,29.86,,Massachusetts,15.1,,,,5:00 AM,,,,,,15.0,,WNW,23.0,290.0,2101.0
Boston,Unknown,1970-01-14 11:00:00,1.0,,-,54.0,,29.86,,Massachusetts,15.1,,,,6:00 AM,,,,,,15.0,,WNW,23.0,300.0,2101.0
Boston,Clear,1970-01-14 12:00:00,-0.9,,-,52.0,,29.89,,Massachusetts,14.0,,,,7:00 AM,,,,,,15.0,,WNW,17.3,290.0,2101.0
Boston,Clear,1970-01-14 13:00:00,-2.0,,-,51.0,,29.9,,Massachusetts,12.9,,,,8:00 AM,,,,,,15.0,,WNW,19.6,300.0,2101.0
Boston,Unknown,1970-01-14 14:00:00,-2.0,,-,51.0,,29.91,,Massachusetts,12.9,,,,9:00 AM,,,,,,15.0,,West,23.0,280.0,2101.0
Boston,Clear,1970-01-14 15:00:00,-2.0,,-,47.0,,29.91,,Massachusetts,15.1,,,,10:00 AM,,,,,,15.0,,WNW,20.7,300.0,2101.0
Boston,Clear,1970-01-14 16:00:00,-0.0,,-,47.0,,29.89,,Massachusetts,17.1,,,,11:00 AM,,,,,,15.0,,West,23.0,280.0,2101.0
Boston,Clear,1970-01-14 17:00:00,-0.0,,-,45.0,,29.87,,Massachusetts,18.0,,,,12:00 PM,,,,,,15.0,,WNW,23.0,300.0,2101.0
Boston,Unknown,1970-01-14 18:00:00,1.0,,-,44.0,,29.87,,Massachusetts,19.9,,,,1:00 PM,,,,,,15.0,,WNW,19.6,300.0,2101.0
Boston,Clear,1970-01-14 19:00:00,-0.0,,-,42.0,,29.88,,Massachusetts,19.9,,,,2:00 PM,,,,,,15.0,,West,24.2,280.0,2101.0
Boston,Clear,1970-01-14 20:00:00,1.0,,-,46.0,,29.9,,Massachusetts,19.0,,,,3:00 PM,,,,,,15.0,,West,20.7,280.0,2101.0
Boston,Clear,1970-01-14 21:00:00,-0.9,,-,42.0,,29.91,,Massachusetts,19.0,,,,4:00 PM,,,,,,15.0,,WNW,20.7,300.0,2101.0
Boston,Clear,1970-01-14 22:00:00,-2.0,,-,41.0,,29.92,,Massachusetts,18.0,,,,5:00 PM,,,,,,15.0,,WNW,23.0,300.0,2101.0
Boston,Clear,1970-01-14 23:00:00,-2.0,,-,43.0,,29.92,,Massachusetts,17.1,,,,6:00 PM,,,,,,15.0,,WNW,17.3,290.0,2101.0
Boston,Clear,1970-01-15 00:00:00,-2.0,,-,47.0,,29.93,,Massachusetts,15.1,,,,7:00 PM,,,,,,15.0,,WNW,23.0,290.0,2101.0
Boston,Clear,1970-01-15 01:00:00,-2.9,,-,47.0,,29.92,,Massachusetts,14.0,,,,8:00 PM,,,,,,15.0,,WNW,26.5,290.0,2101.0
Boston,Clear,1970-01-15 02:00:00,-2.9,,-,49.0,,29.93,,Massachusetts,12.9,,,,9:00 PM,,,,,,15.0,,WNW,20.7,290.0,2101.0
Boston,Clear,1970-01-15 03:00:00,-2.9,,-,49.0,,29.94,,Massachusetts,12.9,,,,10:00 PM,,,,,,15.0,,WNW,20.7,290.0,2101.0
Boston,Clear,1970-01-15 04:00:00,-5.1,,-,46.0,,29.94,,Massachusetts,12.0,,,,11:00 PM,,,,,,15.0,,WNW,21.9,290.0,2101.0
Boston,Clear,1970-01-15 05:00:00,-7.1,,-,42.0,,29.94,,Massachusetts,12.0,,,,12:00 AM,,,,,,15.0,,WNW,23.0,290.0,2101.0
Boston,Clear,1970-01-15 06:00:00,-7.1,,-,44.0,,29.93,,Massachusetts,10.9,,,,1:00 AM,,,,,,15.0,,WNW,28.8,300.0,2101.0
Boston,Clear,1970-01-15 07:00:00,-8.0,,-,42.0,,29.96,,Massachusetts,10.9,,,,2:00 AM,,,,,,15.0,,WNW,28.8,290.0,2101.0
Boston,Clear,1970-01-15 08:00:00,-8.0,,-,44.0,,29.95,,Massachusetts,10.0,,,,3:00 AM,,,,,,15.0,,WNW,27.6,300.0,2101.0
Boston,Clear,1970-01-15 09:00:00,-9.0,,-,44.0,,29.96,,Massachusetts,9.0,,,,4:00 AM,,,,,,15.0,,WNW,27.6,290.0,2101.0
Boston,Clear,1970-01-15 10:00:00,-8.0,,-,44.0,,29.98,,Massachusetts,10.0,,,,5:00 AM,,,,,,15.0,,WNW,23.0,290.0,2101.0
Boston,Clear,1970-01-15 11:00:00,-7.1,,-,44.0,,30.01,,Massachusetts,10.9,,,,6:00 AM,,,,,,15.0,,WNW,18.4,300.0,2101.0
Boston,Clear,1970-01-15 12:00:00,-7.1,,-,44.0,,30.04,,Massachusetts,10.9,,,,7:00 AM,,,,,,15.0,,NW,24.2,310.0,2101.0
Boston,Clear,1970-01-15 13:00:00,-6.0,,-,44.0,,30.06,,Massachusetts,12.0,,,,8:00 AM,,,,,,15.0,,WNW,20.7,300.0,2101.0
Boston,Clear,1970-01-15 14:00:00,-4.0,,-,47.0,,30.08,,Massachusetts,12.9,,,,9:00 AM,,,,,,15.0,,WNW,17.3,300.0,2101.0
Boston,Clear,1970-01-15 15:00:00,-0.9,,-,44.0,,30.09,,Massachusetts,18.0,,,,10:00 AM,,,,,,15.0,,WNW,20.7,300.0,2101.0
Boston,Clear,1970-01-15 16:00:00,3.0,,-,46.0,,30.1,,Massachusetts,21.0,,,,11:00 AM,,,,,,15.0,,WNW,15.0,300.0,2101.0
Boston,Clear,1970-01-15 17:00:00,3.9,,-,44.0,,30.08,,Massachusetts,23.0,,,,12:00 PM,,,,,,15.0,,West,18.4,280.0,2101.0
Boston,Clear,1970-01-15 18:00:00,3.9,,-,41.0,,30.07,,Massachusetts,25.0,,,,1:00 PM,,,,,,15.0,,WNW,23.0,300.0,2101.0
Boston,Clear,1970-01-15 19:00:00,5.0,,-,41.0,,30.09,,Massachusetts,26.1,,,,2:00 PM,,,,,,15.0,,WNW,24.2,300.0,2101.0
Boston,Clear,1970-01-15 20:00:00,5.0,,-,41.0,,30.09,,Massachusetts,26.1,,,,3:00 PM,,,,,,15.0,,WNW,21.9,300.0,2101.0
Boston,Clear,1970-01-15 21:00:00,3.0,,-,37.0,,30.09,,Massachusetts,26.1,,,,4:00 PM,,,,,,15.0,,WNW,20.7,300.0,2101.0
Boston,Clear,1970-01-15 22:00:00,1.9,,-,38.0,,30.14,,Massachusetts,24.1,,,,5:00 PM,,,,,,15.0,,WNW,17.3,300.0,2101.0
Boston,Clear,1970-01-15 23:00:00,1.9,,-,42.0,,30.17,,Massachusetts,21.9,,,,6:00 PM,,,,,,15.0,,NW,17.3,310.0,2101.0
Boston,Clear,1970-01-16 00:00:00,1.0,,-,42.0,,30.17,,Massachusetts,21.0,,,,7:00 PM,,,,,,15.0,,NW,17.3,310.0,2101.0
Boston,Clear,1970-01-16 01:00:00,1.0,,-,44.0,,30.17,,Massachusetts,19.9,,,,8:00 PM,,,,,,15.0,,NW,18.4,310.0,2101.0
Boston,Clear,1970-01-16 02:00:00,-0.0,,-,43.0,,30.19,,Massachusetts,19.0,,,,9:00 PM,,,,,,15.0,,WNW,16.1,300.0,2101.0
Boston,Clear,1970-01-16 03:00:00,-0.0,,-,43.0,,30.21,,Massachusetts,19.0,,,,10:00 PM,,,,,,15.0,,WNW,17.3,300.0,2101.0
Boston,Clear,1970-01-16 04:00:00,-0.0,,-,43.0,,30.21,,Massachusetts,19.0,,,,11:00 PM,,,,,,15.0,,NW,8.1,310.0,2101.0
Boston,Clear,1970-01-16 05:00:00,-0.0,,-,45.0,,30.2,,Massachusetts,18.0,,,,12:00 AM,,,,,,15.0,,WNW,11.5,300.0,2101.0
Boston,Unknown,1970-01-16 06:00:00,-0.0,,-,45.0,,30.22,,Massachusetts,18.0,,,,1:00 AM,,,,,,15.0,,NW,11.5,310.0,2101.0
Boston,Unknown,1970-01-16 07:00:00,-0.0,,-,45.0,,30.22,,Massachusetts,18.0,,,,2:00 AM,,,,,,15.0,,NW,10.4,320.0,2101.0
Boston,Unknown,1970-01-16 08:00:00,-0.9,,-,45.0,,30.23,,Massachusetts,17.1,,,,3:00 AM,,,,,,15.0,,NNW,8.1,330.0,2101.0
Boston,Clear,1970-01-16 09:00:00,-0.9,,-,47.0,,30.22,,Massachusetts,16.0,,,,4:00 AM,,,,,,15.0,,NW,6.9,310.0,2101.0
Boston,Clear,1970-01-16 10:00:00,-0.9,,-,44.0,,30.22,,Massachusetts,18.0,,,,5:00 AM,,,,,,15.0,,WNW,5.8,300.0,2101.0
Boston,Clear,1970-01-16 11:00:00,-0.0,,-,45.0,,30.23,,Massachusetts,18.0,,,,6:00 AM,,,,,,15.0,,West,6.9,270.0,2101.0
Boston,Unknown,1970-01-16 12:00:00,-0.0,,-,45.0,,30.25,,Massachusetts,18.0,,,,7:00 AM,,,,,,15.0,,West,10.4,280.0,2101.0
Boston,Unknown,1970-01-16 13:00:00,1.9,,-,46.0,,30.25,,Massachusetts,19.9,,,,8:00 AM,,,,,,8.0,,West,6.9,280.0,2101.0
Boston,Unknown,1970-01-16 14:00:00,3.0,,-,42.0,,30.26,,Massachusetts,23.0,,,,9:00 AM,,,,,,7.0,,West,5.8,280.0,2101.0
Boston,Unknown,1970-01-16 15:00:00,3.0,,-,40.0,,30.26,,Massachusetts,24.1,,,,10:00 AM,,,,,,10.0,,WNW,8.1,300.0,2101.0
Boston,Unknown,1970-01-16 16:00:00,6.1,,-,41.0,,30.25,,Massachusetts,27.0,,,,11:00 AM,,,,,,10.0,,NW,8.1,310.0,2101.0
Boston,Clear,1970-01-16 17:00:00,7.0,,-,40.0,,30.2,,Massachusetts,28.9,,,,12:00 PM,,,,,,10.0,,NW,4.6,310.0,2101.0
Boston,Unknown,1970-01-16 18:00:00,12.0,,-,46.0,,30.18,,Massachusetts,30.9,,,,1:00 PM,,,,,,10.0,,West,8.1,270.0,2101.0
Boston,Clear,1970-01-16 19:00:00,14.0,,-,46.0,,30.15,,Massachusetts,33.1,,,,2:00 PM,,,,,,10.0,,SW,2.3,220.0,2101.0
Boston,Clear,1970-01-16 20:00:00,14.0,,-,42.0,,30.12,,Massachusetts,35.1,,,,3:00 PM,,,,,,10.0,,WSW,5.8,240.0,2101.0
Boston,Unknown,1970-01-16 21:00:00,17.1,,-,50.0,,30.11,,Massachusetts,34.0,,,,4:00 PM,,,,,,10.0,,SSW,10.4,200.0,2101.0
Boston,Unknown,1970-01-16 22:00:00,16.0,,-,50.0,,30.1,,Massachusetts,33.1,,,,5:00 PM,,,,,,10.0,,SSW,6.9,200.0,2101.0
Boston,Unknown,1970-01-16 23:00:00,16.0,,-,52.0,,30.09,,Massachusetts,32.0,,,,6:00 PM,,,,,,10.0,,SSW,11.5,210.0,2101.0
Boston,Unknown,1970-01-17 00:00:00,16.0,,-,56.0,,30.1,,Massachusetts,30.0,,,,7:00 PM,,,,,,10.0,,SW,9.2,220.0,2101.0
Boston,Unknown,1970-01-17 01:00:00,17.1,,-,57.0,,30.07,,Massachusetts,30.9,,,,8:00 PM,,,,,,10.0,,SSW,6.9,210.0,2101.0
Boston,Unknown,1970-01-17 02:00:00,16.0,,-,52.0,,30.05,,Massachusetts,32.0,,,,9:00 PM,,,,,,10.0,,WSW,11.5,240.0,2101.0
Boston,Unknown,1970-01-17 03:00:00,17.1,,-,57.0,,30.02,,Massachusetts,30.9,,,,10:00 PM,,,,,,10.0,,WSW,15.0,240.0,2101.0
Boston,Unknown,1970-01-17 04:00:00,18.0,,-,59.0,,30.01,,Massachusetts,30.9,,,,11:00 PM,,,,,,10.0,,WSW,12.7,240.0,2101.0
Boston,Unknown,1970-01-17 05:00:00,19.9,,-,64.0,,29.98,,Massachusetts,30.9,,,,12:00 AM,,,,,,10.0,,SW,10.4,230.0,2101.0
Boston,Unknown,1970-01-17 06:00:00,19.9,,-,61.0,,29.96,,Massachusetts,32.0,,,,1:00 AM,,,,,,10.0,,WSW,11.5,240.0,2101.0
Boston,Unknown,1970-01-17 07:00:00,21.0,,-,59.0,,29.96,,Massachusetts,34.0,,,,2:00 AM,,,,,,10.0,,WSW,9.2,240.0,2101.0
Boston,Unknown,1970-01-17 08:00:00,21.9,,-,61.0,,29.94,,Massachusetts,34.0,,,,3:00 AM,,,,,,10.0,,WSW,16.1,250.0,2101.0
Boston,Unknown,1970-01-17 09:00:00,21.9,,-,59.0,,29.92,,Massachusetts,35.1,,,,4:00 AM,,,,,,10.0,,West,12.7,260.0,2101.0
Boston,Unknown,1970-01-17 10:00:00,24.1,,-,62.0,,29.94,,Massachusetts,36.0,,,,5:00 AM,,,,,,10.0,,West,9.2,260.0,2101.0
Boston,Unknown,1970-01-17 11:00:00,25.0,,-,64.0,,29.92,,Massachusetts,36.0,,,,6:00 AM,,,,,,10.0,,WSW,8.1,240.0,2101.0
Boston,Unknown,1970-01-17 12:00:00,25.0,,-,62.0,,29.93,,Massachusetts,37.0,,,,7:00 AM,,,,,,8.0,,WSW,11.5,250.0,2101.0
Boston,Smoke,1970-01-17 13:00:00,25.0,,-,64.0,,29.92,,Massachusetts,36.0,,,,8:00 AM,,,,,,6.0,,WSW,10.4,240.0,2101.0
Boston,Smoke,1970-01-17 14:00:00,26.1,,-,65.0,,29.94,,Massachusetts,37.0,,,,9:00 AM,,,,,,6.0,,WSW,11.5,240.0,2101.0
Boston,Smoke,1970-01-17 15:00:00,27.0,,-,65.0,,29.94,,Massachusetts,37.9,,,,10:00 AM,,,,,,6.0,,WSW,11.5,240.0,2101.0
Boston,Smoke,1970-01-17 16:00:00,27.0,,-,62.0,,29.93,,Massachusetts,39.0,,,,11:00 AM,,,,,,6.0,,WSW,11.5,240.0,2101.0
Boston,Smoke,1970-01-17 17:00:00,28.0,,-,63.0,,29.88,,Massachusetts,39.9,,,,12:00 PM,,,,,,6.0,,WSW,8.1,240.0,2101.0
Boston,Smoke,1970-01-17 18:00:00,30.0,,-,65.0,,29.86,,Massachusetts,41.0,,,,1:00 PM,,,,,,6.0,,WSW,8.1,240.0,2101.0
Boston,Smoke,1970-01-17 19:00:00,30.0,,-,62.0,,29.86,,Massachusetts,42.1,,,,2:00 PM,,,,,,6.0,,SW,5.8,230.0,2101.0
Boston,Smoke,1970-01-17 20:00:00,30.0,,-,62.0,,29.84,,Massachusetts,42.1,,,,3:00 PM,,,,,,6.0,,SW,8.1,230.0,2101.0
Boston,Smoke,1970-01-17 21:00:00,30.9,,-,65.0,,29.84,,Massachusetts,42.1,,,,4:00 PM,,,,,,6.0,,West,5.8,260.0,2101.0
Boston,Smoke,1970-01-17 22:00:00,30.9,,-,65.0,,29.84,,Massachusetts,42.1,,,,5:00 PM,,,,,,5.0,,WSW,4.6,250.0,2101.0
Boston,Smoke,1970-01-17 23:00:00,30.9,,-,65.0,,29.83,,Massachusetts,42.1,,,,6:00 PM,,,,,,5.0,,West,8.1,260.0,2101.0
Boston,Smoke,1970-01-18 00:00:00,30.9,,-,67.0,,29.83,,Massachusetts,41.0,,,,7:00 PM,,,,,,5.0,,WNW,4.6,290.0,2101.0
Boston,Smoke,1970-01-18 01:00:00,32.0,,-,76.0,,29.83,,Massachusetts,39.0,,,,8:00 PM,,,,,,5.0,,Calm,Calm,0.0,2101.0
Boston,Smoke,1970-01-18 02:00:00,30.9,,-,76.0,,29.82,,Massachusetts,37.9,,,,9:00 PM,,,,,,5.0,,South,3.5,190.0,2101.0
Boston,Light Rain,1970-01-18 03:00:00,30.9,Rain,-,76.0,,29.81,,Massachusetts,37.9,,,,10:00 PM,,,,,,4.0,,Calm,Calm,0.0,2101.0
Boston,Light Rain,1970-01-18 04:00:00,32.0,Rain,-,86.0,,29.81,,Massachusetts,36.0,,,,11:00 PM,,,,,,4.0,,SE,4.6,140.0,2101.0
Boston,Light Rain,1970-01-18 05:00:00,33.1,Fog-Rain,-,89.0,0.05,29.78,,Massachusetts,36.0,,,,12:00 AM,,,,,,4.0,,East,3.5,80.0,2101.0
Boston,Light Rain,1970-01-18 06:00:00,34.0,Fog-Rain,-,93.0,0.02,29.77,,Massachusetts,36.0,,,,1:00 AM,,,,,,4.0,,NNE,4.6,20.0,2101.0
Boston,Light Rain,1970-01-18 07:00:00,34.0,Fog-Rain,-,96.0,0.02,29.76,,Massachusetts,35.1,,,,2:00 AM,,,,,,10.5,,NE,8.1,40.0,2101.0
Boston,Light Rain,1970-01-18 08:00:00,34.0,Fog-Rain-Snow,-,96.0,0.02,29.75,,Massachusetts,35.1,,,,3:00 AM,,,,,,10.5,,NE,3.5,40.0,2101.0
Boston,Light Snow,1970-01-18 09:00:00,34.0,Fog-Snow,-,96.0,0.03,29.73,,Massachusetts,35.1,,,,4:00 AM,,,,,,10.5,,NE,8.1,50.0,2101.0
Boston,Light Snow,1970-01-18 10:00:00,33.1,Fog-Snow,-,96.0,0.02,29.71,,Massachusetts,34.0,,,,5:00 AM,,,,,,10.5,,NNE,8.1,30.0,2101.0
Boston,Light Snow,1970-01-18 11:00:00,34.0,Fog-Snow,-,96.0,0.01,29.71,,Massachusetts,35.1,,,,6:00 AM,,,,,,10.5,,NE,12.7,40.0,2101.0
Boston,Light Rain,1970-01-18 12:00:00,34.0,Fog-Rain-Snow,-,96.0,0.04,29.71,,Massachusetts,35.1,,,,7:00 AM,,,,,,3.0,,NE,15.0,50.0,2101.0
Boston,Light Snow,1970-01-18 13:00:00,33.1,Fog-Snow,-,96.0,0.04,29.73,,Massachusetts,34.0,,,,8:00 AM,,,,,,2.0,,NE,18.4,40.0,2101.0
Boston,Light Snow,1970-01-18 14:00:00,30.9,Fog-Snow,-,92.0,0.04,29.73,,Massachusetts,33.1,,,,9:00 AM,,,,,,10.5,,NNE,18.4,30.0,2101.0
Boston,Light Snow,1970-01-18 15:00:00,30.0,Fog-Snow,-,92.0,0.01,29.74,,Massachusetts,32.0,,,,10:00 AM,,,,,,2.0,,NE,17.3,40.0,2101.0
Boston,Light Snow,1970-01-18 16:00:00,27.0,Fog-Snow,-,85.0,,29.74,,Massachusetts,30.9,,,,11:00 AM,,,,,,5.0,,NNE,16.1,30.0,2101.0
Boston,Snow Grains,1970-01-18 17:00:00,26.1,Fog-Snow,-,85.0,,29.73,,Massachusetts,30.0,,,,12:00 PM,,,,,,5.0,,NNE,15.0,20.0,2101.0
Boston,Snow Grains,1970-01-18 18:00:00,24.1,Fog-Snow,-,85.0,,29.72,,Massachusetts,28.0,,,,1:00 PM,,,,,,4.0,,North,15.0,10.0,2101.0
Boston,Snow Grains,1970-01-18 19:00:00,21.9,Fog-Snow,-,81.0,,29.73,,Massachusetts,27.0,,,,2:00 PM,,,,,,4.0,,North,17.3,10.0,2101.0
Boston,Snow Grains,1970-01-18 20:00:00,21.0,Fog-Snow,-,81.0,,29.75,,Massachusetts,26.1,,,,3:00 PM,,,,,,6.0,,North,15.0,360.0,2101.0
Boston,Snow Grains,1970-01-18 21:00:00,21.0,Fog-Snow,-,81.0,,29.77,,Massachusetts,26.1,,,,4:00 PM,,,,,,6.0,,North,10.4,360.0,2101.0
Boston,Unknown,1970-01-18 22:00:00,19.9,,-,78.0,,29.79,,Massachusetts,26.1,,,,5:00 PM,,,,,,10.0,,North,11.5,360.0,2101.0
Boston,Unknown,1970-01-18 23:00:00,19.9,,-,78.0,,29.82,,Massachusetts,26.1,,,,6:00 PM,,,,,,10.0,,North,8.1,360.0,2101.0
Boston,Unknown,1970-01-19 00:00:00,18.0,,-,75.0,,29.84,,Massachusetts,25.0,,,,7:00 PM,,,,,,10.0,,North,8.1,350.0,2101.0
Boston,Unknown,1970-01-19 01:00:00,17.1,,-,75.0,,29.87,,Massachusetts,24.1,,,,8:00 PM,,,,,,10.0,,North,13.8,350.0,2101.0
Boston,Clear,1970-01-19 02:00:00,12.9,,-,65.0,,29.89,,Massachusetts,23.0,,,,9:00 PM,,,,,,15.0,,NNW,13.8,340.0,2101.0
Boston,Clear,1970-01-19 03:00:00,10.9,,-,65.0,,29.91,,Massachusetts,21.0,,,,10:00 PM,,,,,,15.0,,NNW,13.8,340.0,2101.0
Boston,Clear,1970-01-19 04:00:00,6.1,,-,57.0,,29.93,,Massachusetts,19.0,,,,11:00 PM,,,,,,15.0,,NNW,15.0,330.0,2101.0
Boston,Clear,1970-01-19 05:00:00,6.1,,-,62.0,,29.94,,Massachusetts,17.1,,,,12:00 AM,,,,,,15.0,,NW,15.0,310.0,2101.0
Boston,Clear,1970-01-19 06:00:00,3.9,,-,61.0,,29.96,,Massachusetts,15.1,,,,1:00 AM,,,,,,15.0,,NW,13.8,320.0,2101.0
Boston,Clear,1970-01-19 07:00:00,1.9,,-,64.0,,29.99,,Massachusetts,12.0,,,,2:00 AM,,,,,,15.0,,NW,13.8,320.0,2101.0
Boston,Unknown,1970-01-19 08:00:00,-0.0,,-,64.0,,29.99,,Massachusetts,10.0,,,,3:00 AM,,,,,,15.0,,NW,16.1,320.0,2101.0
Boston,Unknown,1970-01-19 09:00:00,-0.9,,-,61.0,,30.0,,Massachusetts,10.0,,,,4:00 AM,,,,,,15.0,,NW,15.0,320.0,2101.0
Boston,Unknown,1970-01-19 10:00:00,-0.9,,-,64.0,,30.01,,Massachusetts,9.0,,,,5:00 AM,,,,,,15.0,,NNW,16.1,340.0,2101.0
Boston,Unknown,1970-01-19 11:00:00,-0.9,,-,64.0,,30.02,,Massachusetts,9.0,,,,6:00 AM,,,,,,15.0,,NW,11.5,320.0,2101.0
Boston,Unknown,1970-01-19 12:00:00,-2.0,,-,61.0,,30.04,,Massachusetts,9.0,,,,7:00 AM,,,,,,10.0,,NW,11.5,320.0,2101.0
Boston,Unknown,1970-01-19 13:00:00,-2.0,,-,61.0,,30.06,,Massachusetts,9.0,,,,8:00 AM,,,,,,10.0,,NW,9.2,320.0,2101.0
Boston,Clear,1970-01-19 14:00:00,-0.9,,-,59.0,,30.07,,Massachusetts,10.9,,,,9:00 AM,,,,,,15.0,,NNW,11.5,330.0,2101.0
Boston,Clear,1970-01-19 15:00:00,-0.0,,-,54.0,,30.09,,Massachusetts,14.0,,,,10:00 AM,,,,,,15.0,,NW,10.4,310.0,2101.0
Boston,Clear,1970-01-19 16:00:00,1.0,,-,54.0,,30.06,,Massachusetts,15.1,,,,11:00 AM,,,,,,15.0,,NW,8.1,310.0,2101.0
Boston,Unknown,1970-01-19 17:00:00,3.0,,-,57.0,,30.04,,Massachusetts,16.0,,,,12:00 PM,,,,,,15.0,,NW,8.1,310.0,2101.0
Boston,Unknown,1970-01-19 18:00:00,5.0,,-,57.0,,30.01,,Massachusetts,18.0,,,,1:00 PM,,,,,,15.0,,NW,5.8,310.0,2101.0
Boston,Unknown,1970-01-19 19:00:00,6.1,,-,55.0,,30.01,,Massachusetts,19.9,,,,2:00 PM,,,,,,15.0,,WNW,8.1,300.0,2101.0
Boston,Unknown,1970-01-19 20:00:00,6.1,,-,55.0,,30.0,,Massachusetts,19.9,,,,3:00 PM,,,,,,15.0,,WNW,8.1,290.0,2101.0
Boston,Unknown,1970-01-19 21:00:00,5.0,,-,52.0,,30.0,,Massachusetts,19.9,,,,4:00 PM,,,,,,15.0,,NNW,8.1,330.0,2101.0
Boston,Unknown,1970-01-19 22:00:00,5.0,,-,52.0,,30.0,,Massachusetts,19.9,,,,5:00 PM,,,,,,15.0,,WNW,8.1,290.0,2101.0
Boston,Unknown,1970-01-19 23:00:00,6.1,,-,55.0,,30.01,,Massachusetts,19.9,,,,6:00 PM,,,,,,15.0,,NW,9.2,310.0,2101.0
Boston,Unknown,1970-01-20 00:00:00,6.1,,-,55.0,,30.0,,Massachusetts,19.9,,,,7:00 PM,,,,,,15.0,,NW,9.2,310.0,2101.0
Boston,Clear,1970-01-20 01:00:00,5.0,,-,57.0,,30.01,,Massachusetts,18.0,,,,8:00 PM,,,,,,15.0,,NNW,8.1,330.0,2101.0
Boston,Clear,1970-01-20 02:00:00,1.9,,-,54.0,,30.01,,Massachusetts,16.0,,,,9:00 PM,,,,,,15.0,,NW,5.8,320.0,2101.0
Boston,Clear,1970-01-20 03:00:00,1.0,,-,54.0,,30.04,,Massachusetts,15.1,,,,10:00 PM,,,,,,15.0,,NW,9.2,310.0,2101.0
Boston,Clear,1970-01-20 04:00:00,-0.0,,-,54.0,,30.04,,Massachusetts,14.0,,,,11:00 PM,,,,,,15.0,,NW,10.4,310.0,2101.0
Boston,Clear,1970-01-20 05:00:00,1.0,,-,59.0,,30.04,,Massachusetts,12.9,,,,12:00 AM,,,,,,15.0,,WNW,15.0,300.0,2101.0
Boston,Unknown,1970-01-20 06:00:00,-0.0,,-,59.0,,30.04,,Massachusetts,12.0,,,,1:00 AM,,,,,,15.0,,WNW,9.2,300.0,2101.0
Boston,Clear,1970-01-20 07:00:00,-0.0,,-,59.0,,30.06,,Massachusetts,12.0,,,,2:00 AM,,,,,,15.0,,West,16.1,280.0,2101.0
Boston,Clear,1970-01-20 08:00:00,-0.0,,-,59.0,,30.06,,Massachusetts,12.0,,,,3:00 AM,,,,,,15.0,,WNW,12.7,300.0,2101.0
Boston,Clear,1970-01-20 09:00:00,1.0,,-,61.0,,30.06,,Massachusetts,12.0,,,,4:00 AM,,,,,,15.0,,WNW,10.4,300.0,2101.0
Boston,Clear,1970-01-20 10:00:00,-0.0,,-,61.0,,30.06,,Massachusetts,10.9,,,,5:00 AM,,,,,,10.0,,West,11.5,280.0,2101.0
Boston,Clear,1970-01-20 11:00:00,-0.0,,-,61.0,,30.08,,Massachusetts,10.9,,,,6:00 AM,,,,,,10.0,,WNW,13.8,300.0,2101.0
Boston,Clear,1970-01-20 12:00:00,-0.0,,-,61.0,,30.08,,Massachusetts,10.9,,,,7:00 AM,,,,,,8.0,,WNW,9.2,300.0,2101.0
Boston,Clear,1970-01-20 13:00:00,-0.9,,-,59.0,,30.07,,Massachusetts,10.9,,,,8:00 AM,,,,,,10.0,,NW,8.1,310.0,2101.0
Boston,Clear,1970-01-20 14:00:00,1.0,,-,59.0,,30.08,,Massachusetts,12.9,,,,9:00 AM,,,,,,10.0,,NW,5.8,320.0,2101.0
Boston,Clear,1970-01-20 15:00:00,1.0,,-,50.0,,30.09,,Massachusetts,17.1,,,,10:00 AM,,,,,,10.0,,NW,8.1,320.0,2101.0
Boston,Clear,1970-01-20 16:00:00,3.0,,-,52.0,,30.08,,Massachusetts,18.0,,,,11:00 AM,,,,,,10.0,,NW,3.5,320.0,2101.0
Boston,Clear,1970-01-20 17:00:00,3.9,,-,50.0,,30.04,,Massachusetts,19.9,,,,12:00 PM,,,,,,10.0,,North,1.2,360.0,2101.0
Boston,Clear,1970-01-20 18:00:00,5.0,,-,52.0,,30.01,,Massachusetts,19.9,,,,1:00 PM,,,,,,10.0,,East,3.5,80.0,2101.0
Boston,Unknown,1970-01-20 19:00:00,3.9,,-,50.0,,29.99,,Massachusetts,19.9,,,,2:00 PM,,,,,,10.0,,ESE,4.6,110.0,2101.0
Boston,Unknown,1970-01-20 20:00:00,6.1,,-,55.0,,29.98,,Massachusetts,19.9,,,,3:00 PM,,,,,,10.0,,East,5.8,90.0,2101.0
Boston,Unknown,1970-01-20 21:00:00,7.0,,-,57.0,,29.97,,Massachusetts,19.9,,,,4:00 PM,,,,,,10.0,,East,4.6,100.0,2101.0
Boston,Unknown,1970-01-20 22:00:00,8.1,,-,57.0,,29.96,,Massachusetts,21.0,,,,5:00 PM,,,,,,10.0,,East,4.6,100.0,2101.0
Boston,Unknown,1970-01-20 23:00:00,9.0,,-,60.0,,29.96,,Massachusetts,21.0,,,,6:00 PM,,,,,,10.0,,ESE,5.8,110.0,2101.0
Boston,Unknown,1970-01-21 00:00:00,10.0,,-,60.0,,29.93,,Massachusetts,21.9,,,,7:00 PM,,,,,,10.0,,SE,2.3,140.0,2101.0
Boston,Unknown,1970-01-21 01:00:00,10.0,,-,60.0,,29.91,,Massachusetts,21.9,,,,8:00 PM,,,,,,10.0,,East,4.6,100.0,2101.0
Boston,Unknown,1970-01-21 02:00:00,9.0,,-,58.0,,29.89,,Massachusetts,21.9,,,,9:00 PM,,,,,,10.0,,Calm,Calm,0.0,2101.0
Boston,Light Snow,1970-01-21 03:00:00,7.0,Snow,-,53.0,,29.85,,Massachusetts,21.9,,,,10:00 PM,,,,,,10.0,,SE,3.5,140.0,2101.0
Boston,Light Snow,1970-01-21 04:00:00,12.9,Snow,-,71.0,,29.82,,Massachusetts,21.0,,,,11:00 PM,,,,,,5.0,,NE,2.3,50.0,2101.0
Boston,Light Snow,1970-01-21 05:00:00,15.1,Snow,-,81.0,0.01,29.77,,Massachusetts,19.9,,,,12:00 AM,,,,,,5.0,,North,11.5,360.0,2101.0
Boston,Light Snow,1970-01-21 06:00:00,12.9,Snow,-,74.0,0.01,29.72,,Massachusetts,19.9,,,,1:00 AM,,,,,,5.0,,North,16.1,360.0,2101.0
Boston,Light Snow,1970-01-21 07:00:00,12.9,Snow,-,77.0,0.01,29.71,,Massachusetts,19.0,,,,2:00 AM,,,,,,5.5,,NNW,17.3,340.0,2101.0
Boston,Light Snow,1970-01-21 08:00:00,12.0,Snow,-,78.0,0.01,29.7,,Massachusetts,18.0,,,,3:00 AM,,,,,,5.5,,North,19.6,350.0,2101.0
Boston,Light Snow,1970-01-21 09:00:00,10.0,Snow,-,77.0,0.01,29.68,,Massachusetts,16.0,,,,4:00 AM,,,,,,10.5,,North,23.0,360.0,2101.0
Boston,Light Snow,1970-01-21 10:00:00,9.0,Snow,-,77.0,,29.65,,Massachusetts,15.1,,,,5:00 AM,,,,,,3.0,,North,23.0,350.0,2101.0
Boston,Light Snow,1970-01-21 11:00:00,7.0,Snow,-,74.0,,29.63,,Massachusetts,14.0,,,,6:00 AM,,,,,,10.0,,NNW,24.2,340.0,2101.0
Boston,Unknown,1970-01-21 12:00:00,6.1,,-,71.0,,29.65,,Massachusetts,14.0,,,,7:00 AM,,,,,,10.0,,North,26.5,360.0,2101.0
Boston,Unknown,1970-01-21 13:00:00,5.0,,-,67.0,,29.69,,Massachusetts,14.0,,,,8:00 AM,,,,,,10.0,,North,21.9,350.0,2101.0
Boston,Unknown,1970-01-21 14:00:00,3.9,,-,64.0,,29.73,,Massachusetts,14.0,,,,9:00 AM,,,,,,10.0,,North,18.4,350.0,2101.0
Boston,Unknown,1970-01-21 15:00:00,5.0,,-,62.0,,29.76,,Massachusetts,16.0,,,,10:00 AM,,,,,,10.0,,NNW,10.4,340.0,2101.0
Boston,Unknown,1970-01-21 16:00:00,6.1,,-,62.0,,29.75,,Massachusetts,17.1,,,,11:00 AM,,,,,,10.0,,NW,17.3,320.0,2101.0
Boston,Unknown,1970-01-21 17:00:00,1.0,,-,52.0,,29.74,,Massachusetts,16.0,,,,12:00 PM,,,,,,15.0,,NW,20.7,310.0,2101.0
Boston,Unknown,1970-01-21 18:00:00,-0.9,,-,49.0,,29.73,,Massachusetts,15.1,,,,1:00 PM,,,,,,15.0,,NW,26.5,310.0,2101.0
Boston,Unknown,1970-01-21 19:00:00,-2.0,,-,47.0,,29.74,,Massachusetts,15.1,,,,2:00 PM,,,,,,15.0,,NW,28.8,310.0,2101.0
Boston,Unknown,1970-01-21 20:00:00,-5.1,,-,45.0,,29.76,,Massachusetts,12.9,,,,3:00 PM,,,,,,15.0,,NW,34.5,310.0,2101.0
Boston,Unknown,1970-01-21 21:00:00,-9.0,,-,39.0,,29.78,,Massachusetts,12.0,,,,4:00 PM,,,,,,15.0,,NW,17.3,320.0,2101.0
Boston,Clear,1970-01-21 22:00:00,-11.0,,-,38.0,,29.79,,Massachusetts,10.0,,,,5:00 PM,,,,,,15.0,,WNW,29.9,300.0,2101.0
Boston,Clear,1970-01-21 23:00:00,-11.9,,-,37.0,,29.81,,Massachusetts,10.0,,,,6:00 PM,,,,,,15.0,,WNW,20.7,300.0,2101.0
Boston,Clear,1970-01-22 00:00:00,-11.9,,-,38.0,,29.81,,Massachusetts,9.0,,,,7:00 PM,,,,,,15.0,,WNW,20.7,290.0,2101.0
Boston,Unknown,1970-01-22 01:00:00,-11.9,,-,40.0,,29.83,,Massachusetts,8.1,,,,8:00 PM,,,,,,15.0,,WNW,26.5,290.0,2101.0
Boston,Unknown,1970-01-22 02:00:00,-11.0,,-,42.0,,29.85,,Massachusetts,8.1,,,,9:00 PM,,,,,,15.0,,WNW,16.1,290.0,2101.0
Boston,Unknown,1970-01-22 03:00:00,-14.1,,-,41.0,,29.86,,Massachusetts,5.0,,,,10:00 PM,,,,,,15.0,,WNW,26.5,300.0,2101.0
Boston,Unknown,1970-01-22 04:00:00,-13.0,,-,43.0,,29.88,,Massachusetts,5.0,,,,11:00 PM,,,,,,15.0,,NW,23.0,310.0,2101.0
Boston,Unknown,1970-01-22 05:00:00,-11.9,,-,46.0,,29.89,,Massachusetts,5.0,,,,12:00 AM,,,,,,15.0,,WNW,20.7,300.0,2101.0
Boston,Light Snow,1970-01-22 06:00:00,-11.9,Snow,-,48.0,,29.91,,Massachusetts,3.9,,,,1:00 AM,,,,,,8.0,,WNW,19.6,300.0,2101.0
Boston,Unknown,1970-01-22 07:00:00,-14.1,,-,43.0,,29.92,,Massachusetts,3.9,,,,2:00 AM,,,,,,15.0,,WNW,26.5,300.0,2101.0
Boston,Unknown,1970-01-22 08:00:00,-14.1,,-,43.0,,29.95,,Massachusetts,3.9,,,,3:00 AM,,,,,,15.0,,WNW,19.6,300.0,2101.0
Boston,Unknown,1970-01-22 09:00:00,-13.0,,-,43.0,,29.96,,Massachusetts,5.0,,,,4:00 AM,,,,,,15.0,,WNW,21.9,290.0,2101.0
Boston,Unknown,1970-01-22 10:00:00,-13.0,,-,46.0,,29.97,,Massachusetts,3.9,,,,5:00 AM,,,,,,15.0,,West,19.6,280.0,2101.0
Boston,Unknown,1970-01-22 11:00:00,-13.0,,-,47.0,,29.98,,Massachusetts,3.0,,,,6:00 AM,,,,,,15.0,,West,18.4,280.0,2101.0
Boston,Clear,1970-01-22 12:00:00,-13.0,,-,46.0,,30.01,,Massachusetts,3.9,,,,7:00 AM,,,,,,15.0,,West,18.4,280.0,2101.0
Boston,Clear,1970-01-22 13:00:00,-13.0,,-,46.0,,30.01,,Massachusetts,3.9,,,,8:00 AM,,,,,,15.0,,West,20.7,280.0,2101.0
Boston,Clear,1970-01-22 14:00:00,-13.0,,-,41.0,,30.01,,Massachusetts,6.1,,,,9:00 AM,,,,,,15.0,,WNW,19.6,300.0,2101.0
Boston,Unknown,1970-01-22 15:00:00,-11.0,,-,40.0,,30.04,,Massachusetts,9.0,,,,10:00 AM,,,,,,15.0,,WNW,20.7,300.0,2101.0
Boston,Unknown,1970-01-22 16:00:00,-9.0,,-,39.0,,30.02,,Massachusetts,12.0,,,,11:00 AM,,,,,,15.0,,WNW,23.0,300.0,2101.0
Boston,Unknown,1970-01-22 17:00:00,-9.0,,-,35.0,,30.01,,Massachusetts,14.0,,,,12:00 PM,,,,,,15.0,,WNW,20.7,300.0,2101.0
Boston,Clear,1970-01-22 18:00:00,-7.1,,-,34.0,,30.01,,Massachusetts,17.1,,,,1:00 PM,,,,,,15.0,,WNW,17.3,300.0,2101.0
Boston,Clear,1970-01-22 19:00:00,-5.1,,-,34.0,,30.01,,Massachusetts,19.0,,,,2:00 PM,,,,,,15.0,,WNW,17.3,300.0,2101.0
Boston,Clear,1970-01-22 20:00:00,-9.0,,-,29.0,,30.02,,Massachusetts,19.0,,,,3:00 PM,,,,,,15.0,,NW,18.4,310.0,2101.0
Boston,Clear,1970-01-22 21:00:00,-9.0,,-,29.0,,30.05,,Massachusetts,19.0,,,,4:00 PM,,,,,,15.0,,NW,20.7,310.0,2101.0
Boston,Clear,1970-01-22 22:00:00,-9.9,,-,27.0,,30.08,,Massachusetts,19.0,,,,5:00 PM,,,,,,15.0,,NW,9.2,310.0,2101.0
Boston,Clear,1970-01-22 23:00:00,-9.0,,-,31.0,,30.09,,Massachusetts,17.1,,,,6:00 PM,,,,,,15.0,,NW,9.2,320.0,2101.0
Boston,Clear,1970-01-23 00:00:00,-9.0,,-,31.0,,30.11,,Massachusetts,17.1,,,,7:00 PM,,,,,,15.0,,NW,12.7,320.0,2101.0
Boston,Clear,1970-01-23 01:00:00,-9.9,,-,31.0,,30.1,,Massachusetts,16.0,,,,8:00 PM,,,,,,15.0,,WNW,9.2,300.0,2101.0
Boston,Clear,1970-01-23 02:00:00,-9.9,,-,32.0,,30.1,,Massachusetts,15.1,,,,9:00 PM,,,,,,15.0,,NW,9.2,310.0,2101.0
Boston,Clear,1970-01-23 03:00:00,-9.9,,-,34.0,,30.11,,Massachusetts,14.0,,,,10:00 PM,,,,,,15.0,,NNW,5.8,330.0,2101.0
Boston,Unknown,1970-01-23 04:00:00,-9.0,,-,39.0,,30.12,,Massachusetts,12.0,,,,11:00 PM,,,,,,15.0,,WNW,9.2,290.0,2101.0
Boston,Unknown,1970-01-23 05:00:00,-9.9,,-,37.0,,30.11,,Massachusetts,12.0,,,,12:00 AM,,,,,,15.0,,West,5.8,280.0,2101.0
Boston,Unknown,1970-01-23 06:00:00,-7.1,,-,42.0,,30.1,,Massachusetts,12.0,,,,1:00 AM,,,,,,15.0,,WSW,6.9,250.0,2101.0
Boston,Unknown,1970-01-23 07:00:00,-6.0,,-,44.0,,30.09,,Massachusetts,12.0,,,,2:00 AM,,,,,,15.0,,West,3.5,260.0,2101.0
Boston,Unknown,1970-01-23 08:00:00,-6.0,,-,47.0,,30.07,,Massachusetts,10.9,,,,3:00 AM,,,,,,15.0,,WSW,3.5,250.0,2101.0
Boston,Unknown,1970-01-23 09:00:00,-5.1,,-,51.0,,30.06,,Massachusetts,10.0,,,,4:00 AM,,,,,,15.0,,West,2.3,280.0,2101.0
Boston,Unknown,1970-01-23 10:00:00,-5.1,,-,51.0,,30.05,,Massachusetts,10.0,,,,5:00 AM,,,,,,8.0,,SW,4.6,220.0,2101.0
Boston,Unknown,1970-01-23 11:00:00,-4.0,,-,51.0,,30.04,,Massachusetts,10.9,,,,6:00 AM,,,,,,7.0,,WSW,8.1,240.0,2101.0
Boston,Smoke,1970-01-23 12:00:00,-6.0,,-,48.0,,30.05,,Massachusetts,10.0,,,,7:00 AM,,,,,,5.0,,WSW,13.8,240.0,2101.0
Boston,Smoke,1970-01-23 13:00:00,-6.0,,-,47.0,,30.04,,Massachusetts,10.9,,,,8:00 AM,,,,,,6.0,,WSW,12.7,240.0,2101.0
Boston,Unknown,1970-01-23 14:00:00,-2.0,,-,49.0,,30.01,,Massachusetts,14.0,,,,9:00 AM,,,,,,8.0,,WSW,17.3,240.0,2101.0
Boston,Unknown,1970-01-23 15:00:00,1.0,,-,48.0,,29.99,,Massachusetts,18.0,,,,10:00 AM,,,,,,10.0,,SW,15.0,230.0,2101.0
Boston,Unknown,1970-01-23 16:00:00,5.0,,-,52.0,,29.96,,Massachusetts,19.9,,,,11:00 AM,,,,,,10.0,,SW,16.1,230.0,2101.0
Boston,Unknown,1970-01-23 17:00:00,8.1,,-,53.0,,29.92,,Massachusetts,23.0,,,,12:00 PM,,,,,,10.0,,WSW,13.8,240.0,2101.0
Boston,Unknown,1970-01-23 18:00:00,9.0,,-,51.0,,29.9,,Massachusetts,25.0,,,,1:00 PM,,,,,,10.0,,WSW,15.0,240.0,2101.0
Boston,Unknown,1970-01-23 19:00:00,9.0,,-,47.0,,29.87,,Massachusetts,27.0,,,,2:00 PM,,,,,,10.0,,WSW,15.0,240.0,2101.0
Boston,Unknown,1970-01-23 20:00:00,8.1,,-,47.0,,29.87,,Massachusetts,26.1,,,,3:00 PM,,,,,,10.0,,WSW,17.3,240.0,2101.0
Boston,Unknown,1970-01-23 21:00:00,8.1,,-,45.0,,29.87,,Massachusetts,27.0,,,,4:00 PM,,,,,,10.0,,WSW,16.1,240.0,2101.0
Boston,Light Snow,1970-01-23 22:00:00,10.0,Snow,-,51.0,,29.87,,Massachusetts,26.1,,,,5:00 PM,,,,,,10.0,,WSW,15.0,250.0,2101.0
Boston,Light Snow,1970-01-23 23:00:00,16.0,Snow,-,69.0,,29.87,,Massachusetts,25.0,,,,6:00 PM,,,,,,4.0,,WSW,12.7,240.0,2101.0
Boston,Light Snow,1970-01-24 00:00:00,16.0,Snow,-,69.0,,29.87,,Massachusetts,25.0,,,,7:00 PM,,,,,,6.0,,WSW,8.1,250.0,2101.0
Boston,Light Snow,1970-01-24 01:00:00,17.1,Snow,-,72.0,,29.86,,Massachusetts,25.0,,,,8:00 PM,,,,,,3.0,,West,4.6,270.0,2101.0
Boston,Light Snow,1970-01-24 02:00:00,19.0,Snow,-,81.0,,29.86,,Massachusetts,24.1,,,,9:00 PM,,,,,,2.0,,WNW,6.9,300.0,2101.0
Boston,Light Snow,1970-01-24 03:00:00,18.0,Snow,-,81.0,,29.86,,Massachusetts,23.0,,,,10:00 PM,,,,,,3.0,,WNW,10.4,300.0,2101.0
Boston,Light Snow,1970-01-24 04:00:00,17.1,Snow,-,78.0,,29.87,,Massachusetts,23.0,,,,11:00 PM,,,,,,2.0,,WNW,11.5,290.0,2101.0
Boston,Light Snow,1970-01-24 05:00:00,16.0,Snow,-,78.0,0.01,29.86,,Massachusetts,21.9,,,,12:00 AM,,,,,,4.0,,NW,9.2,310.0,2101.0
Boston,Unknown,1970-01-24 06:00:00,14.0,,-,74.0,,29.86,,Massachusetts,21.0,,,,1:00 AM,,,,,,7.0,,NW,9.2,320.0,2101.0
Boston,Clear,1970-01-24 07:00:00,12.0,,-,74.0,,29.87,,Massachusetts,19.0,,,,2:00 AM,,,,,,7.0,,NW,12.7,320.0,2101.0
Boston,Clear,1970-01-24 08:00:00,9.0,,-,68.0,,29.89,,Massachusetts,18.0,,,,3:00 AM,,,,,,7.0,,North,13.8,350.0,2101.0
Boston,Clear,1970-01-24 09:00:00,7.0,,-,68.0,,29.91,,Massachusetts,16.0,,,,4:00 AM,,,,,,8.0,,North,11.5,350.0,2101.0
Boston,Clear,1970-01-24 10:00:00,7.0,,-,68.0,,29.92,,Massachusetts,16.0,,,,5:00 AM,,,,,,8.0,,NNW,10.4,340.0,2101.0
Boston,Clear,1970-01-24 11:00:00,6.1,,-,68.0,,29.94,,Massachusetts,15.1,,,,6:00 AM,,,,,,8.0,,NNW,15.0,330.0,2101.0
Boston,Clear,1970-01-24 12:00:00,5.0,,-,67.0,,29.98,,Massachusetts,14.0,,,,7:00 AM,,,,,,8.0,,NNW,12.7,340.0,2101.0
Boston,Clear,1970-01-24 13:00:00,3.9,,-,67.0,,30.01,,Massachusetts,12.9,,,,8:00 AM,,,,,,8.0,,NNW,12.7,330.0,2101.0
Boston,Clear,1970-01-24 14:00:00,3.9,,-,61.0,,30.04,,Massachusetts,15.1,,,,9:00 AM,,,,,,8.0,,NNW,10.4,340.0,2101.0
Boston,Clear,1970-01-24 15:00:00,5.0,,-,59.0,,30.06,,Massachusetts,17.1,,,,10:00 AM,,,,,,8.0,,NNW,12.7,330.0,2101.0
Boston,Clear,1970-01-24 16:00:00,5.0,,-,54.0,,30.05,,Massachusetts,19.0,,,,11:00 AM,,,,,,10.0,,North,8.1,350.0,2101.0
Boston,Clear,1970-01-24 17:00:00,5.0,,-,52.0,,30.03,,Massachusetts,19.9,,,,12:00 PM,,,,,,10.0,,WNW,8.1,290.0,2101.0
Boston,Clear,1970-01-24 18:00:00,5.0,,-,50.0,,30.0,,Massachusetts,21.0,,,,1:00 PM,,,,,,10.0,,WNW,8.1,300.0,2101.0
Boston,Clear,1970-01-24 19:00:00,5.0,,-,46.0,,29.99,,Massachusetts,23.0,,,,2:00 PM,,,,,,15.0,,NW,8.1,310.0,2101.0
Boston,Clear,1970-01-24 20:00:00,3.9,,-,42.0,,29.99,,Massachusetts,24.1,,,,3:00 PM,,,,,,15.0,,NW,12.7,310.0,2101.0
Boston,Clear,1970-01-24 21:00:00,3.0,,-,40.0,,30.01,,Massachusetts,24.1,,,,4:00 PM,,,,,,15.0,,NW,10.4,310.0,2101.0
Boston,Unknown,1970-01-24 22:00:00,1.9,,-,42.0,,30.01,,Massachusetts,21.9,,,,5:00 PM,,,,,,15.0,,WNW,6.9,300.0,2101.0
Boston,Clear,1970-01-24 23:00:00,-0.0,,-,37.0,,30.02,,Massachusetts,23.0,,,,6:00 PM,,,,,,15.0,,NW,3.5,320.0,2101.0
Boston,Clear,1970-01-25 00:00:00,1.9,,-,40.0,,30.06,,Massachusetts,23.0,,,,7:00 PM,,,,,,15.0,,WNW,10.4,300.0,2101.0
Boston,Clear,1970-01-25 01:00:00,-0.0,,-,40.0,,30.07,,Massachusetts,21.0,,,,8:00 PM,,,,,,15.0,,NW,4.6,320.0,2101.0
Boston,Clear,1970-01-25 02:00:00,1.0,,-,42.0,,30.08,,Massachusetts,21.0,,,,9:00 PM,,,,,,15.0,,West,6.9,280.0,2101.0
Boston,Unknown,1970-01-25 03:00:00,1.0,,-,44.0,,30.07,,Massachusetts,19.9,,,,10:00 PM,,,,,,15.0,,WNW,8.1,290.0,2101.0
Boston,Unknown,1970-01-25 04:00:00,1.0,,-,44.0,,30.07,,Massachusetts,19.9,,,,11:00 PM,,,,,,15.0,,WNW,8.1,290.0,2101.0
Boston,Unknown,1970-01-25 05:00:00,5.0,,-,52.0,,30.06,,Massachusetts,19.9,,,,12:00 AM,,,,,,7.0,,WSW,6.9,250.0,2101.0
Boston,Unknown,1970-01-25 06:00:00,3.9,,-,50.0,,30.04,,Massachusetts,19.9,,,,1:00 AM,,,,,,7.0,,WSW,6.9,240.0,2101.0
Boston,Unknown,1970-01-25 07:00:00,3.9,,-,52.0,,30.04,,Massachusetts,19.0,,,,2:00 AM,,,,,,7.0,,SW,8.1,230.0,2101.0
Boston,Unknown,1970-01-25 08:00:00,5.0,,-,52.0,,30.04,,Massachusetts,19.9,,,,3:00 AM,,,,,,7.0,,SW,10.4,230.0,2101.0
Boston,Unknown,1970-01-25 09:00:00,3.9,,-,54.0,,30.03,,Massachusetts,18.0,,,,4:00 AM,,,,,,8.0,,SW,9.2,230.0,2101.0
Boston,Unknown,1970-01-25 10:00:00,3.9,,-,54.0,,30.03,,Massachusetts,18.0,,,,5:00 AM,,,,,,8.0,,SW,9.2,230.0,2101.0
Boston,Unknown,1970-01-25 11:00:00,3.0,,-,48.0,,30.01,,Massachusetts,19.9,,,,6:00 AM,,,,,,8.0,,SW,9.2,230.0,2101.0
Boston,Unknown,1970-01-25 12:00:00,6.1,,-,53.0,,30.0,,Massachusetts,21.0,,,,7:00 AM,,,,,,8.0,,WSW,8.1,240.0,2101.0
Boston,Unknown,1970-01-25 13:00:00,7.0,,-,50.0,,29.99,,Massachusetts,23.0,,,,8:00 AM,,,,,,8.0,,SSW,6.9,210.0,2101.0
Boston,Unknown,1970-01-25 14:00:00,10.0,,-,55.0,,29.97,,Massachusetts,24.1,,,,9:00 AM,,,,,,8.0,,SW,10.4,230.0,2101.0
Boston,Unknown,1970-01-25 15:00:00,10.0,,-,53.0,,29.96,,Massachusetts,25.0,,,,10:00 AM,,,,,,8.0,,WSW,9.2,240.0,2101.0
Boston,Unknown,1970-01-25 16:00:00,12.0,,-,55.0,,29.94,,Massachusetts,26.1,,,,11:00 AM,,,,,,7.0,,WSW,6.9,240.0,2101.0
Boston,Light Snow,1970-01-25 17:00:00,18.0,Snow,-,66.0,,29.91,,Massachusetts,28.0,,,,12:00 PM,,,,,,7.0,,WSW,9.2,240.0,2101.0
Boston,Unknown,1970-01-25 18:00:00,19.0,,-,67.0,,29.87,,Massachusetts,28.9,,,,1:00 PM,,,,,,7.0,,WSW,9.2,250.0,2101.0
Boston,Unknown,1970-01-25 19:00:00,19.0,,-,64.0,,29.86,,Massachusetts,30.0,,,,2:00 PM,,,,,,8.0,,WSW,5.8,240.0,2101.0
Boston,Light Snow,1970-01-25 20:00:00,21.0,Snow,-,69.0,,29.86,,Massachusetts,30.0,,,,3:00 PM,,,,,,5.5,,West,8.1,260.0,2101.0
Boston,Light Snow,1970-01-25 21:00:00,23.0,Snow,-,78.0,,29.86,,Massachusetts,28.9,,,,4:00 PM,,,,,,5.5,,North,3.5,350.0,2101.0
Boston,Light Snow,1970-01-25 22:00:00,24.1,Fog-Snow,-,89.0,0.01,29.83,,Massachusetts,27.0,,,,5:00 PM,,,,,,0.5,,Calm,Calm,0.0,2101.0
Boston,Light Snow,1970-01-25 23:00:00,24.1,Fog-Snow,-,89.0,0.05,29.84,,Massachusetts,27.0,,,,6:00 PM,,,,,,0.5,,North,4.6,10.0,2101.0
Boston,Light Snow,1970-01-26 00:00:00,25.0,Fog-Snow,-,88.0,0.05,29.82,,Massachusetts,28.0,,,,7:00 PM,,,,,,0.8,,East,3.5,90.0,2101.0
Boston,Light Snow,1970-01-26 01:00:00,24.1,Fog-Snow,-,89.0,0.02,29.81,,Massachusetts,27.0,,,,8:00 PM,,,,,,2.0,,NE,3.5,40.0,2101.0
Boston,Light Snow,1970-01-26 02:00:00,25.0,Fog-Snow,-,88.0,0.01,29.76,,Massachusetts,28.0,,,,9:00 PM,,,,,,2.0,,NE,4.6,40.0,2101.0
Boston,Light Snow,1970-01-26 03:00:00,25.0,Fog-Snow,-,85.0,,29.73,,Massachusetts,28.9,,,,10:00 PM,,,,,,2.0,,NE,4.6,40.0,2101.0
Boston,Light Freezing Rain,1970-01-26 04:00:00,27.0,Fog-Rain,-,88.0,,29.7,,Massachusetts,30.0,,,,11:00 PM,,,,,,2.0,,ENE,6.9,60.0,2101.0
Boston,Light Snow,1970-01-26 05:00:00,26.1,Snow,-,89.0,0.01,29.68,,Massachusetts,28.9,,,,12:00 AM,,,,,,2.0,,NE,3.5,40.0,2101.0
Boston,Light Snow,1970-01-26 06:00:00,26.1,Snow,-,89.0,0.01,29.65,,Massachusetts,28.9,,,,1:00 AM,,,,,,2.0,,NE,5.8,40.0,2101.0
Boston,Light Freezing Rain,1970-01-26 07:00:00,26.1,Fog-Rain,-,85.0,0.01,29.63,,Massachusetts,30.0,,,,2:00 AM,,,,,,2.0,,North,5.8,360.0,2101.0
Boston,Light Freezing Rain,1970-01-26 08:00:00,26.1,Fog-Rain,-,85.0,0.01,29.6,,Massachusetts,30.0,,,,3:00 AM,,,,,,2.0,,North,3.5,350.0,2101.0
Boston,Light Freezing Rain,1970-01-26 09:00:00,27.0,Fog-Rain,-,85.0,0.01,29.57,,Massachusetts,30.9,,,,4:00 AM,,,,,,2.0,,North,5.8,350.0,2101.0
Boston,Light Freezing Rain,1970-01-26 10:00:00,26.1,Fog-Rain,-,85.0,0.01,29.54,,Massachusetts,30.0,,,,5:00 AM,,,,,,2.0,,NNW,5.8,340.0,2101.0
Boston,Fog,1970-01-26 11:00:00,25.0,Fog,-,85.0,,29.54,,Massachusetts,28.9,,,,6:00 AM,,,,,,3.0,,North,6.9,350.0,2101.0
Boston,Fog,1970-01-26 12:00:00,24.1,Fog,-,85.0,,29.55,,Massachusetts,28.0,,,,7:00 AM,,,,,,3.0,,North,6.9,350.0,2101.0
Boston,Fog,1970-01-26 13:00:00,24.1,Fog,-,89.0,,29.55,,Massachusetts,27.0,,,,8:00 AM,,,,,,10.5,,NW,6.9,310.0,2101.0
Boston,Fog,1970-01-26 14:00:00,23.0,Fog,-,88.0,,29.57,,Massachusetts,26.1,,,,9:00 AM,,,,,,10.5,,WNW,6.9,300.0,2101.0
Boston,Fog,1970-01-26 15:00:00,23.0,Fog,-,85.0,,29.58,,Massachusetts,27.0,,,,10:00 AM,,,,,,10.5,,NW,5.8,310.0,2101.0
Boston,Fog,1970-01-26 16:00:00,23.0,Fog,-,85.0,,29.58,,Massachusetts,27.0,,,,11:00 AM,,,,,,5.5,,NNW,8.1,340.0,2101.0
Boston,Fog,1970-01-26 17:00:00,23.0,Fog,-,81.0,,29.57,,Massachusetts,28.0,,,,12:00 PM,,,,,,3.0,,North,5.8,350.0,2101.0
Boston,Freezing Rain,1970-01-26 18:00:00,24.1,,-,76.0,,29.55,,Massachusetts,30.9,,,,1:00 PM,,,,,,3.0,,NNW,6.9,340.0,2101.0
Boston,Freezing Rain,1970-01-26 19:00:00,25.0,,-,79.0,,29.57,,Massachusetts,30.9,,,,2:00 PM,,,,,,3.0,,WNW,5.8,290.0,2101.0
Boston,Freezing Rain,1970-01-26 20:00:00,25.0,,-,79.0,,29.59,,Massachusetts,30.9,,,,3:00 PM,,,,,,3.0,,NW,8.1,310.0,2101.0
Boston,Drizzle,1970-01-26 21:00:00,25.0,,-,75.0,,29.62,,Massachusetts,32.0,,,,4:00 PM,,,,,,6.0,,NNW,4.6,340.0,2101.0
Boston,Drizzle,1970-01-26 22:00:00,25.0,,-,75.0,,29.65,,Massachusetts,32.0,,,,5:00 PM,,,,,,6.0,,NW,8.1,310.0,2101.0
Boston,Smoke,1970-01-26 23:00:00,24.1,,-,76.0,,29.71,,Massachusetts,30.9,,,,6:00 PM,,,,,,6.0,,NW,8.1,310.0,2101.0
Boston,Smoke,1970-01-27 00:00:00,25.0,,-,72.0,,29.74,,Massachusetts,33.1,,,,7:00 PM,,,,,,5.0,,WNW,8.1,300.0,2101.0
Boston,Unknown,1970-01-27 01:00:00,23.0,,-,69.0,,29.76,,Massachusetts,32.0,,,,8:00 PM,,,,,,7.0,,NW,11.5,320.0,2101.0
Boston,Clear,1970-01-27 02:00:00,21.9,,-,69.0,,29.8,,Massachusetts,30.9,,,,9:00 PM,,,,,,8.0,,NW,11.5,320.0,2101.0
Boston,Clear,1970-01-27 03:00:00,21.9,,-,72.0,,29.82,,Massachusetts,30.0,,,,10:00 PM,,,,,,8.0,,NW,9.2,320.0,2101.0
Boston,Unknown,1970-01-27 04:00:00,21.9,,-,72.0,,29.84,,Massachusetts,30.0,,,,11:00 PM,,,,,,8.0,,NNW,11.5,340.0,2101.0
Boston,Unknown,1970-01-27 05:00:00,21.0,,-,69.0,,29.87,,Massachusetts,30.0,,,,12:00 AM,,,,,,8.0,,NNW,9.2,340.0,2101.0
Boston,Unknown,1970-01-27 06:00:00,19.0,,-,67.0,,29.89,,Massachusetts,28.9,,,,1:00 AM,,,,,,8.0,,NW,13.8,320.0,2101.0
Boston,Unknown,1970-01-27 07:00:00,19.0,,-,69.0,,29.91,,Massachusetts,28.0,,,,2:00 AM,,,,,,8.0,,NNW,13.8,340.0,2101.0
Boston,Unknown,1970-01-27 08:00:00,18.0,,-,66.0,,29.93,,Massachusetts,28.0,,,,3:00 AM,,,,,,8.0,,NW,12.7,320.0,2101.0
Boston,Unknown,1970-01-27 09:00:00,17.1,,-,66.0,,29.96,,Massachusetts,27.0,,,,4:00 AM,,,,,,8.0,,NW,9.2,310.0,2101.0
Boston,Unknown,1970-01-27 10:00:00,17.1,,-,63.0,,29.99,,Massachusetts,28.0,,,,5:00 AM,,,,,,8.0,,NW,6.9,320.0,2101.0
Boston,Unknown,1970-01-27 11:00:00,17.1,,-,66.0,,30.0,,Massachusetts,27.0,,,,6:00 AM,,,,,,8.0,,NNW,9.2,330.0,2101.0
Boston,Unknown,1970-01-27 12:00:00,17.1,,-,66.0,,30.03,,Massachusetts,27.0,,,,7:00 AM,,,,,,7.0,,NW,6.9,320.0,2101.0
Boston,Smoke,1970-01-27 13:00:00,17.1,,-,63.0,,30.06,,Massachusetts,28.0,,,,8:00 AM,,,,,,6.0,,NNW,6.9,330.0,2101.0
Boston,Freezing Rain,1970-01-27 14:00:00,17.1,,-,63.0,,30.07,,Massachusetts,28.0,,,,9:00 AM,,,,,,5.0,,NNW,8.1,330.0,2101.0
Boston,Smoke,1970-01-27 15:00:00,18.0,,-,61.0,,30.09,,Massachusetts,30.0,,,,10:00 AM,,,,,,6.0,,NNW,5.8,340.0,2101.0
Boston,Smoke,1970-01-27 16:00:00,18.0,,-,61.0,,30.06,,Massachusetts,30.0,,,,11:00 AM,,,,,,6.0,,North,4.6,360.0,2101.0
Boston,Smoke,1970-01-27 17:00:00,19.0,,-,61.0,,30.05,,Massachusetts,30.9,,,,12:00 PM,,,,,,6.0,,North,3.5,350.0,2101.0
Boston,Light Snow Showers,1970-01-27 18:00:00,21.0,Snow,-,64.0,,30.05,,Massachusetts,32.0,,,,1:00 PM,,,,,,5.0,,NE,3.5,40.0,2101.0
Boston,Light Snow Showers,1970-01-27 19:00:00,21.9,Snow,-,66.0,,30.04,,Massachusetts,32.0,,,,2:00 PM,,,,,,5.0,,ENE,3.5,70.0,2101.0
Boston,Smoke,1970-01-27 20:00:00,23.0,,-,72.0,,30.04,,Massachusetts,30.9,,,,3:00 PM,,,,,,5.0,,NE,3.5,50.0,2101.0
Boston,Smoke,1970-01-27 21:00:00,21.9,,-,72.0,,30.04,,Massachusetts,30.0,,,,4:00 PM,,,,,,6.0,,East,4.6,100.0,2101.0
Boston,Smoke,1970-01-27 22:00:00,21.9,,-,72.0,,30.06,,Massachusetts,30.0,,,,5:00 PM,,,,,,6.0,,ESE,3.5,120.0,2101.0
Boston,Smoke,1970-01-27 23:00:00,21.9,,-,78.0,,30.09,,Massachusetts,28.0,,,,6:00 PM,,,,,,6.0,,South,5.8,170.0,2101.0
Boston,Smoke,1970-01-28 00:00:00,23.0,,-,81.0,,30.1,,Massachusetts,28.0,,,,7:00 PM,,,,,,6.0,,South,3.5,180.0,2101.0
Boston,Smoke,1970-01-28 01:00:00,21.9,,-,78.0,,30.12,,Massachusetts,28.0,,,,8:00 PM,,,,,,6.0,,South,4.6,190.0,2101.0
Boston,Smoke,1970-01-28 02:00:00,21.9,,-,75.0,,30.12,,Massachusetts,28.9,,,,9:00 PM,,,,,,5.0,,South,4.6,180.0,2101.0
Boston,Smoke,1970-01-28 03:00:00,21.9,,-,78.0,,30.13,,Massachusetts,28.0,,,,10:00 PM,,,,,,5.0,,South,4.6,180.0,2101.0
Boston,Smoke,1970-01-28 04:00:00,23.0,,-,85.0,,30.14,,Massachusetts,27.0,,,,11:00 PM,,,,,,5.0,,South,4.6,180.0,2101.0
Boston,Fog,1970-01-28 05:00:00,19.9,Fog,-,78.0,,30.15,,Massachusetts,26.1,,,,12:00 AM,,,,,,5.0,,SW,4.6,220.0,2101.0
Boston,Fog,1970-01-28 06:00:00,19.9,Fog,-,78.0,,30.15,,Massachusetts,26.1,,,,1:00 AM,,,,,,4.0,,SW,3.5,220.0,2101.0
Boston,Fog,1970-01-28 07:00:00,21.0,Fog,-,85.0,,30.18,,Massachusetts,25.0,,,,2:00 AM,,,,,,4.0,,Calm,Calm,0.0,2101.0
Boston,Fog,1970-01-28 08:00:00,19.9,Fog,-,81.0,,30.19,,Massachusetts,25.0,,,,3:00 AM,,,,,,4.0,,South,4.6,190.0,2101.0
Boston,Fog,1970-01-28 09:00:00,19.0,Fog,-,81.0,,30.19,,Massachusetts,24.1,,,,4:00 AM,,,,,,4.0,,South,3.5,180.0,2101.0
Boston,Fog,1970-01-28 10:00:00,18.0,Fog,-,81.0,,30.19,,Massachusetts,23.0,,,,5:00 AM,,,,,,4.0,,Calm,Calm,0.0,2101.0
Boston,Fog,1970-01-28 11:00:00,18.0,Fog,-,77.0,,30.24,,Massachusetts,24.1,,,,6:00 AM,,,,,,4.0,,West,8.1,280.0,2101.0
Boston,Smoke,1970-01-28 12:00:00,18.0,,-,75.0,,30.28,,Massachusetts,25.0,,,,7:00 AM,,,,,,4.0,,NW,6.9,310.0,2101.0
Boston,Smoke,1970-01-28 13:00:00,18.0,,-,77.0,,30.28,,Massachusetts,24.1,,,,8:00 AM,,,,,,3.0,,Calm,Calm,0.0,2101.0
Boston,Smoke,1970-01-28 14:00:00,19.0,,-,72.0,,30.32,,Massachusetts,27.0,,,,9:00 AM,,,,,,10.5,,NW,6.9,310.0,2101.0
Boston,Smoke,1970-01-28 15:00:00,19.9,,-,66.0,,30.32,,Massachusetts,30.0,,,,10:00 AM,,,,,,10.5,,WNW,2.3,300.0,2101.0
Boston,Smoke,1970-01-28 16:00:00,21.9,,-,64.0,,30.31,,Massachusetts,33.1,,,,11:00 AM,,,,,,10.5,,NE,2.3,40.0,2101.0
Boston,Smoke,1970-01-28 17:00:00,23.0,,-,66.0,,30.29,,Massachusetts,33.1,,,,12:00 PM,,,,,,2.0,,SE,5.8,140.0,2101.0
Boston,Smoke,1970-01-28 18:00:00,23.0,,-,64.0,,30.28,,Massachusetts,34.0,,,,1:00 PM,,,,,,2.0,,SE,4.6,130.0,2101.0
Boston,Fog,1970-01-28 19:00:00,23.0,Fog,-,64.0,,30.27,,Massachusetts,34.0,,,,2:00 PM,,,,,,10.5,,East,6.9,80.0,2101.0
Boston,Smoke,1970-01-28 20:00:00,25.0,,-,70.0,,30.26,,Massachusetts,34.0,,,,3:00 PM,,,,,,10.5,,ESE,11.5,110.0,2101.0
Boston,Smoke,1970-01-28 21:00:00,25.0,,-,72.0,,30.25,,Massachusetts,33.1,,,,4:00 PM,,,,,,4.0,,ESE,11.5,110.0,2101.0
Boston,Smoke,1970-01-28 22:00:00,25.0,,-,70.0,,30.22,,Massachusetts,34.0,,,,5:00 PM,,,,,,4.0,,ESE,13.8,120.0,2101.0
Boston,Smoke,1970-01-28 23:00:00,26.1,,-,73.0,,30.23,,Massachusetts,34.0,,,,6:00 PM,,,,,,5.0,,SSE,10.4,160.0,2101.0
Boston,Fog,1970-01-29 00:00:00,28.9,Fog,-,82.0,,30.22,,Massachusetts,34.0,,,,7:00 PM,,,,,,4.0,,South,10.4,180.0,2101.0
Boston,Fog,1970-01-29 01:00:00,30.0,Fog,-,85.0,,30.17,,Massachusetts,34.0,,,,8:00 PM,,,,,,4.0,,SSE,10.4,160.0,2101.0
Boston,Fog,1970-01-29 02:00:00,30.0,Fog,-,82.0,,30.14,,Massachusetts,35.1,,,,9:00 PM,,,,,,4.0,,South,9.2,170.0,2101.0
Boston,Smoke,1970-01-29 03:00:00,30.9,,-,82.0,,30.12,,Massachusetts,36.0,,,,10:00 PM,,,,,,5.0,,South,12.7,180.0,2101.0
Boston,Drizzle,1970-01-29 04:00:00,30.9,,-,82.0,,30.09,,Massachusetts,36.0,,,,11:00 PM,,,,,,5.0,,South,15.0,180.0,2101.0
Boston,Fog,1970-01-29 05:00:00,32.0,Fog,-,82.0,,30.02,,Massachusetts,37.0,,,,12:00 AM,,,,,,4.0,,South,17.3,170.0,2101.0
Boston,Fog,1970-01-29 06:00:00,33.1,Fog,-,86.0,,29.94,,Massachusetts,37.0,,,,1:00 AM,,,,,,4.0,,South,20.7,180.0,2101.0
Boston,Fog,1970-01-29 07:00:00,34.0,Fog,-,86.0,,29.9,,Massachusetts,37.9,,,,2:00 AM,,,,,,4.0,,South,16.1,190.0,2101.0
Boston,Light Thunderstorms and Rain,1970-01-29 08:00:00,35.1,Fog-Rain-Thunderstorm,-,86.0,,29.83,,Massachusetts,39.0,,,,3:00 AM,,,,,,4.0,,South,17.3,180.0,2101.0
Boston,Fog,1970-01-29 09:00:00,37.0,Fog,-,80.0,,29.75,,Massachusetts,43.0,,,,4:00 AM,,,,,,4.0,,SSW,19.6,200.0,2101.0
Boston,Fog,1970-01-29 10:00:00,39.0,Fog,-,80.0,,29.7,,Massachusetts,45.0,,,,5:00 AM,,,,,,4.0,,SSW,21.9,200.0,2101.0
Boston,Fog,1970-01-29 11:00:00,39.9,Fog,-,82.0,,29.68,,Massachusetts,45.0,,,,6:00 AM,,,,,,4.0,,SW,16.1,220.0,2101.0
Boston,Smoke,1970-01-29 12:00:00,39.0,,-,82.0,,29.67,,Massachusetts,44.1,,,,7:00 AM,,,,,,4.0,,SSW,11.5,210.0,2101.0
Boston,Light Rain Showers,1970-01-29 13:00:00,39.0,Rain,-,76.0,,29.66,,Massachusetts,46.0,,,,8:00 AM,,,,,,6.0,,SSW,16.1,210.0,2101.0
Boston,Unknown,1970-01-29 14:00:00,39.0,,-,74.0,,29.63,,Massachusetts,46.9,,,,9:00 AM,,,,,,7.0,,SW,16.1,230.0,2101.0
Boston,Unknown,1970-01-29 15:00:00,39.0,,-,76.0,,29.62,,Massachusetts,46.0,,,,10:00 AM,,,,,,7.0,,SW,12.7,230.0,2101.0
Boston,Light Rain Showers,1970-01-29 16:00:00,39.0,Rain,-,80.0,0.02,29.6,,Massachusetts,45.0,,,,11:00 AM,,,,,,4.0,,SW,19.6,230.0,2101.0
Boston,Light Rain,1970-01-29 17:00:00,39.9,Rain,-,82.0,0.02,29.57,,Massachusetts,45.0,,,,12:00 PM,,,,,,5.0,,SW,15.0,230.0,2101.0
Boston,Drizzle,1970-01-29 18:00:00,39.9,,-,82.0,,29.57,,Massachusetts,45.0,,,,1:00 PM,,,,,,6.0,,WSW,15.0,250.0,2101.0
Boston,Unknown,1970-01-29 19:00:00,39.9,,-,79.0,,29.56,,Massachusetts,46.0,,,,2:00 PM,,,,,,7.0,,SW,15.0,230.0,2101.0
Boston,Unknown,1970-01-29 20:00:00,39.9,,-,82.0,,29.53,,Massachusetts,45.0,,,,3:00 PM,,,,,,7.0,,South,9.2,190.0,2101.0
Boston,Unknown,1970-01-29 21:00:00,39.0,,-,74.0,,29.55,,Massachusetts,46.9,,,,4:00 PM,,,,,,7.0,,WSW,12.7,240.0,2101.0
Boston,Smoke,1970-01-29 22:00:00,37.9,,-,73.0,,29.55,,Massachusetts,46.0,,,,5:00 PM,,,,,,5.0,,WSW,10.4,240.0,2101.0
Boston,Smoke,1970-01-29 23:00:00,39.0,,-,74.0,,29.57,,Massachusetts,46.9,,,,6:00 PM,,,,,,5.0,,SW,18.4,230.0,2101.0
Boston,Drizzle,1970-01-30 00:00:00,39.0,,-,76.0,,29.57,,Massachusetts,46.0,,,,7:00 PM,,,,,,6.0,,WSW,11.5,240.0,2101.0
Boston,Drizzle,1970-01-30 01:00:00,39.0,,-,76.0,,29.55,,Massachusetts,46.0,,,,8:00 PM,,,,,,6.0,,SW,8.1,230.0,2101.0
Boston,Unknown,1970-01-30 02:00:00,39.0,,-,76.0,,29.56,,Massachusetts,46.0,,,,9:00 PM,,,,,,7.0,,WSW,8.1,240.0,2101.0
Boston,Unknown,1970-01-30 03:00:00,39.0,,-,80.0,,29.57,,Massachusetts,45.0,,,,10:00 PM,,,,,,7.0,,West,11.5,260.0,2101.0
Boston,Unknown,1970-01-30 04:00:00,37.0,,-,68.0,,29.59,,Massachusetts,46.9,,,,11:00 PM,,,,,,10.0,,West,17.3,280.0,2101.0
Boston,Unknown,1970-01-30 05:00:00,35.1,,-,68.0,,29.61,,Massachusetts,45.0,,,,12:00 AM,,,,,,10.0,,West,15.0,270.0,2101.0
Boston,Unknown,1970-01-30 06:00:00,34.0,,-,65.0,,29.62,,Massachusetts,45.0,,,,1:00 AM,,,,,,10.0,,West,13.8,260.0,2101.0
Boston,Unknown,1970-01-30 07:00:00,30.9,,-,60.0,,29.62,,Massachusetts,44.1,,,,2:00 AM,,,,,,10.0,,West,16.1,280.0,2101.0
Boston,Unknown,1970-01-30 08:00:00,30.0,,-,60.0,,29.63,,Massachusetts,43.0,,,,3:00 AM,,,,,,10.0,,West,16.1,280.0,2101.0
Boston,Unknown,1970-01-30 09:00:00,30.0,,-,60.0,,29.64,,Massachusetts,43.0,,,,4:00 AM,,,,,,10.0,,West,15.0,270.0,2101.0
Boston,Unknown,1970-01-30 10:00:00,28.9,,-,60.0,,29.66,,Massachusetts,42.1,,,,5:00 AM,,,,,,10.0,,West,11.5,260.0,2101.0
Boston,Unknown,1970-01-30 11:00:00,28.9,,-,60.0,,29.66,,Massachusetts,42.1,,,,6:00 AM,,,,,,10.0,,West,15.0,270.0,2101.0
Boston,Unknown,1970-01-30 12:00:00,27.0,,-,57.0,,29.69,,Massachusetts,41.0,,,,7:00 AM,,,,,,10.0,,West,16.1,280.0,2101.0
Boston,Unknown,1970-01-30 13:00:00,27.0,,-,60.0,,29.7,,Massachusetts,39.9,,,,8:00 AM,,,,,,10.0,,West,16.1,280.0,2101.0
Boston,Unknown,1970-01-30 14:00:00,27.0,,-,57.0,,29.73,,Massachusetts,41.0,,,,9:00 AM,,,,,,10.0,,West,13.8,270.0,2101.0
Boston,Unknown,1970-01-30 15:00:00,25.0,,-,53.0,,29.76,,Massachusetts,41.0,,,,10:00 AM,,,,,,10.0,,West,19.6,270.0,2101.0
Boston,Unknown,1970-01-30 16:00:00,25.0,,-,53.0,,29.75,,Massachusetts,41.0,,,,11:00 AM,,,,,,10.0,,WNW,18.4,290.0,2101.0
Boston,Unknown,1970-01-30 17:00:00,26.1,,-,60.0,,29.76,,Massachusetts,39.0,,,,12:00 PM,,,,,,10.0,,WNW,15.0,290.0,2101.0
Boston,Unknown,1970-01-30 18:00:00,26.1,,-,58.0,,29.73,,Massachusetts,39.9,,,,1:00 PM,,,,,,10.0,,WNW,12.7,300.0,2101.0
Boston,Unknown,1970-01-30 19:00:00,24.1,,-,57.0,,29.72,,Massachusetts,37.9,,,,2:00 PM,,,,,,15.0,,NNW,16.1,340.0,2101.0
Boston,Unknown,1970-01-30 20:00:00,21.9,,-,53.0,,29.74,,Massachusetts,37.9,,,,3:00 PM,,,,,,15.0,,NNW,12.7,330.0,2101.0
Boston,Unknown,1970-01-30 21:00:00,19.0,,-,50.0,,29.77,,Massachusetts,36.0,,,,4:00 PM,,,,,,15.0,,NW,16.1,320.0,2101.0
Boston,Unknown,1970-01-30 22:00:00,17.1,,-,48.0,,29.8,,Massachusetts,35.1,,,,5:00 PM,,,,,,15.0,,NW,15.0,320.0,2101.0
Boston,Unknown,1970-01-30 23:00:00,10.9,,-,40.0,,29.83,,Massachusetts,33.1,,,,6:00 PM,,,,,,15.0,,NW,19.6,310.0,2101.0
Boston,Unknown,1970-01-31 00:00:00,8.1,,-,38.0,,29.86,,Massachusetts,30.9,,,,7:00 PM,,,,,,15.0,,NW,19.6,320.0,2101.0
Boston,Clear,1970-01-31 01:00:00,5.0,,-,36.0,,29.87,,Massachusetts,28.9,,,,8:00 PM,,,,,,15.0,,NW,19.6,320.0,2101.0
Boston,Clear,1970-01-31 02:00:00,3.0,,-,37.0,,29.91,,Massachusetts,26.1,,,,9:00 PM,,,,,,15.0,,NW,19.6,320.0,2101.0
Boston,Clear,1970-01-31 03:00:00,-2.0,,-,32.0,,29.92,,Massachusetts,24.1,,,,10:00 PM,,,,,,15.0,,NW,17.3,310.0,2101.0
Boston,Clear,1970-01-31 04:00:00,-0.9,,-,35.0,,29.96,,Massachusetts,23.0,,,,11:00 PM,,,,,,15.0,,NW,15.0,320.0,2101.0
Boston,Clear,1970-01-31 05:00:00,-0.9,,-,37.0,,29.94,,Massachusetts,21.9,,,,12:00 AM,,,,,,15.0,,NNW,15.0,330.0,2101.0
Boston,Clear,1970-01-31 06:00:00,-0.9,,-,37.0,,29.99,,Massachusetts,21.9,,,,1:00 AM,,,,,,15.0,,NW,13.8,320.0,2101.0
Boston,Clear,1970-01-31 07:00:00,-0.9,,-,38.0,,30.01,,Massachusetts,21.0,,,,2:00 AM,,,,,,15.0,,NNW,13.8,330.0,2101.0
Boston,Clear,1970-01-31 08:00:00,-2.0,,-,38.0,,30.02,,Massachusetts,19.9,,,,3:00 AM,,,,,,15.0,,NW,13.8,320.0,2101.0
Boston,Clear,1970-01-31 09:00:00,-0.9,,-,40.0,,30.04,,Massachusetts,19.9,,,,4:00 AM,,,,,,15.0,,NNW,15.0,330.0,2101.0
Boston,Clear,1970-01-31 10:00:00,-0.9,,-,42.0,,30.05,,Massachusetts,19.0,,,,5:00 AM,,,,,,15.0,,NW,11.5,310.0,2101.0
Boston,Clear,1970-01-31 11:00:00,-0.9,,-,42.0,,30.07,,Massachusetts,19.0,,,,6:00 AM,,,,,,15.0,,WNW,11.5,300.0,2101.0
Boston,Clear,1970-01-31 12:00:00,-0.9,,-,42.0,,30.1,,Massachusetts,19.0,,,,7:00 AM,,,,,,15.0,,WNW,13.8,290.0,2101.0
Boston,Clear,1970-01-31 13:00:00,1.0,,-,44.0,,30.12,,Massachusetts,19.9,,,,8:00 AM,,,,,,15.0,,West,11.5,280.0,2101.0
Boston,Clear,1970-01-31 14:00:00,1.9,,-,40.0,,30.14,,Massachusetts,23.0,,,,9:00 AM,,,,,,15.0,,West,11.5,280.0,2101.0
Boston,Clear,1970-01-31 15:00:00,-0.0,,-,35.0,,30.14,,Massachusetts,24.1,,,,10:00 AM,,,,,,15.0,,WNW,11.5,290.0,2101.0
Boston,Unknown,1970-01-31 16:00:00,1.9,,-,34.0,,30.14,,Massachusetts,27.0,,,,11:00 AM,,,,,,15.0,,West,11.5,270.0,2101.0
Boston,Unknown,1970-01-31 17:00:00,3.9,,-,35.0,,30.12,,Massachusetts,28.9,,,,12:00 PM,,,,,,15.0,,West,8.1,270.0,2101.0
Boston,Unknown,1970-01-31 18:00:00,7.0,,-,38.0,,30.1,,Massachusetts,30.0,,,,1:00 PM,,,,,,15.0,,WSW,12.7,240.0,2101.0
Boston,Unknown,1970-01-31 19:00:00,8.1,,-,38.0,,30.07,,Massachusetts,30.9,,,,2:00 PM,,,,,,15.0,,WSW,11.5,250.0,2101.0
Boston,Clear,1970-01-31 20:00:00,9.0,,-,38.0,,30.06,,Massachusetts,32.0,,,,3:00 PM,,,,,,15.0,,West,15.0,260.0,2101.0
Boston,Clear,1970-01-31 21:00:00,10.9,,-,40.0,,30.06,,Massachusetts,33.1,,,,4:00 PM,,,,,,15.0,,West,12.7,260.0,2101.0
Boston,Clear,1970-01-31 22:00:00,12.0,,-,44.0,,30.05,,Massachusetts,32.0,,,,5:00 PM,,,,,,15.0,,WSW,15.0,240.0,2101.0
Boston,Clear,1970-01-31 23:00:00,12.9,,-,47.0,,30.05,,Massachusetts,30.9,,,,6:00 PM,,,,,,15.0,,WSW,13.8,240.0,2101.0
Boston,Clear,1970-02-01 00:00:00,12.9,,-,49.0,,30.06,,Massachusetts,30.0,,,,7:00 PM,,,,,,15.0,,WSW,17.3,240.0,2101.0
Boston,Clear,1970-02-01 01:00:00,12.9,,-,51.0,,30.06,,Massachusetts,28.9,,,,8:00 PM,,,,,,15.0,,SW,17.3,220.0,2101.0
Boston,Clear,1970-02-01 02:00:00,14.0,,-,51.0,,30.05,,Massachusetts,30.0,,,,9:00 PM,,,,,,15.0,,WSW,15.0,240.0,2101.0
Boston,Clear,1970-02-01 03:00:00,16.0,,-,56.0,,30.04,,Massachusetts,30.0,,,,10:00 PM,,,,,,15.0,,SW,17.3,230.0,2101.0
Boston,Clear,1970-02-01 04:00:00,18.0,,-,59.0,,30.02,,Massachusetts,30.9,,,,11:00 PM,,,,,,15.0,,WSW,17.3,240.0,2101.0
Chicago,Light Snow,1970-01-01 06:00:00,25.0,Snow,-,88.0,,30.04,,Illinois,28.0,,,12:00 AM,,,,,,,5.0,,Calm,Calm,0.0,60290.0
Chicago,Smoke,1970-01-01 07:00:00,21.9,,-,84.0,,30.04,,Illinois,26.1,,,1:00 AM,,,,,,,6.0,,Calm,Calm,0.0,60290.0
Chicago,Smoke,1970-01-01 08:00:00,21.0,,-,92.0,,30.04,,Illinois,23.0,,,2:00 AM,,,,,,,5.0,,SW,6.9,230.0,60290.0
Chicago,Light Snow,1970-01-01 09:00:00,21.9,Snow,-,91.0,,30.03,,Illinois,24.1,,,3:00 AM,,,,,,,4.0,,SSW,6.9,200.0,60290.0
Chicago,Light Snow,1970-01-01 10:00:00,21.0,Snow,-,85.0,,30.03,,Illinois,25.0,,,4:00 AM,,,,,,,5.0,,SSW,4.6,210.0,60290.0
Chicago,Light Snow,1970-01-01 11:00:00,24.1,Snow,-,92.0,,30.02,,Illinois,26.1,,,5:00 AM,,,,,,,4.0,,SW,4.6,230.0,60290.0
Chicago,Light Snow,1970-01-01 12:00:00,23.0,Snow,-,92.0,,30.01,,Illinois,25.0,,,6:00 AM,,,,,,,5.0,,Calm,Calm,0.0,60290.0
Chicago,Light Snow,1970-01-01 13:00:00,24.1,Snow,-,92.0,,30.01,,Illinois,26.1,,,7:00 AM,,,,,,,2.0,,Calm,Calm,0.0,60290.0
Chicago,Light Snow,1970-01-01 14:00:00,23.0,Snow,-,88.0,0.01,30.01,,Illinois,26.1,,,8:00 AM,,,,,,,1.0,,South,4.6,190.0,60290.0
Chicago,Light Snow,1970-01-01 15:00:00,23.0,Snow,-,85.0,,30.01,,Illinois,27.0,,,9:00 AM,,,,,,,5.5,,South,5.8,190.0,60290.0
Chicago,Light Snow,1970-01-01 16:00:00,23.0,Snow,-,85.0,,30.02,,Illinois,27.0,,,10:00 AM,,,,,,,1.0,,South,8.1,190.0,60290.0
Chicago,Light Snow,1970-01-01 17:00:00,24.1,Snow,-,82.0,,30.0,,Illinois,28.9,,,11:00 AM,,,,,,,2.0,,SSW,5.8,210.0,60290.0
Chicago,Light Snow,1970-01-01 18:00:00,23.0,Snow,-,78.0,,29.98,,Illinois,28.9,,,12:00 PM,,,,,,,2.0,,SSW,9.2,210.0,60290.0
Chicago,Smoke,1970-01-01 19:00:00,23.0,,-,78.0,,29.99,,Illinois,28.9,,,1:00 PM,,,,,,,2.0,,WSW,10.4,240.0,60290.0
Chicago,Light Snow,1970-01-01 20:00:00,21.9,Snow,-,78.0,,29.99,,Illinois,28.0,,,2:00 PM,,,,,,,10.5,,WSW,13.8,240.0,60290.0
Chicago,Light Snow,1970-01-01 21:00:00,21.0,Snow,-,75.0,,29.99,,Illinois,28.0,,,3:00 PM,,,,,,,10.5,,SW,16.1,230.0,60290.0
Chicago,Smoke,1970-01-01 22:00:00,21.0,,-,78.0,,30.01,,Illinois,27.0,,,4:00 PM,,,,,,,10.5,,West,11.5,260.0,60290.0
Chicago,Light Snow,1970-01-01 23:00:00,19.9,Snow,-,78.0,,30.01,,Illinois,26.1,,,5:00 PM,,,,,,,10.5,,SW,11.5,230.0,60290.0
Chicago,Smoke,1970-01-02 00:00:00,19.9,,-,81.0,,30.02,,Illinois,25.0,,,6:00 PM,,,,,,,10.5,,WSW,11.5,240.0,60290.0
Chicago,Smoke,1970-01-02 01:00:00,19.9,,-,81.0,,30.03,,Illinois,25.0,,,7:00 PM,,,,,,,10.5,,SW,6.9,220.0,60290.0
Chicago,Smoke,1970-01-02 02:00:00,21.0,,-,85.0,,30.04,,Illinois,25.0,,,8:00 PM,,,,,,,10.5,,SW,9.2,220.0,60290.0
Chicago,Smoke,1970-01-02 03:00:00,19.9,,-,81.0,,30.04,,Illinois,25.0,,,9:00 PM,,,,,,,3.0,,SW,10.4,230.0,60290.0
Chicago,Light Snow,1970-01-02 04:00:00,19.9,Snow,-,81.0,,30.04,,Illinois,25.0,,,10:00 PM,,,,,,,3.0,,WSW,10.4,240.0,60290.0
Chicago,Light Snow,1970-01-02 05:00:00,19.0,Snow,-,81.0,,30.05,,Illinois,24.1,,,11:00 PM,,,,,,,3.0,,SW,9.2,230.0,60290.0
Chicago,Fog,1970-01-03 06:00:00,12.9,Fog,-,84.0,,30.01,,Illinois,17.1,,,12:00 AM,,,,,,,10.5,,WSW,8.1,240.0,60290.0
Chicago,Light Snow,1970-01-03 07:00:00,12.0,Fog-Snow,-,84.0,,30.02,,Illinois,16.0,,,1:00 AM,,,,,,,10.5,,SW,10.4,230.0,60290.0
Chicago,Light Snow,1970-01-03 08:00:00,9.0,Fog-Snow,-,80.0,,30.03,,Illinois,14.0,,,2:00 AM,,,,,,,10.5,,WSW,9.2,240.0,60290.0
Chicago,Light Snow,1970-01-03 09:00:00,10.0,Fog-Snow,-,80.0,,30.04,,Illinois,15.1,,,3:00 AM,,,,,,,3.0,,WSW,11.5,240.0,60290.0
Chicago,Light Snow,1970-01-03 10:00:00,10.9,Fog-Snow,-,81.0,,30.03,,Illinois,16.0,,,4:00 AM,,,,,,,3.0,,WSW,10.4,240.0,60290.0
Chicago,Light Snow,1970-01-03 11:00:00,10.0,Fog-Snow,-,80.0,,30.03,,Illinois,15.1,,,5:00 AM,,,,,,,3.0,,WSW,12.7,250.0,60290.0
Chicago,Light Snow,1970-01-03 12:00:00,8.1,Fog-Snow,-,77.0,,30.04,,Illinois,14.0,,,6:00 AM,,,,,,,3.0,,WSW,9.2,240.0,60290.0
Chicago,Light Snow,1970-01-03 13:00:00,7.0,Snow,-,80.0,,30.07,,Illinois,12.0,,,7:00 AM,,,,,,,4.0,,WSW,10.4,240.0,60290.0
Chicago,Light Snow,1970-01-03 14:00:00,9.0,Snow,-,80.0,,30.07,,Illinois,14.0,,,8:00 AM,,,,,,,3.0,,WSW,11.5,240.0,60290.0
Chicago,Light Snow,1970-01-03 15:00:00,9.0,Snow,-,80.0,,30.08,,Illinois,14.0,,,9:00 AM,,,,,,,3.0,,SW,11.5,230.0,60290.0
Chicago,Light Snow,1970-01-03 16:00:00,9.0,Snow,-,77.0,,30.09,,Illinois,15.1,,,10:00 AM,,,,,,,3.0,,WSW,13.8,240.0,60290.0
Chicago,Light Snow,1970-01-03 17:00:00,7.0,Snow,-,74.0,,30.09,,Illinois,14.0,,,11:00 AM,,,,,,,4.0,,SW,15.0,230.0,60290.0
Chicago,Smoke,1970-01-03 18:00:00,7.0,,-,74.0,,30.06,,Illinois,14.0,,,12:00 PM,,,,,,,5.0,,WSW,13.8,250.0,60290.0
Chicago,Smoke,1970-01-03 19:00:00,7.0,,-,70.0,,30.05,,Illinois,15.1,,,1:00 PM,,,,,,,6.0,,WSW,12.7,240.0,60290.0
Chicago,Unknown,1970-01-03 20:00:00,6.1,,-,68.0,,30.05,,Illinois,15.1,,,2:00 PM,,,,,,,8.0,,WSW,13.8,250.0,60290.0
Chicago,Unknown,1970-01-03 21:00:00,6.1,,-,71.0,,30.06,,Illinois,14.0,,,3:00 PM,,,,,,,7.0,,SW,11.5,220.0,60290.0
Chicago,Unknown,1970-01-03 22:00:00,5.0,,-,71.0,,30.06,,Illinois,12.9,,,4:00 PM,,,,,,,7.0,,SW,11.5,230.0,60290.0
Chicago,Smoke,1970-01-03 23:00:00,5.0,,-,73.0,,30.07,,Illinois,12.0,,,5:00 PM,,,,,,,4.0,,SW,9.2,220.0,60290.0
Chicago,Smoke,1970-01-04 00:00:00,3.9,,-,76.0,,30.07,,Illinois,10.0,,,6:00 PM,,,,,,,5.0,,South,9.2,190.0,60290.0
Chicago,Smoke,1970-01-04 01:00:00,3.0,,-,80.0,,30.07,,Illinois,8.1,,,7:00 PM,,,,,,,6.0,,SSW,8.1,200.0,60290.0
Chicago,Smoke,1970-01-04 02:00:00,3.0,,-,80.0,,30.07,,Illinois,8.1,,,8:00 PM,,,,,,,5.0,,SSW,10.4,210.0,60290.0
Chicago,Smoke,1970-01-04 03:00:00,3.0,,-,80.0,,30.07,,Illinois,8.1,,,9:00 PM,,,,,,,3.0,,SW,8.1,220.0,60290.0
Chicago,Smoke,1970-01-04 04:00:00,3.0,,-,80.0,,30.08,,Illinois,8.1,,,10:00 PM,,,,,,,3.0,,SSW,9.2,210.0,60290.0
Chicago,Smoke,1970-01-04 05:00:00,3.9,,-,80.0,,30.07,,Illinois,9.0,,,11:00 PM,,,,,,,3.0,,SW,8.1,230.0,60290.0
Chicago,Smoke,1970-01-04 06:00:00,3.0,,-,80.0,,30.07,,Illinois,8.1,,,12:00 AM,,,,,,,3.0,,SSW,8.1,200.0,60290.0
Chicago,Smoke,1970-01-04 07:00:00,1.0,,-,80.0,,30.06,,Illinois,6.1,,,1:00 AM,,,,,,,3.0,,SSW,6.9,200.0,60290.0
Chicago,Smoke,1970-01-04 08:00:00,1.0,,-,84.0,,30.07,,Illinois,5.0,,,2:00 AM,,,,,,,3.0,,SSW,5.8,200.0,60290.0
Chicago,Smoke,1970-01-04 09:00:00,-0.0,,-,80.0,,30.07,,Illinois,5.0,,,3:00 AM,,,,,,,3.0,,South,5.8,180.0,60290.0
Chicago,Light Snow,1970-01-04 10:00:00,-0.0,Snow,-,84.0,,30.06,,Illinois,3.9,,,4:00 AM,,,,,,,3.0,,South,5.8,190.0,60290.0
Chicago,Light Snow,1970-01-04 11:00:00,1.9,Snow,-,83.0,,30.05,,Illinois,6.1,,,5:00 AM,,,,,,,3.0,,South,5.8,190.0,60290.0
Chicago,Light Snow,1970-01-04 12:00:00,3.9,Fog-Snow,-,80.0,,30.07,,Illinois,9.0,,,6:00 AM,,,,,,,2.0,,South,5.8,190.0,60290.0
Chicago,Light Snow,1970-01-04 13:00:00,7.0,Fog-Snow,-,84.0,,30.08,,Illinois,10.9,,,7:00 AM,,,,,,,3.0,,South,6.9,190.0,60290.0
Chicago,Light Snow,1970-01-04 14:00:00,9.0,Fog-Snow,-,84.0,,30.08,,Illinois,12.9,,,8:00 AM,,,,,,,2.0,,South,8.1,170.0,60290.0
Chicago,Light Snow,1970-01-04 15:00:00,10.0,Fog-Snow,-,84.0,,30.09,,Illinois,14.0,,,9:00 AM,,,,,,,10.5,,South,9.2,180.0,60290.0
Chicago,Light Snow,1970-01-04 16:00:00,12.0,Fog-Snow,-,84.0,,30.09,,Illinois,16.0,,,10:00 AM,,,,,,,10.5,,South,11.5,180.0,60290.0
Chicago,Light Snow,1970-01-04 17:00:00,14.0,Snow,-,81.0,,30.08,,Illinois,19.0,,,11:00 AM,,,,,,,10.5,,South,13.8,190.0,60290.0
Chicago,Light Snow,1970-01-04 18:00:00,15.1,Snow,-,81.0,,30.06,,Illinois,19.9,,,12:00 PM,,,,,,,10.5,,SSW,13.8,200.0,60290.0
Chicago,Smoke,1970-01-04 19:00:00,17.1,,-,82.0,,30.06,,Illinois,21.9,,,1:00 PM,,,,,,,10.5,,SW,11.5,220.0,60290.0
Chicago,Unknown,1970-01-04 20:00:00,17.1,,-,69.0,,30.06,,Illinois,26.1,,,2:00 PM,,,,,,,7.0,,SW,12.7,220.0,60290.0
Chicago,Unknown,1970-01-04 21:00:00,16.0,,-,66.0,,30.08,,Illinois,26.1,,,3:00 PM,,,,,,,7.0,,WSW,11.5,240.0,60290.0
Chicago,Unknown,1970-01-04 22:00:00,16.0,,-,69.0,,30.1,,Illinois,25.0,,,4:00 PM,,,,,,,7.0,,SW,10.4,230.0,60290.0
Chicago,Smoke,1970-01-04 23:00:00,15.1,,-,72.0,,30.12,,Illinois,23.0,,,5:00 PM,,,,,,,5.0,,SW,9.2,230.0,60290.0
Chicago,Smoke,1970-01-05 00:00:00,14.0,,-,78.0,,30.14,,Illinois,19.9,,,6:00 PM,,,,,,,6.0,,SSW,6.9,210.0,60290.0
Chicago,Smoke,1970-01-05 01:00:00,12.9,,-,84.0,,30.17,,Illinois,17.1,,,7:00 PM,,,,,,,6.0,,SW,4.6,220.0,60290.0
Chicago,Clear,1970-01-05 02:00:00,14.0,,-,81.0,,30.19,,Illinois,19.0,,,8:00 PM,,,,,,,7.0,,SW,6.9,230.0,60290.0
Chicago,Unknown,1970-01-05 03:00:00,15.1,,-,85.0,,30.19,,Illinois,19.0,,,9:00 PM,,,,,,,7.0,,WSW,9.2,240.0,60290.0
Chicago,Smoke,1970-01-05 04:00:00,14.0,,-,84.0,,30.21,,Illinois,18.0,,,10:00 PM,,,,,,,6.0,,SW,6.9,220.0,60290.0
Chicago,Smoke,1970-01-05 05:00:00,12.9,,-,81.0,,30.22,,Illinois,18.0,,,11:00 PM,,,,,,,6.0,,SW,5.8,230.0,60290.0
Chicago,Fog,1970-01-05 06:00:00,12.9,Fog,-,84.0,,30.22,,Illinois,17.1,,,12:00 AM,,,,,,,4.0,,SW,6.9,230.0,60290.0
Chicago,Fog,1970-01-05 07:00:00,12.0,Fog,-,84.0,,30.23,,Illinois,16.0,,,1:00 AM,,,,,,,4.0,,West,5.8,260.0,60290.0
Chicago,Fog,1970-01-05 08:00:00,12.0,Fog,-,84.0,,30.24,,Illinois,16.0,,,2:00 AM,,,,,,,4.0,,WNW,5.8,290.0,60290.0
Chicago,Fog,1970-01-05 09:00:00,12.0,Fog,-,81.0,,30.24,,Illinois,17.1,,,3:00 AM,,,,,,,4.0,,WNW,5.8,290.0,60290.0
Chicago,Smoke,1970-01-05 10:00:00,12.0,,-,78.0,,30.22,,Illinois,18.0,,,4:00 AM,,,,,,,6.0,,North,8.1,350.0,60290.0
Chicago,Unknown,1970-01-05 11:00:00,9.0,,-,68.0,,30.24,,Illinois,18.0,,,5:00 AM,,,,,,,7.0,,North,6.9,350.0,60290.0
Chicago,Unknown,1970-01-05 12:00:00,8.1,,-,68.0,,30.25,,Illinois,17.1,,,6:00 AM,,,,,,,7.0,,NNW,8.1,340.0,60290.0
Chicago,Smoke,1970-01-05 13:00:00,6.1,,-,62.0,,30.27,,Illinois,17.1,,,7:00 AM,,,,,,,6.0,,NNW,8.1,340.0,60290.0
Chicago,Smoke,1970-01-05 14:00:00,3.9,,-,64.0,,30.29,,Illinois,14.0,,,8:00 AM,,,,,,,5.0,,NW,9.2,320.0,60290.0
Chicago,Smoke,1970-01-05 15:00:00,3.9,,-,67.0,,30.3,,Illinois,12.9,,,9:00 AM,,,,,,,5.0,,WNW,6.9,300.0,60290.0
Chicago,Smoke,1970-01-05 16:00:00,1.9,,-,64.0,,30.33,,Illinois,12.0,,,10:00 AM,,,,,,,6.0,,NW,9.2,320.0,60290.0
Chicago,Smoke,1970-01-05 17:00:00,1.9,,-,54.0,,30.31,,Illinois,16.0,,,11:00 AM,,,,,,,6.0,,WNW,5.8,290.0,60290.0
Chicago,Smoke,1970-01-05 18:00:00,1.9,,-,50.0,,30.29,,Illinois,18.0,,,12:00 PM,,,,,,,6.0,,NNW,11.5,340.0,60290.0
Chicago,Smoke,1970-01-05 19:00:00,5.0,,-,52.0,,30.3,,Illinois,19.9,,,1:00 PM,,,,,,,6.0,,WNW,8.1,300.0,60290.0
Chicago,Clear,1970-01-05 20:00:00,3.0,,-,50.0,,30.3,,Illinois,19.0,,,2:00 PM,,,,,,,10.0,,NW,11.5,310.0,60290.0
Chicago,Clear,1970-01-05 21:00:00,3.0,,-,52.0,,30.3,,Illinois,18.0,,,3:00 PM,,,,,,,10.0,,WNW,10.4,290.0,60290.0
Chicago,Clear,1970-01-05 22:00:00,3.0,,-,57.0,,30.32,,Illinois,16.0,,,4:00 PM,,,,,,,10.0,,WNW,12.7,300.0,60290.0
Chicago,Clear,1970-01-05 23:00:00,1.0,,-,61.0,,30.32,,Illinois,12.0,,,5:00 PM,,,,,,,10.0,,NW,11.5,310.0,60290.0
Chicago,Clear,1970-01-06 00:00:00,-0.0,,-,64.0,,30.33,,Illinois,10.0,,,6:00 PM,,,,,,,10.0,,WNW,9.2,290.0,60290.0
Chicago,Clear,1970-01-06 01:00:00,-0.9,,-,67.0,,30.36,,Illinois,8.1,,,7:00 PM,,,,,,,10.0,,WNW,10.4,290.0,60290.0
Chicago,Clear,1970-01-06 02:00:00,-4.0,,-,63.0,,30.37,,Illinois,6.1,,,8:00 PM,,,,,,,10.0,,West,9.2,280.0,60290.0
Chicago,Clear,1970-01-06 03:00:00,-5.1,,-,63.0,,30.35,,Illinois,5.0,,,9:00 PM,,,,,,,10.0,,West,9.2,280.0,60290.0
Chicago,Clear,1970-01-06 04:00:00,-5.1,,-,66.0,,30.35,,Illinois,3.9,,,10:00 PM,,,,,,,10.0,,WNW,10.4,290.0,60290.0
Chicago,Clear,1970-01-06 05:00:00,-5.1,,-,66.0,,30.35,,Illinois,3.9,,,11:00 PM,,,,,,,10.0,,WNW,9.2,290.0,60290.0
Chicago,Clear,1970-01-06 06:00:00,-5.1,,-,66.0,,30.34,,Illinois,3.9,,,12:00 AM,,,,,,,10.0,,WNW,10.4,290.0,60290.0
Chicago,Clear,1970-01-06 07:00:00,-6.0,,-,69.0,,30.35,,Illinois,1.9,,,1:00 AM,,,,,,,10.0,,WNW,6.9,300.0,60290.0
Chicago,Clear,1970-01-06 08:00:00,-8.0,,-,66.0,,30.37,,Illinois,1.0,,,2:00 AM,,,,,,,10.0,,WNW,9.2,300.0,60290.0
Chicago,Clear,1970-01-06 09:00:00,-9.9,,-,66.0,,30.37,,Illinois,-0.9,,,3:00 AM,,,,,,,10.0,,WNW,8.1,290.0,60290.0
Chicago,Clear,1970-01-06 10:00:00,-14.1,,-,59.0,,30.34,,Illinois,-2.9,,,4:00 AM,,,,,,,10.0,,WNW,9.2,290.0,60290.0
Chicago,Clear,1970-01-06 11:00:00,-14.1,,-,59.0,,30.32,,Illinois,-2.9,,,5:00 AM,,,,,,,10.0,,NW,6.9,320.0,60290.0
Chicago,Clear,1970-01-06 12:00:00,-14.1,,-,62.0,,30.31,,Illinois,-4.0,,,6:00 AM,,,,,,,10.0,,WNW,9.2,300.0,60290.0
Chicago,Clear,1970-01-06 13:00:00,-14.1,,-,62.0,,30.32,,Illinois,-4.0,,,7:00 AM,,,,,,,10.0,,WNW,6.9,300.0,60290.0
Chicago,Clear,1970-01-06 14:00:00,-14.1,,-,62.0,,30.32,,Illinois,-4.0,,,8:00 AM,,,,,,,7.0,,West,6.9,280.0,60290.0
Chicago,Smoke,1970-01-06 15:00:00,-13.0,,-,62.0,,30.32,,Illinois,-2.9,,,9:00 AM,,,,,,,4.0,,West,8.1,260.0,60290.0
Chicago,Clear,1970-01-06 16:00:00,-11.0,,-,57.0,,30.31,,Illinois,1.0,,,10:00 AM,,,,,,,7.0,,West,6.9,260.0,60290.0
Chicago,Clear,1970-01-06 17:00:00,-9.9,,-,53.0,,30.3,,Illinois,3.9,,,11:00 AM,,,,,,,10.0,,West,8.1,260.0,60290.0
Chicago,Clear,1970-01-06 18:00:00,-9.0,,-,50.0,,30.28,,Illinois,6.1,,,12:00 PM,,,,,,,10.0,,SW,8.1,230.0,60290.0
Chicago,Clear,1970-01-06 19:00:00,-8.0,,-,51.0,,30.24,,Illinois,7.0,,,1:00 PM,,,,,,,15.0,,West,9.2,260.0,60290.0
Chicago,Clear,1970-01-06 20:00:00,-8.0,,-,51.0,,30.22,,Illinois,7.0,,,2:00 PM,,,,,,,15.0,,WSW,11.5,240.0,60290.0
Chicago,Clear,1970-01-06 21:00:00,-8.0,,-,53.0,,30.21,,Illinois,6.1,,,3:00 PM,,,,,,,15.0,,WSW,10.4,250.0,60290.0
Chicago,Unknown,1970-01-06 22:00:00,-8.0,,-,53.0,,30.21,,Illinois,6.1,,,4:00 PM,,,,,,,10.0,,WSW,11.5,240.0,60290.0
Chicago,Clear,1970-01-06 23:00:00,-11.0,,-,55.0,,30.2,,Illinois,1.9,,,5:00 PM,,,,,,,10.0,,SW,9.2,230.0,60290.0
Chicago,Clear,1970-01-07 00:00:00,-11.0,,-,60.0,,30.2,,Illinois,-0.0,,,6:00 PM,,,,,,,10.0,,WSW,10.4,250.0,60290.0
Chicago,Clear,1970-01-07 01:00:00,-13.0,,-,62.0,,30.2,,Illinois,-2.9,,,7:00 PM,,,,,,,10.0,,WSW,11.5,240.0,60290.0
Chicago,Clear,1970-01-07 02:00:00,-11.0,,-,68.0,,30.19,,Illinois,-2.9,,,8:00 PM,,,,,,,10.0,,West,10.4,270.0,60290.0
Chicago,Clear,1970-01-07 03:00:00,-11.9,,-,69.0,,30.17,,Illinois,-4.0,,,9:00 PM,,,,,,,8.0,,West,9.2,280.0,60290.0
Chicago,Clear,1970-01-07 04:00:00,-13.0,,-,69.0,,30.17,,Illinois,-5.1,,,10:00 PM,,,,,,,10.0,,West,10.4,270.0,60290.0
Chicago,Clear,1970-01-07 05:00:00,-14.1,,-,68.0,,30.17,,Illinois,-6.0,,,11:00 PM,,,,,,,15.0,,West,10.4,280.0,60290.0
Chicago,Clear,1970-01-07 06:00:00,-15.0,,-,71.0,,30.14,,Illinois,-8.0,,,12:00 AM,,,,,,,15.0,,WSW,6.9,250.0,60290.0
Chicago,Clear,1970-01-07 07:00:00,-15.0,,-,71.0,,30.13,,Illinois,-8.0,,,1:00 AM,,,,,,,15.0,,West,6.9,260.0,60290.0
Chicago,Clear,1970-01-07 08:00:00,-16.1,,-,68.0,,30.12,,Illinois,-8.0,,,2:00 AM,,,,,,,15.0,,West,9.2,280.0,60290.0
Chicago,Unknown,1970-01-07 09:00:00,-16.1,,-,71.0,,30.11,,Illinois,-9.0,,,3:00 AM,,,,,,,10.0,,WSW,8.1,250.0,60290.0
Chicago,Unknown,1970-01-07 10:00:00,-18.0,,-,71.0,,30.09,,Illinois,-11.0,,,4:00 AM,,,,,,,10.0,,SW,6.9,230.0,60290.0
Chicago,Unknown,1970-01-07 11:00:00,-18.9,,-,71.0,,30.08,,Illinois,-11.9,,,5:00 AM,,,,,,,10.0,,WSW,11.5,250.0,60290.0
Chicago,Unknown,1970-01-07 12:00:00,-18.9,,-,71.0,,30.08,,Illinois,-11.9,,,6:00 AM,,,,,,,10.0,,WSW,9.2,250.0,60290.0
Chicago,Smoke,1970-01-07 13:00:00,-16.1,,-,74.0,,30.09,,Illinois,-9.9,,,7:00 AM,,,,,,,6.0,,SW,9.2,230.0,60290.0
Chicago,Smoke,1970-01-07 14:00:00,-14.1,,-,72.0,,30.09,,Illinois,-7.1,,,8:00 AM,,,,,,,6.0,,West,11.5,260.0,60290.0
Chicago,Light Snow,1970-01-07 15:00:00,-11.9,Snow,-,72.0,,30.09,,Illinois,-5.1,,,9:00 AM,,,,,,,6.0,,West,10.4,260.0,60290.0
Chicago,Light Snow,1970-01-07 16:00:00,-11.9,Snow,-,69.0,,30.09,,Illinois,-4.0,,,10:00 AM,,,,,,,5.0,,WSW,12.7,250.0,60290.0
Chicago,Smoke,1970-01-07 17:00:00,-9.9,,-,69.0,,30.07,,Illinois,-2.0,,,11:00 AM,,,,,,,6.0,,WSW,13.8,240.0,60290.0
Chicago,Light Snow,1970-01-07 18:00:00,-9.9,Snow,-,63.0,,30.06,,Illinois,-0.0,,,12:00 PM,,,,,,,6.0,,West,16.1,260.0,60290.0
Chicago,Smoke,1970-01-07 19:00:00,-9.9,,-,63.0,,30.06,,Illinois,-0.0,,,1:00 PM,,,,,,,6.0,,WSW,15.0,250.0,60290.0
Chicago,Unknown,1970-01-07 20:00:00,-11.0,,-,62.0,,30.06,,Illinois,-0.9,,,2:00 PM,,,,,,,7.0,,WSW,13.8,240.0,60290.0
Chicago,Unknown,1970-01-07 21:00:00,-11.9,,-,60.0,,30.06,,Illinois,-0.9,,,3:00 PM,,,,,,,10.0,,West,17.3,260.0,60290.0
Chicago,Unknown,1970-01-07 22:00:00,-11.9,,-,60.0,,30.09,,Illinois,-0.9,,,4:00 PM,,,,,,,10.0,,WSW,19.6,250.0,60290.0
Chicago,Unknown,1970-01-07 23:00:00,-11.0,,-,60.0,,30.09,,Illinois,-0.0,,,5:00 PM,,,,,,,8.0,,WSW,16.1,250.0,60290.0
Chicago,Light Snow,1970-01-08 00:00:00,-14.1,Snow,-,54.0,,30.11,,Illinois,-0.9,,,6:00 PM,,,,,,,6.0,,West,19.6,260.0,60290.0
Chicago,Light Snow,1970-01-08 01:00:00,-16.1,Snow,-,54.0,,30.11,,Illinois,-2.9,,,7:00 PM,,,,,,,6.0,,WSW,18.4,250.0,60290.0
Chicago,Light Snow,1970-01-08 02:00:00,-14.1,Snow,-,62.0,,30.11,,Illinois,-4.0,,,8:00 PM,,,,,,,4.0,,WSW,25.3,250.0,60290.0
Chicago,Light Snow,1970-01-08 03:00:00,-13.0,Snow,-,60.0,,30.08,,Illinois,-2.0,,,9:00 PM,,,,,,,10.5,,West,19.6,260.0,60290.0
Chicago,Light Snow,1970-01-08 04:00:00,-15.0,Snow,-,56.0,,30.07,,Illinois,-2.9,,,10:00 PM,,,,,,,3.0,,West,17.3,260.0,60290.0
Chicago,Light Snow,1970-01-08 05:00:00,-16.1,Snow,-,56.0,,30.06,,Illinois,-4.0,,,11:00 PM,,,,,,,7.0,,WSW,17.3,250.0,60290.0
Chicago,Light Snow,1970-01-08 06:00:00,-15.0,Snow,-,59.0,,30.06,,Illinois,-4.0,,,12:00 AM,,,,,,,6.0,,West,13.8,260.0,60290.0
Chicago,Light Snow,1970-01-08 07:00:00,-15.0,Snow,-,59.0,,30.05,,Illinois,-4.0,,,1:00 AM,,,,,,,4.0,,West,15.0,260.0,60290.0
Chicago,Light Snow,1970-01-08 08:00:00,-15.0,Snow,-,59.0,,30.06,,Illinois,-4.0,,,2:00 AM,,,,,,,4.0,,WSW,18.4,250.0,60290.0
Chicago,Light Snow,1970-01-08 09:00:00,-15.0,Snow,-,59.0,,30.06,,Illinois,-4.0,,,3:00 AM,,,,,,,4.0,,WSW,17.3,250.0,60290.0
Chicago,Light Snow,1970-01-08 10:00:00,-15.0,Snow,-,59.0,0.01,30.05,,Illinois,-4.0,,,4:00 AM,,,,,,,4.0,,WSW,15.0,250.0,60290.0
Chicago,Light Snow,1970-01-08 11:00:00,-15.0,Snow,-,59.0,,30.05,,Illinois,-4.0,,,5:00 AM,,,,,,,4.0,,WSW,15.0,250.0,60290.0
Chicago,Light Snow,1970-01-08 12:00:00,-13.0,Snow,-,62.0,0.01,30.05,,Illinois,-2.9,,,6:00 AM,,,,,,,2.0,,West,12.7,260.0,60290.0
Chicago,Light Snow,1970-01-08 13:00:00,-11.9,Snow,-,60.0,,30.06,,Illinois,-0.9,,,7:00 AM,,,,,,,4.0,,West,11.5,270.0,60290.0
Chicago,Light Snow,1970-01-08 14:00:00,-9.9,Snow,-,63.0,,30.08,,Illinois,-0.0,,,8:00 AM,,,,,,,4.0,,West,15.0,280.0,60290.0
Chicago,Unknown,1970-01-08 15:00:00,-13.0,,-,57.0,,30.12,,Illinois,-0.9,,,9:00 AM,,,,,,,10.0,,WNW,19.6,290.0,60290.0
Chicago,Unknown,1970-01-08 16:00:00,-15.0,,-,52.0,,30.15,,Illinois,-0.9,,,10:00 AM,,,,,,,15.0,,WNW,19.6,290.0,60290.0
Chicago,Unknown,1970-01-08 17:00:00,-15.0,,-,52.0,,30.17,,Illinois,-0.9,,,11:00 AM,,,,,,,15.0,,West,18.4,260.0,60290.0
Chicago,Unknown,1970-01-08 18:00:00,-15.0,,-,54.0,,30.16,,Illinois,-2.0,,,12:00 PM,,,,,,,15.0,,WSW,17.3,250.0,60290.0
Chicago,Unknown,1970-01-08 19:00:00,-15.0,,-,56.0,,30.15,,Illinois,-2.9,,,1:00 PM,,,,,,,10.0,,West,23.0,260.0,60290.0
Chicago,Unknown,1970-01-08 20:00:00,-15.0,,-,54.0,,30.16,,Illinois,-2.0,,,2:00 PM,,,,,,,15.0,,West,20.7,260.0,60290.0
Chicago,Unknown,1970-01-08 21:00:00,-14.1,,-,57.0,,30.17,,Illinois,-2.0,,,3:00 PM,,,,,,,10.0,,WSW,23.0,250.0,60290.0
Chicago,Light Blowing Snow,1970-01-08 22:00:00,-14.1,Snow,-,57.0,,30.18,,Illinois,-2.0,,,4:00 PM,,,,,,,2.0,,WSW,25.3,240.0,60290.0
Chicago,Light Blowing Snow,1970-01-08 23:00:00,-11.9,Snow,-,63.0,,30.18,,Illinois,-2.0,,,5:00 PM,,,,,,,2.0,,WSW,25.3,250.0,60290.0
Chicago,Light Blowing Snow,1970-01-09 00:00:00,-11.0,Snow,-,66.0,,30.2,,Illinois,-2.0,,,6:00 PM,,,,,,,1.0,,West,23.0,260.0,60290.0
Chicago,Light Snow,1970-01-09 01:00:00,-11.0,Snow,-,62.0,,30.2,,Illinois,-0.9,,,7:00 PM,,,,,,,3.0,,West,18.4,260.0,60290.0
Chicago,Light Snow,1970-01-09 02:00:00,-9.0,Snow,-,69.0,,30.18,,Illinois,-0.9,,,8:00 PM,,,,,,,3.0,,West,16.1,260.0,60290.0
Chicago,Light Snow,1970-01-09 03:00:00,-8.0,Snow,-,69.0,,30.17,,Illinois,-0.0,,,9:00 PM,,,,,,,5.0,,West,20.7,260.0,60290.0
Chicago,Light Snow,1970-01-09 04:00:00,-11.9,Snow,-,60.0,,30.17,,Illinois,-0.9,,,10:00 PM,,,,,,,4.0,,West,17.3,260.0,60290.0
Chicago,Light Snow,1970-01-09 05:00:00,-11.9,Snow,-,63.0,,30.17,,Illinois,-2.0,,,11:00 PM,,,,,,,7.0,,WSW,15.0,250.0,60290.0
Chicago,Light Snow,1970-01-09 06:00:00,-11.9,Snow,-,60.0,,30.14,,Illinois,-0.9,,,12:00 AM,,,,,,,6.0,,WSW,13.8,240.0,60290.0
Chicago,Unknown,1970-01-09 07:00:00,-11.9,,-,60.0,,30.15,,Illinois,-0.9,,,1:00 AM,,,,,,,7.0,,West,11.5,260.0,60290.0
Chicago,Unknown,1970-01-09 08:00:00,-13.0,,-,57.0,,30.16,,Illinois,-0.9,,,2:00 AM,,,,,,,7.0,,West,13.8,260.0,60290.0
Chicago,Unknown,1970-01-09 09:00:00,-11.9,,-,60.0,,30.16,,Illinois,-0.9,,,3:00 AM,,,,,,,8.0,,West,12.7,270.0,60290.0
Chicago,Light Snow,1970-01-09 10:00:00,-11.0,Snow,-,60.0,,30.15,,Illinois,-0.0,,,4:00 AM,,,,,,,6.0,,West,11.5,260.0,60290.0
Chicago,Light Snow,1970-01-09 11:00:00,-11.0,Snow,-,60.0,,30.16,,Illinois,-0.0,,,5:00 AM,,,,,,,7.0,,West,10.4,260.0,60290.0
Chicago,Unknown,1970-01-09 12:00:00,-9.9,,-,60.0,,30.16,,Illinois,1.0,,,6:00 AM,,,,,,,7.0,,West,11.5,270.0,60290.0
Chicago,Light Snow,1970-01-09 13:00:00,-9.9,Snow,-,60.0,,30.18,,Illinois,1.0,,,7:00 AM,,,,,,,6.0,,West,11.5,270.0,60290.0
Chicago,Unknown,1970-01-09 14:00:00,-9.0,,-,60.0,,30.21,,Illinois,1.9,,,8:00 AM,,,,,,,15.0,,West,8.1,270.0,60290.0
Chicago,Unknown,1970-01-09 15:00:00,-8.0,,-,58.0,,30.24,,Illinois,3.9,,,9:00 AM,,,,,,,15.0,,West,11.5,270.0,60290.0
Chicago,Clear,1970-01-09 16:00:00,-7.1,,-,55.0,,30.26,,Illinois,6.1,,,10:00 AM,,,,,,,15.0,,West,12.7,270.0,60290.0
Chicago,Clear,1970-01-09 17:00:00,-4.0,,-,56.0,,30.26,,Illinois,9.0,,,11:00 AM,,,,,,,15.0,,NW,11.5,310.0,60290.0
Chicago,Clear,1970-01-09 18:00:00,-2.0,,-,56.0,,30.26,,Illinois,10.9,,,12:00 PM,,,,,,,15.0,,WNW,16.1,300.0,60290.0
Chicago,Clear,1970-01-09 19:00:00,-0.0,,-,59.0,,30.26,,Illinois,12.0,,,1:00 PM,,,,,,,15.0,,WNW,13.8,290.0,60290.0
Chicago,Clear,1970-01-09 20:00:00,-0.0,,-,56.0,,30.29,,Illinois,12.9,,,2:00 PM,,,,,,,15.0,,NW,15.0,320.0,60290.0
Chicago,Clear,1970-01-09 21:00:00,1.9,,-,59.0,,30.31,,Illinois,14.0,,,3:00 PM,,,,,,,15.0,,WNW,10.4,290.0,60290.0
Chicago,Clear,1970-01-09 22:00:00,1.0,,-,56.0,,30.33,,Illinois,14.0,,,4:00 PM,,,,,,,15.0,,West,13.8,280.0,60290.0
Chicago,Clear,1970-01-09 23:00:00,-0.0,,-,61.0,,30.34,,Illinois,10.9,,,5:00 PM,,,,,,,15.0,,West,9.2,270.0,60290.0
Chicago,Clear,1970-01-10 00:00:00,-2.0,,-,61.0,,30.37,,Illinois,9.0,,,6:00 PM,,,,,,,15.0,,West,8.1,260.0,60290.0
Chicago,Clear,1970-01-10 01:00:00,-0.9,,-,64.0,,30.39,,Illinois,9.0,,,7:00 PM,,,,,,,10.0,,West,6.9,270.0,60290.0
Chicago,Clear,1970-01-10 02:00:00,-2.9,,-,64.0,,30.38,,Illinois,7.0,,,8:00 PM,,,,,,,10.0,,West,6.9,260.0,60290.0
Chicago,Clear,1970-01-10 03:00:00,-2.0,,-,69.0,,30.4,,Illinois,6.1,,,9:00 PM,,,,,,,10.0,,WSW,8.1,250.0,60290.0
Chicago,Clear,1970-01-10 04:00:00,-5.1,,-,63.0,,30.4,,Illinois,5.0,,,10:00 PM,,,,,,,15.0,,WSW,8.1,250.0,60290.0
Chicago,Clear,1970-01-10 05:00:00,-6.0,,-,61.0,,30.4,,Illinois,5.0,,,11:00 PM,,,,,,,15.0,,WSW,4.6,240.0,60290.0
Chicago,Smoke,1970-01-10 06:00:00,-6.0,,-,66.0,,30.38,,Illinois,3.0,,,12:00 AM,,,,,,,6.0,,WSW,8.1,240.0,60290.0
Chicago,Smoke,1970-01-10 07:00:00,-7.1,,-,66.0,,30.38,,Illinois,1.9,,,1:00 AM,,,,,,,6.0,,WSW,5.8,250.0,60290.0
Chicago,Smoke,1970-01-10 08:00:00,-7.1,,-,66.0,,30.38,,Illinois,1.9,,,2:00 AM,,,,,,,6.0,,WSW,6.9,240.0,60290.0
Chicago,Smoke,1970-01-10 09:00:00,-8.0,,-,66.0,,30.39,,Illinois,1.0,,,3:00 AM,,,,,,,6.0,,SW,5.8,230.0,60290.0
Chicago,Smoke,1970-01-10 10:00:00,-9.0,,-,63.0,,30.39,,Illinois,1.0,,,4:00 AM,,,,,,,5.0,,WSW,11.5,240.0,60290.0
Chicago,Smoke,1970-01-10 11:00:00,-9.0,,-,63.0,,30.38,,Illinois,1.0,,,5:00 AM,,,,,,,5.0,,WSW,8.1,240.0,60290.0
Chicago,Smoke,1970-01-10 12:00:00,-9.0,,-,66.0,,30.37,,Illinois,-0.0,,,6:00 AM,,,,,,,5.0,,WSW,6.9,240.0,60290.0
Chicago,Smoke,1970-01-10 13:00:00,-9.9,,-,66.0,,30.37,,Illinois,-0.9,,,7:00 AM,,,,,,,5.0,,SSW,6.9,210.0,60290.0
Chicago,Smoke,1970-01-10 14:00:00,-9.9,,-,63.0,,30.36,,Illinois,-0.0,,,8:00 AM,,,,,,,6.0,,SW,6.9,230.0,60290.0
Chicago,Smoke,1970-01-10 15:00:00,-8.0,,-,63.0,,30.37,,Illinois,1.9,,,9:00 AM,,,,,,,6.0,,SW,6.9,230.0,60290.0
Chicago,Smoke,1970-01-10 16:00:00,-6.0,,-,61.0,,30.37,,Illinois,5.0,,,10:00 AM,,,,,,,6.0,,SSW,9.2,200.0,60290.0
Chicago,Smoke,1970-01-10 17:00:00,-4.0,,-,56.0,,30.35,,Illinois,9.0,,,11:00 AM,,,,,,,6.0,,South,9.2,190.0,60290.0
Chicago,Unknown,1970-01-10 18:00:00,-2.0,,-,56.0,,30.32,,Illinois,10.9,,,12:00 PM,,,,,,,7.0,,SSW,11.5,210.0,60290.0
Chicago,Unknown,1970-01-10 19:00:00,-0.0,,-,59.0,,30.27,,Illinois,12.0,,,1:00 PM,,,,,,,7.0,,SSW,10.4,210.0,60290.0
Chicago,Unknown,1970-01-10 20:00:00,-0.0,,-,56.0,,30.26,,Illinois,12.9,,,2:00 PM,,,,,,,8.0,,South,11.5,190.0,60290.0
Chicago,Unknown,1970-01-10 21:00:00,3.0,,-,62.0,,30.24,,Illinois,14.0,,,3:00 PM,,,,,,,8.0,,South,11.5,180.0,60290.0
Chicago,Unknown,1970-01-10 22:00:00,6.1,,-,68.0,,30.21,,Illinois,15.1,,,4:00 PM,,,,,,,10.0,,South,10.4,170.0,60290.0
Chicago,Unknown,1970-01-10 23:00:00,6.1,,-,68.0,,30.19,,Illinois,15.1,,,5:00 PM,,,,,,,10.0,,South,13.8,180.0,60290.0
Chicago,Unknown,1970-01-11 00:00:00,7.0,,-,68.0,,30.17,,Illinois,16.0,,,6:00 PM,,,,,,,10.0,,South,12.7,170.0,60290.0
Chicago,Unknown,1970-01-11 01:00:00,8.1,,-,71.0,,30.14,,Illinois,16.0,,,7:00 PM,,,,,,,15.0,,SE,11.5,140.0,60290.0
Chicago,Unknown,1970-01-11 02:00:00,10.0,,-,74.0,,30.14,,Illinois,17.1,,,8:00 PM,,,,,,,15.0,,South,13.8,170.0,60290.0
Chicago,Unknown,1970-01-11 03:00:00,10.0,,-,77.0,,30.11,,Illinois,16.0,,,9:00 PM,,,,,,,15.0,,South,15.0,180.0,60290.0
Chicago,Unknown,1970-01-11 04:00:00,8.1,,-,71.0,,30.1,,Illinois,16.0,,,10:00 PM,,,,,,,10.0,,South,15.0,170.0,60290.0
Chicago,Unknown,1970-01-11 05:00:00,7.0,,-,65.0,,30.09,,Illinois,17.1,,,11:00 PM,,,,,,,10.0,,South,15.0,170.0,60290.0
Chicago,Light Snow,1970-01-11 06:00:00,8.1,Snow,-,68.0,,30.04,,Illinois,17.1,,,12:00 AM,,,,,,,8.0,,South,17.3,180.0,60290.0
Chicago,Light Snow,1970-01-11 07:00:00,9.0,Snow,-,68.0,,30.02,,Illinois,18.0,,,1:00 AM,,,,,,,7.0,,South,16.1,180.0,60290.0
Chicago,Light Snow,1970-01-11 08:00:00,10.9,Snow,-,71.0,,30.01,,Illinois,19.0,,,2:00 AM,,,,,,,6.0,,SSE,11.5,160.0,60290.0
Chicago,Light Snow,1970-01-11 09:00:00,12.0,Snow,-,78.0,,30.01,,Illinois,18.0,,,3:00 AM,,,,,,,5.0,,South,10.4,170.0,60290.0
Chicago,Light Snow,1970-01-11 10:00:00,14.0,Snow,-,81.0,,30.0,,Illinois,19.0,,,4:00 AM,,,,,,,10.5,,South,8.1,180.0,60290.0
Chicago,Light Snow,1970-01-11 11:00:00,14.0,Snow,-,81.0,0.01,29.98,,Illinois,19.0,,,5:00 AM,,,,,,,10.5,,SSE,6.9,160.0,60290.0
Chicago,Light Snow,1970-01-11 12:00:00,14.0,Snow,-,81.0,,29.98,,Illinois,19.0,,,6:00 AM,,,,,,,4.0,,SSE,8.1,160.0,60290.0
Chicago,Smoke,1970-01-11 13:00:00,15.1,,-,81.0,,29.96,,Illinois,19.9,,,7:00 AM,,,,,,,4.0,,SSE,9.2,160.0,60290.0
Chicago,Light Snow,1970-01-11 14:00:00,15.1,Snow,-,81.0,,29.94,,Illinois,19.9,,,8:00 AM,,,,,,,5.0,,South,9.2,180.0,60290.0
Chicago,Light Snow,1970-01-11 15:00:00,16.0,Snow,-,85.0,,29.94,,Illinois,19.9,,,9:00 AM,,,,,,,6.0,,South,8.1,170.0,60290.0
Chicago,Unknown,1970-01-11 16:00:00,16.0,,-,78.0,,29.94,,Illinois,21.9,,,10:00 AM,,,,,,,7.0,,South,6.9,180.0,60290.0
Chicago,Light Snow,1970-01-11 17:00:00,17.1,Snow,-,78.0,,29.94,,Illinois,23.0,,,11:00 AM,,,,,,,6.0,,South,6.9,180.0,60290.0
Chicago,Light Snow,1970-01-11 18:00:00,17.1,Snow,-,78.0,,29.92,,Illinois,23.0,,,12:00 PM,,,,,,,6.0,,South,6.9,190.0,60290.0
Chicago,Smoke,1970-01-11 19:00:00,18.0,,-,77.0,,29.9,,Illinois,24.1,,,1:00 PM,,,,,,,6.0,,WSW,4.6,240.0,60290.0
Chicago,Smoke,1970-01-11 20:00:00,19.0,,-,81.0,,29.88,,Illinois,24.1,,,2:00 PM,,,,,,,5.0,,WSW,3.5,240.0,60290.0
Chicago,Smoke,1970-01-11 21:00:00,19.0,,-,78.0,,29.89,,Illinois,25.0,,,3:00 PM,,,,,,,5.0,,West,4.6,270.0,60290.0
Chicago,Smoke,1970-01-11 22:00:00,19.9,,-,81.0,,29.88,,Illinois,25.0,,,4:00 PM,,,,,,,6.0,,SSW,4.6,200.0,60290.0
Chicago,Smoke,1970-01-11 23:00:00,19.9,,-,81.0,,29.88,,Illinois,25.0,,,5:00 PM,,,,,,,5.0,,West,5.8,270.0,60290.0
Chicago,Smoke,1970-01-12 00:00:00,21.0,,-,85.0,,29.89,,Illinois,25.0,,,6:00 PM,,,,,,,5.0,,West,5.8,280.0,60290.0
Chicago,Light Snow,1970-01-12 01:00:00,21.9,Snow,-,88.0,,29.91,,Illinois,25.0,,,7:00 PM,,,,,,,5.0,,WNW,8.1,300.0,60290.0
Chicago,Smoke,1970-01-12 02:00:00,21.9,,-,91.0,,29.91,,Illinois,24.1,,,8:00 PM,,,,,,,5.0,,NW,8.1,310.0,60290.0
Chicago,Smoke,1970-01-12 03:00:00,21.0,,-,88.0,,29.91,,Illinois,24.1,,,9:00 PM,,,,,,,6.0,,NW,9.2,310.0,60290.0
Chicago,Smoke,1970-01-12 04:00:00,21.0,,-,88.0,,29.92,,Illinois,24.1,,,10:00 PM,,,,,,,6.0,,West,9.2,280.0,60290.0
Chicago,Smoke,1970-01-12 05:00:00,19.0,,-,81.0,,29.94,,Illinois,24.1,,,11:00 PM,,,,,,,5.0,,West,13.8,280.0,60290.0
Chicago,Smoke,1970-01-12 06:00:00,18.0,,-,77.0,,29.94,,Illinois,24.1,,,12:00 AM,,,,,,,5.0,,West,11.5,280.0,60290.0
Chicago,Smoke,1970-01-12 07:00:00,18.0,,-,77.0,,29.96,,Illinois,24.1,,,1:00 AM,,,,,,,5.0,,WNW,10.4,290.0,60290.0
Chicago,Smoke,1970-01-12 08:00:00,18.0,,-,77.0,,29.98,,Illinois,24.1,,,2:00 AM,,,,,,,5.0,,WNW,11.5,300.0,60290.0
Chicago,Smoke,1970-01-12 09:00:00,17.1,,-,75.0,,30.0,,Illinois,24.1,,,3:00 AM,,,,,,,4.0,,North,20.7,350.0,60290.0
Chicago,Smoke,1970-01-12 10:00:00,16.0,,-,74.0,,30.02,,Illinois,23.0,,,4:00 AM,,,,,,,4.0,,NW,15.0,320.0,60290.0
Chicago,Smoke,1970-01-12 11:00:00,12.0,,-,68.0,,30.05,,Illinois,21.0,,,5:00 AM,,,,,,,6.0,,NNW,15.0,330.0,60290.0
Chicago,Smoke,1970-01-12 12:00:00,12.0,,-,71.0,,30.07,,Illinois,19.9,,,6:00 AM,,,,,,,6.0,,WNW,11.5,300.0,60290.0
Chicago,Smoke,1970-01-12 13:00:00,12.9,,-,77.0,,30.09,,Illinois,19.0,,,7:00 AM,,,,,,,5.0,,WNW,10.4,300.0,60290.0
Chicago,Smoke,1970-01-12 14:00:00,12.9,,-,74.0,,30.11,,Illinois,19.9,,,8:00 AM,,,,,,,6.0,,NW,8.1,310.0,60290.0
Chicago,Smoke,1970-01-12 15:00:00,14.0,,-,74.0,,30.14,,Illinois,21.0,,,9:00 AM,,,,,,,6.0,,NW,9.2,320.0,60290.0
Chicago,Clear,1970-01-12 16:00:00,14.0,,-,68.0,,30.15,,Illinois,23.0,,,10:00 AM,,,,,,,8.0,,NW,9.2,310.0,60290.0
Chicago,Clear,1970-01-12 17:00:00,10.9,,-,57.0,,30.17,,Illinois,24.1,,,11:00 AM,,,,,,,8.0,,West,9.2,270.0,60290.0
Chicago,Clear,1970-01-12 18:00:00,12.9,,-,56.0,,30.15,,Illinois,27.0,,,12:00 PM,,,,,,,10.0,,West,8.1,280.0,60290.0
Chicago,Clear,1970-01-12 19:00:00,12.9,,-,53.0,,30.15,,Illinois,28.0,,,1:00 PM,,,,,,,10.0,,WNW,9.2,300.0,60290.0
Chicago,Clear,1970-01-12 20:00:00,15.1,,-,58.0,,30.15,,Illinois,28.0,,,2:00 PM,,,,,,,10.0,,WSW,9.2,240.0,60290.0
Chicago,Clear,1970-01-12 21:00:00,15.1,,-,58.0,,30.17,,Illinois,28.0,,,3:00 PM,,,,,,,10.0,,WSW,8.1,240.0,60290.0
Chicago,Clear,1970-01-12 22:00:00,14.0,,-,60.0,,30.19,,Illinois,26.1,,,4:00 PM,,,,,,,10.0,,WSW,10.4,240.0,60290.0
Chicago,Clear,1970-01-12 23:00:00,12.0,,-,63.0,,30.21,,Illinois,23.0,,,5:00 PM,,,,,,,10.0,,WSW,10.4,250.0,60290.0
Chicago,Clear,1970-01-13 00:00:00,10.9,,-,68.0,,30.21,,Illinois,19.9,,,6:00 PM,,,,,,,10.0,,WSW,9.2,250.0,60290.0
Chicago,Clear,1970-01-13 01:00:00,12.0,,-,74.0,,30.22,,Illinois,19.0,,,7:00 PM,,,,,,,10.0,,West,6.9,260.0,60290.0
Chicago,Clear,1970-01-13 02:00:00,10.9,,-,74.0,,30.25,,Illinois,18.0,,,8:00 PM,,,,,,,15.0,,West,6.9,270.0,60290.0
Chicago,Clear,1970-01-13 03:00:00,10.0,,-,71.0,,30.25,,Illinois,18.0,,,9:00 PM,,,,,,,15.0,,West,8.1,280.0,60290.0
Chicago,Clear,1970-01-13 04:00:00,8.1,,-,74.0,,30.26,,Illinois,15.1,,,10:00 PM,,,,,,,10.0,,WSW,6.9,240.0,60290.0
Chicago,Clear,1970-01-13 05:00:00,12.9,,-,100.0,,30.26,,Illinois,12.9,,,11:00 PM,,,,,,,10.0,,East,28.8,90.0,60290.0
Chicago,Clear,1970-01-13 06:00:00,7.0,,-,77.0,,30.26,,Illinois,12.9,,,12:00 AM,,,,,,,10.0,,WSW,5.8,250.0,60290.0
Chicago,Smoke,1970-01-13 07:00:00,7.0,,-,77.0,,30.26,,Illinois,12.9,,,1:00 AM,,,,,,,6.0,,WSW,4.6,250.0,60290.0
Chicago,Clear,1970-01-13 08:00:00,6.1,,-,74.0,,30.28,,Illinois,12.9,,,2:00 AM,,,,,,,7.0,,WNW,5.8,290.0,60290.0
Chicago,Clear,1970-01-13 09:00:00,6.1,,-,74.0,,30.29,,Illinois,12.9,,,3:00 AM,,,,,,,7.0,,Calm,Calm,0.0,60290.0
Chicago,Unknown,1970-01-13 10:00:00,5.0,,-,77.0,,30.3,,Illinois,10.9,,,4:00 AM,,,,,,,7.0,,WSW,5.8,250.0,60290.0
Chicago,Smoke,1970-01-13 11:00:00,3.9,,-,76.0,,30.29,,Illinois,10.0,,,5:00 AM,,,,,,,5.0,,Calm,Calm,0.0,60290.0
Chicago,Smoke,1970-01-13 12:00:00,3.9,,-,76.0,,30.3,,Illinois,10.0,,,6:00 AM,,,,,,,3.0,,SW,4.6,230.0,60290.0
Chicago,Smoke,1970-01-13 13:00:00,3.0,,-,80.0,,30.3,,Illinois,8.1,,,7:00 AM,,,,,,,10.5,,WSW,4.6,250.0,60290.0
Chicago,Smoke,1970-01-13 14:00:00,3.0,,-,77.0,,30.3,,Illinois,9.0,,,8:00 AM,,,,,,,2.0,,WNW,4.6,290.0,60290.0
Chicago,Smoke,1970-01-13 15:00:00,5.0,,-,73.0,,30.3,,Illinois,12.0,,,9:00 AM,,,,,,,3.0,,West,4.6,260.0,60290.0
Chicago,Smoke,1970-01-13 16:00:00,7.0,,-,70.0,,30.33,,Illinois,15.1,,,10:00 AM,,,,,,,3.0,,WSW,5.8,250.0,60290.0
Chicago,Smoke,1970-01-13 17:00:00,8.1,,-,68.0,,30.32,,Illinois,17.1,,,11:00 AM,,,,,,,3.0,,SW,3.5,220.0,60290.0
Chicago,Smoke,1970-01-13 18:00:00,8.1,,-,62.0,,30.3,,Illinois,19.0,,,12:00 PM,,,,,,,3.0,,SW,5.8,230.0,60290.0
Chicago,Smoke,1970-01-13 19:00:00,8.1,,-,57.0,,30.28,,Illinois,21.0,,,1:00 PM,,,,,,,4.0,,SW,8.1,230.0,60290.0
Chicago,Smoke,1970-01-13 20:00:00,8.1,,-,55.0,,30.26,,Illinois,21.9,,,2:00 PM,,,,,,,5.0,,SW,4.6,220.0,60290.0
Chicago,Smoke,1970-01-13 21:00:00,9.0,,-,58.0,,30.27,,Illinois,21.9,,,3:00 PM,,,,,,,5.0,,SW,4.6,230.0,60290.0
Chicago,Smoke,1970-01-13 22:00:00,10.0,,-,58.0,,30.27,,Illinois,23.0,,,4:00 PM,,,,,,,5.0,,WNW,4.6,290.0,60290.0
Chicago,Smoke,1970-01-13 23:00:00,9.0,,-,55.0,,30.28,,Illinois,23.0,,,5:00 PM,,,,,,,5.0,,NW,4.6,310.0,60290.0
Chicago,Smoke,1970-01-14 00:00:00,9.0,,-,58.0,,30.28,,Illinois,21.9,,,6:00 PM,,,,,,,5.0,,West,4.6,260.0,60290.0
Chicago,Smoke,1970-01-14 01:00:00,9.0,,-,55.0,,30.27,,Illinois,23.0,,,7:00 PM,,,,,,,5.0,,North,6.9,350.0,60290.0
Chicago,Smoke,1970-01-14 02:00:00,14.0,,-,65.0,,30.26,,Illinois,24.1,,,8:00 PM,,,,,,,4.0,,NE,8.1,50.0,60290.0
Chicago,Light Snow,1970-01-14 03:00:00,17.1,Snow,-,72.0,,30.26,,Illinois,25.0,,,9:00 PM,,,,,,,3.0,,NNE,5.8,30.0,60290.0
Chicago,Light Snow,1970-01-14 04:00:00,19.9,Fog-Snow,-,84.0,0.01,30.26,,Illinois,24.1,,,10:00 PM,,,,,,,1.0,,ENE,4.6,70.0,60290.0
Chicago,Light Snow,1970-01-14 05:00:00,21.0,Fog-Snow,-,88.0,0.02,30.26,,Illinois,24.1,,,11:00 PM,,,,,,,1.0,,Calm,Calm,0.0,60290.0
Chicago,Light Snow,1970-01-14 06:00:00,19.0,Fog-Snow,-,89.0,0.04,30.25,,Illinois,21.9,,,12:00 AM,,,,,,,1.0,,WSW,4.6,250.0,60290.0
Chicago,Light Snow,1970-01-14 07:00:00,19.0,Fog-Snow,-,89.0,0.02,30.25,,Illinois,21.9,,,1:00 AM,,,,,,,1.0,,WNW,5.8,290.0,60290.0
Chicago,Light Snow,1970-01-14 08:00:00,19.0,Fog-Snow,-,89.0,0.02,30.25,,Illinois,21.9,,,2:00 AM,,,,,,,1.0,,West,4.6,270.0,60290.0
Chicago,Light Snow,1970-01-14 09:00:00,19.0,Fog-Snow,-,89.0,0.01,30.25,,Illinois,21.9,,,3:00 AM,,,,,,,2.0,,Calm,Calm,0.0,60290.0
Chicago,Light Snow,1970-01-14 10:00:00,19.0,Fog-Snow,-,89.0,0.01,30.24,,Illinois,21.9,,,4:00 AM,,,,,,,1.0,,Calm,Calm,0.0,60290.0
Chicago,Light Snow,1970-01-14 11:00:00,19.9,Fog-Snow,-,84.0,0.01,30.23,,Illinois,24.1,,,5:00 AM,,,,,,,1.0,,SE,4.6,130.0,60290.0
Chicago,Light Snow,1970-01-14 12:00:00,19.0,Fog-Snow,-,81.0,0.02,30.23,,Illinois,24.1,,,6:00 AM,,,,,,,1.0,,ESE,13.8,110.0,60290.0
Chicago,Light Snow,1970-01-14 13:00:00,19.0,Snow,-,85.0,0.01,30.25,,Illinois,23.0,,,7:00 AM,,,,,,,10.5,,East,13.8,100.0,60290.0
Chicago,Light Snow,1970-01-14 14:00:00,18.0,Snow,-,81.0,0.01,30.27,,Illinois,23.0,,,8:00 AM,,,,,,,2.0,,East,12.7,100.0,60290.0
Chicago,Light Snow,1970-01-14 15:00:00,17.1,Snow,-,82.0,0.01,30.28,,Illinois,21.9,,,9:00 AM,,,,,,,3.0,,East,13.8,100.0,60290.0
Chicago,Light Snow,1970-01-14 16:00:00,17.1,Snow,-,82.0,0.01,30.29,,Illinois,21.9,,,10:00 AM,,,,,,,10.5,,East,12.7,100.0,60290.0
Chicago,Light Snow,1970-01-14 17:00:00,18.0,Snow,-,81.0,,30.28,,Illinois,23.0,,,11:00 AM,,,,,,,3.0,,ESE,13.8,120.0,60290.0
Chicago,Light Snow,1970-01-14 18:00:00,18.0,Snow,-,81.0,,30.26,,Illinois,23.0,,,12:00 PM,,,,,,,3.0,,East,16.1,100.0,60290.0
Chicago,Light Snow,1970-01-14 19:00:00,18.0,Snow,-,81.0,,30.23,,Illinois,23.0,,,1:00 PM,,,,,,,3.0,,ESE,12.7,120.0,60290.0
Chicago,Smoke,1970-01-14 20:00:00,18.0,,-,81.0,,30.22,,Illinois,23.0,,,2:00 PM,,,,,,,3.0,,ESE,11.5,110.0,60290.0
Chicago,Smoke,1970-01-14 21:00:00,18.0,,-,77.0,,30.22,,Illinois,24.1,,,3:00 PM,,,,,,,3.0,,East,10.4,100.0,60290.0
Chicago,Smoke,1970-01-14 22:00:00,17.1,,-,75.0,,30.22,,Illinois,24.1,,,4:00 PM,,,,,,,3.0,,East,11.5,100.0,60290.0
Chicago,Smoke,1970-01-14 23:00:00,17.1,,-,78.0,,30.2,,Illinois,23.0,,,5:00 PM,,,,,,,3.0,,East,13.8,100.0,60290.0
Chicago,Smoke,1970-01-15 00:00:00,17.1,,-,78.0,,30.21,,Illinois,23.0,,,6:00 PM,,,,,,,3.0,,ESE,11.5,120.0,60290.0
Chicago,Smoke,1970-01-15 01:00:00,17.1,,-,78.0,,30.2,,Illinois,23.0,,,7:00 PM,,,,,,,3.0,,ESE,12.7,120.0,60290.0
Chicago,Smoke,1970-01-15 02:00:00,16.0,,-,78.0,,30.19,,Illinois,21.9,,,8:00 PM,,,,,,,3.0,,ESE,11.5,110.0,60290.0
Chicago,Smoke,1970-01-15 03:00:00,14.0,,-,78.0,,30.2,,Illinois,19.9,,,9:00 PM,,,,,,,3.0,,SE,9.2,130.0,60290.0
Chicago,Smoke,1970-01-15 04:00:00,15.1,,-,78.0,,30.2,,Illinois,21.0,,,10:00 PM,,,,,,,10.5,,SE,11.5,130.0,60290.0
Chicago,Smoke,1970-01-15 05:00:00,15.1,,-,78.0,,30.2,,Illinois,21.0,,,11:00 PM,,,,,,,10.5,,SE,11.5,130.0,60290.0
Chicago,Smoke,1970-01-15 06:00:00,14.0,,-,78.0,,30.18,,Illinois,19.9,,,12:00 AM,,,,,,,3.0,,ESE,11.5,120.0,60290.0
Chicago,Smoke,1970-01-15 07:00:00,15.1,,-,81.0,,30.17,,Illinois,19.9,,,1:00 AM,,,,,,,3.0,,SE,9.2,140.0,60290.0
Chicago,Smoke,1970-01-15 08:00:00,15.1,,-,78.0,,30.17,,Illinois,21.0,,,2:00 AM,,,,,,,3.0,,SE,9.2,130.0,60290.0
Chicago,Smoke,1970-01-15 09:00:00,15.1,,-,78.0,,30.17,,Illinois,21.0,,,3:00 AM,,,,,,,3.0,,SE,8.1,140.0,60290.0
Chicago,Smoke,1970-01-15 10:00:00,14.0,,-,78.0,,30.14,,Illinois,19.9,,,4:00 AM,,,,,,,3.0,,ESE,8.1,120.0,60290.0
Chicago,Smoke,1970-01-15 11:00:00,14.0,,-,78.0,,30.12,,Illinois,19.9,,,5:00 AM,,,,,,,4.0,,ESE,6.9,120.0,60290.0
Chicago,Smoke,1970-01-15 12:00:00,15.1,,-,81.0,,30.13,,Illinois,19.9,,,6:00 AM,,,,,,,3.0,,SE,8.1,130.0,60290.0
Chicago,Smoke,1970-01-15 13:00:00,14.0,,-,78.0,,30.13,,Illinois,19.9,,,7:00 AM,,,,,,,3.0,,ESE,11.5,120.0,60290.0
Chicago,Smoke,1970-01-15 14:00:00,14.0,,-,81.0,,30.14,,Illinois,19.0,,,8:00 AM,,,,,,,3.0,,SE,9.2,130.0,60290.0
Chicago,Smoke,1970-01-15 15:00:00,15.1,,-,81.0,,30.14,,Illinois,19.9,,,9:00 AM,,,,,,,3.0,,SE,10.4,130.0,60290.0
Chicago,Smoke,1970-01-15 16:00:00,18.0,,-,85.0,,30.14,,Illinois,21.9,,,10:00 AM,,,,,,,10.5,,SSE,11.5,150.0,60290.0
Chicago,Smoke,1970-01-15 17:00:00,19.0,,-,81.0,,30.12,,Illinois,24.1,,,11:00 AM,,,,,,,10.5,,SSE,9.2,150.0,60290.0
Chicago,Smoke,1970-01-15 18:00:00,19.9,,-,81.0,,30.1,,Illinois,25.0,,,12:00 PM,,,,,,,2.0,,South,8.1,180.0,60290.0
Chicago,Smoke,1970-01-15 19:00:00,24.1,,-,85.0,,30.08,,Illinois,28.0,,,1:00 PM,,,,,,,2.0,,South,10.4,190.0,60290.0
Chicago,Smoke,1970-01-15 20:00:00,24.1,,-,82.0,,30.08,,Illinois,28.9,,,2:00 PM,,,,,,,2.0,,South,8.1,190.0,60290.0
Chicago,Smoke,1970-01-15 21:00:00,25.0,,-,82.0,,30.08,,Illinois,30.0,,,3:00 PM,,,,,,,10.5,,South,9.2,170.0,60290.0
Chicago,Smoke,1970-01-15 22:00:00,25.0,,-,75.0,,30.07,,Illinois,32.0,,,4:00 PM,,,,,,,10.5,,South,8.1,170.0,60290.0
Chicago,Smoke,1970-01-15 23:00:00,25.0,,-,82.0,,30.06,,Illinois,30.0,,,5:00 PM,,,,,,,10.5,,South,6.9,170.0,60290.0
Chicago,Smoke,1970-01-16 00:00:00,25.0,,-,79.0,,30.06,,Illinois,30.9,,,6:00 PM,,,,,,,10.5,,SSE,9.2,160.0,60290.0
Chicago,Smoke,1970-01-16 01:00:00,26.1,,-,82.0,,30.07,,Illinois,30.9,,,7:00 PM,,,,,,,10.5,,South,8.1,170.0,60290.0
Chicago,Smoke,1970-01-16 02:00:00,27.0,,-,82.0,,30.07,,Illinois,32.0,,,8:00 PM,,,,,,,3.0,,South,11.5,180.0,60290.0
Chicago,Smoke,1970-01-16 03:00:00,28.0,,-,76.0,,30.06,,Illinois,35.1,,,9:00 PM,,,,,,,3.0,,South,11.5,180.0,60290.0
Chicago,Smoke,1970-01-16 04:00:00,28.9,,-,76.0,,30.08,,Illinois,36.0,,,10:00 PM,,,,,,,4.0,,SSW,10.4,200.0,60290.0
Chicago,Smoke,1970-01-16 05:00:00,28.9,,-,73.0,,30.08,,Illinois,37.0,,,11:00 PM,,,,,,,4.0,,South,12.7,190.0,60290.0
Chicago,Smoke,1970-01-16 06:00:00,28.0,,-,76.0,,30.06,,Illinois,35.1,,,12:00 AM,,,,,,,4.0,,South,11.5,190.0,60290.0
Chicago,Smoke,1970-01-16 07:00:00,27.0,,-,72.0,,30.06,,Illinois,35.1,,,1:00 AM,,,,,,,6.0,,SSW,9.2,210.0,60290.0
Chicago,Smoke,1970-01-16 08:00:00,27.0,,-,72.0,,30.09,,Illinois,35.1,,,2:00 AM,,,,,,,6.0,,SSW,10.4,200.0,60290.0
Chicago,Smoke,1970-01-16 09:00:00,27.0,,-,78.0,,30.09,,Illinois,33.1,,,3:00 AM,,,,,,,5.0,,SW,8.1,230.0,60290.0
Chicago,Smoke,1970-01-16 10:00:00,28.0,,-,82.0,,30.09,,Illinois,33.1,,,4:00 AM,,,,,,,3.0,,WSW,9.2,240.0,60290.0
Chicago,Fog,1970-01-16 11:00:00,27.0,Fog,-,85.0,,30.09,,Illinois,30.9,,,5:00 AM,,,,,,,2.0,,South,6.9,190.0,60290.0
Chicago,Fog,1970-01-16 12:00:00,28.0,Fog,-,89.0,,30.09,,Illinois,30.9,,,6:00 AM,,,,,,,2.0,,South,9.2,190.0,60290.0
Chicago,Fog,1970-01-16 13:00:00,28.9,Fog,-,88.0,,30.09,,Illinois,32.0,,,7:00 AM,,,,,,,2.0,,South,10.4,190.0,60290.0
Chicago,Fog,1970-01-16 14:00:00,28.9,Fog,-,88.0,,30.09,,Illinois,32.0,,,8:00 AM,,,,,,,5.5,,South,6.9,190.0,60290.0
Chicago,Fog,1970-01-16 15:00:00,28.9,Fog,-,85.0,,30.1,,Illinois,33.1,,,9:00 AM,,,,,,,5.5,,SSW,6.9,200.0,60290.0
Chicago,Smoke,1970-01-16 16:00:00,28.9,,-,76.0,,30.11,,Illinois,36.0,,,10:00 AM,,,,,,,2.0,,WSW,10.4,240.0,60290.0
Chicago,Smoke,1970-01-16 17:00:00,30.0,,-,76.0,,30.12,,Illinois,37.0,,,11:00 AM,,,,,,,2.0,,WSW,12.7,240.0,60290.0
Chicago,Light Drizzle,1970-01-16 18:00:00,28.9,,-,76.0,,30.1,,Illinois,36.0,,,12:00 PM,,,,,,,2.0,,West,12.7,270.0,60290.0
Chicago,Smoke,1970-01-16 19:00:00,30.0,,-,79.0,,30.09,,Illinois,36.0,,,1:00 PM,,,,,,,2.0,,West,10.4,270.0,60290.0
Chicago,Smoke,1970-01-16 20:00:00,30.0,,-,79.0,,30.08,,Illinois,36.0,,,2:00 PM,,,,,,,2.0,,West,8.1,260.0,60290.0
Chicago,Smoke,1970-01-16 21:00:00,30.9,,-,82.0,,30.08,,Illinois,36.0,,,3:00 PM,,,,,,,2.0,,West,8.1,270.0,60290.0
Chicago,Smoke,1970-01-16 22:00:00,30.9,,-,82.0,,30.09,,Illinois,36.0,,,4:00 PM,,,,,,,3.0,,WNW,6.9,290.0,60290.0
Chicago,Smoke,1970-01-16 23:00:00,30.9,,-,82.0,,30.1,,Illinois,36.0,,,5:00 PM,,,,,,,3.0,,WSW,8.1,240.0,60290.0
Chicago,Smoke,1970-01-17 00:00:00,30.9,,-,82.0,,30.1,,Illinois,36.0,,,6:00 PM,,,,,,,10.5,,WNW,8.1,290.0,60290.0
Chicago,Smoke,1970-01-17 01:00:00,30.9,,-,82.0,,30.11,,Illinois,36.0,,,7:00 PM,,,,,,,10.5,,WNW,6.9,290.0,60290.0
Chicago,Smoke,1970-01-17 02:00:00,30.0,,-,82.0,,30.1,,Illinois,35.1,,,8:00 PM,,,,,,,3.0,,West,4.6,260.0,60290.0
Chicago,Smoke,1970-01-17 03:00:00,28.9,,-,82.0,,30.09,,Illinois,34.0,,,9:00 PM,,,,,,,3.0,,West,3.5,280.0,60290.0
Chicago,Smoke,1970-01-17 04:00:00,28.9,,-,82.0,,30.1,,Illinois,34.0,,,10:00 PM,,,,,,,3.0,,WNW,6.9,300.0,60290.0
Chicago,Smoke,1970-01-17 05:00:00,28.0,,-,82.0,,30.11,,Illinois,33.1,,,11:00 PM,,,,,,,3.0,,NW,9.2,310.0,60290.0
Chicago,Light Snow Showers,1970-01-17 06:00:00,25.0,Snow,-,79.0,,30.09,,Illinois,30.9,,,12:00 AM,,,,,,,3.0,,North,11.5,10.0,60290.0
Chicago,Light Snow Showers,1970-01-17 07:00:00,21.0,Snow,-,81.0,0.01,30.1,,Illinois,26.1,,,1:00 AM,,,,,,,2.0,,North,10.4,360.0,60290.0
Chicago,Light Snow Showers,1970-01-17 08:00:00,19.9,Snow,-,84.0,0.02,30.1,,Illinois,24.1,,,2:00 AM,,,,,,,2.0,,NNW,9.2,330.0,60290.0
Chicago,Smoke,1970-01-17 09:00:00,17.1,,-,82.0,0.03,30.09,,Illinois,21.9,,,3:00 AM,,,,,,,5.5,,North,9.2,350.0,60290.0
Chicago,Light Snow Showers,1970-01-17 10:00:00,18.0,Snow,-,85.0,0.03,30.08,,Illinois,21.9,,,4:00 AM,,,,,,,5.5,,North,8.1,350.0,60290.0
Chicago,Light Snow Showers,1970-01-17 11:00:00,18.0,Snow,-,85.0,0.03,30.06,,Illinois,21.9,,,5:00 AM,,,,,,,5.5,,NW,6.9,320.0,60290.0
Chicago,Light Snow Showers,1970-01-17 12:00:00,17.1,Snow,-,85.0,0.03,30.05,,Illinois,21.0,,,6:00 AM,,,,,,,5.5,,NW,9.2,320.0,60290.0
Chicago,Light Snow Showers,1970-01-17 13:00:00,15.1,Snow,-,85.0,0.05,30.06,,Illinois,19.0,,,7:00 AM,,,,,,,5.5,,NW,9.2,320.0,60290.0
Chicago,Light Snow Showers,1970-01-17 14:00:00,15.1,Fog-Snow,-,92.0,0.03,30.06,,Illinois,17.1,,,8:00 AM,,,,,,,1.0,,NNW,10.4,330.0,60290.0
Chicago,Light Snow Showers,1970-01-17 15:00:00,14.0,Fog-Snow,-,92.0,0.03,30.06,,Illinois,16.0,,,9:00 AM,,,,,,,1.0,,NNW,9.2,330.0,60290.0
Chicago,Light Snow Showers,1970-01-17 16:00:00,15.1,Fog-Snow,-,96.0,0.04,30.06,,Illinois,16.0,,,10:00 AM,,,,,,,1.0,,NNW,10.4,330.0,60290.0
Chicago,Light Snow Showers,1970-01-17 17:00:00,15.1,Fog-Snow,-,92.0,0.05,30.05,,Illinois,17.1,,,11:00 AM,,,,,,,1.0,,NW,10.4,320.0,60290.0
Chicago,Light Snow,1970-01-17 18:00:00,14.0,Fog-Snow,-,88.0,0.01,30.02,,Illinois,17.1,,,12:00 PM,,,,,,,1.0,,NNW,11.5,330.0,60290.0
Chicago,Light Snow,1970-01-17 19:00:00,15.1,Fog-Snow,-,88.0,0.04,29.99,,Illinois,18.0,,,1:00 PM,,,,,,,1.0,,NW,11.5,320.0,60290.0
Chicago,Light Snow,1970-01-17 20:00:00,12.9,Snow,-,74.0,,29.98,,Illinois,19.9,,,2:00 PM,,,,,,,5.5,,NNW,15.0,340.0,60290.0
Chicago,Light Snow,1970-01-17 21:00:00,12.0,Snow,-,74.0,,29.97,,Illinois,19.0,,,3:00 PM,,,,,,,2.0,,NW,11.5,320.0,60290.0
Chicago,Light Snow,1970-01-17 22:00:00,10.9,Snow,-,77.0,0.01,29.98,,Illinois,17.1,,,4:00 PM,,,,,,,2.0,,NNW,13.8,340.0,60290.0
Chicago,Light Snow,1970-01-17 23:00:00,10.9,Snow,-,81.0,0.04,29.99,,Illinois,16.0,,,5:00 PM,,,,,,,2.0,,NW,11.5,320.0,60290.0
Chicago,Light Snow,1970-01-18 00:00:00,10.9,Snow,-,81.0,0.01,30.0,,Illinois,16.0,,,6:00 PM,,,,,,,1.0,,NNW,12.7,330.0,60290.0
Chicago,Light Snow,1970-01-18 01:00:00,10.0,Snow,-,80.0,0.04,30.03,,Illinois,15.1,,,7:00 PM,,,,,,,1.0,,NNW,16.1,330.0,60290.0
Chicago,Light Snow,1970-01-18 02:00:00,8.1,Snow,-,77.0,0.01,30.04,,Illinois,14.0,,,8:00 PM,,,,,,,3.0,,NNW,16.1,330.0,60290.0
Chicago,Smoke,1970-01-18 03:00:00,6.1,,-,74.0,0.01,30.05,,Illinois,12.9,,,9:00 PM,,,,,,,3.0,,NNW,17.3,330.0,60290.0
Chicago,Light Snow,1970-01-18 04:00:00,5.0,Snow,-,71.0,,30.06,,Illinois,12.9,,,10:00 PM,,,,,,,4.0,,NNW,15.0,330.0,60290.0
Chicago,Light Snow,1970-01-18 05:00:00,5.0,Snow,-,73.0,,30.07,,Illinois,12.0,,,11:00 PM,,,,,,,4.0,,NNW,13.8,330.0,60290.0
Chicago,Light Blowing Snow,1970-01-18 06:00:00,5.0,Snow,-,73.0,,30.08,,Illinois,12.0,,,12:00 AM,,,,,,,6.0,,NW,17.3,320.0,60290.0
Chicago,Light Snow,1970-01-18 07:00:00,5.0,Snow,-,73.0,,30.1,,Illinois,12.0,,,1:00 AM,,,,,,,6.0,,North,16.1,350.0,60290.0
Chicago,Light Snow,1970-01-18 08:00:00,3.9,Snow,-,70.0,0.01,30.12,,Illinois,12.0,,,2:00 AM,,,,,,,4.0,,NNW,15.0,330.0,60290.0
Chicago,Light Snow,1970-01-18 09:00:00,3.9,Snow,-,70.0,0.02,30.13,,Illinois,12.0,,,3:00 AM,,,,,,,6.0,,North,13.8,350.0,60290.0
Chicago,Unknown,1970-01-18 10:00:00,3.0,,-,67.0,,30.15,,Illinois,12.0,,,4:00 AM,,,,,,,8.0,,NNW,15.0,330.0,60290.0
Chicago,Unknown,1970-01-18 11:00:00,1.9,,-,67.0,,30.15,,Illinois,10.9,,,5:00 AM,,,,,,,8.0,,NNW,16.1,330.0,60290.0
Chicago,Unknown,1970-01-18 12:00:00,1.9,,-,70.0,,30.17,,Illinois,10.0,,,6:00 AM,,,,,,,10.0,,NNW,13.8,330.0,60290.0
Chicago,Unknown,1970-01-18 13:00:00,-0.0,,-,67.0,,30.21,,Illinois,9.0,,,7:00 AM,,,,,,,10.0,,NW,13.8,320.0,60290.0
Chicago,Light Snow Showers,1970-01-18 14:00:00,-2.9,Snow,-,64.0,,30.22,,Illinois,7.0,,,8:00 AM,,,,,,,6.0,,NW,16.1,320.0,60290.0
Chicago,Smoke,1970-01-18 15:00:00,-5.1,,-,63.0,,30.24,,Illinois,5.0,,,9:00 AM,,,,,,,5.0,,NW,15.0,320.0,60290.0
Chicago,Smoke,1970-01-18 16:00:00,-5.1,,-,66.0,,30.26,,Illinois,3.9,,,10:00 AM,,,,,,,6.0,,NW,11.5,310.0,60290.0
Chicago,Unknown,1970-01-18 17:00:00,-2.0,,-,67.0,,30.26,,Illinois,7.0,,,11:00 AM,,,,,,,10.0,,NW,13.8,320.0,60290.0
Chicago,Unknown,1970-01-18 18:00:00,-0.0,,-,67.0,,30.23,,Illinois,9.0,,,12:00 PM,,,,,,,7.0,,NNW,15.0,330.0,60290.0
Chicago,Clear,1970-01-18 19:00:00,-0.0,,-,64.0,,30.22,,Illinois,10.0,,,1:00 PM,,,,,,,7.0,,NNW,17.3,340.0,60290.0
Chicago,Clear,1970-01-18 20:00:00,-0.9,,-,59.0,,30.2,,Illinois,10.9,,,2:00 PM,,,,,,,10.0,,North,16.1,350.0,60290.0
Chicago,Unknown,1970-01-18 21:00:00,-0.9,,-,56.0,,30.22,,Illinois,12.0,,,3:00 PM,,,,,,,10.0,,North,15.0,360.0,60290.0
Chicago,Unknown,1970-01-18 22:00:00,-5.1,,-,51.0,,30.22,,Illinois,10.0,,,4:00 PM,,,,,,,10.0,,NNW,11.5,330.0,60290.0
Chicago,Unknown,1970-01-18 23:00:00,-8.0,,-,51.0,,30.24,,Illinois,7.0,,,5:00 PM,,,,,,,10.0,,NNW,10.4,330.0,60290.0
Chicago,Unknown,1970-01-19 00:00:00,-9.9,,-,50.0,,30.25,,Illinois,5.0,,,6:00 PM,,,,,,,10.0,,NNW,11.5,330.0,60290.0
Chicago,Unknown,1970-01-19 01:00:00,-11.0,,-,52.0,,30.25,,Illinois,3.0,,,7:00 PM,,,,,,,10.0,,NW,11.5,320.0,60290.0
Chicago,Unknown,1970-01-19 02:00:00,-11.0,,-,55.0,,30.26,,Illinois,1.9,,,8:00 PM,,,,,,,10.0,,NW,11.5,310.0,60290.0
Chicago,Unknown,1970-01-19 03:00:00,-9.9,,-,58.0,,30.25,,Illinois,1.9,,,9:00 PM,,,,,,,10.0,,NW,11.5,320.0,60290.0
Chicago,Unknown,1970-01-19 04:00:00,-11.0,,-,55.0,,30.26,,Illinois,1.9,,,10:00 PM,,,,,,,8.0,,NNW,11.5,330.0,60290.0
Chicago,Unknown,1970-01-19 05:00:00,-11.9,,-,52.0,,30.25,,Illinois,1.9,,,11:00 PM,,,,,,,8.0,,North,9.2,350.0,60290.0
Chicago,Unknown,1970-01-19 06:00:00,-11.0,,-,52.0,,30.25,,Illinois,3.0,,,12:00 AM,,,,,,,8.0,,NW,11.5,320.0,60290.0
Chicago,Unknown,1970-01-19 07:00:00,-11.0,,-,52.0,,30.25,,Illinois,3.0,,,1:00 AM,,,,,,,10.0,,NW,10.4,320.0,60290.0
Chicago,Unknown,1970-01-19 08:00:00,-11.0,,-,55.0,,30.25,,Illinois,1.9,,,2:00 AM,,,,,,,10.0,,NW,12.7,320.0,60290.0
Chicago,Light Snow,1970-01-19 09:00:00,-11.0,Snow,-,52.0,,30.25,,Illinois,3.0,,,3:00 AM,,,,,,,6.0,,NW,10.4,320.0,60290.0
Chicago,Light Snow,1970-01-19 10:00:00,-9.9,Snow,-,58.0,0.01,30.24,,Illinois,1.9,,,4:00 AM,,,,,,,7.0,,NW,9.2,310.0,60290.0
Chicago,Unknown,1970-01-19 11:00:00,-9.9,,-,60.0,,30.24,,Illinois,1.0,,,5:00 AM,,,,,,,10.0,,NW,9.2,310.0,60290.0
Chicago,Unknown,1970-01-19 12:00:00,-11.0,,-,57.0,,30.24,,Illinois,1.0,,,6:00 AM,,,,,,,10.0,,NW,9.2,310.0,60290.0
Chicago,Unknown,1970-01-19 13:00:00,-11.0,,-,57.0,,30.26,,Illinois,1.0,,,7:00 AM,,,,,,,10.0,,NW,11.5,310.0,60290.0
Chicago,Unknown,1970-01-19 14:00:00,-13.0,,-,54.0,,30.27,,Illinois,-0.0,,,8:00 AM,,,,,,,10.0,,NW,10.4,310.0,60290.0
Chicago,Clear,1970-01-19 15:00:00,-14.1,,-,54.0,,30.29,,Illinois,-0.9,,,9:00 AM,,,,,,,10.0,,NW,10.4,310.0,60290.0
Chicago,Clear,1970-01-19 16:00:00,-15.0,,-,52.0,,30.3,,Illinois,-0.9,,,10:00 AM,,,,,,,15.0,,NNW,13.8,330.0,60290.0
Chicago,Clear,1970-01-19 17:00:00,-15.0,,-,47.0,,30.3,,Illinois,1.0,,,11:00 AM,,,,,,,15.0,,NNW,10.4,330.0,60290.0
Chicago,Clear,1970-01-19 18:00:00,-14.1,,-,49.0,,30.29,,Illinois,1.0,,,12:00 PM,,,,,,,15.0,,NW,9.2,320.0,60290.0
Chicago,Clear,1970-01-19 19:00:00,-15.0,,-,43.0,,30.24,,Illinois,3.0,,,1:00 PM,,,,,,,15.0,,West,8.1,280.0,60290.0
Chicago,Clear,1970-01-19 20:00:00,-14.1,,-,43.0,,30.23,,Illinois,3.9,,,2:00 PM,,,,,,,15.0,,West,10.4,280.0,60290.0
Chicago,Clear,1970-01-19 21:00:00,-15.0,,-,41.0,,30.23,,Illinois,3.9,,,3:00 PM,,,,,,,15.0,,WNW,9.2,300.0,60290.0
Chicago,Unknown,1970-01-19 22:00:00,-17.0,,-,39.0,,30.24,,Illinois,3.0,,,4:00 PM,,,,,,,15.0,,West,10.4,260.0,60290.0
Chicago,Unknown,1970-01-19 23:00:00,-18.0,,-,43.0,,30.24,,Illinois,-0.0,,,5:00 PM,,,,,,,10.0,,WSW,10.4,250.0,60290.0
Chicago,Unknown,1970-01-20 00:00:00,-18.0,,-,44.0,,30.23,,Illinois,-0.9,,,6:00 PM,,,,,,,10.0,,WSW,9.2,250.0,60290.0
Chicago,Unknown,1970-01-20 01:00:00,-18.9,,-,49.0,,30.24,,Illinois,-4.0,,,7:00 PM,,,,,,,10.0,,WSW,10.4,250.0,60290.0
Chicago,Unknown,1970-01-20 02:00:00,-18.0,,-,54.0,,30.22,,Illinois,-5.1,,,8:00 PM,,,,,,,10.0,,WSW,6.9,250.0,60290.0
Chicago,Unknown,1970-01-20 03:00:00,-18.0,,-,54.0,,30.22,,Illinois,-5.1,,,9:00 PM,,,,,,,10.0,,West,6.9,270.0,60290.0
Chicago,Unknown,1970-01-20 04:00:00,-18.9,,-,51.0,,30.21,,Illinois,-5.1,,,10:00 PM,,,,,,,10.0,,WSW,9.2,250.0,60290.0
Chicago,Unknown,1970-01-20 05:00:00,-18.9,,-,54.0,,30.18,,Illinois,-6.0,,,11:00 PM,,,,,,,10.0,,WSW,5.8,250.0,60290.0
Chicago,Unknown,1970-01-20 06:00:00,-18.9,,-,56.0,,30.17,,Illinois,-7.1,,,12:00 AM,,,,,,,10.0,,WSW,6.9,240.0,60290.0
Chicago,Unknown,1970-01-20 07:00:00,-18.0,,-,59.0,,30.15,,Illinois,-7.1,,,1:00 AM,,,,,,,10.0,,WSW,9.2,240.0,60290.0
Chicago,Unknown,1970-01-20 08:00:00,-18.0,,-,59.0,,30.12,,Illinois,-7.1,,,2:00 AM,,,,,,,10.0,,SW,5.8,230.0,60290.0
Chicago,Unknown,1970-01-20 09:00:00,-17.0,,-,59.0,,30.12,,Illinois,-6.0,,,3:00 AM,,,,,,,10.0,,SW,5.8,230.0,60290.0
Chicago,Unknown,1970-01-20 10:00:00,-17.0,,-,59.0,,30.1,,Illinois,-6.0,,,4:00 AM,,,,,,,10.0,,West,5.8,260.0,60290.0
Chicago,Unknown,1970-01-20 11:00:00,-18.0,,-,56.0,,30.08,,Illinois,-6.0,,,5:00 AM,,,,,,,10.0,,WSW,10.4,240.0,60290.0
Chicago,Light Snow,1970-01-20 12:00:00,-17.0,Snow,-,59.0,,30.07,,Illinois,-6.0,,,6:00 AM,,,,,,,6.0,,SW,9.2,230.0,60290.0
Chicago,Light Snow,1970-01-20 13:00:00,-17.0,Snow,-,59.0,,30.06,,Illinois,-6.0,,,7:00 AM,,,,,,,4.0,,SW,9.2,220.0,60290.0
Chicago,Light Snow,1970-01-20 14:00:00,-15.0,Snow,-,62.0,,30.06,,Illinois,-5.1,,,8:00 AM,,,,,,,10.5,,SW,10.4,230.0,60290.0
Chicago,Light Snow,1970-01-20 15:00:00,-14.1,Snow,-,62.0,,30.06,,Illinois,-4.0,,,9:00 AM,,,,,,,10.5,,West,10.4,270.0,60290.0
Chicago,Smoke,1970-01-20 16:00:00,-16.1,,-,56.0,,30.07,,Illinois,-4.0,,,10:00 AM,,,,,,,5.0,,WNW,18.4,290.0,60290.0
Chicago,Smoke,1970-01-20 17:00:00,-15.0,,-,56.0,,30.11,,Illinois,-2.9,,,11:00 AM,,,,,,,6.0,,NW,19.6,310.0,60290.0
Chicago,Clear,1970-01-20 18:00:00,-16.1,,-,51.0,,30.11,,Illinois,-2.0,,,12:00 PM,,,,,,,10.0,,WNW,21.9,300.0,60290.0
Chicago,Clear,1970-01-20 19:00:00,-16.1,,-,49.0,,30.1,,Illinois,-0.9,,,1:00 PM,,,,,,,10.0,,WNW,18.4,300.0,60290.0
Chicago,Clear,1970-01-20 20:00:00,-17.0,,-,47.0,,30.15,,Illinois,-0.9,,,2:00 PM,,,,,,,7.0,,WNW,23.0,300.0,60290.0
Chicago,Clear,1970-01-20 21:00:00,-16.1,,-,49.0,,30.18,,Illinois,-0.9,,,3:00 PM,,,,,,,10.0,,WNW,18.4,300.0,60290.0
Chicago,Clear,1970-01-20 22:00:00,-14.1,,-,52.0,,30.21,,Illinois,-0.0,,,4:00 PM,,,,,,,8.0,,WNW,19.6,300.0,60290.0
Chicago,Clear,1970-01-20 23:00:00,-15.0,,-,49.0,,30.25,,Illinois,-0.0,,,5:00 PM,,,,,,,8.0,,WNW,16.1,300.0,60290.0
Chicago,Clear,1970-01-21 00:00:00,-16.1,,-,49.0,,30.3,,Illinois,-0.9,,,6:00 PM,,,,,,,8.0,,WNW,18.4,300.0,60290.0
Chicago,Smoke,1970-01-21 01:00:00,-16.1,,-,49.0,,30.34,,Illinois,-0.9,,,7:00 PM,,,,,,,6.0,,WNW,19.6,300.0,60290.0
Chicago,Smoke,1970-01-21 02:00:00,-18.0,,-,44.0,,30.36,,Illinois,-0.9,,,8:00 PM,,,,,,,6.0,,WNW,16.1,300.0,60290.0
Chicago,Clear,1970-01-21 03:00:00,-18.0,,-,47.0,,30.4,,Illinois,-2.0,,,9:00 PM,,,,,,,7.0,,WNW,13.8,300.0,60290.0
Chicago,Clear,1970-01-21 04:00:00,-18.0,,-,49.0,,30.43,,Illinois,-2.9,,,10:00 PM,,,,,,,7.0,,NW,18.4,320.0,60290.0
Chicago,Clear,1970-01-21 05:00:00,-18.9,,-,49.0,,30.45,,Illinois,-4.0,,,11:00 PM,,,,,,,7.0,,NW,11.5,310.0,60290.0
Chicago,Clear,1970-01-21 06:00:00,-20.0,,-,49.0,,30.47,,Illinois,-5.1,,,12:00 AM,,,,,,,10.0,,NW,12.7,320.0,60290.0
Chicago,Clear,1970-01-21 07:00:00,-20.9,,-,51.0,,30.49,,Illinois,-7.1,,,1:00 AM,,,,,,,10.0,,West,11.5,280.0,60290.0
Chicago,Clear,1970-01-21 08:00:00,-20.9,,-,53.0,,30.51,,Illinois,-8.0,,,2:00 AM,,,,,,,15.0,,WNW,11.5,290.0,60290.0
Chicago,Clear,1970-01-21 09:00:00,-23.1,,-,50.0,,30.52,,Illinois,-9.0,,,3:00 AM,,,,,,,15.0,,NW,10.4,310.0,60290.0
Chicago,Clear,1970-01-21 10:00:00,-23.1,,-,50.0,,30.52,,Illinois,-9.0,,,4:00 AM,,,,,,,15.0,,NW,13.8,320.0,60290.0
Chicago,Clear,1970-01-21 11:00:00,-23.1,,-,52.0,,30.53,,Illinois,-9.9,,,5:00 AM,,,,,,,15.0,,NW,9.2,310.0,60290.0
Chicago,Clear,1970-01-21 12:00:00,-23.1,,-,52.0,,30.55,,Illinois,-9.9,,,6:00 AM,,,,,,,15.0,,NW,11.5,310.0,60290.0
Chicago,Clear,1970-01-21 13:00:00,-23.1,,-,55.0,,30.56,,Illinois,-11.0,,,7:00 AM,,,,,,,15.0,,WNW,9.2,300.0,60290.0
Chicago,Clear,1970-01-21 14:00:00,-22.0,,-,55.0,,30.59,,Illinois,-9.9,,,8:00 AM,,,,,,,10.0,,West,8.1,280.0,60290.0
Chicago,Clear,1970-01-21 15:00:00,-20.9,,-,53.0,,30.61,,Illinois,-8.0,,,9:00 AM,,,,,,,10.0,,WNW,12.7,300.0,60290.0
Chicago,Clear,1970-01-21 16:00:00,-18.0,,-,51.0,,30.62,,Illinois,-4.0,,,10:00 AM,,,,,,,10.0,,WNW,11.5,300.0,60290.0
Chicago,Clear,1970-01-21 17:00:00,-16.1,,-,47.0,,30.6,,Illinois,-0.0,,,11:00 AM,,,,,,,10.0,,WNW,10.4,300.0,60290.0
Chicago,Clear,1970-01-21 18:00:00,-15.0,,-,45.0,,30.58,,Illinois,1.9,,,12:00 PM,,,,,,,15.0,,West,11.5,280.0,60290.0
Chicago,Clear,1970-01-21 19:00:00,-14.1,,-,43.0,,30.53,,Illinois,3.9,,,1:00 PM,,,,,,,15.0,,WNW,13.8,300.0,60290.0
Chicago,Clear,1970-01-21 20:00:00,-13.0,,-,46.0,,30.53,,Illinois,3.9,,,2:00 PM,,,,,,,15.0,,WSW,11.5,240.0,60290.0
Chicago,Clear,1970-01-21 21:00:00,-14.1,,-,47.0,,30.52,,Illinois,1.9,,,3:00 PM,,,,,,,15.0,,WSW,11.5,240.0,60290.0
Chicago,Clear,1970-01-21 22:00:00,-16.1,,-,47.0,,30.52,,Illinois,-0.0,,,4:00 PM,,,,,,,10.0,,SW,11.5,230.0,60290.0
Chicago,Clear,1970-01-21 23:00:00,-18.0,,-,49.0,,30.51,,Illinois,-2.9,,,5:00 PM,,,,,,,8.0,,WSW,12.7,240.0,60290.0
Chicago,Smoke,1970-01-22 00:00:00,-18.0,,-,54.0,,30.51,,Illinois,-5.1,,,6:00 PM,,,,,,,6.0,,WSW,10.4,240.0,60290.0
Chicago,Smoke,1970-01-22 01:00:00,-18.9,,-,51.0,,30.51,,Illinois,-5.1,,,7:00 PM,,,,,,,6.0,,WSW,9.2,250.0,60290.0
Chicago,Smoke,1970-01-22 02:00:00,-18.9,,-,54.0,,30.5,,Illinois,-6.0,,,8:00 PM,,,,,,,6.0,,WSW,11.5,250.0,60290.0
Chicago,Smoke,1970-01-22 03:00:00,-20.0,,-,53.0,,30.48,,Illinois,-7.1,,,9:00 PM,,,,,,,6.0,,WSW,9.2,250.0,60290.0
Chicago,Smoke,1970-01-22 04:00:00,-20.0,,-,56.0,,30.49,,Illinois,-8.0,,,10:00 PM,,,,,,,6.0,,WSW,11.5,240.0,60290.0
Chicago,Smoke,1970-01-22 05:00:00,-20.0,,-,56.0,,30.46,,Illinois,-8.0,,,11:00 PM,,,,,,,6.0,,SW,6.9,220.0,60290.0
Chicago,Smoke,1970-01-22 06:00:00,-20.0,,-,56.0,,30.45,,Illinois,-8.0,,,12:00 AM,,,,,,,6.0,,SW,9.2,230.0,60290.0
Chicago,Clear,1970-01-22 07:00:00,-20.0,,-,56.0,,30.43,,Illinois,-8.0,,,1:00 AM,,,,,,,7.0,,SSW,9.2,200.0,60290.0
Chicago,Unknown,1970-01-22 08:00:00,-20.0,,-,59.0,,30.43,,Illinois,-9.0,,,2:00 AM,,,,,,,10.0,,SSW,9.2,200.0,60290.0
Chicago,Unknown,1970-01-22 09:00:00,-18.9,,-,59.0,,30.4,,Illinois,-8.0,,,3:00 AM,,,,,,,10.0,,SSW,10.4,200.0,60290.0
Chicago,Unknown,1970-01-22 10:00:00,-17.0,,-,62.0,,30.36,,Illinois,-7.1,,,4:00 AM,,,,,,,8.0,,South,9.2,180.0,60290.0
Chicago,Unknown,1970-01-22 11:00:00,-17.0,,-,59.0,,30.34,,Illinois,-6.0,,,5:00 AM,,,,,,,8.0,,South,10.4,180.0,60290.0
Chicago,Unknown,1970-01-22 12:00:00,-16.1,,-,56.0,,30.33,,Illinois,-4.0,,,6:00 AM,,,,,,,8.0,,SW,8.1,220.0,60290.0
Chicago,Unknown,1970-01-22 13:00:00,-13.0,,-,54.0,,30.3,,Illinois,-0.0,,,7:00 AM,,,,,,,10.0,,South,11.5,180.0,60290.0
Chicago,Unknown,1970-01-22 14:00:00,-11.0,,-,57.0,,30.26,,Illinois,1.0,,,8:00 AM,,,,,,,8.0,,South,13.8,180.0,60290.0
Chicago,Unknown,1970-01-22 15:00:00,-9.0,,-,57.0,,30.23,,Illinois,3.0,,,9:00 AM,,,,,,,10.0,,South,15.0,180.0,60290.0
Chicago,Unknown,1970-01-22 16:00:00,-8.0,,-,55.0,,30.21,,Illinois,5.0,,,10:00 AM,,,,,,,10.0,,South,17.3,170.0,60290.0
Chicago,Unknown,1970-01-22 17:00:00,-8.0,,-,48.0,,30.19,,Illinois,8.1,,,11:00 AM,,,,,,,10.0,,South,16.1,180.0,60290.0
Chicago,Unknown,1970-01-22 18:00:00,-6.0,,-,48.0,,30.13,,Illinois,10.0,,,12:00 PM,,,,,,,10.0,,South,20.7,190.0,60290.0
Chicago,Unknown,1970-01-22 19:00:00,-4.0,,-,51.0,,30.08,,Illinois,10.9,,,1:00 PM,,,,,,,10.0,,South,20.7,190.0,60290.0
Chicago,Unknown,1970-01-22 20:00:00,-2.0,,-,53.0,,30.02,,Illinois,12.0,,,2:00 PM,,,,,,,10.0,,South,24.2,180.0,60290.0
Chicago,Unknown,1970-01-22 21:00:00,-0.9,,-,54.0,,30.01,,Illinois,12.9,,,3:00 PM,,,,,,,10.0,,South,19.6,180.0,60290.0
Chicago,Light Snow,1970-01-22 22:00:00,-0.0,Snow,-,54.0,,29.96,,Illinois,14.0,,,4:00 PM,,,,,,,8.0,,South,20.7,180.0,60290.0
Chicago,Light Snow,1970-01-22 23:00:00,3.0,Snow,-,59.0,,29.93,,Illinois,15.1,,,5:00 PM,,,,,,,4.0,,SSW,20.7,200.0,60290.0
Chicago,Light Snow,1970-01-23 00:00:00,3.9,Snow,-,61.0,0.01,29.94,,Illinois,15.1,,,6:00 PM,,,,,,,1.0,,South,19.6,190.0,60290.0
Chicago,Light Snow,1970-01-23 01:00:00,10.0,Snow,-,80.0,0.01,29.93,,Illinois,15.1,,,7:00 PM,,,,,,,1.0,,South,16.1,190.0,60290.0
Chicago,Light Snow,1970-01-23 02:00:00,10.9,Snow,-,81.0,0.02,29.91,,Illinois,16.0,,,8:00 PM,,,,,,,1.0,,South,17.3,190.0,60290.0
Chicago,Light Snow,1970-01-23 03:00:00,12.0,Snow,-,81.0,,29.91,,Illinois,17.1,,,9:00 PM,,,,,,,5.5,,South,13.8,190.0,60290.0
Chicago,Light Snow,1970-01-23 04:00:00,12.0,Snow,-,81.0,0.01,29.9,,Illinois,17.1,,,10:00 PM,,,,,,,5.5,,South,12.7,190.0,60290.0
Chicago,Light Snow,1970-01-23 05:00:00,12.9,Snow,-,81.0,0.01,29.89,,Illinois,18.0,,,11:00 PM,,,,,,,5.0,,South,11.5,190.0,60290.0
Chicago,Light Snow,1970-01-23 06:00:00,15.1,Fog-Snow,-,88.0,,29.88,,Illinois,18.0,,,12:00 AM,,,,,,,5.0,,SSW,9.2,210.0,60290.0
Chicago,Light Snow,1970-01-23 07:00:00,17.1,Fog-Snow,-,92.0,,29.87,,Illinois,19.0,,,1:00 AM,,,,,,,5.0,,SSW,6.9,200.0,60290.0
Chicago,Light Snow,1970-01-23 08:00:00,18.0,Fog-Snow,-,92.0,,29.87,,Illinois,19.9,,,2:00 AM,,,,,,,5.0,,SW,8.1,230.0,60290.0
Chicago,Light Snow,1970-01-23 09:00:00,19.0,Fog-Snow,-,96.0,,29.87,,Illinois,19.9,,,3:00 AM,,,,,,,6.0,,WSW,6.9,250.0,60290.0
Chicago,Light Snow,1970-01-23 10:00:00,15.1,Fog-Snow,-,85.0,0.01,29.88,,Illinois,19.0,,,4:00 AM,,,,,,,5.0,,NNW,8.1,330.0,60290.0
Chicago,Light Snow,1970-01-23 11:00:00,14.0,Fog-Snow,-,84.0,0.01,29.91,,Illinois,18.0,,,5:00 AM,,,,,,,4.0,,North,15.0,350.0,60290.0
Chicago,Light Snow,1970-01-23 12:00:00,12.9,Snow,-,81.0,0.01,29.93,,Illinois,18.0,,,6:00 AM,,,,,,,4.0,,North,13.8,350.0,60290.0
Chicago,Light Snow,1970-01-23 13:00:00,10.0,Snow,-,74.0,,29.96,,Illinois,17.1,,,7:00 AM,,,,,,,4.0,,North,15.0,350.0,60290.0
Chicago,Light Snow,1970-01-23 14:00:00,8.1,Snow,-,71.0,,29.98,,Illinois,16.0,,,8:00 AM,,,,,,,4.0,,NNW,12.7,330.0,60290.0
Chicago,Light Snow Showers,1970-01-23 15:00:00,8.1,Snow,-,71.0,,30.01,,Illinois,16.0,,,9:00 AM,,,,,,,10.5,,NNW,13.8,330.0,60290.0
Chicago,Light Snow Showers,1970-01-23 16:00:00,8.1,Snow,-,74.0,0.01,30.04,,Illinois,15.1,,,10:00 AM,,,,,,,5.5,,NNW,16.1,330.0,60290.0
Chicago,Light Snow Showers,1970-01-23 17:00:00,8.1,Snow,-,71.0,,30.06,,Illinois,16.0,,,11:00 AM,,,,,,,4.0,,NW,12.7,320.0,60290.0
Chicago,Smoke,1970-01-23 18:00:00,7.0,,-,62.0,,30.06,,Illinois,18.0,,,12:00 PM,,,,,,,6.0,,NW,13.8,320.0,60290.0
Chicago,Unknown,1970-01-23 19:00:00,7.0,,-,62.0,,30.08,,Illinois,18.0,,,1:00 PM,,,,,,,8.0,,NW,13.8,320.0,60290.0
Chicago,Clear,1970-01-23 20:00:00,8.1,,-,60.0,,30.08,,Illinois,19.9,,,2:00 PM,,,,,,,10.0,,NW,12.7,320.0,60290.0
Chicago,Unknown,1970-01-23 21:00:00,7.0,,-,57.0,,30.1,,Illinois,19.9,,,3:00 PM,,,,,,,10.0,,NW,11.5,310.0,60290.0
Chicago,Unknown,1970-01-23 22:00:00,6.1,,-,55.0,,30.14,,Illinois,19.9,,,4:00 PM,,,,,,,8.0,,NW,11.5,320.0,60290.0
Chicago,Clear,1970-01-23 23:00:00,3.9,,-,54.0,,30.15,,Illinois,18.0,,,5:00 PM,,,,,,,7.0,,NW,9.2,310.0,60290.0
Chicago,Smoke,1970-01-24 00:00:00,3.0,,-,57.0,,30.15,,Illinois,16.0,,,6:00 PM,,,,,,,6.0,,NW,8.1,310.0,60290.0
Chicago,Smoke,1970-01-24 01:00:00,3.0,,-,59.0,,30.16,,Illinois,15.1,,,7:00 PM,,,,,,,6.0,,WNW,6.9,290.0,60290.0
Chicago,Smoke,1970-01-24 02:00:00,3.0,,-,67.0,,30.17,,Illinois,12.0,,,8:00 PM,,,,,,,6.0,,West,6.9,280.0,60290.0
Chicago,Smoke,1970-01-24 03:00:00,1.0,,-,61.0,,30.15,,Illinois,12.0,,,9:00 PM,,,,,,,5.0,,WSW,4.6,250.0,60290.0
Chicago,Smoke,1970-01-24 04:00:00,3.0,,-,70.0,,30.16,,Illinois,10.9,,,10:00 PM,,,,,,,4.0,,SW,6.9,230.0,60290.0
Chicago,Smoke,1970-01-24 05:00:00,1.0,,-,67.0,,30.17,,Illinois,10.0,,,11:00 PM,,,,,,,4.0,,Calm,Calm,0.0,60290.0
Chicago,Smoke,1970-01-24 06:00:00,1.0,,-,70.0,,30.14,,Illinois,9.0,,,12:00 AM,,,,,,,5.0,,SW,6.9,220.0,60290.0
Chicago,Smoke,1970-01-24 07:00:00,-0.0,,-,70.0,,30.17,,Illinois,8.1,,,1:00 AM,,,,,,,6.0,,SW,6.9,230.0,60290.0
Chicago,Smoke,1970-01-24 08:00:00,1.9,,-,70.0,,30.12,,Illinois,10.0,,,2:00 AM,,,,,,,5.0,,SSW,5.8,210.0,60290.0
Chicago,Smoke,1970-01-24 09:00:00,3.0,,-,70.0,,30.09,,Illinois,10.9,,,3:00 AM,,,,,,,5.0,,SSW,11.5,210.0,60290.0
Chicago,Smoke,1970-01-24 10:00:00,5.0,,-,71.0,,30.11,,Illinois,12.9,,,4:00 AM,,,,,,,5.0,,SW,12.7,220.0,60290.0
Chicago,Smoke,1970-01-24 11:00:00,7.0,,-,70.0,,30.04,,Illinois,15.1,,,5:00 AM,,,,,,,5.0,,SSW,13.8,200.0,60290.0
Chicago,Smoke,1970-01-24 12:00:00,8.1,,-,74.0,,30.0,,Illinois,15.1,,,6:00 AM,,,,,,,6.0,,South,15.0,180.0,60290.0
Chicago,Light Snow,1970-01-24 13:00:00,7.0,Snow,-,68.0,,29.99,,Illinois,16.0,,,7:00 AM,,,,,,,7.0,,South,15.0,180.0,60290.0
Chicago,Light Freezing Rain,1970-01-24 14:00:00,9.0,Rain-Snow,-,71.0,,29.95,,Illinois,17.1,,,8:00 AM,,,,,,,7.0,,South,20.7,180.0,60290.0
Chicago,Unknown,1970-01-24 15:00:00,10.9,,-,74.0,,29.93,,Illinois,18.0,,,9:00 AM,,,,,,,7.0,,South,20.7,190.0,60290.0
Chicago,Unknown,1970-01-24 16:00:00,14.0,,-,74.0,,29.89,,Illinois,21.0,,,10:00 AM,,,,,,,7.0,,South,23.0,190.0,60290.0
Chicago,Unknown,1970-01-24 17:00:00,17.1,,-,75.0,,29.91,,Illinois,24.1,,,11:00 AM,,,,,,,7.0,,South,16.1,190.0,60290.0
Chicago,Smoke,1970-01-24 18:00:00,19.9,,-,78.0,,29.85,,Illinois,26.1,,,12:00 PM,,,,,,,5.0,,South,15.0,190.0,60290.0
Chicago,Smoke,1970-01-24 19:00:00,21.9,,-,75.0,,29.8,,Illinois,28.9,,,1:00 PM,,,,,,,5.0,,SSW,15.0,200.0,60290.0
Chicago,Smoke,1970-01-24 20:00:00,24.1,,-,76.0,,29.76,,Illinois,30.9,,,2:00 PM,,,,,,,6.0,,SSW,12.7,200.0,60290.0
Chicago,Smoke,1970-01-24 21:00:00,27.0,,-,75.0,,29.76,,Illinois,34.0,,,3:00 PM,,,,,,,6.0,,SSW,12.7,200.0,60290.0
Chicago,Smoke,1970-01-24 22:00:00,28.0,,-,73.0,,29.75,,Illinois,36.0,,,4:00 PM,,,,,,,6.0,,South,10.4,190.0,60290.0
Chicago,Smoke,1970-01-24 23:00:00,28.9,,-,76.0,,29.75,,Illinois,36.0,,,5:00 PM,,,,,,,5.0,,SSW,11.5,210.0,60290.0
Chicago,Smoke,1970-01-25 00:00:00,28.0,,-,73.0,,29.75,,Illinois,36.0,,,6:00 PM,,,,,,,6.0,,South,11.5,190.0,60290.0
Chicago,Smoke,1970-01-25 01:00:00,28.9,,-,76.0,,29.73,,Illinois,36.0,,,7:00 PM,,,,,,,6.0,,South,13.8,180.0,60290.0
Chicago,Smoke,1970-01-25 02:00:00,28.0,,-,76.0,,29.7,,Illinois,35.1,,,8:00 PM,,,,,,,6.0,,South,11.5,190.0,60290.0
Chicago,Smoke,1970-01-25 03:00:00,28.9,,-,76.0,,29.69,,Illinois,36.0,,,9:00 PM,,,,,,,6.0,,South,10.4,180.0,60290.0
Chicago,Smoke,1970-01-25 04:00:00,28.9,,-,76.0,,29.69,,Illinois,36.0,,,10:00 PM,,,,,,,6.0,,South,12.7,190.0,60290.0
Chicago,Drizzle,1970-01-25 05:00:00,30.9,,-,82.0,,29.67,,Illinois,36.0,,,11:00 PM,,,,,,,5.0,,South,10.4,180.0,60290.0
Chicago,Drizzle,1970-01-25 06:00:00,32.0,,-,86.0,,29.65,,Illinois,36.0,,,12:00 AM,,,,,,,6.0,,South,15.0,180.0,60290.0
Chicago,Drizzle,1970-01-25 07:00:00,32.0,,-,89.0,,29.59,,Illinois,35.1,,,1:00 AM,,,,,,,6.0,,South,10.4,180.0,60290.0
Chicago,Drizzle,1970-01-25 08:00:00,30.9,,-,82.0,,29.57,,Illinois,36.0,,,2:00 AM,,,,,,,6.0,,South,12.7,180.0,60290.0
Chicago,Drizzle,1970-01-25 09:00:00,32.0,,-,82.0,,29.55,,Illinois,37.0,,,3:00 AM,,,,,,,5.0,,South,15.0,180.0,60290.0
Chicago,Drizzle,1970-01-25 10:00:00,34.0,,-,82.0,,29.52,,Illinois,39.0,,,4:00 AM,,,,,,,6.0,,South,17.3,190.0,60290.0
Chicago,Drizzle,1970-01-25 11:00:00,35.1,,-,89.0,,29.48,,Illinois,37.9,,,5:00 AM,,,,,,,5.0,,South,15.0,190.0,60290.0
Chicago,Fog,1970-01-25 12:00:00,35.1,Fog,-,89.0,,29.48,,Illinois,37.9,,,6:00 AM,,,,,,,4.0,,South,13.8,190.0,60290.0
Chicago,Light Drizzle,1970-01-25 13:00:00,34.0,Fog,-,86.0,,29.47,,Illinois,37.9,,,7:00 AM,,,,,,,10.5,,SSW,12.7,200.0,60290.0
Chicago,Light Drizzle,1970-01-25 14:00:00,33.1,Fog,-,83.0,,29.47,,Illinois,37.9,,,8:00 AM,,,,,,,10.5,,SSW,8.1,210.0,60290.0
Chicago,Light Drizzle,1970-01-25 15:00:00,33.1,Fog,-,86.0,,29.46,,Illinois,37.0,,,9:00 AM,,,,,,,5.5,,South,12.7,180.0,60290.0
Chicago,Light Drizzle,1970-01-25 16:00:00,34.0,Fog,-,86.0,,29.42,,Illinois,37.9,,,10:00 AM,,,,,,,5.5,,South,10.4,180.0,60290.0
Chicago,Light Drizzle,1970-01-25 17:00:00,34.0,Fog,-,86.0,,29.42,,Illinois,37.9,,,11:00 AM,,,,,,,5.5,,South,9.2,190.0,60290.0
Chicago,Light Drizzle,1970-01-25 18:00:00,34.0,Fog,-,86.0,,29.4,,Illinois,37.9,,,12:00 PM,,,,,,,5.5,,SSW,9.2,200.0,60290.0
Chicago,Light Drizzle,1970-01-25 19:00:00,34.0,Fog,-,86.0,,29.34,,Illinois,37.9,,,1:00 PM,,,,,,,5.5,,SSW,9.2,210.0,60290.0
Chicago,Light Drizzle,1970-01-25 20:00:00,34.0,Fog,-,86.0,,29.36,,Illinois,37.9,,,2:00 PM,,,,,,,5.5,,SSW,9.2,210.0,60290.0
Chicago,Fog,1970-01-25 21:00:00,34.0,Fog,-,82.0,,29.38,,Illinois,39.0,,,3:00 PM,,,,,,,3.0,,WSW,17.3,240.0,60290.0
Chicago,Fog,1970-01-25 22:00:00,32.0,Fog,-,79.0,,29.4,,Illinois,37.9,,,4:00 PM,,,,,,,4.0,,WSW,18.4,250.0,60290.0
Chicago,Light Drizzle,1970-01-25 23:00:00,30.0,Fog,-,79.0,,29.46,,Illinois,36.0,,,5:00 PM,,,,,,,1.0,,WSW,17.3,240.0,60290.0
Chicago,Light Drizzle,1970-01-26 00:00:00,30.9,Fog,-,82.0,,29.52,,Illinois,36.0,,,6:00 PM,,,,,,,5.5,,WSW,12.7,250.0,60290.0
Chicago,Light Drizzle,1970-01-26 01:00:00,32.0,Fog,-,86.0,,29.56,,Illinois,36.0,,,7:00 PM,,,,,,,5.5,,NW,12.7,320.0,60290.0
Chicago,Light Drizzle,1970-01-26 02:00:00,33.1,Fog,-,89.0,,29.61,,Illinois,36.0,,,8:00 PM,,,,,,,2.0,,NNW,12.7,340.0,60290.0
Chicago,Light Drizzle,1970-01-26 03:00:00,30.0,,-,79.0,,29.66,,Illinois,36.0,,,9:00 PM,,,,,,,3.0,,NW,15.0,320.0,60290.0
Chicago,Light Drizzle,1970-01-26 04:00:00,32.0,Fog,-,86.0,,29.68,,Illinois,36.0,,,10:00 PM,,,,,,,3.0,,NNW,13.8,330.0,60290.0
Chicago,Light Drizzle,1970-01-26 05:00:00,30.9,Fog,-,85.0,0.01,29.74,,Illinois,35.1,,,11:00 PM,,,,,,,3.0,,NW,15.0,310.0,60290.0
Chicago,Light Snow,1970-01-26 06:00:00,28.0,Fog-Snow,-,89.0,,29.74,,Illinois,30.9,,,12:00 AM,,,,,,,10.5,,NW,15.0,320.0,60290.0
Chicago,Light Snow,1970-01-26 07:00:00,28.9,Fog-Snow,-,92.0,0.02,29.78,,Illinois,30.9,,,1:00 AM,,,,,,,10.5,,NNW,13.8,340.0,60290.0
Chicago,Light Snow,1970-01-26 08:00:00,30.0,Fog-Snow,-,96.0,0.01,29.84,,Illinois,30.9,,,2:00 AM,,,,,,,10.5,,NNW,12.7,340.0,60290.0
Chicago,Light Snow,1970-01-26 09:00:00,28.9,Fog-Snow,-,92.0,0.02,29.84,,Illinois,30.9,,,3:00 AM,,,,,,,5.5,,NNW,11.5,330.0,60290.0
Chicago,Fog,1970-01-26 10:00:00,30.9,Fog,-,96.0,,29.85,,Illinois,32.0,,,4:00 AM,,,,,,,5.5,,NNW,9.2,330.0,60290.0
Chicago,Fog,1970-01-26 11:00:00,28.9,Fog,-,88.0,,29.87,,Illinois,32.0,,,5:00 AM,,,,,,,10.5,,NNW,10.4,330.0,60290.0
Chicago,Smoke,1970-01-26 12:00:00,27.0,,-,82.0,,29.89,,Illinois,32.0,,,6:00 AM,,,,,,,10.5,,NW,10.4,320.0,60290.0
Chicago,Smoke,1970-01-26 13:00:00,25.0,,-,75.0,,29.92,,Illinois,32.0,,,7:00 AM,,,,,,,3.0,,NNW,11.5,340.0,60290.0
Chicago,Smoke,1970-01-26 14:00:00,25.0,,-,75.0,,29.96,,Illinois,32.0,,,8:00 AM,,,,,,,3.0,,NW,5.8,320.0,60290.0
Chicago,Smoke,1970-01-26 15:00:00,25.0,,-,75.0,,29.98,,Illinois,32.0,,,9:00 AM,,,,,,,3.0,,WNW,6.9,290.0,60290.0
Chicago,Smoke,1970-01-26 16:00:00,25.0,,-,75.0,,30.01,,Illinois,32.0,,,10:00 AM,,,,,,,3.0,,West,6.9,280.0,60290.0
Chicago,Smoke,1970-01-26 17:00:00,26.1,,-,75.0,,30.01,,Illinois,33.1,,,11:00 AM,,,,,,,3.0,,NW,5.8,310.0,60290.0
Chicago,Smoke,1970-01-26 18:00:00,26.1,,-,73.0,,29.99,,Illinois,34.0,,,12:00 PM,,,,,,,3.0,,Calm,Calm,0.0,60290.0
Chicago,Smoke,1970-01-26 19:00:00,27.0,,-,72.0,,29.98,,Illinois,35.1,,,1:00 PM,,,,,,,3.0,,Calm,Calm,0.0,60290.0
Chicago,Smoke,1970-01-26 20:00:00,25.0,,-,64.0,,29.99,,Illinois,36.0,,,2:00 PM,,,,,,,5.0,,West,5.8,260.0,60290.0
Chicago,Smoke,1970-01-26 21:00:00,26.1,,-,70.0,,30.02,,Illinois,35.1,,,3:00 PM,,,,,,,5.0,,SW,11.5,230.0,60290.0
Chicago,Smoke,1970-01-26 22:00:00,25.0,,-,70.0,,30.02,,Illinois,34.0,,,4:00 PM,,,,,,,6.0,,SSW,11.5,200.0,60290.0
Chicago,Smoke,1970-01-26 23:00:00,24.1,,-,70.0,,30.0,,Illinois,33.1,,,5:00 PM,,,,,,,6.0,,South,10.4,190.0,60290.0
Chicago,Smoke,1970-01-27 00:00:00,24.1,,-,76.0,,29.99,,Illinois,30.9,,,6:00 PM,,,,,,,6.0,,South,9.2,190.0,60290.0
Chicago,Fog,1970-01-27 01:00:00,25.0,Fog,-,79.0,,29.98,,Illinois,30.9,,,7:00 PM,,,,,,,4.0,,SSW,9.2,200.0,60290.0
Chicago,Smoke,1970-01-27 02:00:00,26.1,,-,79.0,,29.96,,Illinois,32.0,,,8:00 PM,,,,,,,5.0,,South,12.7,190.0,60290.0
Chicago,Smoke,1970-01-27 03:00:00,28.0,,-,82.0,,29.94,,Illinois,33.1,,,9:00 PM,,,,,,,4.0,,SSW,15.0,200.0,60290.0
Chicago,Fog,1970-01-27 04:00:00,30.0,Fog,-,89.0,,29.93,,Illinois,33.1,,,10:00 PM,,,,,,,3.0,,SW,15.0,230.0,60290.0
Chicago,Light Snow,1970-01-27 05:00:00,30.9,Fog-Snow,-,92.0,,29.9,,Illinois,33.1,,,11:00 PM,,,,,,,1.0,,South,13.8,190.0,60290.0
Chicago,Light Snow,1970-01-27 06:00:00,33.1,Fog-Snow,-,96.0,,29.87,,Illinois,34.0,,,12:00 AM,,,,,,,1.0,,SSW,15.0,200.0,60290.0
Chicago,Light Snow,1970-01-27 07:00:00,33.1,Fog-Snow,-,92.0,,29.84,,Illinois,35.1,,,1:00 AM,,,,,,,1.0,,SSW,15.0,200.0,60290.0
Chicago,Fog,1970-01-27 08:00:00,33.1,Fog,-,89.0,,29.83,,Illinois,36.0,,,2:00 AM,,,,,,,10.5,,WSW,16.1,240.0,60290.0
Chicago,Light Snow,1970-01-27 09:00:00,32.0,Fog-Snow,-,86.0,,29.83,,Illinois,36.0,,,3:00 AM,,,,,,,10.5,,WSW,17.3,250.0,60290.0
Chicago,Smoke,1970-01-27 10:00:00,30.0,,-,79.0,,29.85,,Illinois,36.0,,,4:00 AM,,,,,,,4.0,,West,17.3,280.0,60290.0
Chicago,Smoke,1970-01-27 11:00:00,27.0,,-,72.0,,29.9,,Illinois,35.1,,,5:00 AM,,,,,,,6.0,,WNW,21.9,290.0,60290.0
Chicago,Smoke,1970-01-27 12:00:00,26.1,,-,70.0,,29.93,,Illinois,35.1,,,6:00 AM,,,,,,,6.0,,NW,17.3,310.0,60290.0
Chicago,Smoke,1970-01-27 13:00:00,25.0,,-,70.0,,29.98,,Illinois,34.0,,,7:00 AM,,,,,,,6.0,,NW,16.1,310.0,60290.0
Chicago,Unknown,1970-01-27 14:00:00,23.0,,-,66.0,,30.03,,Illinois,33.1,,,8:00 AM,,,,,,,7.0,,WNW,18.4,300.0,60290.0
Chicago,Unknown,1970-01-27 15:00:00,21.9,,-,66.0,,30.05,,Illinois,32.0,,,9:00 AM,,,,,,,8.0,,NNW,13.8,330.0,60290.0
Chicago,Unknown,1970-01-27 16:00:00,21.9,,-,66.0,,30.08,,Illinois,32.0,,,10:00 AM,,,,,,,10.0,,WNW,9.2,300.0,60290.0
Chicago,Unknown,1970-01-27 17:00:00,21.9,,-,64.0,,30.09,,Illinois,33.1,,,11:00 AM,,,,,,,10.0,,West,10.4,260.0,60290.0
Chicago,Unknown,1970-01-27 18:00:00,21.9,,-,61.0,,30.08,,Illinois,34.0,,,12:00 PM,,,,,,,10.0,,West,4.6,260.0,60290.0
Chicago,Unknown,1970-01-27 19:00:00,23.0,,-,64.0,,30.08,,Illinois,34.0,,,1:00 PM,,,,,,,10.0,,WSW,9.2,240.0,60290.0
Chicago,Unknown,1970-01-27 20:00:00,23.0,,-,64.0,,30.07,,Illinois,34.0,,,2:00 PM,,,,,,,10.0,,West,6.9,260.0,60290.0
Chicago,Unknown,1970-01-27 21:00:00,23.0,,-,64.0,,30.08,,Illinois,34.0,,,3:00 PM,,,,,,,10.0,,South,8.1,180.0,60290.0
Chicago,Unknown,1970-01-27 22:00:00,23.0,,-,66.0,,30.09,,Illinois,33.1,,,4:00 PM,,,,,,,8.0,,South,9.2,180.0,60290.0
Chicago,Unknown,1970-01-27 23:00:00,23.0,,-,66.0,,30.04,,Illinois,33.1,,,5:00 PM,,,,,,,7.0,,South,8.1,170.0,60290.0
Chicago,Unknown,1970-01-28 00:00:00,24.1,,-,73.0,,30.03,,Illinois,32.0,,,6:00 PM,,,,,,,7.0,,SSE,11.5,160.0,60290.0
Chicago,Unknown,1970-01-28 01:00:00,25.0,,-,72.0,,30.0,,Illinois,33.1,,,7:00 PM,,,,,,,7.0,,SE,13.8,130.0,60290.0
Chicago,Unknown,1970-01-28 02:00:00,25.0,,-,72.0,,29.99,,Illinois,33.1,,,8:00 PM,,,,,,,7.0,,SSE,15.0,160.0,60290.0
Chicago,Unknown,1970-01-28 03:00:00,26.1,,-,75.0,,29.97,,Illinois,33.1,,,9:00 PM,,,,,,,7.0,,South,15.0,170.0,60290.0
Chicago,Unknown,1970-01-28 04:00:00,27.0,,-,75.0,,29.94,,Illinois,34.0,,,10:00 PM,,,,,,,7.0,,SSE,13.8,160.0,60290.0
Chicago,Unknown,1970-01-28 05:00:00,27.0,,-,72.0,,29.9,,Illinois,35.1,,,11:00 PM,,,,,,,10.0,,SSE,13.8,150.0,60290.0
Chicago,Unknown,1970-01-28 06:00:00,28.9,,-,78.0,,29.85,,Illinois,35.1,,,12:00 AM,,,,,,,10.0,,SSE,13.8,150.0,60290.0
Chicago,Unknown,1970-01-28 07:00:00,30.0,,-,79.0,,29.83,,Illinois,36.0,,,1:00 AM,,,,,,,10.0,,SE,11.5,140.0,60290.0
Chicago,Unknown,1970-01-28 08:00:00,30.0,,-,73.0,,29.76,,Illinois,37.9,,,2:00 AM,,,,,,,10.0,,SSE,15.0,160.0,60290.0
Chicago,Unknown,1970-01-28 09:00:00,28.9,,-,65.0,,29.68,,Illinois,39.9,,,3:00 AM,,,,,,,10.0,,SSE,17.3,160.0,60290.0
Chicago,Unknown,1970-01-28 10:00:00,28.0,,-,58.0,,29.66,,Illinois,42.1,,,4:00 AM,,,,,,,15.0,,SSE,23.0,160.0,60290.0
Chicago,Unknown,1970-01-28 11:00:00,28.9,,-,55.0,,29.56,,Illinois,44.1,,,5:00 AM,,,,,,,15.0,,South,21.9,170.0,60290.0
Chicago,Unknown,1970-01-28 12:00:00,30.0,,-,58.0,,29.55,,Illinois,44.1,,,6:00 AM,,,,,,,15.0,,South,21.9,180.0,60290.0
Chicago,Unknown,1970-01-28 13:00:00,32.0,,-,63.0,,29.53,,Illinois,44.1,,,7:00 AM,,,,,,,15.0,,South,20.7,170.0,60290.0
Chicago,Unknown,1970-01-28 14:00:00,33.1,,-,65.0,,29.51,,Illinois,44.1,,,8:00 AM,,,,,,,15.0,,South,17.3,180.0,60290.0
Chicago,Unknown,1970-01-28 15:00:00,35.1,,-,71.0,,29.47,,Illinois,44.1,,,9:00 AM,,,,,,,10.0,,South,16.1,170.0,60290.0
Chicago,Unknown,1970-01-28 16:00:00,39.0,,-,76.0,,29.43,,Illinois,46.0,,,10:00 AM,,,,,,,10.0,,South,21.9,180.0,60290.0
Chicago,Drizzle,1970-01-28 17:00:00,41.0,,-,83.0,,29.4,,Illinois,46.0,,,11:00 AM,,,,,,,4.0,,South,23.0,190.0,60290.0
Chicago,Fog,1970-01-28 18:00:00,43.0,Fog,-,86.0,,29.36,,Illinois,46.9,,,12:00 PM,,,,,,,3.0,,South,23.0,190.0,60290.0
Chicago,Fog,1970-01-28 19:00:00,44.1,Fog,-,83.0,,29.33,,Illinois,48.9,,,1:00 PM,,,,,,,3.0,,South,18.4,190.0,60290.0
Chicago,Fog,1970-01-28 20:00:00,45.0,Fog,-,83.0,,29.33,,Illinois,50.0,,,2:00 PM,,,,,,,3.0,,South,18.4,190.0,60290.0
Chicago,Fog,1970-01-28 21:00:00,46.9,Fog,-,80.0,,29.36,,Illinois,53.1,,,3:00 PM,,,,,,,3.0,,SW,19.6,220.0,60290.0
Chicago,Smoke,1970-01-28 22:00:00,44.1,,-,83.0,,29.42,,Illinois,48.9,,,4:00 PM,,,,,,,3.0,,SW,19.6,230.0,60290.0
Chicago,Smoke,1970-01-28 23:00:00,39.9,,-,82.0,,29.46,,Illinois,45.0,,,5:00 PM,,,,,,,2.0,,SW,18.4,230.0,60290.0
Chicago,Smoke,1970-01-29 00:00:00,37.9,,-,82.0,,29.51,,Illinois,43.0,,,6:00 PM,,,,,,,2.0,,SW,18.4,230.0,60290.0
Chicago,Smoke,1970-01-29 01:00:00,36.0,,-,79.0,,29.57,,Illinois,42.1,,,7:00 PM,,,,,,,3.0,,West,13.8,260.0,60290.0
Chicago,Smoke,1970-01-29 02:00:00,35.1,,-,79.0,,29.6,,Illinois,41.0,,,8:00 PM,,,,,,,3.0,,WSW,17.3,250.0,60290.0
Chicago,Smoke,1970-01-29 03:00:00,34.0,,-,76.0,,29.6,,Illinois,41.0,,,9:00 PM,,,,,,,3.0,,West,15.0,270.0,60290.0
Chicago,Smoke,1970-01-29 04:00:00,32.0,,-,73.0,,29.62,,Illinois,39.9,,,10:00 PM,,,,,,,3.0,,West,13.8,280.0,60290.0
Chicago,Smoke,1970-01-29 05:00:00,33.1,,-,79.0,,29.62,,Illinois,39.0,,,11:00 PM,,,,,,,3.0,,WNW,17.3,290.0,60290.0
Chicago,Light Drizzle,1970-01-29 06:00:00,34.0,,-,86.0,,29.64,,Illinois,37.9,,,12:00 AM,,,,,,,3.0,,NW,17.3,310.0,60290.0
Chicago,Smoke,1970-01-29 07:00:00,32.0,,-,79.0,,29.69,,Illinois,37.9,,,1:00 AM,,,,,,,3.0,,West,9.2,260.0,60290.0
Chicago,Smoke,1970-01-29 08:00:00,33.1,,-,83.0,,29.73,,Illinois,37.9,,,2:00 AM,,,,,,,3.0,,West,10.4,260.0,60290.0
Chicago,Smoke,1970-01-29 09:00:00,34.0,,-,86.0,,29.74,,Illinois,37.9,,,3:00 AM,,,,,,,3.0,,NW,11.5,310.0,60290.0
Chicago,Light Drizzle,1970-01-29 10:00:00,35.1,Fog,-,93.0,,29.74,,Illinois,37.0,,,4:00 AM,,,,,,,3.0,,West,8.1,280.0,60290.0
Chicago,Fog,1970-01-29 11:00:00,34.0,Fog,-,89.0,,29.77,,Illinois,37.0,,,5:00 AM,,,,,,,3.0,,West,6.9,270.0,60290.0
Chicago,Smoke,1970-01-29 12:00:00,32.0,,-,82.0,,29.78,,Illinois,37.0,,,6:00 AM,,,,,,,4.0,,West,11.5,280.0,60290.0
Chicago,Smoke,1970-01-29 13:00:00,30.0,,-,79.0,,29.8,,Illinois,36.0,,,7:00 AM,,,,,,,4.0,,West,13.8,280.0,60290.0
Chicago,Light Drizzle,1970-01-29 14:00:00,30.0,,-,79.0,,29.83,,Illinois,36.0,,,8:00 AM,,,,,,,3.0,,WNW,11.5,290.0,60290.0
Chicago,Light Drizzle,1970-01-29 15:00:00,28.9,Snow,-,76.0,,29.85,,Illinois,36.0,,,9:00 AM,,,,,,,3.0,,WNW,11.5,300.0,60290.0
Chicago,Light Snow,1970-01-29 16:00:00,30.0,Snow,-,79.0,,29.86,,Illinois,36.0,,,10:00 AM,,,,,,,5.5,,NW,10.4,320.0,60290.0
Chicago,Light Snow,1970-01-29 17:00:00,25.0,Snow,-,72.0,0.01,29.91,,Illinois,33.1,,,11:00 AM,,,,,,,4.0,,North,17.3,360.0,60290.0
Chicago,Light Snow,1970-01-29 18:00:00,23.0,Snow,-,75.0,0.03,29.95,,Illinois,30.0,,,12:00 PM,,,,,,,1.0,,North,17.3,360.0,60290.0
Chicago,Light Snow,1970-01-29 19:00:00,21.9,Snow,-,75.0,,29.97,,Illinois,28.9,,,1:00 PM,,,,,,,5.5,,North,13.8,360.0,60290.0
Chicago,Smoke,1970-01-29 20:00:00,19.9,,-,69.0,,30.0,,Illinois,28.9,,,2:00 PM,,,,,,,6.0,,NW,15.0,310.0,60290.0
Chicago,Smoke,1970-01-29 21:00:00,19.0,,-,72.0,,30.05,,Illinois,27.0,,,3:00 PM,,,,,,,6.0,,NW,15.0,320.0,60290.0
Chicago,Unknown,1970-01-29 22:00:00,15.1,,-,61.0,,30.09,,Illinois,27.0,,,4:00 PM,,,,,,,7.0,,NW,11.5,320.0,60290.0
Chicago,Unknown,1970-01-29 23:00:00,12.9,,-,60.0,,30.12,,Illinois,25.0,,,5:00 PM,,,,,,,10.0,,NW,16.1,310.0,60290.0
Chicago,Unknown,1970-01-30 00:00:00,12.0,,-,60.0,,30.16,,Illinois,24.1,,,6:00 PM,,,,,,,10.0,,NW,16.1,310.0,60290.0
Chicago,Clear,1970-01-30 01:00:00,10.9,,-,60.0,,30.19,,Illinois,23.0,,,7:00 PM,,,,,,,10.0,,WNW,11.5,290.0,60290.0
Chicago,Clear,1970-01-30 02:00:00,10.9,,-,63.0,,30.2,,Illinois,21.9,,,8:00 PM,,,,,,,15.0,,NW,6.9,310.0,60290.0
Chicago,Unknown,1970-01-30 03:00:00,12.9,,-,65.0,,30.22,,Illinois,23.0,,,9:00 PM,,,,,,,15.0,,West,6.9,260.0,60290.0
Chicago,Unknown,1970-01-30 04:00:00,12.9,,-,62.0,,30.22,,Illinois,24.1,,,10:00 PM,,,,,,,15.0,,WNW,9.2,300.0,60290.0
Chicago,Unknown,1970-01-30 05:00:00,12.0,,-,63.0,,30.23,,Illinois,23.0,,,11:00 PM,,,,,,,15.0,,WNW,10.4,300.0,60290.0
Chicago,Unknown,1970-01-30 06:00:00,12.0,,-,66.0,,30.24,,Illinois,21.9,,,12:00 AM,,,,,,,15.0,,WNW,9.2,290.0,60290.0
Chicago,Clear,1970-01-30 07:00:00,10.9,,-,68.0,,30.24,,Illinois,19.9,,,1:00 AM,,,,,,,15.0,,West,9.2,280.0,60290.0
Chicago,Clear,1970-01-30 08:00:00,10.0,,-,71.0,,30.24,,Illinois,18.0,,,2:00 AM,,,,,,,15.0,,SW,5.8,230.0,60290.0
Chicago,Unknown,1970-01-30 09:00:00,10.9,,-,71.0,,30.24,,Illinois,19.0,,,3:00 AM,,,,,,,15.0,,SW,8.1,230.0,60290.0
Chicago,Unknown,1970-01-30 10:00:00,10.0,,-,68.0,,30.23,,Illinois,19.0,,,4:00 AM,,,,,,,15.0,,WSW,8.1,240.0,60290.0
Chicago,Unknown,1970-01-30 11:00:00,10.0,,-,68.0,,30.22,,Illinois,19.0,,,5:00 AM,,,,,,,15.0,,SSW,9.2,210.0,60290.0
Chicago,Unknown,1970-01-30 12:00:00,10.0,,-,68.0,,30.21,,Illinois,19.0,,,6:00 AM,,,,,,,15.0,,SW,9.2,230.0,60290.0
Chicago,Light Snow,1970-01-30 13:00:00,12.0,Snow,-,71.0,,30.21,,Illinois,19.9,,,7:00 AM,,,,,,,7.0,,SW,9.2,220.0,60290.0
Chicago,Light Snow,1970-01-30 14:00:00,14.0,Snow,-,74.0,0.01,30.22,,Illinois,21.0,,,8:00 AM,,,,,,,10.5,,SSW,8.1,210.0,60290.0
Chicago,Light Snow,1970-01-30 15:00:00,15.1,Snow,-,75.0,0.01,30.22,,Illinois,21.9,,,9:00 AM,,,,,,,5.5,,SW,9.2,230.0,60290.0
Chicago,Light Snow,1970-01-30 16:00:00,18.0,Snow,-,75.0,,30.21,,Illinois,25.0,,,10:00 AM,,,,,,,4.0,,WSW,9.2,240.0,60290.0
Chicago,Light Snow,1970-01-30 17:00:00,18.0,Snow,-,71.0,,30.2,,Illinois,26.1,,,11:00 AM,,,,,,,4.0,,West,13.8,260.0,60290.0
Chicago,Smoke,1970-01-30 18:00:00,19.0,,-,72.0,,30.19,,Illinois,27.0,,,12:00 PM,,,,,,,4.0,,West,12.7,260.0,60290.0
Chicago,Unknown,1970-01-30 19:00:00,19.0,,-,69.0,,30.18,,Illinois,28.0,,,1:00 PM,,,,,,,7.0,,WSW,11.5,250.0,60290.0
Chicago,Unknown,1970-01-30 20:00:00,18.0,,-,64.0,,30.18,,Illinois,28.9,,,2:00 PM,,,,,,,8.0,,WSW,15.0,250.0,60290.0
Chicago,Unknown,1970-01-30 21:00:00,18.0,,-,64.0,,30.18,,Illinois,28.9,,,3:00 PM,,,,,,,10.0,,WSW,13.8,250.0,60290.0
Chicago,Unknown,1970-01-30 22:00:00,19.0,,-,67.0,,30.18,,Illinois,28.9,,,4:00 PM,,,,,,,10.0,,SW,11.5,230.0,60290.0
Chicago,Unknown,1970-01-30 23:00:00,19.0,,-,67.0,,30.18,,Illinois,28.9,,,5:00 PM,,,,,,,10.0,,SW,10.4,230.0,60290.0
Chicago,Unknown,1970-01-31 00:00:00,19.0,,-,69.0,,30.16,,Illinois,28.0,,,6:00 PM,,,,,,,10.0,,SSW,9.2,210.0,60290.0
Chicago,Unknown,1970-01-31 01:00:00,21.0,,-,75.0,,30.15,,Illinois,28.0,,,7:00 PM,,,,,,,10.0,,South,9.2,190.0,60290.0
Chicago,Unknown,1970-01-31 02:00:00,21.0,,-,72.0,,30.13,,Illinois,28.9,,,8:00 PM,,,,,,,10.0,,SSW,9.2,200.0,60290.0
Chicago,Unknown,1970-01-31 03:00:00,23.0,,-,69.0,,30.12,,Illinois,32.0,,,9:00 PM,,,,,,,10.0,,SSW,11.5,200.0,60290.0
Chicago,Unknown,1970-01-31 04:00:00,23.0,,-,66.0,,30.11,,Illinois,33.1,,,10:00 PM,,,,,,,10.0,,SW,12.7,230.0,60290.0
Chicago,Clear,1970-01-31 05:00:00,21.9,,-,64.0,,30.1,,Illinois,33.1,,,11:00 PM,,,,,,,10.0,,SW,13.8,230.0,60290.0
Chicago,Clear,1970-01-31 06:00:00,21.9,,-,66.0,,30.1,,Illinois,32.0,,,12:00 AM,,,,,,,10.0,,SW,10.4,230.0,60290.0
Chicago,Clear,1970-01-31 07:00:00,21.9,,-,69.0,,30.1,,Illinois,30.9,,,1:00 AM,,,,,,,10.0,,SW,10.4,230.0,60290.0
Chicago,Clear,1970-01-31 08:00:00,21.0,,-,67.0,,30.1,,Illinois,30.9,,,2:00 AM,,,,,,,10.0,,SW,11.5,230.0,60290.0
Chicago,Clear,1970-01-31 09:00:00,21.0,,-,67.0,,30.1,,Illinois,30.9,,,3:00 AM,,,,,,,10.0,,WSW,9.2,240.0,60290.0
Chicago,Clear,1970-01-31 10:00:00,19.9,,-,64.0,,30.08,,Illinois,30.9,,,4:00 AM,,,,,,,10.0,,SW,10.4,230.0,60290.0
Chicago,Clear,1970-01-31 11:00:00,19.9,,-,66.0,,30.06,,Illinois,30.0,,,5:00 AM,,,,,,,10.0,,SW,8.1,230.0,60290.0
Chicago,Clear,1970-01-31 12:00:00,19.9,,-,66.0,,30.05,,Illinois,30.0,,,6:00 AM,,,,,,,10.0,,SW,11.5,230.0,60290.0
Chicago,Clear,1970-01-31 13:00:00,19.9,,-,64.0,,30.05,,Illinois,30.9,,,7:00 AM,,,,,,,10.0,,SW,11.5,220.0,60290.0
Chicago,Clear,1970-01-31 14:00:00,21.0,,-,64.0,,30.06,,Illinois,32.0,,,8:00 AM,,,,,,,15.0,,SSW,13.8,200.0,60290.0
Chicago,Clear,1970-01-31 15:00:00,21.0,,-,59.0,,30.05,,Illinois,34.0,,,9:00 AM,,,,,,,15.0,,SW,13.8,230.0,60290.0
Chicago,Clear,1970-01-31 16:00:00,21.0,,-,55.0,,30.04,,Illinois,36.0,,,10:00 AM,,,,,,,15.0,,WSW,19.6,240.0,60290.0
Chicago,Clear,1970-01-31 17:00:00,23.0,,-,53.0,,30.04,,Illinois,39.0,,,11:00 AM,,,,,,,15.0,,WSW,18.4,240.0,60290.0
Chicago,Unknown,1970-01-31 18:00:00,24.1,,-,51.0,,30.02,,Illinois,41.0,,,12:00 PM,,,,,,,15.0,,WSW,20.7,240.0,60290.0
Chicago,Unknown,1970-01-31 19:00:00,23.0,,-,47.0,,29.98,,Illinois,42.1,,,1:00 PM,,,,,,,15.0,,WSW,17.3,250.0,60290.0
Chicago,Unknown,1970-01-31 20:00:00,26.1,,-,49.0,,29.96,,Illinois,44.1,,,2:00 PM,,,,,,,15.0,,WSW,16.1,240.0,60290.0
Chicago,Unknown,1970-01-31 21:00:00,26.1,,-,46.0,,29.93,,Illinois,46.0,,,3:00 PM,,,,,,,15.0,,WSW,15.0,240.0,60290.0
Chicago,Unknown,1970-01-31 22:00:00,28.0,,-,50.0,,29.92,,Illinois,46.0,,,4:00 PM,,,,,,,15.0,,South,16.1,190.0,60290.0
Chicago,Unknown,1970-01-31 23:00:00,28.0,,-,56.0,,29.94,,Illinois,43.0,,,5:00 PM,,,,,,,15.0,,SSW,16.1,210.0,60290.0
Chicago,Unknown,1970-02-01 00:00:00,28.0,,-,60.0,,29.95,,Illinois,41.0,,,6:00 PM,,,,,,,15.0,,SSW,13.8,200.0,60290.0
Chicago,Unknown,1970-02-01 01:00:00,28.0,,-,65.0,,29.95,,Illinois,39.0,,,7:00 PM,,,,,,,8.0,,SSW,13.8,200.0,60290.0
Chicago,Clear,1970-02-01 02:00:00,28.0,,-,65.0,,29.94,,Illinois,39.0,,,8:00 PM,,,,,,,8.0,,SSW,13.8,210.0,60290.0
Chicago,Clear,1970-02-01 03:00:00,27.0,,-,65.0,,29.95,,Illinois,37.9,,,9:00 PM,,,,,,,10.0,,SSW,10.4,210.0,60290.0
Chicago,Clear,1970-02-01 04:00:00,27.0,,-,62.0,,29.93,,Illinois,39.0,,,10:00 PM,,,,,,,10.0,,SSW,11.5,210.0,60290.0
Chicago,Clear,1970-02-01 05:00:00,26.1,,-,60.0,,29.91,,Illinois,39.0,,,11:00 PM,,,,,,,10.0,,SSW,12.7,210.0,60290.0
Colorado Springs,Light Snow,1970-01-01 09:00:00,15.1,Snow,-,96.0,,30.12,,Colorado,16.0,,,,,2:00 AM,,,,,5.5,,NW,8.1,320.0,80202.0
Colorado Springs,Unknown,1970-01-01 12:00:00,10.9,,-,84.0,,30.14,,Colorado,15.1,,,,,5:00 AM,,,,,15.0,,NW,9.2,320.0,80202.0
Colorado Springs,Unknown,1970-01-01 15:00:00,5.0,,-,67.0,,30.21,,Colorado,14.0,,,,,8:00 AM,,,,,45.0,,NNW,11.5,340.0,80202.0
Colorado Springs,Unknown,1970-01-01 18:00:00,9.0,,-,65.0,,30.22,,Colorado,19.0,,,,,11:00 AM,,,,,45.0,,NNW,16.1,340.0,80202.0
Colorado Springs,Unknown,1970-01-01 21:00:00,7.0,,-,59.0,,30.17,,Colorado,19.0,,,,,2:00 PM,,,,,45.0,,North,13.8,360.0,80202.0
Colorado Springs,Unknown,1970-01-02 00:00:00,6.1,,-,71.0,,30.24,,Colorado,14.0,,,,,5:00 PM,,,,,6.0,,Calm,Calm,0.0,80202.0
Colorado Springs,Clear,1970-01-02 03:00:00,-4.0,,-,58.0,,30.3,,Colorado,8.1,,,,,8:00 PM,,,,,15.0,,NNE,6.9,30.0,80202.0
Colorado Springs,Clear,1970-01-02 06:00:00,-8.0,,-,58.0,,30.3,,Colorado,3.9,,,,,11:00 PM,,,,,15.0,,NNE,9.2,30.0,80202.0
Colorado Springs,Clear,1970-01-03 09:00:00,-9.9,,-,46.0,,30.21,,Colorado,7.0,,,,,2:00 AM,,,,,15.0,,North,11.5,360.0,80202.0
Colorado Springs,Clear,1970-01-03 12:00:00,-11.0,,-,44.0,,30.16,,Colorado,7.0,,,,,5:00 AM,,,,,15.0,,NNE,6.9,30.0,80202.0
Colorado Springs,Unknown,1970-01-03 15:00:00,-9.0,,-,46.0,,30.22,,Colorado,8.1,,,,,8:00 AM,,,,,6.0,,ENE,6.9,60.0,80202.0
Colorado Springs,Unknown,1970-01-03 18:00:00,-4.0,,-,32.0,,30.14,,Colorado,21.9,,,,,11:00 AM,,,,,6.0,,West,16.1,270.0,80202.0
Colorado Springs,Clear,1970-01-03 21:00:00,-5.1,,-,33.0,,30.12,,Colorado,19.9,,,,,2:00 PM,,,,,6.0,,North,6.9,350.0,80202.0
Colorado Springs,Clear,1970-01-04 00:00:00,-4.0,,-,43.0,,30.16,,Colorado,15.1,,,,,5:00 PM,,,,,6.0,,SE,6.9,140.0,80202.0
Colorado Springs,Clear,1970-01-04 03:00:00,-8.0,,-,41.0,,30.13,,Colorado,12.0,,,,,8:00 PM,,,,,15.0,,North,3.5,350.0,80202.0
Colorado Springs,Clear,1970-01-04 06:00:00,-13.0,,-,40.0,,30.04,,Colorado,7.0,,,,,11:00 PM,,,,,15.0,,ENE,9.2,60.0,80202.0
Colorado Springs,Clear,1970-01-04 09:00:00,-11.0,,-,40.0,,29.97,,Colorado,9.0,,,,,2:00 AM,,,,,15.0,,East,12.7,80.0,80202.0
Colorado Springs,Clear,1970-01-04 12:00:00,-13.0,,-,32.0,,29.95,,Colorado,12.0,,,,,5:00 AM,,,,,15.0,,ENE,4.6,60.0,80202.0
Colorado Springs,Clear,1970-01-04 15:00:00,-11.0,,-,40.0,,30.0,,Colorado,9.0,,,,,8:00 AM,,,,,6.0,,ENE,9.2,60.0,80202.0
Colorado Springs,Clear,1970-01-04 18:00:00,3.0,,-,33.0,,29.92,,Colorado,28.9,,,,,11:00 AM,,,,,6.0,,East,9.2,100.0,80202.0
Colorado Springs,Clear,1970-01-04 21:00:00,10.0,,-,51.0,,29.92,,Colorado,26.1,,,,,2:00 PM,,,,,6.0,,ENE,17.3,70.0,80202.0
Colorado Springs,Clear,1970-01-05 00:00:00,3.0,,-,46.0,,29.99,,Colorado,21.0,,,,,5:00 PM,,,,,6.0,,NE,13.8,40.0,80202.0
Colorado Springs,Clear,1970-01-05 03:00:00,3.0,,-,67.0,,30.2,,Colorado,12.0,,,,,8:00 PM,,,,,15.0,,NNW,12.7,340.0,80202.0
Colorado Springs,Unknown,1970-01-05 06:00:00,1.9,,-,76.0,,30.21,,Colorado,8.1,,,,,11:00 PM,,,,,15.0,,NNW,5.8,330.0,80202.0
Colorado Springs,Light Snow,1970-01-05 09:00:00,3.9,Snow,-,83.0,,30.27,,Colorado,8.1,,,,,2:00 AM,,,,,8.0,,NE,3.5,50.0,80202.0
Colorado Springs,Light Snow,1970-01-05 12:00:00,-0.9,Snow,-,91.0,,30.33,,Colorado,1.0,,,,,5:00 AM,,,,,6.0,,NE,5.8,40.0,80202.0
Colorado Springs,Light Snow,1970-01-05 15:00:00,1.9,Snow,-,87.0,,30.44,,Colorado,5.0,,,,,8:00 AM,,,,,3.0,,SE,5.8,140.0,80202.0
Colorado Springs,Light Snow,1970-01-05 18:00:00,-0.0,Snow,-,76.0,,30.5,,Colorado,6.1,,,,,11:00 AM,,,,,7.0,,SE,6.9,130.0,80202.0
Colorado Springs,Light Snow,1970-01-05 21:00:00,1.0,Snow,-,80.0,,30.46,,Colorado,6.1,,,,,2:00 PM,,,,,7.0,,SE,6.9,130.0,80202.0
Colorado Springs,Unknown,1970-01-06 00:00:00,-0.0,,-,91.0,,30.57,,Colorado,1.9,,,,,5:00 PM,,,,,15.0,,SSE,4.6,150.0,80202.0
Colorado Springs,Clear,1970-01-06 03:00:00,-7.1,,-,82.0,,30.62,,Colorado,-2.9,,,,,8:00 PM,,,,,15.0,,NNE,5.8,30.0,80202.0
Colorado Springs,Clear,1970-01-06 06:00:00,-7.1,,-,95.0,,30.64,,Colorado,-6.0,,,,,11:00 PM,,,,,15.0,,NNE,6.9,30.0,80202.0
Colorado Springs,Clear,1970-01-06 09:00:00,-11.9,,-,75.0,,30.66,,Colorado,-6.0,,,,,2:00 AM,,,,,15.0,,NNE,9.2,30.0,80202.0
Colorado Springs,Clear,1970-01-06 12:00:00,-16.1,,-,68.0,,30.67,,Colorado,-8.0,,,,,5:00 AM,,,,,15.0,,NE,8.1,40.0,80202.0
Colorado Springs,Clear,1970-01-06 15:00:00,-15.0,,-,68.0,,30.76,,Colorado,-7.1,,,,,8:00 AM,,,,,60.0,,NE,8.1,40.0,80202.0
Colorado Springs,Clear,1970-01-06 18:00:00,-2.9,,-,59.0,,30.68,,Colorado,9.0,,,,,11:00 AM,,,,,60.0,,Calm,Calm,0.0,80202.0
Colorado Springs,Unknown,1970-01-06 21:00:00,-0.9,,-,64.0,,30.61,,Colorado,9.0,,,,,2:00 PM,,,,,60.0,,South,5.8,170.0,80202.0
Colorado Springs,Clear,1970-01-07 00:00:00,-2.9,,-,67.0,,30.62,,Colorado,6.1,,,,,5:00 PM,,,,,60.0,,ESE,3.5,110.0,80202.0
Colorado Springs,Clear,1970-01-07 03:00:00,-9.9,,-,63.0,,30.6,,Colorado,-0.0,,,,,8:00 PM,,,,,15.0,,NNE,8.1,20.0,80202.0
Colorado Springs,Unknown,1970-01-07 06:00:00,-11.9,,-,55.0,,30.48,,Colorado,1.0,,,,,11:00 PM,,,,,15.0,,NE,8.1,40.0,80202.0
Colorado Springs,Unknown,1970-01-07 09:00:00,-11.9,,-,52.0,,30.43,,Colorado,1.9,,,,,2:00 AM,,,,,15.0,,NE,9.2,50.0,80202.0
Colorado Springs,Clear,1970-01-07 12:00:00,-9.9,,-,50.0,,30.39,,Colorado,5.0,,,,,5:00 AM,,,,,15.0,,NE,9.2,40.0,80202.0
Colorado Springs,Unknown,1970-01-07 15:00:00,-11.0,,-,50.0,,30.49,,Colorado,3.9,,,,,8:00 AM,,,,,6.0,,WNW,3.5,300.0,80202.0
Colorado Springs,Clear,1970-01-07 18:00:00,-4.0,,-,38.0,,30.43,,Colorado,18.0,,,,,11:00 AM,,,,,6.0,,South,4.6,180.0,80202.0
Colorado Springs,Unknown,1970-01-07 21:00:00,-2.9,,-,45.0,,30.38,,Colorado,15.1,,,,,2:00 PM,,,,,6.0,,SSE,5.8,150.0,80202.0
Colorado Springs,Unknown,1970-01-08 00:00:00,-6.0,,-,53.0,,30.43,,Colorado,8.1,,,,,5:00 PM,,,,,6.0,,Calm,Calm,0.0,80202.0
Colorado Springs,Unknown,1970-01-08 03:00:00,-11.9,,-,57.0,,30.45,,Colorado,-0.0,,,,,8:00 PM,,,,,15.0,,NNE,8.1,30.0,80202.0
Colorado Springs,Unknown,1970-01-08 06:00:00,-11.9,,-,57.0,,30.38,,Colorado,-0.0,,,,,11:00 PM,,,,,15.0,,ENE,6.9,60.0,80202.0
Colorado Springs,Clear,1970-01-08 09:00:00,-11.9,,-,57.0,,30.44,,Colorado,-0.0,,,,,2:00 AM,,,,,15.0,,NE,9.2,50.0,80202.0
Colorado Springs,Unknown,1970-01-08 12:00:00,-11.9,,-,63.0,,30.52,,Colorado,-2.0,,,,,5:00 AM,,,,,15.0,,NE,5.8,40.0,80202.0
Colorado Springs,Unknown,1970-01-08 15:00:00,-9.9,,-,69.0,,30.61,,Colorado,-2.0,,,,,8:00 AM,,,,,6.0,,Calm,Calm,0.0,80202.0
Colorado Springs,Unknown,1970-01-08 18:00:00,-5.1,,-,60.0,,30.62,,Colorado,6.1,,,,,11:00 AM,,,,,60.0,,South,4.6,170.0,80202.0
Colorado Springs,Unknown,1970-01-08 21:00:00,-5.1,,-,63.0,,30.56,,Colorado,5.0,,,,,2:00 PM,,,,,60.0,,Calm,Calm,0.0,80202.0
Colorado Springs,Unknown,1970-01-09 00:00:00,-5.1,,-,72.0,,30.58,,Colorado,1.9,,,,,5:00 PM,,,,,60.0,,Calm,Calm,0.0,80202.0
Colorado Springs,Unknown,1970-01-09 03:00:00,-8.0,,-,69.0,,30.61,,Colorado,-0.0,,,,,8:00 PM,,,,,15.0,,NE,5.8,40.0,80202.0
Colorado Springs,Unknown,1970-01-09 06:00:00,-11.0,,-,57.0,,30.53,,Colorado,1.0,,,,,11:00 PM,,,,,15.0,,NNE,5.8,30.0,80202.0
Colorado Springs,Clear,1970-01-09 09:00:00,-9.0,,-,52.0,,30.51,,Colorado,5.0,,,,,2:00 AM,,,,,15.0,,NNE,3.5,20.0,80202.0
Colorado Springs,Unknown,1970-01-09 12:00:00,-0.0,,-,56.0,,30.44,,Colorado,12.9,,,,,5:00 AM,,,,,15.0,,North,8.1,10.0,80202.0
Colorado Springs,Unknown,1970-01-09 15:00:00,1.9,,-,64.0,,30.45,,Colorado,12.0,,,,,8:00 AM,,,,,6.0,,South,3.5,170.0,80202.0
Colorado Springs,Unknown,1970-01-09 18:00:00,10.0,,-,65.0,,30.37,,Colorado,19.9,,,,,11:00 AM,,,,,6.0,,South,3.5,170.0,80202.0
Colorado Springs,Unknown,1970-01-09 21:00:00,15.1,,-,58.0,,30.21,,Colorado,28.0,,,,,2:00 PM,,,,,6.0,,East,6.9,80.0,80202.0
Colorado Springs,Unknown,1970-01-10 00:00:00,15.1,,-,58.0,,30.11,,Colorado,28.0,,,,,5:00 PM,,,,,6.0,,ENE,9.2,70.0,80202.0
Colorado Springs,Unknown,1970-01-10 03:00:00,14.0,,-,58.0,,30.07,,Colorado,27.0,,,,,8:00 PM,,,,,15.0,,ENE,10.4,60.0,80202.0
Colorado Springs,Unknown,1970-01-10 06:00:00,17.1,,-,59.0,,29.96,,Colorado,30.0,,,,,11:00 PM,,,,,15.0,,ENE,11.5,60.0,80202.0
Colorado Springs,Unknown,1970-01-10 09:00:00,12.9,,-,49.0,,29.9,,Colorado,30.0,,,,,2:00 AM,,,,,15.0,,East,11.5,80.0,80202.0
Colorado Springs,Unknown,1970-01-10 12:00:00,15.1,,-,41.0,,29.79,,Colorado,37.0,,,,,5:00 AM,,,,,15.0,,NNW,17.3,330.0,80202.0
Colorado Springs,Unknown,1970-01-10 15:00:00,17.1,,-,46.0,,29.78,,Colorado,36.0,,,,,8:00 AM,,,,,6.0,,West,13.8,280.0,80202.0
Colorado Springs,Unknown,1970-01-10 18:00:00,24.1,,-,45.0,,29.7,,Colorado,44.1,,,,,11:00 AM,,,,,6.0,,WNW,10.4,300.0,80202.0
Colorado Springs,Unknown,1970-01-10 21:00:00,21.9,,-,42.0,,29.63,,Colorado,44.1,,,,,2:00 PM,,,,,6.0,,South,4.6,180.0,80202.0
Colorado Springs,Unknown,1970-01-11 00:00:00,21.9,,-,39.0,,29.6,,Colorado,46.0,,,,,5:00 PM,,,,,6.0,,NW,17.3,310.0,80202.0
Colorado Springs,Unknown,1970-01-11 03:00:00,21.0,,-,52.0,,29.75,,Colorado,37.0,,,,,8:00 PM,,,,,15.0,,North,15.0,350.0,80202.0
Colorado Springs,Unknown,1970-01-11 06:00:00,21.9,,-,59.0,,29.87,,Colorado,35.1,,,,,11:00 PM,,,,,15.0,,NNW,9.2,340.0,80202.0
Colorado Springs,Clear,1970-01-11 09:00:00,16.0,,-,56.0,,29.92,,Colorado,30.0,,,,,2:00 AM,,,,,15.0,,North,11.5,10.0,80202.0
Colorado Springs,Unknown,1970-01-11 12:00:00,14.0,,-,58.0,,29.96,,Colorado,27.0,,,,,5:00 AM,,,,,15.0,,NNE,10.4,20.0,80202.0
Colorado Springs,Unknown,1970-01-11 15:00:00,12.9,,-,60.0,,30.07,,Colorado,25.0,,,,,8:00 AM,,,,,6.0,,SE,4.6,130.0,80202.0
Colorado Springs,Unknown,1970-01-11 18:00:00,21.9,,-,69.0,,30.07,,Colorado,30.9,,,,,11:00 AM,,,,,6.0,,South,10.4,170.0,80202.0
Colorado Springs,Unknown,1970-01-11 21:00:00,23.0,,-,66.0,,29.99,,Colorado,33.1,,,,,2:00 PM,,,,,6.0,,ESE,4.6,120.0,80202.0
Colorado Springs,Unknown,1970-01-12 00:00:00,23.0,,-,69.0,,30.03,,Colorado,32.0,,,,,5:00 PM,,,,,6.0,,Calm,Calm,0.0,80202.0
Colorado Springs,Unknown,1970-01-12 03:00:00,19.9,,-,75.0,,30.04,,Colorado,27.0,,,,,8:00 PM,,,,,15.0,,NNE,9.2,30.0,80202.0
Colorado Springs,Clear,1970-01-12 06:00:00,19.0,,-,75.0,,30.02,,Colorado,26.1,,,,,11:00 PM,,,,,15.0,,NNE,9.2,30.0,80202.0
Colorado Springs,Clear,1970-01-12 09:00:00,14.0,,-,51.0,,29.98,,Colorado,30.0,,,,,2:00 AM,,,,,15.0,,North,15.0,10.0,80202.0
Colorado Springs,Unknown,1970-01-12 12:00:00,14.0,,-,51.0,,30.0,,Colorado,30.0,,,,,5:00 AM,,,,,15.0,,North,10.4,10.0,80202.0
Colorado Springs,Unknown,1970-01-12 15:00:00,14.0,,-,48.0,,30.06,,Colorado,32.0,,,,,8:00 AM,,,,,6.0,,North,13.8,360.0,80202.0
Colorado Springs,Unknown,1970-01-12 18:00:00,15.1,,-,34.0,,30.06,,Colorado,42.1,,,,,11:00 AM,,,,,6.0,,ENE,6.9,60.0,80202.0
Colorado Springs,Unknown,1970-01-12 21:00:00,19.0,,-,40.0,,30.01,,Colorado,42.1,,,,,2:00 PM,,,,,6.0,,South,10.4,170.0,80202.0
Colorado Springs,Clear,1970-01-13 00:00:00,19.9,,-,54.0,,30.07,,Colorado,35.1,,,,,5:00 PM,,,,,6.0,,ESE,4.6,120.0,80202.0
Colorado Springs,Clear,1970-01-13 03:00:00,19.0,,-,69.0,,30.12,,Colorado,28.0,,,,,8:00 PM,,,,,15.0,,NNW,4.6,340.0,80202.0
Colorado Springs,Clear,1970-01-13 06:00:00,17.1,,-,72.0,,30.09,,Colorado,25.0,,,,,11:00 PM,,,,,15.0,,NE,6.9,50.0,80202.0
Colorado Springs,Clear,1970-01-13 09:00:00,16.0,,-,74.0,,30.09,,Colorado,23.0,,,,,2:00 AM,,,,,15.0,,NNE,9.2,30.0,80202.0
Colorado Springs,Clear,1970-01-13 12:00:00,12.9,,-,68.0,,30.09,,Colorado,21.9,,,,,5:00 AM,,,,,15.0,,NNE,11.5,20.0,80202.0
Colorado Springs,Unknown,1970-01-13 15:00:00,12.9,,-,58.0,,30.12,,Colorado,26.1,,,,,8:00 AM,,,,,6.0,,North,10.4,10.0,80202.0
Colorado Springs,Unknown,1970-01-13 18:00:00,19.9,,-,41.0,,30.06,,Colorado,42.1,,,,,11:00 AM,,,,,6.0,,Calm,Calm,0.0,80202.0
Colorado Springs,Unknown,1970-01-13 21:00:00,19.9,,-,41.0,,30.04,,Colorado,42.1,,,,,2:00 PM,,,,,6.0,,SSE,4.6,160.0,80202.0
Colorado Springs,Unknown,1970-01-14 00:00:00,19.0,,-,47.0,,30.09,,Colorado,37.9,,,,,5:00 PM,,,,,6.0,,SW,6.9,220.0,80202.0
Colorado Springs,Clear,1970-01-14 03:00:00,14.0,,-,39.0,,30.11,,Colorado,37.0,,,,,8:00 PM,,,,,15.0,,NNW,11.5,340.0,80202.0
Colorado Springs,Clear,1970-01-14 06:00:00,14.0,,-,51.0,,30.07,,Colorado,30.0,,,,,11:00 PM,,,,,15.0,,North,13.8,350.0,80202.0
Colorado Springs,Unknown,1970-01-14 09:00:00,12.9,,-,60.0,,30.08,,Colorado,25.0,,,,,2:00 AM,,,,,15.0,,NNE,9.2,30.0,80202.0
Colorado Springs,Unknown,1970-01-14 12:00:00,12.0,,-,55.0,,30.09,,Colorado,26.1,,,,,5:00 AM,,,,,15.0,,NNE,8.1,20.0,80202.0
Colorado Springs,Unknown,1970-01-14 15:00:00,12.0,,-,60.0,,30.11,,Colorado,24.1,,,,,8:00 AM,,,,,6.0,,NE,6.9,40.0,80202.0
Colorado Springs,Unknown,1970-01-14 18:00:00,15.1,,-,35.0,,30.03,,Colorado,41.0,,,,,11:00 AM,,,,,6.0,,SE,5.8,140.0,80202.0
Colorado Springs,Unknown,1970-01-14 21:00:00,15.1,,-,30.0,,29.94,,Colorado,45.0,,,,,2:00 PM,,,,,6.0,,SSW,3.5,200.0,80202.0
Colorado Springs,Unknown,1970-01-15 00:00:00,19.0,,-,47.0,,29.94,,Colorado,37.9,,,,,5:00 PM,,,,,6.0,,Calm,Calm,0.0,80202.0
Colorado Springs,Unknown,1970-01-15 03:00:00,19.9,,-,66.0,,29.96,,Colorado,30.0,,,,,8:00 PM,,,,,15.0,,NE,8.1,40.0,80202.0
Colorado Springs,Clear,1970-01-15 06:00:00,19.9,,-,72.0,,29.86,,Colorado,28.0,,,,,11:00 PM,,,,,15.0,,North,8.1,360.0,80202.0
Colorado Springs,Unknown,1970-01-15 09:00:00,19.0,,-,67.0,,29.77,,Colorado,28.9,,,,,2:00 AM,,,,,15.0,,NNE,9.2,20.0,80202.0
Colorado Springs,Unknown,1970-01-15 12:00:00,19.9,,-,59.0,,29.74,,Colorado,33.1,,,,,5:00 AM,,,,,15.0,,NNE,8.1,20.0,80202.0
Colorado Springs,Unknown,1970-01-15 15:00:00,19.9,,-,46.0,,29.75,,Colorado,39.0,,,,,8:00 AM,,,,,60.0,,NE,6.9,40.0,80202.0
Colorado Springs,Unknown,1970-01-15 18:00:00,26.1,,-,44.0,,29.75,,Colorado,46.9,,,,,11:00 AM,,,,,6.0,,SW,10.4,230.0,80202.0
Colorado Springs,Unknown,1970-01-15 21:00:00,26.1,,-,42.0,,29.72,,Colorado,48.0,,,,,2:00 PM,,,,,6.0,,NNW,16.1,340.0,80202.0
Colorado Springs,Unknown,1970-01-16 00:00:00,23.0,,-,49.0,,29.83,,Colorado,41.0,,,,,5:00 PM,,,,,6.0,,NNE,15.0,20.0,80202.0
Colorado Springs,Unknown,1970-01-16 03:00:00,25.0,,-,70.0,,29.96,,Colorado,34.0,,,,,8:00 PM,,,,,15.0,,North,10.4,360.0,80202.0
Colorado Springs,Unknown,1970-01-16 06:00:00,25.0,,-,75.0,,30.0,,Colorado,32.0,,,,,11:00 PM,,,,,15.0,,North,8.1,360.0,80202.0
Colorado Springs,Unknown,1970-01-16 09:00:00,23.0,,-,81.0,,30.03,,Colorado,28.0,,,,,2:00 AM,,,,,15.0,,North,5.8,360.0,80202.0
Colorado Springs,Unknown,1970-01-16 12:00:00,23.0,,-,85.0,,30.08,,Colorado,27.0,,,,,5:00 AM,,,,,15.0,,East,6.9,80.0,80202.0
Colorado Springs,Unknown,1970-01-16 15:00:00,25.0,,-,92.0,,30.09,,Colorado,27.0,,,,,8:00 AM,,,,,8.0,,SE,9.2,140.0,80202.0
Colorado Springs,Light Snow,1970-01-16 18:00:00,26.1,Fog-Snow,-,96.0,,30.06,,Colorado,27.0,,,,,11:00 AM,,,,,3.0,,ESE,5.8,120.0,80202.0
Colorado Springs,Unknown,1970-01-16 21:00:00,27.0,,-,75.0,,29.89,,Colorado,34.0,,,,,2:00 PM,,,,,15.0,,SSE,9.2,150.0,80202.0
Colorado Springs,Unknown,1970-01-17 00:00:00,26.1,,-,73.0,,29.86,,Colorado,34.0,,,,,5:00 PM,,,,,10.0,,ENE,3.5,70.0,80202.0
Colorado Springs,Unknown,1970-01-17 03:00:00,26.1,,-,89.0,,29.86,,Colorado,28.9,,,,,8:00 PM,,,,,9.0,,Calm,Calm,0.0,80202.0
Colorado Springs,Unknown,1970-01-17 06:00:00,27.0,,-,78.0,,29.8,,Colorado,33.1,,,,,11:00 PM,,,,,10.0,,NW,5.8,320.0,80202.0
Colorado Springs,Unknown,1970-01-17 09:00:00,26.1,,-,73.0,,29.74,,Colorado,34.0,,,,,2:00 AM,,,,,15.0,,WSW,4.6,250.0,80202.0
Colorado Springs,Unknown,1970-01-17 12:00:00,25.0,,-,57.0,,29.73,,Colorado,39.0,,,,,5:00 AM,,,,,15.0,,WSW,8.1,240.0,80202.0
Colorado Springs,Unknown,1970-01-17 15:00:00,26.1,,-,75.0,,29.83,,Colorado,33.1,,,,,8:00 AM,,,,,60.0,,South,4.6,180.0,80202.0
Colorado Springs,Unknown,1970-01-17 18:00:00,28.0,,-,53.0,,29.8,,Colorado,44.1,,,,,11:00 AM,,,,,60.0,,SE,8.1,140.0,80202.0
Colorado Springs,Unknown,1970-01-17 21:00:00,27.0,,-,88.0,,29.87,,Colorado,30.0,,,,,2:00 PM,,,,,7.0,,South,12.7,170.0,80202.0
Colorado Springs,Fog,1970-01-18 00:00:00,23.0,Fog,-,96.0,,29.91,,Colorado,24.1,,,,,5:00 PM,,,,,0.1,,South,4.6,190.0,80202.0
Colorado Springs,Fog,1970-01-18 03:00:00,24.1,Fog,-,100.0,,29.96,,Colorado,24.1,,,,,8:00 PM,,,,,0.1,,WNW,6.9,300.0,80202.0
Colorado Springs,Fog,1970-01-18 06:00:00,25.0,Fog,-,96.0,,29.93,,Colorado,26.1,,,,,11:00 PM,,,,,0.2,,ESE,4.6,110.0,80202.0
Colorado Springs,Fog,1970-01-18 09:00:00,24.1,Fog,-,96.0,,30.01,,Colorado,25.0,,,,,2:00 AM,,,,,0.2,,WNW,3.5,290.0,80202.0
Colorado Springs,Unknown,1970-01-18 12:00:00,23.0,,-,96.0,,30.03,,Colorado,24.1,,,,,5:00 AM,,,,,10.0,,NNE,6.9,20.0,80202.0
Colorado Springs,Clear,1970-01-18 15:00:00,21.9,,-,88.0,,30.06,,Colorado,25.0,,,,,8:00 AM,,,,,6.0,,Calm,Calm,0.0,80202.0
Colorado Springs,Unknown,1970-01-18 18:00:00,28.9,,-,58.0,,29.99,,Colorado,43.0,,,,,11:00 AM,,,,,6.0,,SSE,4.6,160.0,80202.0
Colorado Springs,Unknown,1970-01-18 21:00:00,19.0,,-,34.0,,29.91,,Colorado,46.0,,,,,2:00 PM,,,,,6.0,,SSE,10.4,150.0,80202.0
Colorado Springs,Unknown,1970-01-19 00:00:00,16.0,,-,35.0,,29.95,,Colorado,42.1,,,,,5:00 PM,,,,,6.0,,NNW,10.4,330.0,80202.0
Colorado Springs,Unknown,1970-01-19 03:00:00,16.0,,-,39.0,,29.99,,Colorado,39.0,,,,,8:00 PM,,,,,15.0,,NNW,11.5,340.0,80202.0
Colorado Springs,Unknown,1970-01-19 06:00:00,16.0,,-,44.0,,29.92,,Colorado,36.0,,,,,11:00 PM,,,,,15.0,,SSE,10.4,150.0,80202.0
Colorado Springs,Unknown,1970-01-19 09:00:00,18.0,,-,66.0,,29.94,,Colorado,28.0,,,,,2:00 AM,,,,,15.0,,NE,6.9,50.0,80202.0
Colorado Springs,Unknown,1970-01-19 12:00:00,18.0,,-,69.0,,29.93,,Colorado,27.0,,,,,5:00 AM,,,,,15.0,,ENE,9.2,60.0,80202.0
Colorado Springs,Unknown,1970-01-19 15:00:00,19.0,,-,64.0,,29.93,,Colorado,30.0,,,,,8:00 AM,,,,,6.0,,East,5.8,90.0,80202.0
Colorado Springs,Unknown,1970-01-19 18:00:00,16.0,,-,27.0,,29.84,,Colorado,48.9,,,,,11:00 AM,,,,,6.0,,WNW,23.0,300.0,80202.0
Colorado Springs,Unknown,1970-01-19 21:00:00,18.0,,-,27.0,,29.83,,Colorado,51.1,,,,,2:00 PM,,,,,6.0,,NW,19.6,310.0,80202.0
Colorado Springs,Unknown,1970-01-20 00:00:00,27.0,,-,70.0,,29.98,,Colorado,36.0,,,,,5:00 PM,,,,,6.0,,ENE,13.8,60.0,80202.0
Colorado Springs,Unknown,1970-01-20 03:00:00,27.0,,-,92.0,,30.08,,Colorado,28.9,,,,,8:00 PM,,,,,15.0,,SSE,11.5,150.0,80202.0
Colorado Springs,Unknown,1970-01-20 06:00:00,26.1,,-,92.0,,30.01,,Colorado,28.0,,,,,11:00 PM,,,,,15.0,,SSE,8.1,150.0,80202.0
Colorado Springs,Unknown,1970-01-20 09:00:00,27.0,,-,92.0,,29.94,,Colorado,28.9,,,,,2:00 AM,,,,,10.0,,East,6.9,100.0,80202.0
Colorado Springs,Unknown,1970-01-20 12:00:00,24.1,,-,92.0,,30.03,,Colorado,26.1,,,,,5:00 AM,,,,,15.0,,North,3.5,360.0,80202.0
Colorado Springs,Unknown,1970-01-20 15:00:00,25.0,,-,92.0,,30.08,,Colorado,27.0,,,,,8:00 AM,,,,,6.0,,East,9.2,80.0,80202.0
Colorado Springs,Unknown,1970-01-20 18:00:00,28.9,,-,76.0,,30.12,,Colorado,36.0,,,,,11:00 AM,,,,,6.0,,SE,9.2,140.0,80202.0
Colorado Springs,Unknown,1970-01-20 21:00:00,30.0,,-,60.0,,30.04,,Colorado,43.0,,,,,2:00 PM,,,,,6.0,,SW,5.8,230.0,80202.0
Colorado Springs,Unknown,1970-01-21 00:00:00,28.0,,-,79.0,,30.14,,Colorado,34.0,,,,,5:00 PM,,,,,6.0,,ESE,9.2,110.0,80202.0
Colorado Springs,Clear,1970-01-21 03:00:00,25.0,,-,88.0,,30.19,,Colorado,28.0,,,,,8:00 PM,,,,,15.0,,Calm,Calm,0.0,80202.0
Colorado Springs,Unknown,1970-01-21 06:00:00,24.1,,-,85.0,,30.16,,Colorado,28.0,,,,,11:00 PM,,,,,15.0,,SW,4.6,220.0,80202.0
Colorado Springs,Unknown,1970-01-21 09:00:00,19.9,,-,61.0,,30.13,,Colorado,32.0,,,,,2:00 AM,,,,,15.0,,WNW,5.8,300.0,80202.0
Colorado Springs,Unknown,1970-01-21 12:00:00,23.0,,-,57.0,,30.19,,Colorado,37.0,,,,,5:00 AM,,,,,15.0,,NNE,11.5,30.0,80202.0
Colorado Springs,Unknown,1970-01-21 15:00:00,27.0,,-,85.0,,30.29,,Colorado,30.9,,,,,8:00 AM,,,,,6.0,,North,6.9,350.0,80202.0
Colorado Springs,Unknown,1970-01-21 18:00:00,27.0,,-,62.0,,30.25,,Colorado,39.0,,,,,11:00 AM,,,,,60.0,,SSE,13.8,150.0,80202.0
Colorado Springs,Unknown,1970-01-21 21:00:00,30.9,,-,67.0,,30.09,,Colorado,41.0,,,,,2:00 PM,,,,,45.0,,SE,11.5,130.0,80202.0
Colorado Springs,Unknown,1970-01-22 00:00:00,28.9,,-,73.0,,30.06,,Colorado,37.0,,,,,5:00 PM,,,,,6.0,,NNW,12.7,330.0,80202.0
Colorado Springs,Unknown,1970-01-22 03:00:00,26.1,,-,70.0,,30.06,,Colorado,35.1,,,,,8:00 PM,,,,,15.0,,NNW,6.9,340.0,80202.0
Colorado Springs,Unknown,1970-01-22 06:00:00,25.0,,-,62.0,,29.95,,Colorado,37.0,,,,,11:00 PM,,,,,15.0,,ENE,8.1,60.0,80202.0
Colorado Springs,Unknown,1970-01-22 09:00:00,24.1,,-,49.0,,29.89,,Colorado,42.1,,,,,2:00 AM,,,,,15.0,,ENE,8.1,70.0,80202.0
Colorado Springs,Unknown,1970-01-22 12:00:00,24.1,,-,47.0,,29.91,,Colorado,43.0,,,,,5:00 AM,,,,,15.0,,WSW,11.5,240.0,80202.0
Colorado Springs,Unknown,1970-01-22 15:00:00,26.1,,-,41.0,,29.89,,Colorado,48.9,,,,,8:00 AM,,,,,6.0,,WNW,34.5,290.0,80202.0
Colorado Springs,Unknown,1970-01-22 18:00:00,27.0,,-,34.0,,29.91,,Colorado,55.0,,,,,11:00 AM,,,,,6.0,,ENE,12.7,70.0,80202.0
Colorado Springs,Unknown,1970-01-22 21:00:00,28.9,,-,37.0,,29.86,,Colorado,55.0,,,,,2:00 PM,,,,,6.0,,SSE,13.8,150.0,80202.0
Colorado Springs,Unknown,1970-01-23 00:00:00,30.0,,-,54.0,,29.92,,Colorado,46.0,,,,,5:00 PM,,,,,6.0,,South,6.9,180.0,80202.0
Colorado Springs,Unknown,1970-01-23 03:00:00,27.0,,-,70.0,,30.04,,Colorado,36.0,,,,,8:00 PM,,,,,15.0,,NNE,5.8,20.0,80202.0
Colorado Springs,Unknown,1970-01-23 06:00:00,26.1,,-,79.0,,30.04,,Colorado,32.0,,,,,11:00 PM,,,,,15.0,,NNE,9.2,30.0,80202.0
Colorado Springs,Unknown,1970-01-23 09:00:00,26.1,,-,82.0,,30.03,,Colorado,30.9,,,,,2:00 AM,,,,,15.0,,NE,8.1,40.0,80202.0
Colorado Springs,Unknown,1970-01-23 12:00:00,27.0,,-,82.0,,30.05,,Colorado,32.0,,,,,5:00 AM,,,,,15.0,,NE,5.8,50.0,80202.0
Colorado Springs,Unknown,1970-01-23 15:00:00,27.0,,-,67.0,,30.07,,Colorado,37.0,,,,,8:00 AM,,,,,6.0,,North,6.9,360.0,80202.0
Colorado Springs,Unknown,1970-01-23 18:00:00,27.0,,-,31.0,,30.0,,Colorado,57.9,,,,,11:00 AM,,,,,6.0,,ENE,8.1,70.0,80202.0
Colorado Springs,Unknown,1970-01-23 21:00:00,24.1,,-,22.0,,29.91,,Colorado,64.0,,,,,2:00 PM,,,,,6.0,,WNW,18.4,290.0,80202.0
Colorado Springs,Unknown,1970-01-24 00:00:00,17.1,,-,20.0,,29.94,,Colorado,59.0,,,,,5:00 PM,,,,,6.0,,WNW,16.1,290.0,80202.0
Colorado Springs,Unknown,1970-01-24 03:00:00,18.0,,-,28.0,,29.94,,Colorado,50.0,,,,,8:00 PM,,,,,15.0,,WNW,15.0,300.0,80202.0
Colorado Springs,Unknown,1970-01-24 06:00:00,17.1,,-,31.0,,29.87,,Colorado,46.0,,,,,11:00 PM,,,,,15.0,,SW,8.1,220.0,80202.0
Colorado Springs,Unknown,1970-01-24 09:00:00,19.0,,-,48.0,,29.81,,Colorado,37.0,,,,,2:00 AM,,,,,15.0,,NE,8.1,50.0,80202.0
Colorado Springs,Unknown,1970-01-24 12:00:00,18.0,,-,54.0,,29.8,,Colorado,33.1,,,,,5:00 AM,,,,,15.0,,Calm,Calm,0.0,80202.0
Colorado Springs,Unknown,1970-01-24 15:00:00,10.0,,-,17.0,,29.7,,Colorado,55.0,,,,,8:00 AM,,,,,6.0,,WNW,25.3,290.0,80202.0
Colorado Springs,Unknown,1970-01-24 18:00:00,15.1,,-,18.0,,29.67,,Colorado,59.0,,,,,11:00 AM,,,,,6.0,,WNW,26.5,290.0,80202.0
Colorado Springs,Unknown,1970-01-24 21:00:00,17.1,,-,16.0,,29.6,,Colorado,64.0,,,,,2:00 PM,,,,,6.0,,West,36.8,260.0,80202.0
Colorado Springs,Unknown,1970-01-25 00:00:00,18.0,,-,24.0,,29.7,,Colorado,54.0,,,,,5:00 PM,,,,,6.0,,WSW,25.3,240.0,80202.0
Colorado Springs,Unknown,1970-01-25 03:00:00,15.1,,-,27.0,,29.65,,Colorado,48.0,,,,,8:00 PM,,,,,15.0,,WSW,16.1,250.0,80202.0
Colorado Springs,Unknown,1970-01-25 06:00:00,17.1,,-,34.0,,29.67,,Colorado,44.1,,,,,11:00 PM,,,,,15.0,,NNW,3.5,340.0,80202.0
Colorado Springs,Clear,1970-01-25 09:00:00,19.0,,-,36.0,,29.61,,Colorado,45.0,,,,,2:00 AM,,,,,15.0,,WNW,16.1,290.0,80202.0
Colorado Springs,Clear,1970-01-25 12:00:00,18.0,,-,35.0,,29.73,,Colorado,44.1,,,,,5:00 AM,,,,,15.0,,NW,31.1,310.0,80202.0
Colorado Springs,Clear,1970-01-25 15:00:00,7.0,,-,22.0,,29.84,,Colorado,44.1,,,,,8:00 AM,,,,,6.0,,NNW,28.8,330.0,80202.0
Colorado Springs,Clear,1970-01-25 18:00:00,10.9,,-,20.0,,29.88,,Colorado,51.1,,,,,11:00 AM,,,,,6.0,,North,21.9,360.0,80202.0
Colorado Springs,Clear,1970-01-25 21:00:00,6.1,,-,15.0,,29.87,,Colorado,53.1,,,,,2:00 PM,,,,,6.0,,NW,21.9,310.0,80202.0
Colorado Springs,Clear,1970-01-26 00:00:00,3.0,,-,16.0,,29.96,,Colorado,48.0,,,,,5:00 PM,,,,,6.0,,NNW,13.8,330.0,80202.0
Colorado Springs,Clear,1970-01-26 03:00:00,5.0,,-,23.0,,30.03,,Colorado,41.0,,,,,8:00 PM,,,,,15.0,,SE,9.2,140.0,80202.0
Colorado Springs,Unknown,1970-01-26 06:00:00,7.0,,-,34.0,,30.05,,Colorado,33.1,,,,,11:00 PM,,,,,15.0,,East,8.1,80.0,80202.0
Colorado Springs,Unknown,1970-01-26 09:00:00,9.0,,-,43.0,,30.04,,Colorado,28.9,,,,,2:00 AM,,,,,15.0,,East,10.4,80.0,80202.0
Colorado Springs,Unknown,1970-01-26 12:00:00,8.1,,-,41.0,,30.01,,Colorado,28.9,,,,,5:00 AM,,,,,15.0,,ENE,5.8,70.0,80202.0
Colorado Springs,Unknown,1970-01-26 15:00:00,9.0,,-,37.0,,30.11,,Colorado,33.1,,,,,8:00 AM,,,,,60.0,,WSW,5.8,250.0,80202.0
Colorado Springs,Unknown,1970-01-26 18:00:00,9.0,,-,21.0,,30.1,,Colorado,46.9,,,,,11:00 AM,,,,,6.0,,South,8.1,190.0,80202.0
Colorado Springs,Unknown,1970-01-26 21:00:00,12.9,,-,20.0,,30.02,,Colorado,53.1,,,,,2:00 PM,,,,,6.0,,South,12.7,180.0,80202.0
Colorado Springs,Unknown,1970-01-27 00:00:00,12.9,,-,27.0,,30.05,,Colorado,45.0,,,,,5:00 PM,,,,,6.0,,SE,8.1,130.0,80202.0
Colorado Springs,Unknown,1970-01-27 03:00:00,12.0,,-,37.0,,30.1,,Colorado,36.0,,,,,8:00 PM,,,,,15.0,,East,8.1,100.0,80202.0
Colorado Springs,Unknown,1970-01-27 06:00:00,12.0,,-,46.0,,30.03,,Colorado,30.9,,,,,11:00 PM,,,,,15.0,,ENE,5.8,60.0,80202.0
Colorado Springs,Unknown,1970-01-27 09:00:00,12.0,,-,51.0,,29.91,,Colorado,28.0,,,,,2:00 AM,,,,,15.0,,North,8.1,350.0,80202.0
Colorado Springs,Unknown,1970-01-27 12:00:00,15.1,,-,50.0,,29.82,,Colorado,32.0,,,,,5:00 AM,,,,,15.0,,East,11.5,80.0,80202.0
Colorado Springs,Unknown,1970-01-27 15:00:00,16.0,,-,42.0,,29.78,,Colorado,37.0,,,,,8:00 AM,,,,,6.0,,ENE,8.1,70.0,80202.0
Colorado Springs,Unknown,1970-01-27 18:00:00,18.0,,-,22.0,,29.59,,Colorado,57.0,,,,,11:00 AM,,,,,6.0,,ENE,13.8,70.0,80202.0
Colorado Springs,Unknown,1970-01-27 21:00:00,17.1,,-,15.0,,29.47,,Colorado,66.0,,,,,2:00 PM,,,,,6.0,,West,36.8,280.0,80202.0
Colorado Springs,Unknown,1970-01-28 00:00:00,19.9,,-,25.0,,29.52,,Colorado,55.0,,,,,5:00 PM,,,,,6.0,,SSW,11.5,200.0,80202.0
Colorado Springs,Unknown,1970-01-28 03:00:00,23.0,,-,39.0,,29.51,,Colorado,46.9,,,,,8:00 PM,,,,,15.0,,SW,15.0,230.0,80202.0
Colorado Springs,Unknown,1970-01-28 06:00:00,24.1,,-,42.0,,29.42,,Colorado,46.0,,,,,11:00 PM,,,,,15.0,,SW,23.0,220.0,80202.0
Colorado Springs,Clear,1970-01-28 09:00:00,25.0,,-,70.0,,29.44,,Colorado,34.0,,,,,2:00 AM,,,,,15.0,,NE,10.4,50.0,80202.0
Colorado Springs,Clear,1970-01-28 12:00:00,27.0,,-,82.0,,29.56,,Colorado,32.0,,,,,5:00 AM,,,,,15.0,,NE,18.4,40.0,80202.0
Colorado Springs,Unknown,1970-01-28 15:00:00,19.9,,-,61.0,,29.7,,Colorado,32.0,,,,,8:00 AM,,,,,45.0,,North,13.8,360.0,80202.0
Colorado Springs,Unknown,1970-01-28 18:00:00,19.9,,-,64.0,,29.8,,Colorado,30.9,,,,,11:00 AM,,,,,20.0,,South,16.1,190.0,80202.0
Colorado Springs,Light Snow Showers,1970-01-28 21:00:00,23.0,Snow,-,78.0,,29.92,,Colorado,28.9,,,,,2:00 PM,,,,,30.0,,South,13.8,170.0,80202.0
Colorado Springs,Unknown,1970-01-29 00:00:00,-9.0,,-,18.0,,30.03,,Colorado,30.0,,,,,5:00 PM,,,,,60.0,,NW,24.2,310.0,80202.0
Colorado Springs,Unknown,1970-01-29 03:00:00,10.9,,-,63.0,,30.23,,Colorado,21.9,,,,,8:00 PM,,,,,15.0,,North,11.5,10.0,80202.0
Colorado Springs,Clear,1970-01-29 06:00:00,8.1,,-,60.0,,30.32,,Colorado,19.9,,,,,11:00 PM,,,,,15.0,,North,15.0,360.0,80202.0
Colorado Springs,Clear,1970-01-29 09:00:00,5.0,,-,67.0,,30.39,,Colorado,14.0,,,,,2:00 AM,,,,,15.0,,NNW,4.6,330.0,80202.0
Colorado Springs,Clear,1970-01-29 12:00:00,-0.0,,-,59.0,,30.41,,Colorado,12.0,,,,,5:00 AM,,,,,15.0,,NNE,4.6,20.0,80202.0
Colorado Springs,Clear,1970-01-29 15:00:00,-8.0,,-,34.0,,30.48,,Colorado,16.0,,,,,8:00 AM,,,,,6.0,,WSW,5.8,250.0,80202.0
Colorado Springs,Clear,1970-01-29 18:00:00,-9.9,,-,18.0,,30.46,,Colorado,28.9,,,,,11:00 AM,,,,,6.0,,NW,15.0,310.0,80202.0
Colorado Springs,Clear,1970-01-29 21:00:00,-11.0,,-,15.0,,30.41,,Colorado,32.0,,,,,2:00 PM,,,,,6.0,,SE,6.9,140.0,80202.0
Colorado Springs,Clear,1970-01-30 00:00:00,-8.0,,-,21.0,,30.47,,Colorado,28.0,,,,,5:00 PM,,,,,6.0,,SE,6.9,130.0,80202.0
Colorado Springs,Clear,1970-01-30 03:00:00,-2.9,,-,41.0,,30.54,,Colorado,17.1,,,,,8:00 PM,,,,,15.0,,North,6.9,360.0,80202.0
Colorado Springs,Clear,1970-01-30 06:00:00,-6.0,,-,41.0,,30.5,,Colorado,14.0,,,,,11:00 PM,,,,,15.0,,NNE,6.9,30.0,80202.0
Colorado Springs,Clear,1970-01-30 09:00:00,-5.1,,-,49.0,,30.51,,Colorado,10.9,,,,,2:00 AM,,,,,15.0,,NNE,6.9,20.0,80202.0
Colorado Springs,Clear,1970-01-30 12:00:00,-6.0,,-,47.0,,30.5,,Colorado,10.9,,,,,5:00 AM,,,,,15.0,,NNE,5.8,20.0,80202.0
Colorado Springs,Unknown,1970-01-30 15:00:00,-2.9,,-,43.0,,30.54,,Colorado,16.0,,,,,8:00 AM,,,,,6.0,,NNE,4.6,30.0,80202.0
Colorado Springs,Unknown,1970-01-30 18:00:00,1.9,,-,29.0,,30.44,,Colorado,30.9,,,,,11:00 AM,,,,,6.0,,Calm,Calm,0.0,80202.0
Colorado Springs,Unknown,1970-01-30 21:00:00,3.9,,-,24.0,,30.27,,Colorado,37.9,,,,,2:00 PM,,,,,6.0,,SE,20.7,140.0,80202.0
Colorado Springs,Unknown,1970-01-31 00:00:00,7.0,,-,37.0,,30.27,,Colorado,30.9,,,,,5:00 PM,,,,,6.0,,ESE,10.4,120.0,80202.0
Colorado Springs,Unknown,1970-01-31 03:00:00,8.1,,-,45.0,,30.23,,Colorado,27.0,,,,,8:00 PM,,,,,15.0,,NNE,4.6,20.0,80202.0
Colorado Springs,Unknown,1970-01-31 06:00:00,7.0,,-,50.0,,30.14,,Colorado,23.0,,,,,11:00 PM,,,,,15.0,,NNE,11.5,20.0,80202.0
Colorado Springs,Unknown,1970-01-31 09:00:00,6.1,,-,43.0,,30.12,,Colorado,26.1,,,,,2:00 AM,,,,,15.0,,ESE,3.5,120.0,80202.0
Colorado Springs,Unknown,1970-01-31 12:00:00,5.0,,-,44.0,,30.14,,Colorado,24.1,,,,,5:00 AM,,,,,15.0,,NNE,9.2,20.0,80202.0
Colorado Springs,Unknown,1970-01-31 15:00:00,3.0,,-,39.0,,30.16,,Colorado,25.0,,,,,8:00 AM,,,,,6.0,,North,9.2,360.0,80202.0
Colorado Springs,Unknown,1970-01-31 18:00:00,-0.0,,-,19.0,,30.1,,Colorado,39.9,,,,,11:00 AM,,,,,6.0,,SSE,9.2,150.0,80202.0
Colorado Springs,Unknown,1970-01-31 21:00:00,-0.9,,-,17.0,,29.99,,Colorado,42.1,,,,,2:00 PM,,,,,6.0,,South,16.1,170.0,80202.0
Colorado Springs,Unknown,1970-02-01 00:00:00,-0.9,,-,22.0,,29.96,,Colorado,35.1,,,,,5:00 PM,,,,,6.0,,SSE,12.7,150.0,80202.0
Colorado Springs,Clear,1970-02-01 03:00:00,-4.0,,-,27.0,,29.97,,Colorado,26.1,,,,,8:00 PM,,,,,15.0,,NE,8.1,40.0,80202.0
Colorado Springs,Clear,1970-02-01 06:00:00,-2.0,,-,36.0,,29.81,,Colorado,21.0,,,,,11:00 PM,,,,,15.0,,NE,10.4,50.0,80202.0
Dallas,Clear,1970-01-01 06:00:00,28.9,,-,82.0,,30.13,,Texas,34.0,,,12:00 AM,,,,,,,15.0,,SE,3.5,140.0,75201.0
Dallas,Clear,1970-01-01 09:00:00,28.0,,-,89.0,,30.13,,Texas,30.9,,,3:00 AM,,,,,,,15.0,,SSE,3.5,160.0,75201.0
Dallas,Clear,1970-01-01 12:00:00,28.0,,-,89.0,,30.1,,Texas,30.9,,,6:00 AM,,,,,,,15.0,,Calm,Calm,0.0,75201.0
Dallas,Clear,1970-01-01 15:00:00,28.9,,-,82.0,,30.14,,Texas,34.0,,,9:00 AM,,,,,,,15.0,,ESE,3.5,120.0,75201.0
Dallas,Clear,1970-01-01 18:00:00,34.0,,-,58.0,,30.1,,Texas,48.0,,,12:00 PM,,,,,,,15.0,,SSW,10.4,200.0,75201.0
Dallas,Unknown,1970-01-01 21:00:00,26.1,,-,34.0,,30.04,,Texas,54.0,,,3:00 PM,,,,,,,15.0,,SW,8.1,220.0,75201.0
Dallas,Unknown,1970-01-02 00:00:00,26.1,,-,37.0,,30.04,,Texas,52.0,,,6:00 PM,,,,,,,15.0,,WSW,3.5,250.0,75201.0
Dallas,Unknown,1970-01-02 03:00:00,30.9,,-,58.0,,30.1,,Texas,45.0,,,9:00 PM,,,,,,,15.0,,NE,6.9,40.0,75201.0
Dallas,Clear,1970-01-03 06:00:00,24.1,,-,73.0,,30.27,,Texas,32.0,,,12:00 AM,,,,,,,15.0,,NNE,2.3,20.0,75201.0
Dallas,Clear,1970-01-03 09:00:00,26.1,,-,79.0,,30.25,,Texas,32.0,,,3:00 AM,,,,,,,15.0,,SE,3.5,130.0,75201.0
Dallas,Clear,1970-01-03 12:00:00,26.1,,-,85.0,,30.24,,Texas,30.0,,,6:00 AM,,,,,,,15.0,,South,4.6,180.0,75201.0
Dallas,Unknown,1970-01-03 15:00:00,25.0,,-,70.0,,30.26,,Texas,34.0,,,9:00 AM,,,,,,,15.0,,South,6.9,180.0,75201.0
Dallas,Clear,1970-01-03 18:00:00,28.9,,-,55.0,,30.22,,Texas,44.1,,,12:00 PM,,,,,,,15.0,,WSW,11.5,240.0,75201.0
Dallas,Clear,1970-01-03 21:00:00,26.1,,-,41.0,,30.15,,Texas,48.9,,,3:00 PM,,,,,,,15.0,,South,13.8,190.0,75201.0
Dallas,Unknown,1970-01-04 00:00:00,25.0,,-,42.0,,30.13,,Texas,46.9,,,6:00 PM,,,,,,,15.0,,South,10.4,180.0,75201.0
Dallas,Unknown,1970-01-04 03:00:00,28.9,,-,62.0,,30.15,,Texas,41.0,,,9:00 PM,,,,,,,15.0,,South,11.5,180.0,75201.0
Dallas,Clear,1970-01-04 06:00:00,30.0,,-,73.0,,30.18,,Texas,37.9,,,12:00 AM,,,,,,,15.0,,SW,8.1,230.0,75201.0
Dallas,Clear,1970-01-04 09:00:00,28.9,,-,82.0,,30.19,,Texas,34.0,,,3:00 AM,,,,,,,15.0,,West,17.3,260.0,75201.0
Dallas,Clear,1970-01-04 12:00:00,27.0,,-,88.0,,30.18,,Texas,30.0,,,6:00 AM,,,,,,,15.0,,Calm,Calm,0.0,75201.0
Dallas,Unknown,1970-01-04 15:00:00,28.9,,-,88.0,,30.25,,Texas,32.0,,,9:00 AM,,,,,,,15.0,,SW,4.6,220.0,75201.0
Dallas,Unknown,1970-01-04 18:00:00,30.9,,-,56.0,,30.19,,Texas,46.0,,,12:00 PM,,,,,,,15.0,,South,5.8,180.0,75201.0
Dallas,Unknown,1970-01-04 21:00:00,28.9,,-,44.0,,30.14,,Texas,50.0,,,3:00 PM,,,,,,,15.0,,SE,15.0,140.0,75201.0
Dallas,Unknown,1970-01-05 00:00:00,34.0,,-,58.0,,30.12,,Texas,48.0,,,6:00 PM,,,,,,,15.0,,South,15.0,170.0,75201.0
Dallas,Unknown,1970-01-05 03:00:00,34.0,,-,65.0,,30.14,,Texas,45.0,,,9:00 PM,,,,,,,15.0,,South,11.5,180.0,75201.0
Dallas,Unknown,1970-01-05 06:00:00,34.0,,-,65.0,,30.12,,Texas,45.0,,,12:00 AM,,,,,,,15.0,,South,9.2,170.0,75201.0
Dallas,Light Rain,1970-01-05 09:00:00,36.0,Rain,-,73.0,,30.11,,Texas,44.1,,,3:00 AM,,,,,,,15.0,,SSE,11.5,160.0,75201.0
Dallas,Light Rain,1970-01-05 12:00:00,39.0,Rain,-,93.0,0.03,30.1,,Texas,41.0,,,6:00 AM,,,,,,,10.0,,SE,8.1,130.0,75201.0
Dallas,Light Rain,1970-01-05 15:00:00,41.0,Rain,-,96.0,0.01,30.12,,Texas,42.1,,,9:00 AM,,,,,,,4.0,,ENE,5.8,60.0,75201.0
Dallas,Light Rain,1970-01-05 18:00:00,41.0,Fog-Rain,-,96.0,0.04,30.12,,Texas,42.1,,,12:00 PM,,,,,,,10.5,,NNE,6.9,20.0,75201.0
Dallas,Light Rain,1970-01-05 21:00:00,41.0,Fog-Rain,-,96.0,0.08,30.09,,Texas,42.1,,,3:00 PM,,,,,,,3.0,,NE,8.1,40.0,75201.0
Dallas,Light Freezing Drizzle,1970-01-06 00:00:00,27.0,Fog,-,88.0,0.01,30.21,,Texas,30.0,,,6:00 PM,,,,,,,4.0,,North,24.2,350.0,75201.0
Dallas,Light Snow,1970-01-06 03:00:00,21.9,Snow,-,88.0,,30.29,,Texas,25.0,,,9:00 PM,,,,,,,8.0,,North,18.4,350.0,75201.0
Dallas,Unknown,1970-01-06 06:00:00,21.0,,-,88.0,,30.35,,Texas,24.1,,,12:00 AM,,,,,,,10.0,,NNW,17.3,340.0,75201.0
Dallas,Unknown,1970-01-06 09:00:00,17.1,,-,72.0,,30.38,,Texas,25.0,,,3:00 AM,,,,,,,15.0,,North,23.0,350.0,75201.0
Dallas,Clear,1970-01-06 12:00:00,12.9,,-,65.0,,30.42,,Texas,23.0,,,6:00 AM,,,,,,,15.0,,NNW,25.3,340.0,75201.0
Dallas,Clear,1970-01-06 15:00:00,10.0,,-,60.0,,30.53,,Texas,21.9,,,9:00 AM,,,,,,,15.0,,NNW,17.3,340.0,75201.0
Dallas,Clear,1970-01-06 18:00:00,10.9,,-,55.0,,30.55,,Texas,25.0,,,12:00 PM,,,,,,,15.0,,North,25.3,350.0,75201.0
Dallas,Clear,1970-01-06 21:00:00,12.9,,-,51.0,,30.5,,Texas,28.9,,,3:00 PM,,,,,,,15.0,,NNW,17.3,340.0,75201.0
Dallas,Clear,1970-01-07 00:00:00,12.9,,-,53.0,,30.51,,Texas,28.0,,,6:00 PM,,,,,,,15.0,,NW,13.8,320.0,75201.0
Dallas,Clear,1970-01-07 03:00:00,15.1,,-,69.0,,30.5,,Texas,24.1,,,9:00 PM,,,,,,,15.0,,NW,5.8,310.0,75201.0
Dallas,Clear,1970-01-07 06:00:00,16.0,,-,78.0,,30.51,,Texas,21.9,,,12:00 AM,,,,,,,15.0,,NW,3.5,320.0,75201.0
Dallas,Clear,1970-01-07 09:00:00,16.0,,-,78.0,,30.5,,Texas,21.9,,,3:00 AM,,,,,,,15.0,,WSW,4.6,240.0,75201.0
Dallas,Clear,1970-01-07 12:00:00,16.0,,-,81.0,,30.48,,Texas,21.0,,,6:00 AM,,,,,,,15.0,,WSW,4.6,240.0,75201.0
Dallas,Clear,1970-01-07 15:00:00,17.1,,-,78.0,,30.52,,Texas,23.0,,,9:00 AM,,,,,,,15.0,,West,5.8,260.0,75201.0
Dallas,Unknown,1970-01-07 18:00:00,18.0,,-,43.0,,30.48,,Texas,39.0,,,12:00 PM,,,,,,,15.0,,WNW,11.5,300.0,75201.0
Dallas,Clear,1970-01-07 21:00:00,17.1,,-,37.0,,30.41,,Texas,42.1,,,3:00 PM,,,,,,,15.0,,WNW,9.2,290.0,75201.0
Dallas,Clear,1970-01-08 00:00:00,14.0,,-,35.0,,30.38,,Texas,39.9,,,6:00 PM,,,,,,,15.0,,North,4.6,360.0,75201.0
Dallas,Clear,1970-01-08 03:00:00,21.0,,-,61.0,,30.42,,Texas,33.1,,,9:00 PM,,,,,,,15.0,,NE,6.9,50.0,75201.0
Dallas,Clear,1970-01-08 06:00:00,18.0,,-,69.0,,30.45,,Texas,27.0,,,12:00 AM,,,,,,,15.0,,ENE,11.5,60.0,75201.0
Dallas,Clear,1970-01-08 09:00:00,16.0,,-,69.0,,30.5,,Texas,25.0,,,3:00 AM,,,,,,,15.0,,East,5.8,80.0,75201.0
Dallas,Unknown,1970-01-08 12:00:00,14.0,,-,65.0,,30.51,,Texas,24.1,,,6:00 AM,,,,,,,15.0,,East,8.1,90.0,75201.0
Dallas,Unknown,1970-01-08 15:00:00,14.0,,-,63.0,,30.62,,Texas,25.0,,,9:00 AM,,,,,,,15.0,,NE,9.2,40.0,75201.0
Dallas,Unknown,1970-01-08 18:00:00,15.1,,-,63.0,,30.68,,Texas,26.1,,,12:00 PM,,,,,,,15.0,,NE,12.7,50.0,75201.0
Dallas,Unknown,1970-01-08 21:00:00,15.1,,-,56.0,,30.64,,Texas,28.9,,,3:00 PM,,,,,,,15.0,,North,12.7,350.0,75201.0
Dallas,Unknown,1970-01-09 00:00:00,12.9,,-,60.0,,30.65,,Texas,25.0,,,6:00 PM,,,,,,,15.0,,NNE,9.2,30.0,75201.0
Dallas,Unknown,1970-01-09 03:00:00,10.9,,-,60.0,,30.69,,Texas,23.0,,,9:00 PM,,,,,,,15.0,,NE,6.9,40.0,75201.0
Dallas,Unknown,1970-01-09 06:00:00,9.0,,-,60.0,,30.7,,Texas,21.0,,,12:00 AM,,,,,,,15.0,,NE,6.9,40.0,75201.0
Dallas,Unknown,1970-01-09 09:00:00,9.0,,-,62.0,,30.71,,Texas,19.9,,,3:00 AM,,,,,,,15.0,,NNE,8.1,20.0,75201.0
Dallas,Clear,1970-01-09 12:00:00,10.0,,-,74.0,,30.69,,Texas,17.1,,,6:00 AM,,,,,,,15.0,,East,4.6,80.0,75201.0
Dallas,Unknown,1970-01-09 15:00:00,9.0,,-,60.0,,30.71,,Texas,21.0,,,9:00 AM,,,,,,,15.0,,NE,3.5,40.0,75201.0
Dallas,Unknown,1970-01-09 18:00:00,7.0,,-,38.0,,30.67,,Texas,30.0,,,12:00 PM,,,,,,,15.0,,East,3.5,90.0,75201.0
Dallas,Unknown,1970-01-09 21:00:00,10.9,,-,37.0,,30.57,,Texas,35.1,,,3:00 PM,,,,,,,15.0,,South,5.8,170.0,75201.0
Dallas,Unknown,1970-01-10 00:00:00,15.1,,-,48.0,,30.52,,Texas,33.1,,,6:00 PM,,,,,,,15.0,,SSE,8.1,160.0,75201.0
Dallas,Unknown,1970-01-10 03:00:00,16.0,,-,48.0,,30.48,,Texas,34.0,,,9:00 PM,,,,,,,15.0,,SSE,10.4,160.0,75201.0
Dallas,Unknown,1970-01-10 06:00:00,19.0,,-,54.0,,30.43,,Texas,34.0,,,12:00 AM,,,,,,,15.0,,South,10.4,170.0,75201.0
Dallas,Unknown,1970-01-10 09:00:00,21.9,,-,59.0,,30.37,,Texas,35.1,,,3:00 AM,,,,,,,15.0,,SSE,10.4,160.0,75201.0
Dallas,Unknown,1970-01-10 12:00:00,24.1,,-,67.0,,30.28,,Texas,34.0,,,6:00 AM,,,,,,,15.0,,SSE,10.4,160.0,75201.0
Dallas,Unknown,1970-01-10 15:00:00,25.0,,-,64.0,,30.21,,Texas,36.0,,,9:00 AM,,,,,,,15.0,,SSE,17.3,150.0,75201.0
Dallas,Unknown,1970-01-10 18:00:00,32.0,,-,79.0,,30.13,,Texas,37.9,,,12:00 PM,,,,,,,15.0,,South,16.1,180.0,75201.0
Dallas,Light Rain,1970-01-10 21:00:00,37.0,Rain,-,93.0,,29.98,,Texas,39.0,,,3:00 PM,,,,,,,7.0,,SSE,18.4,150.0,75201.0
Dallas,Light Drizzle,1970-01-11 00:00:00,42.1,,-,100.0,,29.89,,Texas,42.1,,,6:00 PM,,,,,,,2.0,,South,16.1,180.0,75201.0
Dallas,Light Drizzle,1970-01-11 03:00:00,45.0,Fog,-,100.0,,29.85,,Texas,45.0,,,9:00 PM,,,,,,,4.0,,South,8.1,180.0,75201.0
Dallas,Light Drizzle,1970-01-11 06:00:00,46.0,Fog,-,100.0,,29.77,,Texas,46.0,,,12:00 AM,,,,,,,1.0,,South,11.5,180.0,75201.0
Dallas,Fog,1970-01-11 09:00:00,45.0,Fog,-,100.0,,29.73,,Texas,45.0,,,3:00 AM,,,,,,,4.0,,SSW,10.4,200.0,75201.0
Dallas,Fog,1970-01-11 12:00:00,44.1,Fog,-,100.0,,29.73,,Texas,44.1,,,6:00 AM,,,,,,,4.0,,South,6.9,180.0,75201.0
Dallas,Fog,1970-01-11 15:00:00,42.1,Fog,-,100.0,,29.81,,Texas,42.1,,,9:00 AM,,,,,,,0.5,,West,6.9,270.0,75201.0
Dallas,Fog,1970-01-11 18:00:00,45.0,Fog,-,100.0,,29.88,,Texas,45.0,,,12:00 PM,,,,,,,5.0,,NNW,15.0,340.0,75201.0
Dallas,Unknown,1970-01-11 21:00:00,45.0,,-,77.0,,29.88,,Texas,52.0,,,3:00 PM,,,,,,,15.0,,North,16.1,360.0,75201.0
Dallas,Unknown,1970-01-12 00:00:00,39.9,,-,89.0,,30.0,,Texas,43.0,,,6:00 PM,,,,,,,10.0,,North,12.7,360.0,75201.0
Dallas,Unknown,1970-01-12 03:00:00,39.0,,-,86.0,,30.01,,Texas,43.0,,,9:00 PM,,,,,,,10.0,,North,13.8,360.0,75201.0
Dallas,Unknown,1970-01-12 06:00:00,37.9,,-,93.0,,30.04,,Texas,39.9,,,12:00 AM,,,,,,,10.0,,NNE,9.2,20.0,75201.0
Dallas,Unknown,1970-01-12 09:00:00,37.0,,-,97.0,,30.05,,Texas,37.9,,,3:00 AM,,,,,,,10.0,,North,5.8,10.0,75201.0
Dallas,Unknown,1970-01-12 12:00:00,36.0,,-,93.0,,30.06,,Texas,37.9,,,6:00 AM,,,,,,,10.0,,NNE,4.6,20.0,75201.0
Dallas,Unknown,1970-01-12 15:00:00,37.0,,-,97.0,,30.14,,Texas,37.9,,,9:00 AM,,,,,,,8.0,,NE,6.9,50.0,75201.0
Dallas,Unknown,1970-01-12 18:00:00,37.0,,-,89.0,,30.13,,Texas,39.9,,,12:00 PM,,,,,,,10.0,,ENE,4.6,70.0,75201.0
Dallas,Unknown,1970-01-12 21:00:00,37.9,,-,85.0,,30.11,,Texas,42.1,,,3:00 PM,,,,,,,10.0,,WNW,5.8,300.0,75201.0
Dallas,Unknown,1970-01-13 00:00:00,39.0,,-,89.0,,30.14,,Texas,42.1,,,6:00 PM,,,,,,,8.0,,ENE,6.9,60.0,75201.0
Dallas,Unknown,1970-01-13 03:00:00,39.0,,-,89.0,,30.18,,Texas,42.1,,,9:00 PM,,,,,,,10.0,,NE,6.9,50.0,75201.0
Dallas,Unknown,1970-01-13 06:00:00,39.0,,-,97.0,,30.2,,Texas,39.9,,,12:00 AM,,,,,,,10.0,,NE,4.6,50.0,75201.0
Dallas,Unknown,1970-01-13 09:00:00,37.0,,-,97.0,,30.22,,Texas,37.9,,,3:00 AM,,,,,,,10.0,,NNE,6.9,30.0,75201.0
Dallas,Unknown,1970-01-13 12:00:00,32.0,,-,96.0,,30.23,,Texas,33.1,,,6:00 AM,,,,,,,8.0,,NE,5.8,50.0,75201.0
Dallas,Fog,1970-01-13 15:00:00,33.1,Fog,-,96.0,,30.29,,Texas,34.0,,,9:00 AM,,,,,,,4.0,,ENE,9.2,60.0,75201.0
Dallas,Unknown,1970-01-13 18:00:00,34.0,,-,79.0,,30.27,,Texas,39.9,,,12:00 PM,,,,,,,10.0,,ESE,4.6,110.0,75201.0
Dallas,Unknown,1970-01-13 21:00:00,33.1,,-,61.0,,30.19,,Texas,46.0,,,3:00 PM,,,,,,,10.0,,NNE,8.1,30.0,75201.0
Dallas,Unknown,1970-01-14 00:00:00,33.1,,-,65.0,,30.22,,Texas,44.1,,,6:00 PM,,,,,,,10.0,,ENE,4.6,60.0,75201.0
Dallas,Unknown,1970-01-14 03:00:00,35.1,,-,83.0,,30.23,,Texas,39.9,,,9:00 PM,,,,,,,10.0,,ENE,3.5,70.0,75201.0
Dallas,Unknown,1970-01-14 06:00:00,34.0,,-,86.0,,30.23,,Texas,37.9,,,12:00 AM,,,,,,,10.0,,SE,6.9,130.0,75201.0
Dallas,Unknown,1970-01-14 09:00:00,32.0,,-,96.0,,30.23,,Texas,33.1,,,3:00 AM,,,,,,,10.0,,Calm,Calm,0.0,75201.0
Dallas,Unknown,1970-01-14 12:00:00,30.9,,-,96.0,,30.19,,Texas,32.0,,,6:00 AM,,,,,,,7.0,,Calm,Calm,0.0,75201.0
Dallas,Fog,1970-01-14 15:00:00,35.1,Fog,-,93.0,,30.2,,Texas,37.0,,,9:00 AM,,,,,,,10.5,,ESE,4.6,120.0,75201.0
Dallas,Drizzle,1970-01-14 18:00:00,37.0,,-,68.0,,30.18,,Texas,46.9,,,12:00 PM,,,,,,,5.0,,South,5.8,180.0,75201.0
Dallas,Unknown,1970-01-14 21:00:00,39.0,,-,63.0,,30.06,,Texas,51.1,,,3:00 PM,,,,,,,8.0,,South,8.1,180.0,75201.0
Dallas,Unknown,1970-01-15 00:00:00,41.0,,-,74.0,,30.05,,Texas,48.9,,,6:00 PM,,,,,,,8.0,,ESE,10.4,120.0,75201.0
Dallas,Clear,1970-01-15 03:00:00,39.0,,-,82.0,,30.08,,Texas,44.1,,,9:00 PM,,,,,,,10.0,,SE,5.8,140.0,75201.0
Dallas,Unknown,1970-01-15 06:00:00,39.0,,-,93.0,,30.07,,Texas,41.0,,,12:00 AM,,,,,,,10.0,,South,5.8,170.0,75201.0
Dallas,Clear,1970-01-15 09:00:00,37.9,,-,93.0,,30.02,,Texas,39.9,,,3:00 AM,,,,,,,10.0,,SSE,8.1,160.0,75201.0
Dallas,Clear,1970-01-15 12:00:00,36.0,,-,100.0,,30.0,,Texas,36.0,,,6:00 AM,,,,,,,7.0,,ESE,8.1,120.0,75201.0
Dallas,Fog,1970-01-15 15:00:00,37.9,Fog,-,96.0,,30.02,,Texas,39.0,,,9:00 AM,,,,,,,4.0,,ESE,9.2,120.0,75201.0
Dallas,Drizzle,1970-01-15 18:00:00,44.1,,-,74.0,,29.98,,Texas,52.0,,,12:00 PM,,,,,,,6.0,,SSE,9.2,160.0,75201.0
Dallas,Unknown,1970-01-15 21:00:00,46.0,,-,65.0,,29.9,,Texas,57.9,,,3:00 PM,,,,,,,10.0,,SE,15.0,140.0,75201.0
Dallas,Drizzle,1970-01-16 00:00:00,46.0,,-,72.0,,29.91,,Texas,55.0,,,6:00 PM,,,,,,,6.0,,SE,13.8,130.0,75201.0
Dallas,Unknown,1970-01-16 03:00:00,46.9,,-,86.0,,29.96,,Texas,51.1,,,9:00 PM,,,,,,,10.0,,SE,6.9,130.0,75201.0
Dallas,Unknown,1970-01-16 06:00:00,45.0,,-,80.0,,29.96,,Texas,51.1,,,12:00 AM,,,,,,,10.0,,SE,12.7,130.0,75201.0
Dallas,Unknown,1970-01-16 09:00:00,46.0,,-,83.0,,29.98,,Texas,51.1,,,3:00 AM,,,,,,,7.0,,South,6.9,180.0,75201.0
Dallas,Light Rain,1970-01-16 12:00:00,46.9,Rain,-,93.0,,30.0,,Texas,48.9,,,6:00 AM,,,,,,,7.0,,ESE,6.9,120.0,75201.0
Dallas,Fog,1970-01-16 15:00:00,48.9,Fog,-,96.0,,30.04,,Texas,50.0,,,9:00 AM,,,,,,,3.0,,ESE,5.8,120.0,75201.0
Dallas,Drizzle,1970-01-16 18:00:00,48.9,,-,86.0,,30.11,,Texas,53.1,,,12:00 PM,,,,,,,4.0,,ESE,5.8,110.0,75201.0
Dallas,Smoke,1970-01-16 21:00:00,50.0,,-,80.0,,30.05,,Texas,55.9,,,3:00 PM,,,,,,,4.0,,NNW,6.9,340.0,75201.0
Dallas,Smoke,1970-01-17 00:00:00,48.9,,-,83.0,,30.04,,Texas,54.0,,,6:00 PM,,,,,,,3.0,,NW,6.9,320.0,75201.0
Dallas,Smoke,1970-01-17 03:00:00,48.0,,-,100.0,,30.05,,Texas,48.0,,,9:00 PM,,,,,,,4.0,,West,4.6,280.0,75201.0
Dallas,Fog,1970-01-17 06:00:00,43.0,Fog,-,100.0,,30.05,,Texas,43.0,,,12:00 AM,,,,,,,5.0,,Calm,Calm,0.0,75201.0
Dallas,Fog,1970-01-17 09:00:00,45.0,Fog,-,100.0,,29.99,,Texas,45.0,,,3:00 AM,,,,,,,5.0,,ESE,6.9,120.0,75201.0
Dallas,Fog,1970-01-17 12:00:00,44.1,Fog,-,100.0,,29.93,,Texas,44.1,,,6:00 AM,,,,,,,0.1,,SE,11.5,140.0,75201.0
Dallas,Fog,1970-01-17 15:00:00,43.0,Fog,-,100.0,,29.91,,Texas,43.0,,,9:00 AM,,,,,,,0.1,,SSE,13.8,150.0,75201.0
Dallas,Fog,1970-01-17 18:00:00,46.0,Fog,-,97.0,,29.88,,Texas,46.9,,,12:00 PM,,,,,,,5.5,,SSE,9.2,160.0,75201.0
Dallas,Fog,1970-01-17 21:00:00,51.1,Fog,-,90.0,,29.75,,Texas,54.0,,,3:00 PM,,,,,,,6.0,,SE,12.7,130.0,75201.0
Dallas,Smoke,1970-01-18 00:00:00,50.0,,-,89.0,,29.76,,Texas,53.1,,,6:00 PM,,,,,,,6.0,,ESE,5.8,120.0,75201.0
Dallas,Unknown,1970-01-18 03:00:00,48.0,,-,89.0,,29.81,,Texas,51.1,,,9:00 PM,,,,,,,7.0,,East,9.2,80.0,75201.0
Dallas,Unknown,1970-01-18 06:00:00,39.9,,-,96.0,,29.91,,Texas,41.0,,,12:00 AM,,,,,,,10.0,,North,16.1,350.0,75201.0
Dallas,Light Freezing Drizzle,1970-01-18 09:00:00,30.0,,-,100.0,,29.99,,Texas,30.0,,,3:00 AM,,,,,,,4.0,,North,19.6,360.0,75201.0
Dallas,Unknown,1970-01-18 12:00:00,24.1,,-,100.0,,30.04,,Texas,24.1,,,6:00 AM,,,,,,,8.0,,North,13.8,350.0,75201.0
Dallas,Unknown,1970-01-18 15:00:00,19.0,,-,92.0,,30.12,,Texas,21.0,,,9:00 AM,,,,,,,8.0,,North,16.1,360.0,75201.0
Dallas,Light Snow,1970-01-18 18:00:00,19.0,Snow,-,89.0,,30.17,,Texas,21.9,,,12:00 PM,,,,,,,10.0,,NNW,16.1,340.0,75201.0
Dallas,Light Snow,1970-01-18 21:00:00,21.0,Snow,-,92.0,,30.14,,Texas,23.0,,,3:00 PM,,,,,,,10.0,,North,16.1,360.0,75201.0
Dallas,Unknown,1970-01-19 00:00:00,21.0,,-,88.0,,30.19,,Texas,24.1,,,6:00 PM,,,,,,,15.0,,North,12.7,360.0,75201.0
Dallas,Unknown,1970-01-19 03:00:00,19.0,,-,89.0,,30.21,,Texas,21.9,,,9:00 PM,,,,,,,15.0,,North,16.1,350.0,75201.0
Dallas,Unknown,1970-01-19 06:00:00,19.0,,-,85.0,,30.24,,Texas,23.0,,,12:00 AM,,,,,,,15.0,,North,15.0,360.0,75201.0
Dallas,Light Snow,1970-01-19 09:00:00,19.9,Snow,-,92.0,,30.25,,Texas,21.9,,,3:00 AM,,,,,,,10.0,,North,11.5,350.0,75201.0
Dallas,Unknown,1970-01-19 12:00:00,19.9,,-,88.0,,30.24,,Texas,23.0,,,6:00 AM,,,,,,,15.0,,North,8.1,360.0,75201.0
Dallas,Unknown,1970-01-19 15:00:00,21.0,,-,88.0,,30.3,,Texas,24.1,,,9:00 AM,,,,,,,10.0,,NNW,6.9,330.0,75201.0
Dallas,Unknown,1970-01-19 18:00:00,23.0,,-,81.0,,30.28,,Texas,28.0,,,12:00 PM,,,,,,,15.0,,NNW,4.6,340.0,75201.0
Dallas,Unknown,1970-01-19 21:00:00,24.1,,-,64.0,,30.15,,Texas,35.1,,,3:00 PM,,,,,,,15.0,,SSW,3.5,200.0,75201.0
Dallas,Unknown,1970-01-20 00:00:00,25.0,,-,64.0,,30.1,,Texas,36.0,,,6:00 PM,,,,,,,15.0,,East,6.9,100.0,75201.0
Dallas,Unknown,1970-01-20 03:00:00,28.0,,-,89.0,,30.13,,Texas,30.9,,,9:00 PM,,,,,,,15.0,,East,5.8,90.0,75201.0
Dallas,Unknown,1970-01-20 06:00:00,28.0,,-,96.0,,30.16,,Texas,28.9,,,12:00 AM,,,,,,,7.0,,ESE,8.1,110.0,75201.0
Dallas,Unknown,1970-01-20 09:00:00,27.0,,-,100.0,,30.17,,Texas,27.0,,,3:00 AM,,,,,,,7.0,,ESE,6.9,120.0,75201.0
Dallas,Fog,1970-01-20 12:00:00,28.0,Fog,-,100.0,,30.19,,Texas,28.0,,,6:00 AM,,,,,,,3.0,,ENE,8.1,60.0,75201.0
Dallas,Fog,1970-01-20 15:00:00,28.0,Fog,-,100.0,,30.25,,Texas,28.0,,,9:00 AM,,,,,,,10.5,,NE,6.9,40.0,75201.0
Dallas,Unknown,1970-01-20 18:00:00,28.0,,-,76.0,,30.27,,Texas,35.1,,,12:00 PM,,,,,,,8.0,,NE,6.9,40.0,75201.0
Dallas,Clear,1970-01-20 21:00:00,27.0,,-,55.0,,30.22,,Texas,42.1,,,3:00 PM,,,,,,,10.0,,NE,8.1,40.0,75201.0
Dallas,Clear,1970-01-21 00:00:00,27.0,,-,70.0,,30.27,,Texas,36.0,,,6:00 PM,,,,,,,15.0,,NE,8.1,50.0,75201.0
Dallas,Unknown,1970-01-21 03:00:00,25.0,,-,82.0,,30.35,,Texas,30.0,,,9:00 PM,,,,,,,15.0,,North,8.1,350.0,75201.0
Dallas,Unknown,1970-01-21 06:00:00,23.0,,-,78.0,,30.41,,Texas,28.9,,,12:00 AM,,,,,,,10.0,,NNE,9.2,20.0,75201.0
Dallas,Unknown,1970-01-21 09:00:00,24.1,,-,82.0,,30.41,,Texas,28.9,,,3:00 AM,,,,,,,10.0,,NE,12.7,50.0,75201.0
Dallas,Unknown,1970-01-21 12:00:00,25.0,,-,88.0,,30.42,,Texas,28.0,,,6:00 AM,,,,,,,10.0,,NE,9.2,50.0,75201.0
Dallas,Unknown,1970-01-21 15:00:00,25.0,,-,85.0,,30.49,,Texas,28.9,,,9:00 AM,,,,,,,10.0,,ENE,11.5,60.0,75201.0
Dallas,Unknown,1970-01-21 18:00:00,25.0,,-,70.0,,30.46,,Texas,34.0,,,12:00 PM,,,,,,,10.0,,ENE,6.9,60.0,75201.0
Dallas,Unknown,1970-01-21 21:00:00,27.0,,-,75.0,,30.43,,Texas,34.0,,,3:00 PM,,,,,,,10.0,,North,11.5,350.0,75201.0
Dallas,Unknown,1970-01-22 00:00:00,27.0,,-,78.0,,30.39,,Texas,33.1,,,6:00 PM,,,,,,,8.0,,ENE,5.8,60.0,75201.0
Dallas,Unknown,1970-01-22 03:00:00,27.0,,-,78.0,,30.44,,Texas,33.1,,,9:00 PM,,,,,,,10.0,,NNW,5.8,340.0,75201.0
Dallas,Unknown,1970-01-22 06:00:00,27.0,,-,82.0,,30.39,,Texas,32.0,,,12:00 AM,,,,,,,15.0,,Calm,Calm,0.0,75201.0
Dallas,Unknown,1970-01-22 09:00:00,28.0,,-,85.0,,30.32,,Texas,32.0,,,3:00 AM,,,,,,,10.0,,Calm,Calm,0.0,75201.0
Dallas,Unknown,1970-01-22 12:00:00,28.0,,-,82.0,,30.26,,Texas,33.1,,,6:00 AM,,,,,,,10.0,,SSE,8.1,150.0,75201.0
Dallas,Unknown,1970-01-22 15:00:00,27.0,,-,72.0,,30.23,,Texas,35.1,,,9:00 AM,,,,,,,10.0,,SE,11.5,140.0,75201.0
Dallas,Unknown,1970-01-22 18:00:00,30.9,,-,73.0,,30.14,,Texas,39.0,,,12:00 PM,,,,,,,10.0,,SE,11.5,130.0,75201.0
Dallas,Unknown,1970-01-22 21:00:00,37.0,,-,89.0,,30.06,,Texas,39.9,,,3:00 PM,,,,,,,8.0,,South,13.8,190.0,75201.0
Dallas,Fog,1970-01-23 00:00:00,39.0,Fog,-,93.0,,30.04,,Texas,41.0,,,6:00 PM,,,,,,,5.0,,South,8.1,180.0,75201.0
Dallas,Fog,1970-01-23 03:00:00,39.9,Fog,-,96.0,,30.04,,Texas,41.0,,,9:00 PM,,,,,,,4.0,,SSE,6.9,160.0,75201.0
Dallas,Fog,1970-01-23 06:00:00,41.0,Fog,-,100.0,,30.09,,Texas,41.0,,,12:00 AM,,,,,,,3.0,,South,4.6,180.0,75201.0
Dallas,Fog,1970-01-23 09:00:00,42.1,Fog,-,100.0,,30.07,,Texas,42.1,,,3:00 AM,,,,,,,3.0,,South,3.5,190.0,75201.0
Dallas,Fog,1970-01-23 12:00:00,39.9,Fog,-,100.0,,30.09,,Texas,39.9,,,6:00 AM,,,,,,,3.0,,North,8.1,350.0,75201.0
Dallas,Fog,1970-01-23 15:00:00,39.9,Fog,-,96.0,,30.14,,Texas,41.0,,,9:00 AM,,,,,,,5.0,,NNE,4.6,30.0,75201.0
Dallas,Drizzle,1970-01-23 18:00:00,41.0,,-,77.0,,30.18,,Texas,48.0,,,12:00 PM,,,,,,,6.0,,North,3.5,350.0,75201.0
Dallas,Unknown,1970-01-23 21:00:00,42.1,,-,56.0,,30.09,,Texas,57.9,,,3:00 PM,,,,,,,8.0,,ENE,5.8,70.0,75201.0
Dallas,Unknown,1970-01-24 00:00:00,42.1,,-,60.0,,30.1,,Texas,55.9,,,6:00 PM,,,,,,,10.0,,SE,6.9,130.0,75201.0
Dallas,Unknown,1970-01-24 03:00:00,44.1,,-,80.0,,30.14,,Texas,50.0,,,9:00 PM,,,,,,,10.0,,SSE,6.9,160.0,75201.0
Dallas,Unknown,1970-01-24 06:00:00,42.1,,-,93.0,,30.14,,Texas,44.1,,,12:00 AM,,,,,,,7.0,,SSW,4.6,210.0,75201.0
Dallas,Fog,1970-01-24 09:00:00,42.1,Fog,-,97.0,,30.08,,Texas,43.0,,,3:00 AM,,,,,,,5.0,,South,8.1,180.0,75201.0
Dallas,Light Drizzle,1970-01-24 12:00:00,41.0,Fog,-,100.0,,30.07,,Texas,41.0,,,6:00 AM,,,,,,,1.0,,South,8.1,170.0,75201.0
Dallas,Fog,1970-01-24 15:00:00,43.0,Fog,-,96.0,,30.09,,Texas,44.1,,,9:00 AM,,,,,,,3.0,,SSW,12.7,200.0,75201.0
Dallas,Fog,1970-01-24 18:00:00,46.0,Fog,-,90.0,,30.04,,Texas,48.9,,,12:00 PM,,,,,,,6.0,,South,13.8,180.0,75201.0
Dallas,Unknown,1970-01-24 21:00:00,50.0,,-,65.0,,29.89,,Texas,62.1,,,3:00 PM,,,,,,,15.0,,South,15.0,170.0,75201.0
Dallas,Unknown,1970-01-25 00:00:00,54.0,,-,65.0,,29.87,,Texas,66.0,,,6:00 PM,,,,,,,15.0,,South,13.8,170.0,75201.0
Dallas,Unknown,1970-01-25 03:00:00,54.0,,-,83.0,,29.87,,Texas,59.0,,,9:00 PM,,,,,,,15.0,,South,15.0,180.0,75201.0
Dallas,Unknown,1970-01-25 06:00:00,54.0,,-,87.0,,29.84,,Texas,57.9,,,12:00 AM,,,,,,,15.0,,South,16.1,180.0,75201.0
Dallas,Unknown,1970-01-25 09:00:00,53.1,,-,90.0,,29.81,,Texas,55.9,,,3:00 AM,,,,,,,10.0,,SSW,13.8,210.0,75201.0
Dallas,Unknown,1970-01-25 12:00:00,53.1,,-,90.0,,29.83,,Texas,55.9,,,6:00 AM,,,,,,,10.0,,South,13.8,190.0,75201.0
Dallas,Unknown,1970-01-25 15:00:00,52.0,,-,87.0,,29.85,,Texas,55.9,,,9:00 AM,,,,,,,15.0,,SSW,13.8,200.0,75201.0
Dallas,Unknown,1970-01-25 18:00:00,48.0,,-,56.0,,29.85,,Texas,64.0,,,12:00 PM,,,,,,,15.0,,SW,5.8,220.0,75201.0
Dallas,Unknown,1970-01-25 21:00:00,45.0,,-,42.0,,29.85,,Texas,69.1,,,3:00 PM,,,,,,,15.0,,NNE,9.2,20.0,75201.0
Dallas,Unknown,1970-01-26 00:00:00,42.1,,-,42.0,,29.91,,Texas,66.0,,,6:00 PM,,,,,,,15.0,,NNW,5.8,340.0,75201.0
Dallas,Clear,1970-01-26 03:00:00,39.9,,-,57.0,,29.96,,Texas,55.0,,,9:00 PM,,,,,,,15.0,,North,3.5,10.0,75201.0
Dallas,Clear,1970-01-26 06:00:00,39.0,,-,76.0,,30.03,,Texas,46.0,,,12:00 AM,,,,,,,15.0,,North,3.5,350.0,75201.0
Dallas,Unknown,1970-01-26 09:00:00,37.9,,-,82.0,,30.05,,Texas,43.0,,,3:00 AM,,,,,,,15.0,,NNW,3.5,330.0,75201.0
Dallas,Unknown,1970-01-26 12:00:00,37.9,,-,85.0,,30.05,,Texas,42.1,,,6:00 AM,,,,,,,15.0,,West,2.3,280.0,75201.0
Dallas,Unknown,1970-01-26 15:00:00,37.0,,-,76.0,,30.11,,Texas,44.1,,,9:00 AM,,,,,,,7.0,,WNW,3.5,290.0,75201.0
Dallas,Smoke,1970-01-26 18:00:00,41.0,,-,51.0,,30.13,,Texas,59.0,,,12:00 PM,,,,,,,5.0,,SW,4.6,220.0,75201.0
Dallas,Unknown,1970-01-26 21:00:00,32.0,,-,25.0,,30.04,,Texas,69.1,,,3:00 PM,,,,,,,5.0,,ESE,9.2,120.0,75201.0
Dallas,Unknown,1970-01-27 00:00:00,36.0,,-,34.0,,30.04,,Texas,64.9,,,6:00 PM,,,,,,,5.0,,ESE,5.8,110.0,75201.0
Dallas,Unknown,1970-01-27 03:00:00,37.0,,-,49.0,,30.04,,Texas,55.9,,,9:00 PM,,,,,,,7.0,,Calm,Calm,0.0,75201.0
Dallas,Unknown,1970-01-27 06:00:00,37.9,,-,57.0,,30.06,,Texas,53.1,,,12:00 AM,,,,,,,7.0,,Calm,Calm,0.0,75201.0
Dallas,Unknown,1970-01-27 09:00:00,43.0,,-,74.0,,30.02,,Texas,51.1,,,3:00 AM,,,,,,,7.0,,ESE,5.8,120.0,75201.0
Dallas,Light Drizzle,1970-01-27 12:00:00,50.0,Fog,-,100.0,,30.02,,Texas,50.0,,,6:00 AM,,,,,,,1.0,,ESE,5.8,120.0,75201.0
Dallas,Fog,1970-01-27 15:00:00,53.1,Fog,-,100.0,,30.03,,Texas,53.1,,,9:00 AM,,,,,,,0.1,,SSE,9.2,160.0,75201.0
Dallas,Unknown,1970-01-27 18:00:00,59.0,,-,78.0,,29.99,,Texas,66.0,,,12:00 PM,,,,,,,8.0,,SW,9.2,230.0,75201.0
Dallas,Unknown,1970-01-27 21:00:00,60.1,,-,60.0,,29.86,,Texas,75.0,,,3:00 PM,,,,,,,15.0,,South,17.3,180.0,75201.0
Dallas,Unknown,1970-01-28 00:00:00,60.1,,-,68.0,,29.81,,Texas,71.1,,,6:00 PM,,,,,,,15.0,,South,16.1,170.0,75201.0
Dallas,Unknown,1970-01-28 03:00:00,60.1,,-,79.0,,29.78,,Texas,66.9,,,9:00 PM,,,,,,,15.0,,South,16.1,180.0,75201.0
Dallas,Clear,1970-01-28 06:00:00,60.1,,-,79.0,,29.77,,Texas,66.9,,,12:00 AM,,,,,,,15.0,,South,18.4,180.0,75201.0
Dallas,Unknown,1970-01-28 09:00:00,59.0,,-,90.0,,29.77,,Texas,62.1,,,3:00 AM,,,,,,,15.0,,South,10.4,190.0,75201.0
Dallas,Unknown,1970-01-28 12:00:00,60.1,,-,84.0,,29.75,,Texas,64.9,,,6:00 AM,,,,,,,15.0,,South,17.3,190.0,75201.0
Dallas,Unknown,1970-01-28 15:00:00,61.0,,-,81.0,,29.77,,Texas,66.9,,,9:00 AM,,,,,,,15.0,,South,13.8,190.0,75201.0
Dallas,Clear,1970-01-28 18:00:00,61.0,,-,62.0,,29.76,,Texas,75.0,,,12:00 PM,,,,,,,15.0,,SW,15.0,220.0,75201.0
Dallas,Unknown,1970-01-28 21:00:00,57.0,,-,42.0,,29.71,,Texas,82.0,,,3:00 PM,,,,,,,15.0,,SW,16.1,220.0,75201.0
Dallas,Unknown,1970-01-29 00:00:00,46.9,,-,33.0,,29.73,,Texas,78.1,,,6:00 PM,,,,,,,15.0,,NW,5.8,310.0,75201.0
Dallas,Clear,1970-01-29 03:00:00,37.0,,-,27.0,,29.81,,Texas,73.0,,,9:00 PM,,,,,,,15.0,,North,4.6,360.0,75201.0
Dallas,Unknown,1970-01-29 06:00:00,37.9,,-,40.0,,29.88,,Texas,63.0,,,12:00 AM,,,,,,,10.0,,NW,5.8,310.0,75201.0
Dallas,Unknown,1970-01-29 09:00:00,37.0,,-,59.0,,30.07,,Texas,51.1,,,3:00 AM,,,,,,,15.0,,NNW,17.3,340.0,75201.0
Dallas,Unknown,1970-01-29 12:00:00,37.9,,-,71.0,,30.18,,Texas,46.9,,,6:00 AM,,,,,,,15.0,,NNW,15.0,340.0,75201.0
Dallas,Unknown,1970-01-29 15:00:00,37.0,,-,76.0,,30.3,,Texas,44.1,,,9:00 AM,,,,,,,15.0,,NNW,20.7,340.0,75201.0
Dallas,Unknown,1970-01-29 18:00:00,28.9,,-,44.0,,30.39,,Texas,50.0,,,12:00 PM,,,,,,,15.0,,NW,19.6,320.0,75201.0
Dallas,Clear,1970-01-29 21:00:00,24.1,,-,35.0,,30.39,,Texas,51.1,,,3:00 PM,,,,,,,15.0,,North,20.7,350.0,75201.0
Dallas,Clear,1970-01-30 00:00:00,23.0,,-,37.0,,30.44,,Texas,48.0,,,6:00 PM,,,,,,,15.0,,NNW,12.7,340.0,75201.0
Dallas,Clear,1970-01-30 03:00:00,25.0,,-,57.0,,30.51,,Texas,39.0,,,9:00 PM,,,,,,,15.0,,NNW,9.2,340.0,75201.0
Dallas,Clear,1970-01-30 06:00:00,24.1,,-,64.0,,30.54,,Texas,35.1,,,12:00 AM,,,,,,,15.0,,NNE,3.5,20.0,75201.0
Dallas,Clear,1970-01-30 09:00:00,26.1,,-,73.0,,30.52,,Texas,34.0,,,3:00 AM,,,,,,,15.0,,SSW,4.6,200.0,75201.0
Dallas,Clear,1970-01-30 12:00:00,25.0,,-,82.0,,30.55,,Texas,30.0,,,6:00 AM,,,,,,,15.0,,SW,6.9,230.0,75201.0
Dallas,Clear,1970-01-30 15:00:00,28.0,,-,79.0,,30.6,,Texas,34.0,,,9:00 AM,,,,,,,10.0,,WSW,4.6,240.0,75201.0
Dallas,Clear,1970-01-30 18:00:00,21.9,,-,33.0,,30.58,,Texas,50.0,,,12:00 PM,,,,,,,15.0,,WSW,8.1,240.0,75201.0
Dallas,Clear,1970-01-30 21:00:00,19.9,,-,24.0,,30.5,,Texas,57.0,,,3:00 PM,,,,,,,15.0,,South,9.2,180.0,75201.0
Dallas,Clear,1970-01-31 00:00:00,18.0,,-,23.0,,30.46,,Texas,55.0,,,6:00 PM,,,,,,,15.0,,South,3.5,170.0,75201.0
Dallas,Clear,1970-01-31 03:00:00,23.0,,-,37.0,,30.47,,Texas,48.0,,,9:00 PM,,,,,,,15.0,,SSE,10.4,160.0,75201.0
Dallas,Clear,1970-01-31 06:00:00,24.1,,-,44.0,,30.44,,Texas,45.0,,,12:00 AM,,,,,,,15.0,,South,9.2,180.0,75201.0
Dallas,Unknown,1970-01-31 09:00:00,24.1,,-,47.0,,30.41,,Texas,43.0,,,3:00 AM,,,,,,,15.0,,South,11.5,180.0,75201.0
Dallas,Unknown,1970-01-31 12:00:00,24.1,,-,59.0,,30.39,,Texas,37.0,,,6:00 AM,,,,,,,15.0,,SE,6.9,140.0,75201.0
Dallas,Unknown,1970-01-31 15:00:00,26.1,,-,55.0,,30.39,,Texas,41.0,,,9:00 AM,,,,,,,15.0,,SE,13.8,130.0,75201.0
Dallas,Unknown,1970-01-31 18:00:00,23.0,,-,29.0,,30.35,,Texas,55.0,,,12:00 PM,,,,,,,15.0,,SSE,16.1,160.0,75201.0
Dallas,Unknown,1970-01-31 21:00:00,21.9,,-,29.0,,30.21,,Texas,54.0,,,3:00 PM,,,,,,,15.0,,SSE,18.4,160.0,75201.0
Dallas,Unknown,1970-02-01 00:00:00,27.0,,-,39.0,,30.14,,Texas,51.1,,,6:00 PM,,,,,,,15.0,,SE,16.1,140.0,75201.0
Dallas,Unknown,1970-02-01 03:00:00,26.1,,-,39.0,,30.08,,Texas,50.0,,,9:00 PM,,,,,,,15.0,,SE,19.6,140.0,75201.0
Los Angeles,Smoke,1970-01-01 08:00:00,45.0,,-,89.0,,30.11,,California,48.0,,,,,,,12:00 AM,,,3.0,,East,5.8,100.0,90001.0
Los Angeles,Smoke,1970-01-01 09:00:00,39.9,,-,77.0,,30.09,,California,46.9,,,,,,,1:00 AM,,,3.0,,ENE,4.6,60.0,90001.0
Los Angeles,Smoke,1970-01-01 10:00:00,37.9,,-,73.0,,30.1,,California,46.0,,,,,,,2:00 AM,,,4.0,,East,4.6,80.0,90001.0
Los Angeles,Smoke,1970-01-01 11:00:00,37.0,,-,74.0,,30.09,,California,45.0,,,,,,,3:00 AM,,,4.0,,East,4.6,100.0,90001.0
Los Angeles,Smoke,1970-01-01 12:00:00,36.0,,-,73.0,,30.07,,California,44.1,,,,,,,4:00 AM,,,3.0,,NE,6.9,50.0,90001.0
Los Angeles,Smoke,1970-01-01 13:00:00,33.1,,-,70.0,,30.06,,California,42.1,,,,,,,5:00 AM,,,4.0,,ENE,5.8,70.0,90001.0
Los Angeles,Smoke,1970-01-01 14:00:00,33.1,,-,70.0,,30.06,,California,42.1,,,,,,,6:00 AM,,,4.0,,East,4.6,80.0,90001.0
Los Angeles,Smoke,1970-01-01 15:00:00,32.0,,-,67.0,,30.07,,California,42.1,,,,,,,7:00 AM,,,3.0,,ENE,6.9,60.0,90001.0
Los Angeles,Smoke,1970-01-01 16:00:00,32.0,,-,65.0,,30.1,,California,43.0,,,,,,,8:00 AM,,,3.0,,East,4.6,90.0,90001.0
Los Angeles,Smoke,1970-01-01 17:00:00,33.1,,-,54.0,,30.11,,California,48.9,,,,,,,9:00 AM,,,3.0,,NNE,6.9,30.0,90001.0
Los Angeles,Smoke,1970-01-01 18:00:00,33.1,,-,47.0,,30.12,,California,53.1,,,,,,,10:00 AM,,,3.0,,East,6.9,90.0,90001.0
Los Angeles,Smoke,1970-01-01 19:00:00,35.1,,-,44.0,,30.09,,California,57.0,,,,,,,11:00 AM,,,3.0,,ESE,3.5,110.0,90001.0
Los Angeles,Smoke,1970-01-01 20:00:00,35.1,,-,38.0,,30.05,,California,61.0,,,,,,,12:00 PM,,,4.0,,South,3.5,170.0,90001.0
Los Angeles,Smoke,1970-01-01 21:00:00,42.1,,-,48.0,,30.03,,California,62.1,,,,,,,1:00 PM,,,4.0,,SSW,8.1,210.0,90001.0
Los Angeles,Smoke,1970-01-01 22:00:00,44.1,,-,54.0,,30.04,,California,61.0,,,,,,,2:00 PM,,,4.0,,WSW,9.2,240.0,90001.0
Los Angeles,Smoke,1970-01-01 23:00:00,44.1,,-,55.0,,30.04,,California,60.1,,,,,,,3:00 PM,,,5.0,,West,9.2,260.0,90001.0
Los Angeles,Smoke,1970-01-02 00:00:00,44.1,,-,60.0,,30.05,,California,57.9,,,,,,,4:00 PM,,,5.0,,WSW,11.5,250.0,90001.0
Los Angeles,Smoke,1970-01-02 01:00:00,46.0,,-,72.0,,30.06,,California,55.0,,,,,,,5:00 PM,,,4.0,,WSW,6.9,250.0,90001.0
Los Angeles,Smoke,1970-01-02 02:00:00,46.9,,-,77.0,,30.07,,California,54.0,,,,,,,6:00 PM,,,5.0,,North,3.5,360.0,90001.0
Los Angeles,Smoke,1970-01-02 03:00:00,43.0,,-,66.0,,30.09,,California,54.0,,,,,,,7:00 PM,,,5.0,,SSW,2.3,200.0,90001.0
Los Angeles,Smoke,1970-01-02 04:00:00,46.0,,-,77.0,,30.1,,California,53.1,,,,,,,8:00 PM,,,5.0,,NE,3.5,40.0,90001.0
Los Angeles,Smoke,1970-01-02 05:00:00,42.1,,-,66.0,,30.12,,California,53.1,,,,,,,9:00 PM,,,5.0,,ESE,3.5,120.0,90001.0
Los Angeles,Smoke,1970-01-02 06:00:00,46.0,,-,80.0,,30.14,,California,52.0,,,,,,,10:00 PM,,,4.0,,ENE,3.5,70.0,90001.0
Los Angeles,Smoke,1970-01-02 07:00:00,43.0,,-,77.0,,30.15,,California,50.0,,,,,,,11:00 PM,,,4.0,,NE,4.6,40.0,90001.0
Los Angeles,Clear,1970-01-03 08:00:00,12.9,,-,24.0,,30.15,,California,48.0,,,,,,,12:00 AM,,,15.0,,East,4.6,90.0,90001.0
Los Angeles,Clear,1970-01-03 09:00:00,12.9,,-,26.0,,30.15,,California,46.0,,,,,,,1:00 AM,,,15.0,,ENE,6.9,60.0,90001.0
Los Angeles,Clear,1970-01-03 10:00:00,14.0,,-,29.0,,30.15,,California,45.0,,,,,,,2:00 AM,,,15.0,,NE,5.8,40.0,90001.0
Los Angeles,Clear,1970-01-03 11:00:00,10.9,,-,26.0,,30.14,,California,44.1,,,,,,,3:00 AM,,,15.0,,North,6.9,360.0,90001.0
Los Angeles,Clear,1970-01-03 12:00:00,10.0,,-,24.0,,30.12,,California,45.0,,,,,,,4:00 AM,,,15.0,,North,3.5,10.0,90001.0
Los Angeles,Clear,1970-01-03 13:00:00,9.0,,-,24.0,,30.11,,California,44.1,,,,,,,5:00 AM,,,15.0,,North,5.8,10.0,90001.0
Los Angeles,Clear,1970-01-03 14:00:00,8.1,,-,26.0,,30.12,,California,41.0,,,,,,,6:00 AM,,,15.0,,ENE,5.8,60.0,90001.0
Los Angeles,Unknown,1970-01-03 15:00:00,12.0,,-,31.0,,30.12,,California,41.0,,,,,,,7:00 AM,,,90.0,,NE,10.4,40.0,90001.0
Los Angeles,Unknown,1970-01-03 16:00:00,7.0,,-,19.0,,30.13,,California,48.0,,,,,,,8:00 AM,,,40.0,,NNE,10.4,20.0,90001.0
Los Angeles,Unknown,1970-01-03 17:00:00,7.0,,-,16.0,,30.13,,California,52.0,,,,,,,9:00 AM,,,30.0,,NNE,5.8,30.0,90001.0
Los Angeles,Unknown,1970-01-03 18:00:00,-0.9,,-,9.0,,30.13,,California,57.0,,,,,,,10:00 AM,,,40.0,,North,8.1,360.0,90001.0
Los Angeles,Unknown,1970-01-03 19:00:00,-4.0,,-,7.0,,30.1,,California,60.1,,,,,,,11:00 AM,,,30.0,,North,5.8,360.0,90001.0
Los Angeles,Unknown,1970-01-03 20:00:00,-4.0,,-,7.0,,30.06,,California,63.0,,,,,,,12:00 PM,,,25.0,,NNE,8.1,30.0,90001.0
Los Angeles,Unknown,1970-01-03 21:00:00,6.1,,-,11.0,,30.03,,California,63.0,,,,,,,1:00 PM,,,25.0,,West,9.2,270.0,90001.0
Los Angeles,Unknown,1970-01-03 22:00:00,25.0,,-,24.0,,30.01,,California,62.1,,,,,,,2:00 PM,,,25.0,,WNW,9.2,300.0,90001.0
Los Angeles,Unknown,1970-01-03 23:00:00,23.0,,-,23.0,,30.0,,California,61.0,,,,,,,3:00 PM,,,25.0,,West,8.1,270.0,90001.0
Los Angeles,Unknown,1970-01-04 00:00:00,34.0,,-,41.0,,30.0,,California,57.9,,,,,,,4:00 PM,,,25.0,,West,12.7,260.0,90001.0
Los Angeles,Unknown,1970-01-04 01:00:00,34.0,,-,45.0,,29.99,,California,55.0,,,,,,,5:00 PM,,,25.0,,West,10.4,260.0,90001.0
Los Angeles,Unknown,1970-01-04 02:00:00,37.9,,-,57.0,,30.0,,California,53.1,,,,,,,6:00 PM,,,15.0,,West,10.4,260.0,90001.0
Los Angeles,Unknown,1970-01-04 03:00:00,39.9,,-,61.0,,30.0,,California,53.1,,,,,,,7:00 PM,,,15.0,,WSW,9.2,250.0,90001.0
Los Angeles,Unknown,1970-01-04 04:00:00,39.9,,-,63.0,,29.99,,California,52.0,,,,,,,8:00 PM,,,15.0,,West,10.4,260.0,90001.0
Los Angeles,Unknown,1970-01-04 05:00:00,42.1,,-,69.0,,29.99,,California,52.0,,,,,,,9:00 PM,,,15.0,,WSW,8.1,250.0,90001.0
Los Angeles,Unknown,1970-01-04 06:00:00,39.9,,-,61.0,,29.98,,California,53.1,,,,,,,10:00 PM,,,15.0,,SE,4.6,130.0,90001.0
Los Angeles,Unknown,1970-01-04 07:00:00,39.9,,-,71.0,,29.97,,California,48.9,,,,,,,11:00 PM,,,15.0,,SE,4.6,130.0,90001.0
Los Angeles,Unknown,1970-01-04 08:00:00,37.9,,-,68.0,,29.96,,California,48.0,,,,,,,12:00 AM,,,15.0,,East,6.9,80.0,90001.0
Los Angeles,Unknown,1970-01-04 09:00:00,36.0,,-,66.0,,29.96,,California,46.9,,,,,,,1:00 AM,,,10.0,,East,8.1,80.0,90001.0
Los Angeles,Unknown,1970-01-04 10:00:00,32.0,,-,60.0,,29.95,,California,45.0,,,,,,,2:00 AM,,,10.0,,East,5.8,90.0,90001.0
Los Angeles,Unknown,1970-01-04 11:00:00,32.0,,-,65.0,,29.94,,California,43.0,,,,,,,3:00 AM,,,7.0,,East,4.6,90.0,90001.0
Los Angeles,Unknown,1970-01-04 12:00:00,26.1,,-,49.0,,29.93,,California,44.1,,,,,,,4:00 AM,,,7.0,,ENE,6.9,60.0,90001.0
Los Angeles,Unknown,1970-01-04 13:00:00,24.1,,-,47.0,,29.92,,California,43.0,,,,,,,5:00 AM,,,7.0,,East,4.6,80.0,90001.0
Los Angeles,Unknown,1970-01-04 14:00:00,21.9,,-,45.0,,29.93,,California,42.1,,,,,,,6:00 AM,,,7.0,,East,5.8,100.0,90001.0
Los Angeles,Unknown,1970-01-04 15:00:00,21.0,,-,47.0,,29.96,,California,39.9,,,,,,,7:00 AM,,,10.0,,East,6.9,90.0,90001.0
Los Angeles,Unknown,1970-01-04 16:00:00,19.9,,-,38.0,,29.98,,California,44.1,,,,,,,8:00 AM,,,10.0,,ENE,5.8,60.0,90001.0
Los Angeles,Clear,1970-01-04 17:00:00,25.0,,-,41.0,,29.99,,California,48.0,,,,,,,9:00 AM,,,10.0,,East,9.2,100.0,90001.0
Los Angeles,Clear,1970-01-04 18:00:00,28.9,,-,41.0,,29.99,,California,52.0,,,,,,,10:00 AM,,,9.0,,ENE,8.1,60.0,90001.0
Los Angeles,Clear,1970-01-04 19:00:00,36.0,,-,47.0,,29.98,,California,55.9,,,,,,,11:00 AM,,,8.0,,ENE,6.9,60.0,90001.0
Los Angeles,Clear,1970-01-04 20:00:00,39.9,,-,51.0,,29.96,,California,57.9,,,,,,,12:00 PM,,,9.0,,ESE,3.5,110.0,90001.0
Los Angeles,Clear,1970-01-04 21:00:00,39.9,,-,47.0,,29.95,,California,60.1,,,,,,,1:00 PM,,,15.0,,WSW,8.1,250.0,90001.0
Los Angeles,Clear,1970-01-04 22:00:00,41.0,,-,51.0,,29.94,,California,59.0,,,,,,,2:00 PM,,,15.0,,WSW,8.1,240.0,90001.0
Los Angeles,Clear,1970-01-04 23:00:00,39.0,,-,48.0,,29.93,,California,59.0,,,,,,,3:00 PM,,,20.0,,SSW,6.9,200.0,90001.0
Los Angeles,Clear,1970-01-05 00:00:00,39.9,,-,49.0,,29.94,,California,59.0,,,,,,,4:00 PM,,,20.0,,WSW,10.4,240.0,90001.0
Los Angeles,Clear,1970-01-05 01:00:00,41.0,,-,59.0,,29.95,,California,55.0,,,,,,,5:00 PM,,,20.0,,WSW,8.1,250.0,90001.0
Los Angeles,Clear,1970-01-05 02:00:00,42.1,,-,66.0,,29.97,,California,53.1,,,,,,,6:00 PM,,,15.0,,West,3.5,260.0,90001.0
Los Angeles,Clear,1970-01-05 03:00:00,42.1,,-,64.0,,29.99,,California,54.0,,,,,,,7:00 PM,,,15.0,,ESE,3.5,120.0,90001.0
Los Angeles,Clear,1970-01-05 04:00:00,42.1,,-,66.0,,30.0,,California,53.1,,,,,,,8:00 PM,,,15.0,,NE,4.6,50.0,90001.0
Los Angeles,Clear,1970-01-05 05:00:00,42.1,,-,74.0,,30.01,,California,50.0,,,,,,,9:00 PM,,,15.0,,NE,5.8,40.0,90001.0
Los Angeles,Clear,1970-01-05 06:00:00,41.0,,-,71.0,,30.02,,California,50.0,,,,,,,10:00 PM,,,10.0,,ENE,5.8,60.0,90001.0
Los Angeles,Clear,1970-01-05 07:00:00,39.9,,-,71.0,,30.04,,California,48.9,,,,,,,11:00 PM,,,10.0,,ENE,5.8,70.0,90001.0
Los Angeles,Unknown,1970-01-05 08:00:00,39.9,,-,74.0,,30.05,,California,48.0,,,,,,,12:00 AM,,,8.0,,ENE,6.9,70.0,90001.0
Los Angeles,Clear,1970-01-05 09:00:00,39.0,,-,74.0,,30.09,,California,46.9,,,,,,,1:00 AM,,,7.0,,ENE,6.9,60.0,90001.0
Los Angeles,Clear,1970-01-05 10:00:00,37.9,,-,76.0,,30.1,,California,45.0,,,,,,,2:00 AM,,,7.0,,ESE,4.6,120.0,90001.0
Los Angeles,Clear,1970-01-05 11:00:00,37.0,,-,76.0,,30.1,,California,44.1,,,,,,,3:00 AM,,,7.0,,NE,5.8,50.0,90001.0
Los Angeles,Smoke,1970-01-05 12:00:00,36.0,,-,76.0,,30.11,,California,43.0,,,,,,,4:00 AM,,,6.0,,East,4.6,90.0,90001.0
Los Angeles,Smoke,1970-01-05 13:00:00,36.0,,-,73.0,,30.12,,California,44.1,,,,,,,5:00 AM,,,6.0,,NE,4.6,40.0,90001.0
Los Angeles,Clear,1970-01-05 14:00:00,35.1,,-,71.0,,30.13,,California,44.1,,,,,,,6:00 AM,,,7.0,,NE,5.8,50.0,90001.0
Los Angeles,Unknown,1970-01-05 15:00:00,35.1,,-,74.0,,30.17,,California,43.0,,,,,,,7:00 AM,,,7.0,,NNE,5.8,20.0,90001.0
Los Angeles,Unknown,1970-01-05 16:00:00,35.1,,-,68.0,,30.2,,California,45.0,,,,,,,8:00 AM,,,7.0,,NE,6.9,40.0,90001.0
Los Angeles,Smoke,1970-01-05 17:00:00,36.0,,-,59.0,,30.22,,California,50.0,,,,,,,9:00 AM,,,6.0,,North,5.8,360.0,90001.0
Los Angeles,Unknown,1970-01-05 18:00:00,35.1,,-,49.0,,30.23,,California,54.0,,,,,,,10:00 AM,,,7.0,,North,8.1,350.0,90001.0
Los Angeles,Unknown,1970-01-05 19:00:00,30.9,,-,36.0,,30.22,,California,57.9,,,,,,,11:00 AM,,,15.0,,NNW,8.1,330.0,90001.0
Los Angeles,Unknown,1970-01-05 20:00:00,25.0,,-,26.0,,30.19,,California,60.1,,,,,,,12:00 PM,,,15.0,,NNW,4.6,330.0,90001.0
Los Angeles,Unknown,1970-01-05 21:00:00,23.0,,-,22.0,,30.17,,California,63.0,,,,,,,1:00 PM,,,15.0,,NW,3.5,320.0,90001.0
Los Angeles,Unknown,1970-01-05 22:00:00,21.0,,-,20.0,,30.18,,California,63.0,,,,,,,2:00 PM,,,10.0,,East,10.4,90.0,90001.0
Los Angeles,Unknown,1970-01-05 23:00:00,19.0,,-,18.0,,30.18,,California,64.0,,,,,,,3:00 PM,,,10.0,,NW,3.5,320.0,90001.0
Los Angeles,Unknown,1970-01-06 00:00:00,25.0,,-,24.0,,30.18,,California,63.0,,,,,,,4:00 PM,,,10.0,,West,5.8,270.0,90001.0
Los Angeles,Unknown,1970-01-06 01:00:00,30.0,,-,37.0,,30.19,,California,55.9,,,,,,,5:00 PM,,,15.0,,WNW,8.1,290.0,90001.0
Los Angeles,Unknown,1970-01-06 02:00:00,21.0,,-,26.0,,30.19,,California,55.9,,,,,,,6:00 PM,,,15.0,,NNW,5.8,340.0,90001.0
Los Angeles,Unknown,1970-01-06 03:00:00,10.0,,-,17.0,,30.21,,California,55.0,,,,,,,7:00 PM,,,15.0,,North,9.2,350.0,90001.0
Los Angeles,Clear,1970-01-06 04:00:00,8.1,,-,16.0,,30.22,,California,54.0,,,,,,,8:00 PM,,,15.0,,North,2.3,10.0,90001.0
Los Angeles,Clear,1970-01-06 05:00:00,8.1,,-,17.0,,30.25,,California,52.0,,,,,,,9:00 PM,,,15.0,,North,5.8,350.0,90001.0
Los Angeles,Clear,1970-01-06 06:00:00,12.0,,-,21.0,,30.27,,California,51.1,,,,,,,10:00 PM,,,15.0,,NNW,5.8,340.0,90001.0
Los Angeles,Clear,1970-01-06 07:00:00,14.0,,-,24.0,,30.28,,California,50.0,,,,,,,11:00 PM,,,15.0,,NE,6.9,40.0,90001.0
Los Angeles,Clear,1970-01-06 08:00:00,12.0,,-,22.0,,30.28,,California,50.0,,,,,,,12:00 AM,,,15.0,,NNE,6.9,20.0,90001.0
Los Angeles,Clear,1970-01-06 09:00:00,12.0,,-,22.0,,30.27,,California,50.0,,,,,,,1:00 AM,,,15.0,,North,8.1,350.0,90001.0
Los Angeles,Clear,1970-01-06 10:00:00,10.9,,-,23.0,,30.27,,California,46.9,,,,,,,2:00 AM,,,15.0,,ENE,6.9,70.0,90001.0
Los Angeles,Clear,1970-01-06 11:00:00,12.0,,-,25.0,,30.27,,California,46.0,,,,,,,3:00 AM,,,15.0,,North,8.1,350.0,90001.0
Los Angeles,Clear,1970-01-06 12:00:00,7.0,,-,20.0,,30.24,,California,46.0,,,,,,,4:00 AM,,,15.0,,NE,8.1,50.0,90001.0
Los Angeles,Clear,1970-01-06 13:00:00,10.0,,-,24.0,,30.22,,California,45.0,,,,,,,5:00 AM,,,15.0,,NNE,8.1,30.0,90001.0
Los Angeles,Clear,1970-01-06 14:00:00,10.0,,-,24.0,,30.25,,California,45.0,,,,,,,6:00 AM,,,15.0,,North,6.9,360.0,90001.0
Los Angeles,Unknown,1970-01-06 15:00:00,10.9,,-,23.0,,30.27,,California,46.9,,,,,,,7:00 AM,,,90.0,,NNW,12.7,340.0,90001.0
Los Angeles,Unknown,1970-01-06 16:00:00,10.9,,-,23.0,,30.29,,California,46.9,,,,,,,8:00 AM,,,50.0,,NNE,8.1,20.0,90001.0
Los Angeles,Unknown,1970-01-06 17:00:00,9.0,,-,17.0,,30.29,,California,53.1,,,,,,,9:00 AM,,,25.0,,North,8.1,10.0,90001.0
Los Angeles,Unknown,1970-01-06 18:00:00,9.0,,-,15.0,,30.27,,California,55.9,,,,,,,10:00 AM,,,15.0,,NE,11.5,40.0,90001.0
Los Angeles,Unknown,1970-01-06 19:00:00,1.0,,-,9.0,,30.24,,California,61.0,,,,,,,11:00 AM,,,15.0,,ENE,10.4,60.0,90001.0
Los Angeles,Unknown,1970-01-06 20:00:00,-6.0,,-,6.0,,30.21,,California,63.0,,,,,,,12:00 PM,,,15.0,,NNE,12.7,30.0,90001.0
Los Angeles,Unknown,1970-01-06 21:00:00,-0.0,,-,7.0,,30.16,,California,66.0,,,,,,,1:00 PM,,,15.0,,North,8.1,10.0,90001.0
Los Angeles,Unknown,1970-01-06 22:00:00,8.1,,-,10.0,,30.14,,California,68.0,,,,,,,2:00 PM,,,15.0,,NNW,8.1,330.0,90001.0
Los Angeles,Unknown,1970-01-06 23:00:00,-0.9,,-,6.0,,30.14,,California,69.1,,,,,,,3:00 PM,,,15.0,,NW,9.2,310.0,90001.0
Los Angeles,Unknown,1970-01-07 00:00:00,6.1,,-,9.0,,30.14,,California,68.0,,,,,,,4:00 PM,,,15.0,,WNW,10.4,300.0,90001.0
Los Angeles,Unknown,1970-01-07 01:00:00,-0.9,,-,8.0,,30.14,,California,62.1,,,,,,,5:00 PM,,,20.0,,North,8.1,350.0,90001.0
Los Angeles,Unknown,1970-01-07 02:00:00,-2.0,,-,8.0,,30.14,,California,60.1,,,,,,,6:00 PM,,,15.0,,North,8.1,350.0,90001.0
Los Angeles,Unknown,1970-01-07 03:00:00,-0.0,,-,10.0,,30.14,,California,57.9,,,,,,,7:00 PM,,,15.0,,North,8.1,360.0,90001.0
Los Angeles,Unknown,1970-01-07 04:00:00,-2.0,,-,9.0,,30.14,,California,57.9,,,,,,,8:00 PM,,,15.0,,North,9.2,350.0,90001.0
Los Angeles,Unknown,1970-01-07 05:00:00,1.9,,-,11.0,,30.14,,California,57.0,,,,,,,9:00 PM,,,15.0,,North,6.9,10.0,90001.0
Los Angeles,Unknown,1970-01-07 06:00:00,1.0,,-,11.0,,30.14,,California,55.9,,,,,,,10:00 PM,,,15.0,,North,8.1,360.0,90001.0
Los Angeles,Unknown,1970-01-07 07:00:00,-0.0,,-,10.0,,30.13,,California,55.9,,,,,,,11:00 PM,,,15.0,,North,9.2,10.0,90001.0
Los Angeles,Unknown,1970-01-07 08:00:00,-0.0,,-,11.0,,30.12,,California,55.0,,,,,,,12:00 AM,,,15.0,,NNE,6.9,20.0,90001.0
Los Angeles,Unknown,1970-01-07 09:00:00,1.0,,-,11.0,,30.12,,California,55.0,,,,,,,1:00 AM,,,15.0,,North,9.2,360.0,90001.0
Los Angeles,Unknown,1970-01-07 10:00:00,-0.0,,-,11.0,,30.14,,California,55.0,,,,,,,2:00 AM,,,15.0,,North,5.8,10.0,90001.0
Los Angeles,Unknown,1970-01-07 11:00:00,1.0,,-,12.0,,30.11,,California,54.0,,,,,,,3:00 AM,,,15.0,,NE,6.9,40.0,90001.0
Los Angeles,Unknown,1970-01-07 12:00:00,1.9,,-,12.0,,30.09,,California,54.0,,,,,,,4:00 AM,,,15.0,,NNE,8.1,30.0,90001.0
Los Angeles,Unknown,1970-01-07 13:00:00,-0.0,,-,11.0,,30.09,,California,54.0,,,,,,,5:00 AM,,,15.0,,NNE,8.1,30.0,90001.0
Los Angeles,Unknown,1970-01-07 14:00:00,1.9,,-,12.0,,30.09,,California,54.0,,,,,,,6:00 AM,,,15.0,,East,3.5,100.0,90001.0
Los Angeles,Unknown,1970-01-07 15:00:00,8.1,,-,17.0,,30.09,,California,52.0,,,,,,,7:00 AM,,,15.0,,NNE,9.2,30.0,90001.0
Los Angeles,Unknown,1970-01-07 16:00:00,9.0,,-,16.0,,30.09,,California,55.0,,,,,,,8:00 AM,,,35.0,,NE,6.9,40.0,90001.0
Los Angeles,Unknown,1970-01-07 17:00:00,-2.9,,-,9.0,,30.08,,California,55.9,,,,,,,9:00 AM,,,35.0,,NNE,12.7,30.0,90001.0
Los Angeles,Unknown,1970-01-07 18:00:00,-0.0,,-,9.0,,30.09,,California,61.0,,,,,,,10:00 AM,,,35.0,,NE,10.4,40.0,90001.0
Los Angeles,Unknown,1970-01-07 19:00:00,-0.0,,-,8.0,,30.06,,California,64.0,,,,,,,11:00 AM,,,35.0,,North,11.5,10.0,90001.0
Los Angeles,Unknown,1970-01-07 20:00:00,-0.9,,-,7.0,,30.04,,California,66.9,,,,,,,12:00 PM,,,25.0,,North,8.1,360.0,90001.0
Los Angeles,Unknown,1970-01-07 21:00:00,12.9,,-,11.0,,30.01,,California,69.1,,,,,,,1:00 PM,,,20.0,,North,6.9,350.0,90001.0
Los Angeles,Unknown,1970-01-07 22:00:00,36.0,,-,33.0,,30.0,,California,66.0,,,,,,,2:00 PM,,,20.0,,West,11.5,260.0,90001.0
Los Angeles,Unknown,1970-01-07 23:00:00,42.1,,-,50.0,,30.0,,California,61.0,,,,,,,3:00 PM,,,20.0,,West,12.7,260.0,90001.0
Los Angeles,Unknown,1970-01-08 00:00:00,34.0,,-,38.0,,29.99,,California,60.1,,,,,,,4:00 PM,,,20.0,,WNW,9.2,290.0,90001.0
Los Angeles,Unknown,1970-01-08 01:00:00,46.0,,-,67.0,,30.0,,California,57.0,,,,,,,5:00 PM,,,15.0,,WSW,9.2,250.0,90001.0
Los Angeles,Unknown,1970-01-08 02:00:00,46.0,,-,72.0,,29.99,,California,55.0,,,,,,,6:00 PM,,,15.0,,West,8.1,260.0,90001.0
Los Angeles,Unknown,1970-01-08 03:00:00,48.0,,-,80.0,,30.0,,California,54.0,,,,,,,7:00 PM,,,15.0,,West,9.2,280.0,90001.0
Los Angeles,Unknown,1970-01-08 04:00:00,46.0,,-,77.0,,29.99,,California,53.1,,,,,,,8:00 PM,,,15.0,,West,5.8,260.0,90001.0
Los Angeles,Unknown,1970-01-08 05:00:00,45.0,,-,72.0,,29.99,,California,54.0,,,,,,,9:00 PM,,,15.0,,WSW,5.8,240.0,90001.0
Los Angeles,Unknown,1970-01-08 06:00:00,42.1,,-,62.0,,29.99,,California,55.0,,,,,,,10:00 PM,,,15.0,,Calm,Calm,0.0,90001.0
Los Angeles,Unknown,1970-01-08 07:00:00,43.0,,-,69.0,,30.0,,California,53.1,,,,,,,11:00 PM,,,15.0,,SE,4.6,140.0,90001.0
Los Angeles,Unknown,1970-01-08 08:00:00,44.1,,-,74.0,,30.01,,California,52.0,,,,,,,12:00 AM,,,15.0,,ESE,4.6,120.0,90001.0
Los Angeles,Unknown,1970-01-08 09:00:00,43.0,,-,71.0,,30.02,,California,52.0,,,,,,,1:00 AM,,,7.0,,East,4.6,90.0,90001.0
Los Angeles,Smoke,1970-01-08 10:00:00,42.1,,-,74.0,,30.03,,California,50.0,,,,,,,2:00 AM,,,6.0,,East,4.6,90.0,90001.0
Los Angeles,Smoke,1970-01-08 11:00:00,39.9,,-,79.0,,30.01,,California,46.0,,,,,,,3:00 AM,,,6.0,,East,5.8,80.0,90001.0
Los Angeles,Smoke,1970-01-08 12:00:00,39.9,,-,77.0,,30.0,,California,46.9,,,,,,,4:00 AM,,,5.0,,East,5.8,100.0,90001.0
Los Angeles,Smoke,1970-01-08 13:00:00,39.0,,-,74.0,,30.0,,California,46.9,,,,,,,5:00 AM,,,5.0,,ENE,4.6,70.0,90001.0
Los Angeles,Smoke,1970-01-08 14:00:00,26.1,,-,42.0,,29.99,,California,48.0,,,,,,,6:00 AM,,,6.0,,East,5.8,100.0,90001.0
Los Angeles,Unknown,1970-01-08 15:00:00,25.0,,-,41.0,,30.02,,California,48.0,,,,,,,7:00 AM,,,7.0,,East,4.6,100.0,90001.0
Los Angeles,Unknown,1970-01-08 16:00:00,21.0,,-,33.0,,30.03,,California,48.9,,,,,,,8:00 AM,,,7.0,,East,5.8,100.0,90001.0
Los Angeles,Unknown,1970-01-08 17:00:00,21.9,,-,30.0,,30.04,,California,53.1,,,,,,,9:00 AM,,,7.0,,ESE,6.9,120.0,90001.0
Los Angeles,Smoke,1970-01-08 18:00:00,30.0,,-,37.0,,30.05,,California,55.9,,,,,,,10:00 AM,,,6.0,,East,6.9,100.0,90001.0
Los Angeles,Smoke,1970-01-08 19:00:00,21.0,,-,22.0,,30.04,,California,60.1,,,,,,,11:00 AM,,,5.0,,East,8.1,100.0,90001.0
Los Angeles,Smoke,1970-01-08 20:00:00,24.1,,-,23.0,,30.02,,California,62.1,,,,,,,12:00 PM,,,4.0,,SE,5.8,140.0,90001.0
Los Angeles,Smoke,1970-01-08 21:00:00,32.0,,-,30.0,,29.99,,California,64.0,,,,,,,1:00 PM,,,4.0,,South,5.8,170.0,90001.0
Los Angeles,Smoke,1970-01-08 22:00:00,37.0,,-,37.0,,30.0,,California,64.0,,,,,,,2:00 PM,,,4.0,,ESE,5.8,120.0,90001.0
Los Angeles,Smoke,1970-01-08 23:00:00,48.0,,-,60.0,,30.01,,California,62.1,,,,,,,3:00 PM,,,5.0,,West,6.9,260.0,90001.0
Los Angeles,Smoke,1970-01-09 00:00:00,43.0,,-,53.0,,30.01,,California,60.1,,,,,,,4:00 PM,,,6.0,,West,8.1,280.0,90001.0
Los Angeles,Unknown,1970-01-09 01:00:00,45.0,,-,62.0,,30.01,,California,57.9,,,,,,,5:00 PM,,,10.0,,NW,5.8,320.0,90001.0
Los Angeles,Unknown,1970-01-09 02:00:00,37.0,,-,46.0,,30.03,,California,57.9,,,,,,,6:00 PM,,,15.0,,Calm,Calm,0.0,90001.0
Los Angeles,Unknown,1970-01-09 03:00:00,32.0,,-,39.0,,30.03,,California,57.0,,,,,,,7:00 PM,,,15.0,,ESE,3.5,120.0,90001.0
Los Angeles,Unknown,1970-01-09 04:00:00,45.0,,-,69.0,,30.03,,California,55.0,,,,,,,8:00 PM,,,10.0,,NNE,5.8,20.0,90001.0
Los Angeles,Smoke,1970-01-09 05:00:00,50.0,,-,83.0,,30.04,,California,55.0,,,,,,,9:00 PM,,,6.0,,ESE,4.6,110.0,90001.0
Los Angeles,Smoke,1970-01-09 06:00:00,48.0,,-,80.0,,30.05,,California,54.0,,,,,,,10:00 PM,,,6.0,,East,5.8,90.0,90001.0
Los Angeles,Smoke,1970-01-09 07:00:00,48.0,,-,80.0,,30.06,,California,54.0,,,,,,,11:00 PM,,,4.0,,East,4.6,100.0,90001.0
Los Angeles,Smoke,1970-01-09 08:00:00,48.0,,-,80.0,,30.05,,California,54.0,,,,,,,12:00 AM,,,4.0,,East,5.8,90.0,90001.0
Los Angeles,Smoke,1970-01-09 09:00:00,46.9,,-,77.0,,30.05,,California,54.0,,,,,,,1:00 AM,,,5.0,,East,9.2,80.0,90001.0
Los Angeles,Smoke,1970-01-09 10:00:00,46.0,,-,75.0,,30.08,,California,54.0,,,,,,,2:00 AM,,,5.0,,East,9.2,90.0,90001.0
Los Angeles,Smoke,1970-01-09 11:00:00,46.0,,-,75.0,,30.07,,California,54.0,,,,,,,3:00 AM,,,6.0,,East,6.9,90.0,90001.0
Los Angeles,Smoke,1970-01-09 12:00:00,46.0,,-,75.0,,30.04,,California,54.0,,,,,,,4:00 AM,,,6.0,,ENE,8.1,70.0,90001.0
Los Angeles,Light Rain,1970-01-09 13:00:00,39.0,Rain,-,57.0,,30.03,,California,54.0,,,,,,,5:00 AM,,,6.0,,East,10.4,90.0,90001.0
Los Angeles,Light Rain,1970-01-09 14:00:00,39.9,Rain,-,59.0,,30.05,,California,54.0,,,,,,,6:00 AM,,,6.0,,North,10.4,360.0,90001.0
Los Angeles,Unknown,1970-01-09 15:00:00,34.0,,-,47.0,,30.06,,California,54.0,,,,,,,7:00 AM,,,7.0,,North,4.6,360.0,90001.0
Los Angeles,Unknown,1970-01-09 16:00:00,34.0,,-,45.0,,30.08,,California,55.0,,,,,,,8:00 AM,,,7.0,,East,3.5,80.0,90001.0
Los Angeles,Smoke,1970-01-09 17:00:00,45.0,,-,69.0,,30.1,,California,55.0,,,,,,,9:00 AM,,,6.0,,East,4.6,100.0,90001.0
Los Angeles,Smoke,1970-01-09 18:00:00,44.1,,-,62.0,,30.12,,California,57.0,,,,,,,10:00 AM,,,6.0,,East,5.8,100.0,90001.0
Los Angeles,Smoke,1970-01-09 19:00:00,45.0,,-,57.0,,30.1,,California,60.1,,,,,,,11:00 AM,,,6.0,,ESE,5.8,120.0,90001.0
Los Angeles,Smoke,1970-01-09 20:00:00,44.1,,-,54.0,,30.05,,California,61.0,,,,,,,12:00 PM,,,6.0,,East,11.5,90.0,90001.0
Los Angeles,Light Rain Showers,1970-01-09 21:00:00,34.0,Rain,-,35.0,,30.03,,California,62.1,,,,,,,1:00 PM,,,6.0,,ESE,15.0,110.0,90001.0
Los Angeles,Unknown,1970-01-09 22:00:00,33.1,,-,33.0,,30.05,,California,63.0,,,,,,,2:00 PM,,,10.0,,South,13.8,170.0,90001.0
Los Angeles,Light Rain Showers,1970-01-09 23:00:00,44.1,Rain,-,58.0,,30.06,,California,59.0,,,,,,,3:00 PM,,,10.0,,South,11.5,180.0,90001.0
Los Angeles,Light Rain,1970-01-10 00:00:00,48.9,Rain,-,74.0,0.07,30.08,,California,57.0,,,,,,,4:00 PM,,,5.0,,East,8.1,80.0,90001.0
Los Angeles,Light Rain Showers,1970-01-10 01:00:00,48.0,Rain,-,77.0,0.01,30.06,,California,55.0,,,,,,,5:00 PM,,,6.0,,East,13.8,80.0,90001.0
Los Angeles,Light Rain Showers,1970-01-10 02:00:00,46.9,Rain,-,74.0,0.03,30.04,,California,55.0,,,,,,,6:00 PM,,,6.0,,ESE,15.0,110.0,90001.0
Los Angeles,Unknown,1970-01-10 03:00:00,46.0,,-,77.0,0.03,30.06,,California,53.1,,,,,,,7:00 PM,,,7.0,,East,16.1,90.0,90001.0
Los Angeles,Light Rain Showers,1970-01-10 04:00:00,46.0,Rain,-,83.0,0.12,30.09,,California,51.1,,,,,,,8:00 PM,,,6.0,,ENE,8.1,70.0,90001.0
Los Angeles,Light Rain,1970-01-10 05:00:00,46.9,Fog-Rain,-,89.0,0.04,30.08,,California,50.0,,,,,,,9:00 PM,,,4.0,,East,15.0,90.0,90001.0
Los Angeles,Light Rain,1970-01-10 06:00:00,46.0,Fog-Rain,-,90.0,0.02,30.09,,California,48.9,,,,,,,10:00 PM,,,4.0,,East,16.1,80.0,90001.0
Los Angeles,Light Rain,1970-01-10 07:00:00,46.9,Fog-Rain,-,93.0,0.01,30.08,,California,48.9,,,,,,,11:00 PM,,,4.0,,East,13.8,80.0,90001.0
Los Angeles,Light Rain,1970-01-10 08:00:00,46.9,Fog-Rain,-,93.0,0.06,30.07,,California,48.9,,,,,,,12:00 AM,,,4.0,,ENE,12.7,70.0,90001.0
Los Angeles,Light Rain,1970-01-10 09:00:00,46.9,Fog-Rain,-,89.0,,30.08,,California,50.0,,,,,,,1:00 AM,,,4.0,,ENE,11.5,70.0,90001.0
Los Angeles,Light Rain,1970-01-10 10:00:00,48.0,Fog-Rain,-,93.0,0.12,30.11,,California,50.0,,,,,,,2:00 AM,,,4.0,,NE,6.9,50.0,90001.0
Los Angeles,Unknown,1970-01-10 11:00:00,48.0,,-,93.0,0.01,30.09,,California,50.0,,,,,,,3:00 AM,,,7.0,,East,10.4,80.0,90001.0
Los Angeles,Unknown,1970-01-10 12:00:00,48.9,,-,92.0,,30.11,,California,51.1,,,,,,,4:00 AM,,,7.0,,East,9.2,80.0,90001.0
Los Angeles,Unknown,1970-01-10 13:00:00,48.0,,-,86.0,,30.11,,California,52.0,,,,,,,5:00 AM,,,7.0,,East,6.9,80.0,90001.0
Los Angeles,Unknown,1970-01-10 14:00:00,48.9,,-,89.0,,30.11,,California,52.0,,,,,,,6:00 AM,,,7.0,,East,8.1,90.0,90001.0
Los Angeles,Unknown,1970-01-10 15:00:00,48.9,,-,89.0,,30.14,,California,52.0,,,,,,,7:00 AM,,,7.0,,ESE,4.6,120.0,90001.0
Los Angeles,Unknown,1970-01-10 16:00:00,50.0,,-,89.0,,30.15,,California,53.1,,,,,,,8:00 AM,,,7.0,,ESE,5.8,120.0,90001.0
Los Angeles,Smoke,1970-01-10 17:00:00,51.1,,-,86.0,,30.15,,California,55.0,,,,,,,9:00 AM,,,5.0,,North,4.6,360.0,90001.0
Los Angeles,Smoke,1970-01-10 18:00:00,52.0,,-,87.0,,30.16,,California,55.9,,,,,,,10:00 AM,,,5.0,,ENE,4.6,60.0,90001.0
Los Angeles,Smoke,1970-01-10 19:00:00,53.1,,-,81.0,,30.14,,California,59.0,,,,,,,11:00 AM,,,5.0,,East,5.8,100.0,90001.0
Los Angeles,Smoke,1970-01-10 20:00:00,53.1,,-,81.0,,30.11,,California,59.0,,,,,,,12:00 PM,,,5.0,,East,4.6,90.0,90001.0
Los Angeles,Unknown,1970-01-10 21:00:00,52.0,,-,70.0,,30.09,,California,62.1,,,,,,,1:00 PM,,,8.0,,SE,5.8,140.0,90001.0
Los Angeles,Unknown,1970-01-10 22:00:00,52.0,,-,72.0,,30.1,,California,61.0,,,,,,,2:00 PM,,,7.0,,SW,10.4,230.0,90001.0
Los Angeles,Unknown,1970-01-10 23:00:00,54.0,,-,78.0,,30.12,,California,61.0,,,,,,,3:00 PM,,,7.0,,SW,9.2,230.0,90001.0
Los Angeles,Unknown,1970-01-11 00:00:00,54.0,,-,80.0,,30.12,,California,60.1,,,,,,,4:00 PM,,,8.0,,WSW,10.4,250.0,90001.0
Los Angeles,Unknown,1970-01-11 01:00:00,53.1,,-,87.0,,30.12,,California,57.0,,,,,,,5:00 PM,,,8.0,,West,10.4,260.0,90001.0
Los Angeles,Unknown,1970-01-11 02:00:00,52.0,,-,83.0,,30.12,,California,57.0,,,,,,,6:00 PM,,,7.0,,WNW,4.6,300.0,90001.0
Los Angeles,Unknown,1970-01-11 03:00:00,52.0,,-,87.0,,30.14,,California,55.9,,,,,,,7:00 PM,,,7.0,,WSW,5.8,240.0,90001.0
Los Angeles,Smoke,1970-01-11 04:00:00,52.0,,-,87.0,,30.15,,California,55.9,,,,,,,8:00 PM,,,5.0,,South,5.8,170.0,90001.0
Los Angeles,Smoke,1970-01-11 05:00:00,52.0,,-,87.0,,30.18,,California,55.9,,,,,,,9:00 PM,,,6.0,,SSW,4.6,200.0,90001.0
Los Angeles,Smoke,1970-01-11 06:00:00,53.1,,-,90.0,,30.17,,California,55.9,,,,,,,10:00 PM,,,6.0,,South,3.5,170.0,90001.0
Los Angeles,Unknown,1970-01-11 07:00:00,53.1,,-,90.0,,30.18,,California,55.9,,,,,,,11:00 PM,,,7.0,,ENE,2.3,70.0,90001.0
Los Angeles,Unknown,1970-01-11 08:00:00,53.1,,-,90.0,,30.17,,California,55.9,,,,,,,12:00 AM,,,7.0,,NNE,4.6,20.0,90001.0
Los Angeles,Smoke,1970-01-11 09:00:00,52.0,,-,87.0,,30.17,,California,55.9,,,,,,,1:00 AM,,,4.0,,East,6.9,90.0,90001.0
Los Angeles,Smoke,1970-01-11 10:00:00,52.0,,-,89.0,,30.17,,California,55.0,,,,,,,2:00 AM,,,3.0,,East,3.5,80.0,90001.0
Los Angeles,Smoke,1970-01-11 11:00:00,52.0,,-,89.0,,30.17,,California,55.0,,,,,,,3:00 AM,,,3.0,,East,5.8,80.0,90001.0
Los Angeles,Smoke,1970-01-11 12:00:00,52.0,,-,89.0,,30.16,,California,55.0,,,,,,,4:00 AM,,,3.0,,East,5.8,100.0,90001.0
Los Angeles,Light Rain,1970-01-11 13:00:00,52.0,Rain,-,89.0,,30.16,,California,55.0,,,,,,,5:00 AM,,,4.0,,East,4.6,100.0,90001.0
Los Angeles,Light Rain,1970-01-11 14:00:00,52.0,Rain,-,89.0,,30.17,,California,55.0,,,,,,,6:00 AM,,,4.0,,East,6.9,90.0,90001.0
Los Angeles,Smoke,1970-01-11 15:00:00,52.0,,-,89.0,0.01,30.14,,California,55.0,,,,,,,7:00 AM,,,4.0,,East,6.9,90.0,90001.0
Los Angeles,Light Rain,1970-01-11 16:00:00,52.0,Rain,-,89.0,0.01,30.18,,California,55.0,,,,,,,8:00 AM,,,4.0,,NNE,3.5,20.0,90001.0
Los Angeles,Light Rain,1970-01-11 17:00:00,53.1,Rain,-,93.0,,30.19,,California,55.0,,,,,,,9:00 AM,,,4.0,,East,6.9,90.0,90001.0
Los Angeles,Light Rain,1970-01-11 18:00:00,53.1,Rain,-,90.0,,30.18,,California,55.9,,,,,,,10:00 AM,,,4.0,,East,8.1,100.0,90001.0
Los Angeles,Light Rain,1970-01-11 19:00:00,53.1,Rain,-,87.0,,30.17,,California,57.0,,,,,,,11:00 AM,,,4.0,,East,6.9,100.0,90001.0
Los Angeles,Smoke,1970-01-11 20:00:00,54.0,,-,87.0,,30.12,,California,57.9,,,,,,,12:00 PM,,,5.0,,East,9.2,80.0,90001.0
Los Angeles,Light Rain,1970-01-11 21:00:00,51.1,Fog-Rain,-,81.0,0.02,30.11,,California,57.0,,,,,,,1:00 PM,,,2.0,,ESE,6.9,120.0,90001.0
Los Angeles,Light Rain,1970-01-11 22:00:00,52.0,Fog-Rain,-,89.0,0.07,30.09,,California,55.0,,,,,,,2:00 PM,,,3.0,,SE,10.4,130.0,90001.0
Los Angeles,Light Rain,1970-01-11 23:00:00,52.0,Fog-Rain,-,89.0,0.01,30.1,,California,55.0,,,,,,,3:00 PM,,,5.0,,East,10.4,100.0,90001.0
Los Angeles,Light Rain,1970-01-12 00:00:00,52.0,Fog-Rain,-,89.0,,30.09,,California,55.0,,,,,,,4:00 PM,,,6.0,,East,9.2,100.0,90001.0
Los Angeles,Unknown,1970-01-12 01:00:00,52.0,,-,89.0,,30.09,,California,55.0,,,,,,,5:00 PM,,,7.0,,East,10.4,100.0,90001.0
Los Angeles,Light Rain,1970-01-12 02:00:00,52.0,Rain,-,63.0,,30.09,,California,64.9,,,,,,,6:00 PM,,,7.0,,East,9.2,90.0,90001.0
Los Angeles,Unknown,1970-01-12 03:00:00,52.0,,-,89.0,,30.09,,California,55.0,,,,,,,7:00 PM,,,7.0,,East,8.1,80.0,90001.0
Los Angeles,Unknown,1970-01-12 04:00:00,51.1,,-,86.0,,30.09,,California,55.0,,,,,,,8:00 PM,,,10.0,,ENE,8.1,60.0,90001.0
Los Angeles,Light Rain,1970-01-12 05:00:00,52.0,Fog-Rain,-,89.0,,30.11,,California,55.0,,,,,,,9:00 PM,,,4.0,,ENE,10.4,60.0,90001.0
Los Angeles,Light Drizzle,1970-01-12 06:00:00,52.0,Fog,-,89.0,0.01,30.11,,California,55.0,,,,,,,10:00 PM,,,10.5,,ENE,10.4,70.0,90001.0
Los Angeles,Light Drizzle,1970-01-12 07:00:00,52.0,Fog,-,89.0,,30.1,,California,55.0,,,,,,,11:00 PM,,,4.0,,East,8.1,90.0,90001.0
Los Angeles,Light Drizzle,1970-01-12 08:00:00,53.1,Fog,-,93.0,,30.08,,California,55.0,,,,,,,12:00 AM,,,3.0,,East,10.4,100.0,90001.0
Los Angeles,Fog,1970-01-12 09:00:00,53.1,Fog,-,93.0,,30.08,,California,55.0,,,,,,,1:00 AM,,,3.0,,NE,10.4,50.0,90001.0
Los Angeles,Fog,1970-01-12 10:00:00,53.1,Fog,-,93.0,,30.08,,California,55.0,,,,,,,2:00 AM,,,4.0,,East,6.9,80.0,90001.0
Los Angeles,Light Drizzle,1970-01-12 11:00:00,53.1,Fog,-,93.0,,30.08,,California,55.0,,,,,,,3:00 AM,,,4.0,,ENE,9.2,60.0,90001.0
Los Angeles,Fog,1970-01-12 12:00:00,53.1,Fog,-,93.0,,30.07,,California,55.0,,,,,,,4:00 AM,,,4.0,,East,5.8,80.0,90001.0
Los Angeles,Light Drizzle,1970-01-12 13:00:00,53.1,Fog,-,93.0,,30.06,,California,55.0,,,,,,,5:00 AM,,,4.0,,ENE,6.9,70.0,90001.0
Los Angeles,Light Drizzle,1970-01-12 14:00:00,53.1,Fog,-,93.0,,30.09,,California,55.0,,,,,,,6:00 AM,,,4.0,,NE,5.8,40.0,90001.0
Los Angeles,Fog,1970-01-12 15:00:00,53.1,Fog,-,93.0,,30.09,,California,55.0,,,,,,,7:00 AM,,,4.0,,NE,8.1,50.0,90001.0
Los Angeles,Fog,1970-01-12 16:00:00,53.1,Fog,-,93.0,,30.09,,California,55.0,,,,,,,8:00 AM,,,4.0,,NE,6.9,40.0,90001.0
Los Angeles,Smoke,1970-01-12 17:00:00,53.1,,-,90.0,,30.12,,California,55.9,,,,,,,9:00 AM,,,4.0,,ENE,6.9,60.0,90001.0
Los Angeles,Smoke,1970-01-12 18:00:00,54.0,,-,89.0,,30.13,,California,57.0,,,,,,,10:00 AM,,,4.0,,East,5.8,80.0,90001.0
Los Angeles,Smoke,1970-01-12 19:00:00,55.0,,-,87.0,,30.13,,California,59.0,,,,,,,11:00 AM,,,3.0,,SE,5.8,130.0,90001.0
Los Angeles,Smoke,1970-01-12 20:00:00,55.0,,-,83.0,,30.11,,California,60.1,,,,,,,12:00 PM,,,3.0,,SSE,4.6,150.0,90001.0
Los Angeles,Smoke,1970-01-12 21:00:00,55.0,,-,78.0,,30.09,,California,62.1,,,,,,,1:00 PM,,,3.0,,WSW,4.6,240.0,90001.0
Los Angeles,Smoke,1970-01-12 22:00:00,55.9,,-,75.0,,30.09,,California,64.0,,,,,,,2:00 PM,,,3.0,,SW,9.2,230.0,90001.0
Los Angeles,Smoke,1970-01-12 23:00:00,55.9,,-,80.0,,30.09,,California,62.1,,,,,,,3:00 PM,,,4.0,,WSW,11.5,240.0,90001.0
Los Angeles,Smoke,1970-01-13 00:00:00,55.9,,-,83.0,,30.09,,California,61.0,,,,,,,4:00 PM,,,4.0,,WSW,10.4,240.0,90001.0
Los Angeles,Smoke,1970-01-13 01:00:00,55.0,,-,87.0,,30.09,,California,59.0,,,,,,,5:00 PM,,,3.0,,West,12.7,260.0,90001.0
Los Angeles,Smoke,1970-01-13 02:00:00,54.0,,-,87.0,,30.11,,California,57.9,,,,,,,6:00 PM,,,5.0,,West,8.1,270.0,90001.0
Los Angeles,Smoke,1970-01-13 03:00:00,54.0,,-,89.0,,30.12,,California,57.0,,,,,,,7:00 PM,,,6.0,,WSW,6.9,250.0,90001.0
Los Angeles,Smoke,1970-01-13 04:00:00,54.0,,-,89.0,,30.14,,California,57.0,,,,,,,8:00 PM,,,5.0,,West,9.2,260.0,90001.0
Los Angeles,Smoke,1970-01-13 05:00:00,54.0,,-,93.0,,30.14,,California,55.9,,,,,,,9:00 PM,,,5.0,,SW,3.5,220.0,90001.0
Los Angeles,Smoke,1970-01-13 06:00:00,53.1,,-,90.0,,30.15,,California,55.9,,,,,,,10:00 PM,,,5.0,,SW,3.5,220.0,90001.0
Los Angeles,Smoke,1970-01-13 07:00:00,54.0,,-,93.0,,30.16,,California,55.9,,,,,,,11:00 PM,,,4.0,,Calm,Calm,0.0,90001.0
Los Angeles,Fog,1970-01-13 08:00:00,54.0,Fog,-,93.0,,30.16,,California,55.9,,,,,,,12:00 AM,,,3.0,,SE,3.5,130.0,90001.0
Los Angeles,Fog,1970-01-13 09:00:00,54.0,Fog,-,93.0,,30.18,,California,55.9,,,,,,,1:00 AM,,,4.0,,WNW,8.1,290.0,90001.0
Los Angeles,Fog,1970-01-13 10:00:00,54.0,Fog,-,93.0,,30.17,,California,55.9,,,,,,,2:00 AM,,,5.0,,NE,3.5,50.0,90001.0
Los Angeles,Fog,1970-01-13 11:00:00,54.0,Fog,-,93.0,,30.17,,California,55.9,,,,,,,3:00 AM,,,5.0,,ESE,5.8,120.0,90001.0
Los Angeles,Fog,1970-01-13 12:00:00,54.0,Fog,-,93.0,,30.19,,California,55.9,,,,,,,4:00 AM,,,4.0,,WNW,3.5,290.0,90001.0
Los Angeles,Smoke,1970-01-13 13:00:00,52.0,,-,87.0,,30.17,,California,55.9,,,,,,,5:00 AM,,,5.0,,SSE,3.5,160.0,90001.0
Los Angeles,Smoke,1970-01-13 14:00:00,52.0,,-,89.0,,30.18,,California,55.0,,,,,,,6:00 AM,,,5.0,,SW,3.5,220.0,90001.0
Los Angeles,Smoke,1970-01-13 15:00:00,52.0,,-,89.0,,30.22,,California,55.0,,,,,,,7:00 AM,,,4.0,,NNW,5.8,330.0,90001.0
Los Angeles,Smoke,1970-01-13 16:00:00,52.0,,-,89.0,,30.23,,California,55.0,,,,,,,8:00 AM,,,3.0,,NW,4.6,320.0,90001.0
Los Angeles,Smoke,1970-01-13 17:00:00,52.0,,-,87.0,,30.26,,California,55.9,,,,,,,9:00 AM,,,4.0,,NNW,3.5,330.0,90001.0
Los Angeles,Smoke,1970-01-13 18:00:00,52.0,,-,81.0,,30.26,,California,57.9,,,,,,,10:00 AM,,,5.0,,WSW,4.6,240.0,90001.0
Los Angeles,Unknown,1970-01-13 19:00:00,52.0,,-,78.0,,30.27,,California,59.0,,,,,,,11:00 AM,,,7.0,,SW,11.5,230.0,90001.0
Los Angeles,Unknown,1970-01-13 20:00:00,52.0,,-,78.0,,30.25,,California,59.0,,,,,,,12:00 PM,,,15.0,,WSW,10.4,250.0,90001.0
Los Angeles,Unknown,1970-01-13 21:00:00,52.0,,-,78.0,,30.23,,California,59.0,,,,,,,1:00 PM,,,8.0,,SW,11.5,230.0,90001.0
Los Angeles,Unknown,1970-01-13 22:00:00,53.1,,-,75.0,,30.22,,California,61.0,,,,,,,2:00 PM,,,8.0,,West,10.4,260.0,90001.0
Los Angeles,Unknown,1970-01-13 23:00:00,53.1,,-,78.0,,30.21,,California,60.1,,,,,,,3:00 PM,,,8.0,,WSW,6.9,250.0,90001.0
Los Angeles,Unknown,1970-01-14 00:00:00,53.1,,-,78.0,,30.21,,California,60.1,,,,,,,4:00 PM,,,7.0,,SW,6.9,230.0,90001.0
Los Angeles,Unknown,1970-01-14 01:00:00,52.0,,-,81.0,,30.18,,California,57.9,,,,,,,5:00 PM,,,7.0,,WSW,9.2,240.0,90001.0
Los Angeles,Unknown,1970-01-14 02:00:00,52.0,,-,83.0,,30.2,,California,57.0,,,,,,,6:00 PM,,,9.0,,West,8.1,260.0,90001.0
Los Angeles,Unknown,1970-01-14 03:00:00,53.1,,-,87.0,,30.2,,California,57.0,,,,,,,7:00 PM,,,8.0,,WSW,5.8,240.0,90001.0
Los Angeles,Unknown,1970-01-14 04:00:00,53.1,,-,87.0,,30.21,,California,57.0,,,,,,,8:00 PM,,,10.0,,SW,6.9,230.0,90001.0
Los Angeles,Unknown,1970-01-14 05:00:00,53.1,,-,87.0,,30.21,,California,57.0,,,,,,,9:00 PM,,,10.0,,SW,8.1,230.0,90001.0
Los Angeles,Unknown,1970-01-14 06:00:00,54.0,,-,89.0,,30.21,,California,57.0,,,,,,,10:00 PM,,,10.0,,West,8.1,270.0,90001.0
Los Angeles,Unknown,1970-01-14 07:00:00,53.1,,-,87.0,,30.2,,California,57.0,,,,,,,11:00 PM,,,9.0,,WSW,3.5,240.0,90001.0
Los Angeles,Unknown,1970-01-14 08:00:00,53.1,,-,87.0,,30.19,,California,57.0,,,,,,,12:00 AM,,,8.0,,West,8.1,280.0,90001.0
Los Angeles,Unknown,1970-01-14 09:00:00,52.0,,-,83.0,,30.18,,California,57.0,,,,,,,1:00 AM,,,7.0,,WNW,5.8,290.0,90001.0
Los Angeles,Unknown,1970-01-14 10:00:00,53.1,,-,87.0,,30.19,,California,57.0,,,,,,,2:00 AM,,,7.0,,NW,3.5,310.0,90001.0
Los Angeles,Unknown,1970-01-14 11:00:00,52.0,,-,83.0,,30.19,,California,57.0,,,,,,,3:00 AM,,,7.0,,North,3.5,10.0,90001.0
Los Angeles,Unknown,1970-01-14 12:00:00,52.0,,-,83.0,,30.18,,California,57.0,,,,,,,4:00 AM,,,7.0,,NE,4.6,40.0,90001.0
Los Angeles,Smoke,1970-01-14 13:00:00,52.0,,-,83.0,,30.14,,California,57.0,,,,,,,5:00 AM,,,5.0,,ESE,4.6,110.0,90001.0
Los Angeles,Smoke,1970-01-14 14:00:00,53.1,,-,87.0,,30.14,,California,57.0,,,,,,,6:00 AM,,,5.0,,SE,5.8,130.0,90001.0
Los Angeles,Smoke,1970-01-14 15:00:00,53.1,,-,87.0,,30.14,,California,57.0,,,,,,,7:00 AM,,,4.0,,ESE,4.6,110.0,90001.0
Los Angeles,Light Drizzle,1970-01-14 16:00:00,53.1,,-,87.0,,30.14,,California,57.0,,,,,,,8:00 AM,,,3.0,,ESE,3.5,120.0,90001.0
Los Angeles,Fog,1970-01-14 17:00:00,54.0,Fog,-,89.0,,30.15,,California,57.0,,,,,,,9:00 AM,,,10.5,,ESE,5.8,120.0,90001.0
Los Angeles,Light Rain,1970-01-14 18:00:00,55.0,Fog-Rain,-,93.0,,30.15,,California,57.0,,,,,,,10:00 AM,,,2.8,,ESE,5.8,120.0,90001.0
Los Angeles,Light Rain,1970-01-14 19:00:00,55.9,Fog-Rain,-,96.0,0.03,30.14,,California,57.0,,,,,,,11:00 AM,,,4.0,,West,4.6,270.0,90001.0
Los Angeles,Unknown,1970-01-14 20:00:00,55.9,,-,93.0,,30.11,,California,57.9,,,,,,,12:00 PM,,,7.0,,SW,6.9,230.0,90001.0
Los Angeles,Light Drizzle,1970-01-14 21:00:00,55.9,Fog,-,90.0,,30.09,,California,59.0,,,,,,,1:00 PM,,,4.0,,WSW,8.1,240.0,90001.0
Los Angeles,Light Drizzle,1970-01-14 22:00:00,55.9,,-,90.0,,30.09,,California,59.0,,,,,,,2:00 PM,,,4.0,,West,8.1,270.0,90001.0
Los Angeles,Drizzle,1970-01-14 23:00:00,55.0,,-,90.0,,30.08,,California,57.9,,,,,,,3:00 PM,,,5.0,,West,8.1,260.0,90001.0
Los Angeles,Light Rain,1970-01-15 00:00:00,55.0,Fog-Rain,-,93.0,0.01,30.09,,California,57.0,,,,,,,4:00 PM,,,4.0,,SSW,3.5,200.0,90001.0
Los Angeles,Light Drizzle,1970-01-15 01:00:00,55.0,Fog,-,93.0,,30.07,,California,57.0,,,,,,,5:00 PM,,,3.0,,NW,5.8,320.0,90001.0
Los Angeles,Unknown,1970-01-15 02:00:00,55.0,,-,93.0,,30.06,,California,57.0,,,,,,,6:00 PM,,,7.0,,SW,3.5,230.0,90001.0
Los Angeles,Light Rain,1970-01-15 03:00:00,55.0,Fog-Rain,-,93.0,,30.07,,California,57.0,,,,,,,7:00 PM,,,5.0,,WSW,3.5,250.0,90001.0
Los Angeles,Light Rain,1970-01-15 04:00:00,55.0,Fog-Rain,-,93.0,0.02,30.06,,California,57.0,,,,,,,8:00 PM,,,3.0,,South,2.3,190.0,90001.0
Los Angeles,Fog,1970-01-15 05:00:00,55.9,Fog,-,96.0,,30.06,,California,57.0,,,,,,,9:00 PM,,,5.0,,West,6.9,260.0,90001.0
Los Angeles,Light Rain,1970-01-15 06:00:00,55.9,Fog-Rain,-,96.0,,30.06,,California,57.0,,,,,,,10:00 PM,,,4.0,,SE,4.6,140.0,90001.0
Los Angeles,Fog,1970-01-15 07:00:00,55.9,Fog,-,96.0,,30.07,,California,57.0,,,,,,,11:00 PM,,,6.0,,SW,4.6,220.0,90001.0
Los Angeles,Fog,1970-01-15 08:00:00,55.9,Fog,-,96.0,,30.06,,California,57.0,,,,,,,12:00 AM,,,6.0,,WSW,6.9,250.0,90001.0
Los Angeles,Light Rain,1970-01-15 09:00:00,55.9,Fog-Rain,-,93.0,,30.05,,California,57.9,,,,,,,1:00 AM,,,5.0,,WSW,9.2,240.0,90001.0
Los Angeles,Fog,1970-01-15 10:00:00,55.9,Fog,-,93.0,,30.05,,California,57.9,,,,,,,2:00 AM,,,5.0,,West,5.8,260.0,90001.0
Los Angeles,Fog,1970-01-15 11:00:00,55.9,Fog,-,93.0,,30.06,,California,57.9,,,,,,,3:00 AM,,,5.0,,West,5.8,260.0,90001.0
Los Angeles,Fog,1970-01-15 12:00:00,55.9,Fog,-,93.0,,30.04,,California,57.9,,,,,,,4:00 AM,,,2.0,,WSW,3.5,240.0,90001.0
Los Angeles,Light Rain,1970-01-15 13:00:00,55.0,Fog-Rain,-,93.0,,30.05,,California,57.0,,,,,,,5:00 AM,,,4.0,,North,3.5,10.0,90001.0
Los Angeles,Fog,1970-01-15 14:00:00,55.0,Fog,-,93.0,,30.06,,California,57.0,,,,,,,6:00 AM,,,5.0,,WNW,5.8,300.0,90001.0
Los Angeles,Unknown,1970-01-15 15:00:00,55.0,,-,93.0,,30.08,,California,57.0,,,,,,,7:00 AM,,,7.0,,SSW,4.6,200.0,90001.0
Los Angeles,Unknown,1970-01-15 16:00:00,55.0,,-,93.0,,30.08,,California,57.0,,,,,,,8:00 AM,,,7.0,,WSW,5.8,250.0,90001.0
Los Angeles,Unknown,1970-01-15 17:00:00,55.9,,-,90.0,,30.09,,California,59.0,,,,,,,9:00 AM,,,7.0,,West,4.6,260.0,90001.0
Los Angeles,Unknown,1970-01-15 18:00:00,55.0,,-,87.0,,30.12,,California,59.0,,,,,,,10:00 AM,,,7.0,,West,9.2,270.0,90001.0
Los Angeles,Unknown,1970-01-15 19:00:00,55.0,,-,87.0,,30.12,,California,59.0,,,,,,,11:00 AM,,,7.0,,WNW,3.5,290.0,90001.0
Los Angeles,Unknown,1970-01-15 20:00:00,55.0,,-,83.0,,30.1,,California,60.1,,,,,,,12:00 PM,,,7.0,,WSW,8.1,250.0,90001.0
Los Angeles,Unknown,1970-01-15 21:00:00,55.9,,-,83.0,,30.08,,California,61.0,,,,,,,1:00 PM,,,7.0,,West,11.5,260.0,90001.0
Los Angeles,Unknown,1970-01-15 22:00:00,55.0,,-,81.0,,30.07,,California,61.0,,,,,,,2:00 PM,,,7.0,,West,10.4,270.0,90001.0
Los Angeles,Unknown,1970-01-15 23:00:00,55.0,,-,83.0,,30.07,,California,60.1,,,,,,,3:00 PM,,,7.0,,West,9.2,260.0,90001.0
Los Angeles,Unknown,1970-01-16 00:00:00,55.0,,-,83.0,,30.08,,California,60.1,,,,,,,4:00 PM,,,7.0,,WSW,8.1,250.0,90001.0
Los Angeles,Unknown,1970-01-16 01:00:00,55.0,,-,87.0,,30.09,,California,59.0,,,,,,,5:00 PM,,,10.0,,West,9.2,270.0,90001.0
Los Angeles,Unknown,1970-01-16 02:00:00,55.0,,-,87.0,,30.1,,California,59.0,,,,,,,6:00 PM,,,15.0,,West,8.1,260.0,90001.0
Los Angeles,Unknown,1970-01-16 03:00:00,54.0,,-,87.0,,30.12,,California,57.9,,,,,,,7:00 PM,,,15.0,,WSW,6.9,250.0,90001.0
Los Angeles,Unknown,1970-01-16 04:00:00,54.0,,-,87.0,,30.12,,California,57.9,,,,,,,8:00 PM,,,15.0,,WSW,5.8,240.0,90001.0
Los Angeles,Unknown,1970-01-16 05:00:00,54.0,,-,87.0,,30.14,,California,57.9,,,,,,,9:00 PM,,,15.0,,WSW,5.8,240.0,90001.0
Los Angeles,Light Rain,1970-01-16 06:00:00,55.0,Rain,-,90.0,,30.15,,California,57.9,,,,,,,10:00 PM,,,7.0,,SW,4.6,220.0,90001.0
Los Angeles,Light Rain,1970-01-16 07:00:00,55.0,Rain,-,90.0,0.01,30.16,,California,57.9,,,,,,,11:00 PM,,,4.0,,SW,5.8,230.0,90001.0
Los Angeles,Light Rain,1970-01-16 08:00:00,55.0,Rain,-,93.0,0.04,30.15,,California,57.0,,,,,,,12:00 AM,,,4.0,,South,3.5,180.0,90001.0
Los Angeles,Light Rain,1970-01-16 09:00:00,55.0,Fog-Rain,-,93.0,0.02,30.15,,California,57.0,,,,,,,1:00 AM,,,3.0,,SE,2.3,140.0,90001.0
Los Angeles,Light Rain,1970-01-16 10:00:00,55.0,Fog-Rain,-,93.0,0.02,30.15,,California,57.0,,,,,,,2:00 AM,,,10.5,,East,6.9,100.0,90001.0
Los Angeles,Light Rain,1970-01-16 11:00:00,55.0,Fog-Rain,-,93.0,0.04,30.15,,California,57.0,,,,,,,3:00 AM,,,10.5,,East,5.8,80.0,90001.0
Los Angeles,Light Rain,1970-01-16 12:00:00,55.0,Fog-Rain,-,93.0,0.02,30.14,,California,57.0,,,,,,,4:00 AM,,,3.0,,East,11.5,90.0,90001.0
Los Angeles,Light Rain,1970-01-16 13:00:00,55.0,Fog-Rain,-,93.0,0.01,30.14,,California,57.0,,,,,,,5:00 AM,,,3.0,,East,9.2,90.0,90001.0
Los Angeles,Light Rain,1970-01-16 14:00:00,55.9,Fog-Rain,-,96.0,0.01,30.16,,California,57.0,,,,,,,6:00 AM,,,4.0,,East,8.1,90.0,90001.0
Los Angeles,Light Rain,1970-01-16 15:00:00,55.9,Fog-Rain,-,96.0,,30.17,,California,57.0,,,,,,,7:00 AM,,,4.0,,East,9.2,100.0,90001.0
Los Angeles,Fog,1970-01-16 16:00:00,55.9,Fog,-,96.0,,30.17,,California,57.0,,,,,,,8:00 AM,,,4.0,,ESE,10.4,120.0,90001.0
Los Angeles,Light Rain,1970-01-16 17:00:00,55.9,Fog-Rain,-,96.0,0.01,30.19,,California,57.0,,,,,,,9:00 AM,,,5.5,,ESE,10.4,110.0,90001.0
Los Angeles,Light Rain,1970-01-16 18:00:00,57.0,Fog-Rain,-,100.0,,30.19,,California,57.0,,,,,,,10:00 AM,,,2.0,,ESE,9.2,110.0,90001.0
Los Angeles,Light Rain,1970-01-16 19:00:00,57.0,Fog-Rain,-,97.0,0.01,30.17,,California,57.9,,,,,,,11:00 AM,,,3.0,,East,12.7,100.0,90001.0
Los Angeles,Light Rain,1970-01-16 20:00:00,57.0,Fog-Rain,-,97.0,,30.12,,California,57.9,,,,,,,12:00 PM,,,4.0,,SE,13.8,130.0,90001.0
Los Angeles,Light Rain,1970-01-16 21:00:00,57.0,Fog-Rain,-,97.0,0.14,30.11,,California,57.9,,,,,,,1:00 PM,,,5.5,,ESE,10.4,110.0,90001.0
Los Angeles,Light Rain,1970-01-16 22:00:00,57.0,Fog-Rain,-,97.0,0.36,30.09,,California,57.9,,,,,,,2:00 PM,,,10.5,,ESE,11.5,120.0,90001.0
Los Angeles,Light Rain,1970-01-16 23:00:00,57.9,Fog-Rain,-,100.0,0.02,30.11,,California,57.9,,,,,,,3:00 PM,,,5.5,,ESE,6.9,110.0,90001.0
Los Angeles,Light Rain,1970-01-17 00:00:00,57.9,Fog-Rain,-,96.0,0.01,30.11,,California,59.0,,,,,,,4:00 PM,,,2.0,,East,10.4,100.0,90001.0
Los Angeles,Light Rain,1970-01-17 01:00:00,57.9,Fog-Rain,-,96.0,,30.11,,California,59.0,,,,,,,5:00 PM,,,10.5,,East,10.4,90.0,90001.0
Los Angeles,Fog,1970-01-17 02:00:00,57.9,Fog,-,96.0,,30.11,,California,59.0,,,,,,,6:00 PM,,,4.0,,East,11.5,90.0,90001.0
Los Angeles,Fog,1970-01-17 03:00:00,57.9,Fog,-,96.0,,30.13,,California,59.0,,,,,,,7:00 PM,,,4.0,,ENE,6.9,70.0,90001.0
Los Angeles,Fog,1970-01-17 04:00:00,57.9,Fog,-,96.0,,30.13,,California,59.0,,,,,,,8:00 PM,,,4.0,,East,5.8,90.0,90001.0
Los Angeles,Fog,1970-01-17 05:00:00,57.9,Fog,-,96.0,,30.13,,California,59.0,,,,,,,9:00 PM,,,2.0,,NE,5.8,40.0,90001.0
Los Angeles,Fog,1970-01-17 06:00:00,57.9,Fog,-,96.0,,30.17,,California,59.0,,,,,,,10:00 PM,,,5.0,,NW,3.5,320.0,90001.0
Los Angeles,Fog,1970-01-17 07:00:00,57.0,Fog,-,93.0,,30.16,,California,59.0,,,,,,,11:00 PM,,,4.0,,SSW,6.9,200.0,90001.0
Los Angeles,Fog,1970-01-17 08:00:00,57.0,Fog,-,93.0,,30.16,,California,59.0,,,,,,,12:00 AM,,,0.6,,West,8.1,270.0,90001.0
Los Angeles,Fog,1970-01-17 09:00:00,57.0,Fog,-,93.0,,30.16,,California,59.0,,,,,,,1:00 AM,,,5.5,,West,10.4,260.0,90001.0
Los Angeles,Fog,1970-01-17 10:00:00,57.0,Fog,-,97.0,,30.15,,California,57.9,,,,,,,2:00 AM,,,0.8,,WNW,5.8,300.0,90001.0
Los Angeles,Fog,1970-01-17 11:00:00,55.9,Fog,-,93.0,,30.15,,California,57.9,,,,,,,3:00 AM,,,0.4,,West,5.8,260.0,90001.0
Los Angeles,Fog,1970-01-17 12:00:00,55.9,Fog,-,96.0,,30.14,,California,57.0,,,,,,,4:00 AM,,,10.5,,West,6.9,260.0,90001.0
Los Angeles,Fog,1970-01-17 13:00:00,55.9,Fog,-,96.0,,30.13,,California,57.0,,,,,,,5:00 AM,,,6.0,,West,9.2,280.0,90001.0
Los Angeles,Unknown,1970-01-17 14:00:00,55.9,,-,96.0,,30.13,,California,57.0,,,,,,,6:00 AM,,,7.0,,West,11.5,280.0,90001.0
Los Angeles,Unknown,1970-01-17 15:00:00,55.0,,-,93.0,,30.13,,California,57.0,,,,,,,7:00 AM,,,10.0,,West,16.1,270.0,90001.0
Los Angeles,Unknown,1970-01-17 16:00:00,55.0,,-,93.0,,30.12,,California,57.0,,,,,,,8:00 AM,,,8.0,,West,9.2,270.0,90001.0
Los Angeles,Unknown,1970-01-17 17:00:00,55.9,,-,93.0,,30.15,,California,57.9,,,,,,,9:00 AM,,,8.0,,WSW,8.1,250.0,90001.0
Los Angeles,Unknown,1970-01-17 18:00:00,54.0,,-,80.0,,30.17,,California,60.1,,,,,,,10:00 AM,,,9.0,,West,5.8,260.0,90001.0
Los Angeles,Unknown,1970-01-17 19:00:00,55.9,,-,83.0,,30.15,,California,61.0,,,,,,,11:00 AM,,,8.0,,West,11.5,260.0,90001.0
Los Angeles,Unknown,1970-01-17 20:00:00,57.0,,-,84.0,,30.11,,California,62.1,,,,,,,12:00 PM,,,8.0,,West,16.1,270.0,90001.0
Los Angeles,Unknown,1970-01-17 21:00:00,55.9,,-,78.0,,30.07,,California,63.0,,,,,,,1:00 PM,,,8.0,,WSW,17.3,250.0,90001.0
Los Angeles,Unknown,1970-01-17 22:00:00,55.9,,-,78.0,,30.06,,California,63.0,,,,,,,2:00 PM,,,8.0,,West,18.4,260.0,90001.0
Los Angeles,Unknown,1970-01-17 23:00:00,55.9,,-,78.0,,30.05,,California,63.0,,,,,,,3:00 PM,,,10.0,,West,16.1,260.0,90001.0
Los Angeles,Unknown,1970-01-18 00:00:00,55.0,,-,78.0,,30.05,,California,62.1,,,,,,,4:00 PM,,,10.0,,WSW,15.0,250.0,90001.0
Los Angeles,Unknown,1970-01-18 01:00:00,55.0,,-,81.0,,30.06,,California,61.0,,,,,,,5:00 PM,,,10.0,,West,19.6,270.0,90001.0
Los Angeles,Unknown,1970-01-18 02:00:00,53.1,,-,78.0,,30.09,,California,60.1,,,,,,,6:00 PM,,,10.0,,West,15.0,270.0,90001.0
Los Angeles,Unknown,1970-01-18 03:00:00,54.0,,-,80.0,,30.11,,California,60.1,,,,,,,7:00 PM,,,10.0,,WNW,3.5,290.0,90001.0
Los Angeles,Unknown,1970-01-18 04:00:00,52.0,,-,78.0,,30.09,,California,59.0,,,,,,,8:00 PM,,,10.0,,NW,8.1,320.0,90001.0
Los Angeles,Unknown,1970-01-18 05:00:00,48.0,,-,60.0,,30.09,,California,62.1,,,,,,,9:00 PM,,,15.0,,WSW,11.5,250.0,90001.0
Los Angeles,Unknown,1970-01-18 06:00:00,44.1,,-,50.0,,30.09,,California,63.0,,,,,,,10:00 PM,,,15.0,,WNW,9.2,300.0,90001.0
Los Angeles,Unknown,1970-01-18 07:00:00,52.0,,-,81.0,,30.12,,California,57.9,,,,,,,11:00 PM,,,10.0,,ENE,4.6,60.0,90001.0
Los Angeles,Clear,1970-01-18 08:00:00,51.1,,-,81.0,,30.08,,California,57.0,,,,,,,12:00 AM,,,10.0,,ENE,8.1,70.0,90001.0
Los Angeles,Smoke,1970-01-18 09:00:00,52.0,,-,87.0,,30.09,,California,55.9,,,,,,,1:00 AM,,,5.0,,NNE,5.8,20.0,90001.0
Los Angeles,Smoke,1970-01-18 10:00:00,51.1,,-,90.0,,30.11,,California,54.0,,,,,,,2:00 AM,,,4.0,,East,4.6,90.0,90001.0
Los Angeles,Smoke,1970-01-18 11:00:00,51.1,,-,93.0,,30.1,,California,53.1,,,,,,,3:00 AM,,,4.0,,ESE,6.9,120.0,90001.0
Los Angeles,Smoke,1970-01-18 12:00:00,50.0,,-,93.0,,30.09,,California,52.0,,,,,,,4:00 AM,,,4.0,,ENE,8.1,70.0,90001.0
Los Angeles,Smoke,1970-01-18 13:00:00,51.1,,-,93.0,,30.09,,California,53.1,,,,,,,5:00 AM,,,4.0,,NE,5.8,50.0,90001.0
Los Angeles,Smoke,1970-01-18 14:00:00,48.9,,-,92.0,,30.09,,California,51.1,,,,,,,6:00 AM,,,4.0,,East,8.1,90.0,90001.0
Los Angeles,Smoke,1970-01-18 15:00:00,48.0,,-,93.0,,30.12,,California,50.0,,,,,,,7:00 AM,,,4.0,,ENE,6.9,60.0,90001.0
Los Angeles,Smoke,1970-01-18 16:00:00,48.9,,-,92.0,,30.13,,California,51.1,,,,,,,8:00 AM,,,4.0,,NNE,6.9,20.0,90001.0
Los Angeles,Smoke,1970-01-18 17:00:00,51.1,,-,90.0,,30.15,,California,54.0,,,,,,,9:00 AM,,,10.5,,ENE,6.9,70.0,90001.0
Los Angeles,Smoke,1970-01-18 18:00:00,52.0,,-,87.0,,30.17,,California,55.9,,,,,,,10:00 AM,,,4.0,,East,8.1,80.0,90001.0
Los Angeles,Smoke,1970-01-18 19:00:00,53.1,,-,81.0,,30.16,,California,59.0,,,,,,,11:00 AM,,,5.0,,ESE,5.8,110.0,90001.0
Los Angeles,Smoke,1970-01-18 20:00:00,53.1,,-,75.0,,30.13,,California,61.0,,,,,,,12:00 PM,,,4.0,,East,6.9,100.0,90001.0
Los Angeles,Smoke,1970-01-18 21:00:00,53.1,,-,70.0,,30.09,,California,63.0,,,,,,,1:00 PM,,,3.0,,ESE,8.1,120.0,90001.0
Los Angeles,Smoke,1970-01-18 22:00:00,52.0,,-,67.0,,30.09,,California,63.0,,,,,,,2:00 PM,,,3.0,,ESE,5.8,120.0,90001.0
Los Angeles,Smoke,1970-01-18 23:00:00,54.0,,-,78.0,,30.08,,California,61.0,,,,,,,3:00 PM,,,6.0,,West,4.6,260.0,90001.0
Los Angeles,Smoke,1970-01-19 00:00:00,54.0,,-,78.0,,30.08,,California,61.0,,,,,,,4:00 PM,,,5.0,,WSW,8.1,250.0,90001.0
Los Angeles,Smoke,1970-01-19 01:00:00,54.0,,-,83.0,,30.09,,California,59.0,,,,,,,5:00 PM,,,5.0,,West,11.5,260.0,90001.0
Los Angeles,Smoke,1970-01-19 02:00:00,55.0,,-,90.0,,30.11,,California,57.9,,,,,,,6:00 PM,,,6.0,,West,10.4,270.0,90001.0
Los Angeles,Smoke,1970-01-19 03:00:00,54.0,,-,87.0,,30.12,,California,57.9,,,,,,,7:00 PM,,,5.0,,WSW,8.1,250.0,90001.0
Los Angeles,Smoke,1970-01-19 04:00:00,54.0,,-,87.0,,30.11,,California,57.9,,,,,,,8:00 PM,,,6.0,,WSW,5.8,250.0,90001.0
Los Angeles,Smoke,1970-01-19 05:00:00,54.0,,-,89.0,,30.11,,California,57.0,,,,,,,9:00 PM,,,6.0,,WSW,5.8,240.0,90001.0
Los Angeles,Smoke,1970-01-19 06:00:00,53.1,,-,87.0,,30.13,,California,57.0,,,,,,,10:00 PM,,,5.0,,WSW,4.6,240.0,90001.0
Los Angeles,Smoke,1970-01-19 07:00:00,54.0,,-,89.0,,30.14,,California,57.0,,,,,,,11:00 PM,,,4.0,,SW,3.5,230.0,90001.0
Los Angeles,Smoke,1970-01-19 08:00:00,54.0,,-,89.0,,30.14,,California,57.0,,,,,,,12:00 AM,,,3.0,,West,6.9,270.0,90001.0
Los Angeles,Smoke,1970-01-19 09:00:00,54.0,,-,89.0,,30.14,,California,57.0,,,,,,,1:00 AM,,,3.0,,WSW,5.8,250.0,90001.0
Los Angeles,Smoke,1970-01-19 10:00:00,54.0,,-,89.0,,30.15,,California,57.0,,,,,,,2:00 AM,,,3.0,,SSW,3.5,210.0,90001.0
Los Angeles,Smoke,1970-01-19 11:00:00,53.1,,-,93.0,,30.15,,California,55.0,,,,,,,3:00 AM,,,2.0,,West,3.5,260.0,90001.0
Los Angeles,Smoke,1970-01-19 12:00:00,54.0,,-,96.0,,30.15,,California,55.0,,,,,,,4:00 AM,,,2.0,,East,3.5,80.0,90001.0
Los Angeles,Smoke,1970-01-19 13:00:00,54.0,,-,96.0,,30.15,,California,55.0,,,,,,,5:00 AM,,,2.0,,East,3.5,100.0,90001.0
Los Angeles,Smoke,1970-01-19 14:00:00,54.0,,-,96.0,,30.16,,California,55.0,,,,,,,6:00 AM,,,2.0,,East,6.9,100.0,90001.0
Los Angeles,Smoke,1970-01-19 15:00:00,53.1,,-,93.0,,30.17,,California,55.0,,,,,,,7:00 AM,,,3.0,,East,5.8,100.0,90001.0
Los Angeles,Smoke,1970-01-19 16:00:00,53.1,,-,93.0,,30.18,,California,55.0,,,,,,,8:00 AM,,,2.0,,East,4.6,90.0,90001.0
Los Angeles,Smoke,1970-01-19 17:00:00,53.1,,-,90.0,,30.19,,California,55.9,,,,,,,9:00 AM,,,2.0,,SE,4.6,140.0,90001.0
Los Angeles,Smoke,1970-01-19 18:00:00,53.1,,-,87.0,,30.21,,California,57.0,,,,,,,10:00 AM,,,3.0,,WSW,6.9,250.0,90001.0
Los Angeles,Smoke,1970-01-19 19:00:00,53.1,,-,78.0,,30.21,,California,60.1,,,,,,,11:00 AM,,,3.0,,North,3.5,10.0,90001.0
Los Angeles,Smoke,1970-01-19 20:00:00,54.0,,-,80.0,,30.18,,California,60.1,,,,,,,12:00 PM,,,3.0,,WSW,8.1,240.0,90001.0
Los Angeles,Smoke,1970-01-19 21:00:00,54.0,,-,75.0,,30.15,,California,62.1,,,,,,,1:00 PM,,,5.0,,WSW,9.2,240.0,90001.0
Los Angeles,Unknown,1970-01-19 22:00:00,53.1,,-,72.0,,30.15,,California,62.1,,,,,,,2:00 PM,,,7.0,,WSW,9.2,250.0,90001.0
Los Angeles,Unknown,1970-01-19 23:00:00,54.0,,-,78.0,,30.15,,California,61.0,,,,,,,3:00 PM,,,7.0,,WSW,9.2,250.0,90001.0
Los Angeles,Smoke,1970-01-20 00:00:00,54.0,,-,80.0,,30.14,,California,60.1,,,,,,,4:00 PM,,,6.0,,West,8.1,260.0,90001.0
Los Angeles,Smoke,1970-01-20 01:00:00,54.0,,-,83.0,,30.16,,California,59.0,,,,,,,5:00 PM,,,6.0,,West,13.8,260.0,90001.0
Los Angeles,Unknown,1970-01-20 02:00:00,54.0,,-,87.0,,30.17,,California,57.9,,,,,,,6:00 PM,,,7.0,,West,13.8,260.0,90001.0
Los Angeles,Unknown,1970-01-20 03:00:00,55.0,,-,90.0,,30.17,,California,57.9,,,,,,,7:00 PM,,,7.0,,West,11.5,260.0,90001.0
Los Angeles,Unknown,1970-01-20 04:00:00,55.0,,-,90.0,,30.18,,California,57.9,,,,,,,8:00 PM,,,7.0,,WSW,3.5,250.0,90001.0
Los Angeles,Unknown,1970-01-20 05:00:00,54.0,,-,87.0,,30.17,,California,57.9,,,,,,,9:00 PM,,,7.0,,SSE,4.6,160.0,90001.0
Los Angeles,Unknown,1970-01-20 06:00:00,54.0,,-,87.0,,30.18,,California,57.9,,,,,,,10:00 PM,,,7.0,,South,3.5,170.0,90001.0
Los Angeles,Smoke,1970-01-20 07:00:00,54.0,,-,89.0,,30.17,,California,57.0,,,,,,,11:00 PM,,,5.0,,ESE,5.8,120.0,90001.0
Los Angeles,Smoke,1970-01-20 08:00:00,54.0,,-,89.0,,30.17,,California,57.0,,,,,,,12:00 AM,,,5.0,,East,8.1,80.0,90001.0
Los Angeles,Smoke,1970-01-20 09:00:00,54.0,,-,89.0,,30.14,,California,57.0,,,,,,,1:00 AM,,,4.0,,ESE,8.1,110.0,90001.0
Los Angeles,Smoke,1970-01-20 10:00:00,53.1,,-,87.0,,30.15,,California,57.0,,,,,,,2:00 AM,,,4.0,,ESE,3.5,110.0,90001.0
Los Angeles,Smoke,1970-01-20 11:00:00,53.1,,-,87.0,,30.15,,California,57.0,,,,,,,3:00 AM,,,4.0,,NE,3.5,40.0,90001.0
Los Angeles,Smoke,1970-01-20 12:00:00,54.0,,-,89.0,,30.16,,California,57.0,,,,,,,4:00 AM,,,4.0,,West,6.9,280.0,90001.0
Los Angeles,Smoke,1970-01-20 13:00:00,54.0,,-,89.0,,30.14,,California,57.0,,,,,,,5:00 AM,,,3.0,,ENE,4.6,60.0,90001.0
Los Angeles,Smoke,1970-01-20 14:00:00,54.0,,-,89.0,,30.14,,California,57.0,,,,,,,6:00 AM,,,3.0,,East,4.6,90.0,90001.0
Los Angeles,Smoke,1970-01-20 15:00:00,54.0,,-,89.0,,30.17,,California,57.0,,,,,,,7:00 AM,,,2.0,,ESE,5.8,110.0,90001.0
Los Angeles,Smoke,1970-01-20 16:00:00,54.0,,-,89.0,,30.19,,California,57.0,,,,,,,8:00 AM,,,2.0,,East,5.8,100.0,90001.0
Los Angeles,Smoke,1970-01-20 17:00:00,54.0,,-,89.0,,30.18,,California,57.0,,,,,,,9:00 AM,,,5.5,,East,9.2,80.0,90001.0
Los Angeles,Smoke,1970-01-20 18:00:00,55.0,,-,87.0,,30.19,,California,59.0,,,,,,,10:00 AM,,,5.5,,East,10.4,90.0,90001.0
Los Angeles,Smoke,1970-01-20 19:00:00,54.0,,-,78.0,,30.21,,California,61.0,,,,,,,11:00 AM,,,5.5,,ESE,6.9,110.0,90001.0
Los Angeles,Smoke,1970-01-20 20:00:00,54.0,,-,72.0,,30.14,,California,63.0,,,,,,,12:00 PM,,,2.0,,East,5.8,100.0,90001.0
Los Angeles,Smoke,1970-01-20 21:00:00,55.9,,-,78.0,,30.13,,California,63.0,,,,,,,1:00 PM,,,3.0,,WSW,12.7,250.0,90001.0
Los Angeles,Smoke,1970-01-20 22:00:00,55.9,,-,80.0,,30.12,,California,62.1,,,,,,,2:00 PM,,,3.0,,WSW,12.7,240.0,90001.0
Los Angeles,Smoke,1970-01-20 23:00:00,55.0,,-,81.0,,30.12,,California,61.0,,,,,,,3:00 PM,,,3.0,,West,10.4,260.0,90001.0
Los Angeles,Smoke,1970-01-21 00:00:00,55.0,,-,83.0,,30.12,,California,60.1,,,,,,,4:00 PM,,,3.0,,WSW,5.8,240.0,90001.0
Los Angeles,Smoke,1970-01-21 01:00:00,55.0,,-,83.0,,30.12,,California,60.1,,,,,,,5:00 PM,,,3.0,,West,5.8,260.0,90001.0
Los Angeles,Smoke,1970-01-21 02:00:00,54.0,,-,87.0,,30.15,,California,57.9,,,,,,,6:00 PM,,,3.0,,WSW,9.2,240.0,90001.0
Los Angeles,Smoke,1970-01-21 03:00:00,54.0,,-,89.0,,30.17,,California,57.0,,,,,,,7:00 PM,,,4.0,,West,4.6,260.0,90001.0
Los Angeles,Smoke,1970-01-21 04:00:00,55.0,,-,93.0,,30.18,,California,57.0,,,,,,,8:00 PM,,,4.0,,North,2.3,360.0,90001.0
Los Angeles,Smoke,1970-01-21 05:00:00,55.0,,-,93.0,,30.19,,California,57.0,,,,,,,9:00 PM,,,3.0,,NE,2.3,50.0,90001.0
Los Angeles,Smoke,1970-01-21 06:00:00,54.0,,-,89.0,,30.21,,California,57.0,,,,,,,10:00 PM,,,3.0,,East,2.3,80.0,90001.0
Los Angeles,Smoke,1970-01-21 07:00:00,54.0,,-,89.0,,30.22,,California,57.0,,,,,,,11:00 PM,,,3.0,,North,3.5,350.0,90001.0
Los Angeles,Fog,1970-01-21 08:00:00,54.0,Fog,-,89.0,,30.23,,California,57.0,,,,,,,12:00 AM,,,2.0,,NW,4.6,310.0,90001.0
Los Angeles,Fog,1970-01-21 09:00:00,52.0,Fog,-,89.0,,30.22,,California,55.0,,,,,,,1:00 AM,,,1.0,,WSW,4.6,240.0,90001.0
Los Angeles,Fog,1970-01-21 10:00:00,54.0,Fog,-,96.0,,30.22,,California,55.0,,,,,,,2:00 AM,,,0.2,,NNW,4.6,330.0,90001.0
Los Angeles,Fog,1970-01-21 11:00:00,54.0,Fog,-,96.0,,30.21,,California,55.0,,,,,,,3:00 AM,,,0.1,,East,3.5,80.0,90001.0
Los Angeles,Fog,1970-01-21 12:00:00,51.1,Fog,-,93.0,,30.21,,California,53.1,,,,,,,4:00 AM,,,0.1,,WSW,5.8,250.0,90001.0
Los Angeles,Fog,1970-01-21 13:00:00,52.0,Fog,-,100.0,,30.19,,California,52.0,,,,,,,5:00 AM,,,0.0,,East,4.6,80.0,90001.0
Los Angeles,Fog,1970-01-21 14:00:00,53.1,Fog,-,100.0,,30.21,,California,53.1,,,,,,,6:00 AM,,,0.1,,WNW,5.8,300.0,90001.0
Los Angeles,Fog,1970-01-21 15:00:00,54.0,Fog,-,100.0,,30.24,,California,54.0,,,,,,,7:00 AM,,,0.1,,NW,6.9,320.0,90001.0
Los Angeles,Fog,1970-01-21 16:00:00,55.0,Fog,-,97.0,,30.25,,California,55.9,,,,,,,8:00 AM,,,0.0,,ESE,4.6,120.0,90001.0
Los Angeles,Fog,1970-01-21 17:00:00,55.0,Fog,-,100.0,,30.26,,California,55.0,,,,,,,9:00 AM,,,0.1,,ENE,3.5,60.0,90001.0
Los Angeles,Fog,1970-01-21 18:00:00,55.0,Fog,-,100.0,,30.27,,California,55.0,,,,,,,10:00 AM,,,0.0,,WNW,3.5,290.0,90001.0
Los Angeles,Fog,1970-01-21 19:00:00,55.0,Fog,-,100.0,,30.27,,California,55.0,,,,,,,11:00 AM,,,0.2,,NW,3.5,320.0,90001.0
Los Angeles,Fog,1970-01-21 20:00:00,55.9,Fog,-,100.0,,30.25,,California,55.9,,,,,,,12:00 PM,,,0.2,,WSW,4.6,240.0,90001.0
Los Angeles,Fog,1970-01-21 21:00:00,55.9,Fog,-,100.0,,30.22,,California,55.9,,,,,,,1:00 PM,,,0.3,,West,9.2,270.0,90001.0
Los Angeles,Fog,1970-01-21 22:00:00,55.0,Fog,-,97.0,,30.2,,California,55.9,,,,,,,2:00 PM,,,0.5,,West,3.5,280.0,90001.0
Los Angeles,Fog,1970-01-21 23:00:00,55.0,Fog,-,93.0,,30.19,,California,57.0,,,,,,,3:00 PM,,,0.8,,West,8.1,260.0,90001.0
Los Angeles,Fog,1970-01-22 00:00:00,55.0,Fog,-,93.0,,30.22,,California,57.0,,,,,,,4:00 PM,,,1.0,,WNW,5.8,290.0,90001.0
Los Angeles,Fog,1970-01-22 01:00:00,55.0,Fog,-,93.0,,30.21,,California,57.0,,,,,,,5:00 PM,,,3.2,,WSW,6.9,240.0,90001.0
Los Angeles,Fog,1970-01-22 02:00:00,55.0,Fog,-,93.0,,30.22,,California,57.0,,,,,,,6:00 PM,,,3.0,,SW,3.5,230.0,90001.0
Los Angeles,Fog,1970-01-22 03:00:00,55.0,Fog,-,93.0,,30.22,,California,57.0,,,,,,,7:00 PM,,,4.0,,WSW,3.5,240.0,90001.0
Los Angeles,Fog,1970-01-22 04:00:00,55.9,Fog,-,96.0,,30.22,,California,57.0,,,,,,,8:00 PM,,,3.0,,South,4.6,190.0,90001.0
Los Angeles,Fog,1970-01-22 05:00:00,55.9,Fog,-,96.0,,30.23,,California,57.0,,,,,,,9:00 PM,,,5.5,,Calm,Calm,0.0,90001.0
Los Angeles,Light Drizzle,1970-01-22 06:00:00,55.9,Fog,-,96.0,,30.23,,California,57.0,,,,,,,10:00 PM,,,1.0,,ESE,4.6,120.0,90001.0
Los Angeles,Fog,1970-01-22 07:00:00,55.9,Fog,-,96.0,,30.24,,California,57.0,,,,,,,11:00 PM,,,5.5,,SSW,5.8,210.0,90001.0
Los Angeles,Fog,1970-01-22 08:00:00,55.9,Fog,-,96.0,,30.24,,California,57.0,,,,,,,12:00 AM,,,1.0,,WSW,5.8,240.0,90001.0
Los Angeles,Fog,1970-01-22 09:00:00,55.9,Fog,-,96.0,,30.23,,California,57.0,,,,,,,1:00 AM,,,1.0,,ENE,5.8,70.0,90001.0
Los Angeles,Fog,1970-01-22 10:00:00,55.9,Fog,-,96.0,,30.22,,California,57.0,,,,,,,2:00 AM,,,5.5,,ENE,5.8,70.0,90001.0
Los Angeles,Fog,1970-01-22 11:00:00,55.0,Fog,-,93.0,,30.21,,California,57.0,,,,,,,3:00 AM,,,5.5,,East,4.6,100.0,90001.0
Los Angeles,Fog,1970-01-22 12:00:00,55.0,Fog,-,93.0,,30.21,,California,57.0,,,,,,,4:00 AM,,,5.5,,East,3.5,80.0,90001.0
Los Angeles,Fog,1970-01-22 13:00:00,54.0,Fog,-,89.0,,30.2,,California,57.0,,,,,,,5:00 AM,,,1.0,,NNE,8.1,20.0,90001.0
Los Angeles,Fog,1970-01-22 14:00:00,54.0,Fog,-,89.0,,30.22,,California,57.0,,,,,,,6:00 AM,,,1.0,,North,3.5,10.0,90001.0
Los Angeles,Fog,1970-01-22 15:00:00,54.0,Fog,-,89.0,,30.21,,California,57.0,,,,,,,7:00 AM,,,1.0,,NNE,5.8,30.0,90001.0
Los Angeles,Fog,1970-01-22 16:00:00,55.0,Fog,-,93.0,,30.18,,California,57.0,,,,,,,8:00 AM,,,0.8,,East,11.5,90.0,90001.0
Los Angeles,Fog,1970-01-22 17:00:00,54.0,Fog,-,89.0,,30.21,,California,57.0,,,,,,,9:00 AM,,,0.8,,SW,2.3,220.0,90001.0
Los Angeles,Fog,1970-01-22 18:00:00,54.0,Fog,-,87.0,,30.22,,California,57.9,,,,,,,10:00 AM,,,0.8,,North,3.5,10.0,90001.0
Los Angeles,Smoke,1970-01-22 19:00:00,54.0,,-,83.0,,30.2,,California,59.0,,,,,,,11:00 AM,,,0.8,,East,3.5,90.0,90001.0
Los Angeles,Smoke,1970-01-22 20:00:00,55.0,,-,81.0,,30.19,,California,61.0,,,,,,,12:00 PM,,,0.8,,SW,6.9,230.0,90001.0
Los Angeles,Smoke,1970-01-22 21:00:00,55.0,,-,83.0,,30.17,,California,60.1,,,,,,,1:00 PM,,,0.8,,SW,6.9,230.0,90001.0
Los Angeles,Smoke,1970-01-22 22:00:00,55.9,,-,86.0,,30.14,,California,60.1,,,,,,,2:00 PM,,,0.8,,West,8.1,270.0,90001.0
Los Angeles,Fog,1970-01-22 23:00:00,55.0,Fog,-,87.0,,30.14,,California,59.0,,,,,,,3:00 PM,,,0.8,,WSW,5.8,240.0,90001.0
Los Angeles,Fog,1970-01-23 00:00:00,55.0,Fog,-,90.0,,30.14,,California,57.9,,,,,,,4:00 PM,,,0.8,,SSW,5.8,210.0,90001.0
Los Angeles,Fog,1970-01-23 01:00:00,54.0,Fog,-,87.0,,30.14,,California,57.9,,,,,,,5:00 PM,,,0.8,,SSW,5.8,210.0,90001.0
Los Angeles,Fog,1970-01-23 02:00:00,54.0,Fog,-,87.0,,30.15,,California,57.9,,,,,,,6:00 PM,,,5.5,,WNW,4.6,300.0,90001.0
Los Angeles,Fog,1970-01-23 03:00:00,54.0,Fog,-,89.0,,30.16,,California,57.0,,,,,,,7:00 PM,,,5.5,,SW,2.3,220.0,90001.0
Los Angeles,Fog,1970-01-23 04:00:00,54.0,Fog,-,89.0,,30.16,,California,57.0,,,,,,,8:00 PM,,,1.0,,SW,4.6,220.0,90001.0
Los Angeles,Fog,1970-01-23 05:00:00,54.0,Fog,-,93.0,,30.16,,California,55.9,,,,,,,9:00 PM,,,0.5,,SW,4.6,230.0,90001.0
Los Angeles,Fog,1970-01-23 06:00:00,54.0,Fog,-,93.0,,30.16,,California,55.9,,,,,,,10:00 PM,,,0.5,,ESE,2.3,110.0,90001.0
Los Angeles,Fog,1970-01-23 07:00:00,55.0,Fog,-,97.0,,30.17,,California,55.9,,,,,,,11:00 PM,,,0.5,,East,6.9,90.0,90001.0
Los Angeles,Fog,1970-01-23 08:00:00,55.0,Fog,-,97.0,,30.16,,California,55.9,,,,,,,12:00 AM,,,0.4,,NNE,5.8,30.0,90001.0
Los Angeles,Fog,1970-01-23 09:00:00,55.0,Fog,-,97.0,,30.14,,California,55.9,,,,,,,1:00 AM,,,0.4,,East,6.9,100.0,90001.0
Los Angeles,Fog,1970-01-23 10:00:00,55.0,Fog,-,97.0,,30.12,,California,55.9,,,,,,,2:00 AM,,,0.2,,East,9.2,80.0,90001.0
Los Angeles,Fog,1970-01-23 11:00:00,54.0,Fog,-,93.0,,30.12,,California,55.9,,,,,,,3:00 AM,,,0.4,,East,4.6,100.0,90001.0
Los Angeles,Fog,1970-01-23 12:00:00,54.0,Fog,-,93.0,,30.12,,California,55.9,,,,,,,4:00 AM,,,0.4,,East,5.8,80.0,90001.0
Los Angeles,Fog,1970-01-23 13:00:00,54.0,Fog,-,93.0,,30.12,,California,55.9,,,,,,,5:00 AM,,,0.2,,East,8.1,80.0,90001.0
Los Angeles,Fog,1970-01-23 14:00:00,53.1,Fog,-,93.0,,30.12,,California,55.0,,,,,,,6:00 AM,,,0.2,,East,5.8,90.0,90001.0
Los Angeles,Fog,1970-01-23 15:00:00,53.1,Fog,-,93.0,,30.13,,California,55.0,,,,,,,7:00 AM,,,0.2,,SE,8.1,130.0,90001.0
Los Angeles,Fog,1970-01-23 16:00:00,53.1,Fog,-,93.0,,30.14,,California,55.0,,,,,,,8:00 AM,,,0.1,,East,5.8,100.0,90001.0
Los Angeles,Fog,1970-01-23 17:00:00,53.1,Fog,-,93.0,,30.14,,California,55.0,,,,,,,9:00 AM,,,0.2,,East,6.9,90.0,90001.0
Los Angeles,Fog,1970-01-23 18:00:00,53.1,Fog,-,90.0,,30.13,,California,55.9,,,,,,,10:00 AM,,,0.5,,East,8.1,100.0,90001.0
Los Angeles,Fog,1970-01-23 19:00:00,53.1,Fog,-,87.0,,30.12,,California,57.0,,,,,,,11:00 AM,,,0.6,,SSE,4.6,150.0,90001.0
Los Angeles,Smoke,1970-01-23 20:00:00,53.1,,-,78.0,,30.09,,California,60.1,,,,,,,12:00 PM,,,0.8,,South,4.6,170.0,90001.0
Los Angeles,Smoke,1970-01-23 21:00:00,55.0,,-,81.0,,30.07,,California,61.0,,,,,,,1:00 PM,,,0.6,,WSW,11.5,240.0,90001.0
Los Angeles,Fog,1970-01-23 22:00:00,54.0,Fog,-,87.0,,30.06,,California,57.9,,,,,,,2:00 PM,,,0.5,,WSW,11.5,240.0,90001.0
Los Angeles,Fog,1970-01-23 23:00:00,54.0,Fog,-,87.0,,30.08,,California,57.9,,,,,,,3:00 PM,,,0.6,,West,11.5,260.0,90001.0
Los Angeles,Fog,1970-01-24 00:00:00,54.0,Fog,-,87.0,,30.08,,California,57.9,,,,,,,4:00 PM,,,0.6,,West,10.4,260.0,90001.0
Los Angeles,Fog,1970-01-24 01:00:00,54.0,Fog,-,89.0,,30.08,,California,57.0,,,,,,,5:00 PM,,,0.5,,West,10.4,260.0,90001.0
Los Angeles,Fog,1970-01-24 02:00:00,54.0,Fog,-,89.0,,30.09,,California,57.0,,,,,,,6:00 PM,,,0.5,,WNW,6.9,290.0,90001.0
Los Angeles,Fog,1970-01-24 03:00:00,54.0,Fog,-,93.0,,30.11,,California,55.9,,,,,,,7:00 PM,,,0.6,,SW,8.1,230.0,90001.0
Los Angeles,Fog,1970-01-24 04:00:00,54.0,Fog,-,93.0,,30.11,,California,55.9,,,,,,,8:00 PM,,,0.4,,West,6.9,260.0,90001.0
Los Angeles,Fog,1970-01-24 05:00:00,53.1,Fog,-,90.0,,30.08,,California,55.9,,,,,,,9:00 PM,,,0.4,,SE,5.8,140.0,90001.0
Los Angeles,Fog,1970-01-24 06:00:00,54.0,Fog,-,93.0,,30.12,,California,55.9,,,,,,,10:00 PM,,,0.8,,WSW,8.1,240.0,90001.0
Los Angeles,Fog,1970-01-24 07:00:00,53.1,Fog,-,93.0,,30.12,,California,55.0,,,,,,,11:00 PM,,,4.0,,West,5.8,260.0,90001.0
Los Angeles,Light Drizzle,1970-01-24 08:00:00,53.1,,-,93.0,,30.14,,California,55.0,,,,,,,12:00 AM,,,5.0,,WSW,10.4,250.0,90001.0
Los Angeles,Light Rain,1970-01-24 09:00:00,53.1,Rain,-,93.0,,30.13,,California,55.0,,,,,,,1:00 AM,,,4.0,,WSW,9.2,240.0,90001.0
Los Angeles,Light Rain,1970-01-24 10:00:00,53.1,Rain,-,90.0,,30.15,,California,55.9,,,,,,,2:00 AM,,,8.0,,West,8.1,280.0,90001.0
Los Angeles,Unknown,1970-01-24 11:00:00,53.1,,-,93.0,,30.13,,California,55.0,,,,,,,3:00 AM,,,10.0,,West,6.9,270.0,90001.0
Los Angeles,Light Rain,1970-01-24 12:00:00,54.0,Rain,-,93.0,,30.12,,California,55.9,,,,,,,4:00 AM,,,5.0,,West,5.8,260.0,90001.0
Los Angeles,Unknown,1970-01-24 13:00:00,54.0,,-,93.0,,30.13,,California,55.9,,,,,,,5:00 AM,,,10.0,,SSE,3.5,160.0,90001.0
Los Angeles,Light Rain,1970-01-24 14:00:00,54.0,Fog-Rain,-,93.0,,30.13,,California,55.9,,,,,,,6:00 AM,,,4.0,,SSE,4.6,150.0,90001.0
Los Angeles,Light Rain,1970-01-24 15:00:00,54.0,Fog-Rain,-,93.0,,30.13,,California,55.9,,,,,,,7:00 AM,,,3.0,,ESE,6.9,120.0,90001.0
Los Angeles,Light Rain,1970-01-24 16:00:00,55.0,Fog-Rain,-,97.0,,30.14,,California,55.9,,,,,,,8:00 AM,,,1.0,,ESE,5.8,110.0,90001.0
Los Angeles,Light Drizzle,1970-01-24 17:00:00,55.0,Fog,-,97.0,,30.17,,California,55.9,,,,,,,9:00 AM,,,5.5,,East,5.8,90.0,90001.0
Los Angeles,Light Drizzle,1970-01-24 18:00:00,55.0,Fog,-,97.0,0.01,30.18,,California,55.9,,,,,,,10:00 AM,,,0.8,,East,6.9,100.0,90001.0
Los Angeles,Light Drizzle,1970-01-24 19:00:00,55.9,Fog,-,96.0,,30.17,,California,57.0,,,,,,,11:00 AM,,,5.5,,ESE,4.6,120.0,90001.0
Los Angeles,Fog,1970-01-24 20:00:00,55.9,Fog,-,93.0,,30.14,,California,57.9,,,,,,,12:00 PM,,,2.0,,WSW,2.3,240.0,90001.0
Los Angeles,Smoke,1970-01-24 21:00:00,55.9,,-,86.0,,30.12,,California,60.1,,,,,,,1:00 PM,,,4.0,,SW,4.6,220.0,90001.0
Los Angeles,Smoke,1970-01-24 22:00:00,55.9,,-,86.0,,30.11,,California,60.1,,,,,,,2:00 PM,,,5.0,,WSW,5.8,250.0,90001.0
Los Angeles,Unknown,1970-01-24 23:00:00,55.9,,-,86.0,,30.11,,California,60.1,,,,,,,3:00 PM,,,9.0,,West,5.8,260.0,90001.0
Los Angeles,Unknown,1970-01-25 00:00:00,55.9,,-,86.0,,30.11,,California,60.1,,,,,,,4:00 PM,,,9.0,,SW,6.9,220.0,90001.0
Los Angeles,Unknown,1970-01-25 01:00:00,55.9,,-,86.0,,30.1,,California,60.1,,,,,,,5:00 PM,,,9.0,,West,6.9,260.0,90001.0
Los Angeles,Unknown,1970-01-25 02:00:00,55.9,,-,90.0,,30.14,,California,59.0,,,,,,,6:00 PM,,,7.0,,West,9.2,260.0,90001.0
Los Angeles,Unknown,1970-01-25 03:00:00,54.0,,-,87.0,,30.13,,California,57.9,,,,,,,7:00 PM,,,10.0,,WSW,4.6,240.0,90001.0
Los Angeles,Unknown,1970-01-25 04:00:00,55.0,,-,93.0,,30.12,,California,57.0,,,,,,,8:00 PM,,,7.0,,WSW,6.9,240.0,90001.0
Los Angeles,Fog,1970-01-25 05:00:00,54.0,Fog,-,93.0,,30.12,,California,55.9,,,,,,,9:00 PM,,,5.0,,WSW,5.8,240.0,90001.0
Los Angeles,Unknown,1970-01-25 06:00:00,55.0,,-,97.0,,30.12,,California,55.9,,,,,,,10:00 PM,,,7.0,,NW,2.3,310.0,90001.0
Los Angeles,Unknown,1970-01-25 07:00:00,54.0,,-,93.0,,30.13,,California,55.9,,,,,,,11:00 PM,,,7.0,,North,2.3,10.0,90001.0
Los Angeles,Unknown,1970-01-25 08:00:00,52.0,,-,87.0,,30.13,,California,55.9,,,,,,,12:00 AM,,,7.0,,South,4.6,170.0,90001.0
Los Angeles,Smoke,1970-01-25 09:00:00,52.0,,-,89.0,,30.12,,California,55.0,,,,,,,1:00 AM,,,4.0,,South,3.5,190.0,90001.0
Los Angeles,Smoke,1970-01-25 10:00:00,52.0,,-,93.0,,30.13,,California,54.0,,,,,,,2:00 AM,,,5.0,,SE,2.3,130.0,90001.0
Los Angeles,Smoke,1970-01-25 11:00:00,51.1,,-,90.0,,30.14,,California,54.0,,,,,,,3:00 AM,,,4.0,,North,2.3,10.0,90001.0
Los Angeles,Smoke,1970-01-25 12:00:00,50.0,,-,89.0,,30.13,,California,53.1,,,,,,,4:00 AM,,,4.0,,ENE,5.8,60.0,90001.0
Los Angeles,Smoke,1970-01-25 13:00:00,50.0,,-,89.0,,30.14,,California,53.1,,,,,,,5:00 AM,,,4.0,,NE,2.3,50.0,90001.0
Los Angeles,Smoke,1970-01-25 14:00:00,50.0,,-,93.0,,30.14,,California,52.0,,,,,,,6:00 AM,,,4.0,,NE,3.5,50.0,90001.0
Los Angeles,Smoke,1970-01-25 15:00:00,50.0,,-,89.0,,30.15,,California,53.1,,,,,,,7:00 AM,,,4.0,,NE,3.5,40.0,90001.0
Los Angeles,Smoke,1970-01-25 16:00:00,52.0,,-,93.0,,30.14,,California,54.0,,,,,,,8:00 AM,,,3.0,,East,5.8,90.0,90001.0
Los Angeles,Smoke,1970-01-25 17:00:00,53.1,,-,90.0,,30.15,,California,55.9,,,,,,,9:00 AM,,,3.0,,NNE,3.5,30.0,90001.0
Los Angeles,Smoke,1970-01-25 18:00:00,54.0,,-,89.0,,30.15,,California,57.0,,,,,,,10:00 AM,,,3.0,,North,5.8,10.0,90001.0
Los Angeles,Smoke,1970-01-25 19:00:00,52.0,,-,75.0,,30.14,,California,60.1,,,,,,,11:00 AM,,,5.0,,SSE,3.5,160.0,90001.0
Los Angeles,Smoke,1970-01-25 20:00:00,51.1,,-,65.0,,30.12,,California,63.0,,,,,,,12:00 PM,,,5.0,,South,3.5,170.0,90001.0
Los Angeles,Smoke,1970-01-25 21:00:00,54.0,,-,75.0,,30.1,,California,62.1,,,,,,,1:00 PM,,,4.0,,WSW,9.2,240.0,90001.0
Los Angeles,Smoke,1970-01-25 22:00:00,53.1,,-,72.0,,30.09,,California,62.1,,,,,,,2:00 PM,,,5.0,,West,10.4,260.0,90001.0
Los Angeles,Smoke,1970-01-25 23:00:00,53.1,,-,72.0,,30.09,,California,62.1,,,,,,,3:00 PM,,,5.0,,SW,9.2,230.0,90001.0
Los Angeles,Smoke,1970-01-26 00:00:00,52.0,,-,72.0,,30.1,,California,61.0,,,,,,,4:00 PM,,,5.0,,WSW,15.0,250.0,90001.0
Los Angeles,Smoke,1970-01-26 01:00:00,53.1,,-,81.0,,30.09,,California,59.0,,,,,,,5:00 PM,,,5.0,,West,6.9,260.0,90001.0
Los Angeles,Smoke,1970-01-26 02:00:00,53.1,,-,87.0,,30.09,,California,57.0,,,,,,,6:00 PM,,,5.0,,WSW,9.2,240.0,90001.0
Los Angeles,Smoke,1970-01-26 03:00:00,53.1,,-,90.0,,30.11,,California,55.9,,,,,,,7:00 PM,,,5.0,,West,9.2,270.0,90001.0
Los Angeles,Smoke,1970-01-26 04:00:00,51.1,,-,84.0,,30.11,,California,55.9,,,,,,,8:00 PM,,,6.0,,West,9.2,260.0,90001.0
Los Angeles,Smoke,1970-01-26 05:00:00,51.1,,-,84.0,,30.12,,California,55.9,,,,,,,9:00 PM,,,6.0,,NW,3.5,310.0,90001.0
Los Angeles,Clear,1970-01-26 06:00:00,52.0,,-,87.0,,30.13,,California,55.9,,,,,,,10:00 PM,,,7.0,,North,4.6,10.0,90001.0
Los Angeles,Clear,1970-01-26 07:00:00,51.1,,-,86.0,,30.12,,California,55.0,,,,,,,11:00 PM,,,7.0,,East,4.6,90.0,90001.0
Los Angeles,Clear,1970-01-26 08:00:00,50.0,,-,89.0,,30.13,,California,53.1,,,,,,,12:00 AM,,,7.0,,WSW,4.6,240.0,90001.0
Los Angeles,Smoke,1970-01-26 09:00:00,51.1,,-,90.0,,30.11,,California,54.0,,,,,,,1:00 AM,,,5.0,,ENE,3.5,70.0,90001.0
Los Angeles,Smoke,1970-01-26 10:00:00,48.9,,-,89.0,,30.12,,California,52.0,,,,,,,2:00 AM,,,4.0,,ENE,4.6,60.0,90001.0
Los Angeles,Smoke,1970-01-26 11:00:00,48.9,,-,92.0,,30.12,,California,51.1,,,,,,,3:00 AM,,,4.0,,WSW,4.6,240.0,90001.0
Los Angeles,Fog,1970-01-26 12:00:00,48.9,Fog,-,92.0,,30.11,,California,51.1,,,,,,,4:00 AM,,,3.0,,East,4.6,90.0,90001.0
Los Angeles,Fog,1970-01-26 13:00:00,46.9,Fog,-,93.0,,30.11,,California,48.9,,,,,,,5:00 AM,,,10.5,,ENE,4.6,60.0,90001.0
Los Angeles,Fog,1970-01-26 14:00:00,46.9,Fog,-,93.0,,30.11,,California,48.9,,,,,,,6:00 AM,,,2.0,,East,5.8,100.0,90001.0
Los Angeles,Fog,1970-01-26 15:00:00,46.9,Fog,-,93.0,,30.12,,California,48.9,,,,,,,7:00 AM,,,5.5,,East,6.9,100.0,90001.0
Los Angeles,Fog,1970-01-26 16:00:00,48.0,Fog,-,93.0,,30.14,,California,50.0,,,,,,,8:00 AM,,,2.8,,SE,4.6,140.0,90001.0
Los Angeles,Fog,1970-01-26 17:00:00,51.1,Fog,-,93.0,,30.14,,California,53.1,,,,,,,9:00 AM,,,5.5,,ESE,6.9,110.0,90001.0
Los Angeles,Smoke,1970-01-26 18:00:00,51.1,,-,81.0,,30.15,,California,57.0,,,,,,,10:00 AM,,,5.5,,SSE,4.6,150.0,90001.0
Los Angeles,Fog,1970-01-26 19:00:00,54.0,Fog,-,87.0,,30.14,,California,57.9,,,,,,,11:00 AM,,,0.6,,SSW,4.6,200.0,90001.0
Los Angeles,Smoke,1970-01-26 20:00:00,54.0,,-,80.0,,30.11,,California,60.1,,,,,,,12:00 PM,,,1.0,,South,4.6,180.0,90001.0
Los Angeles,Smoke,1970-01-26 21:00:00,55.0,,-,78.0,,30.09,,California,62.1,,,,,,,1:00 PM,,,5.5,,WSW,11.5,250.0,90001.0
Los Angeles,Smoke,1970-01-26 22:00:00,53.1,,-,78.0,,30.08,,California,60.1,,,,,,,2:00 PM,,,3.0,,West,9.2,260.0,90001.0
Los Angeles,Smoke,1970-01-26 23:00:00,54.0,,-,83.0,,30.07,,California,59.0,,,,,,,3:00 PM,,,5.5,,SW,11.5,230.0,90001.0
Los Angeles,Smoke,1970-01-27 00:00:00,54.0,,-,83.0,,30.08,,California,59.0,,,,,,,4:00 PM,,,5.5,,WSW,13.8,250.0,90001.0
Los Angeles,Smoke,1970-01-27 01:00:00,53.1,,-,84.0,,30.08,,California,57.9,,,,,,,5:00 PM,,,4.0,,West,10.4,260.0,90001.0
Los Angeles,Smoke,1970-01-27 02:00:00,53.1,,-,87.0,,30.09,,California,57.0,,,,,,,6:00 PM,,,4.0,,WSW,8.1,250.0,90001.0
Los Angeles,Smoke,1970-01-27 03:00:00,52.0,,-,87.0,,30.09,,California,55.9,,,,,,,7:00 PM,,,5.0,,SW,4.6,230.0,90001.0
Los Angeles,Smoke,1970-01-27 04:00:00,52.0,,-,87.0,,30.1,,California,55.9,,,,,,,8:00 PM,,,6.0,,WSW,5.8,240.0,90001.0
Los Angeles,Unknown,1970-01-27 05:00:00,53.1,,-,90.0,,30.1,,California,55.9,,,,,,,9:00 PM,,,7.0,,SW,4.6,230.0,90001.0
Los Angeles,Clear,1970-01-27 06:00:00,53.1,,-,90.0,,30.11,,California,55.9,,,,,,,10:00 PM,,,7.0,,SSW,2.3,210.0,90001.0
Los Angeles,Smoke,1970-01-27 07:00:00,52.0,,-,87.0,,30.11,,California,55.9,,,,,,,11:00 PM,,,6.0,,ESE,3.5,120.0,90001.0
Los Angeles,Smoke,1970-01-27 08:00:00,52.0,,-,89.0,,30.11,,California,55.0,,,,,,,12:00 AM,,,5.0,,East,5.8,100.0,90001.0
Los Angeles,Smoke,1970-01-27 09:00:00,52.0,,-,93.0,,30.11,,California,54.0,,,,,,,1:00 AM,,,5.0,,East,4.6,100.0,90001.0
Los Angeles,Smoke,1970-01-27 10:00:00,51.1,,-,93.0,,30.12,,California,53.1,,,,,,,2:00 AM,,,4.0,,East,5.8,90.0,90001.0
Los Angeles,Fog,1970-01-27 11:00:00,50.0,Fog,-,93.0,,30.11,,California,52.0,,,,,,,3:00 AM,,,10.5,,East,6.9,80.0,90001.0
Los Angeles,Fog,1970-01-27 12:00:00,51.1,Fog,-,97.0,,30.09,,California,52.0,,,,,,,4:00 AM,,,0.0,,East,5.8,90.0,90001.0
Los Angeles,Fog,1970-01-27 13:00:00,51.1,Fog,-,97.0,,30.08,,California,52.0,,,,,,,5:00 AM,,,0.0,,ESE,6.9,120.0,90001.0
Los Angeles,Fog,1970-01-27 14:00:00,52.0,Fog,-,100.0,,30.09,,California,52.0,,,,,,,6:00 AM,,,0.2,,ESE,9.2,120.0,90001.0
Los Angeles,Fog,1970-01-27 15:00:00,52.0,Fog,-,100.0,,30.11,,California,52.0,,,,,,,7:00 AM,,,0.5,,ESE,8.1,110.0,90001.0
Los Angeles,Fog,1970-01-27 16:00:00,52.0,Fog,-,100.0,,30.12,,California,52.0,,,,,,,8:00 AM,,,0.4,,ESE,5.8,110.0,90001.0
Los Angeles,Fog,1970-01-27 17:00:00,52.0,Fog,-,96.0,,30.14,,California,53.1,,,,,,,9:00 AM,,,0.8,,SE,4.6,130.0,90001.0
Los Angeles,Fog,1970-01-27 18:00:00,53.1,Fog,-,90.0,,30.14,,California,55.9,,,,,,,10:00 AM,,,2.0,,East,5.8,100.0,90001.0
Los Angeles,Smoke,1970-01-27 19:00:00,53.1,,-,81.0,,30.14,,California,59.0,,,,,,,11:00 AM,,,3.0,,South,5.8,190.0,90001.0
Los Angeles,Smoke,1970-01-27 20:00:00,53.1,,-,75.0,,30.11,,California,61.0,,,,,,,12:00 PM,,,4.0,,SSE,5.8,160.0,90001.0
Los Angeles,Smoke,1970-01-27 21:00:00,53.1,,-,78.0,,30.08,,California,60.1,,,,,,,1:00 PM,,,5.0,,WSW,9.2,240.0,90001.0
Los Angeles,Smoke,1970-01-27 22:00:00,53.1,,-,78.0,,30.07,,California,60.1,,,,,,,2:00 PM,,,5.0,,West,9.2,270.0,90001.0
Los Angeles,Smoke,1970-01-27 23:00:00,53.1,,-,78.0,,30.07,,California,60.1,,,,,,,3:00 PM,,,4.0,,West,4.6,260.0,90001.0
Los Angeles,Smoke,1970-01-28 00:00:00,53.1,,-,78.0,,30.06,,California,60.1,,,,,,,4:00 PM,,,5.0,,WSW,6.9,240.0,90001.0
Los Angeles,Smoke,1970-01-28 01:00:00,52.0,,-,81.0,,30.06,,California,57.9,,,,,,,5:00 PM,,,4.0,,WSW,6.9,240.0,90001.0
Los Angeles,Smoke,1970-01-28 02:00:00,53.1,,-,90.0,,30.06,,California,55.9,,,,,,,6:00 PM,,,4.0,,West,9.2,260.0,90001.0
Los Angeles,Smoke,1970-01-28 03:00:00,53.1,,-,90.0,,30.06,,California,55.9,,,,,,,7:00 PM,,,4.0,,West,9.2,270.0,90001.0
Los Angeles,Smoke,1970-01-28 04:00:00,53.1,,-,93.0,,30.07,,California,55.0,,,,,,,8:00 PM,,,5.0,,WSW,8.1,250.0,90001.0
Los Angeles,Clear,1970-01-28 05:00:00,53.1,,-,90.0,,30.07,,California,55.9,,,,,,,9:00 PM,,,15.0,,West,11.5,260.0,90001.0
Los Angeles,Clear,1970-01-28 06:00:00,39.0,,-,49.0,,30.08,,California,57.9,,,,,,,10:00 PM,,,15.0,,NW,11.5,310.0,90001.0
Los Angeles,Unknown,1970-01-28 07:00:00,39.0,,-,49.0,,30.08,,California,57.9,,,,,,,11:00 PM,,,15.0,,NNW,13.8,330.0,90001.0
Los Angeles,Clear,1970-01-28 08:00:00,37.0,,-,46.0,,30.08,,California,57.9,,,,,,,12:00 AM,,,15.0,,NNW,11.5,340.0,90001.0
Los Angeles,Fog,1970-01-28 09:00:00,48.0,Fog,-,93.0,,30.09,,California,50.0,,,,,,,1:00 AM,,,0.5,,East,5.8,100.0,90001.0
Los Angeles,Smoke,1970-01-28 10:00:00,41.0,,-,66.0,,30.1,,California,52.0,,,,,,,2:00 AM,,,5.0,,North,8.1,360.0,90001.0
Los Angeles,Clear,1970-01-28 11:00:00,34.0,,-,45.0,,30.09,,California,55.0,,,,,,,3:00 AM,,,8.0,,North,9.2,10.0,90001.0
Los Angeles,Clear,1970-01-28 12:00:00,39.0,,-,66.0,,30.09,,California,50.0,,,,,,,4:00 AM,,,8.0,,ENE,6.9,70.0,90001.0
Los Angeles,Clear,1970-01-28 13:00:00,34.0,,-,45.0,,30.08,,California,55.0,,,,,,,5:00 AM,,,10.0,,WNW,10.4,300.0,90001.0
Los Angeles,Clear,1970-01-28 14:00:00,32.0,,-,42.0,,30.08,,California,55.0,,,,,,,6:00 AM,,,15.0,,NNW,20.7,340.0,90001.0
Los Angeles,Clear,1970-01-28 15:00:00,30.9,,-,40.0,,30.1,,California,55.0,,,,,,,7:00 AM,,,15.0,,North,13.8,10.0,90001.0
Los Angeles,Fog,1970-01-28 16:00:00,46.9,Fog,-,93.0,,30.13,,California,48.9,,,,,,,8:00 AM,,,0.1,,ENE,8.1,70.0,90001.0
Los Angeles,Fog,1970-01-28 17:00:00,48.0,Fog,-,97.0,,30.15,,California,48.9,,,,,,,9:00 AM,,,0.2,,NE,5.8,50.0,90001.0
Los Angeles,Drizzle,1970-01-28 18:00:00,48.9,,-,77.0,,30.18,,California,55.9,,,,,,,10:00 AM,,,5.5,,NE,10.4,50.0,90001.0
Los Angeles,Drizzle,1970-01-28 19:00:00,46.0,,-,56.0,,30.18,,California,62.1,,,,,,,11:00 AM,,,3.0,,North,6.9,350.0,90001.0
Los Angeles,Drizzle,1970-01-28 20:00:00,48.9,,-,54.0,,30.14,,California,66.0,,,,,,,12:00 PM,,,4.0,,NW,5.8,310.0,90001.0
Los Angeles,Drizzle,1970-01-28 21:00:00,36.0,,-,29.0,,30.12,,California,70.0,,,,,,,1:00 PM,,,6.0,,SSW,5.8,210.0,90001.0
Los Angeles,Clear,1970-01-28 22:00:00,30.9,,-,23.0,,30.11,,California,71.1,,,,,,,2:00 PM,,,8.0,,ESE,6.9,110.0,90001.0
Los Angeles,Clear,1970-01-28 23:00:00,28.9,,-,20.0,,30.11,,California,72.0,,,,,,,3:00 PM,,,10.0,,SSW,4.6,210.0,90001.0
Los Angeles,Clear,1970-01-29 00:00:00,30.9,,-,22.0,,30.12,,California,72.0,,,,,,,4:00 PM,,,10.0,,North,4.6,10.0,90001.0
Los Angeles,Clear,1970-01-29 01:00:00,28.0,,-,22.0,,30.12,,California,69.1,,,,,,,5:00 PM,,,25.0,,SSE,6.9,160.0,90001.0
Los Angeles,Clear,1970-01-29 02:00:00,21.9,,-,18.0,,30.14,,California,66.9,,,,,,,6:00 PM,,,15.0,,WSW,2.3,250.0,90001.0
Los Angeles,Clear,1970-01-29 03:00:00,21.9,,-,21.0,,30.16,,California,63.0,,,,,,,7:00 PM,,,15.0,,NNW,5.8,330.0,90001.0
Los Angeles,Clear,1970-01-29 04:00:00,17.1,,-,18.0,,30.18,,California,61.0,,,,,,,8:00 PM,,,15.0,,WNW,3.5,300.0,90001.0
Los Angeles,Clear,1970-01-29 05:00:00,19.9,,-,22.0,,30.19,,California,59.0,,,,,,,9:00 PM,,,15.0,,NW,6.9,320.0,90001.0
Los Angeles,Clear,1970-01-29 06:00:00,19.0,,-,22.0,,30.2,,California,57.9,,,,,,,10:00 PM,,,15.0,,North,4.6,360.0,90001.0
Los Angeles,Clear,1970-01-29 07:00:00,19.9,,-,24.0,,30.22,,California,57.0,,,,,,,11:00 PM,,,15.0,,ESE,2.3,120.0,90001.0
Los Angeles,Clear,1970-01-29 08:00:00,27.0,,-,37.0,,30.24,,California,53.1,,,,,,,12:00 AM,,,15.0,,East,6.9,90.0,90001.0
Los Angeles,Clear,1970-01-29 09:00:00,23.0,,-,30.0,,30.24,,California,54.0,,,,,,,1:00 AM,,,15.0,,NW,4.6,310.0,90001.0
Los Angeles,Clear,1970-01-29 10:00:00,19.9,,-,28.0,,30.26,,California,52.0,,,,,,,2:00 AM,,,15.0,,North,5.8,10.0,90001.0
Los Angeles,Clear,1970-01-29 11:00:00,19.9,,-,28.0,,30.26,,California,52.0,,,,,,,3:00 AM,,,15.0,,North,4.6,10.0,90001.0
Los Angeles,Clear,1970-01-29 12:00:00,19.0,,-,29.0,,30.26,,California,50.0,,,,,,,4:00 AM,,,15.0,,North,8.1,10.0,90001.0
Los Angeles,Clear,1970-01-29 13:00:00,16.0,,-,25.0,,30.27,,California,51.1,,,,,,,5:00 AM,,,15.0,,North,8.1,10.0,90001.0
Los Angeles,Clear,1970-01-29 14:00:00,18.0,,-,29.0,,30.3,,California,48.9,,,,,,,6:00 AM,,,15.0,,NNE,11.5,20.0,90001.0
Los Angeles,Clear,1970-01-29 15:00:00,18.0,,-,29.0,,30.31,,California,48.9,,,,,,,7:00 AM,,,90.0,,NNE,11.5,20.0,90001.0
Los Angeles,Clear,1970-01-29 16:00:00,16.0,,-,23.0,,30.32,,California,53.1,,,,,,,8:00 AM,,,15.0,,NNE,8.1,20.0,90001.0
Los Angeles,Clear,1970-01-29 17:00:00,9.0,,-,14.0,,30.35,,California,57.9,,,,,,,9:00 AM,,,25.0,,NNE,11.5,30.0,90001.0
Los Angeles,Unknown,1970-01-29 18:00:00,5.0,,-,10.0,,30.34,,California,63.0,,,,,,,10:00 AM,,,30.0,,NNE,13.8,30.0,90001.0
Los Angeles,Unknown,1970-01-29 19:00:00,3.9,,-,8.0,,30.34,,California,66.9,,,,,,,11:00 AM,,,50.0,,NNE,11.5,30.0,90001.0
Los Angeles,Unknown,1970-01-29 20:00:00,6.1,,-,9.0,,30.3,,California,69.1,,,,,,,12:00 PM,,,70.0,,NE,11.5,40.0,90001.0
Los Angeles,Unknown,1970-01-29 21:00:00,1.9,,-,7.0,,30.28,,California,71.1,,,,,,,1:00 PM,,,90.0,,North,9.2,10.0,90001.0
Los Angeles,Unknown,1970-01-29 22:00:00,1.9,,-,6.0,,30.27,,California,72.0,,,,,,,2:00 PM,,,90.0,,NNW,9.2,340.0,90001.0
Los Angeles,Unknown,1970-01-29 23:00:00,6.1,,-,8.0,,30.25,,California,72.0,,,,,,,3:00 PM,,,60.0,,NNW,6.9,340.0,90001.0
Los Angeles,Unknown,1970-01-30 00:00:00,1.9,,-,6.0,,30.25,,California,72.0,,,,,,,4:00 PM,,,50.0,,NNW,9.2,330.0,90001.0
Los Angeles,Unknown,1970-01-30 01:00:00,21.9,,-,19.0,,30.25,,California,64.9,,,,,,,5:00 PM,,,45.0,,WNW,12.7,300.0,90001.0
Los Angeles,Unknown,1970-01-30 02:00:00,32.0,,-,34.0,,30.26,,California,61.0,,,,,,,6:00 PM,,,15.0,,WNW,10.4,300.0,90001.0
Los Angeles,Clear,1970-01-30 03:00:00,15.1,,-,17.0,,30.25,,California,61.0,,,,,,,7:00 PM,,,15.0,,North,6.9,350.0,90001.0
Los Angeles,Clear,1970-01-30 04:00:00,14.0,,-,16.0,,30.26,,California,60.1,,,,,,,8:00 PM,,,15.0,,NNW,10.4,340.0,90001.0
Los Angeles,Clear,1970-01-30 05:00:00,12.0,,-,16.0,,30.26,,California,57.9,,,,,,,9:00 PM,,,15.0,,North,9.2,350.0,90001.0
Los Angeles,Clear,1970-01-30 06:00:00,12.0,,-,18.0,,30.25,,California,55.0,,,,,,,10:00 PM,,,15.0,,NE,5.8,50.0,90001.0
Los Angeles,Clear,1970-01-30 07:00:00,15.1,,-,21.0,,30.24,,California,55.0,,,,,,,11:00 PM,,,15.0,,NE,5.8,40.0,90001.0
Los Angeles,Clear,1970-01-30 08:00:00,15.1,,-,22.0,,30.23,,California,54.0,,,,,,,12:00 AM,,,15.0,,NNE,5.8,30.0,90001.0
Los Angeles,Clear,1970-01-30 09:00:00,14.0,,-,21.0,,30.24,,California,53.1,,,,,,,1:00 AM,,,15.0,,ENE,6.9,60.0,90001.0
Los Angeles,Clear,1970-01-30 10:00:00,17.1,,-,27.0,,30.23,,California,50.0,,,,,,,2:00 AM,,,15.0,,NE,9.2,50.0,90001.0
Los Angeles,Clear,1970-01-30 11:00:00,15.1,,-,26.0,,30.21,,California,48.9,,,,,,,3:00 AM,,,15.0,,ENE,4.6,60.0,90001.0
Los Angeles,Clear,1970-01-30 12:00:00,15.1,,-,25.0,,30.19,,California,50.0,,,,,,,4:00 AM,,,15.0,,North,3.5,360.0,90001.0
Los Angeles,Clear,1970-01-30 13:00:00,16.0,,-,29.0,,30.18,,California,46.9,,,,,,,5:00 AM,,,15.0,,North,3.5,350.0,90001.0
Los Angeles,Clear,1970-01-30 14:00:00,16.0,,-,29.0,,30.18,,California,46.9,,,,,,,6:00 AM,,,15.0,,NE,4.6,40.0,90001.0
Los Angeles,Clear,1970-01-30 15:00:00,19.9,,-,35.0,,30.18,,California,46.0,,,,,,,7:00 AM,,,90.0,,NE,8.1,50.0,90001.0
Los Angeles,Unknown,1970-01-30 16:00:00,21.0,,-,32.0,,30.18,,California,50.0,,,,,,,8:00 AM,,,30.0,,NE,2.3,40.0,90001.0
Los Angeles,Unknown,1970-01-30 17:00:00,19.9,,-,23.0,,30.18,,California,57.9,,,,,,,9:00 AM,,,25.0,,East,3.5,100.0,90001.0
Los Angeles,Unknown,1970-01-30 18:00:00,21.0,,-,21.0,,30.19,,California,61.0,,,,,,,10:00 AM,,,20.0,,West,9.2,260.0,90001.0
Los Angeles,Clear,1970-01-30 19:00:00,33.1,,-,36.0,,30.17,,California,60.1,,,,,,,11:00 AM,,,15.0,,WSW,8.1,240.0,90001.0
Los Angeles,Clear,1970-01-30 20:00:00,30.0,,-,30.0,,30.14,,California,62.1,,,,,,,12:00 PM,,,15.0,,WSW,10.4,240.0,90001.0
Los Angeles,Clear,1970-01-30 21:00:00,37.9,,-,42.0,,30.11,,California,61.0,,,,,,,1:00 PM,,,15.0,,WSW,11.5,240.0,90001.0
Los Angeles,Clear,1970-01-30 22:00:00,46.0,,-,60.0,,30.08,,California,60.1,,,,,,,2:00 PM,,,20.0,,WSW,13.8,240.0,90001.0
Los Angeles,Clear,1970-01-30 23:00:00,46.9,,-,62.0,,30.06,,California,60.1,,,,,,,3:00 PM,,,20.0,,WSW,12.7,240.0,90001.0
Los Angeles,Clear,1970-01-31 00:00:00,48.9,,-,67.0,,30.05,,California,60.1,,,,,,,4:00 PM,,,20.0,,WSW,13.8,240.0,90001.0
Los Angeles,Clear,1970-01-31 01:00:00,50.0,,-,75.0,,30.05,,California,57.9,,,,,,,5:00 PM,,,20.0,,WSW,16.1,250.0,90001.0
Los Angeles,Clear,1970-01-31 02:00:00,51.1,,-,81.0,,30.05,,California,57.0,,,,,,,6:00 PM,,,15.0,,NW,9.2,310.0,90001.0
Los Angeles,Clear,1970-01-31 03:00:00,30.9,,-,35.0,,30.05,,California,59.0,,,,,,,7:00 PM,,,15.0,,North,20.7,350.0,90001.0
Los Angeles,Clear,1970-01-31 04:00:00,30.9,,-,35.0,,30.07,,California,59.0,,,,,,,8:00 PM,,,15.0,,North,12.7,350.0,90001.0
Los Angeles,Clear,1970-01-31 05:00:00,30.9,,-,36.0,,30.1,,California,57.9,,,,,,,9:00 PM,,,15.0,,SE,9.2,140.0,90001.0
Los Angeles,Clear,1970-01-31 06:00:00,34.0,,-,41.0,,30.11,,California,57.9,,,,,,,10:00 PM,,,15.0,,NNW,24.2,340.0,90001.0
Los Angeles,Clear,1970-01-31 07:00:00,36.0,,-,44.0,,30.14,,California,57.9,,,,,,,11:00 PM,,,15.0,,NNW,19.6,330.0,90001.0
Los Angeles,Clear,1970-01-31 08:00:00,36.0,,-,44.0,,30.17,,California,57.9,,,,,,,12:00 AM,,,15.0,,NNW,18.4,340.0,90001.0
Los Angeles,Clear,1970-01-31 09:00:00,34.0,,-,42.0,,30.18,,California,57.0,,,,,,,1:00 AM,,,15.0,,NNW,17.3,340.0,90001.0
Los Angeles,Clear,1970-01-31 10:00:00,32.0,,-,39.0,,30.18,,California,57.0,,,,,,,2:00 AM,,,15.0,,NNW,13.8,340.0,90001.0
Los Angeles,Clear,1970-01-31 11:00:00,32.0,,-,39.0,,30.18,,California,57.0,,,,,,,3:00 AM,,,15.0,,North,17.3,350.0,90001.0
Los Angeles,Clear,1970-01-31 12:00:00,32.0,,-,39.0,,30.17,,California,57.0,,,,,,,4:00 AM,,,15.0,,NNW,20.7,340.0,90001.0
Los Angeles,Clear,1970-01-31 13:00:00,30.9,,-,37.0,,30.15,,California,57.0,,,,,,,5:00 AM,,,15.0,,North,18.4,350.0,90001.0
Los Angeles,Clear,1970-01-31 14:00:00,32.0,,-,40.0,,30.18,,California,55.9,,,,,,,6:00 AM,,,15.0,,NW,9.2,320.0,90001.0
Los Angeles,Unknown,1970-01-31 15:00:00,30.0,,-,37.0,,30.19,,California,55.9,,,,,,,7:00 AM,,,80.0,,WNW,8.1,300.0,90001.0
Los Angeles,Unknown,1970-01-31 16:00:00,30.9,,-,37.0,,30.2,,California,57.0,,,,,,,8:00 AM,,,25.0,,East,3.5,100.0,90001.0
Los Angeles,Unknown,1970-01-31 17:00:00,30.9,,-,33.0,,30.22,,California,60.1,,,,,,,9:00 AM,,,25.0,,North,6.9,10.0,90001.0
Los Angeles,Unknown,1970-01-31 18:00:00,30.0,,-,30.0,,30.22,,California,62.1,,,,,,,10:00 AM,,,20.0,,North,9.2,360.0,90001.0
Los Angeles,Unknown,1970-01-31 19:00:00,30.0,,-,26.0,,30.22,,California,66.0,,,,,,,11:00 AM,,,20.0,,ENE,3.5,70.0,90001.0
Los Angeles,Unknown,1970-01-31 20:00:00,30.9,,-,25.0,,30.19,,California,68.0,,,,,,,12:00 PM,,,20.0,,SSE,9.2,150.0,90001.0
Los Angeles,Unknown,1970-01-31 21:00:00,36.0,,-,31.0,,30.17,,California,68.0,,,,,,,1:00 PM,,,20.0,,South,11.5,190.0,90001.0
Los Angeles,Unknown,1970-01-31 22:00:00,44.1,,-,44.0,,30.15,,California,66.9,,,,,,,2:00 PM,,,20.0,,WSW,12.7,240.0,90001.0
Los Angeles,Unknown,1970-01-31 23:00:00,48.0,,-,58.0,,30.15,,California,63.0,,,,,,,3:00 PM,,,20.0,,WSW,12.7,250.0,90001.0
Los Angeles,Unknown,1970-02-01 00:00:00,46.0,,-,58.0,,30.15,,California,61.0,,,,,,,4:00 PM,,,20.0,,WSW,11.5,240.0,90001.0
Los Angeles,Unknown,1970-02-01 01:00:00,45.0,,-,56.0,,30.16,,California,61.0,,,,,,,5:00 PM,,,30.0,,SW,10.4,230.0,90001.0
Los Angeles,Unknown,1970-02-01 02:00:00,42.1,,-,51.0,,30.16,,California,60.1,,,,,,,6:00 PM,,,15.0,,SW,9.2,230.0,90001.0
Los Angeles,Unknown,1970-02-01 03:00:00,45.0,,-,62.0,,30.17,,California,57.9,,,,,,,7:00 PM,,,15.0,,WSW,9.2,250.0,90001.0
Los Angeles,Unknown,1970-02-01 04:00:00,44.1,,-,62.0,,30.19,,California,57.0,,,,,,,8:00 PM,,,15.0,,South,2.3,170.0,90001.0
Los Angeles,Unknown,1970-02-01 05:00:00,44.1,,-,64.0,,30.19,,California,55.9,,,,,,,9:00 PM,,,15.0,,East,4.6,80.0,90001.0
Los Angeles,Unknown,1970-02-01 06:00:00,43.0,,-,64.0,,30.19,,California,55.0,,,,,,,10:00 PM,,,15.0,,NE,5.8,50.0,90001.0
Los Angeles,Unknown,1970-02-01 07:00:00,43.0,,-,66.0,,30.19,,California,54.0,,,,,,,11:00 PM,,,15.0,,East,9.2,80.0,90001.0
Miami,Clear,1970-01-01 05:00:00,63.0,,-,84.0,,30.02,,Florida,68.0,,,,12:00 AM,,,,,,10.0,,SSE,4.6,150.0,33010.0
Miami,Unknown,1970-01-01 06:00:00,63.0,,-,84.0,,30.01,,Florida,68.0,,,,1:00 AM,,,,,,10.0,,South,5.8,180.0,33010.0
Miami,Unknown,1970-01-01 07:00:00,63.0,,-,87.0,,30.01,,Florida,66.9,,,,2:00 AM,,,,,,10.0,,SW,3.5,230.0,33010.0
Miami,Unknown,1970-01-01 08:00:00,62.1,,-,87.0,,30.01,,Florida,66.0,,,,3:00 AM,,,,,,10.0,,South,2.3,180.0,33010.0
Miami,Unknown,1970-01-01 09:00:00,60.1,,-,90.0,,30.0,,Florida,63.0,,,,4:00 AM,,,,,,10.0,,NNW,6.9,330.0,33010.0
Miami,Unknown,1970-01-01 10:00:00,60.1,,-,90.0,,30.0,,Florida,63.0,,,,5:00 AM,,,,,,10.0,,NNW,3.5,340.0,33010.0
Miami,Unknown,1970-01-01 11:00:00,60.1,,-,90.0,,29.99,,Florida,63.0,,,,6:00 AM,,,,,,10.0,,ESE,3.5,120.0,33010.0
Miami,Unknown,1970-01-01 12:00:00,60.1,,-,90.0,,30.0,,Florida,63.0,,,,7:00 AM,,,,,,8.0,,East,4.6,90.0,33010.0
Miami,Smoke,1970-01-01 13:00:00,61.0,,-,90.0,,30.01,,Florida,64.0,,,,8:00 AM,,,,,,5.0,,East,2.3,90.0,33010.0
Miami,Smoke,1970-01-01 14:00:00,66.0,,-,81.0,,30.04,,Florida,72.0,,,,9:00 AM,,,,,,5.0,,Calm,Calm,0.0,33010.0
Miami,Unknown,1970-01-01 15:00:00,68.0,,-,82.0,,30.04,,Florida,73.9,,,,10:00 AM,,,,,,7.0,,South,4.6,170.0,33010.0
Miami,Unknown,1970-01-01 16:00:00,64.9,,-,66.0,,30.04,,Florida,77.0,,,,11:00 AM,,,,,,10.0,,WNW,3.5,290.0,33010.0
Miami,Unknown,1970-01-01 17:00:00,63.0,,-,60.0,,30.0,,Florida,78.1,,,,12:00 PM,,,,,,10.0,,South,4.6,190.0,33010.0
Miami,Unknown,1970-01-01 18:00:00,62.1,,-,54.0,,29.96,,Florida,80.1,,,,1:00 PM,,,,,,10.0,,WNW,8.1,290.0,33010.0
Miami,Unknown,1970-01-01 19:00:00,60.1,,-,50.0,,29.95,,Florida,80.1,,,,2:00 PM,,,,,,10.0,,West,3.5,270.0,33010.0
Miami,Unknown,1970-01-01 20:00:00,63.0,,-,56.0,,29.94,,Florida,80.1,,,,3:00 PM,,,,,,10.0,,SSE,8.1,160.0,33010.0
Miami,Unknown,1970-01-01 21:00:00,64.0,,-,60.0,,29.94,,Florida,79.0,,,,4:00 PM,,,,,,10.0,,South,9.2,170.0,33010.0
Miami,Unknown,1970-01-01 22:00:00,64.9,,-,66.0,,29.94,,Florida,77.0,,,,5:00 PM,,,,,,10.0,,SSE,9.2,160.0,33010.0
Miami,Unknown,1970-01-01 23:00:00,66.9,,-,74.0,,29.96,,Florida,75.9,,,,6:00 PM,,,,,,10.0,,South,6.9,180.0,33010.0
Miami,Unknown,1970-01-02 00:00:00,66.9,,-,74.0,,29.96,,Florida,75.9,,,,7:00 PM,,,,,,10.0,,SSW,5.8,200.0,33010.0
Miami,Unknown,1970-01-02 01:00:00,66.9,,-,76.0,,29.99,,Florida,75.0,,,,8:00 PM,,,,,,10.0,,SSE,5.8,160.0,33010.0
Miami,Unknown,1970-01-02 02:00:00,66.9,,-,76.0,,29.99,,Florida,75.0,,,,9:00 PM,,,,,,10.0,,WSW,3.5,250.0,33010.0
Miami,Unknown,1970-01-02 03:00:00,68.0,,-,82.0,,30.01,,Florida,73.9,,,,10:00 PM,,,,,,10.0,,WNW,10.4,300.0,33010.0
Miami,Light Rain Showers,1970-01-02 04:00:00,64.9,Rain,-,87.0,,30.02,,Florida,69.1,,,,11:00 PM,,,,,,8.0,,North,13.8,360.0,33010.0
Miami,Unknown,1970-01-03 05:00:00,68.0,,-,79.0,,29.93,,Florida,75.0,,,,12:00 AM,,,,,,10.0,,ENE,4.6,60.0,33010.0
Miami,Light Rain Showers,1970-01-03 06:00:00,66.9,Rain,-,87.0,,29.91,,Florida,71.1,,,,1:00 AM,,,,,,8.0,,ENE,4.6,70.0,33010.0
Miami,Unknown,1970-01-03 07:00:00,66.0,,-,93.0,,29.89,,Florida,68.0,,,,2:00 AM,,,,,,8.0,,North,6.9,350.0,33010.0
Miami,Unknown,1970-01-03 08:00:00,64.9,,-,90.0,,29.88,,Florida,68.0,,,,3:00 AM,,,,,,8.0,,NNW,3.5,340.0,33010.0
Miami,Unknown,1970-01-03 09:00:00,64.9,,-,90.0,,29.86,,Florida,68.0,,,,4:00 AM,,,,,,8.0,,WNW,2.3,290.0,33010.0
Miami,Unknown,1970-01-03 10:00:00,66.9,,-,90.0,,29.85,,Florida,70.0,,,,5:00 AM,,,,,,8.0,,SSE,4.6,160.0,33010.0
Miami,Unknown,1970-01-03 11:00:00,68.0,,-,90.0,,29.86,,Florida,71.1,,,,6:00 AM,,,,,,7.0,,South,4.6,170.0,33010.0
Miami,Light Rain,1970-01-03 12:00:00,70.0,Rain,-,93.0,,29.86,,Florida,72.0,,,,7:00 AM,,,,,,7.0,,South,8.1,180.0,33010.0
Miami,Light Rain,1970-01-03 13:00:00,70.0,Rain,-,90.0,,29.88,,Florida,73.0,,,,8:00 AM,,,,,,4.0,,WSW,8.1,240.0,33010.0
Miami,Smoke,1970-01-03 14:00:00,72.0,,-,93.0,,29.91,,Florida,73.9,,,,9:00 AM,,,,,,4.0,,SW,9.2,220.0,33010.0
Miami,Unknown,1970-01-03 15:00:00,71.1,,-,85.0,,29.92,,Florida,75.9,,,,10:00 AM,,,,,,7.0,,SW,10.4,230.0,33010.0
Miami,Unknown,1970-01-03 16:00:00,72.0,,-,79.0,,29.89,,Florida,79.0,,,,11:00 AM,,,,,,10.0,,WSW,11.5,250.0,33010.0
Miami,Unknown,1970-01-03 17:00:00,71.1,,-,77.0,,29.87,,Florida,79.0,,,,12:00 PM,,,,,,10.0,,West,11.5,270.0,33010.0
Miami,Unknown,1970-01-03 18:00:00,66.9,,-,76.0,,29.85,,Florida,75.0,,,,1:00 PM,,,,,,10.0,,NNW,16.1,340.0,33010.0
Miami,Drizzle,1970-01-03 19:00:00,66.0,,-,76.0,,29.86,,Florida,73.9,,,,2:00 PM,,,,,,6.0,,NNE,5.8,30.0,33010.0
Miami,Drizzle,1970-01-03 20:00:00,64.0,,-,76.0,,29.87,,Florida,72.0,,,,3:00 PM,,,,,,6.0,,North,11.5,350.0,33010.0
Miami,Light Rain,1970-01-03 21:00:00,63.0,Rain,-,84.0,0.01,29.88,,Florida,68.0,,,,4:00 PM,,,,,,5.0,,North,16.1,350.0,33010.0
Miami,Light Rain,1970-01-03 22:00:00,59.0,Rain,-,87.0,0.09,29.93,,Florida,63.0,,,,5:00 PM,,,,,,3.0,,North,16.1,360.0,33010.0
Miami,Rain,1970-01-03 23:00:00,57.9,Fog-Rain,-,90.0,0.21,29.94,,Florida,61.0,,,,6:00 PM,,,,,,2.0,,North,15.0,10.0,33010.0
Miami,Light Rain,1970-01-04 00:00:00,57.9,Rain,-,90.0,0.14,29.94,,Florida,61.0,,,,7:00 PM,,,,,,6.0,,North,8.1,10.0,33010.0
Miami,Unknown,1970-01-04 01:00:00,57.9,,-,90.0,,29.95,,Florida,61.0,,,,8:00 PM,,,,,,7.0,,NNE,5.8,30.0,33010.0
Miami,Unknown,1970-01-04 02:00:00,60.1,,-,90.0,,29.93,,Florida,63.0,,,,9:00 PM,,,,,,8.0,,ESE,8.1,110.0,33010.0
Miami,Unknown,1970-01-04 03:00:00,59.0,,-,93.0,,29.95,,Florida,61.0,,,,10:00 PM,,,,,,7.0,,NNW,10.4,330.0,33010.0
Miami,Fog,1970-01-04 04:00:00,57.9,Fog,-,93.0,,29.96,,Florida,60.1,,,,11:00 PM,,,,,,5.5,,NNW,12.7,340.0,33010.0
Miami,Fog,1970-01-04 05:00:00,55.9,Fog,-,93.0,,29.97,,Florida,57.9,,,,12:00 AM,,,,,,5.5,,NNW,10.4,340.0,33010.0
Miami,Fog,1970-01-04 06:00:00,55.9,Fog,-,93.0,,29.96,,Florida,57.9,,,,1:00 AM,,,,,,5.5,,NNW,9.2,340.0,33010.0
Miami,Fog,1970-01-04 07:00:00,52.0,Fog,-,83.0,,29.97,,Florida,57.0,,,,2:00 AM,,,,,,5.0,,North,13.8,350.0,33010.0
Miami,Fog,1970-01-04 08:00:00,52.0,Fog,-,83.0,,29.98,,Florida,57.0,,,,3:00 AM,,,,,,5.0,,NNW,9.2,330.0,33010.0
Miami,Fog,1970-01-04 09:00:00,52.0,Fog,-,83.0,,29.99,,Florida,57.0,,,,4:00 AM,,,,,,5.0,,NW,11.5,320.0,33010.0
Miami,Fog,1970-01-04 10:00:00,52.0,Fog,-,83.0,,29.99,,Florida,57.0,,,,5:00 AM,,,,,,5.0,,North,11.5,360.0,33010.0
Miami,Unknown,1970-01-04 11:00:00,51.1,,-,81.0,,30.01,,Florida,57.0,,,,6:00 AM,,,,,,7.0,,NW,11.5,320.0,33010.0
Miami,Unknown,1970-01-04 12:00:00,51.1,,-,81.0,,30.05,,Florida,57.0,,,,7:00 AM,,,,,,7.0,,NNW,15.0,330.0,33010.0
Miami,Unknown,1970-01-04 13:00:00,48.9,,-,77.0,,30.1,,Florida,55.9,,,,8:00 AM,,,,,,7.0,,NNW,16.1,340.0,33010.0
Miami,Unknown,1970-01-04 14:00:00,43.0,,-,62.0,,30.13,,Florida,55.9,,,,9:00 AM,,,,,,7.0,,North,17.3,360.0,33010.0
Miami,Unknown,1970-01-04 15:00:00,39.9,,-,53.0,,30.15,,Florida,57.0,,,,10:00 AM,,,,,,10.0,,North,17.3,350.0,33010.0
Miami,Unknown,1970-01-04 16:00:00,39.0,,-,49.0,,30.14,,Florida,57.9,,,,11:00 AM,,,,,,10.0,,North,16.1,350.0,33010.0
Miami,Unknown,1970-01-04 17:00:00,39.0,,-,44.0,,30.11,,Florida,61.0,,,,12:00 PM,,,,,,10.0,,North,13.8,360.0,33010.0
Miami,Unknown,1970-01-04 18:00:00,42.1,,-,48.0,,30.11,,Florida,62.1,,,,1:00 PM,,,,,,10.0,,NNW,17.3,340.0,33010.0
Miami,Unknown,1970-01-04 19:00:00,39.9,,-,44.0,,30.11,,Florida,62.1,,,,2:00 PM,,,,,,10.0,,North,17.3,350.0,33010.0
Miami,Unknown,1970-01-04 20:00:00,39.0,,-,44.0,,30.13,,Florida,61.0,,,,3:00 PM,,,,,,10.0,,NNW,18.4,340.0,33010.0
Miami,Unknown,1970-01-04 21:00:00,36.0,,-,39.0,,30.15,,Florida,61.0,,,,4:00 PM,,,,,,10.0,,North,13.8,10.0,33010.0
Miami,Unknown,1970-01-04 22:00:00,39.0,,-,48.0,,30.16,,Florida,59.0,,,,5:00 PM,,,,,,10.0,,North,12.7,360.0,33010.0
Miami,Unknown,1970-01-04 23:00:00,37.9,,-,47.0,,30.17,,Florida,57.9,,,,6:00 PM,,,,,,10.0,,North,15.0,360.0,33010.0
Miami,Unknown,1970-01-05 00:00:00,37.9,,-,53.0,,30.17,,Florida,55.0,,,,7:00 PM,,,,,,10.0,,North,12.7,10.0,33010.0
Miami,Unknown,1970-01-05 01:00:00,39.9,,-,59.0,,30.17,,Florida,54.0,,,,8:00 PM,,,,,,10.0,,North,15.0,10.0,33010.0
Miami,Unknown,1970-01-05 02:00:00,41.0,,-,64.0,,30.17,,Florida,53.1,,,,9:00 PM,,,,,,10.0,,North,16.1,360.0,33010.0
Miami,Unknown,1970-01-05 03:00:00,43.0,,-,69.0,,30.18,,Florida,53.1,,,,10:00 PM,,,,,,10.0,,North,11.5,350.0,33010.0
Miami,Unknown,1970-01-05 04:00:00,45.0,,-,74.0,,30.18,,Florida,53.1,,,,11:00 PM,,,,,,10.0,,North,11.5,350.0,33010.0
Miami,Unknown,1970-01-05 05:00:00,45.0,,-,74.0,,30.19,,Florida,53.1,,,,12:00 AM,,,,,,10.0,,North,9.2,360.0,33010.0
Miami,Unknown,1970-01-05 06:00:00,46.0,,-,80.0,,30.19,,Florida,52.0,,,,1:00 AM,,,,,,10.0,,North,9.2,360.0,33010.0
Miami,Unknown,1970-01-05 07:00:00,46.0,,-,80.0,,30.18,,Florida,52.0,,,,2:00 AM,,,,,,10.0,,North,6.9,360.0,33010.0
Miami,Unknown,1970-01-05 08:00:00,46.9,,-,83.0,,30.17,,Florida,52.0,,,,3:00 AM,,,,,,10.0,,North,6.9,10.0,33010.0
Miami,Unknown,1970-01-05 09:00:00,48.0,,-,83.0,,30.15,,Florida,53.1,,,,4:00 AM,,,,,,10.0,,North,4.6,360.0,33010.0
Miami,Unknown,1970-01-05 10:00:00,51.1,,-,78.0,,30.15,,Florida,57.9,,,,5:00 AM,,,,,,10.0,,NE,9.2,40.0,33010.0
Miami,Unknown,1970-01-05 11:00:00,50.0,,-,77.0,,30.16,,Florida,57.0,,,,6:00 AM,,,,,,10.0,,North,6.9,360.0,33010.0
Miami,Unknown,1970-01-05 12:00:00,50.0,,-,77.0,,30.18,,Florida,57.0,,,,7:00 AM,,,,,,10.0,,North,5.8,10.0,33010.0
Miami,Unknown,1970-01-05 13:00:00,54.0,,-,68.0,,30.19,,Florida,64.9,,,,8:00 AM,,,,,,10.0,,East,9.2,90.0,33010.0
Miami,Unknown,1970-01-05 14:00:00,55.0,,-,61.0,,30.2,,Florida,69.1,,,,9:00 AM,,,,,,10.0,,East,13.8,90.0,33010.0
Miami,Unknown,1970-01-05 15:00:00,55.9,,-,61.0,,30.2,,Florida,70.0,,,,10:00 AM,,,,,,10.0,,East,16.1,90.0,33010.0
Miami,Unknown,1970-01-05 16:00:00,57.0,,-,61.0,,30.2,,Florida,71.1,,,,11:00 AM,,,,,,10.0,,East,16.1,80.0,33010.0
Miami,Unknown,1970-01-05 17:00:00,57.0,,-,59.0,,30.19,,Florida,72.0,,,,12:00 PM,,,,,,10.0,,ENE,16.1,70.0,33010.0
Miami,Unknown,1970-01-05 18:00:00,57.0,,-,61.0,,30.16,,Florida,71.1,,,,1:00 PM,,,,,,10.0,,East,15.0,100.0,33010.0
Miami,Unknown,1970-01-05 19:00:00,57.9,,-,63.0,,30.13,,Florida,71.1,,,,2:00 PM,,,,,,10.0,,East,13.8,100.0,33010.0
Miami,Unknown,1970-01-05 20:00:00,57.9,,-,63.0,,30.12,,Florida,71.1,,,,3:00 PM,,,,,,10.0,,East,13.8,90.0,33010.0
Miami,Unknown,1970-01-05 21:00:00,57.9,,-,63.0,,30.11,,Florida,71.1,,,,4:00 PM,,,,,,10.0,,East,11.5,100.0,33010.0
Miami,Unknown,1970-01-05 22:00:00,57.9,,-,63.0,,30.12,,Florida,71.1,,,,5:00 PM,,,,,,10.0,,East,12.7,90.0,33010.0
Miami,Unknown,1970-01-05 23:00:00,57.9,,-,63.0,,30.12,,Florida,71.1,,,,6:00 PM,,,,,,10.0,,East,10.4,100.0,33010.0
Miami,Unknown,1970-01-06 00:00:00,59.0,,-,66.0,,30.12,,Florida,71.1,,,,7:00 PM,,,,,,10.0,,East,11.5,100.0,33010.0
Miami,Unknown,1970-01-06 01:00:00,59.0,,-,66.0,,30.11,,Florida,71.1,,,,8:00 PM,,,,,,10.0,,ESE,12.7,120.0,33010.0
Miami,Unknown,1970-01-06 02:00:00,59.0,,-,66.0,,30.11,,Florida,71.1,,,,9:00 PM,,,,,,10.0,,East,13.8,100.0,33010.0
Miami,Unknown,1970-01-06 03:00:00,59.0,,-,66.0,,30.09,,Florida,71.1,,,,10:00 PM,,,,,,10.0,,ESE,9.2,110.0,33010.0
Miami,Unknown,1970-01-06 04:00:00,59.0,,-,66.0,,30.07,,Florida,71.1,,,,11:00 PM,,,,,,10.0,,ESE,13.8,110.0,33010.0
Miami,Unknown,1970-01-06 05:00:00,60.1,,-,68.0,,30.05,,Florida,71.1,,,,12:00 AM,,,,,,10.0,,ESE,15.0,120.0,33010.0
Miami,Unknown,1970-01-06 06:00:00,61.0,,-,70.0,,30.03,,Florida,71.1,,,,1:00 AM,,,,,,10.0,,SE,13.8,130.0,33010.0
Miami,Unknown,1970-01-06 07:00:00,61.0,,-,70.0,,30.02,,Florida,71.1,,,,2:00 AM,,,,,,10.0,,SE,13.8,140.0,33010.0
Miami,Unknown,1970-01-06 08:00:00,62.1,,-,73.0,,29.99,,Florida,71.1,,,,3:00 AM,,,,,,10.0,,SE,13.8,140.0,33010.0
Miami,Unknown,1970-01-06 09:00:00,63.0,,-,75.0,,29.96,,Florida,71.1,,,,4:00 AM,,,,,,10.0,,ESE,13.8,120.0,33010.0
Miami,Unknown,1970-01-06 10:00:00,64.9,,-,81.0,,29.94,,Florida,71.1,,,,5:00 AM,,,,,,10.0,,SE,13.8,140.0,33010.0
Miami,Unknown,1970-01-06 11:00:00,66.0,,-,84.0,,29.92,,Florida,71.1,,,,6:00 AM,,,,,,10.0,,SE,18.4,140.0,33010.0
Miami,Unknown,1970-01-06 12:00:00,66.0,,-,81.0,,29.91,,Florida,72.0,,,,7:00 AM,,,,,,10.0,,SSE,16.1,160.0,33010.0
Miami,Unknown,1970-01-06 13:00:00,66.9,,-,84.0,,29.92,,Florida,72.0,,,,8:00 AM,,,,,,8.0,,SSE,15.0,150.0,33010.0
Miami,Unknown,1970-01-06 14:00:00,68.0,,-,84.0,,29.93,,Florida,73.0,,,,9:00 AM,,,,,,10.0,,SSE,16.1,150.0,33010.0
Miami,Unknown,1970-01-06 15:00:00,68.0,,-,87.0,,29.94,,Florida,72.0,,,,10:00 AM,,,,,,10.0,,South,16.1,170.0,33010.0
Miami,Unknown,1970-01-06 16:00:00,68.0,,-,76.0,,29.93,,Florida,75.9,,,,11:00 AM,,,,,,10.0,,South,18.4,170.0,33010.0
Miami,Light Rain,1970-01-06 17:00:00,68.0,Rain,-,76.0,,29.89,,Florida,75.9,,,,12:00 PM,,,,,,7.0,,SSE,19.6,160.0,33010.0
Miami,Unknown,1970-01-06 18:00:00,68.0,,-,76.0,,29.87,,Florida,75.9,,,,1:00 PM,,,,,,10.0,,South,13.8,190.0,33010.0
Miami,Unknown,1970-01-06 19:00:00,69.1,,-,76.0,,29.83,,Florida,77.0,,,,2:00 PM,,,,,,8.0,,South,15.0,190.0,33010.0
Miami,Unknown,1970-01-06 20:00:00,69.1,,-,76.0,,29.83,,Florida,77.0,,,,3:00 PM,,,,,,8.0,,SSW,17.3,200.0,33010.0
Miami,Unknown,1970-01-06 21:00:00,68.0,,-,74.0,,29.84,,Florida,77.0,,,,4:00 PM,,,,,,10.0,,SSW,11.5,210.0,33010.0
Miami,Unknown,1970-01-06 22:00:00,68.0,,-,74.0,,29.84,,Florida,77.0,,,,5:00 PM,,,,,,8.0,,SSW,11.5,210.0,33010.0
Miami,Unknown,1970-01-06 23:00:00,68.0,,-,76.0,,29.83,,Florida,75.9,,,,6:00 PM,,,,,,8.0,,South,8.1,180.0,33010.0
Miami,Unknown,1970-01-07 00:00:00,68.0,,-,76.0,,29.81,,Florida,75.9,,,,7:00 PM,,,,,,8.0,,South,8.1,190.0,33010.0
Miami,Light Rain,1970-01-07 01:00:00,68.0,Rain,-,84.0,0.05,29.82,,Florida,73.0,,,,8:00 PM,,,,,,5.0,,NW,8.1,320.0,33010.0
Miami,Unknown,1970-01-07 02:00:00,68.0,,-,87.0,,29.82,,Florida,72.0,,,,9:00 PM,,,,,,8.0,,SW,8.1,230.0,33010.0
Miami,Unknown,1970-01-07 03:00:00,68.0,,-,87.0,,29.82,,Florida,72.0,,,,10:00 PM,,,,,,8.0,,SW,8.1,230.0,33010.0
Miami,Unknown,1970-01-07 04:00:00,68.0,,-,90.0,,29.83,,Florida,71.1,,,,11:00 PM,,,,,,8.0,,West,13.8,280.0,33010.0
Miami,Unknown,1970-01-07 05:00:00,64.9,,-,87.0,,29.86,,Florida,69.1,,,,12:00 AM,,,,,,8.0,,WNW,12.7,290.0,33010.0
Miami,Unknown,1970-01-07 06:00:00,63.0,,-,84.0,,29.85,,Florida,68.0,,,,1:00 AM,,,,,,8.0,,WNW,11.5,300.0,33010.0
Miami,Unknown,1970-01-07 07:00:00,59.0,,-,78.0,,29.86,,Florida,66.0,,,,2:00 AM,,,,,,8.0,,NW,16.1,310.0,33010.0
Miami,Unknown,1970-01-07 08:00:00,57.0,,-,78.0,,29.86,,Florida,64.0,,,,3:00 AM,,,,,,10.0,,NW,15.0,310.0,33010.0
Miami,Unknown,1970-01-07 09:00:00,54.0,,-,72.0,,29.87,,Florida,63.0,,,,4:00 AM,,,,,,10.0,,NW,20.7,310.0,33010.0
Miami,Unknown,1970-01-07 10:00:00,53.1,,-,75.0,,29.88,,Florida,61.0,,,,5:00 AM,,,,,,10.0,,NW,17.3,310.0,33010.0
Miami,Unknown,1970-01-07 11:00:00,50.0,,-,69.0,,29.91,,Florida,60.1,,,,6:00 AM,,,,,,10.0,,NW,17.3,310.0,33010.0
Miami,Unknown,1970-01-07 12:00:00,50.0,,-,75.0,,29.95,,Florida,57.9,,,,7:00 AM,,,,,,10.0,,NNW,16.1,330.0,33010.0
Miami,Unknown,1970-01-07 13:00:00,50.0,,-,75.0,,29.99,,Florida,57.9,,,,8:00 AM,,,,,,10.0,,NW,12.7,310.0,33010.0
Miami,Unknown,1970-01-07 14:00:00,50.0,,-,75.0,,30.0,,Florida,57.9,,,,9:00 AM,,,,,,10.0,,NW,16.1,320.0,33010.0
Miami,Unknown,1970-01-07 15:00:00,48.0,,-,70.0,,30.05,,Florida,57.9,,,,10:00 AM,,,,,,10.0,,NW,18.4,320.0,33010.0
Miami,Light Rain,1970-01-07 16:00:00,48.9,Rain,-,72.0,,30.05,,Florida,57.9,,,,11:00 AM,,,,,,10.0,,NW,19.6,310.0,33010.0
Miami,Light Rain,1970-01-07 17:00:00,48.9,Rain,-,72.0,,30.04,,Florida,57.9,,,,12:00 PM,,,,,,10.0,,NW,19.6,320.0,33010.0
Miami,Light Rain,1970-01-07 18:00:00,50.0,Rain,-,80.0,,30.04,,Florida,55.9,,,,1:00 PM,,,,,,8.0,,NW,19.6,320.0,33010.0
Miami,Light Rain,1970-01-07 19:00:00,48.0,Rain,-,75.0,,30.06,,Florida,55.9,,,,2:00 PM,,,,,,7.0,,NW,19.6,310.0,33010.0
Miami,Unknown,1970-01-07 20:00:00,46.0,,-,72.0,,30.02,,Florida,55.0,,,,3:00 PM,,,,,,7.0,,NNW,19.6,330.0,33010.0
Miami,Unknown,1970-01-07 21:00:00,45.0,,-,67.0,,30.04,,Florida,55.9,,,,4:00 PM,,,,,,10.0,,NW,23.0,310.0,33010.0
Miami,Unknown,1970-01-07 22:00:00,45.0,,-,67.0,,30.06,,Florida,55.9,,,,5:00 PM,,,,,,10.0,,NW,16.1,310.0,33010.0
Miami,Unknown,1970-01-07 23:00:00,43.0,,-,64.0,,30.09,,Florida,55.0,,,,6:00 PM,,,,,,10.0,,NNW,15.0,340.0,33010.0
Miami,Unknown,1970-01-08 00:00:00,39.9,,-,66.0,,30.12,,Florida,51.1,,,,7:00 PM,,,,,,10.0,,NNW,16.1,330.0,33010.0
Miami,Unknown,1970-01-08 01:00:00,39.0,,-,69.0,,30.14,,Florida,48.9,,,,8:00 PM,,,,,,10.0,,NW,16.1,320.0,33010.0
Miami,Clear,1970-01-08 02:00:00,37.9,,-,68.0,,30.17,,Florida,48.0,,,,9:00 PM,,,,,,10.0,,NW,17.3,320.0,33010.0
Miami,Clear,1970-01-08 03:00:00,37.0,,-,68.0,,30.19,,Florida,46.9,,,,10:00 PM,,,,,,8.0,,NW,15.0,320.0,33010.0
Miami,Clear,1970-01-08 04:00:00,34.0,,-,63.0,,30.2,,Florida,46.0,,,,11:00 PM,,,,,,8.0,,NNW,17.3,330.0,33010.0
Miami,Clear,1970-01-08 05:00:00,32.0,,-,60.0,,30.22,,Florida,45.0,,,,12:00 AM,,,,,,8.0,,NNW,12.7,330.0,33010.0
Miami,Clear,1970-01-08 06:00:00,32.0,,-,63.0,,30.23,,Florida,44.1,,,,1:00 AM,,,,,,10.0,,NW,15.0,320.0,33010.0
Miami,Clear,1970-01-08 07:00:00,32.0,,-,67.0,,30.25,,Florida,42.1,,,,2:00 AM,,,,,,10.0,,NW,10.4,320.0,33010.0
Miami,Clear,1970-01-08 08:00:00,32.0,,-,70.0,,30.25,,Florida,41.0,,,,3:00 AM,,,,,,10.0,,NNW,10.4,330.0,33010.0
Miami,Clear,1970-01-08 09:00:00,32.0,,-,73.0,,30.25,,Florida,39.9,,,,4:00 AM,,,,,,10.0,,NNW,8.1,340.0,33010.0
Miami,Clear,1970-01-08 10:00:00,32.0,,-,73.0,,30.25,,Florida,39.9,,,,5:00 AM,,,,,,10.0,,NNW,11.5,330.0,33010.0
Miami,Clear,1970-01-08 11:00:00,30.9,,-,73.0,,30.28,,Florida,39.0,,,,6:00 AM,,,,,,10.0,,NW,8.1,320.0,33010.0
Miami,Clear,1970-01-08 12:00:00,30.9,,-,76.0,,30.32,,Florida,37.9,,,,7:00 AM,,,,,,10.0,,NW,10.4,310.0,33010.0
Miami,Clear,1970-01-08 13:00:00,30.0,,-,68.0,,30.35,,Florida,39.9,,,,8:00 AM,,,,,,10.0,,NW,16.1,320.0,33010.0
Miami,Unknown,1970-01-08 14:00:00,28.9,,-,60.0,,30.37,,Florida,42.1,,,,9:00 AM,,,,,,10.0,,NNW,16.1,340.0,33010.0
Miami,Unknown,1970-01-08 15:00:00,28.0,,-,53.0,,30.39,,Florida,44.1,,,,10:00 AM,,,,,,10.0,,North,15.0,360.0,33010.0
Miami,Unknown,1970-01-08 16:00:00,27.0,,-,46.0,,30.38,,Florida,46.9,,,,11:00 AM,,,,,,10.0,,North,20.7,350.0,33010.0
Miami,Unknown,1970-01-08 17:00:00,30.0,,-,48.0,,30.36,,Florida,48.9,,,,12:00 PM,,,,,,10.0,,NNW,17.3,330.0,33010.0
Miami,Unknown,1970-01-08 18:00:00,24.1,,-,34.0,,30.33,,Florida,52.0,,,,1:00 PM,,,,,,10.0,,NNW,17.3,340.0,33010.0
Miami,Unknown,1970-01-08 19:00:00,18.0,,-,24.0,,30.31,,Florida,54.0,,,,2:00 PM,,,,,,10.0,,North,17.3,360.0,33010.0
Miami,Clear,1970-01-08 20:00:00,19.9,,-,25.0,,30.31,,Florida,55.0,,,,3:00 PM,,,,,,10.0,,North,15.0,360.0,33010.0
Miami,Unknown,1970-01-08 21:00:00,18.0,,-,24.0,,30.33,,Florida,54.0,,,,4:00 PM,,,,,,10.0,,North,15.0,350.0,33010.0
Miami,Unknown,1970-01-08 22:00:00,18.0,,-,25.0,,30.35,,Florida,53.1,,,,5:00 PM,,,,,,10.0,,North,18.4,360.0,33010.0
Miami,Unknown,1970-01-08 23:00:00,21.9,,-,33.0,,30.39,,Florida,50.0,,,,6:00 PM,,,,,,10.0,,North,13.8,350.0,33010.0
Miami,Unknown,1970-01-09 00:00:00,26.1,,-,46.0,,30.41,,Florida,46.0,,,,7:00 PM,,,,,,10.0,,NNW,15.0,340.0,33010.0
Miami,Clear,1970-01-09 01:00:00,27.0,,-,49.0,,30.43,,Florida,45.0,,,,8:00 PM,,,,,,10.0,,NNW,10.4,340.0,33010.0
Miami,Unknown,1970-01-09 02:00:00,27.0,,-,53.0,,30.41,,Florida,43.0,,,,9:00 PM,,,,,,10.0,,NNW,8.1,340.0,33010.0
Miami,Clear,1970-01-09 03:00:00,27.0,,-,57.0,,30.41,,Florida,41.0,,,,10:00 PM,,,,,,10.0,,NW,9.2,310.0,33010.0
Miami,Clear,1970-01-09 04:00:00,24.1,,-,49.0,,30.42,,Florida,42.1,,,,11:00 PM,,,,,,10.0,,NW,15.0,320.0,33010.0
Miami,Clear,1970-01-09 05:00:00,21.9,,-,45.0,,30.43,,Florida,42.1,,,,12:00 AM,,,,,,10.0,,NW,19.6,310.0,33010.0
Miami,Clear,1970-01-09 06:00:00,23.0,,-,47.0,,30.43,,Florida,42.1,,,,1:00 AM,,,,,,10.0,,NNW,23.0,330.0,33010.0
Miami,Clear,1970-01-09 07:00:00,24.1,,-,49.0,,30.43,,Florida,42.1,,,,2:00 AM,,,,,,10.0,,NNW,20.7,330.0,33010.0
Miami,Unknown,1970-01-09 08:00:00,24.1,,-,49.0,,30.43,,Florida,42.1,,,,3:00 AM,,,,,,10.0,,NNW,18.4,340.0,33010.0
Miami,Unknown,1970-01-09 09:00:00,21.9,,-,47.0,,30.42,,Florida,41.0,,,,4:00 AM,,,,,,10.0,,NW,16.1,320.0,33010.0
Miami,Unknown,1970-01-09 10:00:00,21.0,,-,45.0,,30.42,,Florida,41.0,,,,5:00 AM,,,,,,10.0,,NNW,13.8,330.0,33010.0
Miami,Unknown,1970-01-09 11:00:00,21.9,,-,49.0,,30.42,,Florida,39.9,,,,6:00 AM,,,,,,10.0,,NNW,11.5,330.0,33010.0
Miami,Unknown,1970-01-09 12:00:00,24.1,,-,53.0,,30.43,,Florida,39.9,,,,7:00 AM,,,,,,10.0,,NNW,13.8,340.0,33010.0
Miami,Unknown,1970-01-09 13:00:00,24.1,,-,53.0,,30.44,,Florida,39.9,,,,8:00 AM,,,,,,10.0,,NNW,11.5,340.0,33010.0
Miami,Unknown,1970-01-09 14:00:00,24.1,,-,51.0,,30.45,,Florida,41.0,,,,9:00 AM,,,,,,10.0,,NNW,13.8,340.0,33010.0
Miami,Unknown,1970-01-09 15:00:00,25.0,,-,42.0,,30.46,,Florida,46.9,,,,10:00 AM,,,,,,10.0,,NNW,18.4,330.0,33010.0
Miami,Unknown,1970-01-09 16:00:00,25.0,,-,41.0,,30.45,,Florida,48.0,,,,11:00 AM,,,,,,10.0,,NNW,18.4,330.0,33010.0
Miami,Unknown,1970-01-09 17:00:00,26.1,,-,39.0,,30.43,,Florida,50.0,,,,12:00 PM,,,,,,10.0,,NNW,19.6,340.0,33010.0
Miami,Unknown,1970-01-09 18:00:00,24.1,,-,38.0,,30.4,,Florida,48.9,,,,1:00 PM,,,,,,10.0,,NNW,21.9,330.0,33010.0
Miami,Unknown,1970-01-09 19:00:00,21.0,,-,32.0,,30.39,,Florida,50.0,,,,2:00 PM,,,,,,10.0,,NW,19.6,320.0,33010.0
Miami,Unknown,1970-01-09 20:00:00,23.0,,-,33.0,,30.39,,Florida,51.1,,,,3:00 PM,,,,,,10.0,,WNW,18.4,300.0,33010.0
Miami,Unknown,1970-01-09 21:00:00,24.1,,-,36.0,,30.4,,Florida,50.0,,,,4:00 PM,,,,,,10.0,,NW,16.1,310.0,33010.0
Miami,Unknown,1970-01-09 22:00:00,21.9,,-,35.0,,30.39,,Florida,48.9,,,,5:00 PM,,,,,,10.0,,NW,17.3,310.0,33010.0
Miami,Unknown,1970-01-09 23:00:00,27.0,,-,46.0,,30.39,,Florida,46.9,,,,6:00 PM,,,,,,10.0,,NW,10.4,310.0,33010.0
Miami,Clear,1970-01-10 00:00:00,27.0,,-,53.0,,30.4,,Florida,43.0,,,,7:00 PM,,,,,,10.0,,NW,8.1,310.0,33010.0
Miami,Clear,1970-01-10 01:00:00,28.0,,-,56.0,,30.4,,Florida,43.0,,,,8:00 PM,,,,,,10.0,,WNW,8.1,300.0,33010.0
Miami,Clear,1970-01-10 02:00:00,32.0,,-,67.0,,30.4,,Florida,42.1,,,,9:00 PM,,,,,,10.0,,NW,10.4,310.0,33010.0
Miami,Clear,1970-01-10 03:00:00,32.0,,-,73.0,,30.41,,Florida,39.9,,,,10:00 PM,,,,,,10.0,,NW,10.4,310.0,33010.0
Miami,Clear,1970-01-10 04:00:00,30.9,,-,73.0,,30.4,,Florida,39.0,,,,11:00 PM,,,,,,10.0,,NW,9.2,320.0,33010.0
Miami,Clear,1970-01-10 05:00:00,30.0,,-,76.0,,30.38,,Florida,37.0,,,,12:00 AM,,,,,,10.0,,NW,9.2,320.0,33010.0
Miami,Clear,1970-01-10 06:00:00,30.0,,-,76.0,,30.37,,Florida,37.0,,,,1:00 AM,,,,,,10.0,,NNW,11.5,330.0,33010.0
Miami,Clear,1970-01-10 07:00:00,28.9,,-,76.0,,30.37,,Florida,36.0,,,,2:00 AM,,,,,,10.0,,NNW,10.4,330.0,33010.0
Miami,Clear,1970-01-10 08:00:00,28.9,,-,76.0,,30.36,,Florida,36.0,,,,3:00 AM,,,,,,10.0,,NW,13.8,320.0,33010.0
Miami,Clear,1970-01-10 09:00:00,28.9,,-,76.0,,30.35,,Florida,36.0,,,,4:00 AM,,,,,,10.0,,NNW,13.8,340.0,33010.0
Miami,Clear,1970-01-10 10:00:00,28.9,,-,76.0,,30.33,,Florida,36.0,,,,5:00 AM,,,,,,10.0,,North,15.0,360.0,33010.0
Miami,Clear,1970-01-10 11:00:00,28.9,,-,76.0,,30.34,,Florida,36.0,,,,6:00 AM,,,,,,10.0,,North,12.7,360.0,33010.0
Miami,Clear,1970-01-10 12:00:00,27.0,,-,72.0,,30.36,,Florida,35.1,,,,7:00 AM,,,,,,10.0,,North,12.7,350.0,33010.0
Miami,Unknown,1970-01-10 13:00:00,27.0,,-,70.0,,30.37,,Florida,36.0,,,,8:00 AM,,,,,,10.0,,North,10.4,350.0,33010.0
Miami,Unknown,1970-01-10 14:00:00,23.0,,-,53.0,,30.39,,Florida,39.0,,,,9:00 AM,,,,,,10.0,,NNW,13.8,340.0,33010.0
Miami,Clear,1970-01-10 15:00:00,19.9,,-,41.0,,30.4,,Florida,42.1,,,,10:00 AM,,,,,,10.0,,NW,15.0,320.0,33010.0
Miami,Clear,1970-01-10 16:00:00,19.9,,-,37.0,,30.4,,Florida,45.0,,,,11:00 AM,,,,,,10.0,,NNW,11.5,330.0,33010.0
Miami,Unknown,1970-01-10 17:00:00,19.9,,-,34.0,,30.39,,Florida,46.9,,,,12:00 PM,,,,,,10.0,,NNW,11.5,330.0,33010.0
Miami,Unknown,1970-01-10 18:00:00,21.0,,-,33.0,,30.35,,Florida,48.9,,,,1:00 PM,,,,,,10.0,,NNW,6.9,340.0,33010.0
Miami,Unknown,1970-01-10 19:00:00,21.9,,-,32.0,,30.33,,Florida,51.1,,,,2:00 PM,,,,,,10.0,,North,11.5,350.0,33010.0
Miami,Unknown,1970-01-10 20:00:00,19.9,,-,27.0,,30.31,,Florida,53.1,,,,3:00 PM,,,,,,10.0,,North,11.5,350.0,33010.0
Miami,Unknown,1970-01-10 21:00:00,19.9,,-,27.0,,30.3,,Florida,53.1,,,,4:00 PM,,,,,,10.0,,North,8.1,360.0,33010.0
Miami,Clear,1970-01-10 22:00:00,19.0,,-,27.0,,30.29,,Florida,52.0,,,,5:00 PM,,,,,,10.0,,North,9.2,360.0,33010.0
Miami,Clear,1970-01-10 23:00:00,21.0,,-,34.0,,30.29,,Florida,48.0,,,,6:00 PM,,,,,,10.0,,North,8.1,350.0,33010.0
Miami,Clear,1970-01-11 00:00:00,24.1,,-,45.0,,30.29,,Florida,44.1,,,,7:00 PM,,,,,,10.0,,NNW,9.2,330.0,33010.0
Miami,Clear,1970-01-11 01:00:00,25.0,,-,49.0,,30.29,,Florida,43.0,,,,8:00 PM,,,,,,10.0,,NNW,8.1,340.0,33010.0
Miami,Clear,1970-01-11 02:00:00,25.0,,-,51.0,,30.28,,Florida,42.1,,,,9:00 PM,,,,,,10.0,,NNW,9.2,340.0,33010.0
Miami,Clear,1970-01-11 03:00:00,28.0,,-,60.0,,30.27,,Florida,41.0,,,,10:00 PM,,,,,,10.0,,NW,6.9,320.0,33010.0
Miami,Clear,1970-01-11 04:00:00,30.9,,-,67.0,,30.25,,Florida,41.0,,,,11:00 PM,,,,,,10.0,,North,9.2,350.0,33010.0
Miami,Unknown,1970-01-11 05:00:00,30.9,,-,70.0,,30.24,,Florida,39.9,,,,12:00 AM,,,,,,10.0,,NW,6.9,320.0,33010.0
Miami,Unknown,1970-01-11 06:00:00,32.0,,-,73.0,,30.23,,Florida,39.9,,,,1:00 AM,,,,,,10.0,,NW,6.9,320.0,33010.0
Miami,Clear,1970-01-11 07:00:00,32.0,,-,73.0,,30.22,,Florida,39.9,,,,2:00 AM,,,,,,10.0,,North,5.8,350.0,33010.0
Miami,Clear,1970-01-11 08:00:00,32.0,,-,73.0,,30.21,,Florida,39.9,,,,3:00 AM,,,,,,10.0,,North,6.9,350.0,33010.0
Miami,Clear,1970-01-11 09:00:00,32.0,,-,73.0,,30.2,,Florida,39.9,,,,4:00 AM,,,,,,10.0,,North,6.9,360.0,33010.0
Miami,Smoke,1970-01-11 10:00:00,32.0,,-,73.0,,30.19,,Florida,39.9,,,,5:00 AM,,,,,,5.0,,North,6.9,360.0,33010.0
Miami,Clear,1970-01-11 11:00:00,30.9,,-,70.0,,30.17,,Florida,39.9,,,,6:00 AM,,,,,,10.0,,North,5.8,360.0,33010.0
Miami,Smoke,1970-01-11 12:00:00,30.0,,-,68.0,,30.17,,Florida,39.9,,,,7:00 AM,,,,,,5.0,,North,6.9,360.0,33010.0
Miami,Smoke,1970-01-11 13:00:00,30.9,,-,65.0,,30.15,,Florida,42.1,,,,8:00 AM,,,,,,6.0,,North,6.9,360.0,33010.0
Miami,Smoke,1970-01-11 14:00:00,35.1,,-,68.0,,30.15,,Florida,45.0,,,,9:00 AM,,,,,,6.0,,North,3.5,10.0,33010.0
Miami,Unknown,1970-01-11 15:00:00,39.9,,-,59.0,,30.17,,Florida,54.0,,,,10:00 AM,,,,,,8.0,,North,5.8,360.0,33010.0
Miami,Unknown,1970-01-11 16:00:00,45.0,,-,56.0,,30.15,,Florida,61.0,,,,11:00 AM,,,,,,8.0,,East,4.6,100.0,33010.0
Miami,Unknown,1970-01-11 17:00:00,46.9,,-,50.0,,30.13,,Florida,66.0,,,,12:00 PM,,,,,,10.0,,SE,13.8,140.0,33010.0
Miami,Unknown,1970-01-11 18:00:00,46.9,,-,50.0,,30.11,,Florida,66.0,,,,1:00 PM,,,,,,10.0,,South,16.1,170.0,33010.0
Miami,Unknown,1970-01-11 19:00:00,48.0,,-,51.0,,30.08,,Florida,66.9,,,,2:00 PM,,,,,,10.0,,SSE,13.8,150.0,33010.0
Miami,Unknown,1970-01-11 20:00:00,48.0,,-,51.0,,30.08,,Florida,66.9,,,,3:00 PM,,,,,,10.0,,SE,9.2,140.0,33010.0
Miami,Unknown,1970-01-11 21:00:00,48.9,,-,52.0,,30.07,,Florida,66.9,,,,4:00 PM,,,,,,10.0,,SE,8.1,130.0,33010.0
Miami,Unknown,1970-01-11 22:00:00,48.9,,-,52.0,,30.06,,Florida,66.9,,,,5:00 PM,,,,,,10.0,,SE,10.4,130.0,33010.0
Miami,Unknown,1970-01-11 23:00:00,48.9,,-,58.0,,30.05,,Florida,64.0,,,,6:00 PM,,,,,,10.0,,SE,6.9,140.0,33010.0
Miami,Unknown,1970-01-12 00:00:00,50.0,,-,63.0,,30.05,,Florida,63.0,,,,7:00 PM,,,,,,10.0,,ESE,5.8,120.0,33010.0
Miami,Unknown,1970-01-12 01:00:00,50.0,,-,63.0,,30.05,,Florida,63.0,,,,8:00 PM,,,,,,10.0,,SSE,3.5,150.0,33010.0
Miami,Unknown,1970-01-12 02:00:00,52.0,,-,67.0,,30.05,,Florida,63.0,,,,9:00 PM,,,,,,10.0,,SE,6.9,130.0,33010.0
Miami,Unknown,1970-01-12 03:00:00,52.0,,-,67.0,,30.03,,Florida,63.0,,,,10:00 PM,,,,,,10.0,,SSE,6.9,160.0,33010.0
Miami,Unknown,1970-01-12 04:00:00,51.1,,-,70.0,,30.02,,Florida,61.0,,,,11:00 PM,,,,,,10.0,,SSE,6.9,150.0,33010.0
Miami,Clear,1970-01-12 05:00:00,51.1,,-,72.0,,29.99,,Florida,60.1,,,,12:00 AM,,,,,,10.0,,South,5.8,190.0,33010.0
Miami,Clear,1970-01-12 06:00:00,51.1,,-,72.0,,29.97,,Florida,60.1,,,,1:00 AM,,,,,,10.0,,South,4.6,180.0,33010.0
Miami,Unknown,1970-01-12 07:00:00,50.0,,-,75.0,,29.97,,Florida,57.9,,,,2:00 AM,,,,,,10.0,,South,2.3,180.0,33010.0
Miami,Unknown,1970-01-12 08:00:00,50.0,,-,80.0,,29.96,,Florida,55.9,,,,3:00 AM,,,,,,10.0,,West,4.6,260.0,33010.0
Miami,Unknown,1970-01-12 09:00:00,50.0,,-,83.0,,29.96,,Florida,55.0,,,,4:00 AM,,,,,,8.0,,West,5.8,260.0,33010.0
Miami,Unknown,1970-01-12 10:00:00,51.1,,-,86.0,,29.96,,Florida,55.0,,,,5:00 AM,,,,,,8.0,,West,6.9,270.0,33010.0
Miami,Unknown,1970-01-12 11:00:00,51.1,,-,81.0,,29.95,,Florida,57.0,,,,6:00 AM,,,,,,8.0,,SSW,4.6,210.0,33010.0
Miami,Unknown,1970-01-12 12:00:00,51.1,,-,81.0,,29.95,,Florida,57.0,,,,7:00 AM,,,,,,8.0,,WSW,4.6,250.0,33010.0
Miami,Unknown,1970-01-12 13:00:00,51.1,,-,78.0,,29.96,,Florida,57.9,,,,8:00 AM,,,,,,10.0,,WSW,5.8,250.0,33010.0
Miami,Unknown,1970-01-12 14:00:00,52.0,,-,72.0,,29.97,,Florida,61.0,,,,9:00 AM,,,,,,10.0,,SW,5.8,230.0,33010.0
Miami,Unknown,1970-01-12 15:00:00,53.1,,-,57.0,,29.98,,Florida,69.1,,,,10:00 AM,,,,,,10.0,,WSW,10.4,250.0,33010.0
Miami,Unknown,1970-01-12 16:00:00,51.1,,-,48.0,,29.98,,Florida,72.0,,,,11:00 AM,,,,,,10.0,,West,13.8,270.0,33010.0
Miami,Clear,1970-01-12 17:00:00,52.0,,-,46.0,,29.94,,Florida,73.9,,,,12:00 PM,,,,,,10.0,,West,13.8,280.0,33010.0
Miami,Clear,1970-01-12 18:00:00,52.0,,-,46.0,,29.91,,Florida,73.9,,,,1:00 PM,,,,,,10.0,,West,15.0,270.0,33010.0
Miami,Clear,1970-01-12 19:00:00,52.0,,-,44.0,,29.9,,Florida,75.0,,,,2:00 PM,,,,,,10.0,,WNW,15.0,300.0,33010.0
Miami,Clear,1970-01-12 20:00:00,54.0,,-,46.0,,29.88,,Florida,75.9,,,,3:00 PM,,,,,,10.0,,WNW,11.5,290.0,33010.0
Miami,Clear,1970-01-12 21:00:00,55.0,,-,50.0,,29.88,,Florida,75.0,,,,4:00 PM,,,,,,15.0,,West,12.7,260.0,33010.0
Miami,Clear,1970-01-12 22:00:00,57.0,,-,53.0,,29.89,,Florida,75.0,,,,5:00 PM,,,,,,15.0,,WSW,11.5,240.0,33010.0
Miami,Clear,1970-01-12 23:00:00,57.0,,-,63.0,,29.91,,Florida,70.0,,,,6:00 PM,,,,,,10.0,,WSW,10.4,240.0,33010.0
Miami,Clear,1970-01-13 00:00:00,57.0,,-,65.0,,29.93,,Florida,69.1,,,,7:00 PM,,,,,,10.0,,WSW,9.2,240.0,33010.0
Miami,Clear,1970-01-13 01:00:00,57.0,,-,75.0,,29.95,,Florida,64.9,,,,8:00 PM,,,,,,10.0,,West,9.2,270.0,33010.0
Miami,Clear,1970-01-13 02:00:00,57.0,,-,84.0,,29.95,,Florida,62.1,,,,9:00 PM,,,,,,10.0,,WNW,6.9,290.0,33010.0
Miami,Clear,1970-01-13 03:00:00,57.0,,-,84.0,,29.95,,Florida,62.1,,,,10:00 PM,,,,,,10.0,,WNW,5.8,290.0,33010.0
Miami,Unknown,1970-01-13 04:00:00,55.9,,-,83.0,,29.95,,Florida,61.0,,,,11:00 PM,,,,,,10.0,,West,5.8,280.0,33010.0
Miami,Clear,1970-01-13 05:00:00,55.9,,-,83.0,,29.94,,Florida,61.0,,,,12:00 AM,,,,,,10.0,,West,4.6,280.0,33010.0
Miami,Clear,1970-01-13 06:00:00,57.9,,-,90.0,,29.94,,Florida,61.0,,,,1:00 AM,,,,,,10.0,,South,4.6,190.0,33010.0
Miami,Unknown,1970-01-13 07:00:00,57.0,,-,90.0,,29.95,,Florida,60.1,,,,2:00 AM,,,,,,10.0,,NNW,3.5,340.0,33010.0
Miami,Unknown,1970-01-13 08:00:00,57.0,,-,90.0,,29.94,,Florida,60.1,,,,3:00 AM,,,,,,10.0,,NNW,4.6,330.0,33010.0
Miami,Unknown,1970-01-13 09:00:00,57.0,,-,90.0,,29.96,,Florida,60.1,,,,4:00 AM,,,,,,10.0,,NW,6.9,310.0,33010.0
Miami,Unknown,1970-01-13 10:00:00,57.0,,-,90.0,,29.96,,Florida,60.1,,,,5:00 AM,,,,,,10.0,,North,6.9,360.0,33010.0
Miami,Unknown,1970-01-13 11:00:00,57.0,,-,90.0,,29.97,,Florida,60.1,,,,6:00 AM,,,,,,10.0,,NW,5.8,310.0,33010.0
Miami,Light Rain,1970-01-13 12:00:00,55.9,Rain,-,86.0,,29.99,,Florida,60.1,,,,7:00 AM,,,,,,5.0,,North,5.8,350.0,33010.0
Miami,Drizzle,1970-01-13 13:00:00,55.0,,-,87.0,,30.0,,Florida,59.0,,,,8:00 AM,,,,,,6.0,,NNW,8.1,330.0,33010.0
Miami,Clear,1970-01-13 14:00:00,55.0,,-,83.0,,30.0,,Florida,60.1,,,,9:00 AM,,,,,,7.0,,North,9.2,350.0,33010.0
Miami,Clear,1970-01-13 15:00:00,55.0,,-,78.0,,30.02,,Florida,62.1,,,,10:00 AM,,,,,,7.0,,NNW,12.7,340.0,33010.0
Miami,Unknown,1970-01-13 16:00:00,55.0,,-,70.0,,30.02,,Florida,64.9,,,,11:00 AM,,,,,,7.0,,NNW,11.5,340.0,33010.0
Miami,Unknown,1970-01-13 17:00:00,55.0,,-,66.0,,29.99,,Florida,66.9,,,,12:00 PM,,,,,,7.0,,NNW,12.7,340.0,33010.0
Miami,Unknown,1970-01-13 18:00:00,55.0,,-,63.0,,29.98,,Florida,68.0,,,,1:00 PM,,,,,,7.0,,NW,10.4,320.0,33010.0
Miami,Unknown,1970-01-13 19:00:00,55.0,,-,61.0,,29.96,,Florida,69.1,,,,2:00 PM,,,,,,7.0,,North,11.5,350.0,33010.0
Miami,Smoke,1970-01-13 20:00:00,55.0,,-,59.0,,29.96,,Florida,70.0,,,,3:00 PM,,,,,,6.0,,North,11.5,360.0,33010.0
Miami,Smoke,1970-01-13 21:00:00,55.9,,-,61.0,,29.96,,Florida,70.0,,,,4:00 PM,,,,,,6.0,,North,10.4,350.0,33010.0
Miami,Unknown,1970-01-13 22:00:00,55.9,,-,61.0,,29.98,,Florida,70.0,,,,5:00 PM,,,,,,8.0,,North,10.4,10.0,33010.0
Miami,Unknown,1970-01-13 23:00:00,55.9,,-,68.0,,30.0,,Florida,66.9,,,,6:00 PM,,,,,,8.0,,North,9.2,350.0,33010.0
Miami,Unknown,1970-01-14 00:00:00,55.0,,-,66.0,,30.01,,Florida,66.9,,,,7:00 PM,,,,,,8.0,,NNE,8.1,20.0,33010.0
Miami,Clear,1970-01-14 01:00:00,55.0,,-,73.0,,30.04,,Florida,64.0,,,,8:00 PM,,,,,,8.0,,North,12.7,10.0,33010.0
Miami,Clear,1970-01-14 02:00:00,53.1,,-,75.0,,30.05,,Florida,61.0,,,,9:00 PM,,,,,,10.0,,North,9.2,10.0,33010.0
Miami,Clear,1970-01-14 03:00:00,52.0,,-,81.0,,30.06,,Florida,57.9,,,,10:00 PM,,,,,,10.0,,North,11.5,360.0,33010.0
Miami,Clear,1970-01-14 04:00:00,53.1,,-,87.0,,30.06,,Florida,57.0,,,,11:00 PM,,,,,,10.0,,North,9.2,360.0,33010.0
Miami,Clear,1970-01-14 05:00:00,52.0,,-,83.0,,30.06,,Florida,57.0,,,,12:00 AM,,,,,,10.0,,North,9.2,360.0,33010.0
Miami,Fog,1970-01-14 06:00:00,52.0,Fog,-,87.0,,30.06,,Florida,55.9,,,,1:00 AM,,,,,,3.0,,North,5.8,350.0,33010.0
Miami,Fog,1970-01-14 07:00:00,53.1,Fog,-,90.0,,30.05,,Florida,55.9,,,,2:00 AM,,,,,,5.5,,North,5.8,350.0,33010.0
Miami,Fog,1970-01-14 08:00:00,54.0,Fog,-,93.0,,30.05,,Florida,55.9,,,,3:00 AM,,,,,,0.1,,North,6.9,350.0,33010.0
Miami,Fog,1970-01-14 09:00:00,55.0,Fog,-,97.0,,30.05,,Florida,55.9,,,,4:00 AM,,,,,,0.1,,North,5.8,360.0,33010.0
Miami,Fog,1970-01-14 10:00:00,55.0,Fog,-,97.0,,30.04,,Florida,55.9,,,,5:00 AM,,,,,,0.1,,North,8.1,350.0,33010.0
Miami,Fog,1970-01-14 11:00:00,54.0,Fog,-,96.0,,30.05,,Florida,55.0,,,,6:00 AM,,,,,,0.1,,North,5.8,360.0,33010.0
Miami,Fog,1970-01-14 12:00:00,52.0,Fog,-,93.0,,30.06,,Florida,54.0,,,,7:00 AM,,,,,,0.1,,NNW,6.9,330.0,33010.0
Miami,Fog,1970-01-14 13:00:00,53.1,Fog,-,93.0,,30.08,,Florida,55.0,,,,8:00 AM,,,,,,2.0,,North,3.5,350.0,33010.0
Miami,Fog,1970-01-14 14:00:00,55.9,Fog,-,90.0,,30.07,,Florida,59.0,,,,9:00 AM,,,,,,2.0,,ENE,5.8,60.0,33010.0
Miami,Smoke,1970-01-14 15:00:00,60.1,,-,71.0,,30.08,,Florida,70.0,,,,10:00 AM,,,,,,4.0,,East,8.1,80.0,33010.0
Miami,Unknown,1970-01-14 16:00:00,59.0,,-,59.0,,30.08,,Florida,73.9,,,,11:00 AM,,,,,,10.0,,ESE,16.1,110.0,33010.0
Miami,Unknown,1970-01-14 17:00:00,57.9,,-,55.0,,30.06,,Florida,75.0,,,,12:00 PM,,,,,,10.0,,East,16.1,100.0,33010.0
Miami,Unknown,1970-01-14 18:00:00,53.1,,-,46.0,,30.03,,Florida,75.0,,,,1:00 PM,,,,,,10.0,,ESE,16.1,110.0,33010.0
Miami,Unknown,1970-01-14 19:00:00,57.9,,-,54.0,,30.0,,Florida,75.9,,,,2:00 PM,,,,,,10.0,,East,16.1,100.0,33010.0
Miami,Unknown,1970-01-14 20:00:00,59.0,,-,57.0,,30.01,,Florida,75.0,,,,3:00 PM,,,,,,10.0,,ESE,16.1,110.0,33010.0
Miami,Unknown,1970-01-14 21:00:00,59.0,,-,59.0,,30.0,,Florida,73.9,,,,4:00 PM,,,,,,10.0,,ESE,18.4,110.0,33010.0
Miami,Unknown,1970-01-14 22:00:00,59.0,,-,61.0,,30.01,,Florida,73.0,,,,5:00 PM,,,,,,10.0,,ESE,15.0,110.0,33010.0
Miami,Unknown,1970-01-14 23:00:00,59.0,,-,64.0,,30.01,,Florida,72.0,,,,6:00 PM,,,,,,10.0,,ESE,13.8,110.0,33010.0
Miami,Unknown,1970-01-15 00:00:00,60.1,,-,66.0,,30.01,,Florida,72.0,,,,7:00 PM,,,,,,10.0,,ESE,11.5,110.0,33010.0
Miami,Unknown,1970-01-15 01:00:00,60.1,,-,68.0,,30.03,,Florida,71.1,,,,8:00 PM,,,,,,10.0,,ESE,11.5,120.0,33010.0
Miami,Unknown,1970-01-15 02:00:00,60.1,,-,68.0,,30.02,,Florida,71.1,,,,9:00 PM,,,,,,10.0,,ESE,9.2,110.0,33010.0
Miami,Unknown,1970-01-15 03:00:00,61.0,,-,70.0,,30.03,,Florida,71.1,,,,10:00 PM,,,,,,10.0,,SE,8.1,130.0,33010.0
Miami,Unknown,1970-01-15 04:00:00,60.1,,-,68.0,,30.03,,Florida,71.1,,,,11:00 PM,,,,,,10.0,,SE,8.1,130.0,33010.0
Miami,Unknown,1970-01-15 05:00:00,60.1,,-,71.0,,30.01,,Florida,70.0,,,,12:00 AM,,,,,,10.0,,ESE,6.9,120.0,33010.0
Miami,Unknown,1970-01-15 06:00:00,61.0,,-,73.0,,29.99,,Florida,70.0,,,,1:00 AM,,,,,,10.0,,ESE,6.9,120.0,33010.0
Miami,Unknown,1970-01-15 07:00:00,61.0,,-,73.0,0.01,29.98,,Florida,70.0,,,,2:00 AM,,,,,,10.0,,SSE,9.2,150.0,33010.0
Miami,Light Rain Showers,1970-01-15 08:00:00,62.1,Rain,-,76.0,0.03,29.96,,Florida,70.0,,,,3:00 AM,,,,,,10.0,,ESE,13.8,120.0,33010.0
Miami,Unknown,1970-01-15 09:00:00,63.0,,-,78.0,0.05,29.94,,Florida,70.0,,,,4:00 AM,,,,,,10.0,,ESE,11.5,120.0,33010.0
Miami,Light Rain,1970-01-15 10:00:00,63.0,Rain,-,78.0,0.01,29.93,,Florida,70.0,,,,5:00 AM,,,,,,8.0,,ESE,13.8,120.0,33010.0
Miami,Light Rain,1970-01-15 11:00:00,64.0,Rain,-,84.0,0.04,29.94,,Florida,69.1,,,,6:00 AM,,,,,,7.0,,SE,11.5,140.0,33010.0
Miami,Light Rain,1970-01-15 12:00:00,64.0,Rain,-,81.0,0.02,29.94,,Florida,70.0,,,,7:00 AM,,,,,,8.0,,SE,11.5,130.0,33010.0
Miami,Light Rain,1970-01-15 13:00:00,64.0,Rain,-,81.0,0.01,29.96,,Florida,70.0,,,,8:00 AM,,,,,,8.0,,SSE,11.5,160.0,33010.0
Miami,Rain,1970-01-15 14:00:00,64.0,Rain,-,84.0,0.13,29.99,,Florida,69.1,,,,9:00 AM,,,,,,2.0,,WSW,8.1,240.0,33010.0
Miami,Unknown,1970-01-15 15:00:00,63.0,,-,84.0,0.25,29.99,,Florida,68.0,,,,10:00 AM,,,,,,7.0,,SSE,9.2,150.0,33010.0
Miami,Unknown,1970-01-15 16:00:00,64.0,,-,78.0,,29.98,,Florida,71.1,,,,11:00 AM,,,,,,10.0,,SE,10.4,130.0,33010.0
Miami,Unknown,1970-01-15 17:00:00,66.0,,-,81.0,,29.94,,Florida,72.0,,,,12:00 PM,,,,,,8.0,,SSE,10.4,150.0,33010.0
Miami,Unknown,1970-01-15 18:00:00,66.0,,-,73.0,,29.9,,Florida,75.0,,,,1:00 PM,,,,,,8.0,,South,15.0,170.0,33010.0
Miami,Light Rain,1970-01-15 19:00:00,66.0,Rain,-,73.0,,29.86,,Florida,75.0,,,,2:00 PM,,,,,,8.0,,South,11.5,180.0,33010.0
Miami,Light Rain Showers,1970-01-15 20:00:00,68.0,Rain,-,79.0,0.01,29.85,,Florida,75.0,,,,3:00 PM,,,,,,8.0,,South,10.4,190.0,33010.0
Miami,Unknown,1970-01-15 21:00:00,64.9,,-,81.0,,29.85,,Florida,71.1,,,,4:00 PM,,,,,,8.0,,North,9.2,360.0,33010.0
Miami,Unknown,1970-01-15 22:00:00,64.0,,-,81.0,0.01,29.85,,Florida,70.0,,,,5:00 PM,,,,,,8.0,,NE,6.9,40.0,33010.0
Miami,Light Rain Showers,1970-01-15 23:00:00,64.9,Rain,-,87.0,0.01,29.86,,Florida,69.1,,,,6:00 PM,,,,,,7.0,,NNE,4.6,30.0,33010.0
Miami,Unknown,1970-01-16 00:00:00,64.9,,-,87.0,,29.88,,Florida,69.1,,,,7:00 PM,,,,,,8.0,,East,3.5,80.0,33010.0
Miami,Unknown,1970-01-16 01:00:00,64.9,,-,87.0,,29.88,,Florida,69.1,,,,8:00 PM,,,,,,8.0,,ENE,5.8,60.0,33010.0
Miami,Unknown,1970-01-16 02:00:00,64.0,,-,84.0,,29.89,,Florida,69.1,,,,9:00 PM,,,,,,8.0,,East,4.6,100.0,33010.0
Miami,Unknown,1970-01-16 03:00:00,64.0,,-,84.0,,29.9,,Florida,69.1,,,,10:00 PM,,,,,,8.0,,East,3.5,100.0,33010.0
Miami,Unknown,1970-01-16 04:00:00,63.0,,-,87.0,,29.91,,Florida,66.9,,,,11:00 PM,,,,,,8.0,,East,4.6,90.0,33010.0
Miami,Unknown,1970-01-16 05:00:00,63.0,,-,90.0,,29.91,,Florida,66.0,,,,12:00 AM,,,,,,8.0,,WNW,2.3,300.0,33010.0
Miami,Unknown,1970-01-16 06:00:00,62.1,,-,87.0,,29.89,,Florida,66.0,,,,1:00 AM,,,,,,8.0,,North,4.6,360.0,33010.0
Miami,Fog,1970-01-16 07:00:00,62.1,Fog,-,93.0,,29.88,,Florida,64.0,,,,2:00 AM,,,,,,6.0,,East,3.5,100.0,33010.0
Miami,Fog,1970-01-16 08:00:00,60.1,Fog,-,93.0,,29.88,,Florida,62.1,,,,3:00 AM,,,,,,0.2,,NW,4.6,320.0,33010.0
Miami,Fog,1970-01-16 09:00:00,59.0,Fog,-,93.0,,29.88,,Florida,61.0,,,,4:00 AM,,,,,,0.8,,NW,4.6,320.0,33010.0
Miami,Fog,1970-01-16 10:00:00,59.0,Fog,-,93.0,,29.88,,Florida,61.0,,,,5:00 AM,,,,,,0.8,,WSW,4.6,250.0,33010.0
Miami,Fog,1970-01-16 11:00:00,57.9,Fog,-,93.0,,29.91,,Florida,60.1,,,,6:00 AM,,,,,,0.8,,West,3.5,260.0,33010.0
Miami,Fog,1970-01-16 12:00:00,57.9,Fog,-,93.0,,29.92,,Florida,60.1,,,,7:00 AM,,,,,,0.2,,NW,4.6,320.0,33010.0
Miami,Fog,1970-01-16 13:00:00,57.9,Fog,-,93.0,,29.94,,Florida,60.1,,,,8:00 AM,,,,,,0.1,,NW,5.8,310.0,33010.0
Miami,Fog,1970-01-16 14:00:00,60.1,Fog,-,93.0,,29.96,,Florida,62.1,,,,9:00 AM,,,,,,0.2,,NNW,4.6,330.0,33010.0
Miami,Fog,1970-01-16 15:00:00,64.0,Fog,-,97.0,,29.98,,Florida,64.9,,,,10:00 AM,,,,,,0.2,,West,3.5,260.0,33010.0
Miami,Fog,1970-01-16 16:00:00,66.9,Fog,-,96.0,,29.98,,Florida,68.0,,,,11:00 AM,,,,,,1.0,,WNW,4.6,300.0,33010.0
Miami,Fog,1970-01-16 17:00:00,68.0,Fog,-,87.0,,29.97,,Florida,72.0,,,,12:00 PM,,,,,,10.5,,SW,4.6,220.0,33010.0
Miami,Smoke,1970-01-16 18:00:00,66.9,,-,76.0,,29.94,,Florida,75.0,,,,1:00 PM,,,,,,6.0,,South,5.8,170.0,33010.0
Miami,Unknown,1970-01-16 19:00:00,64.0,,-,67.0,,29.91,,Florida,75.9,,,,2:00 PM,,,,,,10.0,,ESE,9.2,110.0,33010.0
Miami,Unknown,1970-01-16 20:00:00,64.9,,-,69.0,,29.91,,Florida,75.9,,,,3:00 PM,,,,,,10.0,,East,9.2,100.0,33010.0
Miami,Unknown,1970-01-16 21:00:00,66.0,,-,71.0,,29.9,,Florida,75.9,,,,4:00 PM,,,,,,10.0,,East,10.4,100.0,33010.0
Miami,Unknown,1970-01-16 22:00:00,64.9,,-,71.0,,29.92,,Florida,75.0,,,,5:00 PM,,,,,,10.0,,East,9.2,90.0,33010.0
Miami,Clear,1970-01-16 23:00:00,64.9,,-,76.0,,29.93,,Florida,73.0,,,,6:00 PM,,,,,,10.0,,SE,8.1,130.0,33010.0
Miami,Clear,1970-01-17 00:00:00,64.9,,-,81.0,,29.93,,Florida,71.1,,,,7:00 PM,,,,,,8.0,,SE,6.9,130.0,33010.0
Miami,Clear,1970-01-17 01:00:00,62.1,,-,78.0,,29.94,,Florida,69.1,,,,8:00 PM,,,,,,8.0,,SE,6.9,130.0,33010.0
Miami,Unknown,1970-01-17 02:00:00,61.0,,-,78.0,,29.95,,Florida,68.0,,,,9:00 PM,,,,,,8.0,,SE,3.5,130.0,33010.0
Miami,Unknown,1970-01-17 03:00:00,61.0,,-,84.0,,29.97,,Florida,66.0,,,,10:00 PM,,,,,,8.0,,West,4.6,270.0,33010.0
Miami,Unknown,1970-01-17 04:00:00,62.1,,-,84.0,,29.98,,Florida,66.9,,,,11:00 PM,,,,,,7.0,,West,3.5,260.0,33010.0
Miami,Unknown,1970-01-17 05:00:00,61.0,,-,84.0,,29.96,,Florida,66.0,,,,12:00 AM,,,,,,7.0,,WSW,3.5,240.0,33010.0
Miami,Unknown,1970-01-17 06:00:00,61.0,,-,90.0,,29.96,,Florida,64.0,,,,1:00 AM,,,,,,7.0,,North,2.3,350.0,33010.0
Miami,Clear,1970-01-17 07:00:00,61.0,,-,90.0,,29.96,,Florida,64.0,,,,2:00 AM,,,,,,7.0,,SSE,3.5,160.0,33010.0
Miami,Unknown,1970-01-17 08:00:00,61.0,,-,90.0,,29.95,,Florida,64.0,,,,3:00 AM,,,,,,7.0,,East,4.6,100.0,33010.0
Miami,Unknown,1970-01-17 09:00:00,61.0,,-,90.0,,29.94,,Florida,64.0,,,,4:00 AM,,,,,,7.0,,SE,3.5,130.0,33010.0
Miami,Unknown,1970-01-17 10:00:00,61.0,,-,87.0,,29.93,,Florida,64.9,,,,5:00 AM,,,,,,8.0,,ESE,5.8,110.0,33010.0
Miami,Unknown,1970-01-17 11:00:00,62.1,,-,87.0,,29.94,,Florida,66.0,,,,6:00 AM,,,,,,8.0,,South,3.5,170.0,33010.0
Miami,Unknown,1970-01-17 12:00:00,62.1,,-,87.0,,29.94,,Florida,66.0,,,,7:00 AM,,,,,,8.0,,NW,4.6,310.0,33010.0
Miami,Unknown,1970-01-17 13:00:00,62.1,,-,87.0,,29.94,,Florida,66.0,,,,8:00 AM,,,,,,8.0,,NW,4.6,320.0,33010.0
Miami,Light Rain Showers,1970-01-17 14:00:00,66.0,Rain,-,87.0,0.03,29.95,,Florida,70.0,,,,9:00 AM,,,,,,4.0,,WSW,5.8,240.0,33010.0
Miami,Light Rain Showers,1970-01-17 15:00:00,66.9,Rain,-,90.0,0.17,29.96,,Florida,70.0,,,,10:00 AM,,,,,,3.0,,SSW,4.6,200.0,33010.0
Miami,Light Rain Showers,1970-01-17 16:00:00,68.0,Rain,-,90.0,0.14,29.95,,Florida,71.1,,,,11:00 AM,,,,,,3.0,,SSE,11.5,160.0,33010.0
Miami,Light Rain Showers,1970-01-17 17:00:00,66.9,Rain,-,87.0,0.29,29.93,,Florida,71.1,,,,12:00 PM,,,,,,3.0,,South,9.2,170.0,33010.0
Miami,Light Rain Showers,1970-01-17 18:00:00,68.0,Rain,-,87.0,,29.88,,Florida,72.0,,,,1:00 PM,,,,,,3.0,,SE,6.9,130.0,33010.0
Miami,Unknown,1970-01-17 19:00:00,70.0,,-,82.0,,29.83,,Florida,75.9,,,,2:00 PM,,,,,,7.0,,SSE,16.1,160.0,33010.0
Miami,Unknown,1970-01-17 20:00:00,69.1,,-,79.0,,29.81,,Florida,75.9,,,,3:00 PM,,,,,,7.0,,South,13.8,180.0,33010.0
Miami,Unknown,1970-01-17 21:00:00,69.1,,-,79.0,,29.82,,Florida,75.9,,,,4:00 PM,,,,,,7.0,,South,11.5,180.0,33010.0
Miami,Unknown,1970-01-17 22:00:00,69.1,,-,82.0,,29.82,,Florida,75.0,,,,5:00 PM,,,,,,8.0,,South,10.4,190.0,33010.0
Miami,Light Rain,1970-01-17 23:00:00,69.1,Rain,-,82.0,,29.83,,Florida,75.0,,,,6:00 PM,,,,,,8.0,,SW,8.1,230.0,33010.0
Miami,Rain,1970-01-18 00:00:00,63.0,Rain,-,81.0,0.16,29.88,,Florida,69.1,,,,7:00 PM,,,,,,6.0,,SSW,6.9,210.0,33010.0
Miami,Light Rain,1970-01-18 01:00:00,64.0,Rain,-,87.0,0.07,29.9,,Florida,68.0,,,,8:00 PM,,,,,,7.0,,SSW,8.1,210.0,33010.0
Miami,Light Rain,1970-01-18 02:00:00,63.0,Rain,-,84.0,0.02,29.88,,Florida,68.0,,,,9:00 PM,,,,,,6.0,,SSW,6.9,210.0,33010.0
Miami,Light Rain,1970-01-18 03:00:00,63.0,Rain,-,87.0,0.08,29.88,,Florida,66.9,,,,10:00 PM,,,,,,6.0,,SW,8.1,220.0,33010.0
Miami,Light Rain,1970-01-18 04:00:00,63.0,Rain,-,87.0,0.05,29.86,,Florida,66.9,,,,11:00 PM,,,,,,6.0,,SW,5.8,220.0,33010.0
Miami,Unknown,1970-01-18 05:00:00,60.1,,-,81.0,0.05,29.79,,Florida,66.0,,,,12:00 AM,,,,,,7.0,,ESE,12.7,120.0,33010.0
Miami,Unknown,1970-01-18 06:00:00,60.1,,-,81.0,,29.78,,Florida,66.0,,,,1:00 AM,,,,,,10.0,,SE,13.8,130.0,33010.0
Miami,Clear,1970-01-18 07:00:00,60.1,,-,84.0,,29.78,,Florida,64.9,,,,2:00 AM,,,,,,10.0,,SE,8.1,140.0,33010.0
Miami,Unknown,1970-01-18 08:00:00,60.1,,-,84.0,,29.78,,Florida,64.9,,,,3:00 AM,,,,,,10.0,,SSE,6.9,150.0,33010.0
Miami,Unknown,1970-01-18 09:00:00,60.1,,-,87.0,,29.81,,Florida,64.0,,,,4:00 AM,,,,,,8.0,,NW,10.4,320.0,33010.0
Miami,Unknown,1970-01-18 10:00:00,59.0,,-,84.0,,29.81,,Florida,64.0,,,,5:00 AM,,,,,,8.0,,WNW,6.9,300.0,33010.0
Miami,Unknown,1970-01-18 11:00:00,59.0,,-,84.0,,29.81,,Florida,64.0,,,,6:00 AM,,,,,,8.0,,NW,8.1,320.0,33010.0
Miami,Unknown,1970-01-18 12:00:00,60.1,,-,87.0,,29.83,,Florida,64.0,,,,7:00 AM,,,,,,10.0,,NW,6.9,310.0,33010.0
Miami,Unknown,1970-01-18 13:00:00,60.1,,-,87.0,,29.84,,Florida,64.0,,,,8:00 AM,,,,,,10.0,,NW,4.6,310.0,33010.0
Miami,Unknown,1970-01-18 14:00:00,61.0,,-,87.0,,29.85,,Florida,64.9,,,,9:00 AM,,,,,,10.0,,NW,4.6,320.0,33010.0
Miami,Unknown,1970-01-18 15:00:00,63.0,,-,81.0,,29.86,,Florida,69.1,,,,10:00 AM,,,,,,10.0,,SW,4.6,230.0,33010.0
Miami,Unknown,1970-01-18 16:00:00,64.9,,-,81.0,,29.87,,Florida,71.1,,,,11:00 AM,,,,,,10.0,,SSW,11.5,210.0,33010.0
Miami,Unknown,1970-01-18 17:00:00,64.0,,-,69.0,,29.85,,Florida,75.0,,,,12:00 PM,,,,,,10.0,,WSW,11.5,240.0,33010.0
Miami,Unknown,1970-01-18 18:00:00,64.0,,-,67.0,,29.83,,Florida,75.9,,,,1:00 PM,,,,,,10.0,,WSW,17.3,240.0,33010.0
Miami,Unknown,1970-01-18 19:00:00,61.0,,-,58.0,,29.79,,Florida,77.0,,,,2:00 PM,,,,,,10.0,,WSW,17.3,240.0,33010.0
Miami,Unknown,1970-01-18 20:00:00,59.0,,-,52.0,,29.79,,Florida,78.1,,,,3:00 PM,,,,,,10.0,,WSW,16.1,240.0,33010.0
Miami,Unknown,1970-01-18 21:00:00,59.0,,-,54.0,,29.81,,Florida,77.0,,,,4:00 PM,,,,,,10.0,,West,17.3,270.0,33010.0
Miami,Clear,1970-01-18 22:00:00,57.9,,-,54.0,,29.82,,Florida,75.9,,,,5:00 PM,,,,,,10.0,,West,12.7,260.0,33010.0
Miami,Clear,1970-01-18 23:00:00,59.0,,-,59.0,,29.84,,Florida,73.9,,,,6:00 PM,,,,,,10.0,,WSW,10.4,250.0,33010.0
Miami,Clear,1970-01-19 00:00:00,59.0,,-,64.0,,29.85,,Florida,72.0,,,,7:00 PM,,,,,,10.0,,WSW,11.5,250.0,33010.0
Miami,Clear,1970-01-19 01:00:00,61.0,,-,70.0,,29.88,,Florida,71.1,,,,8:00 PM,,,,,,10.0,,SW,11.5,230.0,33010.0
Miami,Clear,1970-01-19 02:00:00,61.0,,-,75.0,,29.88,,Florida,69.1,,,,9:00 PM,,,,,,10.0,,SW,8.1,230.0,33010.0
Miami,Clear,1970-01-19 03:00:00,62.1,,-,81.0,,29.89,,Florida,68.0,,,,10:00 PM,,,,,,10.0,,SW,6.9,220.0,33010.0
Miami,Clear,1970-01-19 04:00:00,62.1,,-,84.0,,29.91,,Florida,66.9,,,,11:00 PM,,,,,,10.0,,SW,6.9,220.0,33010.0
Miami,Clear,1970-01-19 05:00:00,62.1,,-,87.0,,29.9,,Florida,66.0,,,,12:00 AM,,,,,,10.0,,SW,6.9,230.0,33010.0
Miami,Clear,1970-01-19 06:00:00,61.0,,-,87.0,,29.89,,Florida,64.9,,,,1:00 AM,,,,,,10.0,,SW,5.8,230.0,33010.0
Miami,Fog,1970-01-19 07:00:00,61.0,Fog,-,90.0,,29.89,,Florida,64.0,,,,2:00 AM,,,,,,0.5,,WSW,5.8,240.0,33010.0
Miami,Fog,1970-01-19 08:00:00,60.1,Fog,-,93.0,,29.89,,Florida,62.1,,,,3:00 AM,,,,,,0.2,,WSW,6.9,240.0,33010.0
Miami,Fog,1970-01-19 09:00:00,60.1,Fog,-,93.0,,29.89,,Florida,62.1,,,,4:00 AM,,,,,,0.5,,WSW,5.8,250.0,33010.0
Miami,Fog,1970-01-19 10:00:00,59.0,Fog,-,90.0,,29.9,,Florida,62.1,,,,5:00 AM,,,,,,0.1,,NW,2.3,310.0,33010.0
Miami,Fog,1970-01-19 11:00:00,60.1,Fog,-,93.0,,29.92,,Florida,62.1,,,,6:00 AM,,,,,,0.2,,North,8.1,360.0,33010.0
Miami,Fog,1970-01-19 12:00:00,61.0,Fog,-,96.0,,29.94,,Florida,62.1,,,,7:00 AM,,,,,,0.5,,NNW,5.8,330.0,33010.0
Miami,Fog,1970-01-19 13:00:00,61.0,Fog,-,96.0,,29.96,,Florida,62.1,,,,8:00 AM,,,,,,0.5,,WNW,4.6,290.0,33010.0
Miami,Fog,1970-01-19 14:00:00,61.0,Fog,-,93.0,,29.99,,Florida,63.0,,,,9:00 AM,,,,,,5.5,,NNW,8.1,340.0,33010.0
Miami,Fog,1970-01-19 15:00:00,62.1,Fog,-,93.0,,30.01,,Florida,64.0,,,,10:00 AM,,,,,,3.0,,WNW,4.6,300.0,33010.0
Miami,Smoke,1970-01-19 16:00:00,62.1,,-,84.0,,30.02,,Florida,66.9,,,,11:00 AM,,,,,,5.0,,SSW,6.9,210.0,33010.0
Miami,Unknown,1970-01-19 17:00:00,64.0,,-,76.0,,30.0,,Florida,72.0,,,,12:00 PM,,,,,,8.0,,West,5.8,260.0,33010.0
Miami,Unknown,1970-01-19 18:00:00,64.0,,-,69.0,,29.96,,Florida,75.0,,,,1:00 PM,,,,,,10.0,,SW,12.7,230.0,33010.0
Miami,Unknown,1970-01-19 19:00:00,62.1,,-,62.0,,29.94,,Florida,75.9,,,,2:00 PM,,,,,,10.0,,WSW,10.4,250.0,33010.0
Miami,Unknown,1970-01-19 20:00:00,62.1,,-,60.0,,29.94,,Florida,77.0,,,,3:00 PM,,,,,,10.0,,WSW,10.4,250.0,33010.0
Miami,Unknown,1970-01-19 21:00:00,61.0,,-,58.0,,29.94,,Florida,77.0,,,,4:00 PM,,,,,,10.0,,West,11.5,260.0,33010.0
Miami,Unknown,1970-01-19 22:00:00,60.1,,-,58.0,,29.95,,Florida,75.9,,,,5:00 PM,,,,,,10.0,,West,13.8,260.0,33010.0
Miami,Unknown,1970-01-19 23:00:00,60.1,,-,60.0,,29.96,,Florida,75.0,,,,6:00 PM,,,,,,10.0,,WSW,11.5,240.0,33010.0
Miami,Unknown,1970-01-20 00:00:00,62.1,,-,68.0,0.02,29.97,,Florida,73.0,,,,7:00 PM,,,,,,10.0,,West,8.1,260.0,33010.0
Miami,Unknown,1970-01-20 01:00:00,64.0,,-,78.0,0.02,29.99,,Florida,71.1,,,,8:00 PM,,,,,,10.0,,WSW,6.9,240.0,33010.0
Miami,Unknown,1970-01-20 02:00:00,62.1,,-,84.0,,30.01,,Florida,66.9,,,,9:00 PM,,,,,,10.0,,NNW,15.0,340.0,33010.0
Miami,Unknown,1970-01-20 03:00:00,59.0,,-,84.0,,30.03,,Florida,64.0,,,,10:00 PM,,,,,,10.0,,NNW,9.2,330.0,33010.0
Miami,Unknown,1970-01-20 04:00:00,59.0,,-,87.0,,30.04,,Florida,63.0,,,,11:00 PM,,,,,,7.0,,NW,9.2,320.0,33010.0
Miami,Unknown,1970-01-20 05:00:00,57.9,,-,84.0,,30.05,,Florida,63.0,,,,12:00 AM,,,,,,7.0,,WNW,6.9,290.0,33010.0
Miami,Clear,1970-01-20 06:00:00,57.9,,-,86.0,,30.05,,Florida,62.1,,,,1:00 AM,,,,,,7.0,,West,6.9,280.0,33010.0
Miami,Unknown,1970-01-20 07:00:00,57.9,,-,90.0,,30.06,,Florida,61.0,,,,2:00 AM,,,,,,7.0,,WNW,10.4,300.0,33010.0
Miami,Unknown,1970-01-20 08:00:00,55.9,,-,83.0,,30.07,,Florida,61.0,,,,3:00 AM,,,,,,8.0,,NW,15.0,320.0,33010.0
Miami,Unknown,1970-01-20 09:00:00,53.1,,-,81.0,,30.07,,Florida,59.0,,,,4:00 AM,,,,,,8.0,,NW,9.2,310.0,33010.0
Miami,Unknown,1970-01-20 10:00:00,52.0,,-,81.0,,30.08,,Florida,57.9,,,,5:00 AM,,,,,,8.0,,NW,9.2,320.0,33010.0
Miami,Clear,1970-01-20 11:00:00,50.0,,-,83.0,,30.08,,Florida,55.0,,,,6:00 AM,,,,,,8.0,,NW,5.8,320.0,33010.0
Miami,Unknown,1970-01-20 12:00:00,50.0,,-,83.0,,30.1,,Florida,55.0,,,,7:00 AM,,,,,,8.0,,NW,3.5,320.0,33010.0
Miami,Smoke,1970-01-20 13:00:00,51.1,,-,84.0,,30.12,,Florida,55.9,,,,8:00 AM,,,,,,5.0,,WNW,4.6,300.0,33010.0
Miami,Smoke,1970-01-20 14:00:00,51.1,,-,78.0,,30.14,,Florida,57.9,,,,9:00 AM,,,,,,6.0,,WNW,6.9,290.0,33010.0
Miami,Unknown,1970-01-20 15:00:00,54.0,,-,75.0,,30.16,,Florida,62.1,,,,10:00 AM,,,,,,7.0,,WNW,10.4,300.0,33010.0
Miami,Clear,1970-01-20 16:00:00,55.0,,-,70.0,,30.15,,Florida,64.9,,,,11:00 AM,,,,,,7.0,,NW,9.2,320.0,33010.0
Miami,Clear,1970-01-20 17:00:00,53.1,,-,55.0,,30.14,,Florida,70.0,,,,12:00 PM,,,,,,10.0,,NW,12.7,320.0,33010.0
Miami,Clear,1970-01-20 18:00:00,52.0,,-,51.0,,30.12,,Florida,71.1,,,,1:00 PM,,,,,,10.0,,NW,15.0,320.0,33010.0
Miami,Unknown,1970-01-20 19:00:00,53.1,,-,51.0,,30.11,,Florida,72.0,,,,2:00 PM,,,,,,10.0,,NW,15.0,310.0,33010.0
Miami,Unknown,1970-01-20 20:00:00,52.0,,-,48.0,,30.1,,Florida,73.0,,,,3:00 PM,,,,,,10.0,,WNW,16.1,300.0,33010.0
Miami,Unknown,1970-01-20 21:00:00,53.1,,-,49.0,,30.09,,Florida,73.0,,,,4:00 PM,,,,,,10.0,,WNW,11.5,300.0,33010.0
Miami,Unknown,1970-01-20 22:00:00,53.1,,-,51.0,,30.09,,Florida,72.0,,,,5:00 PM,,,,,,10.0,,WNW,8.1,290.0,33010.0
Miami,Unknown,1970-01-20 23:00:00,55.0,,-,59.0,,30.09,,Florida,70.0,,,,6:00 PM,,,,,,10.0,,WSW,9.2,240.0,33010.0
Miami,Clear,1970-01-21 00:00:00,57.0,,-,70.0,,30.11,,Florida,66.9,,,,7:00 PM,,,,,,10.0,,WSW,10.4,240.0,33010.0
Miami,Clear,1970-01-21 01:00:00,55.9,,-,70.0,,30.12,,Florida,66.0,,,,8:00 PM,,,,,,10.0,,WSW,9.2,250.0,33010.0
Miami,Clear,1970-01-21 02:00:00,55.0,,-,78.0,,30.14,,Florida,62.1,,,,9:00 PM,,,,,,10.0,,West,10.4,270.0,33010.0
Miami,Clear,1970-01-21 03:00:00,55.0,,-,78.0,,30.15,,Florida,62.1,,,,10:00 PM,,,,,,10.0,,WSW,6.9,250.0,33010.0
Miami,Clear,1970-01-21 04:00:00,55.9,,-,83.0,,30.15,,Florida,61.0,,,,11:00 PM,,,,,,10.0,,SSW,4.6,210.0,33010.0
Miami,Clear,1970-01-21 05:00:00,55.0,,-,78.0,,30.15,,Florida,62.1,,,,12:00 AM,,,,,,10.0,,SW,4.6,220.0,33010.0
Miami,Unknown,1970-01-21 06:00:00,55.0,,-,81.0,,30.15,,Florida,61.0,,,,1:00 AM,,,,,,10.0,,WSW,6.9,240.0,33010.0
Miami,Unknown,1970-01-21 07:00:00,55.0,,-,81.0,,30.14,,Florida,61.0,,,,2:00 AM,,,,,,10.0,,WSW,6.9,240.0,33010.0
Miami,Clear,1970-01-21 08:00:00,55.9,,-,90.0,,30.14,,Florida,59.0,,,,3:00 AM,,,,,,10.0,,WNW,9.2,300.0,33010.0
Miami,Unknown,1970-01-21 09:00:00,57.0,,-,93.0,,30.14,,Florida,59.0,,,,4:00 AM,,,,,,8.0,,NW,15.0,310.0,33010.0
Miami,Clear,1970-01-21 10:00:00,55.0,,-,87.0,,30.13,,Florida,59.0,,,,5:00 AM,,,,,,8.0,,NNW,8.1,330.0,33010.0
Miami,Clear,1970-01-21 11:00:00,53.1,,-,87.0,,30.14,,Florida,57.0,,,,6:00 AM,,,,,,7.0,,NNW,8.1,330.0,33010.0
Miami,Fog,1970-01-21 12:00:00,51.1,Fog,-,84.0,,30.17,,Florida,55.9,,,,7:00 AM,,,,,,5.0,,NW,8.1,310.0,33010.0
Miami,Fog,1970-01-21 13:00:00,53.1,Fog,-,90.0,,30.17,,Florida,55.9,,,,8:00 AM,,,,,,5.0,,NW,6.9,310.0,33010.0
Miami,Smoke,1970-01-21 14:00:00,54.0,,-,89.0,,30.2,,Florida,57.0,,,,9:00 AM,,,,,,5.0,,NNW,12.7,330.0,33010.0
Miami,Smoke,1970-01-21 15:00:00,52.0,,-,75.0,,30.21,,Florida,60.1,,,,10:00 AM,,,,,,6.0,,NNW,16.1,340.0,33010.0
Miami,Unknown,1970-01-21 16:00:00,52.0,,-,72.0,,30.22,,Florida,61.0,,,,11:00 AM,,,,,,7.0,,WNW,12.7,300.0,33010.0
Miami,Unknown,1970-01-21 17:00:00,52.0,,-,70.0,,30.21,,Florida,62.1,,,,12:00 PM,,,,,,7.0,,NW,12.7,320.0,33010.0
Miami,Unknown,1970-01-21 18:00:00,52.0,,-,70.0,,30.18,,Florida,62.1,,,,1:00 PM,,,,,,8.0,,NW,10.4,320.0,33010.0
Miami,Unknown,1970-01-21 19:00:00,50.0,,-,60.0,,30.17,,Florida,64.0,,,,2:00 PM,,,,,,8.0,,WNW,8.1,290.0,33010.0
Miami,Unknown,1970-01-21 20:00:00,50.0,,-,60.0,,30.16,,Florida,64.0,,,,3:00 PM,,,,,,8.0,,NW,11.5,320.0,33010.0
Miami,Unknown,1970-01-21 21:00:00,48.9,,-,58.0,,30.16,,Florida,64.0,,,,4:00 PM,,,,,,8.0,,NW,10.4,320.0,33010.0
Miami,Unknown,1970-01-21 22:00:00,50.0,,-,63.0,,30.17,,Florida,63.0,,,,5:00 PM,,,,,,8.0,,NNE,10.4,20.0,33010.0
Miami,Smoke,1970-01-21 23:00:00,53.1,,-,75.0,,30.17,,Florida,61.0,,,,6:00 PM,,,,,,6.0,,North,9.2,360.0,33010.0
Miami,Smoke,1970-01-22 00:00:00,52.0,,-,75.0,,30.17,,Florida,60.1,,,,7:00 PM,,,,,,6.0,,North,6.9,350.0,33010.0
Miami,Unknown,1970-01-22 01:00:00,48.0,,-,72.0,,30.18,,Florida,57.0,,,,8:00 PM,,,,,,10.0,,NNW,8.1,330.0,33010.0
Miami,Unknown,1970-01-22 02:00:00,48.0,,-,75.0,,30.17,,Florida,55.9,,,,9:00 PM,,,,,,10.0,,NNW,9.2,340.0,33010.0
Miami,Clear,1970-01-22 03:00:00,48.0,,-,77.0,,30.19,,Florida,55.0,,,,10:00 PM,,,,,,8.0,,North,9.2,360.0,33010.0
Miami,Clear,1970-01-22 04:00:00,48.0,,-,83.0,,30.19,,Florida,53.1,,,,11:00 PM,,,,,,8.0,,North,6.9,350.0,33010.0
Miami,Clear,1970-01-22 05:00:00,48.0,,-,86.0,,30.18,,Florida,52.0,,,,12:00 AM,,,,,,8.0,,NW,4.6,310.0,33010.0
Miami,Unknown,1970-01-22 06:00:00,48.0,,-,89.0,,30.17,,Florida,51.1,,,,1:00 AM,,,,,,8.0,,NW,6.9,320.0,33010.0
Miami,Unknown,1970-01-22 07:00:00,48.0,,-,89.0,,30.16,,Florida,51.1,,,,2:00 AM,,,,,,8.0,,NNW,8.1,340.0,33010.0
Miami,Unknown,1970-01-22 08:00:00,46.9,,-,86.0,,30.16,,Florida,51.1,,,,3:00 AM,,,,,,8.0,,NW,9.2,320.0,33010.0
Miami,Unknown,1970-01-22 09:00:00,46.0,,-,86.0,,30.17,,Florida,50.0,,,,4:00 AM,,,,,,8.0,,NNW,11.5,330.0,33010.0
Miami,Unknown,1970-01-22 10:00:00,45.0,,-,86.0,,30.17,,Florida,48.9,,,,5:00 AM,,,,,,8.0,,NNW,9.2,340.0,33010.0
Miami,Unknown,1970-01-22 11:00:00,45.0,,-,86.0,,30.17,,Florida,48.9,,,,6:00 AM,,,,,,8.0,,NW,9.2,310.0,33010.0
Miami,Unknown,1970-01-22 12:00:00,46.0,,-,90.0,,30.18,,Florida,48.9,,,,7:00 AM,,,,,,8.0,,NNW,8.1,330.0,33010.0
Miami,Fog,1970-01-22 13:00:00,46.0,Fog,-,90.0,,30.19,,Florida,48.9,,,,8:00 AM,,,,,,5.0,,NW,9.2,310.0,33010.0
Miami,Smoke,1970-01-22 14:00:00,46.9,,-,83.0,,30.21,,Florida,52.0,,,,9:00 AM,,,,,,5.0,,NNW,10.4,340.0,33010.0
Miami,Smoke,1970-01-22 15:00:00,48.9,,-,74.0,,30.23,,Florida,57.0,,,,10:00 AM,,,,,,5.0,,NW,10.4,320.0,33010.0
Miami,Smoke,1970-01-22 16:00:00,50.0,,-,67.0,,30.22,,Florida,61.0,,,,11:00 AM,,,,,,6.0,,NNW,8.1,340.0,33010.0
Miami,Unknown,1970-01-22 17:00:00,52.0,,-,63.0,,30.19,,Florida,64.9,,,,12:00 PM,,,,,,8.0,,NNW,10.4,340.0,33010.0
Miami,Unknown,1970-01-22 18:00:00,52.0,,-,56.0,,30.17,,Florida,68.0,,,,1:00 PM,,,,,,8.0,,NW,9.2,320.0,33010.0
Miami,Unknown,1970-01-22 19:00:00,52.0,,-,56.0,,30.13,,Florida,68.0,,,,2:00 PM,,,,,,8.0,,NW,4.6,310.0,33010.0
Miami,Unknown,1970-01-22 20:00:00,52.0,,-,56.0,,30.12,,Florida,68.0,,,,3:00 PM,,,,,,8.0,,WNW,5.8,300.0,33010.0
Miami,Unknown,1970-01-22 21:00:00,52.0,,-,54.0,,30.12,,Florida,69.1,,,,4:00 PM,,,,,,8.0,,NW,8.1,310.0,33010.0
Miami,Unknown,1970-01-22 22:00:00,51.1,,-,57.0,,30.14,,Florida,66.9,,,,5:00 PM,,,,,,8.0,,NNW,13.8,330.0,33010.0
Miami,Unknown,1970-01-22 23:00:00,50.0,,-,63.0,,30.14,,Florida,63.0,,,,6:00 PM,,,,,,10.0,,NNW,9.2,340.0,33010.0
Miami,Unknown,1970-01-23 00:00:00,48.9,,-,64.0,,30.16,,Florida,61.0,,,,7:00 PM,,,,,,8.0,,NNW,11.5,340.0,33010.0
Miami,Unknown,1970-01-23 01:00:00,48.0,,-,67.0,,30.16,,Florida,59.0,,,,8:00 PM,,,,,,8.0,,North,8.1,360.0,33010.0
Miami,Clear,1970-01-23 02:00:00,48.0,,-,70.0,,30.17,,Florida,57.9,,,,9:00 PM,,,,,,8.0,,North,9.2,350.0,33010.0
Miami,Clear,1970-01-23 03:00:00,46.9,,-,72.0,,30.18,,Florida,55.9,,,,10:00 PM,,,,,,8.0,,NW,6.9,320.0,33010.0
Miami,Clear,1970-01-23 04:00:00,48.0,,-,77.0,,30.18,,Florida,55.0,,,,11:00 PM,,,,,,8.0,,NW,6.9,310.0,33010.0
Miami,Clear,1970-01-23 05:00:00,48.0,,-,83.0,,30.16,,Florida,53.1,,,,12:00 AM,,,,,,8.0,,West,5.8,260.0,33010.0
Miami,Clear,1970-01-23 06:00:00,46.9,,-,83.0,,30.16,,Florida,52.0,,,,1:00 AM,,,,,,8.0,,NW,10.4,320.0,33010.0
Miami,Clear,1970-01-23 07:00:00,48.0,,-,86.0,,30.15,,Florida,52.0,,,,2:00 AM,,,,,,8.0,,NW,9.2,310.0,33010.0
Miami,Clear,1970-01-23 08:00:00,48.0,,-,89.0,,30.15,,Florida,51.1,,,,3:00 AM,,,,,,8.0,,WNW,5.8,300.0,33010.0
Miami,Fog,1970-01-23 09:00:00,46.9,Fog,-,93.0,,30.14,,Florida,48.9,,,,4:00 AM,,,,,,3.0,,NW,6.9,310.0,33010.0
Miami,Fog,1970-01-23 10:00:00,46.9,Fog,-,93.0,,30.15,,Florida,48.9,,,,5:00 AM,,,,,,3.0,,NW,9.2,320.0,33010.0
Miami,Fog,1970-01-23 11:00:00,46.0,Fog,-,90.0,,30.15,,Florida,48.9,,,,6:00 AM,,,,,,3.0,,NW,5.8,320.0,33010.0
Miami,Fog,1970-01-23 12:00:00,46.0,Fog,-,93.0,,30.17,,Florida,48.0,,,,7:00 AM,,,,,,0.5,,NNW,8.1,340.0,33010.0
Miami,Fog,1970-01-23 13:00:00,46.9,Fog,-,96.0,,30.17,,Florida,48.0,,,,8:00 AM,,,,,,1.0,,North,6.9,350.0,33010.0
Miami,Smoke,1970-01-23 14:00:00,48.9,,-,86.0,,30.18,,Florida,53.1,,,,9:00 AM,,,,,,5.0,,NNW,11.5,340.0,33010.0
Miami,Smoke,1970-01-23 15:00:00,48.0,,-,70.0,,30.17,,Florida,57.9,,,,10:00 AM,,,,,,6.0,,NNW,6.9,340.0,33010.0
Miami,Unknown,1970-01-23 16:00:00,48.0,,-,58.0,,30.17,,Florida,63.0,,,,11:00 AM,,,,,,7.0,,WNW,3.5,300.0,33010.0
Miami,Unknown,1970-01-23 17:00:00,42.1,,-,38.0,,30.15,,Florida,69.1,,,,12:00 PM,,,,,,7.0,,West,4.6,280.0,33010.0
Miami,Unknown,1970-01-23 18:00:00,42.1,,-,35.0,,30.12,,Florida,71.1,,,,1:00 PM,,,,,,8.0,,NNW,5.8,330.0,33010.0
Miami,Unknown,1970-01-23 19:00:00,46.0,,-,40.0,,30.09,,Florida,72.0,,,,2:00 PM,,,,,,10.0,,SW,5.8,230.0,33010.0
Miami,Unknown,1970-01-23 20:00:00,46.9,,-,41.0,,30.08,,Florida,72.0,,,,3:00 PM,,,,,,10.0,,SSE,10.4,150.0,33010.0
Miami,Unknown,1970-01-23 21:00:00,46.0,,-,40.0,,30.07,,Florida,72.0,,,,4:00 PM,,,,,,10.0,,South,10.4,170.0,33010.0
Miami,Unknown,1970-01-23 22:00:00,46.9,,-,42.0,,30.08,,Florida,71.1,,,,5:00 PM,,,,,,10.0,,SSE,8.1,160.0,33010.0
Miami,Unknown,1970-01-23 23:00:00,48.9,,-,49.0,,30.09,,Florida,69.1,,,,6:00 PM,,,,,,10.0,,South,6.9,180.0,33010.0
Miami,Unknown,1970-01-24 00:00:00,48.0,,-,51.0,,30.09,,Florida,66.9,,,,7:00 PM,,,,,,10.0,,South,9.2,180.0,33010.0
Miami,Unknown,1970-01-24 01:00:00,46.0,,-,50.0,,30.09,,Florida,64.9,,,,8:00 PM,,,,,,10.0,,South,6.9,190.0,33010.0
Miami,Unknown,1970-01-24 02:00:00,46.9,,-,54.0,,30.09,,Florida,64.0,,,,9:00 PM,,,,,,10.0,,South,8.1,180.0,33010.0
Miami,Unknown,1970-01-24 03:00:00,50.0,,-,63.0,,30.1,,Florida,63.0,,,,10:00 PM,,,,,,10.0,,SSW,8.1,200.0,33010.0
Miami,Unknown,1970-01-24 04:00:00,50.0,,-,63.0,,30.1,,Florida,63.0,,,,11:00 PM,,,,,,10.0,,SSW,6.9,200.0,33010.0
Miami,Unknown,1970-01-24 05:00:00,53.1,,-,70.0,,30.09,,Florida,63.0,,,,12:00 AM,,,,,,10.0,,South,8.1,190.0,33010.0
Miami,Unknown,1970-01-24 06:00:00,55.9,,-,73.0,,30.09,,Florida,64.9,,,,1:00 AM,,,,,,10.0,,SSW,6.9,210.0,33010.0
Miami,Unknown,1970-01-24 07:00:00,57.0,,-,75.0,,30.08,,Florida,64.9,,,,2:00 AM,,,,,,10.0,,SW,9.2,230.0,33010.0
Miami,Unknown,1970-01-24 08:00:00,57.9,,-,75.0,,30.07,,Florida,66.0,,,,3:00 AM,,,,,,10.0,,West,8.1,270.0,33010.0
Miami,Unknown,1970-01-24 09:00:00,57.9,,-,75.0,,30.07,,Florida,66.0,,,,4:00 AM,,,,,,10.0,,WSW,9.2,240.0,33010.0
Miami,Unknown,1970-01-24 10:00:00,57.9,,-,75.0,,30.07,,Florida,66.0,,,,5:00 AM,,,,,,10.0,,West,6.9,270.0,33010.0
Miami,Unknown,1970-01-24 11:00:00,57.9,,-,75.0,,30.09,,Florida,66.0,,,,6:00 AM,,,,,,10.0,,West,6.9,260.0,33010.0
Miami,Unknown,1970-01-24 12:00:00,59.0,,-,81.0,,30.12,,Florida,64.9,,,,7:00 AM,,,,,,8.0,,WNW,9.2,290.0,33010.0
Miami,Fog,1970-01-24 13:00:00,57.9,Fog,-,84.0,,30.14,,Florida,63.0,,,,8:00 AM,,,,,,5.5,,North,13.8,350.0,33010.0
Miami,Drizzle,1970-01-24 14:00:00,57.0,,-,84.0,,30.16,,Florida,62.1,,,,9:00 AM,,,,,,3.0,,NW,15.0,320.0,33010.0
Miami,Smoke,1970-01-24 15:00:00,54.0,,-,72.0,,30.18,,Florida,63.0,,,,10:00 AM,,,,,,6.0,,NNW,12.7,340.0,33010.0
Miami,Unknown,1970-01-24 16:00:00,55.9,,-,73.0,,30.19,,Florida,64.9,,,,11:00 AM,,,,,,8.0,,North,13.8,10.0,33010.0
Miami,Unknown,1970-01-24 17:00:00,50.0,,-,52.0,,30.19,,Florida,68.0,,,,12:00 PM,,,,,,8.0,,NW,11.5,320.0,33010.0
Miami,Unknown,1970-01-24 18:00:00,46.0,,-,42.0,,30.17,,Florida,70.0,,,,1:00 PM,,,,,,8.0,,North,12.7,360.0,33010.0
Miami,Unknown,1970-01-24 19:00:00,45.0,,-,41.0,,30.15,,Florida,70.0,,,,2:00 PM,,,,,,10.0,,NW,9.2,320.0,33010.0
Miami,Unknown,1970-01-24 20:00:00,45.0,,-,41.0,,30.14,,Florida,70.0,,,,3:00 PM,,,,,,10.0,,North,11.5,360.0,33010.0
Miami,Unknown,1970-01-24 21:00:00,42.1,,-,36.0,,30.14,,Florida,70.0,,,,4:00 PM,,,,,,10.0,,NNW,11.5,340.0,33010.0
Miami,Unknown,1970-01-24 22:00:00,48.0,,-,49.0,,30.16,,Florida,68.0,,,,5:00 PM,,,,,,10.0,,NNE,13.8,20.0,33010.0
Miami,Unknown,1970-01-24 23:00:00,48.9,,-,60.0,,30.17,,Florida,63.0,,,,6:00 PM,,,,,,10.0,,NNE,10.4,30.0,33010.0
Miami,Unknown,1970-01-25 00:00:00,48.0,,-,62.0,,30.2,,Florida,61.0,,,,7:00 PM,,,,,,10.0,,NNE,8.1,30.0,33010.0
Miami,Unknown,1970-01-25 01:00:00,48.0,,-,64.0,,30.2,,Florida,60.1,,,,8:00 PM,,,,,,10.0,,North,6.9,360.0,33010.0
Miami,Unknown,1970-01-25 02:00:00,48.0,,-,70.0,,30.21,,Florida,57.9,,,,9:00 PM,,,,,,10.0,,North,6.9,360.0,33010.0
Miami,Unknown,1970-01-25 03:00:00,50.0,,-,77.0,,30.22,,Florida,57.0,,,,10:00 PM,,,,,,10.0,,North,10.4,10.0,33010.0
Miami,Unknown,1970-01-25 04:00:00,48.9,,-,74.0,,30.22,,Florida,57.0,,,,11:00 PM,,,,,,10.0,,North,8.1,360.0,33010.0
Miami,Unknown,1970-01-25 05:00:00,48.9,,-,77.0,,30.21,,Florida,55.9,,,,12:00 AM,,,,,,10.0,,North,5.8,350.0,33010.0
Miami,Unknown,1970-01-25 06:00:00,50.0,,-,80.0,,30.19,,Florida,55.9,,,,1:00 AM,,,,,,10.0,,North,9.2,360.0,33010.0
Miami,Unknown,1970-01-25 07:00:00,50.0,,-,83.0,,30.19,,Florida,55.0,,,,2:00 AM,,,,,,10.0,,NNW,5.8,340.0,33010.0
Miami,Unknown,1970-01-25 08:00:00,48.9,,-,83.0,,30.19,,Florida,54.0,,,,3:00 AM,,,,,,8.0,,North,8.1,350.0,33010.0
Miami,Unknown,1970-01-25 09:00:00,50.0,,-,89.0,,30.19,,Florida,53.1,,,,4:00 AM,,,,,,8.0,,NNW,5.8,330.0,33010.0
Miami,Unknown,1970-01-25 10:00:00,50.0,,-,89.0,,30.17,,Florida,53.1,,,,5:00 AM,,,,,,7.0,,North,3.5,350.0,33010.0
Miami,Unknown,1970-01-25 11:00:00,48.9,,-,86.0,,30.18,,Florida,53.1,,,,6:00 AM,,,,,,7.0,,North,4.6,360.0,33010.0
Miami,Fog,1970-01-25 12:00:00,48.9,Fog,-,89.0,,30.19,,Florida,52.0,,,,7:00 AM,,,,,,5.0,,North,4.6,350.0,33010.0
Miami,Fog,1970-01-25 13:00:00,50.0,Fog,-,93.0,,30.22,,Florida,52.0,,,,8:00 AM,,,,,,5.0,,WSW,4.6,250.0,33010.0
Miami,Smoke,1970-01-25 14:00:00,53.1,,-,87.0,,30.23,,Florida,57.0,,,,9:00 AM,,,,,,5.0,,NW,4.6,310.0,33010.0
Miami,Unknown,1970-01-25 15:00:00,57.0,,-,70.0,,30.25,,Florida,66.9,,,,10:00 AM,,,,,,7.0,,SE,4.6,140.0,33010.0
Miami,Unknown,1970-01-25 16:00:00,55.9,,-,59.0,,30.24,,Florida,71.1,,,,11:00 AM,,,,,,8.0,,SE,13.8,130.0,33010.0
Miami,Unknown,1970-01-25 17:00:00,55.0,,-,55.0,,30.22,,Florida,72.0,,,,12:00 PM,,,,,,10.0,,SE,10.4,130.0,33010.0
Miami,Unknown,1970-01-25 18:00:00,55.9,,-,55.0,,30.18,,Florida,73.0,,,,1:00 PM,,,,,,10.0,,ESE,9.2,120.0,33010.0
Miami,Unknown,1970-01-25 19:00:00,57.0,,-,57.0,,30.15,,Florida,73.0,,,,2:00 PM,,,,,,10.0,,SSE,9.2,160.0,33010.0
Miami,Unknown,1970-01-25 20:00:00,57.0,,-,57.0,,30.14,,Florida,73.0,,,,3:00 PM,,,,,,10.0,,SE,9.2,140.0,33010.0
Miami,Unknown,1970-01-25 21:00:00,57.0,,-,57.0,,30.15,,Florida,73.0,,,,4:00 PM,,,,,,10.0,,ESE,9.2,120.0,33010.0
Miami,Clear,1970-01-25 22:00:00,57.0,,-,57.0,,30.15,,Florida,73.0,,,,5:00 PM,,,,,,10.0,,ESE,9.2,120.0,33010.0
Miami,Unknown,1970-01-25 23:00:00,57.0,,-,61.0,,30.15,,Florida,71.1,,,,6:00 PM,,,,,,10.0,,ESE,10.4,120.0,33010.0
Miami,Clear,1970-01-26 00:00:00,57.9,,-,68.0,,30.17,,Florida,69.1,,,,7:00 PM,,,,,,10.0,,ESE,6.9,120.0,33010.0
Miami,Clear,1970-01-26 01:00:00,57.9,,-,73.0,,30.16,,Florida,66.9,,,,8:00 PM,,,,,,10.0,,ESE,5.8,110.0,33010.0
Miami,Clear,1970-01-26 02:00:00,57.9,,-,75.0,,30.17,,Florida,66.0,,,,9:00 PM,,,,,,10.0,,ESE,4.6,120.0,33010.0
Miami,Clear,1970-01-26 03:00:00,57.0,,-,75.0,,30.17,,Florida,64.9,,,,10:00 PM,,,,,,10.0,,ESE,4.6,120.0,33010.0
Miami,Clear,1970-01-26 04:00:00,57.0,,-,75.0,,30.17,,Florida,64.9,,,,11:00 PM,,,,,,10.0,,ESE,4.6,120.0,33010.0
Miami,Clear,1970-01-26 05:00:00,57.9,,-,84.0,,30.16,,Florida,63.0,,,,12:00 AM,,,,,,10.0,,ENE,3.5,70.0,33010.0
Miami,Clear,1970-01-26 06:00:00,55.9,,-,83.0,,30.15,,Florida,61.0,,,,1:00 AM,,,,,,10.0,,North,3.5,360.0,33010.0
Miami,Unknown,1970-01-26 07:00:00,55.9,,-,83.0,,30.13,,Florida,61.0,,,,2:00 AM,,,,,,10.0,,North,2.3,360.0,33010.0
Miami,Unknown,1970-01-26 08:00:00,55.9,,-,86.0,,30.12,,Florida,60.1,,,,3:00 AM,,,,,,8.0,,NNE,4.6,20.0,33010.0
Miami,Unknown,1970-01-26 09:00:00,55.9,,-,86.0,,30.12,,Florida,60.1,,,,4:00 AM,,,,,,7.0,,East,2.3,100.0,33010.0
Miami,Unknown,1970-01-26 10:00:00,55.9,,-,83.0,,30.1,,Florida,61.0,,,,5:00 AM,,,,,,7.0,,Calm,Calm,0.0,33010.0
Miami,Unknown,1970-01-26 11:00:00,55.9,,-,86.0,,30.12,,Florida,60.1,,,,6:00 AM,,,,,,7.0,,NNE,3.5,20.0,33010.0
Miami,Smoke,1970-01-26 12:00:00,55.0,,-,83.0,,30.13,,Florida,60.1,,,,7:00 AM,,,,,,5.0,,North,3.5,10.0,33010.0
Miami,Smoke,1970-01-26 13:00:00,55.9,,-,86.0,,30.15,,Florida,60.1,,,,8:00 AM,,,,,,4.0,,NNW,2.3,330.0,33010.0
Miami,Smoke,1970-01-26 14:00:00,62.1,,-,78.0,,30.16,,Florida,69.1,,,,9:00 AM,,,,,,3.0,,SSE,4.6,160.0,33010.0
Miami,Smoke,1970-01-26 15:00:00,64.0,,-,78.0,,30.16,,Florida,71.1,,,,10:00 AM,,,,,,6.0,,South,6.9,170.0,33010.0
Miami,Unknown,1970-01-26 16:00:00,64.0,,-,69.0,,30.17,,Florida,75.0,,,,11:00 AM,,,,,,8.0,,SSW,6.9,200.0,33010.0
Miami,Unknown,1970-01-26 17:00:00,63.0,,-,66.0,,30.14,,Florida,75.0,,,,12:00 PM,,,,,,10.0,,SSW,9.2,200.0,33010.0
Miami,Unknown,1970-01-26 18:00:00,63.0,,-,60.0,,30.12,,Florida,78.1,,,,1:00 PM,,,,,,10.0,,SSW,8.1,200.0,33010.0
Miami,Unknown,1970-01-26 19:00:00,63.0,,-,60.0,,30.09,,Florida,78.1,,,,2:00 PM,,,,,,10.0,,SSE,10.4,150.0,33010.0
Miami,Unknown,1970-01-26 20:00:00,64.0,,-,62.0,,30.08,,Florida,78.1,,,,3:00 PM,,,,,,10.0,,South,9.2,180.0,33010.0
Miami,Unknown,1970-01-26 21:00:00,64.0,,-,64.0,,30.09,,Florida,77.0,,,,4:00 PM,,,,,,10.0,,SSE,8.1,150.0,33010.0
Miami,Unknown,1970-01-26 22:00:00,64.0,,-,64.0,,30.1,,Florida,77.0,,,,5:00 PM,,,,,,10.0,,South,6.9,190.0,33010.0
Miami,Unknown,1970-01-26 23:00:00,64.0,,-,69.0,,30.1,,Florida,75.0,,,,6:00 PM,,,,,,10.0,,SSE,6.9,150.0,33010.0
Miami,Unknown,1970-01-27 00:00:00,64.0,,-,76.0,,30.11,,Florida,72.0,,,,7:00 PM,,,,,,10.0,,SSE,5.8,150.0,33010.0
Miami,Clear,1970-01-27 01:00:00,64.0,,-,78.0,,30.11,,Florida,71.1,,,,8:00 PM,,,,,,10.0,,SSE,5.8,150.0,33010.0
Miami,Clear,1970-01-27 02:00:00,64.0,,-,81.0,,30.12,,Florida,70.0,,,,9:00 PM,,,,,,10.0,,South,4.6,180.0,33010.0
Miami,Clear,1970-01-27 03:00:00,64.0,,-,84.0,,30.12,,Florida,69.1,,,,10:00 PM,,,,,,8.0,,SSE,3.5,160.0,33010.0
Miami,Clear,1970-01-27 04:00:00,64.0,,-,87.0,,30.13,,Florida,68.0,,,,11:00 PM,,,,,,8.0,,SE,3.5,130.0,33010.0
Miami,Unknown,1970-01-27 05:00:00,64.0,,-,90.0,,30.12,,Florida,66.9,,,,12:00 AM,,,,,,8.0,,South,4.6,180.0,33010.0
Miami,Unknown,1970-01-27 06:00:00,63.0,,-,90.0,,30.12,,Florida,66.0,,,,1:00 AM,,,,,,8.0,,SSW,4.6,210.0,33010.0
Miami,Unknown,1970-01-27 07:00:00,62.1,,-,87.0,,30.11,,Florida,66.0,,,,2:00 AM,,,,,,8.0,,WSW,3.5,240.0,33010.0
Miami,Clear,1970-01-27 08:00:00,61.0,,-,90.0,,30.1,,Florida,64.0,,,,3:00 AM,,,,,,8.0,,SSE,3.5,160.0,33010.0
Miami,Unknown,1970-01-27 09:00:00,57.9,,-,86.0,,30.1,,Florida,62.1,,,,4:00 AM,,,,,,8.0,,NW,3.5,320.0,33010.0
Miami,Unknown,1970-01-27 10:00:00,59.0,,-,90.0,,30.1,,Florida,62.1,,,,5:00 AM,,,,,,7.0,,NW,2.3,320.0,33010.0
Miami,Fog,1970-01-27 11:00:00,59.0,Fog,-,90.0,,30.11,,Florida,62.1,,,,6:00 AM,,,,,,5.0,,NW,3.5,320.0,33010.0
Miami,Fog,1970-01-27 12:00:00,57.9,Fog,-,90.0,,30.12,,Florida,61.0,,,,7:00 AM,,,,,,5.0,,NW,4.6,320.0,33010.0
Miami,Fog,1970-01-27 13:00:00,57.9,Fog,-,93.0,,30.14,,Florida,60.1,,,,8:00 AM,,,,,,3.0,,North,6.9,350.0,33010.0
Miami,Smoke,1970-01-27 14:00:00,62.1,,-,90.0,,30.16,,Florida,64.9,,,,9:00 AM,,,,,,5.0,,North,9.2,10.0,33010.0
Miami,Smoke,1970-01-27 15:00:00,63.0,,-,75.0,,30.17,,Florida,71.1,,,,10:00 AM,,,,,,6.0,,NNE,6.9,30.0,33010.0
Miami,Unknown,1970-01-27 16:00:00,64.0,,-,69.0,,30.19,,Florida,75.0,,,,11:00 AM,,,,,,7.0,,WSW,3.5,250.0,33010.0
Miami,Unknown,1970-01-27 17:00:00,64.0,,-,69.0,,30.17,,Florida,75.0,,,,12:00 PM,,,,,,7.0,,ESE,5.8,120.0,33010.0
Miami,Unknown,1970-01-27 18:00:00,64.0,,-,64.0,,30.14,,Florida,77.0,,,,1:00 PM,,,,,,7.0,,East,6.9,90.0,33010.0
Miami,Unknown,1970-01-27 19:00:00,64.9,,-,66.0,,30.12,,Florida,77.0,,,,2:00 PM,,,,,,8.0,,ESE,10.4,120.0,33010.0
Miami,Unknown,1970-01-27 20:00:00,64.0,,-,64.0,,30.11,,Florida,77.0,,,,3:00 PM,,,,,,10.0,,ESE,8.1,120.0,33010.0
Miami,Unknown,1970-01-27 21:00:00,63.0,,-,62.0,,30.11,,Florida,77.0,,,,4:00 PM,,,,,,10.0,,SE,8.1,130.0,33010.0
Miami,Unknown,1970-01-27 22:00:00,62.1,,-,60.0,,30.11,,Florida,77.0,,,,5:00 PM,,,,,,8.0,,SE,9.2,130.0,33010.0
Miami,Unknown,1970-01-27 23:00:00,62.1,,-,64.0,,30.12,,Florida,75.0,,,,6:00 PM,,,,,,8.0,,ENE,9.2,60.0,33010.0
Miami,Unknown,1970-01-28 00:00:00,64.0,,-,69.0,,30.14,,Florida,75.0,,,,7:00 PM,,,,,,8.0,,ENE,9.2,70.0,33010.0
Miami,Light Rain,1970-01-28 01:00:00,66.0,Rain,-,76.0,,30.15,,Florida,73.9,,,,8:00 PM,,,,,,8.0,,ESE,6.9,110.0,33010.0
Miami,Unknown,1970-01-28 02:00:00,66.0,,-,79.0,,30.15,,Florida,73.0,,,,9:00 PM,,,,,,8.0,,ENE,6.9,60.0,33010.0
Miami,Unknown,1970-01-28 03:00:00,64.9,,-,76.0,,30.16,,Florida,73.0,,,,10:00 PM,,,,,,8.0,,East,6.9,100.0,33010.0
Miami,Unknown,1970-01-28 04:00:00,63.0,,-,73.0,,30.16,,Florida,72.0,,,,11:00 PM,,,,,,8.0,,NE,6.9,50.0,33010.0
Miami,Unknown,1970-01-28 05:00:00,62.1,,-,71.0,,30.15,,Florida,72.0,,,,12:00 AM,,,,,,8.0,,ESE,4.6,120.0,33010.0
Miami,Unknown,1970-01-28 06:00:00,57.9,,-,63.0,,30.13,,Florida,71.1,,,,1:00 AM,,,,,,10.0,,East,4.6,100.0,33010.0
Miami,Unknown,1970-01-28 07:00:00,60.1,,-,68.0,,30.13,,Florida,71.1,,,,2:00 AM,,,,,,10.0,,East,5.8,90.0,33010.0
Miami,Light Rain,1970-01-28 08:00:00,64.0,Rain,-,78.0,0.01,30.13,,Florida,71.1,,,,3:00 AM,,,,,,7.0,,ESE,5.8,120.0,33010.0
Miami,Unknown,1970-01-28 09:00:00,64.9,,-,84.0,,30.12,,Florida,70.0,,,,4:00 AM,,,,,,8.0,,ESE,10.4,120.0,33010.0
Miami,Light Rain,1970-01-28 10:00:00,64.9,Rain,-,81.0,,30.12,,Florida,71.1,,,,5:00 AM,,,,,,7.0,,ESE,4.6,110.0,33010.0
Miami,Unknown,1970-01-28 11:00:00,64.9,,-,84.0,,30.13,,Florida,70.0,,,,6:00 AM,,,,,,8.0,,South,3.5,180.0,33010.0
Miami,Unknown,1970-01-28 12:00:00,63.0,,-,78.0,,30.15,,Florida,70.0,,,,7:00 AM,,,,,,8.0,,ENE,8.1,60.0,33010.0
Miami,Unknown,1970-01-28 13:00:00,63.0,,-,78.0,,30.17,,Florida,70.0,,,,8:00 AM,,,,,,8.0,,East,6.9,100.0,33010.0
Miami,Unknown,1970-01-28 14:00:00,66.9,,-,81.0,,30.19,,Florida,73.0,,,,9:00 AM,,,,,,10.0,,East,9.2,100.0,33010.0
Miami,Unknown,1970-01-28 15:00:00,64.9,,-,71.0,,30.2,,Florida,75.0,,,,10:00 AM,,,,,,10.0,,ESE,15.0,120.0,33010.0
Miami,Unknown,1970-01-28 16:00:00,64.0,,-,69.0,,30.22,,Florida,75.0,,,,11:00 AM,,,,,,10.0,,ESE,16.1,110.0,33010.0
Miami,Unknown,1970-01-28 17:00:00,63.0,,-,64.0,,30.2,,Florida,75.9,,,,12:00 PM,,,,,,10.0,,ESE,16.1,120.0,33010.0
Miami,Unknown,1970-01-28 18:00:00,63.0,,-,62.0,,30.18,,Florida,77.0,,,,1:00 PM,,,,,,10.0,,ESE,16.1,110.0,33010.0
Miami,Unknown,1970-01-28 19:00:00,62.1,,-,58.0,,30.16,,Florida,78.1,,,,2:00 PM,,,,,,10.0,,ESE,15.0,120.0,33010.0
Miami,Unknown,1970-01-28 20:00:00,64.0,,-,62.0,,30.15,,Florida,78.1,,,,3:00 PM,,,,,,10.0,,ESE,11.5,120.0,33010.0
Miami,Unknown,1970-01-28 21:00:00,64.0,,-,62.0,,30.15,,Florida,78.1,,,,4:00 PM,,,,,,10.0,,East,15.0,100.0,33010.0
Miami,Unknown,1970-01-28 22:00:00,64.0,,-,64.0,,30.15,,Florida,77.0,,,,5:00 PM,,,,,,10.0,,ESE,13.8,120.0,33010.0
Miami,Unknown,1970-01-28 23:00:00,64.0,,-,69.0,,30.16,,Florida,75.0,,,,6:00 PM,,,,,,10.0,,ESE,11.5,110.0,33010.0
Miami,Clear,1970-01-29 00:00:00,64.0,,-,71.0,,30.17,,Florida,73.9,,,,7:00 PM,,,,,,10.0,,East,9.2,100.0,33010.0
Miami,Clear,1970-01-29 01:00:00,64.9,,-,76.0,,30.17,,Florida,73.0,,,,8:00 PM,,,,,,10.0,,ESE,8.1,110.0,33010.0
Miami,Clear,1970-01-29 02:00:00,64.9,,-,76.0,,30.17,,Florida,73.0,,,,9:00 PM,,,,,,10.0,,ESE,9.2,110.0,33010.0
Miami,Clear,1970-01-29 03:00:00,64.9,,-,78.0,,30.18,,Florida,72.0,,,,10:00 PM,,,,,,10.0,,ESE,8.1,110.0,33010.0
Miami,Unknown,1970-01-29 04:00:00,64.9,,-,78.0,,30.18,,Florida,72.0,,,,11:00 PM,,,,,,10.0,,ESE,10.4,110.0,33010.0
Miami,Unknown,1970-01-29 05:00:00,64.0,,-,76.0,,30.17,,Florida,72.0,,,,12:00 AM,,,,,,10.0,,ESE,10.4,110.0,33010.0
Miami,Unknown,1970-01-29 06:00:00,64.0,,-,76.0,,30.17,,Florida,72.0,,,,1:00 AM,,,,,,10.0,,East,10.4,100.0,33010.0
Miami,Clear,1970-01-29 07:00:00,64.0,,-,76.0,,30.15,,Florida,72.0,,,,2:00 AM,,,,,,10.0,,ESE,11.5,120.0,33010.0
Miami,Clear,1970-01-29 08:00:00,63.0,,-,75.0,,30.14,,Florida,71.1,,,,3:00 AM,,,,,,10.0,,ESE,12.7,110.0,33010.0
Miami,Unknown,1970-01-29 09:00:00,63.0,,-,75.0,,30.14,,Florida,71.1,,,,4:00 AM,,,,,,10.0,,ESE,12.7,120.0,33010.0
Miami,Unknown,1970-01-29 10:00:00,62.1,,-,73.0,,30.14,,Florida,71.1,,,,5:00 AM,,,,,,10.0,,ESE,10.4,120.0,33010.0
Miami,Unknown,1970-01-29 11:00:00,62.1,,-,73.0,,30.14,,Florida,71.1,,,,6:00 AM,,,,,,10.0,,ESE,12.7,120.0,33010.0
Miami,Unknown,1970-01-29 12:00:00,62.1,,-,73.0,,30.15,,Florida,71.1,,,,7:00 AM,,,,,,10.0,,ESE,12.7,120.0,33010.0
Miami,Unknown,1970-01-29 13:00:00,63.0,,-,73.0,,30.16,,Florida,72.0,,,,8:00 AM,,,,,,10.0,,ESE,11.5,120.0,33010.0
Miami,Unknown,1970-01-29 14:00:00,66.0,,-,81.0,,30.17,,Florida,72.0,,,,9:00 AM,,,,,,10.0,,SE,13.8,130.0,33010.0
Miami,Unknown,1970-01-29 15:00:00,66.0,,-,73.0,,30.18,,Florida,75.0,,,,10:00 AM,,,,,,10.0,,SE,18.4,130.0,33010.0
Miami,Unknown,1970-01-29 16:00:00,66.9,,-,71.0,,30.18,,Florida,77.0,,,,11:00 AM,,,,,,10.0,,SE,16.1,130.0,33010.0
Miami,Unknown,1970-01-29 17:00:00,66.9,,-,71.0,,30.17,,Florida,77.0,,,,12:00 PM,,,,,,10.0,,SE,16.1,140.0,33010.0
Miami,Unknown,1970-01-29 18:00:00,66.9,,-,74.0,,30.15,,Florida,75.9,,,,1:00 PM,,,,,,10.0,,ESE,13.8,120.0,33010.0
Miami,Unknown,1970-01-29 19:00:00,66.9,,-,71.0,,30.12,,Florida,77.0,,,,2:00 PM,,,,,,10.0,,SSE,13.8,160.0,33010.0
Miami,Unknown,1970-01-29 20:00:00,66.9,,-,71.0,,30.12,,Florida,77.0,,,,3:00 PM,,,,,,10.0,,SE,15.0,130.0,33010.0
Miami,Unknown,1970-01-29 21:00:00,66.9,,-,71.0,,30.11,,Florida,77.0,,,,4:00 PM,,,,,,10.0,,ESE,12.7,110.0,33010.0
Miami,Unknown,1970-01-29 22:00:00,66.9,,-,71.0,,30.11,,Florida,77.0,,,,5:00 PM,,,,,,10.0,,ESE,12.7,120.0,33010.0
Miami,Unknown,1970-01-29 23:00:00,66.9,,-,74.0,,30.11,,Florida,75.9,,,,6:00 PM,,,,,,10.0,,ESE,11.5,120.0,33010.0
Miami,Unknown,1970-01-30 00:00:00,66.9,,-,76.0,,30.1,,Florida,75.0,,,,7:00 PM,,,,,,10.0,,ESE,9.2,120.0,33010.0
Miami,Unknown,1970-01-30 01:00:00,66.9,,-,76.0,,30.11,,Florida,75.0,,,,8:00 PM,,,,,,10.0,,ESE,6.9,120.0,33010.0
Miami,Clear,1970-01-30 02:00:00,66.9,,-,81.0,,30.1,,Florida,73.0,,,,9:00 PM,,,,,,10.0,,ESE,4.6,110.0,33010.0
Miami,Clear,1970-01-30 03:00:00,66.9,,-,84.0,,30.1,,Florida,72.0,,,,10:00 PM,,,,,,10.0,,ESE,5.8,110.0,33010.0
Miami,Clear,1970-01-30 04:00:00,66.9,,-,84.0,,30.1,,Florida,72.0,,,,11:00 PM,,,,,,8.0,,SE,4.6,140.0,33010.0
Miami,Clear,1970-01-30 05:00:00,66.9,,-,84.0,,30.1,,Florida,72.0,,,,12:00 AM,,,,,,8.0,,South,4.6,180.0,33010.0
Miami,Unknown,1970-01-30 06:00:00,66.9,,-,87.0,,30.09,,Florida,71.1,,,,1:00 AM,,,,,,10.0,,South,3.5,170.0,33010.0
Miami,Unknown,1970-01-30 07:00:00,66.9,,-,84.0,,30.08,,Florida,72.0,,,,2:00 AM,,,,,,10.0,,SSE,5.8,160.0,33010.0
Miami,Unknown,1970-01-30 08:00:00,68.0,,-,87.0,,30.07,,Florida,72.0,,,,3:00 AM,,,,,,10.0,,South,4.6,180.0,33010.0
Miami,Unknown,1970-01-30 09:00:00,68.0,,-,87.0,,30.06,,Florida,72.0,,,,4:00 AM,,,,,,10.0,,South,3.5,180.0,33010.0
Miami,Unknown,1970-01-30 10:00:00,68.0,,-,87.0,,30.04,,Florida,72.0,,,,5:00 AM,,,,,,10.0,,South,4.6,170.0,33010.0
Miami,Unknown,1970-01-30 11:00:00,68.0,,-,87.0,,30.06,,Florida,72.0,,,,6:00 AM,,,,,,10.0,,South,4.6,180.0,33010.0
Miami,Unknown,1970-01-30 12:00:00,68.0,,-,90.0,,30.08,,Florida,71.1,,,,7:00 AM,,,,,,10.0,,WSW,2.3,240.0,33010.0
Miami,Unknown,1970-01-30 13:00:00,68.0,,-,93.0,,30.09,,Florida,70.0,,,,8:00 AM,,,,,,7.0,,SW,4.6,230.0,33010.0
Miami,Unknown,1970-01-30 14:00:00,69.1,,-,93.0,,30.1,,Florida,71.1,,,,9:00 AM,,,,,,8.0,,West,4.6,260.0,33010.0
Miami,Unknown,1970-01-30 15:00:00,70.0,,-,84.0,,30.11,,Florida,75.0,,,,10:00 AM,,,,,,10.0,,SSW,9.2,200.0,33010.0
Miami,Unknown,1970-01-30 16:00:00,70.0,,-,76.0,,30.11,,Florida,78.1,,,,11:00 AM,,,,,,10.0,,South,8.1,170.0,33010.0
Miami,Unknown,1970-01-30 17:00:00,68.0,,-,82.0,0.45,30.08,,Florida,73.9,,,,12:00 PM,,,,,,8.0,,WSW,6.9,240.0,33010.0
Miami,Unknown,1970-01-30 18:00:00,70.0,,-,74.0,,30.04,,Florida,79.0,,,,1:00 PM,,,,,,10.0,,WNW,10.4,290.0,33010.0
Miami,Unknown,1970-01-30 19:00:00,66.9,,-,60.0,,30.02,,Florida,82.0,,,,2:00 PM,,,,,,10.0,,WNW,11.5,300.0,33010.0
Miami,Unknown,1970-01-30 20:00:00,66.0,,-,58.0,,30.0,,Florida,82.0,,,,3:00 PM,,,,,,10.0,,West,13.8,280.0,33010.0
Miami,Unknown,1970-01-30 21:00:00,66.0,,-,60.0,,30.0,,Florida,81.0,,,,4:00 PM,,,,,,10.0,,NW,11.5,310.0,33010.0
Miami,Unknown,1970-01-30 22:00:00,66.0,,-,62.0,,30.02,,Florida,80.1,,,,5:00 PM,,,,,,10.0,,WNW,11.5,300.0,33010.0
Miami,Unknown,1970-01-30 23:00:00,66.0,,-,66.0,,30.04,,Florida,78.1,,,,6:00 PM,,,,,,10.0,,NW,15.0,320.0,33010.0
Miami,Unknown,1970-01-31 00:00:00,64.0,,-,71.0,,30.07,,Florida,73.9,,,,7:00 PM,,,,,,10.0,,NNW,23.0,340.0,33010.0
Miami,Unknown,1970-01-31 01:00:00,63.0,,-,73.0,,30.11,,Florida,72.0,,,,8:00 PM,,,,,,10.0,,North,17.3,360.0,33010.0
Miami,Unknown,1970-01-31 02:00:00,60.1,,-,76.0,,30.14,,Florida,68.0,,,,9:00 PM,,,,,,10.0,,NNW,15.0,340.0,33010.0
Miami,Unknown,1970-01-31 03:00:00,59.0,,-,78.0,,30.16,,Florida,66.0,,,,10:00 PM,,,,,,10.0,,North,18.4,360.0,33010.0
Miami,Unknown,1970-01-31 04:00:00,52.0,,-,67.0,,30.17,,Florida,63.0,,,,11:00 PM,,,,,,10.0,,North,17.3,360.0,33010.0
Miami,Unknown,1970-01-31 05:00:00,46.9,,-,60.0,,30.19,,Florida,61.0,,,,12:00 AM,,,,,,10.0,,North,15.0,360.0,33010.0
Miami,Unknown,1970-01-31 06:00:00,46.0,,-,62.0,,30.19,,Florida,59.0,,,,1:00 AM,,,,,,10.0,,NNW,16.1,340.0,33010.0
Miami,Clear,1970-01-31 07:00:00,44.1,,-,62.0,,30.21,,Florida,57.0,,,,2:00 AM,,,,,,10.0,,NNW,19.6,340.0,33010.0
Miami,Clear,1970-01-31 08:00:00,39.9,,-,55.0,,30.22,,Florida,55.9,,,,3:00 AM,,,,,,10.0,,NNW,16.1,340.0,33010.0
Miami,Clear,1970-01-31 09:00:00,37.0,,-,53.0,,30.24,,Florida,54.0,,,,4:00 AM,,,,,,10.0,,NNW,17.3,340.0,33010.0
Miami,Clear,1970-01-31 10:00:00,34.0,,-,50.0,,30.25,,Florida,52.0,,,,5:00 AM,,,,,,10.0,,North,19.6,350.0,33010.0
Miami,Clear,1970-01-31 11:00:00,36.0,,-,56.0,,30.27,,Florida,51.1,,,,6:00 AM,,,,,,10.0,,NNW,20.7,340.0,33010.0
Miami,Clear,1970-01-31 12:00:00,36.0,,-,59.0,,30.29,,Florida,50.0,,,,7:00 AM,,,,,,10.0,,NNW,18.4,340.0,33010.0
Miami,Clear,1970-01-31 13:00:00,37.9,,-,63.0,,30.3,,Florida,50.0,,,,8:00 AM,,,,,,10.0,,NNW,16.1,340.0,33010.0
Miami,Clear,1970-01-31 14:00:00,39.9,,-,61.0,,30.32,,Florida,53.1,,,,9:00 AM,,,,,,10.0,,North,15.0,350.0,33010.0
Miami,Clear,1970-01-31 15:00:00,45.0,,-,57.0,,30.33,,Florida,60.1,,,,10:00 AM,,,,,,10.0,,North,15.0,360.0,33010.0
Miami,Clear,1970-01-31 16:00:00,48.0,,-,54.0,,30.33,,Florida,64.9,,,,11:00 AM,,,,,,10.0,,NNE,15.0,30.0,33010.0
Miami,Unknown,1970-01-31 17:00:00,48.9,,-,50.0,,30.32,,Florida,68.0,,,,12:00 PM,,,,,,10.0,,North,18.4,10.0,33010.0
Miami,Unknown,1970-01-31 18:00:00,46.9,,-,44.0,,30.29,,Florida,70.0,,,,1:00 PM,,,,,,10.0,,NE,16.1,40.0,33010.0
Miami,Unknown,1970-01-31 19:00:00,46.9,,-,45.0,,30.27,,Florida,69.1,,,,2:00 PM,,,,,,10.0,,ENE,25.3,60.0,33010.0
Miami,Unknown,1970-01-31 20:00:00,48.0,,-,44.0,,30.26,,Florida,71.1,,,,3:00 PM,,,,,,10.0,,ENE,19.6,70.0,33010.0
Miami,Unknown,1970-01-31 21:00:00,48.0,,-,47.0,,30.27,,Florida,69.1,,,,4:00 PM,,,,,,10.0,,NE,19.6,50.0,33010.0
Miami,Unknown,1970-01-31 22:00:00,48.0,,-,51.0,,30.28,,Florida,66.9,,,,5:00 PM,,,,,,10.0,,ENE,19.6,70.0,33010.0
Miami,Unknown,1970-01-31 23:00:00,45.0,,-,47.0,,30.3,,Florida,66.0,,,,6:00 PM,,,,,,10.0,,ENE,20.7,60.0,33010.0
Miami,Unknown,1970-02-01 00:00:00,45.0,,-,48.0,,30.31,,Florida,64.9,,,,7:00 PM,,,,,,10.0,,East,19.6,80.0,33010.0
Miami,Unknown,1970-02-01 01:00:00,43.0,,-,45.0,,30.33,,Florida,64.9,,,,8:00 PM,,,,,,10.0,,ENE,18.4,60.0,33010.0
Miami,Unknown,1970-02-01 02:00:00,42.1,,-,45.0,,30.33,,Florida,64.0,,,,9:00 PM,,,,,,10.0,,ENE,12.7,70.0,33010.0
Miami,Unknown,1970-02-01 03:00:00,44.1,,-,48.0,,30.32,,Florida,64.0,,,,10:00 PM,,,,,,10.0,,ENE,17.3,70.0,33010.0
Miami,Unknown,1970-02-01 04:00:00,44.1,,-,48.0,,30.32,,Florida,64.0,,,,11:00 PM,,,,,,10.0,,East,12.7,80.0,33010.0
Minneapolis,Light Snow,1970-01-01 06:00:00,19.9,Fog-Snow,-,92.0,,30.08,,Minnesota,21.9,,,12:00 AM,,,,,,,2.8,,ESE,6.9,120.0,55401.0
Minneapolis,Light Snow,1970-01-01 07:00:00,19.9,Fog-Snow,-,92.0,,30.07,,Minnesota,21.9,,,1:00 AM,,,,,,,10.5,,ESE,6.9,120.0,55401.0
Minneapolis,Light Snow,1970-01-01 08:00:00,19.0,Fog-Snow,-,92.0,0.01,30.07,,Minnesota,21.0,,,2:00 AM,,,,,,,6.0,,ESE,3.5,110.0,55401.0
Minneapolis,Light Snow,1970-01-01 09:00:00,19.0,Fog-Snow,-,92.0,,30.07,,Minnesota,21.0,,,3:00 AM,,,,,,,4.0,,ESE,6.9,120.0,55401.0
Minneapolis,Light Snow,1970-01-01 10:00:00,19.0,Fog-Snow,-,92.0,,30.06,,Minnesota,21.0,,,4:00 AM,,,,,,,5.0,,ESE,8.1,120.0,55401.0
Minneapolis,Light Snow,1970-01-01 11:00:00,19.0,Fog-Snow,-,92.0,,30.04,,Minnesota,21.0,,,5:00 AM,,,,,,,4.0,,ESE,8.1,120.0,55401.0
Minneapolis,Light Snow,1970-01-01 12:00:00,19.0,Fog-Snow,-,92.0,,30.05,,Minnesota,21.0,,,6:00 AM,,,,,,,4.0,,SE,6.9,130.0,55401.0
Minneapolis,Light Snow,1970-01-01 13:00:00,18.0,Snow,-,92.0,,30.05,,Minnesota,19.9,,,7:00 AM,,,,,,,7.0,,Calm,Calm,0.0,55401.0
Minneapolis,Freezing Rain,1970-01-01 14:00:00,17.1,,-,92.0,,30.06,,Minnesota,19.0,,,8:00 AM,,,,,,,6.0,,ESE,6.9,120.0,55401.0
Minneapolis,Freezing Rain,1970-01-01 15:00:00,17.1,,-,92.0,,30.07,,Minnesota,19.0,,,9:00 AM,,,,,,,6.0,,SE,4.6,130.0,55401.0
Minneapolis,Freezing Rain,1970-01-01 16:00:00,16.0,,-,85.0,,30.07,,Minnesota,19.9,,,10:00 AM,,,,,,,6.0,,ENE,4.6,70.0,55401.0
Minneapolis,Freezing Rain,1970-01-01 17:00:00,18.0,,-,85.0,,30.07,,Minnesota,21.9,,,11:00 AM,,,,,,,6.0,,ENE,8.1,70.0,55401.0
Minneapolis,Freezing Rain,1970-01-01 18:00:00,17.1,,-,82.0,,30.06,,Minnesota,21.9,,,12:00 PM,,,,,,,6.0,,SE,5.8,140.0,55401.0
Minneapolis,Freezing Rain,1970-01-01 19:00:00,17.1,,-,75.0,,30.03,,Minnesota,24.1,,,1:00 PM,,,,,,,6.0,,Calm,Calm,0.0,55401.0
Minneapolis,Unknown,1970-01-01 20:00:00,17.1,,-,75.0,,30.03,,Minnesota,24.1,,,2:00 PM,,,,,,,7.0,,Calm,Calm,0.0,55401.0
Minneapolis,Unknown,1970-01-01 21:00:00,19.0,,-,81.0,,30.04,,Minnesota,24.1,,,3:00 PM,,,,,,,7.0,,Calm,Calm,0.0,55401.0
Minneapolis,Unknown,1970-01-01 22:00:00,18.0,,-,81.0,,30.05,,Minnesota,23.0,,,4:00 PM,,,,,,,7.0,,Calm,Calm,0.0,55401.0
Minneapolis,Unknown,1970-01-01 23:00:00,18.0,,-,85.0,,30.06,,Minnesota,21.9,,,5:00 PM,,,,,,,10.0,,Calm,Calm,0.0,55401.0
Minneapolis,Light Snow,1970-01-02 00:00:00,19.0,Snow,-,89.0,,30.07,,Minnesota,21.9,,,6:00 PM,,,,,,,10.0,,SW,5.8,230.0,55401.0
Minneapolis,Light Snow,1970-01-02 01:00:00,17.1,Snow,-,92.0,,30.08,,Minnesota,19.0,,,7:00 PM,,,,,,,8.0,,WSW,6.9,250.0,55401.0
Minneapolis,Light Snow,1970-01-02 02:00:00,19.0,Fog-Snow,-,92.0,,30.08,,Minnesota,21.0,,,8:00 PM,,,,,,,6.0,,WNW,5.8,290.0,55401.0
Minneapolis,Fog,1970-01-02 03:00:00,17.1,Fog,-,92.0,,30.06,,Minnesota,19.0,,,9:00 PM,,,,,,,5.0,,West,5.8,280.0,55401.0
Minneapolis,Light Snow,1970-01-02 04:00:00,12.9,Fog-Snow,-,91.0,,30.08,,Minnesota,15.1,,,10:00 PM,,,,,,,4.0,,NNW,5.8,330.0,55401.0
Minneapolis,Light Snow,1970-01-02 05:00:00,16.0,Fog-Snow,-,92.0,,30.08,,Minnesota,18.0,,,11:00 PM,,,,,,,3.0,,WNW,5.8,290.0,55401.0
Minneapolis,Clear,1970-01-03 06:00:00,-7.1,,-,95.0,,30.07,,Minnesota,-6.0,,,12:00 AM,,,,,,,7.0,,SSW,5.8,210.0,55401.0
Minneapolis,Clear,1970-01-03 07:00:00,-7.1,,-,87.0,,30.07,,Minnesota,-4.0,,,1:00 AM,,,,,,,8.0,,WSW,8.1,240.0,55401.0
Minneapolis,Clear,1970-01-03 08:00:00,-8.0,,-,87.0,,30.08,,Minnesota,-5.1,,,2:00 AM,,,,,,,8.0,,SW,5.8,230.0,55401.0
Minneapolis,Ice Crystals,1970-01-03 09:00:00,-9.9,,-,87.0,,30.08,,Minnesota,-7.1,,,3:00 AM,,,,,,,6.0,,WSW,5.8,250.0,55401.0
Minneapolis,Ice Crystals,1970-01-03 10:00:00,-11.0,,-,83.0,,30.08,,Minnesota,-7.1,,,4:00 AM,,,,,,,5.5,,WSW,6.9,240.0,55401.0
Minneapolis,Ice Crystals,1970-01-03 11:00:00,-15.0,,-,71.0,,30.07,,Minnesota,-8.0,,,5:00 AM,,,,,,,6.0,,SW,6.9,230.0,55401.0
Minneapolis,Light Snow,1970-01-03 12:00:00,-11.0,Snow,-,68.0,,30.06,,Minnesota,-2.9,,,6:00 AM,,,,,,,7.0,,West,4.6,260.0,55401.0
Minneapolis,Light Snow,1970-01-03 13:00:00,-9.0,Snow,-,69.0,,30.08,,Minnesota,-0.9,,,7:00 AM,,,,,,,8.0,,West,4.6,270.0,55401.0
Minneapolis,Light Snow,1970-01-03 14:00:00,-8.0,Snow,-,72.0,,30.08,,Minnesota,-0.9,,,8:00 AM,,,,,,,5.0,,West,2.3,260.0,55401.0
Minneapolis,Light Snow,1970-01-03 15:00:00,-7.1,Snow,-,72.0,,30.07,,Minnesota,-0.0,,,9:00 AM,,,,,,,5.0,,Calm,Calm,0.0,55401.0
Minneapolis,Ice Crystals,1970-01-03 16:00:00,-2.9,,-,80.0,,30.07,,Minnesota,1.9,,,10:00 AM,,,,,,,3.0,,WSW,4.6,240.0,55401.0
Minneapolis,Ice Crystals,1970-01-03 17:00:00,-0.0,,-,76.0,,30.06,,Minnesota,6.1,,,11:00 AM,,,,,,,6.0,,WSW,8.1,250.0,55401.0
Minneapolis,Ice Crystals,1970-01-03 18:00:00,1.9,,-,76.0,,30.04,,Minnesota,8.1,,,12:00 PM,,,,,,,7.0,,SW,8.1,230.0,55401.0
Minneapolis,Ice Crystals,1970-01-03 19:00:00,3.0,,-,77.0,,30.02,,Minnesota,9.0,,,1:00 PM,,,,,,,7.0,,SW,9.2,220.0,55401.0
Minneapolis,Unknown,1970-01-03 20:00:00,1.9,,-,73.0,,30.01,,Minnesota,9.0,,,2:00 PM,,,,,,,7.0,,SW,10.4,230.0,55401.0
Minneapolis,Freezing Rain,1970-01-03 21:00:00,1.9,,-,70.0,,30.01,,Minnesota,10.0,,,3:00 PM,,,,,,,6.0,,SW,9.2,220.0,55401.0
Minneapolis,Freezing Rain,1970-01-03 22:00:00,-0.0,,-,70.0,,30.01,,Minnesota,8.1,,,4:00 PM,,,,,,,6.0,,WSW,6.9,240.0,55401.0
Minneapolis,Light Snow,1970-01-03 23:00:00,-2.0,Snow,-,69.0,,30.0,,Minnesota,6.1,,,5:00 PM,,,,,,,8.0,,South,4.6,180.0,55401.0
Minneapolis,Light Snow,1970-01-04 00:00:00,1.9,Snow,-,76.0,,29.99,,Minnesota,8.1,,,6:00 PM,,,,,,,7.0,,South,6.9,180.0,55401.0
Minneapolis,Light Snow,1970-01-04 01:00:00,1.0,Snow,-,77.0,,29.99,,Minnesota,7.0,,,7:00 PM,,,,,,,7.0,,South,5.8,180.0,55401.0
Minneapolis,Light Snow,1970-01-04 02:00:00,-0.0,Snow,-,73.0,,29.98,,Minnesota,7.0,,,8:00 PM,,,,,,,7.0,,SSW,9.2,200.0,55401.0
Minneapolis,Light Snow,1970-01-04 03:00:00,1.0,Snow,-,77.0,,29.98,,Minnesota,7.0,,,9:00 PM,,,,,,,8.0,,South,6.9,180.0,55401.0
Minneapolis,Light Snow,1970-01-04 04:00:00,-0.0,Snow,-,76.0,,29.95,,Minnesota,6.1,,,10:00 PM,,,,,,,10.0,,SSE,5.8,150.0,55401.0
Minneapolis,Light Snow,1970-01-04 05:00:00,-0.0,Snow,-,76.0,,29.93,,Minnesota,6.1,,,11:00 PM,,,,,,,7.0,,SSE,6.9,150.0,55401.0
Minneapolis,Light Snow,1970-01-04 06:00:00,1.0,Snow,-,77.0,,29.93,,Minnesota,7.0,,,12:00 AM,,,,,,,5.0,,SSE,6.9,150.0,55401.0
Minneapolis,Light Snow,1970-01-04 07:00:00,1.9,Snow,-,76.0,,29.9,,Minnesota,8.1,,,1:00 AM,,,,,,,10.5,,SSE,6.9,160.0,55401.0
Minneapolis,Light Snow,1970-01-04 08:00:00,3.0,Snow,-,77.0,,29.89,,Minnesota,9.0,,,2:00 AM,,,,,,,10.5,,SE,5.8,140.0,55401.0
Minneapolis,Light Snow,1970-01-04 09:00:00,5.0,Snow,-,80.0,0.01,29.89,,Minnesota,10.0,,,3:00 AM,,,,,,,10.5,,SE,5.8,130.0,55401.0
Minneapolis,Light Snow,1970-01-04 10:00:00,6.1,Snow,-,81.0,0.01,29.88,,Minnesota,10.9,,,4:00 AM,,,,,,,10.5,,ESE,3.5,110.0,55401.0
Minneapolis,Light Snow,1970-01-04 11:00:00,8.1,Snow,-,88.0,,29.87,,Minnesota,10.9,,,5:00 AM,,,,,,,10.5,,Calm,Calm,0.0,55401.0
Minneapolis,Light Snow,1970-01-04 12:00:00,9.0,Snow,-,88.0,,29.89,,Minnesota,12.0,,,6:00 AM,,,,,,,10.5,,West,8.1,280.0,55401.0
Minneapolis,Light Snow,1970-01-04 13:00:00,3.9,Snow,-,80.0,,29.95,,Minnesota,9.0,,,7:00 AM,,,,,,,8.0,,NW,11.5,310.0,55401.0
Minneapolis,Light Snow,1970-01-04 14:00:00,3.0,Snow,-,84.0,,29.98,,Minnesota,7.0,,,8:00 AM,,,,,,,10.5,,NW,11.5,310.0,55401.0
Minneapolis,Freezing Rain,1970-01-04 15:00:00,1.9,,-,83.0,,30.01,,Minnesota,6.1,,,9:00 AM,,,,,,,5.0,,NW,8.1,310.0,55401.0
Minneapolis,Unknown,1970-01-04 16:00:00,1.9,,-,76.0,,30.03,,Minnesota,8.1,,,10:00 AM,,,,,,,8.0,,NW,11.5,320.0,55401.0
Minneapolis,Clear,1970-01-04 17:00:00,1.9,,-,73.0,,30.05,,Minnesota,9.0,,,11:00 AM,,,,,,,10.0,,NW,12.7,320.0,55401.0
Minneapolis,Clear,1970-01-04 18:00:00,1.9,,-,67.0,,30.06,,Minnesota,10.9,,,12:00 PM,,,,,,,10.0,,WNW,8.1,290.0,55401.0
Minneapolis,Clear,1970-01-04 19:00:00,1.0,,-,73.0,,30.07,,Minnesota,8.1,,,1:00 PM,,,,,,,15.0,,West,12.7,260.0,55401.0
Minneapolis,Clear,1970-01-04 20:00:00,-0.0,,-,73.0,,30.09,,Minnesota,7.0,,,2:00 PM,,,,,,,15.0,,West,12.7,270.0,55401.0
Minneapolis,Clear,1970-01-04 21:00:00,-2.0,,-,67.0,,30.11,,Minnesota,7.0,,,3:00 PM,,,,,,,15.0,,West,10.4,280.0,55401.0
Minneapolis,Clear,1970-01-04 22:00:00,-5.1,,-,63.0,,30.14,,Minnesota,5.0,,,4:00 PM,,,,,,,15.0,,West,11.5,260.0,55401.0
Minneapolis,Clear,1970-01-04 23:00:00,-9.0,,-,66.0,,30.16,,Minnesota,-0.0,,,5:00 PM,,,,,,,15.0,,West,9.2,260.0,55401.0
Minneapolis,Unknown,1970-01-05 00:00:00,-13.0,,-,65.0,,30.19,,Minnesota,-4.0,,,6:00 PM,,,,,,,15.0,,West,9.2,260.0,55401.0
Minneapolis,Unknown,1970-01-05 01:00:00,-13.0,,-,62.0,,30.23,,Minnesota,-2.9,,,7:00 PM,,,,,,,15.0,,WSW,8.1,240.0,55401.0
Minneapolis,Unknown,1970-01-05 02:00:00,-11.9,,-,63.0,,30.24,,Minnesota,-2.0,,,8:00 PM,,,,,,,15.0,,West,9.2,280.0,55401.0
Minneapolis,Unknown,1970-01-05 03:00:00,-16.1,,-,71.0,,30.26,,Minnesota,-9.0,,,9:00 PM,,,,,,,15.0,,WSW,8.1,250.0,55401.0
Minneapolis,Unknown,1970-01-05 04:00:00,-15.0,,-,68.0,,30.27,,Minnesota,-7.1,,,10:00 PM,,,,,,,15.0,,WNW,9.2,290.0,55401.0
Minneapolis,Unknown,1970-01-05 05:00:00,-18.9,,-,65.0,,30.3,,Minnesota,-9.9,,,11:00 PM,,,,,,,15.0,,WSW,8.1,240.0,55401.0
Minneapolis,Clear,1970-01-05 06:00:00,-23.1,,-,67.0,,30.31,,Minnesota,-15.0,,,12:00 AM,,,,,,,15.0,,SSW,4.6,200.0,55401.0
Minneapolis,Ice Crystals,1970-01-05 07:00:00,-20.0,,-,67.0,,30.32,,Minnesota,-11.9,,,1:00 AM,,,,,,,7.0,,SW,8.1,230.0,55401.0
Minneapolis,Ice Crystals,1970-01-05 08:00:00,-20.0,,-,67.0,,30.34,,Minnesota,-11.9,,,2:00 AM,,,,,,,1.0,,West,5.8,270.0,55401.0
Minneapolis,Ice Crystals,1970-01-05 09:00:00,-20.0,,-,71.0,,30.35,,Minnesota,-13.0,,,3:00 AM,,,,,,,15.0,,WSW,6.9,240.0,55401.0
Minneapolis,Ice Crystals,1970-01-05 10:00:00,-20.0,,-,75.0,,30.35,,Minnesota,-14.1,,,4:00 AM,,,,,,,8.0,,West,6.9,260.0,55401.0
Minneapolis,Ice Crystals,1970-01-05 11:00:00,-20.9,,-,71.0,,30.34,,Minnesota,-14.1,,,5:00 AM,,,,,,,10.0,,West,8.1,260.0,55401.0
Minneapolis,Ice Crystals,1970-01-05 12:00:00,-20.9,,-,71.0,,30.35,,Minnesota,-14.1,,,6:00 AM,,,,,,,5.5,,WSW,6.9,250.0,55401.0
Minneapolis,Ice Crystals,1970-01-05 13:00:00,-20.9,Fog,-,68.0,,30.38,,Minnesota,-13.0,,,7:00 AM,,,,,,,1.0,,WSW,5.8,250.0,55401.0
Minneapolis,Ice Crystals,1970-01-05 14:00:00,-20.9,,-,68.0,,30.39,,Minnesota,-13.0,,,8:00 AM,,,,,,,1.0,,West,8.1,260.0,55401.0
Minneapolis,Freezing Rain,1970-01-05 15:00:00,-18.9,,-,71.0,,30.4,,Minnesota,-11.9,,,9:00 AM,,,,,,,4.0,,West,6.9,270.0,55401.0
Minneapolis,Clear,1970-01-05 16:00:00,-16.1,,-,71.0,,30.4,,Minnesota,-9.0,,,10:00 AM,,,,,,,10.0,,West,9.2,260.0,55401.0
Minneapolis,Clear,1970-01-05 17:00:00,-16.1,,-,68.0,,30.43,,Minnesota,-8.0,,,11:00 AM,,,,,,,10.0,,West,10.4,260.0,55401.0
Minneapolis,Clear,1970-01-05 18:00:00,-13.0,,-,62.0,,30.4,,Minnesota,-2.9,,,12:00 PM,,,,,,,15.0,,WNW,11.5,290.0,55401.0
Minneapolis,Clear,1970-01-05 19:00:00,-13.0,,-,60.0,,30.39,,Minnesota,-2.0,,,1:00 PM,,,,,,,15.0,,West,11.5,260.0,55401.0
Minneapolis,Clear,1970-01-05 20:00:00,-11.9,,-,60.0,,30.39,,Minnesota,-0.9,,,2:00 PM,,,,,,,15.0,,West,12.7,260.0,55401.0
Minneapolis,Unknown,1970-01-05 21:00:00,-11.9,,-,60.0,,30.4,,Minnesota,-0.9,,,3:00 PM,,,,,,,15.0,,WSW,11.5,250.0,55401.0
Minneapolis,Clear,1970-01-05 22:00:00,-13.0,,-,62.0,,30.4,,Minnesota,-2.9,,,4:00 PM,,,,,,,15.0,,West,11.5,260.0,55401.0
Minneapolis,Clear,1970-01-05 23:00:00,-14.1,,-,62.0,,30.4,,Minnesota,-4.0,,,5:00 PM,,,,,,,15.0,,WSW,10.4,250.0,55401.0
Minneapolis,Clear,1970-01-06 00:00:00,-15.0,,-,62.0,,30.4,,Minnesota,-5.1,,,6:00 PM,,,,,,,15.0,,West,10.4,260.0,55401.0
Minneapolis,Clear,1970-01-06 01:00:00,-15.0,,-,65.0,,30.42,,Minnesota,-6.0,,,7:00 PM,,,,,,,15.0,,West,10.4,260.0,55401.0
Minneapolis,Clear,1970-01-06 02:00:00,-16.1,,-,68.0,,30.42,,Minnesota,-8.0,,,8:00 PM,,,,,,,15.0,,WSW,9.2,250.0,55401.0
Minneapolis,Clear,1970-01-06 03:00:00,-15.0,,-,68.0,,30.4,,Minnesota,-7.1,,,9:00 PM,,,,,,,15.0,,West,10.4,260.0,55401.0
Minneapolis,Clear,1970-01-06 04:00:00,-15.0,,-,75.0,,30.4,,Minnesota,-9.0,,,10:00 PM,,,,,,,15.0,,West,9.2,260.0,55401.0
Minneapolis,Clear,1970-01-06 05:00:00,-17.0,,-,71.0,,30.4,,Minnesota,-9.9,,,11:00 PM,,,,,,,15.0,,WSW,8.1,250.0,55401.0
Minneapolis,Clear,1970-01-06 06:00:00,-17.0,,-,75.0,,30.4,,Minnesota,-11.0,,,12:00 AM,,,,,,,15.0,,WSW,8.1,240.0,55401.0
Minneapolis,Clear,1970-01-06 07:00:00,-20.9,,-,68.0,,30.39,,Minnesota,-13.0,,,1:00 AM,,,,,,,15.0,,South,4.6,190.0,55401.0
Minneapolis,Ice Crystals,1970-01-06 08:00:00,-18.0,Fog,-,78.0,,30.4,,Minnesota,-13.0,,,2:00 AM,,,,,,,2.0,,WSW,3.5,250.0,55401.0
Minneapolis,Clear,1970-01-06 09:00:00,-20.0,,-,82.0,,30.4,,Minnesota,-16.1,,,3:00 AM,,,,,,,7.0,,SW,3.5,230.0,55401.0
Minneapolis,Clear,1970-01-06 10:00:00,-20.0,,-,82.0,,30.4,,Minnesota,-16.1,,,4:00 AM,,,,,,,7.0,,SW,4.6,230.0,55401.0
Minneapolis,Ice Crystals,1970-01-06 11:00:00,-24.0,Fog,-,70.0,,30.39,,Minnesota,-17.0,,,5:00 AM,,,,,,,6.0,,SSW,5.8,200.0,55401.0
Minneapolis,Ice Crystals,1970-01-06 12:00:00,-22.0,Fog,-,78.0,,30.39,,Minnesota,-17.0,,,6:00 AM,,,,,,,6.0,,SSW,4.6,200.0,55401.0
Minneapolis,Clear,1970-01-06 13:00:00,-22.0,,-,71.0,,30.39,,Minnesota,-15.0,,,7:00 AM,,,,,,,8.0,,Calm,Calm,0.0,55401.0
Minneapolis,Clear,1970-01-06 14:00:00,-23.1,,-,71.0,,30.39,,Minnesota,-16.1,,,8:00 AM,,,,,,,7.0,,SSW,3.5,210.0,55401.0
Minneapolis,Unknown,1970-01-06 15:00:00,-16.1,,-,78.0,,30.39,,Minnesota,-11.0,,,9:00 AM,,,,,,,10.0,,NW,6.9,320.0,55401.0
Minneapolis,Unknown,1970-01-06 16:00:00,-15.0,,-,65.0,,30.37,,Minnesota,-6.0,,,10:00 AM,,,,,,,15.0,,NW,11.5,310.0,55401.0
Minneapolis,Unknown,1970-01-06 17:00:00,-14.1,,-,62.0,,30.37,,Minnesota,-4.0,,,11:00 AM,,,,,,,15.0,,NW,11.5,310.0,55401.0
Minneapolis,Unknown,1970-01-06 18:00:00,-13.0,,-,62.0,,30.35,,Minnesota,-2.9,,,12:00 PM,,,,,,,15.0,,NW,10.4,310.0,55401.0
Minneapolis,Unknown,1970-01-06 19:00:00,-13.0,,-,57.0,,30.32,,Minnesota,-0.9,,,1:00 PM,,,,,,,15.0,,NW,12.7,320.0,55401.0
Minneapolis,Unknown,1970-01-06 20:00:00,-13.0,,-,57.0,,30.31,,Minnesota,-0.9,,,2:00 PM,,,,,,,15.0,,NW,13.8,320.0,55401.0
Minneapolis,Unknown,1970-01-06 21:00:00,-13.0,,-,57.0,,30.31,,Minnesota,-0.9,,,3:00 PM,,,,,,,15.0,,WNW,15.0,300.0,55401.0
Minneapolis,Light Snow,1970-01-06 22:00:00,-13.0,Snow,-,57.0,,30.32,,Minnesota,-0.9,,,4:00 PM,,,,,,,15.0,,NW,9.2,310.0,55401.0
Minneapolis,Unknown,1970-01-06 23:00:00,-14.1,,-,59.0,,30.31,,Minnesota,-2.9,,,5:00 PM,,,,,,,15.0,,WNW,12.7,300.0,55401.0
Minneapolis,Light Snow,1970-01-07 00:00:00,-13.0,Snow,-,62.0,,30.31,,Minnesota,-2.9,,,6:00 PM,,,,,,,15.0,,NW,9.2,320.0,55401.0
Minneapolis,Light Snow,1970-01-07 01:00:00,-11.9,Snow,-,63.0,,30.3,,Minnesota,-2.0,,,7:00 PM,,,,,,,15.0,,NW,11.5,310.0,55401.0
Minneapolis,Light Snow,1970-01-07 02:00:00,-11.0,Snow,-,66.0,,30.29,,Minnesota,-2.0,,,8:00 PM,,,,,,,15.0,,NW,11.5,310.0,55401.0
Minneapolis,Light Snow,1970-01-07 03:00:00,-9.9,Snow,-,69.0,,30.28,,Minnesota,-2.0,,,9:00 PM,,,,,,,15.0,,NW,12.7,320.0,55401.0
Minneapolis,Light Snow,1970-01-07 04:00:00,-11.0,Snow,-,62.0,,30.28,,Minnesota,-0.9,,,10:00 PM,,,,,,,15.0,,NNW,11.5,330.0,55401.0
Minneapolis,Unknown,1970-01-07 05:00:00,-15.0,,-,62.0,,30.27,,Minnesota,-5.1,,,11:00 PM,,,,,,,15.0,,NW,15.0,320.0,55401.0
Minneapolis,Unknown,1970-01-07 06:00:00,-15.0,,-,68.0,,30.27,,Minnesota,-7.1,,,12:00 AM,,,,,,,15.0,,NNW,15.0,330.0,55401.0
Minneapolis,Unknown,1970-01-07 07:00:00,-15.0,,-,68.0,,30.27,,Minnesota,-7.1,,,1:00 AM,,,,,,,15.0,,NNW,13.8,330.0,55401.0
Minneapolis,Clear,1970-01-07 08:00:00,-15.0,,-,68.0,,30.26,,Minnesota,-7.1,,,2:00 AM,,,,,,,15.0,,NW,15.0,320.0,55401.0
Minneapolis,Clear,1970-01-07 09:00:00,-18.0,,-,61.0,,30.27,,Minnesota,-8.0,,,3:00 AM,,,,,,,15.0,,NW,13.8,320.0,55401.0
Minneapolis,Clear,1970-01-07 10:00:00,-20.0,,-,64.0,,30.26,,Minnesota,-11.0,,,4:00 AM,,,,,,,15.0,,NNW,15.0,330.0,55401.0
Minneapolis,Clear,1970-01-07 11:00:00,-20.9,,-,68.0,,30.24,,Minnesota,-13.0,,,5:00 AM,,,,,,,15.0,,NNW,15.0,330.0,55401.0
Minneapolis,Clear,1970-01-07 12:00:00,-20.9,,-,71.0,,30.24,,Minnesota,-14.1,,,6:00 AM,,,,,,,15.0,,NNW,13.8,330.0,55401.0
Minneapolis,Clear,1970-01-07 13:00:00,-22.0,,-,68.0,,30.25,,Minnesota,-14.1,,,7:00 AM,,,,,,,15.0,,NNW,13.8,330.0,55401.0
Minneapolis,Unknown,1970-01-07 14:00:00,-22.0,,-,68.0,,30.26,,Minnesota,-14.1,,,8:00 AM,,,,,,,15.0,,NNW,15.0,330.0,55401.0
Minneapolis,Light Snow,1970-01-07 15:00:00,-22.0,Snow,-,64.0,,30.28,,Minnesota,-13.0,,,9:00 AM,,,,,,,10.0,,NNW,16.1,330.0,55401.0
Minneapolis,Ice Crystals,1970-01-07 16:00:00,-20.0,,-,61.0,,30.28,,Minnesota,-9.9,,,10:00 AM,,,,,,,15.0,,NNW,17.3,340.0,55401.0
Minneapolis,Light Snow,1970-01-07 17:00:00,-18.9,Snow,-,59.0,,30.28,,Minnesota,-8.0,,,11:00 AM,,,,,,,10.0,,NNW,12.7,340.0,55401.0
Minneapolis,Unknown,1970-01-07 18:00:00,-18.0,,-,59.0,,30.26,,Minnesota,-7.1,,,12:00 PM,,,,,,,15.0,,NNW,15.0,330.0,55401.0
Minneapolis,Ice Crystals,1970-01-07 19:00:00,-17.0,,-,57.0,,30.25,,Minnesota,-5.1,,,1:00 PM,,,,,,,15.0,,NNW,13.8,330.0,55401.0
Minneapolis,Unknown,1970-01-07 20:00:00,-17.0,,-,54.0,,30.25,,Minnesota,-4.0,,,2:00 PM,,,,,,,15.0,,NW,13.8,320.0,55401.0
Minneapolis,Unknown,1970-01-07 21:00:00,-16.1,,-,56.0,,30.27,,Minnesota,-4.0,,,3:00 PM,,,,,,,15.0,,NNW,15.0,330.0,55401.0
Minneapolis,Unknown,1970-01-07 22:00:00,-17.0,,-,57.0,,30.28,,Minnesota,-5.1,,,4:00 PM,,,,,,,15.0,,NW,12.7,320.0,55401.0
Minneapolis,Unknown,1970-01-07 23:00:00,-18.0,,-,56.0,,30.29,,Minnesota,-6.0,,,5:00 PM,,,,,,,15.0,,NW,16.1,320.0,55401.0
Minneapolis,Unknown,1970-01-08 00:00:00,-18.9,,-,56.0,,30.3,,Minnesota,-7.1,,,6:00 PM,,,,,,,15.0,,NW,16.1,310.0,55401.0
Minneapolis,Unknown,1970-01-08 01:00:00,-20.0,,-,56.0,,30.3,,Minnesota,-8.0,,,7:00 PM,,,,,,,15.0,,NW,16.1,310.0,55401.0
Minneapolis,Unknown,1970-01-08 02:00:00,-20.0,,-,61.0,,30.3,,Minnesota,-9.9,,,8:00 PM,,,,,,,15.0,,NW,12.7,320.0,55401.0
Minneapolis,Unknown,1970-01-08 03:00:00,-22.0,,-,61.0,,30.31,,Minnesota,-11.9,,,9:00 PM,,,,,,,15.0,,NW,12.7,320.0,55401.0
Minneapolis,Unknown,1970-01-08 04:00:00,-23.1,,-,61.0,,30.31,,Minnesota,-13.0,,,10:00 PM,,,,,,,15.0,,NW,12.7,320.0,55401.0
Minneapolis,Unknown,1970-01-08 05:00:00,-23.1,,-,64.0,,30.31,,Minnesota,-14.1,,,11:00 PM,,,,,,,15.0,,NW,11.5,320.0,55401.0
Minneapolis,Unknown,1970-01-08 06:00:00,-24.0,,-,61.0,,30.32,,Minnesota,-14.1,,,12:00 AM,,,,,,,15.0,,NW,12.7,320.0,55401.0
Minneapolis,Clear,1970-01-08 07:00:00,-23.1,,-,64.0,,30.34,,Minnesota,-14.1,,,1:00 AM,,,,,,,15.0,,NW,13.8,310.0,55401.0
Minneapolis,Clear,1970-01-08 08:00:00,-24.0,,-,64.0,,30.34,,Minnesota,-15.0,,,2:00 AM,,,,,,,15.0,,NW,13.8,310.0,55401.0
Minneapolis,Clear,1970-01-08 09:00:00,-24.0,,-,64.0,,30.34,,Minnesota,-15.0,,,3:00 AM,,,,,,,15.0,,NW,11.5,310.0,55401.0
Minneapolis,Clear,1970-01-08 10:00:00,-25.1,,-,64.0,,30.34,,Minnesota,-16.1,,,4:00 AM,,,,,,,15.0,,WNW,11.5,300.0,55401.0
Minneapolis,Clear,1970-01-08 11:00:00,-24.0,,-,67.0,,30.34,,Minnesota,-16.1,,,5:00 AM,,,,,,,15.0,,NW,9.2,310.0,55401.0
Minneapolis,Clear,1970-01-08 12:00:00,-24.0,,-,64.0,,30.34,,Minnesota,-15.0,,,6:00 AM,,,,,,,15.0,,WNW,13.8,300.0,55401.0
Minneapolis,Unknown,1970-01-08 13:00:00,-23.1,,-,64.0,,30.31,,Minnesota,-14.1,,,7:00 AM,,,,,,,15.0,,WNW,12.7,290.0,55401.0
Minneapolis,Unknown,1970-01-08 14:00:00,-20.9,,-,64.0,,30.31,,Minnesota,-11.9,,,8:00 AM,,,,,,,15.0,,WNW,11.5,300.0,55401.0
Minneapolis,Unknown,1970-01-08 15:00:00,-18.0,,-,61.0,,30.32,,Minnesota,-8.0,,,9:00 AM,,,,,,,15.0,,WNW,18.4,300.0,55401.0
Minneapolis,Unknown,1970-01-08 16:00:00,-17.0,,-,59.0,,30.31,,Minnesota,-6.0,,,10:00 AM,,,,,,,15.0,,WNW,15.0,300.0,55401.0
Minneapolis,Unknown,1970-01-08 17:00:00,-16.1,,-,56.0,,30.29,,Minnesota,-4.0,,,11:00 AM,,,,,,,15.0,,NW,17.3,310.0,55401.0
Minneapolis,Light Snow,1970-01-08 18:00:00,-13.0,Snow,-,57.0,,30.27,,Minnesota,-0.9,,,12:00 PM,,,,,,,3.0,,WNW,18.4,300.0,55401.0
Minneapolis,Light Snow,1970-01-08 19:00:00,-9.9,Snow,-,63.0,,30.25,,Minnesota,-0.0,,,1:00 PM,,,,,,,5.5,,NW,20.7,310.0,55401.0
Minneapolis,Unknown,1970-01-08 20:00:00,-9.9,,-,60.0,,30.25,,Minnesota,1.0,,,2:00 PM,,,,,,,15.0,,NW,18.4,310.0,55401.0
Minneapolis,Unknown,1970-01-08 21:00:00,-11.0,,-,60.0,,30.25,,Minnesota,-0.0,,,3:00 PM,,,,,,,15.0,,WNW,15.0,300.0,55401.0
Minneapolis,Unknown,1970-01-08 22:00:00,-9.9,,-,60.0,,30.27,,Minnesota,1.0,,,4:00 PM,,,,,,,15.0,,WNW,13.8,300.0,55401.0
Minneapolis,Unknown,1970-01-08 23:00:00,-9.9,,-,60.0,,30.27,,Minnesota,1.0,,,5:00 PM,,,,,,,15.0,,WNW,15.0,300.0,55401.0
Minneapolis,Light Snow Showers,1970-01-09 00:00:00,-8.0,Snow,-,63.0,,30.27,,Minnesota,1.9,,,6:00 PM,,,,,,,10.5,,WNW,16.1,290.0,55401.0
Minneapolis,Light Snow Showers,1970-01-09 01:00:00,-7.1,Snow,-,66.0,,30.27,,Minnesota,1.9,,,7:00 PM,,,,,,,7.0,,WNW,16.1,300.0,55401.0
Minneapolis,Light Snow Showers,1970-01-09 02:00:00,-7.1,Snow,-,63.0,,30.27,,Minnesota,3.0,,,8:00 PM,,,,,,,6.0,,WNW,15.0,300.0,55401.0
Minneapolis,Light Snow,1970-01-09 03:00:00,-5.1,Snow,-,69.0,,30.28,,Minnesota,3.0,,,9:00 PM,,,,,,,6.0,,NW,17.3,310.0,55401.0
Minneapolis,Light Snow,1970-01-09 04:00:00,-6.0,Snow,-,66.0,,30.27,,Minnesota,3.0,,,10:00 PM,,,,,,,7.0,,NW,18.4,320.0,55401.0
Minneapolis,Unknown,1970-01-09 05:00:00,-7.1,,-,63.0,,30.27,,Minnesota,3.0,,,11:00 PM,,,,,,,10.0,,NW,18.4,320.0,55401.0
Minneapolis,Unknown,1970-01-09 06:00:00,-8.0,,-,63.0,,30.3,,Minnesota,1.9,,,12:00 AM,,,,,,,15.0,,NW,17.3,320.0,55401.0
Minneapolis,Unknown,1970-01-09 07:00:00,-8.0,,-,63.0,,30.32,,Minnesota,1.9,,,1:00 AM,,,,,,,15.0,,NNW,17.3,330.0,55401.0
Minneapolis,Clear,1970-01-09 08:00:00,-8.0,,-,66.0,,30.33,,Minnesota,1.0,,,2:00 AM,,,,,,,15.0,,WNW,17.3,300.0,55401.0
Minneapolis,Clear,1970-01-09 09:00:00,-9.0,,-,63.0,,30.35,,Minnesota,1.0,,,3:00 AM,,,,,,,15.0,,NW,15.0,320.0,55401.0
Minneapolis,Clear,1970-01-09 10:00:00,-9.0,,-,66.0,,30.35,,Minnesota,-0.0,,,4:00 AM,,,,,,,15.0,,NW,11.5,310.0,55401.0
Minneapolis,Clear,1970-01-09 11:00:00,-9.0,,-,66.0,,30.35,,Minnesota,-0.0,,,5:00 AM,,,,,,,15.0,,NW,16.1,310.0,55401.0
Minneapolis,Clear,1970-01-09 12:00:00,-9.9,,-,66.0,,30.38,,Minnesota,-0.9,,,6:00 AM,,,,,,,15.0,,WNW,13.8,300.0,55401.0
Minneapolis,Clear,1970-01-09 13:00:00,-11.0,,-,66.0,,30.38,,Minnesota,-2.0,,,7:00 AM,,,,,,,15.0,,NW,11.5,320.0,55401.0
Minneapolis,Clear,1970-01-09 14:00:00,-11.0,,-,68.0,,30.41,,Minnesota,-2.9,,,8:00 AM,,,,,,,15.0,,WNW,10.4,300.0,55401.0
Minneapolis,Clear,1970-01-09 15:00:00,-11.0,,-,62.0,,30.42,,Minnesota,-0.9,,,9:00 AM,,,,,,,15.0,,NW,11.5,320.0,55401.0
Minneapolis,Clear,1970-01-09 16:00:00,-9.9,,-,60.0,,30.43,,Minnesota,1.0,,,10:00 AM,,,,,,,15.0,,NNW,9.2,340.0,55401.0
Minneapolis,Clear,1970-01-09 17:00:00,-8.0,,-,60.0,,30.45,,Minnesota,3.0,,,11:00 AM,,,,,,,10.0,,NW,8.1,310.0,55401.0
Minneapolis,Clear,1970-01-09 18:00:00,-7.1,,-,60.0,,30.43,,Minnesota,3.9,,,12:00 PM,,,,,,,10.0,,WNW,9.2,300.0,55401.0
Minneapolis,Clear,1970-01-09 19:00:00,-6.0,,-,61.0,,30.43,,Minnesota,5.0,,,1:00 PM,,,,,,,15.0,,WNW,9.2,300.0,55401.0
Minneapolis,Clear,1970-01-09 20:00:00,-5.1,,-,60.0,,30.43,,Minnesota,6.1,,,2:00 PM,,,,,,,15.0,,WSW,9.2,250.0,55401.0
Minneapolis,Clear,1970-01-09 21:00:00,-7.1,,-,58.0,,30.42,,Minnesota,5.0,,,3:00 PM,,,,,,,15.0,,WSW,9.2,250.0,55401.0
Minneapolis,Clear,1970-01-09 22:00:00,-8.0,,-,60.0,,30.41,,Minnesota,3.0,,,4:00 PM,,,,,,,15.0,,SW,6.9,220.0,55401.0
Minneapolis,Clear,1970-01-09 23:00:00,-9.9,,-,63.0,,30.41,,Minnesota,-0.0,,,5:00 PM,,,,,,,15.0,,SW,10.4,230.0,55401.0
Minneapolis,Clear,1970-01-10 00:00:00,-11.0,,-,62.0,,30.41,,Minnesota,-0.9,,,6:00 PM,,,,,,,15.0,,SW,4.6,220.0,55401.0
Minneapolis,Clear,1970-01-10 01:00:00,-13.0,,-,65.0,,30.42,,Minnesota,-4.0,,,7:00 PM,,,,,,,15.0,,SW,8.1,230.0,55401.0
Minneapolis,Clear,1970-01-10 02:00:00,-11.9,,-,69.0,,30.41,,Minnesota,-4.0,,,8:00 PM,,,,,,,15.0,,SW,4.6,220.0,55401.0
Minneapolis,Unknown,1970-01-10 03:00:00,-13.0,,-,72.0,,30.4,,Minnesota,-6.0,,,9:00 PM,,,,,,,15.0,,Calm,Calm,0.0,55401.0
Minneapolis,Unknown,1970-01-10 04:00:00,-14.1,,-,72.0,,30.38,,Minnesota,-7.1,,,10:00 PM,,,,,,,15.0,,South,4.6,170.0,55401.0
Minneapolis,Unknown,1970-01-10 05:00:00,-15.0,,-,71.0,,30.36,,Minnesota,-8.0,,,11:00 PM,,,,,,,15.0,,SSE,4.6,160.0,55401.0
Minneapolis,Unknown,1970-01-10 06:00:00,-15.0,,-,75.0,,30.34,,Minnesota,-9.0,,,12:00 AM,,,,,,,15.0,,South,3.5,190.0,55401.0
Minneapolis,Unknown,1970-01-10 07:00:00,-17.0,,-,71.0,,30.32,,Minnesota,-9.9,,,1:00 AM,,,,,,,15.0,,ESE,6.9,120.0,55401.0
Minneapolis,Unknown,1970-01-10 08:00:00,-17.0,,-,71.0,,30.32,,Minnesota,-9.9,,,2:00 AM,,,,,,,15.0,,SE,5.8,130.0,55401.0
Minneapolis,Unknown,1970-01-10 09:00:00,-17.0,,-,71.0,,30.33,,Minnesota,-9.9,,,3:00 AM,,,,,,,15.0,,ESE,6.9,110.0,55401.0
Minneapolis,Unknown,1970-01-10 10:00:00,-17.0,,-,71.0,,30.3,,Minnesota,-9.9,,,4:00 AM,,,,,,,15.0,,ESE,6.9,120.0,55401.0
Minneapolis,Fog,1970-01-10 11:00:00,-18.0,Fog,-,68.0,,30.27,,Minnesota,-9.9,,,5:00 AM,,,,,,,5.0,,SE,4.6,140.0,55401.0
Minneapolis,Fog,1970-01-10 12:00:00,-17.0,Fog,-,71.0,,30.24,,Minnesota,-9.9,,,6:00 AM,,,,,,,6.0,,SE,9.2,130.0,55401.0
Minneapolis,Unknown,1970-01-10 13:00:00,-13.0,,-,72.0,,30.2,,Minnesota,-6.0,,,7:00 AM,,,,,,,7.0,,ESE,9.2,120.0,55401.0
Minneapolis,Unknown,1970-01-10 14:00:00,-11.0,,-,68.0,,30.17,,Minnesota,-2.9,,,8:00 AM,,,,,,,7.0,,SE,11.5,140.0,55401.0
Minneapolis,Unknown,1970-01-10 15:00:00,-9.0,,-,69.0,,30.16,,Minnesota,-0.9,,,9:00 AM,,,,,,,10.0,,SE,10.4,140.0,55401.0
Minneapolis,Unknown,1970-01-10 16:00:00,-7.1,,-,66.0,,30.14,,Minnesota,1.9,,,10:00 AM,,,,,,,15.0,,SE,11.5,130.0,55401.0
Minneapolis,Unknown,1970-01-10 17:00:00,-5.1,,-,66.0,,30.12,,Minnesota,3.9,,,11:00 AM,,,,,,,15.0,,SE,8.1,130.0,55401.0
Minneapolis,Unknown,1970-01-10 18:00:00,-0.9,,-,67.0,,30.07,,Minnesota,8.1,,,12:00 PM,,,,,,,15.0,,SE,11.5,130.0,55401.0
Minneapolis,Unknown,1970-01-10 19:00:00,3.0,,-,67.0,,30.03,,Minnesota,12.0,,,1:00 PM,,,,,,,15.0,,SE,15.0,140.0,55401.0
Minneapolis,Unknown,1970-01-10 20:00:00,5.0,,-,71.0,,29.98,,Minnesota,12.9,,,2:00 PM,,,,,,,10.0,,SE,15.0,130.0,55401.0
Minneapolis,Unknown,1970-01-10 21:00:00,6.1,,-,71.0,,29.97,,Minnesota,14.0,,,3:00 PM,,,,,,,15.0,,SE,11.5,140.0,55401.0
Minneapolis,Unknown,1970-01-10 22:00:00,7.0,,-,70.0,,29.94,,Minnesota,15.1,,,4:00 PM,,,,,,,15.0,,SE,12.7,130.0,55401.0
Minneapolis,Unknown,1970-01-10 23:00:00,3.9,,-,59.0,,29.92,,Minnesota,16.0,,,5:00 PM,,,,,,,15.0,,SSE,20.7,150.0,55401.0
Minneapolis,Unknown,1970-01-11 00:00:00,7.0,,-,68.0,,29.92,,Minnesota,16.0,,,6:00 PM,,,,,,,15.0,,SSE,13.8,150.0,55401.0
Minneapolis,Unknown,1970-01-11 01:00:00,9.0,,-,74.0,,29.91,,Minnesota,16.0,,,7:00 PM,,,,,,,15.0,,SSE,15.0,150.0,55401.0
Minneapolis,Unknown,1970-01-11 02:00:00,10.9,,-,81.0,,29.91,,Minnesota,16.0,,,8:00 PM,,,,,,,15.0,,SSE,12.7,150.0,55401.0
Minneapolis,Unknown,1970-01-11 03:00:00,12.9,,-,84.0,,29.91,,Minnesota,17.1,,,9:00 PM,,,,,,,15.0,,SE,9.2,140.0,55401.0
Minneapolis,Unknown,1970-01-11 04:00:00,12.9,,-,84.0,,29.9,,Minnesota,17.1,,,10:00 PM,,,,,,,15.0,,South,4.6,170.0,55401.0
Minneapolis,Light Snow,1970-01-11 05:00:00,15.1,Snow,-,88.0,,29.9,,Minnesota,18.0,,,11:00 PM,,,,,,,15.0,,South,8.1,170.0,55401.0
Minneapolis,Light Snow,1970-01-11 06:00:00,16.0,Snow,-,88.0,,29.9,,Minnesota,19.0,,,12:00 AM,,,,,,,15.0,,SSE,6.9,160.0,55401.0
Minneapolis,Light Snow,1970-01-11 07:00:00,17.1,Snow,-,92.0,,29.87,,Minnesota,19.0,,,1:00 AM,,,,,,,7.0,,SE,8.1,140.0,55401.0
Minneapolis,Light Snow,1970-01-11 08:00:00,16.0,Snow,-,92.0,,29.87,,Minnesota,18.0,,,2:00 AM,,,,,,,7.0,,ESE,9.2,120.0,55401.0
Minneapolis,Light Snow,1970-01-11 09:00:00,18.0,Fog-Snow,-,96.0,,29.89,,Minnesota,19.0,,,3:00 AM,,,,,,,5.0,,SE,9.2,140.0,55401.0
Minneapolis,Light Freezing Drizzle,1970-01-11 10:00:00,18.0,Fog,-,96.0,,29.88,,Minnesota,19.0,,,4:00 AM,,,,,,,4.0,,SE,8.1,140.0,55401.0
Minneapolis,Light Freezing Drizzle,1970-01-11 11:00:00,18.0,Fog,-,96.0,,29.88,,Minnesota,19.0,,,5:00 AM,,,,,,,10.5,,SE,5.8,140.0,55401.0
Minneapolis,Light Freezing Drizzle,1970-01-11 12:00:00,19.0,Fog-Snow,-,100.0,,29.88,,Minnesota,19.0,,,6:00 AM,,,,,,,5.5,,ESE,4.6,110.0,55401.0
Minneapolis,Light Freezing Drizzle,1970-01-11 13:00:00,19.0,Fog-Snow,-,100.0,,29.89,,Minnesota,19.0,,,7:00 AM,,,,,,,0.8,,SE,5.8,130.0,55401.0
Minneapolis,Light Freezing Drizzle,1970-01-11 14:00:00,19.9,Fog-Snow,-,100.0,,29.91,,Minnesota,19.9,,,8:00 AM,,,,,,,0.8,,SE,4.6,140.0,55401.0
Minneapolis,Light Snow,1970-01-11 15:00:00,19.9,Fog-Snow,-,100.0,,29.91,,Minnesota,19.9,,,9:00 AM,,,,,,,0.2,,East,3.5,100.0,55401.0
Minneapolis,Light Snow,1970-01-11 16:00:00,21.0,Fog-Snow,-,100.0,,29.93,,Minnesota,21.0,,,10:00 AM,,,,,,,0.8,,Calm,Calm,0.0,55401.0
Minneapolis,Light Snow,1970-01-11 17:00:00,21.9,Fog-Snow,-,91.0,,29.96,,Minnesota,24.1,,,11:00 AM,,,,,,,2.0,,NNW,9.2,330.0,55401.0
Minneapolis,Light Snow,1970-01-11 18:00:00,21.0,Fog-Snow,-,92.0,,29.94,,Minnesota,23.0,,,12:00 PM,,,,,,,3.0,,NNW,12.7,340.0,55401.0
Minneapolis,Light Snow,1970-01-11 19:00:00,19.9,Fog-Snow,-,88.0,,29.94,,Minnesota,23.0,,,1:00 PM,,,,,,,3.0,,NNW,11.5,340.0,55401.0
Minneapolis,Light Snow,1970-01-11 20:00:00,19.9,Snow,-,84.0,,29.95,,Minnesota,24.1,,,2:00 PM,,,,,,,8.0,,NNW,12.7,340.0,55401.0
Minneapolis,Unknown,1970-01-11 21:00:00,19.0,,-,78.0,,29.96,,Minnesota,25.0,,,3:00 PM,,,,,,,10.0,,NNW,10.4,340.0,55401.0
Minneapolis,Unknown,1970-01-11 22:00:00,19.0,,-,81.0,,29.98,,Minnesota,24.1,,,4:00 PM,,,,,,,15.0,,NW,15.0,310.0,55401.0
Minneapolis,Unknown,1970-01-11 23:00:00,17.1,,-,82.0,,30.0,,Minnesota,21.9,,,5:00 PM,,,,,,,15.0,,NNW,16.1,330.0,55401.0
Minneapolis,Clear,1970-01-12 00:00:00,10.9,,-,77.0,,30.03,,Minnesota,17.1,,,6:00 PM,,,,,,,15.0,,NW,12.7,320.0,55401.0
Minneapolis,Clear,1970-01-12 01:00:00,10.0,,-,77.0,,30.07,,Minnesota,16.0,,,7:00 PM,,,,,,,15.0,,NW,13.8,310.0,55401.0
Minneapolis,Clear,1970-01-12 02:00:00,7.0,,-,77.0,,30.08,,Minnesota,12.9,,,8:00 PM,,,,,,,15.0,,NNW,13.8,330.0,55401.0
Minneapolis,Clear,1970-01-12 03:00:00,6.1,,-,77.0,,30.09,,Minnesota,12.0,,,9:00 PM,,,,,,,15.0,,NW,9.2,320.0,55401.0
Minneapolis,Clear,1970-01-12 04:00:00,3.0,,-,73.0,,30.09,,Minnesota,10.0,,,10:00 PM,,,,,,,15.0,,WNW,4.6,290.0,55401.0
Minneapolis,Clear,1970-01-12 05:00:00,1.9,,-,80.0,,30.1,,Minnesota,7.0,,,11:00 PM,,,,,,,15.0,,WSW,4.6,250.0,55401.0
Minneapolis,Clear,1970-01-12 06:00:00,-0.0,,-,80.0,,30.1,,Minnesota,5.0,,,12:00 AM,,,,,,,15.0,,WSW,6.9,240.0,55401.0
Minneapolis,Clear,1970-01-12 07:00:00,-2.0,,-,80.0,,30.13,,Minnesota,3.0,,,1:00 AM,,,,,,,15.0,,NNW,6.9,330.0,55401.0
Minneapolis,Clear,1970-01-12 08:00:00,-2.0,,-,80.0,,30.15,,Minnesota,3.0,,,2:00 AM,,,,,,,15.0,,SW,5.8,220.0,55401.0
Minneapolis,Clear,1970-01-12 09:00:00,-4.0,,-,83.0,,30.18,,Minnesota,-0.0,,,3:00 AM,,,,,,,15.0,,WSW,6.9,250.0,55401.0
Minneapolis,Clear,1970-01-12 10:00:00,-9.0,,-,69.0,,30.19,,Minnesota,-0.9,,,4:00 AM,,,,,,,15.0,,SW,5.8,230.0,55401.0
Minneapolis,Clear,1970-01-12 11:00:00,-9.9,,-,69.0,,30.2,,Minnesota,-2.0,,,5:00 AM,,,,,,,15.0,,West,6.9,270.0,55401.0
Minneapolis,Clear,1970-01-12 12:00:00,-11.9,,-,69.0,,30.22,,Minnesota,-4.0,,,6:00 AM,,,,,,,15.0,,WSW,8.1,240.0,55401.0
Minneapolis,Clear,1970-01-12 13:00:00,-11.0,,-,66.0,,30.25,,Minnesota,-2.0,,,7:00 AM,,,,,,,15.0,,West,6.9,260.0,55401.0
Minneapolis,Unknown,1970-01-12 14:00:00,-11.0,,-,68.0,,30.26,,Minnesota,-2.9,,,8:00 AM,,,,,,,7.0,,WSW,6.9,240.0,55401.0
Minneapolis,Unknown,1970-01-12 15:00:00,-7.1,,-,75.0,,30.27,,Minnesota,-0.9,,,9:00 AM,,,,,,,10.0,,WSW,4.6,250.0,55401.0
Minneapolis,Unknown,1970-01-12 16:00:00,-4.0,,-,70.0,,30.29,,Minnesota,3.9,,,10:00 AM,,,,,,,10.0,,NNW,6.9,340.0,55401.0
Minneapolis,Unknown,1970-01-12 17:00:00,-2.9,,-,64.0,,30.3,,Minnesota,7.0,,,11:00 AM,,,,,,,8.0,,North,4.6,360.0,55401.0
Minneapolis,Unknown,1970-01-12 18:00:00,-2.0,,-,58.0,,30.3,,Minnesota,10.0,,,12:00 PM,,,,,,,8.0,,NNW,3.5,330.0,55401.0
Minneapolis,Unknown,1970-01-12 19:00:00,-0.9,,-,59.0,,30.27,,Minnesota,10.9,,,1:00 PM,,,,,,,7.0,,NW,2.3,310.0,55401.0
Minneapolis,Unknown,1970-01-12 20:00:00,-0.9,,-,59.0,,30.27,,Minnesota,10.9,,,2:00 PM,,,,,,,7.0,,WNW,3.5,300.0,55401.0
Minneapolis,Unknown,1970-01-12 21:00:00,-0.0,,-,61.0,,30.29,,Minnesota,10.9,,,3:00 PM,,,,,,,10.0,,WNW,5.8,300.0,55401.0
Minneapolis,Unknown,1970-01-12 22:00:00,-2.0,,-,64.0,,30.3,,Minnesota,8.1,,,4:00 PM,,,,,,,10.0,,WNW,5.8,300.0,55401.0
Minneapolis,Unknown,1970-01-12 23:00:00,-2.9,,-,61.0,,30.32,,Minnesota,8.1,,,5:00 PM,,,,,,,10.0,,NW,9.2,310.0,55401.0
Minneapolis,Unknown,1970-01-13 00:00:00,-6.0,,-,64.0,,30.34,,Minnesota,3.9,,,6:00 PM,,,,,,,15.0,,NW,8.1,320.0,55401.0
Minneapolis,Unknown,1970-01-13 01:00:00,-7.1,,-,63.0,,30.34,,Minnesota,3.0,,,7:00 PM,,,,,,,15.0,,NW,8.1,320.0,55401.0
Minneapolis,Unknown,1970-01-13 02:00:00,-8.0,,-,60.0,,30.35,,Minnesota,3.0,,,8:00 PM,,,,,,,15.0,,NW,5.8,310.0,55401.0
Minneapolis,Unknown,1970-01-13 03:00:00,-6.0,,-,58.0,,30.34,,Minnesota,6.1,,,9:00 PM,,,,,,,15.0,,North,4.6,360.0,55401.0
Minneapolis,Unknown,1970-01-13 04:00:00,-5.1,,-,58.0,,30.34,,Minnesota,7.0,,,10:00 PM,,,,,,,15.0,,North,6.9,10.0,55401.0
Minneapolis,Unknown,1970-01-13 05:00:00,-4.0,,-,58.0,,30.35,,Minnesota,8.1,,,11:00 PM,,,,,,,15.0,,NNE,9.2,20.0,55401.0
Minneapolis,Unknown,1970-01-13 06:00:00,-4.0,,-,63.0,,30.35,,Minnesota,6.1,,,12:00 AM,,,,,,,15.0,,North,8.1,10.0,55401.0
Minneapolis,Unknown,1970-01-13 07:00:00,-2.0,,-,69.0,,30.35,,Minnesota,6.1,,,1:00 AM,,,,,,,15.0,,NNE,8.1,20.0,55401.0
Minneapolis,Unknown,1970-01-13 08:00:00,-2.9,,-,70.0,,30.36,,Minnesota,5.0,,,2:00 AM,,,,,,,15.0,,NNE,9.2,30.0,55401.0
Minneapolis,Unknown,1970-01-13 09:00:00,-6.0,,-,64.0,,30.37,,Minnesota,3.9,,,3:00 AM,,,,,,,15.0,,NE,9.2,50.0,55401.0
Minneapolis,Unknown,1970-01-13 10:00:00,-5.1,,-,66.0,,30.38,,Minnesota,3.9,,,4:00 AM,,,,,,,15.0,,NE,9.2,50.0,55401.0
Minneapolis,Unknown,1970-01-13 11:00:00,-5.1,,-,66.0,,30.36,,Minnesota,3.9,,,5:00 AM,,,,,,,15.0,,NE,6.9,50.0,55401.0
Minneapolis,Unknown,1970-01-13 12:00:00,-6.0,,-,69.0,,30.36,,Minnesota,1.9,,,6:00 AM,,,,,,,15.0,,NNE,9.2,30.0,55401.0
Minneapolis,Unknown,1970-01-13 13:00:00,-6.0,,-,66.0,,30.38,,Minnesota,3.0,,,7:00 AM,,,,,,,15.0,,NNE,10.4,30.0,55401.0
Minneapolis,Unknown,1970-01-13 14:00:00,-6.0,,-,66.0,,30.39,,Minnesota,3.0,,,8:00 AM,,,,,,,15.0,,NNE,10.4,30.0,55401.0
Minneapolis,Unknown,1970-01-13 15:00:00,-6.0,,-,66.0,,30.37,,Minnesota,3.0,,,9:00 AM,,,,,,,10.0,,NE,6.9,50.0,55401.0
Minneapolis,Light Snow,1970-01-13 16:00:00,-5.1,Snow,-,66.0,,30.39,,Minnesota,3.9,,,10:00 AM,,,,,,,4.0,,NE,8.1,40.0,55401.0
Minneapolis,Freezing Rain,1970-01-13 17:00:00,-4.0,,-,66.0,,30.39,,Minnesota,5.0,,,11:00 AM,,,,,,,6.0,,ENE,8.1,60.0,55401.0
Minneapolis,Unknown,1970-01-13 18:00:00,-2.9,,-,67.0,,30.36,,Minnesota,6.1,,,12:00 PM,,,,,,,7.0,,NE,8.1,50.0,55401.0
Minneapolis,Light Snow,1970-01-13 19:00:00,-2.0,Snow,-,67.0,,30.35,,Minnesota,7.0,,,1:00 PM,,,,,,,8.0,,East,8.1,80.0,55401.0
Minneapolis,Light Snow,1970-01-13 20:00:00,-0.0,Snow,-,67.0,,30.32,,Minnesota,9.0,,,2:00 PM,,,,,,,7.0,,ENE,11.5,70.0,55401.0
Minneapolis,Light Snow,1970-01-13 21:00:00,-0.9,Snow,-,64.0,,30.33,,Minnesota,9.0,,,3:00 PM,,,,,,,7.0,,East,8.1,80.0,55401.0
Minneapolis,Unknown,1970-01-13 22:00:00,-0.9,,-,67.0,,30.33,,Minnesota,8.1,,,4:00 PM,,,,,,,10.0,,East,9.2,80.0,55401.0
Minneapolis,Light Snow,1970-01-13 23:00:00,-0.9,Snow,-,70.0,,30.31,,Minnesota,7.0,,,5:00 PM,,,,,,,5.0,,NE,12.7,50.0,55401.0
Minneapolis,Light Snow,1970-01-14 00:00:00,-0.9,Snow,-,70.0,,30.31,,Minnesota,7.0,,,6:00 PM,,,,,,,5.0,,ENE,11.5,60.0,55401.0
Minneapolis,Light Snow,1970-01-14 01:00:00,1.0,Snow,-,73.0,,30.31,,Minnesota,8.1,,,7:00 PM,,,,,,,10.5,,ENE,11.5,60.0,55401.0
Minneapolis,Light Snow,1970-01-14 02:00:00,1.0,Snow,-,73.0,0.01,30.32,,Minnesota,8.1,,,8:00 PM,,,,,,,2.0,,ENE,12.7,70.0,55401.0
Minneapolis,Light Snow,1970-01-14 03:00:00,1.9,Snow,-,76.0,0.01,30.32,,Minnesota,8.1,,,9:00 PM,,,,,,,5.5,,ENE,8.1,60.0,55401.0
Minneapolis,Light Snow,1970-01-14 04:00:00,1.9,Snow,-,76.0,0.01,30.32,,Minnesota,8.1,,,10:00 PM,,,,,,,3.0,,ENE,11.5,70.0,55401.0
Minneapolis,Light Snow,1970-01-14 05:00:00,1.9,Snow,-,76.0,0.01,30.3,,Minnesota,8.1,,,11:00 PM,,,,,,,4.0,,ENE,10.4,60.0,55401.0
Minneapolis,Light Snow,1970-01-14 06:00:00,3.0,Snow,-,77.0,0.01,30.3,,Minnesota,9.0,,,12:00 AM,,,,,,,6.0,,ENE,10.4,70.0,55401.0
Minneapolis,Light Snow,1970-01-14 07:00:00,3.0,Snow,-,73.0,,30.3,,Minnesota,10.0,,,1:00 AM,,,,,,,15.0,,ENE,10.4,70.0,55401.0
Minneapolis,Light Snow,1970-01-14 08:00:00,3.0,Snow,-,73.0,,30.29,,Minnesota,10.0,,,2:00 AM,,,,,,,15.0,,East,12.7,80.0,55401.0
Minneapolis,Light Snow,1970-01-14 09:00:00,1.9,Snow,-,70.0,,30.3,,Minnesota,10.0,,,3:00 AM,,,,,,,15.0,,East,10.4,80.0,55401.0
Minneapolis,Light Snow,1970-01-14 10:00:00,1.9,Snow,-,67.0,,30.29,,Minnesota,10.9,,,4:00 AM,,,,,,,15.0,,East,12.7,80.0,55401.0
Minneapolis,Light Snow,1970-01-14 11:00:00,1.9,Snow,-,67.0,,30.27,,Minnesota,10.9,,,5:00 AM,,,,,,,15.0,,ENE,11.5,70.0,55401.0
Minneapolis,Light Snow,1970-01-14 12:00:00,1.9,Snow,-,67.0,,30.27,,Minnesota,10.9,,,6:00 AM,,,,,,,15.0,,East,12.7,80.0,55401.0
Minneapolis,Light Snow,1970-01-14 13:00:00,1.9,Snow,-,67.0,,30.27,,Minnesota,10.9,,,7:00 AM,,,,,,,15.0,,East,10.4,80.0,55401.0
Minneapolis,Light Snow,1970-01-14 14:00:00,1.9,Snow,-,67.0,,30.3,,Minnesota,10.9,,,8:00 AM,,,,,,,10.0,,East,9.2,90.0,55401.0
Minneapolis,Light Snow,1970-01-14 15:00:00,1.9,Snow,-,67.0,,30.3,,Minnesota,10.9,,,9:00 AM,,,,,,,3.0,,ESE,9.2,110.0,55401.0
Minneapolis,Light Snow,1970-01-14 16:00:00,5.0,Snow,-,77.0,0.01,30.27,,Minnesota,10.9,,,10:00 AM,,,,,,,4.0,,ESE,10.4,120.0,55401.0
Minneapolis,Light Snow,1970-01-14 17:00:00,3.9,Snow,-,70.0,,30.27,,Minnesota,12.0,,,11:00 AM,,,,,,,7.0,,ESE,12.7,120.0,55401.0
Minneapolis,Light Snow,1970-01-14 18:00:00,5.0,Snow,-,71.0,,30.24,,Minnesota,12.9,,,12:00 PM,,,,,,,8.0,,ESE,10.4,120.0,55401.0
Minneapolis,Unknown,1970-01-14 19:00:00,5.0,,-,71.0,,30.21,,Minnesota,12.9,,,1:00 PM,,,,,,,9.0,,East,11.5,90.0,55401.0
Minneapolis,Unknown,1970-01-14 20:00:00,6.1,,-,71.0,,30.2,,Minnesota,14.0,,,2:00 PM,,,,,,,9.0,,East,9.2,90.0,55401.0
Minneapolis,Unknown,1970-01-14 21:00:00,6.1,,-,71.0,,30.19,,Minnesota,14.0,,,3:00 PM,,,,,,,10.0,,ESE,10.4,120.0,55401.0
Minneapolis,Unknown,1970-01-14 22:00:00,7.0,,-,77.0,,30.15,,Minnesota,12.9,,,4:00 PM,,,,,,,10.0,,ESE,15.0,110.0,55401.0
Minneapolis,Unknown,1970-01-14 23:00:00,7.0,,-,74.0,,30.15,,Minnesota,14.0,,,5:00 PM,,,,,,,10.0,,ESE,11.5,110.0,55401.0
Minneapolis,Unknown,1970-01-15 00:00:00,5.0,,-,67.0,,30.13,,Minnesota,14.0,,,6:00 PM,,,,,,,15.0,,ESE,13.8,120.0,55401.0
Minneapolis,Unknown,1970-01-15 01:00:00,10.0,,-,80.0,,30.14,,Minnesota,15.1,,,7:00 PM,,,,,,,15.0,,ESE,9.2,120.0,55401.0
Minneapolis,Unknown,1970-01-15 02:00:00,10.9,,-,81.0,,30.14,,Minnesota,16.0,,,8:00 PM,,,,,,,15.0,,ESE,9.2,120.0,55401.0
Minneapolis,Unknown,1970-01-15 03:00:00,12.0,,-,88.0,,30.12,,Minnesota,15.1,,,9:00 PM,,,,,,,15.0,,SE,9.2,130.0,55401.0
Minneapolis,Unknown,1970-01-15 04:00:00,12.9,,-,88.0,,30.08,,Minnesota,16.0,,,10:00 PM,,,,,,,15.0,,SE,11.5,140.0,55401.0
Minneapolis,Light Snow,1970-01-15 05:00:00,15.1,Snow,-,92.0,,30.06,,Minnesota,17.1,,,11:00 PM,,,,,,,15.0,,SSE,11.5,150.0,55401.0
Minneapolis,Light Snow,1970-01-15 06:00:00,16.0,Snow,-,96.0,,30.08,,Minnesota,17.1,,,12:00 AM,,,,,,,7.0,,ESE,9.2,120.0,55401.0
Minneapolis,Light Snow,1970-01-15 07:00:00,18.0,Fog-Snow,-,100.0,,30.07,,Minnesota,18.0,,,1:00 AM,,,,,,,2.0,,SE,9.2,130.0,55401.0
Minneapolis,Light Snow,1970-01-15 08:00:00,19.0,Fog-Snow,-,100.0,,30.05,,Minnesota,19.0,,,2:00 AM,,,,,,,5.5,,SE,9.2,130.0,55401.0
Minneapolis,Light Snow,1970-01-15 09:00:00,19.0,Fog-Snow,-,96.0,,30.04,,Minnesota,19.9,,,3:00 AM,,,,,,,5.5,,SE,10.4,140.0,55401.0
Minneapolis,Light Freezing Drizzle,1970-01-15 10:00:00,19.9,Fog-Snow,-,100.0,,30.02,,Minnesota,19.9,,,4:00 AM,,,,,,,1.0,,SE,9.2,130.0,55401.0
Minneapolis,Light Freezing Drizzle,1970-01-15 11:00:00,19.9,Fog-Snow,-,100.0,,29.99,,Minnesota,19.9,,,5:00 AM,,,,,,,1.0,,SE,9.2,130.0,55401.0
Minneapolis,Light Freezing Drizzle,1970-01-15 12:00:00,19.9,Fog-Snow,-,96.0,,30.0,,Minnesota,21.0,,,6:00 AM,,,,,,,1.0,,SE,8.1,130.0,55401.0
Minneapolis,Light Freezing Drizzle,1970-01-15 13:00:00,21.0,Fog-Snow,-,100.0,,29.98,,Minnesota,21.0,,,7:00 AM,,,,,,,1.0,,ESE,9.2,120.0,55401.0
Minneapolis,Light Freezing Drizzle,1970-01-15 14:00:00,21.0,Fog,-,96.0,,30.01,,Minnesota,21.9,,,8:00 AM,,,,,,,1.0,,ESE,9.2,120.0,55401.0
Minneapolis,Light Freezing Drizzle,1970-01-15 15:00:00,21.9,Fog,-,100.0,,29.99,,Minnesota,21.9,,,9:00 AM,,,,,,,0.6,,SSE,8.1,150.0,55401.0
Minneapolis,Light Freezing Drizzle,1970-01-15 16:00:00,21.9,Fog-Snow,-,96.0,,29.98,,Minnesota,23.0,,,10:00 AM,,,,,,,0.8,,SE,10.4,130.0,55401.0
Minneapolis,Light Freezing Drizzle,1970-01-15 17:00:00,23.0,Fog-Snow,-,96.0,,29.99,,Minnesota,24.1,,,11:00 AM,,,,,,,5.5,,SE,9.2,140.0,55401.0
Minneapolis,Light Freezing Drizzle,1970-01-15 18:00:00,23.0,Fog,-,92.0,,29.98,,Minnesota,25.0,,,12:00 PM,,,,,,,5.5,,SSE,9.2,150.0,55401.0
Minneapolis,Light Snow,1970-01-15 19:00:00,24.1,Fog-Snow,-,89.0,,29.95,,Minnesota,27.0,,,1:00 PM,,,,,,,5.5,,SSE,10.4,150.0,55401.0
Minneapolis,Light Snow,1970-01-15 20:00:00,25.0,Fog-Snow,-,88.0,,29.95,,Minnesota,28.0,,,2:00 PM,,,,,,,5.5,,South,10.4,180.0,55401.0
Minneapolis,Light Snow,1970-01-15 21:00:00,25.0,Fog-Snow,-,88.0,,29.96,,Minnesota,28.0,,,3:00 PM,,,,,,,2.0,,South,8.1,180.0,55401.0
Minneapolis,Light Snow,1970-01-15 22:00:00,25.0,Fog-Snow,-,88.0,,29.96,,Minnesota,28.0,,,4:00 PM,,,,,,,2.0,,South,5.8,190.0,55401.0
Minneapolis,Light Snow,1970-01-15 23:00:00,25.0,Fog-Snow,-,92.0,,29.99,,Minnesota,27.0,,,5:00 PM,,,,,,,2.0,,WSW,9.2,240.0,55401.0
Minneapolis,Light Snow,1970-01-16 00:00:00,23.0,Fog-Snow,-,88.0,,29.99,,Minnesota,26.1,,,6:00 PM,,,,,,,6.0,,WSW,9.2,240.0,55401.0
Minneapolis,Light Snow,1970-01-16 01:00:00,23.0,Fog-Snow,-,92.0,,30.0,,Minnesota,25.0,,,7:00 PM,,,,,,,5.0,,SW,8.1,230.0,55401.0
Minneapolis,Light Snow,1970-01-16 02:00:00,23.0,Fog-Snow,-,96.0,,30.02,,Minnesota,24.1,,,8:00 PM,,,,,,,4.0,,WSW,8.1,250.0,55401.0
Minneapolis,Light Snow,1970-01-16 03:00:00,21.9,Fog-Snow,-,91.0,,30.02,,Minnesota,24.1,,,9:00 PM,,,,,,,4.0,,WSW,11.5,250.0,55401.0
Minneapolis,Light Snow,1970-01-16 04:00:00,23.0,Fog-Snow,-,96.0,,30.03,,Minnesota,24.1,,,10:00 PM,,,,,,,3.0,,NW,6.9,310.0,55401.0
Minneapolis,Light Snow,1970-01-16 05:00:00,21.9,Fog-Snow,-,91.0,,30.04,,Minnesota,24.1,,,11:00 PM,,,,,,,10.5,,WNW,6.9,290.0,55401.0
Minneapolis,Light Snow,1970-01-16 06:00:00,21.0,Fog-Snow,-,88.0,,30.05,,Minnesota,24.1,,,12:00 AM,,,,,,,10.5,,WNW,9.2,290.0,55401.0
Minneapolis,Light Snow,1970-01-16 07:00:00,21.0,Fog-Snow,-,88.0,0.01,30.07,,Minnesota,24.1,,,1:00 AM,,,,,,,2.0,,WNW,9.2,290.0,55401.0
Minneapolis,Light Snow,1970-01-16 08:00:00,14.0,Fog-Snow,-,84.0,0.01,30.11,,Minnesota,18.0,,,2:00 AM,,,,,,,2.0,,NW,17.3,310.0,55401.0
Minneapolis,Light Snow,1970-01-16 09:00:00,10.0,Snow,-,88.0,0.01,30.15,,Minnesota,12.9,,,3:00 AM,,,,,,,5.5,,NNW,17.3,340.0,55401.0
Minneapolis,Light Snow,1970-01-16 10:00:00,5.0,Snow,-,84.0,0.01,30.18,,Minnesota,9.0,,,4:00 AM,,,,,,,4.0,,NW,20.7,310.0,55401.0
Minneapolis,Light Snow,1970-01-16 11:00:00,-0.0,Snow,-,80.0,,30.21,,Minnesota,5.0,,,5:00 AM,,,,,,,15.0,,NW,20.7,320.0,55401.0
Minneapolis,Clear,1970-01-16 12:00:00,-7.1,,-,66.0,,30.25,,Minnesota,1.9,,,6:00 AM,,,,,,,15.0,,NW,19.6,320.0,55401.0
Minneapolis,Clear,1970-01-16 13:00:00,-13.0,,-,57.0,,30.29,,Minnesota,-0.9,,,7:00 AM,,,,,,,15.0,,NNW,17.3,330.0,55401.0
Minneapolis,Clear,1970-01-16 14:00:00,-14.1,,-,59.0,,30.34,,Minnesota,-2.9,,,8:00 AM,,,,,,,15.0,,NNW,18.4,330.0,55401.0
Minneapolis,Clear,1970-01-16 15:00:00,-15.0,,-,54.0,,30.35,,Minnesota,-2.0,,,9:00 AM,,,,,,,15.0,,NW,16.1,320.0,55401.0
Minneapolis,Clear,1970-01-16 16:00:00,-15.0,,-,52.0,,30.35,,Minnesota,-0.9,,,10:00 AM,,,,,,,15.0,,NW,15.0,320.0,55401.0
Minneapolis,Unknown,1970-01-16 17:00:00,-13.0,,-,57.0,,30.33,,Minnesota,-0.9,,,11:00 AM,,,,,,,15.0,,NW,11.5,320.0,55401.0
Minneapolis,Unknown,1970-01-16 18:00:00,-13.0,,-,57.0,,30.33,,Minnesota,-0.9,,,12:00 PM,,,,,,,15.0,,NW,15.0,320.0,55401.0
Minneapolis,Unknown,1970-01-16 19:00:00,-15.0,,-,52.0,,30.33,,Minnesota,-0.9,,,1:00 PM,,,,,,,15.0,,NW,15.0,320.0,55401.0
Minneapolis,Unknown,1970-01-16 20:00:00,-13.0,,-,57.0,,30.35,,Minnesota,-0.9,,,2:00 PM,,,,,,,15.0,,NW,16.1,320.0,55401.0
Minneapolis,Unknown,1970-01-16 21:00:00,-13.0,,-,54.0,,30.35,,Minnesota,-0.0,,,3:00 PM,,,,,,,15.0,,NW,16.1,320.0,55401.0
Minneapolis,Unknown,1970-01-16 22:00:00,-13.0,,-,54.0,,30.32,,Minnesota,-0.0,,,4:00 PM,,,,,,,15.0,,NW,11.5,310.0,55401.0
Minneapolis,Unknown,1970-01-16 23:00:00,-14.1,,-,54.0,,30.34,,Minnesota,-0.9,,,5:00 PM,,,,,,,15.0,,NNW,11.5,340.0,55401.0
Minneapolis,Light Snow,1970-01-17 00:00:00,-11.0,Fog-Snow,-,66.0,,30.35,,Minnesota,-2.0,,,6:00 PM,,,,,,,5.5,,NW,15.0,320.0,55401.0
Minneapolis,Light Snow,1970-01-17 01:00:00,-11.0,Fog-Snow,-,66.0,0.01,30.36,,Minnesota,-2.0,,,7:00 PM,,,,,,,10.5,,WNW,11.5,300.0,55401.0
Minneapolis,Light Snow,1970-01-17 02:00:00,-11.0,Fog-Snow,-,66.0,0.01,30.35,,Minnesota,-2.0,,,8:00 PM,,,,,,,2.8,,NW,11.5,320.0,55401.0
Minneapolis,Light Snow,1970-01-17 03:00:00,-11.0,Fog-Snow,-,68.0,0.02,30.34,,Minnesota,-2.9,,,9:00 PM,,,,,,,2.8,,North,13.8,350.0,55401.0
Minneapolis,Light Snow,1970-01-17 04:00:00,-11.0,Fog-Snow,-,68.0,0.02,30.32,,Minnesota,-2.9,,,10:00 PM,,,,,,,2.8,,North,9.2,360.0,55401.0
Minneapolis,Light Snow,1970-01-17 05:00:00,-11.0,Fog-Snow,-,68.0,0.01,30.34,,Minnesota,-2.9,,,11:00 PM,,,,,,,10.5,,NW,8.1,320.0,55401.0
Minneapolis,Light Snow,1970-01-17 06:00:00,-11.9,Fog-Snow,-,65.0,,30.34,,Minnesota,-2.9,,,12:00 AM,,,,,,,4.0,,NW,9.2,310.0,55401.0
Minneapolis,Light Snow,1970-01-17 07:00:00,-11.9,Snow,-,69.0,,30.31,,Minnesota,-4.0,,,1:00 AM,,,,,,,2.0,,NNW,8.1,340.0,55401.0
Minneapolis,Light Snow,1970-01-17 08:00:00,-11.9,Snow,-,69.0,,30.32,,Minnesota,-4.0,,,2:00 AM,,,,,,,2.0,,North,11.5,350.0,55401.0
Minneapolis,Light Snow,1970-01-17 09:00:00,-13.0,Snow,-,65.0,0.01,30.33,,Minnesota,-4.0,,,3:00 AM,,,,,,,2.0,,North,9.2,360.0,55401.0
Minneapolis,Light Snow,1970-01-17 10:00:00,-14.1,Snow,-,65.0,0.01,30.33,,Minnesota,-5.1,,,4:00 AM,,,,,,,2.0,,North,11.5,360.0,55401.0
Minneapolis,Light Snow,1970-01-17 11:00:00,-14.1,Snow,-,65.0,0.01,30.32,,Minnesota,-5.1,,,5:00 AM,,,,,,,2.0,,North,10.4,360.0,55401.0
Minneapolis,Light Snow,1970-01-17 12:00:00,-14.1,Snow,-,65.0,0.01,30.31,,Minnesota,-5.1,,,6:00 AM,,,,,,,4.0,,North,11.5,10.0,55401.0
Minneapolis,Light Snow,1970-01-17 13:00:00,-15.0,Snow,-,65.0,0.01,30.31,,Minnesota,-6.0,,,7:00 AM,,,,,,,7.0,,North,12.7,360.0,55401.0
Minneapolis,Light Snow,1970-01-17 14:00:00,-16.1,Snow,-,62.0,,30.31,,Minnesota,-6.0,,,8:00 AM,,,,,,,15.0,,North,11.5,360.0,55401.0
Minneapolis,Light Snow,1970-01-17 15:00:00,-17.0,Snow,-,62.0,,30.32,,Minnesota,-7.1,,,9:00 AM,,,,,,,5.0,,North,11.5,350.0,55401.0
Minneapolis,Light Snow,1970-01-17 16:00:00,-17.0,Snow,-,59.0,,30.35,,Minnesota,-6.0,,,10:00 AM,,,,,,,6.0,,NNW,12.7,330.0,55401.0
Minneapolis,Light Snow,1970-01-17 17:00:00,-16.1,Snow,-,62.0,,30.36,,Minnesota,-6.0,,,11:00 AM,,,,,,,5.0,,North,11.5,350.0,55401.0
Minneapolis,Light Snow,1970-01-17 18:00:00,-16.1,Snow,-,59.0,,30.32,,Minnesota,-5.1,,,12:00 PM,,,,,,,5.0,,North,10.4,350.0,55401.0
Minneapolis,Light Snow,1970-01-17 19:00:00,-15.0,Snow,-,59.0,,30.31,,Minnesota,-4.0,,,1:00 PM,,,,,,,3.0,,NNW,11.5,330.0,55401.0
Minneapolis,Light Snow,1970-01-17 20:00:00,-15.0,Snow,-,59.0,,30.29,,Minnesota,-4.0,,,2:00 PM,,,,,,,7.0,,NW,10.4,310.0,55401.0
Minneapolis,Clear,1970-01-17 21:00:00,-16.1,,-,56.0,,30.29,,Minnesota,-4.0,,,3:00 PM,,,,,,,15.0,,NNW,12.7,340.0,55401.0
Minneapolis,Clear,1970-01-17 22:00:00,-18.0,,-,56.0,,30.3,,Minnesota,-6.0,,,4:00 PM,,,,,,,15.0,,NW,12.7,320.0,55401.0
Minneapolis,Clear,1970-01-17 23:00:00,-20.0,,-,59.0,,30.32,,Minnesota,-9.0,,,5:00 PM,,,,,,,15.0,,NW,11.5,310.0,55401.0
Minneapolis,Clear,1970-01-18 00:00:00,-20.0,,-,61.0,,30.34,,Minnesota,-9.9,,,6:00 PM,,,,,,,15.0,,NW,11.5,310.0,55401.0
Minneapolis,Clear,1970-01-18 01:00:00,-22.0,,-,61.0,,30.36,,Minnesota,-11.9,,,7:00 PM,,,,,,,15.0,,NW,9.2,310.0,55401.0
Minneapolis,Clear,1970-01-18 02:00:00,-23.1,,-,64.0,,30.37,,Minnesota,-14.1,,,8:00 PM,,,,,,,15.0,,NNW,11.5,330.0,55401.0
Minneapolis,Clear,1970-01-18 03:00:00,-25.1,,-,58.0,,30.37,,Minnesota,-14.1,,,9:00 PM,,,,,,,15.0,,NW,9.2,320.0,55401.0
Minneapolis,Clear,1970-01-18 04:00:00,-27.9,,-,58.0,,30.39,,Minnesota,-17.0,,,10:00 PM,,,,,,,15.0,,NW,9.2,320.0,55401.0
Minneapolis,Clear,1970-01-18 05:00:00,-27.0,,-,60.0,,30.41,,Minnesota,-17.0,,,11:00 PM,,,,,,,15.0,,NNW,9.2,340.0,55401.0
Minneapolis,Clear,1970-01-18 06:00:00,-26.0,,-,64.0,,30.42,,Minnesota,-17.0,,,12:00 AM,,,,,,,15.0,,NW,8.1,310.0,55401.0
Minneapolis,Clear,1970-01-18 07:00:00,-29.0,,-,63.0,,30.42,,Minnesota,-20.0,,,1:00 AM,,,,,,,15.0,,NW,9.2,320.0,55401.0
Minneapolis,Clear,1970-01-18 08:00:00,-29.0,,-,63.0,,30.45,,Minnesota,-20.0,,,2:00 AM,,,,,,,15.0,,NW,9.2,310.0,55401.0
Minneapolis,Clear,1970-01-18 09:00:00,-32.1,,-,60.0,,30.47,,Minnesota,-22.0,,,3:00 AM,,,,,,,15.0,,NW,9.2,310.0,55401.0
Minneapolis,Clear,1970-01-18 10:00:00,-31.0,,-,67.0,,30.47,,Minnesota,-23.1,,,4:00 AM,,,,,,,15.0,,NW,9.2,310.0,55401.0
Minneapolis,Clear,1970-01-18 11:00:00,-31.0,,-,74.0,,30.47,,Minnesota,-25.1,,,5:00 AM,,,,,,,15.0,,NW,6.9,320.0,55401.0
Minneapolis,Clear,1970-01-18 12:00:00,-33.0,,-,63.0,,30.47,,Minnesota,-24.0,,,6:00 AM,,,,,,,15.0,,WNW,8.1,300.0,55401.0
Minneapolis,Fog,1970-01-18 13:00:00,-35.0,Fog,-,62.0,,30.47,,Minnesota,-26.0,,,7:00 AM,,,,,,,6.0,,NW,6.9,310.0,55401.0
Minneapolis,Fog,1970-01-18 14:00:00,-33.0,Fog,-,69.0,,30.48,,Minnesota,-26.0,,,8:00 AM,,,,,,,2.0,,West,5.8,280.0,55401.0
Minneapolis,Fog,1970-01-18 15:00:00,-34.1,Fog,-,69.0,,30.49,,Minnesota,-27.0,,,9:00 AM,,,,,,,2.0,,WSW,5.8,240.0,55401.0
Minneapolis,Fog,1970-01-18 16:00:00,-32.1,Fog,-,70.0,,30.49,,Minnesota,-25.1,,,10:00 AM,,,,,,,1.0,,SW,5.8,220.0,55401.0
Minneapolis,Fog,1970-01-18 17:00:00,-32.1,Fog,-,70.0,,30.49,,Minnesota,-25.1,,,11:00 AM,,,,,,,2.0,,SW,5.8,220.0,55401.0
Minneapolis,Clear,1970-01-18 18:00:00,-26.0,,-,61.0,,30.48,,Minnesota,-16.1,,,12:00 PM,,,,,,,10.0,,SW,8.1,220.0,55401.0
Minneapolis,Clear,1970-01-18 19:00:00,-26.0,,-,55.0,,30.44,,Minnesota,-14.1,,,1:00 PM,,,,,,,15.0,,SW,8.1,220.0,55401.0
Minneapolis,Unknown,1970-01-18 20:00:00,-26.0,,-,53.0,,30.43,,Minnesota,-13.0,,,2:00 PM,,,,,,,10.0,,SW,8.1,230.0,55401.0
Minneapolis,Unknown,1970-01-18 21:00:00,-26.0,,-,58.0,,30.42,,Minnesota,-15.0,,,3:00 PM,,,,,,,10.0,,SW,11.5,230.0,55401.0
Minneapolis,Unknown,1970-01-18 22:00:00,-26.0,,-,55.0,,30.43,,Minnesota,-14.1,,,4:00 PM,,,,,,,10.0,,WSW,11.5,250.0,55401.0
Minneapolis,Unknown,1970-01-18 23:00:00,-26.0,,-,58.0,,30.43,,Minnesota,-15.0,,,5:00 PM,,,,,,,10.0,,WSW,9.2,250.0,55401.0
Minneapolis,Unknown,1970-01-19 00:00:00,-25.1,,-,61.0,,30.43,,Minnesota,-15.0,,,6:00 PM,,,,,,,15.0,,WNW,6.9,290.0,55401.0
Minneapolis,Unknown,1970-01-19 01:00:00,-26.0,,-,61.0,,30.44,,Minnesota,-16.1,,,7:00 PM,,,,,,,15.0,,West,8.1,280.0,55401.0
Minneapolis,Clear,1970-01-19 02:00:00,-27.9,,-,61.0,,30.44,,Minnesota,-18.0,,,8:00 PM,,,,,,,15.0,,West,5.8,260.0,55401.0
Minneapolis,Clear,1970-01-19 03:00:00,-27.0,,-,70.0,,30.43,,Minnesota,-20.0,,,9:00 PM,,,,,,,15.0,,WSW,5.8,250.0,55401.0
Minneapolis,Clear,1970-01-19 04:00:00,-27.0,,-,70.0,,30.43,,Minnesota,-20.0,,,10:00 PM,,,,,,,15.0,,West,4.6,270.0,55401.0
Minneapolis,Clear,1970-01-19 05:00:00,-27.9,,-,70.0,,30.43,,Minnesota,-20.9,,,11:00 PM,,,,,,,15.0,,Calm,Calm,0.0,55401.0
Minneapolis,Clear,1970-01-19 06:00:00,-29.9,,-,78.0,,30.43,,Minnesota,-25.1,,,12:00 AM,,,,,,,8.0,,WSW,5.8,250.0,55401.0
Minneapolis,Clear,1970-01-19 07:00:00,-33.0,,-,66.0,,30.41,,Minnesota,-25.1,,,1:00 AM,,,,,,,10.0,,West,6.9,260.0,55401.0
Minneapolis,Clear,1970-01-19 08:00:00,-33.0,,-,73.0,,30.41,,Minnesota,-27.0,,,2:00 AM,,,,,,,7.0,,WSW,6.9,240.0,55401.0
Minneapolis,Fog,1970-01-19 09:00:00,-33.0,Fog,-,73.0,,30.41,,Minnesota,-27.0,,,3:00 AM,,,,,,,5.0,,SW,6.9,230.0,55401.0
Minneapolis,Fog,1970-01-19 10:00:00,-35.0,Fog,-,69.0,,30.4,,Minnesota,-27.9,,,4:00 AM,,,,,,,4.0,,WSW,5.8,250.0,55401.0
Minneapolis,Fog,1970-01-19 11:00:00,-36.0,Fog,-,69.0,,30.39,,Minnesota,-29.0,,,5:00 AM,,,,,,,2.0,,WSW,6.9,250.0,55401.0
Minneapolis,Fog,1970-01-19 12:00:00,-36.0,Fog,-,65.0,,30.39,,Minnesota,-27.9,,,6:00 AM,,,,,,,2.0,,SW,4.6,230.0,55401.0
Minneapolis,Fog,1970-01-19 13:00:00,-36.9,Fog,-,69.0,,30.4,,Minnesota,-29.9,,,7:00 AM,,,,,,,1.0,,WSW,6.9,240.0,55401.0
Minneapolis,Fog,1970-01-19 14:00:00,-38.0,Fog,-,65.0,,30.41,,Minnesota,-29.9,,,8:00 AM,,,,,,,0.4,,WSW,4.6,250.0,55401.0
Minneapolis,Fog,1970-01-19 15:00:00,-35.0,Fog,-,73.0,,30.4,,Minnesota,-29.0,,,9:00 AM,,,,,,,0.5,,West,4.6,260.0,55401.0
Minneapolis,Fog,1970-01-19 16:00:00,-31.0,Fog,-,74.0,,30.39,,Minnesota,-25.1,,,10:00 AM,,,,,,,0.5,,SW,3.5,220.0,55401.0
Minneapolis,Fog,1970-01-19 17:00:00,-27.0,Fog,-,73.0,,30.38,,Minnesota,-20.9,,,11:00 AM,,,,,,,5.5,,SSW,6.9,200.0,55401.0
Minneapolis,Fog,1970-01-19 18:00:00,-26.0,Fog,-,67.0,,30.35,,Minnesota,-18.0,,,12:00 PM,,,,,,,6.0,,SSW,5.8,200.0,55401.0
Minneapolis,Unknown,1970-01-19 19:00:00,-24.0,,-,64.0,,30.32,,Minnesota,-15.0,,,1:00 PM,,,,,,,8.0,,SW,8.1,220.0,55401.0
Minneapolis,Unknown,1970-01-19 20:00:00,-23.1,,-,61.0,,30.29,,Minnesota,-13.0,,,2:00 PM,,,,,,,10.0,,SW,6.9,230.0,55401.0
Minneapolis,Unknown,1970-01-19 21:00:00,-22.0,,-,58.0,,30.29,,Minnesota,-11.0,,,3:00 PM,,,,,,,10.0,,WSW,8.1,250.0,55401.0
Minneapolis,Unknown,1970-01-19 22:00:00,-22.0,,-,58.0,,30.27,,Minnesota,-11.0,,,4:00 PM,,,,,,,10.0,,WSW,8.1,240.0,55401.0
Minneapolis,Unknown,1970-01-19 23:00:00,-23.1,,-,61.0,,30.28,,Minnesota,-13.0,,,5:00 PM,,,,,,,10.0,,WSW,8.1,240.0,55401.0
Minneapolis,Unknown,1970-01-20 00:00:00,-25.1,,-,61.0,,30.23,,Minnesota,-15.0,,,6:00 PM,,,,,,,15.0,,SSW,9.2,210.0,55401.0
Minneapolis,Clear,1970-01-20 01:00:00,-25.1,,-,61.0,,30.25,,Minnesota,-15.0,,,7:00 PM,,,,,,,15.0,,Calm,Calm,0.0,55401.0
Minneapolis,Clear,1970-01-20 02:00:00,-26.0,,-,67.0,,30.22,,Minnesota,-18.0,,,8:00 PM,,,,,,,15.0,,South,5.8,190.0,55401.0
Minneapolis,Clear,1970-01-20 03:00:00,-23.1,,-,81.0,,30.2,,Minnesota,-18.9,,,9:00 PM,,,,,,,15.0,,Calm,Calm,0.0,55401.0
Minneapolis,Unknown,1970-01-20 04:00:00,-23.1,,-,67.0,,30.19,,Minnesota,-15.0,,,10:00 PM,,,,,,,15.0,,Calm,Calm,0.0,55401.0
Minneapolis,Unknown,1970-01-20 05:00:00,-20.0,,-,71.0,,30.17,,Minnesota,-13.0,,,11:00 PM,,,,,,,15.0,,West,9.2,280.0,55401.0
Minneapolis,Clear,1970-01-20 06:00:00,-23.1,,-,67.0,,30.17,,Minnesota,-15.0,,,12:00 AM,,,,,,,15.0,,WNW,8.1,300.0,55401.0
Minneapolis,Clear,1970-01-20 07:00:00,-22.0,,-,71.0,,30.18,,Minnesota,-15.0,,,1:00 AM,,,,,,,15.0,,NW,12.7,320.0,55401.0
Minneapolis,Unknown,1970-01-20 08:00:00,-23.1,,-,67.0,,30.19,,Minnesota,-15.0,,,2:00 AM,,,,,,,15.0,,NNW,11.5,330.0,55401.0
Minneapolis,Unknown,1970-01-20 09:00:00,-25.1,,-,61.0,,30.22,,Minnesota,-15.0,,,3:00 AM,,,,,,,15.0,,NNW,16.1,330.0,55401.0
Minneapolis,Clear,1970-01-20 10:00:00,-26.0,,-,61.0,,30.24,,Minnesota,-16.1,,,4:00 AM,,,,,,,15.0,,NNW,12.7,340.0,55401.0
Minneapolis,Clear,1970-01-20 11:00:00,-26.0,,-,64.0,,30.26,,Minnesota,-17.0,,,5:00 AM,,,,,,,15.0,,North,16.1,350.0,55401.0
Minneapolis,Clear,1970-01-20 12:00:00,-27.9,,-,61.0,,30.3,,Minnesota,-18.0,,,6:00 AM,,,,,,,15.0,,NNW,13.8,340.0,55401.0
Minneapolis,Clear,1970-01-20 13:00:00,-27.9,,-,63.0,,30.33,,Minnesota,-18.9,,,7:00 AM,,,,,,,15.0,,NNW,15.0,340.0,55401.0
Minneapolis,Fog,1970-01-20 14:00:00,-27.9,Fog,-,61.0,,30.37,,Minnesota,-18.0,,,8:00 AM,,,,,,,4.0,,North,15.0,350.0,55401.0
Minneapolis,Clear,1970-01-20 15:00:00,-29.0,,-,63.0,,30.42,,Minnesota,-20.0,,,9:00 AM,,,,,,,8.0,,NNW,15.0,330.0,55401.0
Minneapolis,Clear,1970-01-20 16:00:00,-27.9,,-,58.0,,30.47,,Minnesota,-17.0,,,10:00 AM,,,,,,,15.0,,NNW,16.1,340.0,55401.0
Minneapolis,Clear,1970-01-20 17:00:00,-27.0,,-,55.0,,30.49,,Minnesota,-15.0,,,11:00 AM,,,,,,,15.0,,NNW,16.1,340.0,55401.0
Minneapolis,Clear,1970-01-20 18:00:00,-26.0,,-,55.0,,30.5,,Minnesota,-14.1,,,12:00 PM,,,,,,,15.0,,NW,16.1,320.0,55401.0
Minneapolis,Clear,1970-01-20 19:00:00,-25.1,,-,55.0,,30.51,,Minnesota,-13.0,,,1:00 PM,,,,,,,15.0,,NNW,13.8,330.0,55401.0
Minneapolis,Clear,1970-01-20 20:00:00,-24.0,,-,53.0,,30.51,,Minnesota,-11.0,,,2:00 PM,,,,,,,15.0,,North,13.8,360.0,55401.0
Minneapolis,Clear,1970-01-20 21:00:00,-25.1,,-,50.0,,30.52,,Minnesota,-11.0,,,3:00 PM,,,,,,,15.0,,NW,13.8,320.0,55401.0
Minneapolis,Clear,1970-01-20 22:00:00,-25.1,,-,52.0,,30.55,,Minnesota,-11.9,,,4:00 PM,,,,,,,15.0,,NW,15.0,320.0,55401.0
Minneapolis,Clear,1970-01-20 23:00:00,-26.0,,-,55.0,,30.56,,Minnesota,-14.1,,,5:00 PM,,,,,,,15.0,,NW,12.7,320.0,55401.0
Minneapolis,Clear,1970-01-21 00:00:00,-27.0,,-,58.0,,30.59,,Minnesota,-16.1,,,6:00 PM,,,,,,,15.0,,NW,9.2,320.0,55401.0
Minneapolis,Clear,1970-01-21 01:00:00,-27.9,,-,55.0,,30.61,,Minnesota,-16.1,,,7:00 PM,,,,,,,15.0,,NW,8.1,320.0,55401.0
Minneapolis,Clear,1970-01-21 02:00:00,-27.0,,-,55.0,,30.63,,Minnesota,-15.0,,,8:00 PM,,,,,,,15.0,,NW,8.1,310.0,55401.0
Minneapolis,Clear,1970-01-21 03:00:00,-29.0,,-,63.0,,30.64,,Minnesota,-20.0,,,9:00 PM,,,,,,,15.0,,NNW,6.9,330.0,55401.0
Minneapolis,Clear,1970-01-21 04:00:00,-27.9,,-,63.0,,30.65,,Minnesota,-18.9,,,10:00 PM,,,,,,,15.0,,WNW,6.9,300.0,55401.0
Minneapolis,Clear,1970-01-21 05:00:00,-27.9,,-,70.0,,30.67,,Minnesota,-20.9,,,11:00 PM,,,,,,,15.0,,WSW,6.9,250.0,55401.0
Minneapolis,Clear,1970-01-21 06:00:00,-29.9,,-,74.0,,30.68,,Minnesota,-24.0,,,12:00 AM,,,,,,,15.0,,WSW,5.8,250.0,55401.0
Minneapolis,Clear,1970-01-21 07:00:00,-29.9,,-,78.0,,30.69,,Minnesota,-25.1,,,1:00 AM,,,,,,,15.0,,WSW,5.8,250.0,55401.0
Minneapolis,Clear,1970-01-21 08:00:00,-31.0,,-,70.0,,30.68,,Minnesota,-24.0,,,2:00 AM,,,,,,,15.0,,WSW,6.9,250.0,55401.0
Minneapolis,Clear,1970-01-21 09:00:00,-34.1,,-,66.0,,30.69,,Minnesota,-26.0,,,3:00 AM,,,,,,,10.0,,WSW,4.6,240.0,55401.0
Minneapolis,Clear,1970-01-21 10:00:00,-34.1,,-,73.0,,30.68,,Minnesota,-27.9,,,4:00 AM,,,,,,,10.0,,SW,8.1,220.0,55401.0
Minneapolis,Clear,1970-01-21 11:00:00,-34.1,,-,73.0,,30.69,,Minnesota,-27.9,,,5:00 AM,,,,,,,8.0,,WSW,6.9,240.0,55401.0
Minneapolis,Fog,1970-01-21 12:00:00,-33.0,Fog,-,73.0,,30.7,,Minnesota,-27.0,,,6:00 AM,,,,,,,6.0,,SW,8.1,230.0,55401.0
Minneapolis,Fog,1970-01-21 13:00:00,-35.0,Fog,-,73.0,,30.7,,Minnesota,-29.0,,,7:00 AM,,,,,,,10.5,,SW,6.9,220.0,55401.0
Minneapolis,Fog,1970-01-21 14:00:00,-35.0,Fog,-,69.0,,30.7,,Minnesota,-27.9,,,8:00 AM,,,,,,,0.5,,SW,6.9,220.0,55401.0
Minneapolis,Fog,1970-01-21 15:00:00,-33.0,Fog,-,69.0,,30.71,,Minnesota,-26.0,,,9:00 AM,,,,,,,0.5,,SW,3.5,230.0,55401.0
Minneapolis,Fog,1970-01-21 16:00:00,-27.9,Fog,-,74.0,,30.69,,Minnesota,-22.0,,,10:00 AM,,,,,,,0.8,,SW,5.8,220.0,55401.0
Minneapolis,Fog,1970-01-21 17:00:00,-26.0,Fog,-,74.0,,30.67,,Minnesota,-20.0,,,11:00 AM,,,,,,,5.0,,South,5.8,190.0,55401.0
Minneapolis,Clear,1970-01-21 18:00:00,-24.0,,-,67.0,,30.62,,Minnesota,-16.1,,,12:00 PM,,,,,,,10.0,,South,5.8,190.0,55401.0
Minneapolis,Clear,1970-01-21 19:00:00,-22.0,,-,58.0,,30.58,,Minnesota,-11.0,,,1:00 PM,,,,,,,10.0,,SW,4.6,230.0,55401.0
Minneapolis,Clear,1970-01-21 20:00:00,-20.9,,-,56.0,,30.56,,Minnesota,-9.0,,,2:00 PM,,,,,,,15.0,,SW,6.9,220.0,55401.0
Minneapolis,Clear,1970-01-21 21:00:00,-20.9,,-,51.0,,30.53,,Minnesota,-7.1,,,3:00 PM,,,,,,,15.0,,SW,3.5,220.0,55401.0
Minneapolis,Clear,1970-01-21 22:00:00,-22.0,,-,55.0,,30.52,,Minnesota,-9.9,,,4:00 PM,,,,,,,15.0,,SSW,9.2,210.0,55401.0
Minneapolis,Unknown,1970-01-21 23:00:00,-24.0,,-,55.0,,30.51,,Minnesota,-11.9,,,5:00 PM,,,,,,,15.0,,SSE,6.9,160.0,55401.0
Minneapolis,Unknown,1970-01-22 00:00:00,-25.1,,-,55.0,,30.47,,Minnesota,-13.0,,,6:00 PM,,,,,,,15.0,,SSE,6.9,160.0,55401.0
Minneapolis,Unknown,1970-01-22 01:00:00,-24.0,,-,55.0,,30.43,,Minnesota,-11.9,,,7:00 PM,,,,,,,15.0,,SSE,6.9,150.0,55401.0
Minneapolis,Unknown,1970-01-22 02:00:00,-20.9,,-,59.0,,30.37,,Minnesota,-9.9,,,8:00 PM,,,,,,,15.0,,SSE,9.2,160.0,55401.0
Minneapolis,Unknown,1970-01-22 03:00:00,-18.9,,-,59.0,,30.32,,Minnesota,-8.0,,,9:00 PM,,,,,,,15.0,,South,8.1,180.0,55401.0
Minneapolis,Unknown,1970-01-22 04:00:00,-18.0,,-,59.0,,30.29,,Minnesota,-7.1,,,10:00 PM,,,,,,,15.0,,South,9.2,170.0,55401.0
Minneapolis,Unknown,1970-01-22 05:00:00,-17.0,,-,57.0,,30.27,,Minnesota,-5.1,,,11:00 PM,,,,,,,15.0,,SSE,9.2,160.0,55401.0
Minneapolis,Light Snow,1970-01-22 06:00:00,-14.1,Snow,-,59.0,,30.23,,Minnesota,-2.9,,,12:00 AM,,,,,,,10.0,,SSE,8.1,160.0,55401.0
Minneapolis,Light Snow,1970-01-22 07:00:00,-11.0,Snow,-,60.0,,30.18,,Minnesota,-0.0,,,1:00 AM,,,,,,,10.0,,South,12.7,180.0,55401.0
Minneapolis,Light Snow,1970-01-22 08:00:00,-9.9,Snow,-,63.0,,30.14,,Minnesota,-0.0,,,2:00 AM,,,,,,,5.5,,South,10.4,180.0,55401.0
Minneapolis,Light Snow,1970-01-22 09:00:00,-7.1,Snow,-,69.0,,30.09,,Minnesota,1.0,,,3:00 AM,,,,,,,10.5,,South,12.7,180.0,55401.0
Minneapolis,Light Snow,1970-01-22 10:00:00,-5.1,Snow,-,72.0,,30.06,,Minnesota,1.9,,,4:00 AM,,,,,,,5.5,,South,12.7,180.0,55401.0
Minneapolis,Light Freezing Drizzle,1970-01-22 11:00:00,-4.0,Snow,-,73.0,0.01,30.02,,Minnesota,3.0,,,5:00 AM,,,,,,,5.5,,South,11.5,180.0,55401.0
Minneapolis,Light Freezing Drizzle,1970-01-22 12:00:00,-6.0,Snow,-,64.0,,29.97,,Minnesota,3.9,,,6:00 AM,,,,,,,6.0,,South,11.5,180.0,55401.0
Minneapolis,Light Snow,1970-01-22 13:00:00,-4.0,Snow,-,70.0,,29.95,,Minnesota,3.9,,,7:00 AM,,,,,,,6.0,,South,10.4,180.0,55401.0
Minneapolis,Light Snow,1970-01-22 14:00:00,-6.0,Snow,-,61.0,,29.92,,Minnesota,5.0,,,8:00 AM,,,,,,,2.0,,SSE,8.1,160.0,55401.0
Minneapolis,Light Snow,1970-01-22 15:00:00,-0.0,Fog-Snow,-,76.0,0.01,29.9,,Minnesota,6.1,,,9:00 AM,,,,,,,0.8,,ESE,6.9,120.0,55401.0
Minneapolis,Light Snow,1970-01-22 16:00:00,3.0,Fog-Snow,-,77.0,0.01,29.9,,Minnesota,9.0,,,10:00 AM,,,,,,,5.5,,SSE,5.8,150.0,55401.0
Minneapolis,Light Snow,1970-01-22 17:00:00,3.0,Fog-Snow,-,65.0,,29.88,,Minnesota,12.9,,,11:00 AM,,,,,,,1.9,,South,5.8,190.0,55401.0
Minneapolis,Light Snow,1970-01-22 18:00:00,10.0,Fog-Snow,-,84.0,,29.85,,Minnesota,14.0,,,12:00 PM,,,,,,,3.0,,SSW,5.8,200.0,55401.0
Minneapolis,Light Snow,1970-01-22 19:00:00,12.0,Fog-Snow,-,88.0,,29.82,,Minnesota,15.1,,,1:00 PM,,,,,,,3.0,,South,5.8,180.0,55401.0
Minneapolis,Light Snow,1970-01-22 20:00:00,12.0,Fog-Snow,-,84.0,,29.82,,Minnesota,16.0,,,2:00 PM,,,,,,,4.0,,SW,5.8,230.0,55401.0
Minneapolis,Light Snow,1970-01-22 21:00:00,12.9,Fog-Snow,-,84.0,,29.82,,Minnesota,17.1,,,3:00 PM,,,,,,,4.0,,West,4.6,270.0,55401.0
Minneapolis,Light Snow,1970-01-22 22:00:00,12.9,Fog-Snow,-,84.0,,29.83,,Minnesota,17.1,,,4:00 PM,,,,,,,4.0,,West,4.6,270.0,55401.0
Minneapolis,Light Snow,1970-01-22 23:00:00,12.9,Fog-Snow,-,84.0,,29.84,,Minnesota,17.1,,,5:00 PM,,,,,,,10.5,,North,4.6,350.0,55401.0
Minneapolis,Light Snow,1970-01-23 00:00:00,12.9,Fog-Snow,-,88.0,,29.86,,Minnesota,16.0,,,6:00 PM,,,,,,,10.5,,North,6.9,360.0,55401.0
Minneapolis,Light Snow,1970-01-23 01:00:00,12.0,Fog-Snow,-,88.0,,29.89,,Minnesota,15.1,,,7:00 PM,,,,,,,3.0,,North,11.5,360.0,55401.0
Minneapolis,Light Snow,1970-01-23 02:00:00,8.1,Snow,-,81.0,,29.92,,Minnesota,12.9,,,8:00 PM,,,,,,,8.0,,North,13.8,360.0,55401.0
Minneapolis,Light Snow,1970-01-23 03:00:00,6.1,Snow,-,77.0,,29.97,,Minnesota,12.0,,,9:00 PM,,,,,,,10.0,,North,12.7,360.0,55401.0
Minneapolis,Light Snow,1970-01-23 04:00:00,-0.0,Snow,-,67.0,,29.98,,Minnesota,9.0,,,10:00 PM,,,,,,,10.0,,North,11.5,10.0,55401.0
Minneapolis,Light Snow,1970-01-23 05:00:00,-0.0,Snow,-,67.0,,30.01,,Minnesota,9.0,,,11:00 PM,,,,,,,15.0,,North,13.8,10.0,55401.0
Minneapolis,Unknown,1970-01-23 06:00:00,-2.9,,-,67.0,,30.05,,Minnesota,6.1,,,12:00 AM,,,,,,,15.0,,North,12.7,360.0,55401.0
Minneapolis,Clear,1970-01-23 07:00:00,-6.0,,-,66.0,,30.06,,Minnesota,3.0,,,1:00 AM,,,,,,,15.0,,North,13.8,360.0,55401.0
Minneapolis,Unknown,1970-01-23 08:00:00,-8.0,,-,66.0,,30.07,,Minnesota,1.0,,,2:00 AM,,,,,,,15.0,,North,10.4,10.0,55401.0
Minneapolis,Unknown,1970-01-23 09:00:00,-9.0,,-,66.0,,30.11,,Minnesota,-0.0,,,3:00 AM,,,,,,,15.0,,North,6.9,360.0,55401.0
Minneapolis,Unknown,1970-01-23 10:00:00,-11.0,,-,76.0,,30.13,,Minnesota,-5.1,,,4:00 AM,,,,,,,15.0,,North,4.6,350.0,55401.0
Minneapolis,Unknown,1970-01-23 11:00:00,-11.0,,-,68.0,,30.11,,Minnesota,-2.9,,,5:00 AM,,,,,,,15.0,,North,6.9,10.0,55401.0
Minneapolis,Unknown,1970-01-23 12:00:00,-11.9,,-,75.0,,30.14,,Minnesota,-6.0,,,6:00 AM,,,,,,,15.0,,North,5.8,350.0,55401.0
Minneapolis,Unknown,1970-01-23 13:00:00,-13.0,,-,72.0,,30.17,,Minnesota,-6.0,,,7:00 AM,,,,,,,15.0,,WNW,4.6,290.0,55401.0
Minneapolis,Unknown,1970-01-23 14:00:00,-11.0,,-,72.0,,30.19,,Minnesota,-4.0,,,8:00 AM,,,,,,,7.0,,Calm,Calm,0.0,55401.0
Minneapolis,Smoke,1970-01-23 15:00:00,-9.9,,-,72.0,,30.22,,Minnesota,-2.9,,,9:00 AM,,,,,,,6.0,,Calm,Calm,0.0,55401.0
Minneapolis,Smoke,1970-01-23 16:00:00,-8.0,,-,69.0,,30.2,,Minnesota,-0.0,,,10:00 AM,,,,,,,3.0,,Calm,Calm,0.0,55401.0
Minneapolis,Smoke,1970-01-23 17:00:00,-8.0,,-,66.0,,30.22,,Minnesota,1.0,,,11:00 AM,,,,,,,6.0,,South,3.5,170.0,55401.0
Minneapolis,Smoke,1970-01-23 18:00:00,-6.0,,-,64.0,,30.19,,Minnesota,3.9,,,12:00 PM,,,,,,,6.0,,SSE,3.5,160.0,55401.0
Minneapolis,Smoke,1970-01-23 19:00:00,-2.9,,-,67.0,,30.18,,Minnesota,6.1,,,1:00 PM,,,,,,,6.0,,SSW,5.8,200.0,55401.0
Minneapolis,Unknown,1970-01-23 20:00:00,-4.0,,-,63.0,,30.17,,Minnesota,6.1,,,2:00 PM,,,,,,,7.0,,South,9.2,180.0,55401.0
Minneapolis,Unknown,1970-01-23 21:00:00,-2.9,,-,64.0,,30.14,,Minnesota,7.0,,,3:00 PM,,,,,,,7.0,,South,8.1,180.0,55401.0
Minneapolis,Unknown,1970-01-23 22:00:00,-4.0,,-,63.0,,30.14,,Minnesota,6.1,,,4:00 PM,,,,,,,7.0,,South,9.2,180.0,55401.0
Minneapolis,Unknown,1970-01-23 23:00:00,-4.0,,-,63.0,,30.08,,Minnesota,6.1,,,5:00 PM,,,,,,,10.0,,South,9.2,170.0,55401.0
Minneapolis,Unknown,1970-01-24 00:00:00,-2.9,,-,70.0,,30.05,,Minnesota,5.0,,,6:00 PM,,,,,,,10.0,,South,10.4,170.0,55401.0
Minneapolis,Unknown,1970-01-24 01:00:00,-2.0,,-,69.0,,30.06,,Minnesota,6.1,,,7:00 PM,,,,,,,10.0,,South,10.4,170.0,55401.0
Minneapolis,Unknown,1970-01-24 02:00:00,-0.0,,-,70.0,,30.04,,Minnesota,8.1,,,8:00 PM,,,,,,,10.0,,South,10.4,190.0,55401.0
Minneapolis,Unknown,1970-01-24 03:00:00,3.0,,-,73.0,,29.98,,Minnesota,10.0,,,9:00 PM,,,,,,,10.0,,South,12.7,180.0,55401.0
Minneapolis,Unknown,1970-01-24 04:00:00,3.0,,-,67.0,,29.94,,Minnesota,12.0,,,10:00 PM,,,,,,,15.0,,South,15.0,180.0,55401.0
Minneapolis,Unknown,1970-01-24 05:00:00,3.0,,-,62.0,,29.89,,Minnesota,14.0,,,11:00 PM,,,,,,,15.0,,South,13.8,180.0,55401.0
Minneapolis,Unknown,1970-01-24 06:00:00,10.0,,-,80.0,,29.83,,Minnesota,15.1,,,12:00 AM,,,,,,,15.0,,South,13.8,180.0,55401.0
Minneapolis,Unknown,1970-01-24 07:00:00,10.9,,-,84.0,,29.79,,Minnesota,15.1,,,1:00 AM,,,,,,,15.0,,South,11.5,180.0,55401.0
Minneapolis,Unknown,1970-01-24 08:00:00,16.0,,-,85.0,,29.72,,Minnesota,19.9,,,2:00 AM,,,,,,,10.0,,SSW,18.4,200.0,55401.0
Minneapolis,Unknown,1970-01-24 09:00:00,17.1,,-,89.0,,29.75,,Minnesota,19.9,,,3:00 AM,,,,,,,10.0,,SSW,13.8,210.0,55401.0
Minneapolis,Unknown,1970-01-24 10:00:00,15.1,,-,92.0,,29.71,,Minnesota,17.1,,,4:00 AM,,,,,,,10.0,,South,10.4,190.0,55401.0
Minneapolis,Clear,1970-01-24 11:00:00,12.0,,-,88.0,,29.7,,Minnesota,15.1,,,5:00 AM,,,,,,,10.0,,South,11.5,190.0,55401.0
Minneapolis,Clear,1970-01-24 12:00:00,12.9,,-,91.0,,29.7,,Minnesota,15.1,,,6:00 AM,,,,,,,10.0,,South,8.1,190.0,55401.0
Minneapolis,Clear,1970-01-24 13:00:00,12.9,,-,91.0,,29.7,,Minnesota,15.1,,,7:00 AM,,,,,,,8.0,,SSW,6.9,210.0,55401.0
Minneapolis,Smoke,1970-01-24 14:00:00,16.0,,-,96.0,,29.71,,Minnesota,17.1,,,8:00 AM,,,,,,,6.0,,Calm,Calm,0.0,55401.0
Minneapolis,Smoke,1970-01-24 15:00:00,16.0,,-,96.0,,29.7,,Minnesota,17.1,,,9:00 AM,,,,,,,5.0,,Calm,Calm,0.0,55401.0
Minneapolis,Smoke,1970-01-24 16:00:00,17.1,,-,92.0,,29.68,,Minnesota,19.0,,,10:00 AM,,,,,,,5.0,,SE,3.5,130.0,55401.0
Minneapolis,Smoke,1970-01-24 17:00:00,19.0,,-,96.0,,29.68,,Minnesota,19.9,,,11:00 AM,,,,,,,5.0,,SSW,6.9,210.0,55401.0
Minneapolis,Smoke,1970-01-24 18:00:00,21.0,,-,81.0,,29.7,,Minnesota,26.1,,,12:00 PM,,,,,,,5.0,,WSW,6.9,240.0,55401.0
Minneapolis,Smoke,1970-01-24 19:00:00,21.9,,-,84.0,,29.64,,Minnesota,26.1,,,1:00 PM,,,,,,,5.0,,SW,4.6,220.0,55401.0
Minneapolis,Smoke,1970-01-24 20:00:00,23.0,,-,81.0,,29.63,,Minnesota,28.0,,,2:00 PM,,,,,,,5.0,,WNW,4.6,290.0,55401.0
Minneapolis,Smoke,1970-01-24 21:00:00,23.0,,-,78.0,,29.61,,Minnesota,28.9,,,3:00 PM,,,,,,,5.0,,Calm,Calm,0.0,55401.0
Minneapolis,Smoke,1970-01-24 22:00:00,23.0,,-,81.0,,29.6,,Minnesota,28.0,,,4:00 PM,,,,,,,6.0,,ESE,4.6,120.0,55401.0
Minneapolis,Smoke,1970-01-24 23:00:00,23.0,,-,81.0,,29.6,,Minnesota,28.0,,,5:00 PM,,,,,,,5.0,,ENE,10.4,70.0,55401.0
Minneapolis,Smoke,1970-01-25 00:00:00,23.0,,-,85.0,,29.62,,Minnesota,27.0,,,6:00 PM,,,,,,,3.0,,ESE,5.8,110.0,55401.0
Minneapolis,Smoke,1970-01-25 01:00:00,23.0,,-,85.0,,29.62,,Minnesota,27.0,,,7:00 PM,,,,,,,4.0,,ESE,5.8,110.0,55401.0
Minneapolis,Smoke,1970-01-25 02:00:00,23.0,,-,85.0,,29.6,,Minnesota,27.0,,,8:00 PM,,,,,,,4.0,,East,9.2,80.0,55401.0
Minneapolis,Fog,1970-01-25 03:00:00,24.1,Fog,-,89.0,,29.59,,Minnesota,27.0,,,9:00 PM,,,,,,,4.0,,ESE,8.1,110.0,55401.0
Minneapolis,Fog,1970-01-25 04:00:00,24.1,Fog,-,85.0,,29.6,,Minnesota,28.0,,,10:00 PM,,,,,,,4.0,,ENE,4.6,70.0,55401.0
Minneapolis,Fog,1970-01-25 05:00:00,23.0,Fog,-,85.0,,29.57,,Minnesota,27.0,,,11:00 PM,,,,,,,4.0,,ESE,9.2,110.0,55401.0
Minneapolis,Fog,1970-01-25 06:00:00,23.0,Fog,-,85.0,,29.54,,Minnesota,27.0,,,12:00 AM,,,,,,,5.0,,ENE,10.4,70.0,55401.0
Minneapolis,Fog,1970-01-25 07:00:00,23.0,Fog,-,85.0,,29.51,,Minnesota,27.0,,,1:00 AM,,,,,,,6.0,,ENE,9.2,60.0,55401.0
Minneapolis,Fog,1970-01-25 08:00:00,23.0,Fog,-,85.0,,29.5,,Minnesota,27.0,,,2:00 AM,,,,,,,6.0,,ENE,8.1,70.0,55401.0
Minneapolis,Fog,1970-01-25 09:00:00,23.0,Fog,-,85.0,,29.5,,Minnesota,27.0,,,3:00 AM,,,,,,,6.0,,ENE,8.1,60.0,55401.0
Minneapolis,Fog,1970-01-25 10:00:00,23.0,Fog,-,85.0,,29.49,,Minnesota,27.0,,,4:00 AM,,,,,,,6.0,,ENE,10.4,60.0,55401.0
Minneapolis,Fog,1970-01-25 11:00:00,24.1,Fog,-,85.0,,29.48,,Minnesota,28.0,,,5:00 AM,,,,,,,6.0,,NE,12.7,50.0,55401.0
Minneapolis,Unknown,1970-01-25 12:00:00,24.1,,-,85.0,,29.49,,Minnesota,28.0,,,6:00 AM,,,,,,,8.0,,NE,13.8,50.0,55401.0
Minneapolis,Light Snow,1970-01-25 13:00:00,25.0,Fog-Snow,-,88.0,0.04,29.53,,Minnesota,28.0,,,7:00 AM,,,,,,,1.0,,NE,8.1,40.0,55401.0
Minneapolis,Light Snow,1970-01-25 14:00:00,26.1,Fog-Snow,-,92.0,0.03,29.52,,Minnesota,28.0,,,8:00 AM,,,,,,,1.0,,NNE,11.5,20.0,55401.0
Minneapolis,Light Snow,1970-01-25 15:00:00,28.0,Fog-Snow,-,96.0,0.02,29.56,,Minnesota,28.9,,,9:00 AM,,,,,,,2.8,,North,8.1,10.0,55401.0
Minneapolis,Light Snow,1970-01-25 16:00:00,27.0,Fog-Snow,-,92.0,0.01,29.59,,Minnesota,28.9,,,10:00 AM,,,,,,,0.8,,North,17.3,10.0,55401.0
Minneapolis,Light Snow,1970-01-25 17:00:00,26.1,Fog-Snow,-,89.0,,29.62,,Minnesota,28.9,,,11:00 AM,,,,,,,1.0,,North,17.3,10.0,55401.0
Minneapolis,Light Snow,1970-01-25 18:00:00,26.1,Fog-Snow,-,82.0,,29.62,,Minnesota,30.9,,,12:00 PM,,,,,,,5.0,,NNE,15.0,20.0,55401.0
Minneapolis,Freezing Rain,1970-01-25 19:00:00,25.0,,-,79.0,,29.64,,Minnesota,30.9,,,1:00 PM,,,,,,,5.0,,North,13.8,10.0,55401.0
Minneapolis,Unknown,1970-01-25 20:00:00,25.0,,-,79.0,,29.65,,Minnesota,30.9,,,2:00 PM,,,,,,,7.0,,North,15.0,10.0,55401.0
Minneapolis,Unknown,1970-01-25 21:00:00,25.0,,-,75.0,,29.69,,Minnesota,32.0,,,3:00 PM,,,,,,,7.0,,NNE,13.8,20.0,55401.0
Minneapolis,Unknown,1970-01-25 22:00:00,25.0,,-,79.0,,29.74,,Minnesota,30.9,,,4:00 PM,,,,,,,7.0,,North,11.5,360.0,55401.0
Minneapolis,Unknown,1970-01-25 23:00:00,24.1,,-,85.0,,29.78,,Minnesota,28.0,,,5:00 PM,,,,,,,8.0,,North,8.1,350.0,55401.0
Minneapolis,Unknown,1970-01-26 00:00:00,23.0,,-,85.0,,29.8,,Minnesota,27.0,,,6:00 PM,,,,,,,8.0,,NW,6.9,320.0,55401.0
Minneapolis,Unknown,1970-01-26 01:00:00,21.9,,-,91.0,,29.83,,Minnesota,24.1,,,7:00 PM,,,,,,,8.0,,WNW,5.8,290.0,55401.0
Minneapolis,Unknown,1970-01-26 02:00:00,21.9,,-,88.0,,29.84,,Minnesota,25.0,,,8:00 PM,,,,,,,8.0,,WNW,3.5,290.0,55401.0
Minneapolis,Unknown,1970-01-26 03:00:00,19.0,,-,96.0,,29.86,,Minnesota,19.9,,,9:00 PM,,,,,,,8.0,,SW,2.3,220.0,55401.0
Minneapolis,Unknown,1970-01-26 04:00:00,19.9,,-,92.0,,29.87,,Minnesota,21.9,,,10:00 PM,,,,,,,8.0,,Calm,Calm,0.0,55401.0
Minneapolis,Unknown,1970-01-26 05:00:00,18.0,,-,96.0,,29.88,,Minnesota,19.0,,,11:00 PM,,,,,,,8.0,,SSW,4.6,200.0,55401.0
Minneapolis,Unknown,1970-01-26 06:00:00,19.0,,-,100.0,,29.9,,Minnesota,19.0,,,12:00 AM,,,,,,,7.0,,WSW,3.5,240.0,55401.0
Minneapolis,Unknown,1970-01-26 07:00:00,19.9,,-,96.0,,29.9,,Minnesota,21.0,,,1:00 AM,,,,,,,7.0,,SW,5.8,230.0,55401.0
Minneapolis,Fog,1970-01-26 08:00:00,19.0,Fog,-,96.0,,29.93,,Minnesota,19.9,,,2:00 AM,,,,,,,4.0,,WSW,6.9,240.0,55401.0
Minneapolis,Fog,1970-01-26 09:00:00,18.0,Fog,-,96.0,,29.93,,Minnesota,19.0,,,3:00 AM,,,,,,,5.0,,Calm,Calm,0.0,55401.0
Minneapolis,Fog,1970-01-26 10:00:00,19.0,Fog,-,96.0,,29.92,,Minnesota,19.9,,,4:00 AM,,,,,,,5.0,,WSW,8.1,250.0,55401.0
Minneapolis,Fog,1970-01-26 11:00:00,16.0,Fog,-,92.0,,29.9,,Minnesota,18.0,,,5:00 AM,,,,,,,5.0,,South,4.6,170.0,55401.0
Minneapolis,Fog,1970-01-26 12:00:00,18.0,Fog,-,100.0,,29.9,,Minnesota,18.0,,,6:00 AM,,,,,,,6.0,,SW,3.5,220.0,55401.0
Minneapolis,Unknown,1970-01-26 13:00:00,17.1,,-,96.0,,29.91,,Minnesota,18.0,,,7:00 AM,,,,,,,7.0,,South,8.1,190.0,55401.0
Minneapolis,Smoke,1970-01-26 14:00:00,15.1,,-,88.0,,29.9,,Minnesota,18.0,,,8:00 AM,,,,,,,5.0,,South,5.8,170.0,55401.0
Minneapolis,Smoke,1970-01-26 15:00:00,15.1,,-,92.0,,29.9,,Minnesota,17.1,,,9:00 AM,,,,,,,5.0,,South,5.8,180.0,55401.0
Minneapolis,Smoke,1970-01-26 16:00:00,21.0,,-,88.0,,29.88,,Minnesota,24.1,,,10:00 AM,,,,,,,5.0,,SSW,15.0,200.0,55401.0
Minneapolis,Unknown,1970-01-26 17:00:00,21.9,,-,84.0,,29.88,,Minnesota,26.1,,,11:00 AM,,,,,,,7.0,,SSW,11.5,200.0,55401.0
Minneapolis,Unknown,1970-01-26 18:00:00,24.1,,-,82.0,,29.86,,Minnesota,28.9,,,12:00 PM,,,,,,,7.0,,SSW,15.0,210.0,55401.0
Minneapolis,Unknown,1970-01-26 19:00:00,25.0,,-,82.0,,29.84,,Minnesota,30.0,,,1:00 PM,,,,,,,7.0,,WSW,9.2,250.0,55401.0
Minneapolis,Light Snow,1970-01-26 20:00:00,26.1,Snow,-,89.0,,29.83,,Minnesota,28.9,,,2:00 PM,,,,,,,6.0,,SW,11.5,230.0,55401.0
Minneapolis,Light Snow,1970-01-26 21:00:00,27.0,Snow,-,88.0,,29.81,,Minnesota,30.0,,,3:00 PM,,,,,,,6.0,,South,11.5,190.0,55401.0
Minneapolis,Snow,1970-01-26 22:00:00,28.0,Snow,-,92.0,0.02,29.84,,Minnesota,30.0,,,4:00 PM,,,,,,,0.5,,WNW,9.2,290.0,55401.0
Minneapolis,Light Snow,1970-01-26 23:00:00,28.0,Fog-Snow,-,92.0,0.04,29.84,,Minnesota,30.0,,,5:00 PM,,,,,,,2.0,,West,8.1,270.0,55401.0
Minneapolis,Light Snow,1970-01-27 00:00:00,28.0,Fog-Snow,-,92.0,,29.86,,Minnesota,30.0,,,6:00 PM,,,,,,,6.0,,NW,9.2,320.0,55401.0
Minneapolis,Unknown,1970-01-27 01:00:00,28.0,,-,92.0,,29.88,,Minnesota,30.0,,,7:00 PM,,,,,,,7.0,,NNW,9.2,330.0,55401.0
Minneapolis,Unknown,1970-01-27 02:00:00,26.1,,-,82.0,,29.9,,Minnesota,30.9,,,8:00 PM,,,,,,,15.0,,NNW,15.0,340.0,55401.0
Minneapolis,Unknown,1970-01-27 03:00:00,23.0,,-,81.0,,29.94,,Minnesota,28.0,,,9:00 PM,,,,,,,15.0,,North,13.8,350.0,55401.0
Minneapolis,Clear,1970-01-27 04:00:00,19.0,,-,81.0,,29.96,,Minnesota,24.1,,,10:00 PM,,,,,,,15.0,,NNW,10.4,330.0,55401.0
Minneapolis,Clear,1970-01-27 05:00:00,18.0,,-,85.0,,29.98,,Minnesota,21.9,,,11:00 PM,,,,,,,15.0,,NW,8.1,310.0,55401.0
Minneapolis,Clear,1970-01-27 06:00:00,15.1,,-,92.0,,30.0,,Minnesota,17.1,,,12:00 AM,,,,,,,15.0,,NW,8.1,320.0,55401.0
Minneapolis,Clear,1970-01-27 07:00:00,15.1,,-,92.0,,30.01,,Minnesota,17.1,,,1:00 AM,,,,,,,15.0,,WSW,6.9,240.0,55401.0
Minneapolis,Clear,1970-01-27 08:00:00,10.9,,-,92.0,,30.02,,Minnesota,12.9,,,2:00 AM,,,,,,,10.0,,SSW,6.9,210.0,55401.0
Minneapolis,Clear,1970-01-27 09:00:00,8.1,,-,92.0,,30.04,,Minnesota,10.0,,,3:00 AM,,,,,,,10.0,,SSW,4.6,210.0,55401.0
Minneapolis,Clear,1970-01-27 10:00:00,8.1,,-,92.0,,30.02,,Minnesota,10.0,,,4:00 AM,,,,,,,8.0,,South,4.6,190.0,55401.0
Minneapolis,Unknown,1970-01-27 11:00:00,5.0,,-,87.0,,30.01,,Minnesota,8.1,,,5:00 AM,,,,,,,7.0,,SSW,4.6,200.0,55401.0
Minneapolis,Unknown,1970-01-27 12:00:00,3.0,,-,87.0,,30.02,,Minnesota,6.1,,,6:00 AM,,,,,,,7.0,,SSW,6.9,200.0,55401.0
Minneapolis,Fog,1970-01-27 13:00:00,3.9,Fog,-,91.0,,30.0,,Minnesota,6.1,,,7:00 AM,,,,,,,6.0,,SSE,3.5,160.0,55401.0
Minneapolis,Fog,1970-01-27 14:00:00,8.1,Fog,-,88.0,,30.03,,Minnesota,10.9,,,8:00 AM,,,,,,,4.0,,South,6.9,190.0,55401.0
Minneapolis,Smoke,1970-01-27 15:00:00,10.0,,-,92.0,,30.01,,Minnesota,12.0,,,9:00 AM,,,,,,,4.0,,ESE,4.6,120.0,55401.0
Minneapolis,Smoke,1970-01-27 16:00:00,14.0,,-,95.0,,29.98,,Minnesota,15.1,,,10:00 AM,,,,,,,5.0,,SSE,11.5,150.0,55401.0
Minneapolis,Smoke,1970-01-27 17:00:00,12.9,,-,91.0,,29.97,,Minnesota,15.1,,,11:00 AM,,,,,,,6.0,,SSE,9.2,150.0,55401.0
Minneapolis,Unknown,1970-01-27 18:00:00,15.1,,-,92.0,,29.96,,Minnesota,17.1,,,12:00 PM,,,,,,,7.0,,SSE,9.2,160.0,55401.0
Minneapolis,Unknown,1970-01-27 19:00:00,18.0,,-,88.0,,29.91,,Minnesota,21.0,,,1:00 PM,,,,,,,7.0,,SE,8.1,140.0,55401.0
Minneapolis,Unknown,1970-01-27 20:00:00,19.0,,-,81.0,,29.87,,Minnesota,24.1,,,2:00 PM,,,,,,,8.0,,SSE,9.2,150.0,55401.0
Minneapolis,Unknown,1970-01-27 21:00:00,19.9,,-,75.0,,29.83,,Minnesota,27.0,,,3:00 PM,,,,,,,10.0,,SE,13.8,130.0,55401.0
Minneapolis,Unknown,1970-01-27 22:00:00,21.0,,-,81.0,,29.77,,Minnesota,26.1,,,4:00 PM,,,,,,,10.0,,ESE,16.1,120.0,55401.0
Minneapolis,Unknown,1970-01-27 23:00:00,21.0,,-,72.0,,29.74,,Minnesota,28.9,,,5:00 PM,,,,,,,15.0,,SSE,13.8,150.0,55401.0
Minneapolis,Unknown,1970-01-28 00:00:00,21.0,,-,72.0,,29.7,,Minnesota,28.9,,,6:00 PM,,,,,,,15.0,,SE,15.0,140.0,55401.0
Minneapolis,Unknown,1970-01-28 01:00:00,21.9,,-,72.0,,29.64,,Minnesota,30.0,,,7:00 PM,,,,,,,15.0,,SE,16.1,140.0,55401.0
Minneapolis,Unknown,1970-01-28 02:00:00,23.0,,-,72.0,,29.63,,Minnesota,30.9,,,8:00 PM,,,,,,,15.0,,SE,15.0,140.0,55401.0
Minneapolis,Ice Pellets,1970-01-28 03:00:00,23.0,,-,66.0,,29.61,,Minnesota,33.1,,,9:00 PM,,,,,,,15.0,,South,15.0,170.0,55401.0
Minneapolis,Unknown,1970-01-28 04:00:00,24.1,,-,70.0,,29.59,,Minnesota,33.1,,,10:00 PM,,,,,,,15.0,,SSE,16.1,160.0,55401.0
Minneapolis,Unknown,1970-01-28 05:00:00,25.0,,-,70.0,,29.56,,Minnesota,34.0,,,11:00 PM,,,,,,,15.0,,SSE,13.8,160.0,55401.0
Minneapolis,Light Rain,1970-01-28 06:00:00,28.0,Rain,-,79.0,0.01,29.52,,Minnesota,34.0,,,12:00 AM,,,,,,,15.0,,SSE,11.5,150.0,55401.0
Minneapolis,Unknown,1970-01-28 07:00:00,28.0,,-,76.0,0.01,29.49,,Minnesota,35.1,,,1:00 AM,,,,,,,15.0,,SSE,12.7,160.0,55401.0
Minneapolis,Unknown,1970-01-28 08:00:00,28.9,,-,78.0,,29.46,,Minnesota,35.1,,,2:00 AM,,,,,,,15.0,,SSE,11.5,160.0,55401.0
Minneapolis,Unknown,1970-01-28 09:00:00,30.0,,-,79.0,,29.43,,Minnesota,36.0,,,3:00 AM,,,,,,,15.0,,SSE,10.4,160.0,55401.0
Minneapolis,Unknown,1970-01-28 10:00:00,30.0,,-,82.0,,29.41,,Minnesota,35.1,,,4:00 AM,,,,,,,10.0,,SE,9.2,130.0,55401.0
Minneapolis,Unknown,1970-01-28 11:00:00,30.9,,-,82.0,,29.37,,Minnesota,36.0,,,5:00 AM,,,,,,,15.0,,SE,8.1,140.0,55401.0
Minneapolis,Unknown,1970-01-28 12:00:00,30.9,,-,82.0,,29.36,,Minnesota,36.0,,,6:00 AM,,,,,,,15.0,,SE,6.9,140.0,55401.0
Minneapolis,Unknown,1970-01-28 13:00:00,32.0,,-,89.0,,29.34,,Minnesota,35.1,,,7:00 AM,,,,,,,10.0,,ESE,6.9,110.0,55401.0
Minneapolis,Unknown,1970-01-28 14:00:00,32.0,,-,86.0,,29.35,,Minnesota,36.0,,,8:00 AM,,,,,,,7.0,,SE,4.6,140.0,55401.0
Minneapolis,Smoke,1970-01-28 15:00:00,32.0,,-,89.0,,29.36,,Minnesota,35.1,,,9:00 AM,,,,,,,5.0,,NE,2.3,50.0,55401.0
Minneapolis,Smoke,1970-01-28 16:00:00,32.0,,-,89.0,,29.38,,Minnesota,35.1,,,10:00 AM,,,,,,,4.0,,NE,2.3,50.0,55401.0
Minneapolis,Smoke,1970-01-28 17:00:00,33.1,,-,86.0,,29.39,,Minnesota,37.0,,,11:00 AM,,,,,,,4.0,,NW,6.9,320.0,55401.0
Minneapolis,Smoke,1970-01-28 18:00:00,32.0,,-,86.0,,29.4,,Minnesota,36.0,,,12:00 PM,,,,,,,4.0,,NW,10.4,320.0,55401.0
Minneapolis,Smoke,1970-01-28 19:00:00,30.9,,-,82.0,,29.43,,Minnesota,36.0,,,1:00 PM,,,,,,,5.0,,NW,16.1,320.0,55401.0
Minneapolis,Smoke,1970-01-28 20:00:00,30.9,,-,85.0,,29.44,,Minnesota,35.1,,,2:00 PM,,,,,,,4.0,,NNW,16.1,340.0,55401.0
Minneapolis,Smoke,1970-01-28 21:00:00,30.0,,-,82.0,,29.5,,Minnesota,35.1,,,3:00 PM,,,,,,,4.0,,NW,16.1,320.0,55401.0
Minneapolis,Smoke,1970-01-28 22:00:00,30.0,,-,82.0,,29.52,,Minnesota,35.1,,,4:00 PM,,,,,,,6.0,,NNW,11.5,340.0,55401.0
Minneapolis,Unknown,1970-01-28 23:00:00,28.9,,-,82.0,,29.59,,Minnesota,34.0,,,5:00 PM,,,,,,,10.0,,NW,13.8,320.0,55401.0
Minneapolis,Unknown,1970-01-29 00:00:00,28.9,,-,82.0,,29.63,,Minnesota,34.0,,,6:00 PM,,,,,,,10.0,,NW,13.8,320.0,55401.0
Minneapolis,Unknown,1970-01-29 01:00:00,28.9,,-,82.0,,29.68,,Minnesota,34.0,,,7:00 PM,,,,,,,10.0,,NNW,17.3,330.0,55401.0
Minneapolis,Unknown,1970-01-29 02:00:00,28.0,,-,82.0,,29.73,,Minnesota,33.1,,,8:00 PM,,,,,,,10.0,,NNW,17.3,340.0,55401.0
Minneapolis,Unknown,1970-01-29 03:00:00,25.0,,-,75.0,,29.76,,Minnesota,32.0,,,9:00 PM,,,,,,,15.0,,North,20.7,350.0,55401.0
Minneapolis,Unknown,1970-01-29 04:00:00,25.0,,-,79.0,,29.8,,Minnesota,30.9,,,10:00 PM,,,,,,,15.0,,North,18.4,350.0,55401.0
Minneapolis,Unknown,1970-01-29 05:00:00,24.1,,-,79.0,,29.83,,Minnesota,30.0,,,11:00 PM,,,,,,,15.0,,North,17.3,350.0,55401.0
Minneapolis,Unknown,1970-01-29 06:00:00,21.9,,-,75.0,,29.87,,Minnesota,28.9,,,12:00 AM,,,,,,,15.0,,North,16.1,360.0,55401.0
Minneapolis,Unknown,1970-01-29 07:00:00,19.9,,-,75.0,,29.92,,Minnesota,27.0,,,1:00 AM,,,,,,,15.0,,North,18.4,360.0,55401.0
Minneapolis,Unknown,1970-01-29 08:00:00,19.0,,-,75.0,,29.96,,Minnesota,26.1,,,2:00 AM,,,,,,,15.0,,North,13.8,350.0,55401.0
Minneapolis,Unknown,1970-01-29 09:00:00,17.1,,-,78.0,,30.0,,Minnesota,23.0,,,3:00 AM,,,,,,,15.0,,North,18.4,350.0,55401.0
Minneapolis,Unknown,1970-01-29 10:00:00,16.0,,-,78.0,,30.02,,Minnesota,21.9,,,4:00 AM,,,,,,,15.0,,North,17.3,350.0,55401.0
Minneapolis,Unknown,1970-01-29 11:00:00,12.9,,-,74.0,,30.06,,Minnesota,19.9,,,5:00 AM,,,,,,,15.0,,North,18.4,350.0,55401.0
Minneapolis,Unknown,1970-01-29 12:00:00,12.0,,-,78.0,,30.09,,Minnesota,18.0,,,6:00 AM,,,,,,,15.0,,North,18.4,360.0,55401.0
Minneapolis,Light Snow,1970-01-29 13:00:00,12.0,Snow,-,84.0,,30.12,,Minnesota,16.0,,,7:00 AM,,,,,,,15.0,,NW,12.7,320.0,55401.0
Minneapolis,Light Snow,1970-01-29 14:00:00,10.0,Snow,-,84.0,,30.16,,Minnesota,14.0,,,8:00 AM,,,,,,,15.0,,NNW,15.0,330.0,55401.0
Minneapolis,Unknown,1970-01-29 15:00:00,7.0,,-,84.0,,30.2,,Minnesota,10.9,,,9:00 AM,,,,,,,15.0,,NW,11.5,320.0,55401.0
Minneapolis,Unknown,1970-01-29 16:00:00,5.0,,-,77.0,,30.22,,Minnesota,10.9,,,10:00 AM,,,,,,,15.0,,NW,10.4,310.0,55401.0
Minneapolis,Clear,1970-01-29 17:00:00,6.1,,-,77.0,,30.24,,Minnesota,12.0,,,11:00 AM,,,,,,,15.0,,NW,13.8,320.0,55401.0
Minneapolis,Unknown,1970-01-29 18:00:00,8.1,,-,77.0,,30.22,,Minnesota,14.0,,,12:00 PM,,,,,,,15.0,,West,10.4,270.0,55401.0
Minneapolis,Unknown,1970-01-29 19:00:00,9.0,,-,68.0,,30.21,,Minnesota,18.0,,,1:00 PM,,,,,,,15.0,,WNW,6.9,300.0,55401.0
Minneapolis,Unknown,1970-01-29 20:00:00,8.1,,-,71.0,,30.21,,Minnesota,16.0,,,2:00 PM,,,,,,,15.0,,West,10.4,270.0,55401.0
Minneapolis,Unknown,1970-01-29 21:00:00,7.0,,-,70.0,,30.22,,Minnesota,15.1,,,3:00 PM,,,,,,,15.0,,West,11.5,260.0,55401.0
Minneapolis,Unknown,1970-01-29 22:00:00,6.1,,-,68.0,,30.21,,Minnesota,15.1,,,4:00 PM,,,,,,,15.0,,WSW,10.4,240.0,55401.0
Minneapolis,Light Snow Showers,1970-01-29 23:00:00,8.1,Snow,-,77.0,,30.22,,Minnesota,14.0,,,5:00 PM,,,,,,,2.8,,WSW,11.5,240.0,55401.0
Minneapolis,Light Snow Showers,1970-01-30 00:00:00,10.0,Snow,-,88.0,,30.23,,Minnesota,12.9,,,6:00 PM,,,,,,,10.0,,WSW,10.4,240.0,55401.0
Minneapolis,Unknown,1970-01-30 01:00:00,9.0,,-,80.0,,30.22,,Minnesota,14.0,,,7:00 PM,,,,,,,10.0,,SW,6.9,220.0,55401.0
Minneapolis,Unknown,1970-01-30 02:00:00,10.0,,-,84.0,,30.2,,Minnesota,14.0,,,8:00 PM,,,,,,,15.0,,SSW,8.1,210.0,55401.0
Minneapolis,Unknown,1970-01-30 03:00:00,10.9,,-,81.0,,30.18,,Minnesota,16.0,,,9:00 PM,,,,,,,15.0,,SW,6.9,220.0,55401.0
Minneapolis,Unknown,1970-01-30 04:00:00,12.0,,-,84.0,,30.17,,Minnesota,16.0,,,10:00 PM,,,,,,,15.0,,SW,6.9,230.0,55401.0
Minneapolis,Unknown,1970-01-30 05:00:00,10.9,,-,88.0,,30.17,,Minnesota,14.0,,,11:00 PM,,,,,,,15.0,,WSW,5.8,240.0,55401.0
Minneapolis,Unknown,1970-01-30 06:00:00,12.9,,-,88.0,,30.17,,Minnesota,16.0,,,12:00 AM,,,,,,,15.0,,Calm,Calm,0.0,55401.0
Minneapolis,Unknown,1970-01-30 07:00:00,15.1,,-,88.0,,30.17,,Minnesota,18.0,,,1:00 AM,,,,,,,15.0,,WSW,6.9,240.0,55401.0
Minneapolis,Unknown,1970-01-30 08:00:00,16.0,,-,92.0,,30.19,,Minnesota,18.0,,,2:00 AM,,,,,,,15.0,,WSW,6.9,250.0,55401.0
Minneapolis,Clear,1970-01-30 09:00:00,12.9,,-,91.0,,30.19,,Minnesota,15.1,,,3:00 AM,,,,,,,15.0,,WSW,9.2,240.0,55401.0
Minneapolis,Clear,1970-01-30 10:00:00,10.9,,-,92.0,,30.17,,Minnesota,12.9,,,4:00 AM,,,,,,,15.0,,WSW,8.1,250.0,55401.0
Minneapolis,Fog,1970-01-30 11:00:00,9.0,Fog,-,95.0,,30.17,,Minnesota,10.0,,,5:00 AM,,,,,,,6.0,,WSW,5.8,250.0,55401.0
Minneapolis,Fog,1970-01-30 12:00:00,5.0,Fog,-,87.0,,30.17,,Minnesota,8.1,,,6:00 AM,,,,,,,6.0,,SW,8.1,230.0,55401.0
Minneapolis,Unknown,1970-01-30 13:00:00,6.1,,-,100.0,,30.14,,Minnesota,6.1,,,7:00 AM,,,,,,,10.0,,SSW,8.1,210.0,55401.0
Minneapolis,Unknown,1970-01-30 14:00:00,5.0,,-,87.0,,30.14,,Minnesota,8.1,,,8:00 AM,,,,,,,10.0,,SSW,4.6,210.0,55401.0
Minneapolis,Unknown,1970-01-30 15:00:00,9.0,,-,92.0,,30.12,,Minnesota,10.9,,,9:00 AM,,,,,,,15.0,,SSW,8.1,200.0,55401.0
Minneapolis,Light Snow,1970-01-30 16:00:00,14.0,Snow,-,92.0,,30.12,,Minnesota,16.0,,,10:00 AM,,,,,,,15.0,,WSW,10.4,240.0,55401.0
Minneapolis,Unknown,1970-01-30 17:00:00,16.0,,-,88.0,,30.09,,Minnesota,19.0,,,11:00 AM,,,,,,,15.0,,WSW,15.0,240.0,55401.0
Minneapolis,Unknown,1970-01-30 18:00:00,17.1,,-,82.0,,30.06,,Minnesota,21.9,,,12:00 PM,,,,,,,15.0,,WSW,11.5,240.0,55401.0
Minneapolis,Unknown,1970-01-30 19:00:00,18.0,,-,71.0,,30.03,,Minnesota,26.1,,,1:00 PM,,,,,,,15.0,,West,12.7,270.0,55401.0
Minneapolis,Unknown,1970-01-30 20:00:00,18.0,,-,69.0,,30.02,,Minnesota,27.0,,,2:00 PM,,,,,,,15.0,,West,15.0,260.0,55401.0
Minneapolis,Unknown,1970-01-30 21:00:00,19.0,,-,67.0,,30.02,,Minnesota,28.9,,,3:00 PM,,,,,,,15.0,,West,15.0,270.0,55401.0
Minneapolis,Unknown,1970-01-30 22:00:00,19.0,,-,69.0,,30.03,,Minnesota,28.0,,,4:00 PM,,,,,,,15.0,,West,11.5,270.0,55401.0
Minneapolis,Unknown,1970-01-30 23:00:00,19.0,,-,72.0,,30.04,,Minnesota,27.0,,,5:00 PM,,,,,,,15.0,,West,10.4,260.0,55401.0
Minneapolis,Unknown,1970-01-31 00:00:00,19.0,,-,78.0,,30.04,,Minnesota,25.0,,,6:00 PM,,,,,,,15.0,,WSW,6.9,250.0,55401.0
Minneapolis,Unknown,1970-01-31 01:00:00,18.0,,-,77.0,,30.04,,Minnesota,24.1,,,7:00 PM,,,,,,,15.0,,WSW,8.1,240.0,55401.0
Minneapolis,Unknown,1970-01-31 02:00:00,19.0,,-,81.0,,30.02,,Minnesota,24.1,,,8:00 PM,,,,,,,15.0,,WSW,6.9,240.0,55401.0
Minneapolis,Unknown,1970-01-31 03:00:00,19.0,,-,81.0,,30.01,,Minnesota,24.1,,,9:00 PM,,,,,,,15.0,,SW,9.2,230.0,55401.0
Minneapolis,Unknown,1970-01-31 04:00:00,18.0,,-,81.0,,30.01,,Minnesota,23.0,,,10:00 PM,,,,,,,15.0,,SW,10.4,230.0,55401.0
Minneapolis,Unknown,1970-01-31 05:00:00,17.1,,-,85.0,,29.99,,Minnesota,21.0,,,11:00 PM,,,,,,,15.0,,SW,9.2,230.0,55401.0
Minneapolis,Clear,1970-01-31 06:00:00,17.1,,-,89.0,,29.97,,Minnesota,19.9,,,12:00 AM,,,,,,,15.0,,WSW,6.9,250.0,55401.0
Minneapolis,Clear,1970-01-31 07:00:00,16.0,,-,88.0,,29.96,,Minnesota,19.0,,,1:00 AM,,,,,,,15.0,,WSW,9.2,240.0,55401.0
Minneapolis,Clear,1970-01-31 08:00:00,15.1,,-,85.0,,29.95,,Minnesota,19.0,,,2:00 AM,,,,,,,15.0,,SW,8.1,230.0,55401.0
Minneapolis,Clear,1970-01-31 09:00:00,12.0,,-,84.0,,29.94,,Minnesota,16.0,,,3:00 AM,,,,,,,15.0,,Calm,Calm,0.0,55401.0
Minneapolis,Clear,1970-01-31 10:00:00,12.9,,-,77.0,,29.92,,Minnesota,19.0,,,4:00 AM,,,,,,,15.0,,WSW,4.6,250.0,55401.0
Minneapolis,Clear,1970-01-31 11:00:00,14.0,,-,78.0,,29.9,,Minnesota,19.9,,,5:00 AM,,,,,,,15.0,,WSW,9.2,240.0,55401.0
Minneapolis,Clear,1970-01-31 12:00:00,12.0,,-,78.0,,29.86,,Minnesota,18.0,,,6:00 AM,,,,,,,15.0,,SW,10.4,220.0,55401.0
Minneapolis,Unknown,1970-01-31 13:00:00,15.1,,-,78.0,,29.88,,Minnesota,21.0,,,7:00 AM,,,,,,,15.0,,WSW,8.1,250.0,55401.0
Minneapolis,Unknown,1970-01-31 14:00:00,16.0,,-,78.0,,29.89,,Minnesota,21.9,,,8:00 AM,,,,,,,15.0,,WSW,11.5,240.0,55401.0
Minneapolis,Unknown,1970-01-31 15:00:00,16.0,,-,74.0,,29.88,,Minnesota,23.0,,,9:00 AM,,,,,,,15.0,,SW,11.5,230.0,55401.0
Minneapolis,Unknown,1970-01-31 16:00:00,18.0,,-,69.0,,29.89,,Minnesota,27.0,,,10:00 AM,,,,,,,15.0,,WSW,12.7,240.0,55401.0
Minneapolis,Unknown,1970-01-31 17:00:00,19.0,,-,69.0,,29.89,,Minnesota,28.0,,,11:00 AM,,,,,,,15.0,,WSW,11.5,240.0,55401.0
Minneapolis,Unknown,1970-01-31 18:00:00,21.0,,-,67.0,,29.86,,Minnesota,30.9,,,12:00 PM,,,,,,,15.0,,WSW,13.8,240.0,55401.0
Minneapolis,Unknown,1970-01-31 19:00:00,21.0,,-,64.0,,29.84,,Minnesota,32.0,,,1:00 PM,,,,,,,15.0,,WSW,13.8,250.0,55401.0
Minneapolis,Unknown,1970-01-31 20:00:00,21.9,,-,66.0,,29.83,,Minnesota,32.0,,,2:00 PM,,,,,,,15.0,,West,13.8,260.0,55401.0
Minneapolis,Unknown,1970-01-31 21:00:00,23.0,,-,66.0,,29.82,,Minnesota,33.1,,,3:00 PM,,,,,,,15.0,,West,12.7,260.0,55401.0
Minneapolis,Unknown,1970-01-31 22:00:00,23.0,,-,69.0,,29.81,,Minnesota,32.0,,,4:00 PM,,,,,,,15.0,,WSW,10.4,240.0,55401.0
Minneapolis,Unknown,1970-01-31 23:00:00,21.9,,-,69.0,,29.81,,Minnesota,30.9,,,5:00 PM,,,,,,,15.0,,WSW,9.2,240.0,55401.0
Minneapolis,Unknown,1970-02-01 00:00:00,21.0,,-,72.0,,29.8,,Minnesota,28.9,,,6:00 PM,,,,,,,15.0,,SW,9.2,230.0,55401.0
Minneapolis,Unknown,1970-02-01 01:00:00,19.9,,-,75.0,,29.8,,Minnesota,27.0,,,7:00 PM,,,,,,,15.0,,SSW,5.8,210.0,55401.0
Minneapolis,Unknown,1970-02-01 02:00:00,19.9,,-,81.0,,29.78,,Minnesota,25.0,,,8:00 PM,,,,,,,15.0,,South,8.1,190.0,55401.0
Minneapolis,Unknown,1970-02-01 03:00:00,19.9,,-,84.0,,29.77,,Minnesota,24.1,,,9:00 PM,,,,,,,15.0,,SSW,3.5,200.0,55401.0
Minneapolis,Unknown,1970-02-01 04:00:00,21.0,,-,81.0,,29.75,,Minnesota,26.1,,,10:00 PM,,,,,,,15.0,,SW,10.4,220.0,55401.0
Minneapolis,Unknown,1970-02-01 05:00:00,18.0,,-,88.0,,29.72,,Minnesota,21.0,,,11:00 PM,,,,,,,15.0,,SSW,9.2,210.0,55401.0
New Orleans,Unknown,1970-01-01 06:00:00,34.0,,-,76.0,,30.17,,Louisiana,41.0,,,12:00 AM,,,,,,,7.0,,WNW,6.9,290.0,70063.0
New Orleans,Unknown,1970-01-01 09:00:00,32.0,,-,76.0,,30.17,,Louisiana,39.0,,,3:00 AM,,,,,,,7.0,,North,11.5,350.0,70063.0
New Orleans,Unknown,1970-01-01 12:00:00,30.9,,-,76.0,,30.19,,Louisiana,37.9,,,6:00 AM,,,,,,,10.0,,North,8.1,360.0,70063.0
New Orleans,Unknown,1970-01-01 15:00:00,32.0,,-,70.0,,30.23,,Louisiana,41.0,,,9:00 AM,,,,,,,10.0,,NNE,11.5,30.0,70063.0
New Orleans,Unknown,1970-01-01 18:00:00,30.9,,-,56.0,,30.21,,Louisiana,46.0,,,12:00 PM,,,,,,,10.0,,NNE,11.5,30.0,70063.0
New Orleans,Unknown,1970-01-01 21:00:00,30.0,,-,50.0,,30.13,,Louisiana,48.0,,,3:00 PM,,,,,,,10.0,,NE,9.2,50.0,70063.0
New Orleans,Unknown,1970-01-02 00:00:00,28.9,,-,65.0,,30.16,,Louisiana,39.9,,,6:00 PM,,,,,,,8.0,,SE,4.6,130.0,70063.0
New Orleans,Clear,1970-01-02 03:00:00,28.0,,-,85.0,,30.18,,Louisiana,32.0,,,9:00 PM,,,,,,,10.0,,Calm,Calm,0.0,70063.0
New Orleans,Unknown,1970-01-03 06:00:00,34.0,,-,63.0,,30.15,,Louisiana,46.0,,,12:00 AM,,,,,,,10.0,,North,15.0,360.0,70063.0
New Orleans,Unknown,1970-01-03 09:00:00,35.1,,-,71.0,,30.15,,Louisiana,44.1,,,3:00 AM,,,,,,,10.0,,North,15.0,10.0,70063.0
New Orleans,Unknown,1970-01-03 12:00:00,30.9,,-,65.0,,30.15,,Louisiana,42.1,,,6:00 AM,,,,,,,10.0,,North,13.8,10.0,70063.0
New Orleans,Unknown,1970-01-03 15:00:00,30.0,,-,65.0,,30.24,,Louisiana,41.0,,,9:00 AM,,,,,,,15.0,,North,13.8,360.0,70063.0
New Orleans,Unknown,1970-01-03 18:00:00,27.0,,-,53.0,,30.2,,Louisiana,43.0,,,12:00 PM,,,,,,,15.0,,North,12.7,350.0,70063.0
New Orleans,Unknown,1970-01-03 21:00:00,21.9,,-,39.0,,30.16,,Louisiana,46.0,,,3:00 PM,,,,,,,15.0,,North,10.4,350.0,70063.0
New Orleans,Unknown,1970-01-04 00:00:00,19.0,,-,40.0,,30.19,,Louisiana,42.1,,,6:00 PM,,,,,,,10.0,,NNE,6.9,20.0,70063.0
New Orleans,Unknown,1970-01-04 03:00:00,19.9,,-,45.0,,30.24,,Louisiana,39.9,,,9:00 PM,,,,,,,10.0,,North,6.9,360.0,70063.0
New Orleans,Unknown,1970-01-04 06:00:00,19.0,,-,50.0,,30.29,,Louisiana,36.0,,,12:00 AM,,,,,,,10.0,,North,6.9,360.0,70063.0
New Orleans,Unknown,1970-01-04 09:00:00,21.9,,-,66.0,,30.3,,Louisiana,32.0,,,3:00 AM,,,,,,,10.0,,East,3.5,80.0,70063.0
New Orleans,Unknown,1970-01-04 12:00:00,25.0,,-,88.0,,30.3,,Louisiana,28.0,,,6:00 AM,,,,,,,10.0,,NW,3.5,320.0,70063.0
New Orleans,Unknown,1970-01-04 15:00:00,30.0,,-,62.0,,30.39,,Louisiana,42.1,,,9:00 AM,,,,,,,10.0,,East,6.9,90.0,70063.0
New Orleans,Unknown,1970-01-04 18:00:00,24.1,,-,35.0,,30.34,,Louisiana,51.1,,,12:00 PM,,,,,,,15.0,,ENE,6.9,70.0,70063.0
New Orleans,Unknown,1970-01-04 21:00:00,19.9,,-,28.0,,30.28,,Louisiana,52.0,,,3:00 PM,,,,,,,15.0,,East,11.5,90.0,70063.0
New Orleans,Unknown,1970-01-05 00:00:00,24.1,,-,44.0,,30.31,,Louisiana,45.0,,,6:00 PM,,,,,,,10.0,,ESE,9.2,120.0,70063.0
New Orleans,Unknown,1970-01-05 03:00:00,28.0,,-,48.0,,30.3,,Louisiana,46.9,,,9:00 PM,,,,,,,10.0,,SE,9.2,130.0,70063.0
New Orleans,Unknown,1970-01-05 06:00:00,30.9,,-,52.0,,30.29,,Louisiana,48.0,,,12:00 AM,,,,,,,10.0,,East,10.4,90.0,70063.0
New Orleans,Unknown,1970-01-05 09:00:00,36.0,,-,61.0,,30.26,,Louisiana,48.9,,,3:00 AM,,,,,,,10.0,,ENE,6.9,70.0,70063.0
New Orleans,Light Rain,1970-01-05 12:00:00,42.1,Rain,-,83.0,0.01,30.22,,Louisiana,46.9,,,6:00 AM,,,,,,,5.0,,ENE,9.2,70.0,70063.0
New Orleans,Light Rain,1970-01-05 15:00:00,44.1,Fog-Rain,-,86.0,0.01,30.25,,Louisiana,48.0,,,9:00 AM,,,,,,,4.0,,ENE,12.7,60.0,70063.0
New Orleans,Light Rain,1970-01-05 18:00:00,44.1,Fog-Rain,-,90.0,0.01,30.17,,Louisiana,46.9,,,12:00 PM,,,,,,,3.0,,East,17.3,80.0,70063.0
New Orleans,Light Rain,1970-01-05 21:00:00,45.0,Fog-Rain,-,89.0,0.03,30.04,,Louisiana,48.0,,,3:00 PM,,,,,,,10.5,,East,12.7,80.0,70063.0
New Orleans,Light Rain,1970-01-06 00:00:00,46.9,Fog-Rain,-,93.0,0.12,29.99,,Louisiana,48.9,,,6:00 PM,,,,,,,4.0,,NNE,9.2,30.0,70063.0
New Orleans,Light Rain,1970-01-06 03:00:00,48.9,Fog-Rain,-,89.0,0.08,29.9,,Louisiana,52.0,,,9:00 PM,,,,,,,4.0,,ENE,18.4,70.0,70063.0
New Orleans,Light Rain,1970-01-06 06:00:00,48.0,Fog-Rain,-,93.0,0.04,29.84,,Louisiana,50.0,,,12:00 AM,,,,,,,5.0,,North,9.2,360.0,70063.0
New Orleans,Light Drizzle,1970-01-06 09:00:00,41.0,Rain,-,89.0,0.02,29.88,,Louisiana,44.1,,,3:00 AM,,,,,,,4.0,,North,20.7,360.0,70063.0
New Orleans,Unknown,1970-01-06 12:00:00,42.1,,-,90.0,,29.91,,Louisiana,45.0,,,6:00 AM,,,,,,,10.0,,North,13.8,360.0,70063.0
New Orleans,Unknown,1970-01-06 15:00:00,42.1,,-,90.0,,30.02,,Louisiana,45.0,,,9:00 AM,,,,,,,15.0,,NNW,17.3,330.0,70063.0
New Orleans,Unknown,1970-01-06 18:00:00,39.9,,-,85.0,,30.06,,Louisiana,44.1,,,12:00 PM,,,,,,,15.0,,NNW,19.6,330.0,70063.0
New Orleans,Unknown,1970-01-06 21:00:00,36.0,,-,76.0,,30.11,,Louisiana,43.0,,,3:00 PM,,,,,,,15.0,,NNW,16.1,340.0,70063.0
New Orleans,Unknown,1970-01-07 00:00:00,28.0,,-,73.0,,30.18,,Louisiana,36.0,,,6:00 PM,,,,,,,10.0,,North,18.4,350.0,70063.0
New Orleans,Unknown,1970-01-07 03:00:00,21.9,,-,69.0,,30.26,,Louisiana,30.9,,,9:00 PM,,,,,,,10.0,,NNW,21.9,340.0,70063.0
New Orleans,Unknown,1970-01-07 06:00:00,19.0,,-,64.0,,30.32,,Louisiana,30.0,,,12:00 AM,,,,,,,10.0,,NNW,12.7,340.0,70063.0
New Orleans,Unknown,1970-01-07 09:00:00,14.0,,-,60.0,,30.35,,Louisiana,26.1,,,3:00 AM,,,,,,,10.0,,North,19.6,360.0,70063.0
New Orleans,Unknown,1970-01-07 12:00:00,12.9,,-,60.0,,30.4,,Louisiana,25.0,,,6:00 AM,,,,,,,10.0,,North,19.6,360.0,70063.0
New Orleans,Unknown,1970-01-07 15:00:00,12.9,,-,56.0,,30.46,,Louisiana,27.0,,,9:00 AM,,,,,,,15.0,,North,20.7,350.0,70063.0
New Orleans,Clear,1970-01-07 18:00:00,12.9,,-,43.0,,30.44,,Louisiana,33.1,,,12:00 PM,,,,,,,15.0,,NW,15.0,320.0,70063.0
New Orleans,Clear,1970-01-07 21:00:00,10.0,,-,33.0,,30.39,,Louisiana,37.0,,,3:00 PM,,,,,,,15.0,,North,17.3,350.0,70063.0
New Orleans,Clear,1970-01-08 00:00:00,10.9,,-,38.0,,30.4,,Louisiana,34.0,,,6:00 PM,,,,,,,15.0,,North,9.2,350.0,70063.0
New Orleans,Clear,1970-01-08 03:00:00,12.0,,-,47.0,,30.44,,Louisiana,30.0,,,9:00 PM,,,,,,,15.0,,North,5.8,360.0,70063.0
New Orleans,Clear,1970-01-08 06:00:00,17.1,,-,69.0,,30.47,,Louisiana,26.1,,,12:00 AM,,,,,,,15.0,,West,6.9,260.0,70063.0
New Orleans,Clear,1970-01-08 09:00:00,18.0,,-,75.0,,30.49,,Louisiana,25.0,,,3:00 AM,,,,,,,10.0,,West,4.6,260.0,70063.0
New Orleans,Clear,1970-01-08 12:00:00,18.0,,-,77.0,,30.5,,Louisiana,24.1,,,6:00 AM,,,,,,,10.0,,West,5.8,260.0,70063.0
New Orleans,Unknown,1970-01-08 15:00:00,23.0,,-,66.0,,30.59,,Louisiana,33.1,,,9:00 AM,,,,,,,10.0,,NNE,9.2,20.0,70063.0
New Orleans,Unknown,1970-01-08 18:00:00,19.9,,-,48.0,,30.58,,Louisiana,37.9,,,12:00 PM,,,,,,,10.0,,North,6.9,360.0,70063.0
New Orleans,Unknown,1970-01-08 21:00:00,16.0,,-,36.0,,30.54,,Louisiana,41.0,,,3:00 PM,,,,,,,15.0,,NNW,11.5,340.0,70063.0
New Orleans,Clear,1970-01-09 00:00:00,16.0,,-,42.0,,30.56,,Louisiana,37.0,,,6:00 PM,,,,,,,15.0,,NE,4.6,40.0,70063.0
New Orleans,Clear,1970-01-09 03:00:00,16.0,,-,48.0,,30.58,,Louisiana,34.0,,,9:00 PM,,,,,,,15.0,,North,6.9,10.0,70063.0
New Orleans,Clear,1970-01-09 06:00:00,16.0,,-,54.0,,30.59,,Louisiana,30.9,,,12:00 AM,,,,,,,15.0,,North,5.8,350.0,70063.0
New Orleans,Clear,1970-01-09 09:00:00,17.1,,-,72.0,,30.62,,Louisiana,25.0,,,3:00 AM,,,,,,,10.0,,North,6.9,10.0,70063.0
New Orleans,Clear,1970-01-09 12:00:00,16.0,,-,63.0,,30.61,,Louisiana,27.0,,,6:00 AM,,,,,,,10.0,,North,8.1,10.0,70063.0
New Orleans,Clear,1970-01-09 15:00:00,18.0,,-,61.0,,30.67,,Louisiana,30.0,,,9:00 AM,,,,,,,10.0,,NNE,10.4,30.0,70063.0
New Orleans,Clear,1970-01-09 18:00:00,12.0,,-,40.0,,30.63,,Louisiana,34.0,,,12:00 PM,,,,,,,10.0,,North,9.2,360.0,70063.0
New Orleans,Clear,1970-01-09 21:00:00,10.9,,-,32.0,,30.53,,Louisiana,39.0,,,3:00 PM,,,,,,,10.0,,NW,10.4,310.0,70063.0
New Orleans,Unknown,1970-01-10 00:00:00,12.9,,-,43.0,,30.53,,Louisiana,33.1,,,6:00 PM,,,,,,,10.0,,West,3.5,280.0,70063.0
New Orleans,Clear,1970-01-10 03:00:00,15.1,,-,50.0,,30.53,,Louisiana,32.0,,,9:00 PM,,,,,,,10.0,,NW,8.1,310.0,70063.0
New Orleans,Unknown,1970-01-10 06:00:00,15.1,,-,50.0,,30.5,,Louisiana,32.0,,,12:00 AM,,,,,,,10.0,,NNE,5.8,20.0,70063.0
New Orleans,Unknown,1970-01-10 09:00:00,17.1,,-,59.0,,30.5,,Louisiana,30.0,,,3:00 AM,,,,,,,10.0,,NE,6.9,50.0,70063.0
New Orleans,Clear,1970-01-10 12:00:00,15.1,,-,63.0,,30.49,,Louisiana,26.1,,,6:00 AM,,,,,,,10.0,,ENE,5.8,70.0,70063.0
New Orleans,Unknown,1970-01-10 15:00:00,18.0,,-,54.0,,30.47,,Louisiana,33.1,,,9:00 AM,,,,,,,10.0,,East,11.5,80.0,70063.0
New Orleans,Unknown,1970-01-10 18:00:00,24.1,,-,45.0,,30.38,,Louisiana,44.1,,,12:00 PM,,,,,,,10.0,,ESE,11.5,120.0,70063.0
New Orleans,Unknown,1970-01-10 21:00:00,30.9,,-,56.0,,30.27,,Louisiana,46.0,,,3:00 PM,,,,,,,10.0,,East,13.8,100.0,70063.0
New Orleans,Unknown,1970-01-11 00:00:00,35.1,,-,68.0,,30.2,,Louisiana,45.0,,,6:00 PM,,,,,,,10.0,,East,9.2,90.0,70063.0
New Orleans,Unknown,1970-01-11 03:00:00,39.9,,-,79.0,,30.14,,Louisiana,46.0,,,9:00 PM,,,,,,,10.0,,SE,9.2,130.0,70063.0
New Orleans,Light Rain,1970-01-11 06:00:00,46.9,Rain,-,89.0,0.04,30.04,,Louisiana,50.0,,,12:00 AM,,,,,,,7.0,,SE,12.7,140.0,70063.0
New Orleans,Light Rain,1970-01-11 09:00:00,53.1,Rain,-,90.0,0.02,29.93,,Louisiana,55.9,,,3:00 AM,,,,,,,7.0,,SSE,18.4,160.0,70063.0
New Orleans,Light Rain,1970-01-11 12:00:00,55.0,Rain,-,90.0,0.03,29.86,,Louisiana,57.9,,,6:00 AM,,,,,,,5.0,,South,15.0,170.0,70063.0
New Orleans,Unknown,1970-01-11 15:00:00,59.0,,-,93.0,,29.88,,Louisiana,61.0,,,9:00 AM,,,,,,,7.0,,SSW,6.9,200.0,70063.0
New Orleans,Unknown,1970-01-11 18:00:00,60.1,,-,90.0,,29.81,,Louisiana,63.0,,,12:00 PM,,,,,,,7.0,,WSW,12.7,250.0,70063.0
New Orleans,Unknown,1970-01-11 21:00:00,55.0,,-,78.0,,29.78,,Louisiana,62.1,,,3:00 PM,,,,,,,10.0,,WSW,12.7,250.0,70063.0
New Orleans,Unknown,1970-01-12 00:00:00,52.0,,-,83.0,,29.82,,Louisiana,57.0,,,6:00 PM,,,,,,,15.0,,WSW,6.9,240.0,70063.0
New Orleans,Unknown,1970-01-12 03:00:00,48.9,,-,80.0,,29.89,,Louisiana,55.0,,,9:00 PM,,,,,,,15.0,,NW,8.1,310.0,70063.0
New Orleans,Clear,1970-01-12 06:00:00,45.0,,-,89.0,,29.91,,Louisiana,48.0,,,12:00 AM,,,,,,,15.0,,NW,5.8,310.0,70063.0
New Orleans,Unknown,1970-01-12 09:00:00,43.0,,-,86.0,,29.94,,Louisiana,46.9,,,3:00 AM,,,,,,,15.0,,North,11.5,360.0,70063.0
New Orleans,Clear,1970-01-12 12:00:00,37.9,,-,85.0,,29.96,,Louisiana,42.1,,,6:00 AM,,,,,,,15.0,,NNW,8.1,340.0,70063.0
New Orleans,Unknown,1970-01-12 15:00:00,39.0,,-,86.0,,30.05,,Louisiana,43.0,,,9:00 AM,,,,,,,10.0,,North,9.2,10.0,70063.0
New Orleans,Unknown,1970-01-12 18:00:00,37.9,,-,79.0,,30.07,,Louisiana,44.1,,,12:00 PM,,,,,,,10.0,,NNE,10.4,20.0,70063.0
New Orleans,Unknown,1970-01-12 21:00:00,37.0,,-,80.0,,30.03,,Louisiana,43.0,,,3:00 PM,,,,,,,10.0,,North,11.5,10.0,70063.0
New Orleans,Unknown,1970-01-13 00:00:00,36.0,,-,79.0,,30.09,,Louisiana,42.1,,,6:00 PM,,,,,,,7.0,,NNE,11.5,30.0,70063.0
New Orleans,Unknown,1970-01-13 03:00:00,36.0,,-,79.0,,30.13,,Louisiana,42.1,,,9:00 PM,,,,,,,8.0,,NNE,10.4,20.0,70063.0
New Orleans,Unknown,1970-01-13 06:00:00,37.0,,-,82.0,,30.12,,Louisiana,42.1,,,12:00 AM,,,,,,,10.0,,NNE,10.4,30.0,70063.0
New Orleans,Unknown,1970-01-13 09:00:00,36.0,,-,79.0,,30.15,,Louisiana,42.1,,,3:00 AM,,,,,,,10.0,,NNE,8.1,20.0,70063.0
New Orleans,Unknown,1970-01-13 12:00:00,35.1,,-,76.0,,30.18,,Louisiana,42.1,,,6:00 AM,,,,,,,10.0,,NE,6.9,40.0,70063.0
New Orleans,Smoke,1970-01-13 15:00:00,33.1,,-,73.0,,30.24,,Louisiana,41.0,,,9:00 AM,,,,,,,6.0,,NE,10.4,50.0,70063.0
New Orleans,Drizzle,1970-01-13 18:00:00,34.0,,-,73.0,,30.21,,Louisiana,42.1,,,12:00 PM,,,,,,,5.0,,ENE,10.4,70.0,70063.0
New Orleans,Drizzle,1970-01-13 21:00:00,33.1,,-,68.0,,30.19,,Louisiana,43.0,,,3:00 PM,,,,,,,5.0,,ENE,8.1,60.0,70063.0
New Orleans,Smoke,1970-01-14 00:00:00,32.0,,-,76.0,,30.2,,Louisiana,39.0,,,6:00 PM,,,,,,,6.0,,NE,3.5,50.0,70063.0
New Orleans,Smoke,1970-01-14 03:00:00,30.0,,-,89.0,,30.22,,Louisiana,33.1,,,9:00 PM,,,,,,,5.0,,ENE,5.8,70.0,70063.0
New Orleans,Smoke,1970-01-14 06:00:00,32.0,,-,89.0,,30.24,,Louisiana,35.1,,,12:00 AM,,,,,,,5.0,,Calm,Calm,0.0,70063.0
New Orleans,Smoke,1970-01-14 09:00:00,36.0,,-,89.0,,30.19,,Louisiana,39.0,,,3:00 AM,,,,,,,5.0,,North,5.8,360.0,70063.0
New Orleans,Smoke,1970-01-14 12:00:00,39.0,,-,86.0,,30.19,,Louisiana,43.0,,,6:00 AM,,,,,,,5.0,,NNE,5.8,30.0,70063.0
New Orleans,Smoke,1970-01-14 15:00:00,39.0,,-,74.0,,30.21,,Louisiana,46.9,,,9:00 AM,,,,,,,5.0,,NE,9.2,40.0,70063.0
New Orleans,Smoke,1970-01-14 18:00:00,41.0,,-,62.0,,30.18,,Louisiana,54.0,,,12:00 PM,,,,,,,6.0,,ENE,12.7,60.0,70063.0
New Orleans,Smoke,1970-01-14 21:00:00,41.0,,-,59.0,,30.11,,Louisiana,55.0,,,3:00 PM,,,,,,,6.0,,East,12.7,80.0,70063.0
New Orleans,Smoke,1970-01-15 00:00:00,42.1,,-,69.0,,30.1,,Louisiana,52.0,,,6:00 PM,,,,,,,6.0,,ENE,6.9,70.0,70063.0
New Orleans,Unknown,1970-01-15 03:00:00,39.9,,-,66.0,,30.11,,Louisiana,51.1,,,9:00 PM,,,,,,,7.0,,ENE,6.9,70.0,70063.0
New Orleans,Unknown,1970-01-15 06:00:00,36.0,,-,79.0,,30.1,,Louisiana,42.1,,,12:00 AM,,,,,,,8.0,,NE,4.6,50.0,70063.0
New Orleans,Unknown,1970-01-15 09:00:00,37.0,,-,86.0,,30.07,,Louisiana,41.0,,,3:00 AM,,,,,,,8.0,,North,6.9,360.0,70063.0
New Orleans,Clear,1970-01-15 12:00:00,36.0,,-,76.0,,30.06,,Louisiana,43.0,,,6:00 AM,,,,,,,10.0,,NNE,6.9,20.0,70063.0
New Orleans,Clear,1970-01-15 15:00:00,36.0,,-,56.0,,30.09,,Louisiana,51.1,,,9:00 AM,,,,,,,10.0,,ENE,8.1,60.0,70063.0
New Orleans,Clear,1970-01-15 18:00:00,39.9,,-,47.0,,30.08,,Louisiana,60.1,,,12:00 PM,,,,,,,10.0,,ENE,5.8,60.0,70063.0
New Orleans,Unknown,1970-01-15 21:00:00,46.0,,-,56.0,,30.02,,Louisiana,62.1,,,3:00 PM,,,,,,,7.0,,East,5.8,80.0,70063.0
New Orleans,Smoke,1970-01-16 00:00:00,48.0,,-,77.0,,30.03,,Louisiana,55.0,,,6:00 PM,,,,,,,6.0,,SE,9.2,140.0,70063.0
New Orleans,Smoke,1970-01-16 03:00:00,46.0,,-,93.0,,30.05,,Louisiana,48.0,,,9:00 PM,,,,,,,5.0,,East,6.9,80.0,70063.0
New Orleans,Smoke,1970-01-16 06:00:00,48.9,,-,89.0,,30.06,,Louisiana,52.0,,,12:00 AM,,,,,,,5.0,,East,9.2,100.0,70063.0
New Orleans,Fog,1970-01-16 09:00:00,46.9,Fog,-,89.0,,30.06,,Louisiana,50.0,,,3:00 AM,,,,,,,4.0,,NE,9.2,40.0,70063.0
New Orleans,Fog,1970-01-16 12:00:00,46.9,Fog,-,89.0,,30.08,,Louisiana,50.0,,,6:00 AM,,,,,,,6.0,,NNE,6.9,30.0,70063.0
New Orleans,Smoke,1970-01-16 15:00:00,46.9,,-,83.0,,30.07,,Louisiana,52.0,,,9:00 AM,,,,,,,4.0,,ENE,12.7,60.0,70063.0
New Orleans,Smoke,1970-01-16 18:00:00,50.0,,-,65.0,,30.05,,Louisiana,62.1,,,12:00 PM,,,,,,,4.0,,ENE,13.8,70.0,70063.0
New Orleans,Smoke,1970-01-16 21:00:00,51.1,,-,70.0,,30.0,,Louisiana,61.0,,,3:00 PM,,,,,,,5.0,,East,12.7,100.0,70063.0
New Orleans,Smoke,1970-01-17 00:00:00,48.9,,-,77.0,,30.02,,Louisiana,55.9,,,6:00 PM,,,,,,,6.0,,East,13.8,90.0,70063.0
New Orleans,Smoke,1970-01-17 03:00:00,50.0,,-,86.0,,30.02,,Louisiana,54.0,,,9:00 PM,,,,,,,6.0,,ENE,12.7,70.0,70063.0
New Orleans,Unknown,1970-01-17 06:00:00,48.9,,-,86.0,,30.03,,Louisiana,53.1,,,12:00 AM,,,,,,,7.0,,ENE,6.9,70.0,70063.0
New Orleans,Unknown,1970-01-17 09:00:00,48.9,,-,89.0,,29.97,,Louisiana,52.0,,,3:00 AM,,,,,,,7.0,,NE,9.2,50.0,70063.0
New Orleans,Fog,1970-01-17 12:00:00,48.9,Fog,-,92.0,,29.91,,Louisiana,51.1,,,6:00 AM,,,,,,,2.0,,East,9.2,80.0,70063.0
New Orleans,Fog,1970-01-17 15:00:00,48.9,Fog,-,89.0,,29.94,,Louisiana,52.0,,,9:00 AM,,,,,,,0.5,,North,9.2,10.0,70063.0
New Orleans,Fog,1970-01-17 18:00:00,48.9,Fog,-,77.0,,29.89,,Louisiana,55.9,,,12:00 PM,,,,,,,6.0,,North,11.5,10.0,70063.0
New Orleans,Unknown,1970-01-17 21:00:00,48.9,,-,69.0,,29.79,,Louisiana,59.0,,,3:00 PM,,,,,,,10.0,,NE,11.5,50.0,70063.0
New Orleans,Clear,1970-01-18 00:00:00,48.0,,-,83.0,,29.83,,Louisiana,53.1,,,6:00 PM,,,,,,,7.0,,NNW,3.5,340.0,70063.0
New Orleans,Clear,1970-01-18 03:00:00,45.0,,-,93.0,,29.85,,Louisiana,46.9,,,9:00 PM,,,,,,,7.0,,North,8.1,350.0,70063.0
New Orleans,Unknown,1970-01-18 06:00:00,45.0,,-,93.0,,29.86,,Louisiana,46.9,,,12:00 AM,,,,,,,7.0,,North,2.3,360.0,70063.0
New Orleans,Fog,1970-01-18 09:00:00,37.0,Fog,-,93.0,,29.88,,Louisiana,39.0,,,3:00 AM,,,,,,,0.3,,East,2.3,90.0,70063.0
New Orleans,Fog,1970-01-18 12:00:00,44.1,Fog,-,97.0,,29.91,,Louisiana,45.0,,,6:00 AM,,,,,,,0.1,,North,3.5,10.0,70063.0
New Orleans,Fog,1970-01-18 15:00:00,48.0,Fog,-,97.0,,29.94,,Louisiana,48.9,,,9:00 AM,,,,,,,0.8,,ENE,3.5,70.0,70063.0
New Orleans,Fog,1970-01-18 18:00:00,46.9,Fog,-,83.0,,29.95,,Louisiana,52.0,,,12:00 PM,,,,,,,2.0,,ENE,10.4,60.0,70063.0
New Orleans,Clear,1970-01-18 21:00:00,46.9,,-,64.0,,29.9,,Louisiana,59.0,,,3:00 PM,,,,,,,10.0,,North,4.6,360.0,70063.0
New Orleans,Clear,1970-01-19 00:00:00,46.0,,-,77.0,,29.93,,Louisiana,53.1,,,6:00 PM,,,,,,,10.0,,NE,10.4,40.0,70063.0
New Orleans,Unknown,1970-01-19 03:00:00,44.1,,-,86.0,,30.0,,Louisiana,48.0,,,9:00 PM,,,,,,,10.0,,ENE,6.9,60.0,70063.0
New Orleans,Unknown,1970-01-19 06:00:00,41.0,,-,93.0,,30.03,,Louisiana,43.0,,,12:00 AM,,,,,,,10.0,,WSW,3.5,250.0,70063.0
New Orleans,Unknown,1970-01-19 09:00:00,45.0,,-,93.0,,30.03,,Louisiana,46.9,,,3:00 AM,,,,,,,8.0,,North,3.5,360.0,70063.0
New Orleans,Fog,1970-01-19 12:00:00,46.0,Fog,-,93.0,,30.03,,Louisiana,48.0,,,6:00 AM,,,,,,,4.0,,North,5.8,10.0,70063.0
New Orleans,Fog,1970-01-19 15:00:00,43.0,Fog,-,89.0,,30.12,,Louisiana,46.0,,,9:00 AM,,,,,,,2.0,,North,11.5,360.0,70063.0
New Orleans,Smoke,1970-01-19 18:00:00,37.9,,-,85.0,,30.15,,Louisiana,42.1,,,12:00 PM,,,,,,,4.0,,North,11.5,360.0,70063.0
New Orleans,Unknown,1970-01-19 21:00:00,37.0,,-,80.0,,30.11,,Louisiana,43.0,,,3:00 PM,,,,,,,7.0,,North,11.5,350.0,70063.0
New Orleans,Unknown,1970-01-20 00:00:00,35.1,,-,79.0,,30.11,,Louisiana,41.0,,,6:00 PM,,,,,,,7.0,,North,8.1,350.0,70063.0
New Orleans,Unknown,1970-01-20 03:00:00,33.1,,-,79.0,,30.15,,Louisiana,39.0,,,9:00 PM,,,,,,,10.0,,NNW,8.1,330.0,70063.0
New Orleans,Unknown,1970-01-20 06:00:00,33.1,,-,83.0,,30.17,,Louisiana,37.9,,,12:00 AM,,,,,,,10.0,,NW,8.1,320.0,70063.0
New Orleans,Unknown,1970-01-20 09:00:00,33.1,,-,86.0,,30.16,,Louisiana,37.0,,,3:00 AM,,,,,,,8.0,,NW,9.2,310.0,70063.0
New Orleans,Fog,1970-01-20 12:00:00,33.1,Fog,-,89.0,,30.18,,Louisiana,36.0,,,6:00 AM,,,,,,,4.0,,WNW,11.5,290.0,70063.0
New Orleans,Fog,1970-01-20 15:00:00,33.1,Fog,-,86.0,,30.25,,Louisiana,37.0,,,9:00 AM,,,,,,,10.5,,WNW,8.1,300.0,70063.0
New Orleans,Smoke,1970-01-20 18:00:00,33.1,,-,77.0,,30.25,,Louisiana,39.9,,,12:00 PM,,,,,,,5.0,,West,10.4,280.0,70063.0
New Orleans,Unknown,1970-01-20 21:00:00,33.1,,-,65.0,,30.2,,Louisiana,44.1,,,3:00 PM,,,,,,,7.0,,NW,11.5,320.0,70063.0
New Orleans,Unknown,1970-01-21 00:00:00,33.1,,-,70.0,,30.24,,Louisiana,42.1,,,6:00 PM,,,,,,,10.0,,North,10.4,350.0,70063.0
New Orleans,Unknown,1970-01-21 03:00:00,32.0,,-,76.0,,30.3,,Louisiana,39.0,,,9:00 PM,,,,,,,10.0,,North,10.4,10.0,70063.0
New Orleans,Unknown,1970-01-21 06:00:00,30.9,,-,76.0,,30.33,,Louisiana,37.9,,,12:00 AM,,,,,,,10.0,,NNE,9.2,30.0,70063.0
New Orleans,Unknown,1970-01-21 09:00:00,30.0,,-,76.0,,30.34,,Louisiana,37.0,,,3:00 AM,,,,,,,10.0,,SSW,11.5,200.0,70063.0
New Orleans,Unknown,1970-01-21 12:00:00,28.9,,-,76.0,,30.39,,Louisiana,36.0,,,6:00 AM,,,,,,,10.0,,NNE,9.2,20.0,70063.0
New Orleans,Unknown,1970-01-21 15:00:00,26.1,,-,67.0,,30.43,,Louisiana,36.0,,,9:00 AM,,,,,,,10.0,,North,12.7,10.0,70063.0
New Orleans,Unknown,1970-01-21 18:00:00,26.1,,-,58.0,,30.38,,Louisiana,39.9,,,12:00 PM,,,,,,,10.0,,NE,20.7,50.0,70063.0
New Orleans,Unknown,1970-01-21 21:00:00,21.0,,-,43.0,,30.35,,Louisiana,42.1,,,3:00 PM,,,,,,,10.0,,East,8.1,90.0,70063.0
New Orleans,Clear,1970-01-22 00:00:00,19.9,,-,50.0,,30.34,,Louisiana,37.0,,,6:00 PM,,,,,,,10.0,,NW,2.3,320.0,70063.0
New Orleans,Unknown,1970-01-22 03:00:00,26.1,,-,60.0,,30.34,,Louisiana,39.0,,,9:00 PM,,,,,,,10.0,,East,4.6,100.0,70063.0
New Orleans,Unknown,1970-01-22 06:00:00,19.9,,-,46.0,,30.38,,Louisiana,39.0,,,12:00 AM,,,,,,,10.0,,ENE,8.1,60.0,70063.0
New Orleans,Light Rain,1970-01-22 09:00:00,23.0,Rain,-,59.0,,30.35,,Louisiana,36.0,,,3:00 AM,,,,,,,10.0,,ENE,11.5,60.0,70063.0
New Orleans,Unknown,1970-01-22 12:00:00,21.9,,-,57.0,,30.35,,Louisiana,36.0,,,6:00 AM,,,,,,,10.0,,ENE,9.2,70.0,70063.0
New Orleans,Unknown,1970-01-22 15:00:00,19.0,,-,48.0,,30.35,,Louisiana,37.0,,,9:00 AM,,,,,,,8.0,,East,8.1,80.0,70063.0
New Orleans,Unknown,1970-01-22 18:00:00,25.0,,-,53.0,,30.31,,Louisiana,41.0,,,12:00 PM,,,,,,,7.0,,ESE,8.1,110.0,70063.0
New Orleans,Unknown,1970-01-22 21:00:00,28.0,,-,58.0,,30.23,,Louisiana,42.1,,,3:00 PM,,,,,,,7.0,,ENE,8.1,70.0,70063.0
New Orleans,Smoke,1970-01-23 00:00:00,30.9,,-,62.0,,30.19,,Louisiana,43.0,,,6:00 PM,,,,,,,6.0,,East,8.1,100.0,70063.0
New Orleans,Smoke,1970-01-23 03:00:00,36.0,,-,71.0,,30.12,,Louisiana,45.0,,,9:00 PM,,,,,,,6.0,,East,6.9,80.0,70063.0
New Orleans,Smoke,1970-01-23 06:00:00,39.9,,-,77.0,,30.09,,Louisiana,46.9,,,12:00 AM,,,,,,,6.0,,North,2.3,360.0,70063.0
New Orleans,Smoke,1970-01-23 09:00:00,42.1,,-,83.0,,30.04,,Louisiana,46.9,,,3:00 AM,,,,,,,5.0,,WSW,3.5,250.0,70063.0
New Orleans,Smoke,1970-01-23 12:00:00,42.1,,-,83.0,,30.05,,Louisiana,46.9,,,6:00 AM,,,,,,,4.0,,North,10.4,350.0,70063.0
New Orleans,Smoke,1970-01-23 15:00:00,45.0,,-,89.0,,30.13,,Louisiana,48.0,,,9:00 AM,,,,,,,2.0,,North,11.5,350.0,70063.0
New Orleans,Smoke,1970-01-23 18:00:00,44.1,,-,67.0,,30.11,,Louisiana,55.0,,,12:00 PM,,,,,,,6.0,,North,11.5,350.0,70063.0
New Orleans,Unknown,1970-01-23 21:00:00,46.0,,-,52.0,,30.06,,Louisiana,64.0,,,3:00 PM,,,,,,,7.0,,North,10.4,350.0,70063.0
New Orleans,Unknown,1970-01-24 00:00:00,45.0,,-,67.0,,30.11,,Louisiana,55.9,,,6:00 PM,,,,,,,8.0,,NNE,5.8,30.0,70063.0
New Orleans,Unknown,1970-01-24 03:00:00,41.0,,-,68.0,,30.15,,Louisiana,51.1,,,9:00 PM,,,,,,,10.0,,NNE,6.9,30.0,70063.0
New Orleans,Clear,1970-01-24 06:00:00,39.0,,-,76.0,,30.19,,Louisiana,46.0,,,12:00 AM,,,,,,,10.0,,NE,6.9,50.0,70063.0
New Orleans,Clear,1970-01-24 09:00:00,37.0,,-,76.0,,30.21,,Louisiana,44.1,,,3:00 AM,,,,,,,10.0,,ENE,8.1,60.0,70063.0
New Orleans,Clear,1970-01-24 12:00:00,33.1,,-,83.0,,30.2,,Louisiana,37.9,,,6:00 AM,,,,,,,10.0,,ENE,4.6,70.0,70063.0
New Orleans,Smoke,1970-01-24 15:00:00,43.0,,-,77.0,,30.24,,Louisiana,50.0,,,9:00 AM,,,,,,,4.0,,ENE,10.4,60.0,70063.0
New Orleans,Smoke,1970-01-24 18:00:00,46.9,,-,52.0,,30.22,,Louisiana,64.9,,,12:00 PM,,,,,,,6.0,,SSE,11.5,160.0,70063.0
New Orleans,Unknown,1970-01-24 21:00:00,50.0,,-,56.0,,30.15,,Louisiana,66.0,,,3:00 PM,,,,,,,7.0,,South,11.5,180.0,70063.0
New Orleans,Smoke,1970-01-25 00:00:00,51.1,,-,72.0,,30.13,,Louisiana,60.1,,,6:00 PM,,,,,,,6.0,,SE,11.5,140.0,70063.0
New Orleans,Smoke,1970-01-25 03:00:00,53.1,,-,78.0,,30.15,,Louisiana,60.1,,,9:00 PM,,,,,,,5.0,,SSE,6.9,150.0,70063.0
New Orleans,Smoke,1970-01-25 06:00:00,55.9,,-,90.0,,30.12,,Louisiana,59.0,,,12:00 AM,,,,,,,4.0,,SSE,9.2,160.0,70063.0
New Orleans,Fog,1970-01-25 09:00:00,59.0,Fog,-,93.0,,30.07,,Louisiana,61.0,,,3:00 AM,,,,,,,1.0,,South,12.7,170.0,70063.0
New Orleans,Fog,1970-01-25 12:00:00,57.9,Fog,-,93.0,,30.05,,Louisiana,60.1,,,6:00 AM,,,,,,,0.1,,South,6.9,190.0,70063.0
New Orleans,Fog,1970-01-25 15:00:00,63.0,Fog,-,87.0,,30.06,,Louisiana,66.9,,,9:00 AM,,,,,,,4.0,,SSW,11.5,200.0,70063.0
New Orleans,Unknown,1970-01-25 18:00:00,63.0,,-,64.0,,30.04,,Louisiana,75.9,,,12:00 PM,,,,,,,10.0,,SSW,16.1,210.0,70063.0
New Orleans,Unknown,1970-01-25 21:00:00,61.0,,-,56.0,,29.99,,Louisiana,78.1,,,3:00 PM,,,,,,,10.0,,SW,16.1,220.0,70063.0
New Orleans,Clear,1970-01-26 00:00:00,62.1,,-,76.0,,30.0,,Louisiana,70.0,,,6:00 PM,,,,,,,10.0,,SW,10.4,220.0,70063.0
New Orleans,Unknown,1970-01-26 03:00:00,64.0,,-,84.0,,30.0,,Louisiana,69.1,,,9:00 PM,,,,,,,10.0,,SSW,10.4,210.0,70063.0
New Orleans,Light Rain,1970-01-26 06:00:00,64.9,Rain,-,87.0,,30.04,,Louisiana,69.1,,,12:00 AM,,,,,,,6.0,,SW,12.7,230.0,70063.0
New Orleans,Smoke,1970-01-26 09:00:00,64.0,,-,87.0,,30.04,,Louisiana,68.0,,,3:00 AM,,,,,,,6.0,,SW,8.1,230.0,70063.0
New Orleans,Smoke,1970-01-26 12:00:00,64.0,,-,87.0,,30.06,,Louisiana,68.0,,,6:00 AM,,,,,,,5.0,,WSW,8.1,250.0,70063.0
New Orleans,Fog,1970-01-26 15:00:00,64.9,Fog,-,87.0,,30.09,,Louisiana,69.1,,,9:00 AM,,,,,,,2.0,,West,5.8,270.0,70063.0
New Orleans,Unknown,1970-01-26 18:00:00,63.0,,-,73.0,,30.09,,Louisiana,72.0,,,12:00 PM,,,,,,,7.0,,NNE,8.1,20.0,70063.0
New Orleans,Unknown,1970-01-26 21:00:00,62.1,,-,66.0,,30.05,,Louisiana,73.9,,,3:00 PM,,,,,,,7.0,,NNE,6.9,30.0,70063.0
New Orleans,Smoke,1970-01-27 00:00:00,64.0,,-,78.0,,30.06,,Louisiana,71.1,,,6:00 PM,,,,,,,5.0,,South,5.8,190.0,70063.0
New Orleans,Fog,1970-01-27 03:00:00,64.0,Fog,-,97.0,,30.07,,Louisiana,64.9,,,9:00 PM,,,,,,,3.0,,South,8.1,170.0,70063.0
New Orleans,Fog,1970-01-27 06:00:00,62.1,Fog,-,97.0,,30.09,,Louisiana,63.0,,,12:00 AM,,,,,,,0.1,,SW,4.6,220.0,70063.0
New Orleans,Fog,1970-01-27 09:00:00,61.0,Fog,-,96.0,,30.08,,Louisiana,62.1,,,3:00 AM,,,,,,,0.4,,North,2.3,360.0,70063.0
New Orleans,Fog,1970-01-27 12:00:00,62.1,Fog,-,97.0,,30.09,,Louisiana,63.0,,,6:00 AM,,,,,,,0.1,,North,2.3,360.0,70063.0
New Orleans,Fog,1970-01-27 15:00:00,64.0,Fog,-,100.0,,30.15,,Louisiana,64.0,,,9:00 AM,,,,,,,0.5,,South,4.6,190.0,70063.0
New Orleans,Smoke,1970-01-27 18:00:00,63.0,,-,78.0,,30.14,,Louisiana,70.0,,,12:00 PM,,,,,,,4.0,,South,4.6,180.0,70063.0
New Orleans,Unknown,1970-01-27 21:00:00,63.0,,-,75.0,,30.07,,Louisiana,71.1,,,3:00 PM,,,,,,,7.0,,ESE,9.2,120.0,70063.0
New Orleans,Smoke,1970-01-28 00:00:00,61.0,,-,87.0,,30.07,,Louisiana,64.9,,,6:00 PM,,,,,,,4.0,,SE,10.4,130.0,70063.0
New Orleans,Smoke,1970-01-28 03:00:00,62.1,,-,90.0,,30.11,,Louisiana,64.9,,,9:00 PM,,,,,,,5.0,,South,10.4,170.0,70063.0
New Orleans,Unknown,1970-01-28 06:00:00,62.1,,-,93.0,,30.07,,Louisiana,64.0,,,12:00 AM,,,,,,,7.0,,South,11.5,170.0,70063.0
New Orleans,Fog,1970-01-28 09:00:00,61.0,Fog,-,93.0,,30.04,,Louisiana,63.0,,,3:00 AM,,,,,,,4.0,,South,9.2,180.0,70063.0
New Orleans,Fog,1970-01-28 12:00:00,63.0,Fog,-,96.0,,30.06,,Louisiana,64.0,,,6:00 AM,,,,,,,0.1,,South,9.2,170.0,70063.0
New Orleans,Fog,1970-01-28 15:00:00,64.9,Fog,-,100.0,,30.07,,Louisiana,64.9,,,9:00 AM,,,,,,,0.8,,South,11.5,180.0,70063.0
New Orleans,Unknown,1970-01-28 18:00:00,64.9,,-,64.0,,30.06,,Louisiana,78.1,,,12:00 PM,,,,,,,8.0,,SSW,15.0,200.0,70063.0
New Orleans,Unknown,1970-01-28 21:00:00,64.9,,-,64.0,,29.99,,Louisiana,78.1,,,3:00 PM,,,,,,,10.0,,South,13.8,190.0,70063.0
New Orleans,Unknown,1970-01-29 00:00:00,64.9,,-,78.0,,30.0,,Louisiana,72.0,,,6:00 PM,,,,,,,10.0,,South,10.4,180.0,70063.0
New Orleans,Unknown,1970-01-29 03:00:00,64.9,,-,93.0,,30.01,,Louisiana,66.9,,,9:00 PM,,,,,,,7.0,,South,10.4,180.0,70063.0
New Orleans,Unknown,1970-01-29 06:00:00,66.0,,-,90.0,,30.04,,Louisiana,69.1,,,12:00 AM,,,,,,,7.0,,SSW,9.2,210.0,70063.0
New Orleans,Unknown,1970-01-29 09:00:00,64.9,,-,90.0,,30.04,,Louisiana,68.0,,,3:00 AM,,,,,,,7.0,,South,6.9,190.0,70063.0
New Orleans,Fog,1970-01-29 12:00:00,64.9,Fog,-,90.0,,30.04,,Louisiana,68.0,,,6:00 AM,,,,,,,5.0,,SSW,8.1,200.0,70063.0
New Orleans,Unknown,1970-01-29 15:00:00,66.0,,-,87.0,,30.08,,Louisiana,70.0,,,9:00 AM,,,,,,,7.0,,SW,11.5,230.0,70063.0
New Orleans,Unknown,1970-01-29 18:00:00,66.9,,-,76.0,,30.06,,Louisiana,75.0,,,12:00 PM,,,,,,,8.0,,SW,13.8,230.0,70063.0
New Orleans,Light Rain Showers,1970-01-29 21:00:00,66.0,Rain,-,87.0,,29.98,,Louisiana,70.0,,,3:00 PM,,,,,,,10.0,,WNW,10.4,300.0,70063.0
New Orleans,Unknown,1970-01-30 00:00:00,52.0,,-,81.0,,30.12,,Louisiana,57.9,,,6:00 PM,,,,,,,10.0,,North,10.4,350.0,70063.0
New Orleans,Unknown,1970-01-30 03:00:00,46.9,,-,77.0,0.02,30.2,,Louisiana,54.0,,,9:00 PM,,,,,,,10.0,,North,13.8,10.0,70063.0
New Orleans,Clear,1970-01-30 06:00:00,35.1,,-,57.0,,30.3,,Louisiana,50.0,,,12:00 AM,,,,,,,15.0,,North,17.3,360.0,70063.0
New Orleans,Clear,1970-01-30 09:00:00,32.0,,-,58.0,,30.34,,Louisiana,46.0,,,3:00 AM,,,,,,,15.0,,NNE,16.1,20.0,70063.0
New Orleans,Clear,1970-01-30 12:00:00,28.0,,-,58.0,,30.4,,Louisiana,42.1,,,6:00 AM,,,,,,,15.0,,North,13.8,10.0,70063.0
New Orleans,Clear,1970-01-30 15:00:00,24.1,,-,47.0,,30.49,,Louisiana,43.0,,,9:00 AM,,,,,,,10.0,,North,18.4,10.0,70063.0
New Orleans,Clear,1970-01-30 18:00:00,23.0,,-,36.0,,30.48,,Louisiana,48.9,,,12:00 PM,,,,,,,10.0,,North,15.0,10.0,70063.0
New Orleans,Clear,1970-01-30 21:00:00,19.9,,-,28.0,,30.43,,Louisiana,52.0,,,3:00 PM,,,,,,,10.0,,North,13.8,10.0,70063.0
New Orleans,Clear,1970-01-31 00:00:00,18.0,,-,30.0,,30.46,,Louisiana,48.0,,,6:00 PM,,,,,,,15.0,,North,13.8,10.0,70063.0
New Orleans,Clear,1970-01-31 03:00:00,17.1,,-,34.0,,30.52,,Louisiana,44.1,,,9:00 PM,,,,,,,15.0,,NNE,10.4,20.0,70063.0
New Orleans,Clear,1970-01-31 06:00:00,19.9,,-,46.0,,30.51,,Louisiana,39.0,,,12:00 AM,,,,,,,15.0,,NNE,6.9,30.0,70063.0
New Orleans,Clear,1970-01-31 09:00:00,21.0,,-,51.0,,30.52,,Louisiana,37.9,,,3:00 AM,,,,,,,15.0,,NE,5.8,40.0,70063.0
New Orleans,Clear,1970-01-31 12:00:00,21.9,,-,53.0,,30.51,,Louisiana,37.9,,,6:00 AM,,,,,,,15.0,,ENE,5.8,60.0,70063.0
New Orleans,Unknown,1970-01-31 15:00:00,21.0,,-,36.0,,30.53,,Louisiana,46.9,,,9:00 AM,,,,,,,15.0,,ENE,13.8,60.0,70063.0
New Orleans,Unknown,1970-01-31 18:00:00,21.0,,-,27.0,,30.51,,Louisiana,55.0,,,12:00 PM,,,,,,,15.0,,ESE,13.8,120.0,70063.0
New Orleans,Unknown,1970-01-31 21:00:00,25.0,,-,31.0,,30.41,,Louisiana,55.0,,,3:00 PM,,,,,,,15.0,,SE,12.7,130.0,70063.0
New Orleans,Unknown,1970-02-01 00:00:00,34.0,,-,56.0,,30.38,,Louisiana,48.9,,,6:00 PM,,,,,,,10.0,,ESE,11.5,120.0,70063.0
New Orleans,Unknown,1970-02-01 03:00:00,36.0,,-,68.0,,30.31,,Louisiana,46.0,,,9:00 PM,,,,,,,10.0,,East,10.4,80.0,70063.0
New York City,Clear,1970-01-01 06:00:00,21.0,,-,88.0,,30.01,,New York,24.1,,,,1:00 AM,,,,,,6.0,,North,4.6,360.0,10001.0
New York City,Clear,1970-01-01 09:00:00,16.0,,-,78.0,,30.01,,New York,21.9,,,,4:00 AM,,,,,,6.0,,North,6.9,360.0,10001.0
New York City,Clear,1970-01-01 12:00:00,14.0,,-,78.0,,30.06,,New York,19.9,,,,7:00 AM,,,,,,6.0,,NW,4.6,320.0,10001.0
New York City,Clear,1970-01-01 15:00:00,10.9,,-,71.0,,30.04,,New York,19.0,,,,10:00 AM,,,,,,6.0,,North,6.9,360.0,10001.0
New York City,Clear,1970-01-01 18:00:00,14.0,,-,78.0,,30.01,,New York,19.9,,,,1:00 PM,,,,,,6.0,,NW,4.6,320.0,10001.0
New York City,Clear,1970-01-01 21:00:00,17.1,,-,78.0,,29.98,,New York,23.0,,,,4:00 PM,,,,,,6.0,,NW,4.6,320.0,10001.0
New York City,Clear,1970-01-02 00:00:00,15.1,,-,75.0,,29.93,,New York,21.9,,,,7:00 PM,,,,,,6.0,,North,3.5,360.0,10001.0
New York City,Clear,1970-01-02 03:00:00,15.1,,-,75.0,,29.91,,New York,21.9,,,,10:00 PM,,,,,,6.0,,West,3.5,270.0,10001.0
New York City,Clear,1970-01-03 06:00:00,19.9,,-,78.0,,30.05,,New York,26.1,,,,1:00 AM,,,,,,6.0,,NW,3.5,320.0,10001.0
New York City,Clear,1970-01-03 09:00:00,21.9,,-,78.0,,30.01,,New York,28.0,,,,4:00 AM,,,,,,6.0,,North,2.3,360.0,10001.0
New York City,Clear,1970-01-03 12:00:00,23.0,,-,78.0,,30.0,,New York,28.9,,,,7:00 AM,,,,,,6.0,,NW,3.5,320.0,10001.0
New York City,Snow,1970-01-03 15:00:00,27.0,Snow,-,85.0,,29.99,,New York,30.9,,,,10:00 AM,,,,,,6.0,,SE,6.9,140.0,10001.0
New York City,Snow,1970-01-03 18:00:00,30.0,Snow,-,85.0,,29.87,,New York,34.0,,,,1:00 PM,,,,,,6.0,,SE,6.9,140.0,10001.0
New York City,Snow,1970-01-03 21:00:00,32.0,Snow,-,96.0,0.03,29.88,,New York,33.1,,,,4:00 PM,,,,,,6.0,,SW,4.6,230.0,10001.0
New York City,Snow,1970-01-04 00:00:00,28.9,Snow,-,88.0,,29.89,,New York,32.0,,,,7:00 PM,,,,,,6.0,,West,6.9,270.0,10001.0
New York City,Clear,1970-01-04 03:00:00,23.0,,-,75.0,,29.87,,New York,30.0,,,,10:00 PM,,,,,,6.0,,West,8.1,270.0,10001.0
New York City,Clear,1970-01-04 06:00:00,19.0,,-,75.0,,29.89,,New York,26.1,,,,1:00 AM,,,,,,6.0,,NW,6.9,320.0,10001.0
New York City,Clear,1970-01-04 09:00:00,17.1,,-,82.0,,29.95,,New York,21.9,,,,4:00 AM,,,,,,6.0,,North,8.1,360.0,10001.0
New York City,Clear,1970-01-04 12:00:00,15.1,,-,78.0,,30.0,,New York,21.0,,,,7:00 AM,,,,,,6.0,,North,8.1,360.0,10001.0
New York City,Clear,1970-01-04 15:00:00,16.0,,-,78.0,,30.04,,New York,21.9,,,,10:00 AM,,,,,,6.0,,NW,8.1,320.0,10001.0
New York City,Clear,1970-01-04 18:00:00,17.1,,-,63.0,,30.02,,New York,28.0,,,,1:00 PM,,,,,,6.0,,NW,8.1,320.0,10001.0
New York City,Clear,1970-01-04 21:00:00,16.0,,-,56.0,,30.06,,New York,30.0,,,,4:00 PM,,,,,,6.0,,NW,11.5,320.0,10001.0
New York City,Clear,1970-01-05 00:00:00,15.1,,-,63.0,,30.11,,New York,26.1,,,,7:00 PM,,,,,,6.0,,NW,9.2,320.0,10001.0
New York City,Clear,1970-01-05 03:00:00,15.1,,-,75.0,,30.17,,New York,21.9,,,,10:00 PM,,,,,,6.0,,NW,10.4,320.0,10001.0
New York City,Clear,1970-01-05 06:00:00,12.9,,-,74.0,,30.21,,New York,19.9,,,,1:00 AM,,,,,,6.0,,NW,8.1,320.0,10001.0
New York City,Clear,1970-01-05 09:00:00,10.9,,-,74.0,,30.26,,New York,18.0,,,,4:00 AM,,,,,,6.0,,NW,8.1,320.0,10001.0
New York City,Clear,1970-01-05 12:00:00,10.9,,-,71.0,,30.3,,New York,19.0,,,,7:00 AM,,,,,,6.0,,SW,9.2,230.0,10001.0
New York City,Clear,1970-01-05 15:00:00,16.0,,-,74.0,,30.31,,New York,23.0,,,,10:00 AM,,,,,,6.0,,SW,8.1,230.0,10001.0
New York City,Clear,1970-01-05 18:00:00,19.9,,-,64.0,,30.23,,New York,30.9,,,,1:00 PM,,,,,,6.0,,SW,11.5,230.0,10001.0
New York City,Clear,1970-01-05 21:00:00,21.0,,-,64.0,,30.21,,New York,32.0,,,,4:00 PM,,,,,,6.0,,West,11.5,270.0,10001.0
New York City,Clear,1970-01-06 00:00:00,21.9,,-,69.0,,30.19,,New York,30.9,,,,7:00 PM,,,,,,6.0,,SW,8.1,230.0,10001.0
New York City,Clear,1970-01-06 03:00:00,23.0,,-,66.0,,30.16,,New York,33.1,,,,10:00 PM,,,,,,6.0,,NW,6.9,320.0,10001.0
New York City,Clear,1970-01-06 06:00:00,23.0,,-,66.0,,30.12,,New York,33.1,,,,1:00 AM,,,,,,6.0,,West,4.6,270.0,10001.0
New York City,Clear,1970-01-06 09:00:00,25.0,,-,75.0,,30.12,,New York,32.0,,,,4:00 AM,,,,,,6.0,,West,5.8,270.0,10001.0
New York City,Clear,1970-01-06 12:00:00,25.0,,-,79.0,,30.14,,New York,30.9,,,,7:00 AM,,,,,,6.0,,NE,5.8,50.0,10001.0
New York City,Clear,1970-01-06 15:00:00,19.9,,-,61.0,,30.14,,New York,32.0,,,,10:00 AM,,,,,,6.0,,North,5.8,360.0,10001.0
New York City,Clear,1970-01-06 18:00:00,21.9,,-,61.0,,30.05,,New York,34.0,,,,1:00 PM,,,,,,6.0,,NW,5.8,320.0,10001.0
New York City,Clear,1970-01-06 21:00:00,23.0,,-,64.0,,30.04,,New York,34.0,,,,4:00 PM,,,,,,6.0,,NE,5.8,50.0,10001.0
New York City,Clear,1970-01-07 00:00:00,25.0,,-,72.0,,29.99,,New York,33.1,,,,7:00 PM,,,,,,6.0,,NE,9.2,50.0,10001.0
New York City,Snow,1970-01-07 03:00:00,23.0,Snow,-,81.0,,29.91,,New York,28.0,,,,10:00 PM,,,,,,6.0,,NE,13.8,50.0,10001.0
New York City,Snow,1970-01-07 06:00:00,24.1,Snow,-,100.0,0.04,29.9,,New York,24.1,,,,1:00 AM,,,,,,6.0,,NE,16.1,50.0,10001.0
New York City,Snow,1970-01-07 09:00:00,23.0,Snow,-,100.0,0.02,29.85,,New York,23.0,,,,4:00 AM,,,,,,6.0,,NE,17.3,50.0,10001.0
New York City,Snow,1970-01-07 12:00:00,19.0,Snow,-,85.0,,29.81,,New York,23.0,,,,7:00 AM,,,,,,6.0,,NE,17.3,50.0,10001.0
New York City,Clear,1970-01-07 15:00:00,12.9,,-,62.0,,29.82,,New York,24.1,,,,10:00 AM,,,,,,6.0,,NE,12.7,50.0,10001.0
New York City,Snow,1970-01-07 18:00:00,19.0,Snow,-,85.0,,29.79,,New York,23.0,,,,1:00 PM,,,,,,6.0,,North,8.1,360.0,10001.0
New York City,Snow,1970-01-07 21:00:00,19.0,Snow,-,89.0,,29.81,,New York,21.9,,,,4:00 PM,,,,,,6.0,,North,9.2,360.0,10001.0
New York City,Clear,1970-01-08 00:00:00,12.9,,-,68.0,,29.82,,New York,21.9,,,,7:00 PM,,,,,,6.0,,NW,3.5,320.0,10001.0
New York City,Clear,1970-01-08 03:00:00,10.9,,-,68.0,,29.81,,New York,19.9,,,,10:00 PM,,,,,,6.0,,North,5.8,360.0,10001.0
New York City,Clear,1970-01-08 06:00:00,10.9,,-,68.0,,29.82,,New York,19.9,,,,1:00 AM,,,,,,6.0,,NW,4.6,320.0,10001.0
New York City,Clear,1970-01-08 09:00:00,10.0,,-,71.0,,29.82,,New York,18.0,,,,4:00 AM,,,,,,6.0,,NW,6.9,320.0,10001.0
New York City,Clear,1970-01-08 12:00:00,10.9,,-,77.0,,29.85,,New York,17.1,,,,7:00 AM,,,,,,6.0,,NW,6.9,320.0,10001.0
New York City,Snow,1970-01-08 15:00:00,12.9,Snow,-,88.0,,29.87,,New York,16.0,,,,10:00 AM,,,,,,6.0,,West,11.5,270.0,10001.0
New York City,Snow,1970-01-08 18:00:00,12.0,Snow,-,84.0,,29.79,,New York,16.0,,,,1:00 PM,,,,,,6.0,,West,11.5,270.0,10001.0
New York City,Snow,1970-01-08 21:00:00,8.1,Snow,-,81.0,,29.79,,New York,12.9,,,,4:00 PM,,,,,,6.0,,West,11.5,270.0,10001.0
New York City,Clear,1970-01-09 00:00:00,1.0,,-,67.0,,29.84,,New York,10.0,,,,7:00 PM,,,,,,6.0,,West,12.7,270.0,10001.0
New York City,Clear,1970-01-09 03:00:00,-0.0,,-,76.0,,29.83,,New York,6.1,,,,10:00 PM,,,,,,6.0,,West,12.7,270.0,10001.0
New York City,Clear,1970-01-09 06:00:00,-2.0,,-,73.0,,29.9,,New York,5.0,,,,1:00 AM,,,,,,6.0,,West,12.7,270.0,10001.0
New York City,Clear,1970-01-09 09:00:00,-7.1,,-,60.0,,29.92,,New York,3.9,,,,4:00 AM,,,,,,6.0,,West,12.7,270.0,10001.0
New York City,Clear,1970-01-09 12:00:00,-6.0,,-,64.0,,29.95,,New York,3.9,,,,7:00 AM,,,,,,6.0,,West,6.9,270.0,10001.0
New York City,Clear,1970-01-09 15:00:00,-6.0,,-,58.0,,30.0,,New York,6.1,,,,10:00 AM,,,,,,6.0,,West,11.5,270.0,10001.0
New York City,Clear,1970-01-09 18:00:00,-2.9,,-,49.0,,29.92,,New York,12.9,,,,1:00 PM,,,,,,6.0,,NW,12.7,320.0,10001.0
New York City,Clear,1970-01-09 21:00:00,-4.0,,-,45.0,,29.9,,New York,14.0,,,,4:00 PM,,,,,,6.0,,NW,11.5,320.0,10001.0
New York City,Clear,1970-01-10 00:00:00,-2.9,,-,54.0,,29.95,,New York,10.9,,,,7:00 PM,,,,,,6.0,,NW,11.5,320.0,10001.0
New York City,Clear,1970-01-10 03:00:00,-2.9,,-,61.0,,29.93,,New York,8.1,,,,10:00 PM,,,,,,6.0,,NW,13.8,320.0,10001.0
New York City,Clear,1970-01-10 06:00:00,-2.0,,-,64.0,,29.9,,New York,8.1,,,,1:00 AM,,,,,,6.0,,NW,11.5,320.0,10001.0
New York City,Clear,1970-01-10 09:00:00,1.9,,-,70.0,,29.87,,New York,10.0,,,,4:00 AM,,,,,,6.0,,NW,11.5,320.0,10001.0
New York City,Clear,1970-01-10 12:00:00,3.9,,-,73.0,,29.84,,New York,10.9,,,,7:00 AM,,,,,,6.0,,SW,11.5,230.0,10001.0
New York City,Clear,1970-01-10 15:00:00,10.0,,-,71.0,,29.88,,New York,18.0,,,,10:00 AM,,,,,,6.0,,SW,9.2,230.0,10001.0
New York City,Clear,1970-01-10 18:00:00,14.0,,-,54.0,,29.83,,New York,28.9,,,,1:00 PM,,,,,,6.0,,NW,13.8,320.0,10001.0
New York City,Clear,1970-01-10 21:00:00,12.0,,-,51.0,,29.89,,New York,28.0,,,,4:00 PM,,,,,,6.0,,NW,17.3,320.0,10001.0
New York City,Clear,1970-01-11 00:00:00,10.0,,-,53.0,,29.95,,New York,25.0,,,,7:00 PM,,,,,,6.0,,NW,11.5,320.0,10001.0
New York City,Clear,1970-01-11 03:00:00,12.0,,-,63.0,,29.96,,New York,23.0,,,,10:00 PM,,,,,,6.0,,NW,16.1,320.0,10001.0
New York City,Clear,1970-01-11 06:00:00,12.9,,-,65.0,,29.97,,New York,23.0,,,,1:00 AM,,,,,,6.0,,NW,10.4,320.0,10001.0
New York City,Clear,1970-01-11 09:00:00,12.0,,-,66.0,,29.99,,New York,21.9,,,,4:00 AM,,,,,,6.0,,NW,13.8,320.0,10001.0
New York City,Clear,1970-01-11 12:00:00,14.0,,-,78.0,,30.01,,New York,19.9,,,,7:00 AM,,,,,,6.0,,NW,11.5,320.0,10001.0
New York City,Clear,1970-01-11 15:00:00,15.1,,-,75.0,,30.04,,New York,21.9,,,,10:00 AM,,,,,,6.0,,NW,9.2,320.0,10001.0
New York City,Clear,1970-01-11 18:00:00,16.0,,-,63.0,,29.98,,New York,27.0,,,,1:00 PM,,,,,,6.0,,NW,10.4,320.0,10001.0
New York City,Clear,1970-01-11 21:00:00,16.0,,-,61.0,,29.98,,New York,28.0,,,,4:00 PM,,,,,,6.0,,SW,10.4,230.0,10001.0
New York City,Clear,1970-01-12 00:00:00,15.1,,-,69.0,,29.98,,New York,24.1,,,,7:00 PM,,,,,,6.0,,SW,9.2,230.0,10001.0
New York City,Clear,1970-01-12 03:00:00,15.1,,-,72.0,,29.98,,New York,23.0,,,,10:00 PM,,,,,,6.0,,NW,5.8,320.0,10001.0
New York City,Clear,1970-01-12 06:00:00,15.1,,-,66.0,,29.97,,New York,25.0,,,,1:00 AM,,,,,,6.0,,NW,2.3,320.0,10001.0
New York City,Snow,1970-01-12 09:00:00,21.9,Snow,-,96.0,0.03,29.97,,New York,23.0,,,,4:00 AM,,,,,,6.0,,North,2.3,360.0,10001.0
New York City,Snow,1970-01-12 12:00:00,21.9,Snow,-,96.0,0.02,29.94,,New York,23.0,,,,7:00 AM,,,,,,6.0,,East,6.9,90.0,10001.0
New York City,Snow,1970-01-12 15:00:00,23.0,Snow,-,92.0,0.01,29.92,,New York,25.0,,,,10:00 AM,,,,,,6.0,,NE,6.9,50.0,10001.0
New York City,Snow,1970-01-12 18:00:00,25.0,Snow,-,92.0,,29.84,,New York,27.0,,,,1:00 PM,,,,,,6.0,,NE,4.6,50.0,10001.0
New York City,Snow,1970-01-12 21:00:00,26.1,Snow,-,92.0,,29.85,,New York,28.0,,,,4:00 PM,,,,,,6.0,,North,8.1,360.0,10001.0
New York City,Clear,1970-01-13 00:00:00,23.0,,-,85.0,,29.88,,New York,27.0,,,,7:00 PM,,,,,,6.0,,NW,2.3,320.0,10001.0
New York City,Clear,1970-01-13 03:00:00,19.0,,-,78.0,,29.89,,New York,25.0,,,,10:00 PM,,,,,,6.0,,West,6.9,270.0,10001.0
New York City,Clear,1970-01-13 06:00:00,21.0,,-,78.0,,29.89,,New York,27.0,,,,1:00 AM,,,,,,6.0,,West,8.1,270.0,10001.0
New York City,Clear,1970-01-13 09:00:00,19.0,,-,75.0,,29.91,,New York,26.1,,,,4:00 AM,,,,,,6.0,,West,5.8,270.0,10001.0
New York City,Clear,1970-01-13 12:00:00,19.0,,-,81.0,,29.94,,New York,24.1,,,,7:00 AM,,,,,,6.0,,West,6.9,270.0,10001.0
New York City,Clear,1970-01-13 15:00:00,19.0,,-,69.0,,29.99,,New York,28.0,,,,10:00 AM,,,,,,6.0,,West,9.2,270.0,10001.0
New York City,Clear,1970-01-13 18:00:00,16.0,,-,52.0,,29.92,,New York,32.0,,,,1:00 PM,,,,,,6.0,,West,10.4,270.0,10001.0
New York City,Clear,1970-01-13 21:00:00,15.1,,-,50.0,,29.94,,New York,32.0,,,,4:00 PM,,,,,,6.0,,NW,11.5,320.0,10001.0
New York City,Clear,1970-01-14 00:00:00,14.0,,-,54.0,,30.0,,New York,28.9,,,,7:00 PM,,,,,,6.0,,West,11.5,270.0,10001.0
New York City,Clear,1970-01-14 03:00:00,12.0,,-,55.0,,29.99,,New York,26.1,,,,10:00 PM,,,,,,6.0,,West,12.7,270.0,10001.0
New York City,Clear,1970-01-14 06:00:00,12.0,,-,63.0,,29.97,,New York,23.0,,,,1:00 AM,,,,,,6.0,,West,11.5,270.0,10001.0
New York City,Clear,1970-01-14 09:00:00,10.0,,-,60.0,,30.0,,New York,21.9,,,,4:00 AM,,,,,,6.0,,NW,15.0,320.0,10001.0
New York City,Clear,1970-01-14 12:00:00,10.0,,-,68.0,,30.05,,New York,19.0,,,,7:00 AM,,,,,,6.0,,NW,13.8,320.0,10001.0
New York City,Clear,1970-01-14 15:00:00,7.0,,-,59.0,,30.11,,New York,19.0,,,,10:00 AM,,,,,,6.0,,NW,16.1,320.0,10001.0
New York City,Clear,1970-01-14 18:00:00,6.1,,-,48.0,,30.06,,New York,23.0,,,,1:00 PM,,,,,,6.0,,NW,15.0,320.0,10001.0
New York City,Clear,1970-01-14 21:00:00,5.0,,-,46.0,,30.07,,New York,23.0,,,,4:00 PM,,,,,,6.0,,NW,12.7,320.0,10001.0
New York City,Clear,1970-01-15 00:00:00,5.0,,-,54.0,,30.14,,New York,19.0,,,,7:00 PM,,,,,,6.0,,NW,13.8,320.0,10001.0
New York City,Clear,1970-01-15 03:00:00,3.9,,-,59.0,,30.12,,New York,16.0,,,,10:00 PM,,,,,,6.0,,NW,15.0,320.0,10001.0
New York City,Clear,1970-01-15 06:00:00,1.9,,-,62.0,,30.15,,New York,12.9,,,,1:00 AM,,,,,,6.0,,NW,11.5,320.0,10001.0
New York City,Clear,1970-01-15 09:00:00,1.0,,-,61.0,,30.2,,New York,12.0,,,,4:00 AM,,,,,,6.0,,NW,12.7,320.0,10001.0
New York City,Clear,1970-01-15 12:00:00,1.9,,-,67.0,,30.24,,New York,10.9,,,,7:00 AM,,,,,,6.0,,NW,11.5,320.0,10001.0
New York City,Clear,1970-01-15 15:00:00,-0.0,,-,49.0,,30.31,,New York,16.0,,,,10:00 AM,,,,,,6.0,,NW,15.0,320.0,10001.0
New York City,Clear,1970-01-15 18:00:00,3.9,,-,44.0,,30.28,,New York,23.0,,,,1:00 PM,,,,,,6.0,,NW,12.7,320.0,10001.0
New York City,Clear,1970-01-15 21:00:00,5.0,,-,39.0,,30.28,,New York,27.0,,,,4:00 PM,,,,,,6.0,,NW,11.5,320.0,10001.0
New York City,Clear,1970-01-16 00:00:00,3.9,,-,42.0,,30.3,,New York,24.1,,,,7:00 PM,,,,,,6.0,,NW,9.2,320.0,10001.0
New York City,Clear,1970-01-16 03:00:00,3.9,,-,46.0,,30.31,,New York,21.9,,,,10:00 PM,,,,,,6.0,,West,5.8,270.0,10001.0
New York City,Clear,1970-01-16 06:00:00,3.0,,-,48.0,,30.3,,New York,19.9,,,,1:00 AM,,,,,,6.0,,West,8.1,270.0,10001.0
New York City,Clear,1970-01-16 09:00:00,5.0,,-,54.0,,30.3,,New York,19.0,,,,4:00 AM,,,,,,6.0,,NW,3.5,320.0,10001.0
New York City,Clear,1970-01-16 12:00:00,7.0,,-,59.0,,30.31,,New York,19.0,,,,7:00 AM,,,,,,6.0,,West,4.6,270.0,10001.0
New York City,Clear,1970-01-16 15:00:00,9.0,,-,55.0,,30.33,,New York,23.0,,,,10:00 AM,,,,,,6.0,,NW,4.6,320.0,10001.0
New York City,Clear,1970-01-16 18:00:00,15.1,,-,44.0,,30.22,,New York,35.1,,,,1:00 PM,,,,,,6.0,,SW,8.1,230.0,10001.0
New York City,Clear,1970-01-16 21:00:00,18.0,,-,48.0,,30.17,,New York,36.0,,,,4:00 PM,,,,,,6.0,,SW,10.4,230.0,10001.0
New York City,Clear,1970-01-17 00:00:00,21.0,,-,57.0,,30.17,,New York,35.1,,,,7:00 PM,,,,,,6.0,,SW,10.4,230.0,10001.0
New York City,Clear,1970-01-17 03:00:00,21.9,,-,64.0,,30.12,,New York,33.1,,,,10:00 PM,,,,,,6.0,,SW,13.8,230.0,10001.0
New York City,Clear,1970-01-17 06:00:00,23.0,,-,69.0,,30.07,,New York,32.0,,,,1:00 AM,,,,,,6.0,,SW,10.4,230.0,10001.0
New York City,Clear,1970-01-17 09:00:00,24.1,,-,70.0,,30.04,,New York,33.1,,,,4:00 AM,,,,,,6.0,,SW,9.2,230.0,10001.0
New York City,Clear,1970-01-17 12:00:00,25.0,,-,70.0,,30.01,,New York,34.0,,,,7:00 AM,,,,,,6.0,,SW,9.2,230.0,10001.0
New York City,Clear,1970-01-17 15:00:00,28.0,,-,70.0,,30.01,,New York,37.0,,,,10:00 AM,,,,,,6.0,,SW,10.4,230.0,10001.0
New York City,Clear,1970-01-17 18:00:00,30.0,,-,58.0,,29.92,,New York,44.1,,,,1:00 PM,,,,,,6.0,,SW,9.2,230.0,10001.0
New York City,Clear,1970-01-17 21:00:00,30.9,,-,54.0,,29.88,,New York,46.9,,,,4:00 PM,,,,,,6.0,,SW,6.9,230.0,10001.0
New York City,Clear,1970-01-18 00:00:00,32.0,,-,60.0,,29.87,,New York,45.0,,,,7:00 PM,,,,,,6.0,,SW,11.5,230.0,10001.0
New York City,Clear,1970-01-18 03:00:00,37.0,,-,80.0,,29.83,,New York,43.0,,,,10:00 PM,,,,,,6.0,,SW,11.5,230.0,10001.0
New York City,Rain,1970-01-18 06:00:00,39.9,Rain,-,96.0,,29.75,,New York,41.0,,,,1:00 AM,,,,,,6.0,,SW,10.4,230.0,10001.0
New York City,Clear,1970-01-18 09:00:00,39.0,,-,93.0,,29.71,,New York,41.0,,,,4:00 AM,,,,,,6.0,,SW,8.1,230.0,10001.0
New York City,Clear,1970-01-18 12:00:00,37.9,,-,89.0,,29.67,,New York,41.0,,,,7:00 AM,,,,,,6.0,,SW,5.8,230.0,10001.0
New York City,Clear,1970-01-18 15:00:00,35.1,,-,89.0,,29.71,,New York,37.9,,,,10:00 AM,,,,,,6.0,,North,9.2,360.0,10001.0
New York City,Clear,1970-01-18 18:00:00,28.0,,-,79.0,,29.72,,New York,34.0,,,,1:00 PM,,,,,,6.0,,North,11.5,360.0,10001.0
New York City,Clear,1970-01-18 21:00:00,28.0,,-,76.0,,29.76,,New York,35.1,,,,4:00 PM,,,,,,6.0,,North,11.5,360.0,10001.0
New York City,Clear,1970-01-19 00:00:00,19.0,,-,64.0,,29.86,,New York,30.0,,,,7:00 PM,,,,,,6.0,,NW,11.5,320.0,10001.0
New York City,Clear,1970-01-19 03:00:00,12.0,,-,63.0,,29.93,,New York,23.0,,,,10:00 PM,,,,,,6.0,,NW,11.5,320.0,10001.0
New York City,Clear,1970-01-19 06:00:00,6.1,,-,60.0,,29.99,,New York,18.0,,,,1:00 AM,,,,,,6.0,,NW,11.5,320.0,10001.0
New York City,Clear,1970-01-19 09:00:00,5.0,,-,64.0,,30.02,,New York,15.1,,,,4:00 AM,,,,,,6.0,,North,9.2,360.0,10001.0
New York City,Clear,1970-01-19 12:00:00,5.0,,-,73.0,,30.17,,New York,12.0,,,,7:00 AM,,,,,,6.0,,North,11.5,360.0,10001.0
New York City,Clear,1970-01-19 15:00:00,7.0,,-,70.0,,30.12,,New York,15.1,,,,10:00 AM,,,,,,6.0,,North,5.8,360.0,10001.0
New York City,Clear,1970-01-19 18:00:00,8.1,,-,57.0,,30.03,,New York,21.0,,,,1:00 PM,,,,,,6.0,,NW,5.8,320.0,10001.0
New York City,Clear,1970-01-19 21:00:00,8.1,,-,55.0,,30.02,,New York,21.9,,,,4:00 PM,,,,,,6.0,,NW,8.1,320.0,10001.0
New York City,Clear,1970-01-20 00:00:00,9.0,,-,60.0,,30.05,,New York,21.0,,,,7:00 PM,,,,,,6.0,,NW,8.1,320.0,10001.0
New York City,Clear,1970-01-20 03:00:00,8.1,,-,62.0,,30.08,,New York,19.0,,,,10:00 PM,,,,,,6.0,,NW,9.2,320.0,10001.0
New York City,Clear,1970-01-20 06:00:00,7.0,,-,68.0,,30.07,,New York,16.0,,,,1:00 AM,,,,,,6.0,,NW,5.8,320.0,10001.0
New York City,Clear,1970-01-20 09:00:00,8.1,,-,74.0,,30.08,,New York,15.1,,,,4:00 AM,,,,,,6.0,,NW,5.8,320.0,10001.0
New York City,Clear,1970-01-20 12:00:00,8.1,,-,77.0,,30.09,,New York,14.0,,,,7:00 AM,,,,,,6.0,,NW,6.9,320.0,10001.0
New York City,Clear,1970-01-20 15:00:00,7.0,,-,65.0,,30.1,,New York,17.1,,,,10:00 AM,,,,,,6.0,,North,6.9,360.0,10001.0
New York City,Clear,1970-01-20 18:00:00,10.0,,-,65.0,,29.98,,New York,19.9,,,,1:00 PM,,,,,,6.0,,NE,4.6,50.0,10001.0
New York City,Clear,1970-01-20 21:00:00,12.0,,-,68.0,,29.92,,New York,21.0,,,,4:00 PM,,,,,,6.0,,SE,9.2,140.0,10001.0
New York City,Snow,1970-01-21 00:00:00,18.0,Snow,-,92.0,,29.85,,New York,19.9,,,,7:00 PM,,,,,,6.0,,East,10.4,90.0,10001.0
New York City,Snow,1970-01-21 03:00:00,19.9,Snow,-,100.0,0.03,29.73,,New York,19.9,,,,10:00 PM,,,,,,6.0,,NE,10.4,50.0,10001.0
New York City,Snow,1970-01-21 06:00:00,18.0,Snow,-,96.0,0.04,29.68,,New York,19.0,,,,1:00 AM,,,,,,6.0,,NW,9.2,320.0,10001.0
New York City,Snow,1970-01-21 09:00:00,16.0,Snow,-,96.0,,29.69,,New York,17.1,,,,4:00 AM,,,,,,6.0,,North,10.4,360.0,10001.0
New York City,Clear,1970-01-21 12:00:00,8.1,,-,74.0,,29.76,,New York,15.1,,,,7:00 AM,,,,,,6.0,,NW,17.3,320.0,10001.0
New York City,Clear,1970-01-21 15:00:00,6.1,,-,68.0,,29.9,,New York,15.1,,,,10:00 AM,,,,,,6.0,,NW,16.1,320.0,10001.0
New York City,Clear,1970-01-21 18:00:00,1.9,,-,54.0,,29.95,,New York,16.0,,,,1:00 PM,,,,,,6.0,,NW,17.3,320.0,10001.0
New York City,Clear,1970-01-21 21:00:00,-6.0,,-,41.0,,30.01,,New York,14.0,,,,4:00 PM,,,,,,6.0,,NW,20.7,320.0,10001.0
New York City,Clear,1970-01-22 00:00:00,-7.1,,-,46.0,,30.08,,New York,10.0,,,,7:00 PM,,,,,,6.0,,NW,18.4,320.0,10001.0
New York City,Clear,1970-01-22 03:00:00,-8.0,,-,51.0,,30.11,,New York,7.0,,,,10:00 PM,,,,,,6.0,,NW,12.7,320.0,10001.0
New York City,Clear,1970-01-22 06:00:00,-8.0,,-,53.0,,30.11,,New York,6.1,,,,1:00 AM,,,,,,6.0,,NW,12.7,320.0,10001.0
New York City,Clear,1970-01-22 09:00:00,-7.1,,-,58.0,,30.14,,New York,5.0,,,,4:00 AM,,,,,,6.0,,NW,12.7,320.0,10001.0
New York City,Clear,1970-01-22 12:00:00,-5.1,,-,60.0,,30.18,,New York,6.1,,,,7:00 AM,,,,,,6.0,,NW,15.0,320.0,10001.0
New York City,Clear,1970-01-22 15:00:00,-4.0,,-,56.0,,30.21,,New York,9.0,,,,10:00 AM,,,,,,6.0,,NW,11.5,320.0,10001.0
New York City,Clear,1970-01-22 18:00:00,-0.9,,-,47.0,,30.16,,New York,16.0,,,,1:00 PM,,,,,,6.0,,NW,15.0,320.0,10001.0
New York City,Clear,1970-01-22 21:00:00,-0.9,,-,44.0,,30.17,,New York,18.0,,,,4:00 PM,,,,,,6.0,,NW,11.5,320.0,10001.0
New York City,Clear,1970-01-23 00:00:00,-0.0,,-,49.0,,30.19,,New York,16.0,,,,7:00 PM,,,,,,6.0,,NW,11.5,320.0,10001.0
New York City,Clear,1970-01-23 03:00:00,-0.0,,-,54.0,,30.17,,New York,14.0,,,,10:00 PM,,,,,,6.0,,NW,6.9,320.0,10001.0
New York City,Clear,1970-01-23 06:00:00,-0.0,,-,59.0,,30.12,,New York,12.0,,,,1:00 AM,,,,,,6.0,,NW,4.6,320.0,10001.0
New York City,Clear,1970-01-23 09:00:00,3.9,,-,64.0,,30.09,,New York,14.0,,,,4:00 AM,,,,,,6.0,,South,8.1,180.0,10001.0
New York City,Clear,1970-01-23 12:00:00,6.1,,-,71.0,,30.08,,New York,14.0,,,,7:00 AM,,,,,,6.0,,South,11.5,180.0,10001.0
New York City,Clear,1970-01-23 15:00:00,10.0,,-,65.0,,30.02,,New York,19.9,,,,10:00 AM,,,,,,6.0,,South,13.8,180.0,10001.0
New York City,Clear,1970-01-23 18:00:00,10.9,,-,57.0,,29.93,,New York,24.1,,,,1:00 PM,,,,,,6.0,,SW,10.4,230.0,10001.0
New York City,Clear,1970-01-23 21:00:00,14.0,,-,58.0,,29.88,,New York,27.0,,,,4:00 PM,,,,,,6.0,,NW,6.9,320.0,10001.0
New York City,Snow,1970-01-24 00:00:00,18.0,Snow,-,75.0,,29.87,,New York,25.0,,,,7:00 PM,,,,,,6.0,,NW,5.8,320.0,10001.0
New York City,Clear,1970-01-24 03:00:00,18.0,,-,88.0,,29.87,,New York,21.0,,,,10:00 PM,,,,,,6.0,,NW,9.2,320.0,10001.0
New York City,Clear,1970-01-24 06:00:00,14.0,,-,81.0,,29.89,,New York,19.0,,,,1:00 AM,,,,,,6.0,,North,8.1,360.0,10001.0
New York City,Clear,1970-01-24 09:00:00,12.0,,-,78.0,,29.94,,New York,18.0,,,,4:00 AM,,,,,,6.0,,North,8.1,360.0,10001.0
New York City,Clear,1970-01-24 12:00:00,10.0,,-,77.0,,30.04,,New York,16.0,,,,7:00 AM,,,,,,6.0,,North,8.1,360.0,10001.0
New York City,Clear,1970-01-24 15:00:00,9.0,,-,71.0,,30.12,,New York,17.1,,,,10:00 AM,,,,,,6.0,,NW,10.4,320.0,10001.0
New York City,Clear,1970-01-24 18:00:00,7.0,,-,48.0,,30.07,,New York,24.1,,,,1:00 PM,,,,,,6.0,,NW,9.2,320.0,10001.0
New York City,Clear,1970-01-24 21:00:00,6.1,,-,43.0,,30.08,,New York,26.1,,,,4:00 PM,,,,,,6.0,,NW,6.9,320.0,10001.0
New York City,Clear,1970-01-25 00:00:00,7.0,,-,48.0,,30.11,,New York,24.1,,,,7:00 PM,,,,,,6.0,,NW,8.1,320.0,10001.0
New York City,Clear,1970-01-25 03:00:00,10.0,,-,58.0,,30.1,,New York,23.0,,,,10:00 PM,,,,,,6.0,,SW,8.1,230.0,10001.0
New York City,Clear,1970-01-25 06:00:00,10.9,,-,63.0,,30.08,,New York,21.9,,,,1:00 AM,,,,,,6.0,,SW,9.2,230.0,10001.0
New York City,Clear,1970-01-25 09:00:00,10.0,,-,55.0,,30.03,,New York,24.1,,,,4:00 AM,,,,,,6.0,,South,10.4,180.0,10001.0
New York City,Snow,1970-01-25 12:00:00,21.9,Snow,-,88.0,0.01,30.01,,New York,25.0,,,,7:00 AM,,,,,,6.0,,SW,9.2,230.0,10001.0
New York City,Clear,1970-01-25 15:00:00,25.0,,-,88.0,,29.94,,New York,28.0,,,,10:00 AM,,,,,,6.0,,SW,6.9,230.0,10001.0
New York City,Clear,1970-01-25 18:00:00,26.1,,-,79.0,,29.83,,New York,32.0,,,,1:00 PM,,,,,,6.0,,SW,6.9,230.0,10001.0
New York City,Clear,1970-01-25 21:00:00,27.0,,-,78.0,,29.79,,New York,33.1,,,,4:00 PM,,,,,,6.0,,West,4.6,270.0,10001.0
New York City,Clear,1970-01-26 00:00:00,28.0,,-,79.0,,29.76,,New York,34.0,,,,7:00 PM,,,,,,6.0,,West,3.5,270.0,10001.0
New York City,Clear,1970-01-26 03:00:00,30.0,,-,82.0,,29.66,,New York,35.1,,,,10:00 PM,,,,,,6.0,,SE,4.6,140.0,10001.0
New York City,Clear,1970-01-26 06:00:00,35.1,,-,97.0,,29.58,,New York,36.0,,,,1:00 AM,,,,,,6.0,,SE,4.6,140.0,10001.0
New York City,Clear,1970-01-26 09:00:00,34.0,,-,93.0,,29.55,,New York,36.0,,,,4:00 AM,,,,,,6.0,,SW,4.6,230.0,10001.0
New York City,Clear,1970-01-26 12:00:00,33.1,,-,86.0,,29.56,,New York,37.0,,,,7:00 AM,,,,,,6.0,,SW,9.2,230.0,10001.0
New York City,Clear,1970-01-26 15:00:00,34.0,,-,79.0,,29.6,,New York,39.9,,,,10:00 AM,,,,,,6.0,,SW,9.2,230.0,10001.0
New York City,Clear,1970-01-26 18:00:00,36.0,,-,71.0,,29.58,,New York,45.0,,,,1:00 PM,,,,,,6.0,,West,11.5,270.0,10001.0
New York City,Clear,1970-01-26 21:00:00,32.0,,-,67.0,,29.67,,New York,42.1,,,,4:00 PM,,,,,,6.0,,NW,11.5,320.0,10001.0
New York City,Clear,1970-01-27 00:00:00,28.0,,-,68.0,,29.81,,New York,37.9,,,,7:00 PM,,,,,,6.0,,NW,10.4,320.0,10001.0
New York City,Clear,1970-01-27 03:00:00,25.0,,-,70.0,,29.88,,New York,34.0,,,,10:00 PM,,,,,,6.0,,NW,8.1,320.0,10001.0
New York City,Clear,1970-01-27 06:00:00,21.9,,-,72.0,,29.94,,New York,30.0,,,,1:00 AM,,,,,,6.0,,NW,10.4,320.0,10001.0
New York City,Clear,1970-01-27 09:00:00,19.9,,-,69.0,,30.01,,New York,28.9,,,,4:00 AM,,,,,,6.0,,North,6.9,360.0,10001.0
New York City,Clear,1970-01-27 12:00:00,18.0,,-,71.0,,30.07,,New York,26.1,,,,7:00 AM,,,,,,6.0,,NW,9.2,320.0,10001.0
New York City,Clear,1970-01-27 15:00:00,19.0,,-,69.0,,30.12,,New York,28.0,,,,10:00 AM,,,,,,6.0,,NW,6.9,320.0,10001.0
New York City,Clear,1970-01-27 18:00:00,21.0,,-,59.0,,30.03,,New York,34.0,,,,1:00 PM,,,,,,6.0,,NW,4.6,320.0,10001.0
New York City,Clear,1970-01-27 21:00:00,21.0,,-,61.0,,30.02,,New York,33.1,,,,4:00 PM,,,,,,6.0,,NE,3.5,50.0,10001.0
New York City,Snow,1970-01-28 00:00:00,27.0,Snow,-,82.0,,30.12,,New York,32.0,,,,7:00 PM,,,,,,6.0,,SW,10.4,230.0,10001.0
New York City,Snow,1970-01-28 03:00:00,30.0,Snow,-,96.0,,30.13,,New York,30.9,,,,10:00 PM,,,,,,6.0,,SW,3.5,230.0,10001.0
New York City,Clear,1970-01-28 06:00:00,30.9,,-,96.0,,30.16,,New York,32.0,,,,1:00 AM,,,,,,6.0,,SW,6.9,230.0,10001.0
New York City,Clear,1970-01-28 09:00:00,32.0,,-,96.0,,30.2,,New York,33.1,,,,4:00 AM,,,,,,6.0,,West,6.9,270.0,10001.0
New York City,Clear,1970-01-28 12:00:00,30.0,,-,96.0,,30.26,,New York,30.9,,,,7:00 AM,,,,,,6.0,,SW,4.6,230.0,10001.0
New York City,Clear,1970-01-28 15:00:00,32.0,,-,86.0,,30.32,,New York,36.0,,,,10:00 AM,,,,,,6.0,,West,3.5,270.0,10001.0
New York City,Clear,1970-01-28 18:00:00,32.0,,-,67.0,,30.24,,New York,42.1,,,,1:00 PM,,,,,,6.0,,SE,6.9,140.0,10001.0
New York City,Clear,1970-01-28 21:00:00,33.1,,-,89.0,,30.2,,New York,36.0,,,,4:00 PM,,,,,,6.0,,SE,10.4,140.0,10001.0
New York City,Clear,1970-01-29 00:00:00,36.0,,-,89.0,,30.15,,New York,39.0,,,,7:00 PM,,,,,,6.0,,South,11.5,180.0,10001.0
New York City,Clear,1970-01-29 03:00:00,37.0,,-,86.0,,30.07,,New York,41.0,,,,10:00 PM,,,,,,6.0,,South,10.4,180.0,10001.0
New York City,Clear,1970-01-29 06:00:00,39.0,,-,89.0,,29.91,,New York,42.1,,,,1:00 AM,,,,,,6.0,,SE,10.4,140.0,10001.0
New York City,Clear,1970-01-29 09:00:00,41.0,,-,83.0,,29.8,,New York,46.0,,,,4:00 AM,,,,,,6.0,,SW,8.1,230.0,10001.0
New York City,Clear,1970-01-29 12:00:00,41.0,,-,80.0,,29.71,,New York,46.9,,,,7:00 AM,,,,,,6.0,,SW,9.2,230.0,10001.0
New York City,Clear,1970-01-29 15:00:00,39.9,,-,71.0,,29.71,,New York,48.9,,,,10:00 AM,,,,,,6.0,,SW,9.2,230.0,10001.0
New York City,Rain,1970-01-29 18:00:00,39.9,Rain,-,74.0,,29.65,,New York,48.0,,,,1:00 PM,,,,,,6.0,,SW,11.5,230.0,10001.0
New York City,Clear,1970-01-29 21:00:00,42.1,,-,77.0,,29.64,,New York,48.9,,,,4:00 PM,,,,,,6.0,,SW,12.7,230.0,10001.0
New York City,Clear,1970-01-30 00:00:00,45.0,,-,83.0,,29.65,,New York,50.0,,,,7:00 PM,,,,,,6.0,,SW,11.5,230.0,10001.0
New York City,Clear,1970-01-30 03:00:00,46.0,,-,90.0,,29.65,,New York,48.9,,,,10:00 PM,,,,,,6.0,,SW,9.2,230.0,10001.0
New York City,Clear,1970-01-30 06:00:00,37.0,,-,74.0,,29.7,,New York,45.0,,,,1:00 AM,,,,,,6.0,,NW,8.1,320.0,10001.0
New York City,Clear,1970-01-30 09:00:00,33.1,,-,68.0,,29.73,,New York,43.0,,,,4:00 AM,,,,,,6.0,,SW,8.1,230.0,10001.0
New York City,Clear,1970-01-30 12:00:00,30.0,,-,65.0,,29.78,,New York,41.0,,,,7:00 AM,,,,,,6.0,,West,10.4,270.0,10001.0
New York City,Clear,1970-01-30 15:00:00,21.9,,-,57.0,,29.88,,New York,36.0,,,,10:00 AM,,,,,,6.0,,NW,17.3,320.0,10001.0
New York City,Clear,1970-01-30 18:00:00,18.0,,-,52.0,,29.85,,New York,34.0,,,,1:00 PM,,,,,,6.0,,NW,15.0,320.0,10001.0
New York City,Clear,1970-01-30 21:00:00,15.1,,-,48.0,,29.9,,New York,33.1,,,,4:00 PM,,,,,,6.0,,NW,17.3,320.0,10001.0
New York City,Clear,1970-01-31 00:00:00,10.9,,-,51.0,,30.0,,New York,27.0,,,,7:00 PM,,,,,,6.0,,NW,17.3,320.0,10001.0
New York City,Clear,1970-01-31 03:00:00,9.0,,-,55.0,,30.05,,New York,23.0,,,,10:00 PM,,,,,,6.0,,NW,19.6,320.0,10001.0
New York City,Clear,1970-01-31 06:00:00,8.1,,-,60.0,,30.09,,New York,19.9,,,,1:00 AM,,,,,,6.0,,NW,16.1,320.0,10001.0
New York City,Clear,1970-01-31 09:00:00,9.0,,-,65.0,,30.15,,New York,19.0,,,,4:00 AM,,,,,,6.0,,NW,11.5,320.0,10001.0
New York City,Clear,1970-01-31 12:00:00,10.9,,-,71.0,,30.19,,New York,19.0,,,,7:00 AM,,,,,,6.0,,NW,10.4,320.0,10001.0
New York City,Clear,1970-01-31 15:00:00,12.0,,-,63.0,,30.24,,New York,23.0,,,,10:00 AM,,,,,,6.0,,West,8.1,270.0,10001.0
New York City,Clear,1970-01-31 18:00:00,15.1,,-,50.0,,30.17,,New York,32.0,,,,1:00 PM,,,,,,6.0,,West,10.4,270.0,10001.0
New York City,Clear,1970-01-31 21:00:00,19.0,,-,52.0,,30.1,,New York,35.1,,,,4:00 PM,,,,,,6.0,,SW,11.5,230.0,10001.0
New York City,Clear,1970-02-01 00:00:00,19.9,,-,56.0,,30.11,,New York,34.0,,,,7:00 PM,,,,,,6.0,,SW,11.5,230.0,10001.0
New York City,Clear,1970-02-01 03:00:00,23.0,,-,64.0,,30.1,,New York,34.0,,,,10:00 PM,,,,,,6.0,,SW,11.5,230.0,10001.0
San Francisco,Fog,1970-01-01 09:00:00,39.9,Fog,-,92.0,,30.22,,California,42.1,,,,,,,1:00 AM,,,4.0,,Calm,Calm,0.0,94101.0
San Francisco,Fog,1970-01-01 12:00:00,39.9,Fog,-,92.0,,30.19,,California,42.1,,,,,,,4:00 AM,,,3.0,,Calm,Calm,0.0,94101.0
San Francisco,Fog,1970-01-01 15:00:00,41.0,Fog,-,93.0,,30.19,,California,43.0,,,,,,,7:00 AM,,,1.0,,NNE,3.5,30.0,94101.0
San Francisco,Fog,1970-01-01 18:00:00,42.1,Fog,-,97.0,,30.2,,California,43.0,,,,,,,10:00 AM,,,0.1,,ESE,4.6,110.0,94101.0
San Francisco,Clear,1970-01-01 21:00:00,30.9,,-,37.0,,30.13,,California,57.0,,,,,,,1:00 PM,,,10.0,,ENE,5.8,70.0,94101.0
San Francisco,Clear,1970-01-02 00:00:00,37.9,,-,47.0,,30.14,,California,57.9,,,,,,,4:00 PM,,,50.0,,East,8.1,80.0,94101.0
San Francisco,Clear,1970-01-02 03:00:00,42.1,,-,77.0,,30.14,,California,48.9,,,,,,,7:00 PM,,,10.0,,WNW,5.8,300.0,94101.0
San Francisco,Clear,1970-01-02 06:00:00,37.9,,-,82.0,,30.16,,California,43.0,,,,,,,10:00 PM,,,7.0,,Calm,Calm,0.0,94101.0
San Francisco,Smoke,1970-01-03 09:00:00,35.1,,-,76.0,,30.22,,California,42.1,,,,,,,1:00 AM,,,4.0,,WSW,5.8,240.0,94101.0
San Francisco,Smoke,1970-01-03 12:00:00,34.0,,-,86.0,,30.21,,California,37.9,,,,,,,4:00 AM,,,3.0,,SSW,4.6,200.0,94101.0
San Francisco,Smoke,1970-01-03 15:00:00,32.0,,-,86.0,,30.2,,California,36.0,,,,,,,7:00 AM,,,4.0,,South,4.6,180.0,94101.0
San Francisco,Smoke,1970-01-03 18:00:00,39.0,,-,82.0,,30.21,,California,44.1,,,,,,,10:00 AM,,,10.5,,ESE,8.1,120.0,94101.0
San Francisco,Smoke,1970-01-03 21:00:00,37.0,,-,64.0,,30.12,,California,48.9,,,,,,,1:00 PM,,,3.0,,NE,6.9,40.0,94101.0
San Francisco,Smoke,1970-01-04 00:00:00,37.0,,-,57.0,,30.07,,California,52.0,,,,,,,4:00 PM,,,6.0,,North,6.9,360.0,94101.0
San Francisco,Clear,1970-01-04 03:00:00,37.0,,-,66.0,,30.06,,California,48.0,,,,,,,7:00 PM,,,7.0,,WNW,4.6,300.0,94101.0
San Francisco,Clear,1970-01-04 06:00:00,39.9,,-,77.0,,30.05,,California,46.9,,,,,,,10:00 PM,,,7.0,,West,4.6,270.0,94101.0
San Francisco,Unknown,1970-01-04 09:00:00,42.1,,-,83.0,,30.04,,California,46.9,,,,,,,1:00 AM,,,10.0,,NW,8.1,310.0,94101.0
San Francisco,Unknown,1970-01-04 12:00:00,37.0,,-,82.0,,30.02,,California,42.1,,,,,,,4:00 AM,,,9.0,,WSW,3.5,240.0,94101.0
San Francisco,Clear,1970-01-04 15:00:00,36.0,,-,86.0,,30.03,,California,39.9,,,,,,,7:00 AM,,,9.0,,NE,3.5,50.0,94101.0
San Francisco,Smoke,1970-01-04 18:00:00,39.9,,-,82.0,,30.09,,California,45.0,,,,,,,10:00 AM,,,10.5,,North,11.5,360.0,94101.0
San Francisco,Clear,1970-01-04 21:00:00,34.0,,-,54.0,,30.05,,California,50.0,,,,,,,1:00 PM,,,15.0,,NNE,8.1,30.0,94101.0
San Francisco,Unknown,1970-01-05 00:00:00,32.0,,-,48.0,,30.06,,California,51.1,,,,,,,4:00 PM,,,15.0,,NE,9.2,40.0,94101.0
San Francisco,Clear,1970-01-05 03:00:00,28.0,,-,52.0,,30.1,,California,45.0,,,,,,,7:00 PM,,,15.0,,North,6.9,10.0,94101.0
San Francisco,Unknown,1970-01-05 06:00:00,30.0,,-,65.0,,30.12,,California,41.0,,,,,,,10:00 PM,,,15.0,,Calm,Calm,0.0,94101.0
San Francisco,Unknown,1970-01-05 09:00:00,30.0,,-,73.0,,30.16,,California,37.9,,,,,,,1:00 AM,,,10.0,,SSE,3.5,150.0,94101.0
San Francisco,Unknown,1970-01-05 12:00:00,27.0,,-,72.0,,30.18,,California,35.1,,,,,,,4:00 AM,,,15.0,,SE,6.9,140.0,94101.0
San Francisco,Unknown,1970-01-05 15:00:00,24.1,,-,53.0,,30.22,,California,39.9,,,,,,,7:00 AM,,,15.0,,SE,13.8,140.0,94101.0
San Francisco,Unknown,1970-01-05 18:00:00,24.1,,-,45.0,,30.3,,California,44.1,,,,,,,10:00 AM,,,50.0,,East,9.2,90.0,94101.0
San Francisco,Unknown,1970-01-05 21:00:00,19.9,,-,33.0,,30.26,,California,48.0,,,,,,,1:00 PM,,,50.0,,SE,6.9,130.0,94101.0
San Francisco,Unknown,1970-01-06 00:00:00,24.1,,-,38.0,,30.25,,California,48.9,,,,,,,4:00 PM,,,30.0,,ESE,5.8,120.0,94101.0
San Francisco,Clear,1970-01-06 03:00:00,28.9,,-,53.0,,30.29,,California,45.0,,,,,,,7:00 PM,,,15.0,,NE,12.7,50.0,94101.0
San Francisco,Unknown,1970-01-06 06:00:00,32.0,,-,67.0,,30.31,,California,42.1,,,,,,,10:00 PM,,,10.0,,ESE,6.9,110.0,94101.0
San Francisco,Clear,1970-01-06 09:00:00,28.9,,-,67.0,,30.34,,California,39.0,,,,,,,1:00 AM,,,10.0,,SE,4.6,140.0,94101.0
San Francisco,Unknown,1970-01-06 12:00:00,28.9,,-,70.0,,30.33,,California,37.9,,,,,,,4:00 AM,,,10.0,,South,3.5,190.0,94101.0
San Francisco,Unknown,1970-01-06 15:00:00,28.9,,-,78.0,,30.32,,California,35.1,,,,,,,7:00 AM,,,10.0,,SSE,6.9,150.0,94101.0
San Francisco,Drizzle,1970-01-06 18:00:00,32.0,,-,67.0,,30.33,,California,42.1,,,,,,,10:00 AM,,,6.0,,SSE,9.2,150.0,94101.0
San Francisco,Smoke,1970-01-06 21:00:00,32.0,,-,56.0,,30.25,,California,46.9,,,,,,,1:00 PM,,,6.0,,ESE,4.6,120.0,94101.0
San Francisco,Smoke,1970-01-07 00:00:00,32.0,,-,54.0,,30.23,,California,48.0,,,,,,,4:00 PM,,,6.0,,ESE,4.6,110.0,94101.0
San Francisco,Smoke,1970-01-07 03:00:00,36.0,,-,73.0,,30.19,,California,44.1,,,,,,,7:00 PM,,,6.0,,SE,5.8,140.0,94101.0
San Francisco,Smoke,1970-01-07 06:00:00,35.1,,-,71.0,,30.15,,California,44.1,,,,,,,10:00 PM,,,6.0,,SSE,5.8,150.0,94101.0
San Francisco,Unknown,1970-01-07 09:00:00,35.1,,-,71.0,,30.16,,California,44.1,,,,,,,1:00 AM,,,7.0,,SSE,6.9,160.0,94101.0
San Francisco,Drizzle,1970-01-07 12:00:00,36.0,,-,76.0,,30.12,,California,43.0,,,,,,,4:00 AM,,,5.0,,West,4.6,260.0,94101.0
San Francisco,Drizzle,1970-01-07 15:00:00,35.1,,-,74.0,,30.05,,California,43.0,,,,,,,7:00 AM,,,5.0,,SE,4.6,140.0,94101.0
San Francisco,Smoke,1970-01-07 18:00:00,35.1,,-,66.0,,30.09,,California,46.0,,,,,,,10:00 AM,,,3.0,,North,3.5,10.0,94101.0
San Francisco,Light Rain Showers,1970-01-07 21:00:00,39.0,Rain,-,76.0,0.01,30.01,,California,46.0,,,,,,,1:00 PM,,,5.2,,SE,9.2,130.0,94101.0
San Francisco,Smoke,1970-01-08 00:00:00,36.0,,-,59.0,,29.94,,California,50.0,,,,,,,4:00 PM,,,10.5,,NE,6.9,50.0,94101.0
San Francisco,Smoke,1970-01-08 03:00:00,39.9,,-,71.0,,29.93,,California,48.9,,,,,,,7:00 PM,,,3.0,,North,3.5,10.0,94101.0
San Francisco,Light Rain Showers,1970-01-08 06:00:00,41.0,Rain,-,74.0,,29.93,,California,48.9,,,,,,,10:00 PM,,,10.0,,SSW,3.5,200.0,94101.0
San Francisco,Light Rain,1970-01-08 09:00:00,41.0,Rain,-,71.0,,29.93,,California,50.0,,,,,,,1:00 AM,,,15.0,,SSE,23.0,150.0,94101.0
San Francisco,Unknown,1970-01-08 12:00:00,43.0,,-,83.0,,29.91,,California,48.0,,,,,,,4:00 AM,,,10.0,,SSE,10.4,150.0,94101.0
San Francisco,Unknown,1970-01-08 15:00:00,44.1,,-,80.0,,29.88,,California,50.0,,,,,,,7:00 AM,,,15.0,,SE,8.1,130.0,94101.0
San Francisco,Light Rain,1970-01-08 18:00:00,45.0,Rain,-,83.0,0.02,29.9,,California,50.0,,,,,,,10:00 AM,,,10.0,,ESE,11.5,120.0,94101.0
San Francisco,Light Rain Showers,1970-01-08 21:00:00,45.0,Rain,-,74.0,0.01,29.82,,California,53.1,,,,,,,1:00 PM,,,15.0,,SE,18.4,130.0,94101.0
San Francisco,Unknown,1970-01-09 00:00:00,30.9,,-,40.0,,29.77,,California,55.0,,,,,,,4:00 PM,,,20.0,,SE,26.5,130.0,94101.0
San Francisco,Unknown,1970-01-09 03:00:00,33.1,,-,43.0,,29.81,,California,55.0,,,,,,,7:00 PM,,,15.0,,SE,15.0,140.0,94101.0
San Francisco,Unknown,1970-01-09 06:00:00,42.1,,-,66.0,,29.82,,California,53.1,,,,,,,10:00 PM,,,15.0,,SE,12.7,130.0,94101.0
San Francisco,Light Rain Showers,1970-01-09 09:00:00,45.0,Rain,-,83.0,,29.84,,California,50.0,,,,,,,1:00 AM,,,15.0,,SE,20.7,130.0,94101.0
San Francisco,Unknown,1970-01-09 12:00:00,44.1,,-,77.0,,29.78,,California,51.1,,,,,,,4:00 AM,,,15.0,,SE,17.3,130.0,94101.0
San Francisco,Light Rain Showers,1970-01-09 15:00:00,46.9,Rain,-,89.0,0.05,29.74,,California,50.0,,,,,,,7:00 AM,,,7.0,,SE,19.6,130.0,94101.0
San Francisco,Light Rain Showers,1970-01-09 18:00:00,48.9,Rain,-,89.0,,29.74,,California,52.0,,,,,,,10:00 AM,,,7.0,,SE,24.2,130.0,94101.0
San Francisco,Light Rain,1970-01-09 21:00:00,54.0,Fog-Rain,-,93.0,0.04,29.65,,California,55.9,,,,,,,1:00 PM,,,6.0,,SE,19.6,140.0,94101.0
San Francisco,Light Rain,1970-01-10 00:00:00,52.0,Fog-Rain,-,87.0,0.07,29.74,,California,55.9,,,,,,,4:00 PM,,,5.0,,WSW,21.9,250.0,94101.0
San Francisco,Unknown,1970-01-10 03:00:00,51.1,,-,84.0,0.01,29.84,,California,55.9,,,,,,,7:00 PM,,,15.0,,SSW,8.1,210.0,94101.0
San Francisco,Unknown,1970-01-10 06:00:00,50.0,,-,83.0,0.02,29.91,,California,55.0,,,,,,,10:00 PM,,,15.0,,SSW,11.5,210.0,94101.0
San Francisco,Light Rain Showers,1970-01-10 09:00:00,48.9,Rain,-,83.0,,29.96,,California,54.0,,,,,,,1:00 AM,,,15.0,,West,13.8,260.0,94101.0
San Francisco,Unknown,1970-01-10 12:00:00,48.0,,-,83.0,,30.03,,California,53.1,,,,,,,4:00 AM,,,15.0,,WSW,6.9,250.0,94101.0
San Francisco,Light Rain Showers,1970-01-10 15:00:00,48.0,Rain,-,93.0,,30.12,,California,50.0,,,,,,,7:00 AM,,,7.0,,WNW,8.1,290.0,94101.0
San Francisco,Light Rain Showers,1970-01-10 18:00:00,48.9,Rain,-,89.0,,30.14,,California,52.0,,,,,,,10:00 AM,,,10.0,,East,8.1,80.0,94101.0
San Francisco,Unknown,1970-01-10 21:00:00,48.9,,-,74.0,,30.13,,California,57.0,,,,,,,1:00 PM,,,10.0,,WNW,8.1,300.0,94101.0
San Francisco,Unknown,1970-01-11 00:00:00,46.9,,-,74.0,,30.12,,California,55.0,,,,,,,4:00 PM,,,30.0,,NNW,5.8,330.0,94101.0
San Francisco,Unknown,1970-01-11 03:00:00,46.0,,-,86.0,,30.11,,California,50.0,,,,,,,7:00 PM,,,15.0,,SSW,5.8,200.0,94101.0
San Francisco,Unknown,1970-01-11 06:00:00,45.0,,-,77.0,,30.12,,California,52.0,,,,,,,10:00 PM,,,15.0,,SE,4.6,130.0,94101.0
San Francisco,Light Rain,1970-01-11 09:00:00,46.9,Rain,-,89.0,,30.12,,California,50.0,,,,,,,1:00 AM,,,7.0,,SE,4.6,140.0,94101.0
San Francisco,Light Rain,1970-01-11 12:00:00,48.9,Fog-Rain,-,96.0,0.06,30.08,,California,50.0,,,,,,,4:00 AM,,,3.0,,ESE,11.5,120.0,94101.0
San Francisco,Light Rain,1970-01-11 15:00:00,48.0,Rain,-,93.0,0.02,30.04,,California,50.0,,,,,,,7:00 AM,,,15.0,,East,12.7,100.0,94101.0
San Francisco,Light Rain,1970-01-11 18:00:00,48.9,Fog-Rain,-,96.0,0.03,30.07,,California,50.0,,,,,,,10:00 AM,,,10.5,,East,11.5,100.0,94101.0
San Francisco,Light Drizzle,1970-01-11 21:00:00,50.0,Fog,-,93.0,,30.02,,California,52.0,,,,,,,1:00 PM,,,2.0,,NNE,6.9,20.0,94101.0
San Francisco,Light Drizzle,1970-01-12 00:00:00,51.1,Fog,-,97.0,,30.02,,California,52.0,,,,,,,4:00 PM,,,1.6,,North,6.9,350.0,94101.0
San Francisco,Light Drizzle,1970-01-12 03:00:00,52.0,Fog,-,100.0,0.01,30.03,,California,52.0,,,,,,,7:00 PM,,,1.0,,North,3.5,10.0,94101.0
San Francisco,Light Drizzle,1970-01-12 06:00:00,52.0,Fog,-,96.0,,30.05,,California,53.1,,,,,,,10:00 PM,,,10.5,,NE,2.3,50.0,94101.0
San Francisco,Fog,1970-01-12 09:00:00,51.1,Fog,-,97.0,,30.02,,California,52.0,,,,,,,1:00 AM,,,10.5,,Calm,Calm,0.0,94101.0
San Francisco,Light Drizzle,1970-01-12 12:00:00,51.1,Fog,-,97.0,,30.03,,California,52.0,,,,,,,4:00 AM,,,2.0,,ENE,4.6,60.0,94101.0
San Francisco,Light Drizzle,1970-01-12 15:00:00,51.1,Fog,-,97.0,,30.04,,California,52.0,,,,,,,7:00 AM,,,5.5,,ENE,3.5,60.0,94101.0
San Francisco,Unknown,1970-01-12 18:00:00,54.0,,-,87.0,,30.07,,California,57.9,,,,,,,10:00 AM,,,10.0,,ENE,5.8,70.0,94101.0
San Francisco,Unknown,1970-01-12 21:00:00,53.1,,-,78.0,,30.06,,California,60.1,,,,,,,1:00 PM,,,20.0,,SSW,13.8,200.0,94101.0
San Francisco,Unknown,1970-01-13 00:00:00,52.0,,-,81.0,,30.06,,California,57.9,,,,,,,4:00 PM,,,20.0,,South,16.1,190.0,94101.0
San Francisco,Unknown,1970-01-13 03:00:00,51.1,,-,84.0,,30.1,,California,55.9,,,,,,,7:00 PM,,,15.0,,South,10.4,180.0,94101.0
San Francisco,Light Rain Showers,1970-01-13 06:00:00,52.0,Fog-Rain,-,93.0,0.03,30.11,,California,54.0,,,,,,,10:00 PM,,,4.0,,SE,10.4,130.0,94101.0
San Francisco,Light Rain Showers,1970-01-13 09:00:00,53.1,Rain,-,90.0,0.01,30.12,,California,55.9,,,,,,,1:00 AM,,,15.0,,SSE,15.0,150.0,94101.0
San Francisco,Unknown,1970-01-13 12:00:00,51.1,,-,86.0,,30.13,,California,55.0,,,,,,,4:00 AM,,,15.0,,SSE,9.2,160.0,94101.0
San Francisco,Unknown,1970-01-13 15:00:00,53.1,,-,90.0,,30.12,,California,55.9,,,,,,,7:00 AM,,,15.0,,SE,9.2,140.0,94101.0
San Francisco,Unknown,1970-01-13 18:00:00,54.0,,-,87.0,,30.16,,California,57.9,,,,,,,10:00 AM,,,20.0,,South,15.0,170.0,94101.0
San Francisco,Unknown,1970-01-13 21:00:00,54.0,,-,80.0,,30.15,,California,60.1,,,,,,,1:00 PM,,,15.0,,SSE,12.7,160.0,94101.0
San Francisco,Light Rain Showers,1970-01-14 00:00:00,55.0,Rain,-,87.0,0.01,30.1,,California,59.0,,,,,,,4:00 PM,,,8.0,,South,19.6,170.0,94101.0
San Francisco,Light Rain,1970-01-14 03:00:00,52.0,Rain,-,83.0,0.03,30.11,,California,57.0,,,,,,,7:00 PM,,,15.0,,SSE,17.3,150.0,94101.0
San Francisco,Light Rain,1970-01-14 06:00:00,53.1,Rain,-,84.0,,30.08,,California,57.9,,,,,,,10:00 PM,,,15.0,,SE,17.3,130.0,94101.0
San Francisco,Light Rain,1970-01-14 09:00:00,53.1,Rain,-,90.0,0.07,30.01,,California,55.9,,,,,,,1:00 AM,,,7.0,,SE,12.7,130.0,94101.0
San Francisco,Light Rain,1970-01-14 12:00:00,55.0,Fog-Rain,-,93.0,0.1,30.0,,California,57.0,,,,,,,4:00 AM,,,5.0,,SSE,15.0,160.0,94101.0
San Francisco,Heavy Rain,1970-01-14 15:00:00,54.0,Fog-Rain,-,89.0,0.56,29.96,,California,57.0,,,,,,,7:00 AM,,,5.5,,South,24.2,190.0,94101.0
San Francisco,Heavy Rain,1970-01-14 18:00:00,54.0,Fog-Rain,-,89.0,0.28,29.99,,California,57.0,,,,,,,10:00 AM,,,5.5,,WNW,12.7,300.0,94101.0
San Francisco,Unknown,1970-01-14 21:00:00,48.0,,-,67.0,,29.97,,California,59.0,,,,,,,1:00 PM,,,30.0,,WSW,20.7,240.0,94101.0
San Francisco,Unknown,1970-01-15 00:00:00,53.1,,-,81.0,,29.99,,California,59.0,,,,,,,4:00 PM,,,10.0,,West,11.5,270.0,94101.0
San Francisco,Unknown,1970-01-15 03:00:00,51.1,,-,84.0,,30.03,,California,55.9,,,,,,,7:00 PM,,,10.0,,WSW,9.2,240.0,94101.0
San Francisco,Unknown,1970-01-15 06:00:00,50.0,,-,89.0,,30.05,,California,53.1,,,,,,,10:00 PM,,,10.0,,ESE,9.2,120.0,94101.0
San Francisco,Unknown,1970-01-15 09:00:00,48.9,,-,89.0,,30.07,,California,52.0,,,,,,,1:00 AM,,,10.0,,ENE,4.6,70.0,94101.0
San Francisco,Unknown,1970-01-15 12:00:00,48.9,,-,92.0,,30.05,,California,51.1,,,,,,,4:00 AM,,,15.0,,South,6.9,170.0,94101.0
San Francisco,Unknown,1970-01-15 15:00:00,48.9,,-,92.0,,30.04,,California,51.1,,,,,,,7:00 AM,,,15.0,,ENE,5.8,60.0,94101.0
San Francisco,Unknown,1970-01-15 18:00:00,50.0,,-,89.0,,30.06,,California,53.1,,,,,,,10:00 AM,,,7.0,,East,5.8,80.0,94101.0
San Francisco,Light Rain,1970-01-15 21:00:00,52.0,Rain,-,89.0,,29.98,,California,55.0,,,,,,,1:00 PM,,,7.0,,ESE,10.4,120.0,94101.0
San Francisco,Light Rain,1970-01-16 00:00:00,51.1,Fog-Rain,-,93.0,0.07,29.95,,California,53.1,,,,,,,4:00 PM,,,4.0,,ESE,15.0,120.0,94101.0
San Francisco,Light Rain,1970-01-16 03:00:00,52.0,Fog-Rain,-,96.0,0.12,29.9,,California,53.1,,,,,,,7:00 PM,,,3.0,,ESE,17.3,120.0,94101.0
San Francisco,Light Rain,1970-01-16 06:00:00,54.0,Rain,-,96.0,0.02,29.91,,California,55.0,,,,,,,10:00 PM,,,10.0,,SE,12.7,130.0,94101.0
San Francisco,Light Rain,1970-01-16 09:00:00,54.0,Rain,-,93.0,0.05,29.88,,California,55.9,,,,,,,1:00 AM,,,10.0,,East,12.7,100.0,94101.0
San Francisco,Light Rain,1970-01-16 12:00:00,57.0,Fog-Rain,-,87.0,0.12,29.82,,California,61.0,,,,,,,4:00 AM,,,10.5,,South,28.8,190.0,94101.0
San Francisco,Rain,1970-01-16 15:00:00,57.9,Fog-Rain,-,93.0,0.11,29.85,,California,60.1,,,,,,,7:00 AM,,,2.0,,SW,21.9,220.0,94101.0
San Francisco,Light Rain,1970-01-16 18:00:00,57.9,Fog-Rain,-,90.0,0.02,29.97,,California,61.0,,,,,,,10:00 AM,,,10.5,,WSW,25.3,240.0,94101.0
San Francisco,Unknown,1970-01-16 21:00:00,57.0,,-,87.0,,29.98,,California,61.0,,,,,,,1:00 PM,,,8.0,,SW,21.9,230.0,94101.0
San Francisco,Unknown,1970-01-17 00:00:00,55.0,,-,83.0,0.04,29.97,,California,60.1,,,,,,,4:00 PM,,,10.0,,SW,19.6,230.0,94101.0
San Francisco,Unknown,1970-01-17 03:00:00,55.0,,-,83.0,,30.01,,California,60.1,,,,,,,7:00 PM,,,10.0,,SW,19.6,220.0,94101.0
San Francisco,Unknown,1970-01-17 06:00:00,55.0,,-,83.0,,30.04,,California,60.1,,,,,,,10:00 PM,,,10.0,,SW,18.4,220.0,94101.0
San Francisco,Unknown,1970-01-17 09:00:00,53.1,,-,81.0,,30.07,,California,59.0,,,,,,,1:00 AM,,,10.0,,WSW,15.0,240.0,94101.0
San Francisco,Unknown,1970-01-17 12:00:00,52.0,,-,81.0,,30.09,,California,57.9,,,,,,,4:00 AM,,,10.0,,WSW,11.5,240.0,94101.0
San Francisco,Unknown,1970-01-17 15:00:00,50.0,,-,80.0,,30.1,,California,55.9,,,,,,,7:00 AM,,,15.0,,WSW,12.7,250.0,94101.0
San Francisco,Unknown,1970-01-17 18:00:00,52.0,,-,81.0,,30.16,,California,57.9,,,,,,,10:00 AM,,,7.0,,West,13.8,260.0,94101.0
San Francisco,Unknown,1970-01-17 21:00:00,52.0,,-,78.0,,30.14,,California,59.0,,,,,,,1:00 PM,,,10.0,,West,18.4,270.0,94101.0
San Francisco,Unknown,1970-01-18 00:00:00,52.0,,-,81.0,,30.19,,California,57.9,,,,,,,4:00 PM,,,8.0,,West,12.7,280.0,94101.0
San Francisco,Unknown,1970-01-18 03:00:00,50.0,,-,80.0,,30.2,,California,55.9,,,,,,,7:00 PM,,,15.0,,SSW,5.8,210.0,94101.0
San Francisco,Unknown,1970-01-18 06:00:00,50.0,,-,83.0,,30.22,,California,55.0,,,,,,,10:00 PM,,,15.0,,WSW,6.9,250.0,94101.0
San Francisco,Unknown,1970-01-18 09:00:00,48.9,,-,89.0,,30.2,,California,52.0,,,,,,,1:00 AM,,,10.0,,WSW,5.8,240.0,94101.0
San Francisco,Unknown,1970-01-18 12:00:00,48.9,,-,89.0,,30.2,,California,52.0,,,,,,,4:00 AM,,,10.0,,West,3.5,270.0,94101.0
San Francisco,Unknown,1970-01-18 15:00:00,48.9,,-,89.0,,30.21,,California,52.0,,,,,,,7:00 AM,,,10.0,,ESE,4.6,120.0,94101.0
San Francisco,Unknown,1970-01-18 18:00:00,51.1,,-,93.0,,30.21,,California,53.1,,,,,,,10:00 AM,,,7.0,,ESE,9.2,120.0,94101.0
San Francisco,Unknown,1970-01-18 21:00:00,51.1,,-,81.0,,30.17,,California,57.0,,,,,,,1:00 PM,,,7.0,,SW,15.0,220.0,94101.0
San Francisco,Unknown,1970-01-19 00:00:00,51.1,,-,78.0,,30.12,,California,57.9,,,,,,,4:00 PM,,,10.0,,NNE,6.9,30.0,94101.0
San Francisco,Unknown,1970-01-19 03:00:00,50.0,,-,83.0,,30.13,,California,55.0,,,,,,,7:00 PM,,,10.0,,South,6.9,180.0,94101.0
San Francisco,Unknown,1970-01-19 06:00:00,50.0,,-,86.0,,30.14,,California,54.0,,,,,,,10:00 PM,,,10.0,,ESE,4.6,120.0,94101.0
San Francisco,Unknown,1970-01-19 09:00:00,50.0,,-,89.0,,30.13,,California,53.1,,,,,,,1:00 AM,,,10.0,,Calm,Calm,0.0,94101.0
San Francisco,Unknown,1970-01-19 12:00:00,51.1,,-,93.0,,30.11,,California,53.1,,,,,,,4:00 AM,,,7.0,,East,6.9,100.0,94101.0
San Francisco,Unknown,1970-01-19 15:00:00,51.1,,-,90.0,,30.1,,California,54.0,,,,,,,7:00 AM,,,10.0,,ESE,5.8,120.0,94101.0
San Francisco,Unknown,1970-01-19 18:00:00,53.1,,-,81.0,,30.13,,California,59.0,,,,,,,10:00 AM,,,15.0,,East,4.6,100.0,94101.0
San Francisco,Light Rain,1970-01-19 21:00:00,57.0,Rain,-,87.0,,30.1,,California,61.0,,,,,,,1:00 PM,,,30.0,,South,19.6,180.0,94101.0
San Francisco,Unknown,1970-01-20 00:00:00,57.0,,-,90.0,,30.11,,California,60.1,,,,,,,4:00 PM,,,15.0,,SSE,11.5,160.0,94101.0
San Francisco,Light Rain,1970-01-20 03:00:00,57.0,Rain,-,90.0,,30.12,,California,60.1,,,,,,,7:00 PM,,,15.0,,South,12.7,170.0,94101.0
San Francisco,Unknown,1970-01-20 06:00:00,55.9,,-,86.0,,30.17,,California,60.1,,,,,,,10:00 PM,,,15.0,,West,5.8,270.0,94101.0
San Francisco,Unknown,1970-01-20 09:00:00,53.1,,-,93.0,,30.18,,California,55.0,,,,,,,1:00 AM,,,15.0,,SW,6.9,230.0,94101.0
San Francisco,Unknown,1970-01-20 12:00:00,53.1,,-,97.0,,30.21,,California,54.0,,,,,,,4:00 AM,,,7.0,,WNW,12.7,300.0,94101.0
San Francisco,Unknown,1970-01-20 15:00:00,52.0,,-,93.0,,30.21,,California,54.0,,,,,,,7:00 AM,,,7.0,,SE,8.1,140.0,94101.0
San Francisco,Fog,1970-01-20 18:00:00,55.0,Fog,-,97.0,,30.24,,California,55.9,,,,,,,10:00 AM,,,0.4,,NNE,6.9,30.0,94101.0
San Francisco,Fog,1970-01-20 21:00:00,55.9,Fog,-,96.0,,30.19,,California,57.0,,,,,,,1:00 PM,,,5.0,,ESE,4.6,120.0,94101.0
San Francisco,Light Rain,1970-01-21 00:00:00,57.0,Fog-Rain,-,93.0,0.04,30.15,,California,59.0,,,,,,,4:00 PM,,,2.0,,East,8.1,90.0,94101.0
San Francisco,Light Rain,1970-01-21 03:00:00,57.0,Fog-Rain,-,90.0,0.15,30.16,,California,60.1,,,,,,,7:00 PM,,,10.5,,SE,11.5,140.0,94101.0
San Francisco,Light Rain,1970-01-21 06:00:00,57.9,Fog-Rain,-,90.0,0.08,30.17,,California,61.0,,,,,,,10:00 PM,,,6.0,,South,20.7,180.0,94101.0
San Francisco,Light Rain,1970-01-21 09:00:00,57.0,Rain,-,87.0,0.16,30.16,,California,61.0,,,,,,,1:00 AM,,,7.0,,South,18.4,190.0,94101.0
San Francisco,Light Rain,1970-01-21 12:00:00,57.0,Rain,-,87.0,0.18,30.17,,California,61.0,,,,,,,4:00 AM,,,7.0,,SSW,16.1,200.0,94101.0
San Francisco,Rain,1970-01-21 15:00:00,57.0,Fog-Rain,-,87.0,0.07,30.18,,California,61.0,,,,,,,7:00 AM,,,3.0,,South,16.1,190.0,94101.0
San Francisco,Light Rain,1970-01-21 18:00:00,57.9,Fog-Rain,-,90.0,0.01,30.22,,California,61.0,,,,,,,10:00 AM,,,5.2,,SSW,12.7,200.0,94101.0
San Francisco,Light Rain,1970-01-21 21:00:00,57.9,Rain,-,90.0,,30.22,,California,61.0,,,,,,,1:00 PM,,,8.0,,South,17.3,190.0,94101.0
San Francisco,Light Rain Showers,1970-01-22 00:00:00,57.9,Rain,-,90.0,,30.21,,California,61.0,,,,,,,4:00 PM,,,15.0,,South,17.3,180.0,94101.0
San Francisco,Light Rain,1970-01-22 03:00:00,57.0,Rain,-,90.0,,30.23,,California,60.1,,,,,,,7:00 PM,,,7.0,,South,19.6,170.0,94101.0
San Francisco,Light Rain Showers,1970-01-22 06:00:00,57.0,Rain,-,90.0,,30.26,,California,60.1,,,,,,,10:00 PM,,,6.0,,South,12.7,180.0,94101.0
San Francisco,Unknown,1970-01-22 09:00:00,57.0,,-,90.0,,30.26,,California,60.1,,,,,,,1:00 AM,,,10.0,,SSE,3.5,160.0,94101.0
San Francisco,Unknown,1970-01-22 12:00:00,55.9,,-,90.0,,30.26,,California,59.0,,,,,,,4:00 AM,,,10.0,,SSW,13.8,200.0,94101.0
San Francisco,Unknown,1970-01-22 15:00:00,55.9,,-,90.0,,30.23,,California,59.0,,,,,,,7:00 AM,,,15.0,,SSW,12.7,200.0,94101.0
San Francisco,Light Rain Showers,1970-01-22 18:00:00,57.0,Rain,-,84.0,,30.24,,California,62.1,,,,,,,10:00 AM,,,15.0,,South,16.1,190.0,94101.0
San Francisco,Unknown,1970-01-22 21:00:00,57.9,,-,80.0,,30.22,,California,64.0,,,,,,,1:00 PM,,,15.0,,South,12.7,170.0,94101.0
San Francisco,Unknown,1970-01-23 00:00:00,57.0,,-,84.0,,30.19,,California,62.1,,,,,,,4:00 PM,,,50.0,,SSE,8.1,160.0,94101.0
San Francisco,Light Rain,1970-01-23 03:00:00,57.0,Rain,-,90.0,,30.17,,California,60.1,,,,,,,7:00 PM,,,10.0,,South,8.1,180.0,94101.0
San Francisco,Unknown,1970-01-23 06:00:00,55.9,,-,86.0,,30.15,,California,60.1,,,,,,,10:00 PM,,,15.0,,SE,12.7,140.0,94101.0
San Francisco,Light Rain,1970-01-23 09:00:00,57.0,Rain,-,90.0,,30.13,,California,60.1,,,,,,,1:00 AM,,,15.0,,South,13.8,180.0,94101.0
San Francisco,Light Rain Showers,1970-01-23 12:00:00,55.9,Rain,-,86.0,,30.09,,California,60.1,,,,,,,4:00 AM,,,7.0,,SSE,16.1,160.0,94101.0
San Francisco,Unknown,1970-01-23 15:00:00,55.0,,-,87.0,,30.02,,California,59.0,,,,,,,7:00 AM,,,15.0,,SE,9.2,140.0,94101.0
San Francisco,Light Rain Showers,1970-01-23 18:00:00,55.9,Rain,-,86.0,,30.02,,California,60.1,,,,,,,10:00 AM,,,10.0,,South,23.0,180.0,94101.0
San Francisco,Unknown,1970-01-23 21:00:00,55.0,,-,81.0,,29.95,,California,61.0,,,,,,,1:00 PM,,,15.0,,South,27.6,190.0,94101.0
San Francisco,Unknown,1970-01-24 00:00:00,54.0,,-,78.0,,29.87,,California,61.0,,,,,,,4:00 PM,,,20.0,,South,29.9,180.0,94101.0
San Francisco,Light Rain,1970-01-24 03:00:00,54.0,Rain,-,87.0,0.06,29.77,,California,57.9,,,,,,,7:00 PM,,,3.0,,South,41.4,180.0,94101.0
San Francisco,Rain,1970-01-24 06:00:00,50.0,Rain,-,83.0,0.14,29.86,,California,55.0,,,,,,,10:00 PM,,,7.0,,SSW,21.9,200.0,94101.0
San Francisco,Unknown,1970-01-24 09:00:00,50.0,,-,80.0,,29.94,,California,55.9,,,,,,,1:00 AM,,,15.0,,SW,19.6,220.0,94101.0
San Francisco,Unknown,1970-01-24 12:00:00,48.9,,-,77.0,,29.99,,California,55.9,,,,,,,4:00 AM,,,15.0,,South,18.4,180.0,94101.0
San Francisco,Rain Showers,1970-01-24 15:00:00,48.0,Rain,-,80.0,0.11,30.06,,California,54.0,,,,,,,7:00 AM,,,8.0,,WNW,12.7,290.0,94101.0
San Francisco,Light Rain Showers,1970-01-24 18:00:00,48.0,Rain,-,75.0,,30.14,,California,55.9,,,,,,,10:00 AM,,,7.0,,WSW,19.6,240.0,94101.0
San Francisco,Unknown,1970-01-24 21:00:00,48.9,,-,77.0,,30.18,,California,55.9,,,,,,,1:00 PM,,,7.0,,West,13.8,280.0,94101.0
San Francisco,Unknown,1970-01-25 00:00:00,45.0,,-,64.0,,30.2,,California,57.0,,,,,,,4:00 PM,,,10.0,,SW,11.5,230.0,94101.0
San Francisco,Unknown,1970-01-25 03:00:00,45.0,,-,74.0,,30.24,,California,53.1,,,,,,,7:00 PM,,,10.0,,SW,5.8,220.0,94101.0
San Francisco,Unknown,1970-01-25 06:00:00,46.0,,-,83.0,,30.25,,California,51.1,,,,,,,10:00 PM,,,10.0,,West,6.9,260.0,94101.0
San Francisco,Unknown,1970-01-25 09:00:00,45.0,,-,89.0,,30.26,,California,48.0,,,,,,,1:00 AM,,,10.0,,West,3.5,280.0,94101.0
San Francisco,Unknown,1970-01-25 12:00:00,43.0,,-,93.0,,30.28,,California,45.0,,,,,,,4:00 AM,,,10.0,,East,3.5,80.0,94101.0
San Francisco,Unknown,1970-01-25 15:00:00,42.1,,-,93.0,,30.29,,California,44.1,,,,,,,7:00 AM,,,10.0,,WSW,3.5,240.0,94101.0
San Francisco,Unknown,1970-01-25 18:00:00,46.0,,-,83.0,,30.3,,California,51.1,,,,,,,10:00 AM,,,9.0,,ENE,5.8,60.0,94101.0
San Francisco,Smoke,1970-01-25 21:00:00,48.9,,-,83.0,,30.25,,California,54.0,,,,,,,1:00 PM,,,6.0,,NE,6.9,50.0,94101.0
San Francisco,Unknown,1970-01-26 00:00:00,46.0,,-,65.0,,30.22,,California,57.9,,,,,,,4:00 PM,,,10.0,,West,10.4,280.0,94101.0
San Francisco,Unknown,1970-01-26 03:00:00,48.0,,-,80.0,,30.24,,California,54.0,,,,,,,7:00 PM,,,10.0,,WNW,9.2,290.0,94101.0
San Francisco,Unknown,1970-01-26 06:00:00,48.9,,-,83.0,,30.24,,California,54.0,,,,,,,10:00 PM,,,10.0,,WNW,8.1,290.0,94101.0
San Francisco,Unknown,1970-01-26 09:00:00,46.0,,-,83.0,,30.23,,California,51.1,,,,,,,1:00 AM,,,10.0,,South,3.5,180.0,94101.0
San Francisco,Unknown,1970-01-26 12:00:00,44.1,,-,93.0,,30.2,,California,46.0,,,,,,,4:00 AM,,,8.0,,SSE,4.6,160.0,94101.0
San Francisco,Unknown,1970-01-26 15:00:00,44.1,,-,93.0,,30.18,,California,46.0,,,,,,,7:00 AM,,,10.0,,SW,5.8,220.0,94101.0
San Francisco,Unknown,1970-01-26 18:00:00,48.0,,-,83.0,,30.2,,California,53.1,,,,,,,10:00 AM,,,7.0,,East,5.8,90.0,94101.0
San Francisco,Unknown,1970-01-26 21:00:00,48.0,,-,72.0,,30.16,,California,57.0,,,,,,,1:00 PM,,,9.0,,East,5.8,80.0,94101.0
San Francisco,Unknown,1970-01-27 00:00:00,45.0,,-,57.0,,30.11,,California,60.1,,,,,,,4:00 PM,,,30.0,,South,11.5,190.0,94101.0
San Francisco,Unknown,1970-01-27 03:00:00,46.0,,-,67.0,,30.07,,California,57.0,,,,,,,7:00 PM,,,15.0,,SSE,15.0,160.0,94101.0
San Francisco,Light Rain,1970-01-27 06:00:00,53.1,Rain,-,90.0,,30.06,,California,55.9,,,,,,,10:00 PM,,,10.0,,South,17.3,180.0,94101.0
San Francisco,Unknown,1970-01-27 09:00:00,55.0,,-,90.0,0.05,30.0,,California,57.9,,,,,,,1:00 AM,,,10.0,,SSW,26.5,210.0,94101.0
San Francisco,Light Rain,1970-01-27 12:00:00,53.1,Rain,-,93.0,0.07,30.03,,California,55.0,,,,,,,4:00 AM,,,8.0,,West,12.7,260.0,94101.0
San Francisco,Unknown,1970-01-27 15:00:00,46.9,,-,80.0,,30.12,,California,53.1,,,,,,,7:00 AM,,,15.0,,WNW,17.3,300.0,94101.0
San Francisco,Unknown,1970-01-27 18:00:00,42.1,,-,66.0,,30.21,,California,53.1,,,,,,,10:00 AM,,,20.0,,NW,21.9,310.0,94101.0
San Francisco,Clear,1970-01-27 21:00:00,37.9,,-,51.0,,30.22,,California,55.9,,,,,,,1:00 PM,,,30.0,,West,20.7,280.0,94101.0
San Francisco,Clear,1970-01-28 00:00:00,39.0,,-,55.0,,30.24,,California,55.0,,,,,,,4:00 PM,,,30.0,,WNW,27.6,300.0,94101.0
San Francisco,Clear,1970-01-28 03:00:00,37.9,,-,61.0,,30.29,,California,51.1,,,,,,,7:00 PM,,,15.0,,WNW,18.4,290.0,94101.0
San Francisco,Clear,1970-01-28 06:00:00,34.0,,-,63.0,,30.34,,California,46.0,,,,,,,10:00 PM,,,15.0,,NW,5.8,310.0,94101.0
San Francisco,Clear,1970-01-28 09:00:00,33.1,,-,65.0,,30.38,,California,44.1,,,,,,,1:00 AM,,,15.0,,NNW,8.1,340.0,94101.0
San Francisco,Clear,1970-01-28 12:00:00,33.1,,-,73.0,,30.39,,California,41.0,,,,,,,4:00 AM,,,15.0,,North,9.2,350.0,94101.0
San Francisco,Clear,1970-01-28 15:00:00,35.1,,-,74.0,,30.39,,California,43.0,,,,,,,7:00 AM,,,50.0,,North,11.5,350.0,94101.0
San Francisco,Clear,1970-01-28 18:00:00,30.9,,-,50.0,,30.4,,California,48.9,,,,,,,10:00 AM,,,50.0,,North,21.9,10.0,94101.0
San Francisco,Clear,1970-01-28 21:00:00,30.9,,-,41.0,,30.35,,California,54.0,,,,,,,1:00 PM,,,50.0,,North,11.5,360.0,94101.0
San Francisco,Clear,1970-01-29 00:00:00,30.0,,-,37.0,,30.35,,California,55.9,,,,,,,4:00 PM,,,50.0,,North,9.2,360.0,94101.0
San Francisco,Clear,1970-01-29 03:00:00,34.0,,-,52.0,,30.36,,California,51.1,,,,,,,7:00 PM,,,15.0,,East,10.4,100.0,94101.0
San Francisco,Clear,1970-01-29 06:00:00,30.0,,-,56.0,,30.37,,California,45.0,,,,,,,10:00 PM,,,15.0,,SE,10.4,140.0,94101.0
San Francisco,Clear,1970-01-29 09:00:00,30.9,,-,65.0,,30.36,,California,42.1,,,,,,,1:00 AM,,,15.0,,SE,9.2,130.0,94101.0
San Francisco,Unknown,1970-01-29 12:00:00,30.0,,-,62.0,,30.34,,California,42.1,,,,,,,4:00 AM,,,15.0,,SSE,5.8,150.0,94101.0
San Francisco,Unknown,1970-01-29 15:00:00,33.1,,-,77.0,,30.38,,California,39.9,,,,,,,7:00 AM,,,50.0,,SSE,6.9,150.0,94101.0
San Francisco,Clear,1970-01-29 18:00:00,33.1,,-,56.0,,30.38,,California,48.0,,,,,,,10:00 AM,,,30.0,,ESE,9.2,110.0,94101.0
San Francisco,Unknown,1970-01-29 21:00:00,33.1,,-,47.0,,30.35,,California,53.1,,,,,,,1:00 PM,,,20.0,,NNE,11.5,30.0,94101.0
San Francisco,Unknown,1970-01-30 00:00:00,37.9,,-,51.0,,30.32,,California,55.9,,,,,,,4:00 PM,,,15.0,,ESE,8.1,110.0,94101.0
San Francisco,Clear,1970-01-30 03:00:00,39.9,,-,66.0,,30.33,,California,51.1,,,,,,,7:00 PM,,,15.0,,WSW,5.8,250.0,94101.0
San Francisco,Unknown,1970-01-30 06:00:00,43.0,,-,74.0,,30.34,,California,51.1,,,,,,,10:00 PM,,,15.0,,SE,5.8,130.0,94101.0
San Francisco,Unknown,1970-01-30 09:00:00,44.1,,-,83.0,,30.32,,California,48.9,,,,,,,1:00 AM,,,15.0,,SE,8.1,140.0,94101.0
San Francisco,Unknown,1970-01-30 12:00:00,45.0,,-,86.0,0.01,30.31,,California,48.9,,,,,,,4:00 AM,,,9.0,,SE,5.8,130.0,94101.0
San Francisco,Fog,1970-01-30 15:00:00,45.0,Fog,-,89.0,,30.32,,California,48.0,,,,,,,7:00 AM,,,3.0,,North,10.4,360.0,94101.0
San Francisco,Unknown,1970-01-30 18:00:00,46.0,,-,83.0,,30.35,,California,51.1,,,,,,,10:00 AM,,,7.0,,NNW,6.9,340.0,94101.0
San Francisco,Unknown,1970-01-30 21:00:00,46.9,,-,74.0,,30.31,,California,55.0,,,,,,,1:00 PM,,,10.0,,NE,9.2,40.0,94101.0
San Francisco,Unknown,1970-01-31 00:00:00,46.0,,-,69.0,,30.3,,California,55.9,,,,,,,4:00 PM,,,20.0,,WNW,16.1,290.0,94101.0
San Francisco,Clear,1970-01-31 03:00:00,46.9,,-,80.0,,30.32,,California,53.1,,,,,,,7:00 PM,,,15.0,,WNW,11.5,300.0,94101.0
San Francisco,Clear,1970-01-31 06:00:00,46.9,,-,86.0,,30.36,,California,51.1,,,,,,,10:00 PM,,,15.0,,West,10.4,280.0,94101.0
San Francisco,Clear,1970-01-31 09:00:00,45.0,,-,89.0,,30.35,,California,48.0,,,,,,,1:00 AM,,,15.0,,WNW,3.5,300.0,94101.0
San Francisco,Unknown,1970-01-31 12:00:00,41.0,,-,93.0,,30.37,,California,43.0,,,,,,,4:00 AM,,,15.0,,SW,4.6,230.0,94101.0
San Francisco,Unknown,1970-01-31 15:00:00,41.0,,-,93.0,,30.39,,California,43.0,,,,,,,7:00 AM,,,15.0,,WNW,4.6,300.0,94101.0
San Francisco,Unknown,1970-01-31 18:00:00,48.0,,-,86.0,,30.41,,California,52.0,,,,,,,10:00 AM,,,7.0,,West,6.9,280.0,94101.0
San Francisco,Unknown,1970-01-31 21:00:00,46.0,,-,69.0,,30.37,,California,55.9,,,,,,,1:00 PM,,,10.0,,West,17.3,280.0,94101.0
San Francisco,Unknown,1970-02-01 00:00:00,46.0,,-,75.0,,30.36,,California,54.0,,,,,,,4:00 PM,,,20.0,,WNW,15.0,290.0,94101.0
San Francisco,Unknown,1970-02-01 03:00:00,48.0,,-,83.0,,30.35,,California,53.1,,,,,,,7:00 PM,,,15.0,,West,9.2,260.0,94101.0
San Francisco,Unknown,1970-02-01 06:00:00,48.9,,-,89.0,,30.35,,California,52.0,,,,,,,10:00 PM,,,10.0,,SSE,10.4,150.0,94101.0
Seattle,Fog,1970-01-01 15:00:00,32.0,Fog,-,82.0,,30.53,,Washington,37.0,,,,,,,7:00 AM,,,3.0,,East,6.9,90.0,98101.0
Seattle,Fog,1970-01-01 18:00:00,32.0,Fog,-,82.0,,30.53,,Washington,37.0,,,,,,,10:00 AM,,,5.0,,ESE,5.8,120.0,98101.0
Seattle,Unknown,1970-01-01 21:00:00,34.0,,-,79.0,,30.5,,Washington,39.9,,,,,,,1:00 PM,,,7.0,,ESE,4.6,120.0,98101.0
Seattle,Unknown,1970-01-02 00:00:00,35.1,,-,76.0,,30.52,,Washington,42.1,,,,,,,4:00 PM,,,7.0,,SE,4.6,130.0,98101.0
Seattle,Smoke,1970-01-02 03:00:00,34.0,,-,82.0,,30.49,,Washington,39.0,,,,,,,7:00 PM,,,5.0,,NE,4.6,40.0,98101.0
Seattle,Smoke,1970-01-02 06:00:00,33.1,,-,83.0,,30.49,,Washington,37.9,,,,,,,10:00 PM,,,4.0,,NE,6.9,50.0,98101.0
Seattle,Unknown,1970-01-03 09:00:00,30.0,,-,70.0,,30.15,,Washington,39.0,,,,,,,1:00 AM,,,8.0,,SSE,10.4,160.0,98101.0
Seattle,Unknown,1970-01-03 12:00:00,32.0,,-,79.0,,30.09,,Washington,37.9,,,,,,,4:00 AM,,,7.0,,SE,6.9,130.0,98101.0
Seattle,Light Snow Showers,1970-01-03 15:00:00,30.9,Fog-Snow,-,79.0,,30.03,,Washington,37.0,,,,,,,7:00 AM,,,3.0,,SE,5.8,130.0,98101.0
Seattle,Unknown,1970-01-03 18:00:00,33.1,,-,83.0,,30.03,,Washington,37.9,,,,,,,10:00 AM,,,7.0,,NE,5.8,40.0,98101.0
Seattle,Light Rain Showers,1970-01-03 21:00:00,33.1,Rain,-,73.0,,30.01,,Washington,41.0,,,,,,,1:00 PM,,,10.0,,ENE,8.1,60.0,98101.0
Seattle,Unknown,1970-01-04 00:00:00,32.0,,-,73.0,,30.01,,Washington,39.9,,,,,,,4:00 PM,,,10.0,,NNE,8.1,30.0,98101.0
Seattle,Unknown,1970-01-04 03:00:00,30.9,,-,73.0,,30.03,,Washington,39.0,,,,,,,7:00 PM,,,10.0,,ENE,5.8,60.0,98101.0
Seattle,Unknown,1970-01-04 06:00:00,30.0,,-,89.0,,30.04,,Washington,33.1,,,,,,,10:00 PM,,,15.0,,East,5.8,100.0,98101.0
Seattle,Unknown,1970-01-04 09:00:00,23.0,,-,66.0,,30.06,,Washington,33.1,,,,,,,1:00 AM,,,15.0,,East,6.9,90.0,98101.0
Seattle,Unknown,1970-01-04 12:00:00,21.9,,-,69.0,,30.1,,Washington,30.9,,,,,,,4:00 AM,,,15.0,,East,8.1,90.0,98101.0
Seattle,Clear,1970-01-04 15:00:00,23.0,,-,78.0,,30.14,,Washington,28.9,,,,,,,7:00 AM,,,15.0,,South,5.8,170.0,98101.0
Seattle,Unknown,1970-01-04 18:00:00,26.1,,-,82.0,,30.19,,Washington,30.9,,,,,,,10:00 AM,,,50.0,,SSE,8.1,160.0,98101.0
Seattle,Clear,1970-01-04 21:00:00,27.0,,-,67.0,,30.19,,Washington,37.0,,,,,,,1:00 PM,,,50.0,,West,6.9,280.0,98101.0
Seattle,Clear,1970-01-05 00:00:00,26.1,,-,62.0,,30.22,,Washington,37.9,,,,,,,4:00 PM,,,50.0,,WSW,5.8,240.0,98101.0
Seattle,Clear,1970-01-05 03:00:00,23.0,,-,64.0,,30.27,,Washington,34.0,,,,,,,7:00 PM,,,15.0,,SE,6.9,140.0,98101.0
Seattle,Clear,1970-01-05 06:00:00,15.1,,-,46.0,,30.28,,Washington,34.0,,,,,,,10:00 PM,,,15.0,,ESE,10.4,110.0,98101.0
Seattle,Clear,1970-01-05 09:00:00,15.1,,-,50.0,,30.32,,Washington,32.0,,,,,,,1:00 AM,,,15.0,,ESE,11.5,110.0,98101.0
Seattle,Clear,1970-01-05 12:00:00,12.9,,-,49.0,,30.33,,Washington,30.0,,,,,,,4:00 AM,,,15.0,,ESE,11.5,120.0,98101.0
Seattle,Unknown,1970-01-05 15:00:00,12.0,,-,46.0,,30.32,,Washington,30.9,,,,,,,7:00 AM,,,15.0,,East,9.2,100.0,98101.0
Seattle,Unknown,1970-01-05 18:00:00,12.0,,-,39.0,,30.33,,Washington,35.1,,,,,,,10:00 AM,,,80.0,,ESE,11.5,110.0,98101.0
Seattle,Unknown,1970-01-05 21:00:00,14.0,,-,36.0,,30.3,,Washington,39.0,,,,,,,1:00 PM,,,80.0,,East,12.7,100.0,98101.0
Seattle,Unknown,1970-01-06 00:00:00,18.0,,-,46.0,,30.31,,Washington,37.0,,,,,,,4:00 PM,,,50.0,,ESE,13.8,110.0,98101.0
Seattle,Unknown,1970-01-06 03:00:00,18.0,,-,48.0,,30.33,,Washington,36.0,,,,,,,7:00 PM,,,15.0,,East,10.4,100.0,98101.0
Seattle,Unknown,1970-01-06 06:00:00,18.0,,-,48.0,,30.36,,Washington,36.0,,,,,,,10:00 PM,,,15.0,,East,11.5,90.0,98101.0
Seattle,Unknown,1970-01-06 09:00:00,18.0,,-,50.0,,30.38,,Washington,35.1,,,,,,,1:00 AM,,,15.0,,ESE,11.5,110.0,98101.0
Seattle,Unknown,1970-01-06 12:00:00,17.1,,-,48.0,,30.4,,Washington,35.1,,,,,,,4:00 AM,,,15.0,,ESE,11.5,120.0,98101.0
Seattle,Clear,1970-01-06 15:00:00,17.1,,-,48.0,,30.38,,Washington,35.1,,,,,,,7:00 AM,,,15.0,,East,8.1,100.0,98101.0
Seattle,Unknown,1970-01-06 18:00:00,17.1,,-,44.0,,30.41,,Washington,37.0,,,,,,,10:00 AM,,,80.0,,ESE,10.4,110.0,98101.0
Seattle,Unknown,1970-01-06 21:00:00,19.9,,-,38.0,,30.33,,Washington,44.1,,,,,,,1:00 PM,,,80.0,,NE,8.1,50.0,98101.0
Seattle,Unknown,1970-01-07 00:00:00,30.0,,-,65.0,,30.31,,Washington,41.0,,,,,,,4:00 PM,,,70.0,,ENE,6.9,60.0,98101.0
Seattle,Unknown,1970-01-07 03:00:00,24.1,,-,55.0,,30.25,,Washington,39.0,,,,,,,7:00 PM,,,15.0,,East,10.4,80.0,98101.0
Seattle,Unknown,1970-01-07 06:00:00,23.0,,-,55.0,,30.22,,Washington,37.9,,,,,,,10:00 PM,,,15.0,,ENE,13.8,70.0,98101.0
Seattle,Unknown,1970-01-07 09:00:00,21.0,,-,49.0,,30.19,,Washington,39.0,,,,,,,1:00 AM,,,15.0,,East,13.8,90.0,98101.0
Seattle,Unknown,1970-01-07 12:00:00,21.0,,-,49.0,,30.16,,Washington,39.0,,,,,,,4:00 AM,,,15.0,,East,12.7,100.0,98101.0
Seattle,Unknown,1970-01-07 15:00:00,21.9,,-,50.0,,30.13,,Washington,39.0,,,,,,,7:00 AM,,,15.0,,ESE,13.8,110.0,98101.0
Seattle,Unknown,1970-01-07 18:00:00,21.0,,-,47.0,,30.1,,Washington,39.9,,,,,,,10:00 AM,,,50.0,,East,16.1,100.0,98101.0
Seattle,Unknown,1970-01-07 21:00:00,21.0,,-,40.0,,30.03,,Washington,44.1,,,,,,,1:00 PM,,,60.0,,East,15.0,90.0,98101.0
Seattle,Unknown,1970-01-08 00:00:00,21.0,,-,40.0,,29.97,,Washington,44.1,,,,,,,4:00 PM,,,40.0,,ENE,16.1,70.0,98101.0
Seattle,Unknown,1970-01-08 03:00:00,24.1,,-,49.0,,29.91,,Washington,42.1,,,,,,,7:00 PM,,,15.0,,ENE,13.8,60.0,98101.0
Seattle,Unknown,1970-01-08 06:00:00,24.1,,-,53.0,,29.87,,Washington,39.9,,,,,,,10:00 PM,,,15.0,,ESE,13.8,110.0,98101.0
Seattle,Unknown,1970-01-08 09:00:00,25.0,,-,55.0,,29.85,,Washington,39.9,,,,,,,1:00 AM,,,15.0,,ESE,16.1,110.0,98101.0
Seattle,Unknown,1970-01-08 12:00:00,26.1,,-,58.0,,29.81,,Washington,39.9,,,,,,,4:00 AM,,,15.0,,East,16.1,100.0,98101.0
Seattle,Unknown,1970-01-08 15:00:00,26.1,,-,58.0,,29.79,,Washington,39.9,,,,,,,7:00 AM,,,15.0,,ESE,13.8,110.0,98101.0
Seattle,Light Rain,1970-01-08 18:00:00,30.9,Rain,-,70.0,,29.81,,Washington,39.9,,,,,,,10:00 AM,,,20.0,,ESE,11.5,110.0,98101.0
Seattle,Light Rain,1970-01-08 21:00:00,39.0,Rain,-,100.0,0.01,29.75,,Washington,39.0,,,,,,,1:00 PM,,,7.0,,East,13.8,100.0,98101.0
Seattle,Light Rain,1970-01-09 00:00:00,34.0,Rain,-,82.0,0.04,29.7,,Washington,39.0,,,,,,,4:00 PM,,,15.0,,East,17.3,100.0,98101.0
Seattle,Unknown,1970-01-09 03:00:00,30.9,,-,70.0,,29.62,,Washington,39.9,,,,,,,7:00 PM,,,15.0,,ESE,13.8,110.0,98101.0
Seattle,Unknown,1970-01-09 06:00:00,32.0,,-,67.0,,29.58,,Washington,42.1,,,,,,,10:00 PM,,,15.0,,ESE,12.7,120.0,98101.0
Seattle,Unknown,1970-01-09 09:00:00,30.9,,-,67.0,,29.56,,Washington,41.0,,,,,,,1:00 AM,,,15.0,,ESE,11.5,110.0,98101.0
Seattle,Unknown,1970-01-09 12:00:00,37.9,,-,93.0,,29.54,,Washington,39.9,,,,,,,4:00 AM,,,10.0,,SW,4.6,220.0,98101.0
Seattle,Unknown,1970-01-09 15:00:00,35.1,,-,83.0,,29.53,,Washington,39.9,,,,,,,7:00 AM,,,15.0,,SSE,6.9,160.0,98101.0
Seattle,Light Rain,1970-01-09 18:00:00,39.0,Fog-Rain,-,97.0,,29.58,,Washington,39.9,,,,,,,10:00 AM,,,1.0,,South,6.9,180.0,98101.0
Seattle,Light Rain,1970-01-09 21:00:00,39.0,Fog-Rain,-,97.0,0.04,29.6,,Washington,39.9,,,,,,,1:00 PM,,,4.0,,NE,12.7,40.0,98101.0
Seattle,Unknown,1970-01-10 00:00:00,37.0,,-,89.0,,29.63,,Washington,39.9,,,,,,,4:00 PM,,,20.0,,ESE,3.5,110.0,98101.0
Seattle,Unknown,1970-01-10 03:00:00,35.1,,-,89.0,,29.68,,Washington,37.9,,,,,,,7:00 PM,,,15.0,,NNE,6.9,20.0,98101.0
Seattle,Clear,1970-01-10 06:00:00,30.0,,-,85.0,,29.75,,Washington,34.0,,,,,,,10:00 PM,,,15.0,,West,3.5,270.0,98101.0
Seattle,Clear,1970-01-10 09:00:00,27.0,,-,72.0,,29.82,,Washington,35.1,,,,,,,1:00 AM,,,15.0,,East,4.6,100.0,98101.0
Seattle,Unknown,1970-01-10 12:00:00,30.9,,-,92.0,,29.91,,Washington,33.1,,,,,,,4:00 AM,,,10.0,,ESE,5.8,110.0,98101.0
Seattle,Unknown,1970-01-10 15:00:00,28.0,,-,92.0,,29.96,,Washington,30.0,,,,,,,7:00 AM,,,15.0,,ESE,8.1,120.0,98101.0
Seattle,Unknown,1970-01-10 18:00:00,28.0,,-,82.0,,30.02,,Washington,33.1,,,,,,,10:00 AM,,,30.0,,SE,12.7,130.0,98101.0
Seattle,Unknown,1970-01-10 21:00:00,32.0,,-,79.0,,30.03,,Washington,37.9,,,,,,,1:00 PM,,,25.0,,South,16.1,170.0,98101.0
Seattle,Unknown,1970-01-11 00:00:00,33.1,,-,73.0,,30.02,,Washington,41.0,,,,,,,4:00 PM,,,25.0,,South,17.3,190.0,98101.0
Seattle,Unknown,1970-01-11 03:00:00,32.0,,-,73.0,,30.02,,Washington,39.9,,,,,,,7:00 PM,,,15.0,,South,16.1,180.0,98101.0
Seattle,Light Rain,1970-01-11 06:00:00,34.0,Rain,-,82.0,0.01,30.02,,Washington,39.0,,,,,,,10:00 PM,,,9.0,,SSW,15.0,210.0,98101.0
Seattle,Light Rain,1970-01-11 09:00:00,36.0,Rain,-,89.0,0.01,30.01,,Washington,39.0,,,,,,,1:00 AM,,,10.0,,South,13.8,190.0,98101.0
Seattle,Unknown,1970-01-11 12:00:00,35.1,,-,86.0,,30.0,,Washington,39.0,,,,,,,4:00 AM,,,15.0,,South,18.4,180.0,98101.0
Seattle,Light Rain,1970-01-11 15:00:00,35.1,Rain,-,89.0,,30.0,,Washington,37.9,,,,,,,7:00 AM,,,15.0,,South,20.7,180.0,98101.0
Seattle,Unknown,1970-01-11 18:00:00,35.1,,-,83.0,,30.01,,Washington,39.9,,,,,,,10:00 AM,,,15.0,,South,19.6,180.0,98101.0
Seattle,Unknown,1970-01-11 21:00:00,37.0,,-,82.0,,29.98,,Washington,42.1,,,,,,,1:00 PM,,,30.0,,South,19.6,190.0,98101.0
Seattle,Unknown,1970-01-12 00:00:00,35.1,,-,74.0,,29.96,,Washington,43.0,,,,,,,4:00 PM,,,30.0,,South,15.0,190.0,98101.0
Seattle,Unknown,1970-01-12 03:00:00,34.0,,-,76.0,,29.94,,Washington,41.0,,,,,,,7:00 PM,,,15.0,,SSW,13.8,210.0,98101.0
Seattle,Unknown,1970-01-12 06:00:00,32.0,,-,79.0,,29.91,,Washington,37.9,,,,,,,10:00 PM,,,15.0,,South,10.4,170.0,98101.0
Seattle,Unknown,1970-01-12 09:00:00,30.9,,-,89.0,,29.9,,Washington,34.0,,,,,,,1:00 AM,,,15.0,,SE,9.2,140.0,98101.0
Seattle,Unknown,1970-01-12 12:00:00,30.0,,-,89.0,,29.87,,Washington,33.1,,,,,,,4:00 AM,,,15.0,,East,3.5,90.0,98101.0
Seattle,Unknown,1970-01-12 15:00:00,32.0,,-,89.0,,29.82,,Washington,35.1,,,,,,,7:00 AM,,,15.0,,NE,5.8,40.0,98101.0
Seattle,Unknown,1970-01-12 18:00:00,34.0,,-,89.0,,29.8,,Washington,37.0,,,,,,,10:00 AM,,,40.0,,North,3.5,350.0,98101.0
Seattle,Unknown,1970-01-12 21:00:00,36.0,,-,86.0,,29.76,,Washington,39.9,,,,,,,1:00 PM,,,15.0,,SSW,3.5,210.0,98101.0
Seattle,Light Rain,1970-01-13 00:00:00,35.1,Rain,-,83.0,,29.7,,Washington,39.9,,,,,,,4:00 PM,,,3.0,,North,6.9,360.0,98101.0
Seattle,Light Rain,1970-01-13 03:00:00,37.0,Fog-Rain,-,93.0,0.02,29.7,,Washington,39.0,,,,,,,7:00 PM,,,5.0,,North,8.1,10.0,98101.0
Seattle,Fog,1970-01-13 06:00:00,37.0,Fog,-,93.0,,29.72,,Washington,39.0,,,,,,,10:00 PM,,,5.0,,North,9.2,10.0,98101.0
Seattle,Light Drizzle,1970-01-13 09:00:00,39.0,Fog,-,97.0,0.01,29.74,,Washington,39.9,,,,,,,1:00 AM,,,3.0,,NNE,4.6,20.0,98101.0
Seattle,Light Drizzle,1970-01-13 12:00:00,39.0,Fog,-,100.0,,29.81,,Washington,39.0,,,,,,,4:00 AM,,,0.5,,SE,5.8,130.0,98101.0
Seattle,Light Rain,1970-01-13 15:00:00,39.0,Fog-Rain,-,100.0,0.01,29.76,,Washington,39.0,,,,,,,7:00 AM,,,2.0,,SE,8.1,130.0,98101.0
Seattle,Light Rain,1970-01-13 18:00:00,41.0,Fog-Rain,-,96.0,0.05,29.68,,Washington,42.1,,,,,,,10:00 AM,,,6.0,,East,6.9,80.0,98101.0
Seattle,Light Rain,1970-01-13 21:00:00,42.1,Rain,-,90.0,0.1,29.53,,Washington,45.0,,,,,,,1:00 PM,,,8.0,,ENE,8.1,60.0,98101.0
Seattle,Light Rain,1970-01-14 00:00:00,44.1,Rain,-,86.0,0.06,29.45,,Washington,48.0,,,,,,,4:00 PM,,,10.0,,SE,18.4,140.0,98101.0
Seattle,Light Rain,1970-01-14 03:00:00,46.9,Rain,-,93.0,0.15,29.47,,Washington,48.9,,,,,,,7:00 PM,,,8.0,,South,15.0,180.0,98101.0
Seattle,Rain,1970-01-14 06:00:00,46.9,Fog-Rain,-,93.0,0.16,29.48,,Washington,48.9,,,,,,,10:00 PM,,,4.0,,South,13.8,170.0,98101.0
Seattle,Light Rain,1970-01-14 09:00:00,48.0,Rain,-,89.0,0.03,29.49,,Washington,51.1,,,,,,,1:00 AM,,,10.0,,South,16.1,180.0,98101.0
Seattle,Light Rain,1970-01-14 12:00:00,48.9,Fog-Rain,-,92.0,0.03,29.53,,Washington,51.1,,,,,,,4:00 AM,,,4.0,,SSW,12.7,210.0,98101.0
Seattle,Light Rain,1970-01-14 15:00:00,48.9,Fog-Rain,-,100.0,0.08,29.55,,Washington,48.9,,,,,,,7:00 AM,,,3.0,,SSW,10.4,210.0,98101.0
Seattle,Light Rain,1970-01-14 18:00:00,48.0,Fog-Rain,-,100.0,0.05,29.6,,Washington,48.0,,,,,,,10:00 AM,,,1.0,,West,8.1,280.0,98101.0
Seattle,Light Rain,1970-01-14 21:00:00,42.1,Rain,-,97.0,0.05,29.64,,Washington,43.0,,,,,,,1:00 PM,,,6.0,,NNE,12.7,20.0,98101.0
Seattle,Unknown,1970-01-15 00:00:00,39.0,,-,89.0,,29.73,,Washington,42.1,,,,,,,4:00 PM,,,15.0,,North,12.7,10.0,98101.0
Seattle,Unknown,1970-01-15 03:00:00,34.0,,-,76.0,,29.81,,Washington,41.0,,,,,,,7:00 PM,,,15.0,,North,11.5,10.0,98101.0
Seattle,Unknown,1970-01-15 06:00:00,33.1,,-,77.0,,29.87,,Washington,39.9,,,,,,,10:00 PM,,,15.0,,NE,5.8,40.0,98101.0
Seattle,Unknown,1970-01-15 09:00:00,33.1,,-,79.0,,29.95,,Washington,39.0,,,,,,,1:00 AM,,,15.0,,North,8.1,10.0,98101.0
Seattle,Unknown,1970-01-15 12:00:00,33.1,,-,86.0,,29.98,,Washington,37.0,,,,,,,4:00 AM,,,15.0,,North,5.8,10.0,98101.0
Seattle,Clear,1970-01-15 15:00:00,33.1,,-,89.0,,30.01,,Washington,36.0,,,,,,,7:00 AM,,,15.0,,NE,4.6,40.0,98101.0
Seattle,Unknown,1970-01-15 18:00:00,30.9,,-,92.0,,30.05,,Washington,33.1,,,,,,,10:00 AM,,,40.0,,East,4.6,100.0,98101.0
Seattle,Unknown,1970-01-15 21:00:00,34.0,,-,82.0,,29.99,,Washington,39.0,,,,,,,1:00 PM,,,8.0,,North,10.4,360.0,98101.0
Seattle,Unknown,1970-01-16 00:00:00,32.0,,-,79.0,,29.95,,Washington,37.9,,,,,,,4:00 PM,,,50.0,,North,13.8,360.0,98101.0
Seattle,Unknown,1970-01-16 03:00:00,32.0,,-,86.0,,29.86,,Washington,36.0,,,,,,,7:00 PM,,,15.0,,North,15.0,10.0,98101.0
Seattle,Unknown,1970-01-16 06:00:00,30.0,,-,79.0,,29.8,,Washington,36.0,,,,,,,10:00 PM,,,15.0,,North,15.0,360.0,98101.0
Seattle,Unknown,1970-01-16 09:00:00,28.0,,-,70.0,,29.73,,Washington,37.0,,,,,,,1:00 AM,,,15.0,,North,16.1,10.0,98101.0
Seattle,Light Snow,1970-01-16 12:00:00,33.1,Snow,-,92.0,,29.72,,Washington,35.1,,,,,,,4:00 AM,,,6.0,,NNE,9.2,20.0,98101.0
Seattle,Light Snow,1970-01-16 15:00:00,30.9,Snow,-,92.0,,29.69,,Washington,33.1,,,,,,,7:00 AM,,,15.0,,North,13.8,10.0,98101.0
Seattle,Unknown,1970-01-16 18:00:00,33.1,,-,92.0,,29.72,,Washington,35.1,,,,,,,10:00 AM,,,15.0,,NNE,11.5,20.0,98101.0
Seattle,Light Rain Showers,1970-01-16 21:00:00,34.0,Rain,-,93.0,,29.71,,Washington,36.0,,,,,,,1:00 PM,,,3.0,,North,11.5,10.0,98101.0
Seattle,Light Rain Showers,1970-01-17 00:00:00,34.0,Rain-Snow,-,96.0,,29.7,,Washington,35.1,,,,,,,4:00 PM,,,4.0,,North,11.5,360.0,98101.0
Seattle,Light Drizzle,1970-01-17 03:00:00,33.1,,-,92.0,,29.71,,Washington,35.1,,,,,,,7:00 PM,,,10.0,,NNE,9.2,20.0,98101.0
Seattle,Light Rain,1970-01-17 06:00:00,33.1,Rain,-,89.0,,29.73,,Washington,36.0,,,,,,,10:00 PM,,,10.0,,North,6.9,10.0,98101.0
Seattle,Light Rain Showers,1970-01-17 09:00:00,33.1,Rain,-,86.0,,29.73,,Washington,37.0,,,,,,,1:00 AM,,,15.0,,NNE,8.1,30.0,98101.0
Seattle,Light Rain Showers,1970-01-17 12:00:00,34.0,Rain,-,89.0,0.07,29.76,,Washington,37.0,,,,,,,4:00 AM,,,8.0,,North,8.1,360.0,98101.0
Seattle,Light Rain,1970-01-17 15:00:00,34.0,Fog-Rain,-,96.0,0.1,29.8,,Washington,35.1,,,,,,,7:00 AM,,,6.0,,ENE,4.6,70.0,98101.0
Seattle,Light Drizzle,1970-01-17 18:00:00,35.1,Fog-Rain,-,97.0,,29.82,,Washington,36.0,,,,,,,10:00 AM,,,1.0,,ENE,5.8,60.0,98101.0
Seattle,Light Drizzle,1970-01-17 21:00:00,36.0,Fog,-,93.0,0.01,29.83,,Washington,37.9,,,,,,,1:00 PM,,,2.0,,SSE,6.9,150.0,98101.0
Seattle,Light Drizzle,1970-01-18 00:00:00,39.0,Fog,-,100.0,0.01,29.85,,Washington,39.0,,,,,,,4:00 PM,,,1.0,,SE,5.8,140.0,98101.0
Seattle,Light Rain,1970-01-18 03:00:00,39.0,Fog-Rain,-,97.0,,29.83,,Washington,39.9,,,,,,,7:00 PM,,,2.0,,ESE,3.5,120.0,98101.0
Seattle,Light Rain,1970-01-18 06:00:00,42.1,Fog-Rain,-,100.0,0.03,29.83,,Washington,42.1,,,,,,,10:00 PM,,,1.0,,SE,8.1,140.0,98101.0
Seattle,Fog,1970-01-18 09:00:00,45.0,Fog,-,100.0,,29.82,,Washington,45.0,,,,,,,1:00 AM,,,3.0,,SE,4.6,140.0,98101.0
Seattle,Light Rain,1970-01-18 12:00:00,45.0,Fog-Rain,-,100.0,0.04,29.78,,Washington,45.0,,,,,,,4:00 AM,,,3.0,,SE,9.2,140.0,98101.0
Seattle,Unknown,1970-01-18 15:00:00,48.9,,-,100.0,0.02,29.79,,Washington,48.9,,,,,,,7:00 AM,,,15.0,,South,10.4,180.0,98101.0
Seattle,Unknown,1970-01-18 18:00:00,48.9,,-,92.0,,29.84,,Washington,51.1,,,,,,,10:00 AM,,,7.0,,South,11.5,180.0,98101.0
Seattle,Unknown,1970-01-18 21:00:00,48.9,,-,89.0,0.02,29.85,,Washington,52.0,,,,,,,1:00 PM,,,10.0,,South,11.5,190.0,98101.0
Seattle,Unknown,1970-01-19 00:00:00,48.9,,-,92.0,,29.87,,Washington,51.1,,,,,,,4:00 PM,,,30.0,,South,10.4,190.0,98101.0
Seattle,Unknown,1970-01-19 03:00:00,48.0,,-,100.0,,29.88,,Washington,48.0,,,,,,,7:00 PM,,,10.0,,South,6.9,180.0,98101.0
Seattle,Rain,1970-01-19 06:00:00,45.0,Fog-Rain,-,96.0,0.19,29.88,,Washington,46.0,,,,,,,10:00 PM,,,4.0,,East,5.8,80.0,98101.0
Seattle,Light Rain,1970-01-19 09:00:00,45.0,Rain,-,96.0,0.04,29.83,,Washington,46.0,,,,,,,1:00 AM,,,10.0,,East,9.2,100.0,98101.0
Seattle,Light Rain,1970-01-19 12:00:00,45.0,Rain,-,93.0,0.04,29.72,,Washington,46.9,,,,,,,4:00 AM,,,7.0,,East,9.2,80.0,98101.0
Seattle,Light Rain,1970-01-19 15:00:00,44.1,Rain,-,93.0,0.1,29.67,,Washington,46.0,,,,,,,7:00 AM,,,7.0,,East,10.4,90.0,98101.0
Seattle,Light Rain,1970-01-19 18:00:00,45.0,Rain,-,93.0,0.02,29.66,,Washington,46.9,,,,,,,10:00 AM,,,7.0,,East,6.9,90.0,98101.0
Seattle,Unknown,1970-01-19 21:00:00,48.0,,-,100.0,0.03,29.71,,Washington,48.0,,,,,,,1:00 PM,,,10.0,,ESE,6.9,120.0,98101.0
Seattle,Unknown,1970-01-20 00:00:00,48.9,,-,92.0,,29.75,,Washington,51.1,,,,,,,4:00 PM,,,15.0,,SE,3.5,140.0,98101.0
Seattle,Unknown,1970-01-20 03:00:00,48.0,,-,93.0,,29.77,,Washington,50.0,,,,,,,7:00 PM,,,15.0,,SSW,8.1,210.0,98101.0
Seattle,Unknown,1970-01-20 06:00:00,46.0,,-,93.0,,29.86,,Washington,48.0,,,,,,,10:00 PM,,,10.0,,South,12.7,190.0,98101.0
Seattle,Light Rain Showers,1970-01-20 09:00:00,46.0,Rain,-,93.0,,29.92,,Washington,48.0,,,,,,,1:00 AM,,,8.0,,South,6.9,170.0,98101.0
Seattle,Unknown,1970-01-20 12:00:00,43.0,,-,86.0,,30.0,,Washington,46.9,,,,,,,4:00 AM,,,15.0,,SSE,6.9,150.0,98101.0
Seattle,Unknown,1970-01-20 15:00:00,44.1,,-,97.0,,30.04,,Washington,45.0,,,,,,,7:00 AM,,,15.0,,SE,5.8,140.0,98101.0
Seattle,Unknown,1970-01-20 18:00:00,44.1,,-,86.0,,30.07,,Washington,48.0,,,,,,,10:00 AM,,,40.0,,SSE,3.5,150.0,98101.0
Seattle,Unknown,1970-01-20 21:00:00,44.1,,-,74.0,,30.03,,Washington,52.0,,,,,,,1:00 PM,,,35.0,,East,4.6,100.0,98101.0
Seattle,Unknown,1970-01-21 00:00:00,41.0,,-,62.0,,29.94,,Washington,54.0,,,,,,,4:00 PM,,,40.0,,East,6.9,100.0,98101.0
Seattle,Unknown,1970-01-21 03:00:00,37.9,,-,57.0,,29.85,,Washington,53.1,,,,,,,7:00 PM,,,15.0,,East,5.8,90.0,98101.0
Seattle,Light Rain,1970-01-21 06:00:00,41.0,Rain,-,68.0,,29.8,,Washington,51.1,,,,,,,10:00 PM,,,10.0,,SSE,4.6,150.0,98101.0
Seattle,Light Rain,1970-01-21 09:00:00,45.0,Rain,-,93.0,0.02,29.72,,Washington,46.9,,,,,,,1:00 AM,,,10.0,,East,9.2,100.0,98101.0
Seattle,Light Rain,1970-01-21 12:00:00,43.0,Rain,-,83.0,0.04,29.59,,Washington,48.0,,,,,,,4:00 AM,,,10.0,,East,9.2,90.0,98101.0
Seattle,Light Rain,1970-01-21 15:00:00,46.9,Rain,-,96.0,0.01,29.7,,Washington,48.0,,,,,,,7:00 AM,,,7.0,,SE,8.1,130.0,98101.0
Seattle,Light Rain Showers,1970-01-21 18:00:00,50.0,Rain,-,89.0,,29.82,,Washington,53.1,,,,,,,10:00 AM,,,7.0,,SSW,12.7,200.0,98101.0
Seattle,Light Rain Showers,1970-01-21 21:00:00,51.1,Rain,-,86.0,0.01,29.86,,Washington,55.0,,,,,,,1:00 PM,,,15.0,,SSW,11.5,210.0,98101.0
Seattle,Unknown,1970-01-22 00:00:00,46.0,,-,75.0,,29.96,,Washington,54.0,,,,,,,4:00 PM,,,15.0,,SW,10.4,220.0,98101.0
Seattle,Unknown,1970-01-22 03:00:00,46.0,,-,90.0,,29.98,,Washington,48.9,,,,,,,7:00 PM,,,10.0,,South,6.9,180.0,98101.0
Seattle,Unknown,1970-01-22 06:00:00,45.0,,-,89.0,,29.99,,Washington,48.0,,,,,,,10:00 PM,,,8.0,,South,5.8,170.0,98101.0
Seattle,Unknown,1970-01-22 09:00:00,43.0,,-,93.0,,30.0,,Washington,45.0,,,,,,,1:00 AM,,,10.0,,ESE,4.6,110.0,98101.0
Seattle,Unknown,1970-01-22 12:00:00,39.9,,-,85.0,,29.93,,Washington,44.1,,,,,,,4:00 AM,,,15.0,,East,8.1,80.0,98101.0
Seattle,Unknown,1970-01-22 15:00:00,41.0,,-,93.0,,29.81,,Washington,43.0,,,,,,,7:00 AM,,,15.0,,NNE,5.8,20.0,98101.0
Seattle,Light Rain,1970-01-22 18:00:00,39.9,Rain,-,77.0,,29.72,,Washington,46.9,,,,,,,10:00 AM,,,15.0,,ENE,9.2,70.0,98101.0
Seattle,Light Rain,1970-01-22 21:00:00,42.1,Fog-Rain,-,80.0,0.09,29.61,,Washington,48.0,,,,,,,1:00 PM,,,5.0,,South,4.6,170.0,98101.0
Seattle,Light Rain,1970-01-23 00:00:00,48.9,Rain,-,92.0,0.05,29.65,,Washington,51.1,,,,,,,4:00 PM,,,15.0,,SSE,13.8,150.0,98101.0
Seattle,Light Rain,1970-01-23 03:00:00,50.0,Rain,-,93.0,0.05,29.66,,Washington,52.0,,,,,,,7:00 PM,,,6.0,,South,11.5,180.0,98101.0
Seattle,Unknown,1970-01-23 06:00:00,46.9,,-,80.0,,29.7,,Washington,53.1,,,,,,,10:00 PM,,,15.0,,South,17.3,170.0,98101.0
Seattle,Unknown,1970-01-23 09:00:00,46.0,,-,80.0,,29.77,,Washington,52.0,,,,,,,1:00 AM,,,15.0,,South,15.0,180.0,98101.0
Seattle,Unknown,1970-01-23 12:00:00,44.1,,-,80.0,,29.79,,Washington,50.0,,,,,,,4:00 AM,,,15.0,,South,11.5,180.0,98101.0
Seattle,Unknown,1970-01-23 15:00:00,43.0,,-,77.0,,29.78,,Washington,50.0,,,,,,,7:00 AM,,,15.0,,South,11.5,170.0,98101.0
Seattle,Unknown,1970-01-23 18:00:00,41.0,,-,71.0,,29.79,,Washington,50.0,,,,,,,10:00 AM,,,40.0,,SSW,8.1,200.0,98101.0
Seattle,Unknown,1970-01-23 21:00:00,44.1,,-,80.0,,29.7,,Washington,50.0,,,,,,,1:00 PM,,,50.0,,WNW,6.9,290.0,98101.0
Seattle,Unknown,1970-01-24 00:00:00,45.0,,-,86.0,,29.64,,Washington,48.9,,,,,,,4:00 PM,,,40.0,,West,4.6,260.0,98101.0
Seattle,Unknown,1970-01-24 03:00:00,43.0,,-,83.0,,29.6,,Washington,48.0,,,,,,,7:00 PM,,,15.0,,Calm,Calm,0.0,98101.0
Seattle,Unknown,1970-01-24 06:00:00,42.1,,-,80.0,,29.51,,Washington,48.0,,,,,,,10:00 PM,,,15.0,,South,3.5,190.0,98101.0
Seattle,Unknown,1970-01-24 09:00:00,42.1,,-,90.0,,29.43,,Washington,45.0,,,,,,,1:00 AM,,,15.0,,North,9.2,10.0,98101.0
Seattle,Light Rain,1970-01-24 12:00:00,41.0,Rain,-,86.0,,29.39,,Washington,45.0,,,,,,,4:00 AM,,,15.0,,North,11.5,10.0,98101.0
Seattle,Light Rain,1970-01-24 15:00:00,43.0,Fog-Rain,-,96.0,0.1,29.45,,Washington,44.1,,,,,,,7:00 AM,,,5.0,,Calm,Calm,0.0,98101.0
Seattle,Light Rain,1970-01-24 18:00:00,41.0,Rain,-,93.0,0.08,29.52,,Washington,43.0,,,,,,,10:00 AM,,,10.0,,East,6.9,100.0,98101.0
Seattle,Light Rain,1970-01-24 21:00:00,42.1,Rain,-,93.0,0.02,29.58,,Washington,44.1,,,,,,,1:00 PM,,,8.0,,WSW,3.5,240.0,98101.0
Seattle,Light Rain,1970-01-25 00:00:00,42.1,Fog-Rain,-,93.0,0.06,29.7,,Washington,44.1,,,,,,,4:00 PM,,,3.0,,SW,10.4,220.0,98101.0
Seattle,Light Rain Showers,1970-01-25 03:00:00,42.1,Rain,-,86.0,,29.82,,Washington,46.0,,,,,,,7:00 PM,,,15.0,,SSW,15.0,210.0,98101.0
Seattle,Unknown,1970-01-25 06:00:00,39.0,,-,80.0,,29.81,,Washington,45.0,,,,,,,10:00 PM,,,15.0,,SE,5.8,130.0,98101.0
Seattle,Unknown,1970-01-25 09:00:00,37.9,,-,79.0,,29.83,,Washington,44.1,,,,,,,1:00 AM,,,15.0,,South,13.8,190.0,98101.0
Seattle,Light Rain Showers,1970-01-25 12:00:00,39.0,Rain,-,89.0,0.13,29.86,,Washington,42.1,,,,,,,4:00 AM,,,7.0,,SSW,11.5,200.0,98101.0
Seattle,Light Rain Showers,1970-01-25 15:00:00,37.0,Rain,-,89.0,0.03,29.83,,Washington,39.9,,,,,,,7:00 AM,,,15.0,,SSE,15.0,150.0,98101.0
Seattle,Unknown,1970-01-25 18:00:00,37.0,,-,86.0,,29.88,,Washington,41.0,,,,,,,10:00 AM,,,30.0,,South,15.0,170.0,98101.0
Seattle,Unknown,1970-01-25 21:00:00,37.9,,-,85.0,,29.95,,Washington,42.1,,,,,,,1:00 PM,,,30.0,,South,10.4,180.0,98101.0
Seattle,Light Rain Showers,1970-01-26 00:00:00,39.0,Rain,-,86.0,0.01,30.0,,Washington,43.0,,,,,,,4:00 PM,,,15.0,,South,15.0,180.0,98101.0
Seattle,Unknown,1970-01-26 03:00:00,36.0,,-,79.0,,30.05,,Washington,42.1,,,,,,,7:00 PM,,,15.0,,South,13.8,180.0,98101.0
Seattle,Unknown,1970-01-26 06:00:00,36.0,,-,79.0,,30.08,,Washington,42.1,,,,,,,10:00 PM,,,15.0,,South,9.2,170.0,98101.0
Seattle,Unknown,1970-01-26 09:00:00,36.0,,-,79.0,,30.05,,Washington,42.1,,,,,,,1:00 AM,,,15.0,,SE,4.6,140.0,98101.0
Seattle,Unknown,1970-01-26 12:00:00,35.1,,-,79.0,,29.97,,Washington,41.0,,,,,,,4:00 AM,,,15.0,,East,4.6,80.0,98101.0
Seattle,Light Rain,1970-01-26 15:00:00,35.1,Rain,-,76.0,,29.86,,Washington,42.1,,,,,,,7:00 AM,,,15.0,,ESE,4.6,120.0,98101.0
Seattle,Light Rain,1970-01-26 18:00:00,37.9,Fog-Rain,-,93.0,0.14,29.74,,Washington,39.9,,,,,,,10:00 AM,,,6.0,,NNE,6.9,30.0,98101.0
Seattle,Light Rain,1970-01-26 21:00:00,39.9,Fog-Rain,-,92.0,0.03,29.57,,Washington,42.1,,,,,,,1:00 PM,,,5.0,,NE,8.1,40.0,98101.0
Seattle,Light Rain,1970-01-27 00:00:00,39.9,Fog-Rain,-,92.0,0.09,29.43,,Washington,42.1,,,,,,,4:00 PM,,,5.0,,East,8.1,80.0,98101.0
Seattle,Light Rain,1970-01-27 03:00:00,41.0,Fog-Rain,-,96.0,0.02,29.34,,Washington,42.1,,,,,,,7:00 PM,,,1.0,,North,5.8,360.0,98101.0
Seattle,Light Rain,1970-01-27 06:00:00,39.0,Fog-Rain,-,97.0,0.07,29.3,,Washington,39.9,,,,,,,10:00 PM,,,3.0,,NNW,13.8,330.0,98101.0
Seattle,Light Rain,1970-01-27 09:00:00,34.0,Fog-Rain-Snow,-,96.0,0.07,29.53,,Washington,35.1,,,,,,,1:00 AM,,,2.0,,SE,4.6,140.0,98101.0
Seattle,Light Rain Showers,1970-01-27 12:00:00,35.1,Rain,-,93.0,0.02,29.6,,Washington,37.0,,,,,,,4:00 AM,,,15.0,,ESE,6.9,120.0,98101.0
Seattle,Unknown,1970-01-27 15:00:00,36.0,,-,86.0,,29.7,,Washington,39.9,,,,,,,7:00 AM,,,15.0,,SSW,9.2,210.0,98101.0
Seattle,Unknown,1970-01-27 18:00:00,35.1,,-,83.0,,29.76,,Washington,39.9,,,,,,,10:00 AM,,,25.0,,SSW,19.6,210.0,98101.0
Seattle,Unknown,1970-01-27 21:00:00,34.0,,-,76.0,,29.86,,Washington,41.0,,,,,,,1:00 PM,,,40.0,,WSW,11.5,240.0,98101.0
Seattle,Unknown,1970-01-28 00:00:00,34.0,,-,71.0,,29.99,,Washington,43.0,,,,,,,4:00 PM,,,40.0,,SW,11.5,230.0,98101.0
Seattle,Unknown,1970-01-28 03:00:00,34.0,,-,82.0,,30.06,,Washington,39.0,,,,,,,7:00 PM,,,15.0,,SSW,10.4,200.0,98101.0
Seattle,Unknown,1970-01-28 06:00:00,34.0,,-,82.0,,30.18,,Washington,39.0,,,,,,,10:00 PM,,,15.0,,SSW,8.1,210.0,98101.0
Seattle,Unknown,1970-01-28 09:00:00,33.1,,-,89.0,,30.29,,Washington,36.0,,,,,,,1:00 AM,,,15.0,,SE,6.9,130.0,98101.0
Seattle,Unknown,1970-01-28 12:00:00,35.1,,-,89.0,,30.36,,Washington,37.9,,,,,,,4:00 AM,,,15.0,,South,5.8,170.0,98101.0
Seattle,Unknown,1970-01-28 15:00:00,35.1,,-,89.0,,30.39,,Washington,37.9,,,,,,,7:00 AM,,,15.0,,South,10.4,180.0,98101.0
Seattle,Unknown,1970-01-28 18:00:00,35.1,,-,89.0,,30.47,,Washington,37.9,,,,,,,10:00 AM,,,15.0,,South,5.8,170.0,98101.0
Seattle,Unknown,1970-01-28 21:00:00,36.0,,-,76.0,,30.49,,Washington,43.0,,,,,,,1:00 PM,,,20.0,,SW,10.4,220.0,98101.0
Seattle,Unknown,1970-01-29 00:00:00,35.1,,-,71.0,,30.5,,Washington,44.1,,,,,,,4:00 PM,,,25.0,,SW,11.5,220.0,98101.0
Seattle,Light Rain Showers,1970-01-29 03:00:00,36.0,Rain,-,82.0,,30.51,,Washington,41.0,,,,,,,7:00 PM,,,15.0,,South,6.9,180.0,98101.0
Seattle,Unknown,1970-01-29 06:00:00,34.0,,-,79.0,,30.49,,Washington,39.9,,,,,,,10:00 PM,,,15.0,,ESE,5.8,120.0,98101.0
Seattle,Unknown,1970-01-29 09:00:00,33.1,,-,83.0,,30.44,,Washington,37.9,,,,,,,1:00 AM,,,15.0,,NNE,4.6,20.0,98101.0
Seattle,Unknown,1970-01-29 12:00:00,33.1,,-,92.0,,30.38,,Washington,35.1,,,,,,,4:00 AM,,,15.0,,ESE,4.6,120.0,98101.0
Seattle,Unknown,1970-01-29 15:00:00,32.0,,-,96.0,,30.3,,Washington,33.1,,,,,,,7:00 AM,,,10.0,,NNE,4.6,20.0,98101.0
Seattle,Unknown,1970-01-29 18:00:00,34.0,,-,89.0,,30.25,,Washington,37.0,,,,,,,10:00 AM,,,30.0,,NNE,5.8,20.0,98101.0
Seattle,Unknown,1970-01-29 21:00:00,35.1,,-,74.0,,30.21,,Washington,43.0,,,,,,,1:00 PM,,,70.0,,WNW,8.1,290.0,98101.0
Seattle,Unknown,1970-01-30 00:00:00,37.0,,-,80.0,,30.21,,Washington,43.0,,,,,,,4:00 PM,,,10.0,,South,5.8,190.0,98101.0
Seattle,Unknown,1970-01-30 03:00:00,27.0,,-,53.0,,30.19,,Washington,43.0,,,,,,,7:00 PM,,,10.0,,ESE,9.2,120.0,98101.0
Seattle,Unknown,1970-01-30 06:00:00,25.0,,-,51.0,,30.2,,Washington,42.1,,,,,,,10:00 PM,,,15.0,,ESE,12.7,110.0,98101.0
Seattle,Unknown,1970-01-30 09:00:00,26.1,,-,55.0,,30.24,,Washington,41.0,,,,,,,1:00 AM,,,15.0,,ENE,6.9,60.0,98101.0
Seattle,Clear,1970-01-30 12:00:00,28.0,,-,73.0,,30.26,,Washington,36.0,,,,,,,4:00 AM,,,15.0,,South,3.5,190.0,98101.0
Seattle,Unknown,1970-01-30 15:00:00,28.9,,-,78.0,,30.28,,Washington,35.1,,,,,,,7:00 AM,,,15.0,,ESE,4.6,110.0,98101.0
Seattle,Unknown,1970-01-30 18:00:00,27.0,,-,65.0,,30.32,,Washington,37.9,,,,,,,10:00 AM,,,40.0,,SE,9.2,130.0,98101.0
Seattle,Unknown,1970-01-30 21:00:00,28.9,,-,51.0,,30.3,,Washington,46.0,,,,,,,1:00 PM,,,50.0,,SSW,6.9,200.0,98101.0
Seattle,Unknown,1970-01-31 00:00:00,34.0,,-,63.0,,30.28,,Washington,46.0,,,,,,,4:00 PM,,,30.0,,SW,5.8,220.0,98101.0
Seattle,Unknown,1970-01-31 03:00:00,37.0,,-,74.0,,30.27,,Washington,45.0,,,,,,,7:00 PM,,,15.0,,South,8.1,170.0,98101.0
Seattle,Unknown,1970-01-31 06:00:00,37.0,,-,76.0,,30.23,,Washington,44.1,,,,,,,10:00 PM,,,15.0,,South,6.9,170.0,98101.0
Seattle,Light Rain,1970-01-31 09:00:00,39.0,Rain,-,80.0,,30.13,,Washington,45.0,,,,,,,1:00 AM,,,15.0,,South,9.2,190.0,98101.0
Seattle,Light Rain,1970-01-31 12:00:00,39.0,Rain,-,76.0,0.01,30.04,,Washington,46.0,,,,,,,4:00 AM,,,15.0,,South,6.9,170.0,98101.0
Seattle,Rain,1970-01-31 15:00:00,42.1,Fog-Rain,-,93.0,0.13,29.89,,Washington,44.1,,,,,,,7:00 AM,,,5.0,,SSE,10.4,160.0,98101.0
Seattle,Light Rain,1970-01-31 18:00:00,41.0,Rain,-,83.0,,29.82,,Washington,46.0,,,,,,,10:00 AM,,,8.0,,South,19.6,180.0,98101.0
Seattle,Unknown,1970-01-31 21:00:00,41.0,,-,74.0,,29.85,,Washington,48.9,,,,,,,1:00 PM,,,30.0,,SSW,23.0,200.0,98101.0
Seattle,Unknown,1970-02-01 00:00:00,39.0,,-,74.0,,29.9,,Washington,46.9,,,,,,,4:00 PM,,,30.0,,SSW,25.3,210.0,98101.0
Seattle,Unknown,1970-02-01 03:00:00,37.9,,-,79.0,,29.98,,Washington,44.1,,,,,,,7:00 PM,,,15.0,,SSW,17.3,210.0,98101.0
Seattle,Unknown,1970-02-01 06:00:00,41.0,,-,89.0,,30.05,,Washington,44.1,,,,,,,10:00 PM,,,15.0,,SW,10.4,220.0,98101.0
St Louis,Freezing Rain,1970-01-01 06:00:00,21.0,,-,78.0,,30.08,,Missouri,27.0,,,12:00 AM,,,,,,,5.0,,West,4.6,260.0,63101.0
St Louis,Light Snow,1970-01-01 09:00:00,19.0,Snow,-,81.0,,30.09,,Missouri,24.1,,,3:00 AM,,,,,,,7.0,,West,6.9,260.0,63101.0
St Louis,Unknown,1970-01-01 12:00:00,16.0,,-,78.0,,30.09,,Missouri,21.9,,,6:00 AM,,,,,,,7.0,,West,9.2,260.0,63101.0
St Louis,Unknown,1970-01-01 15:00:00,16.0,,-,78.0,,30.12,,Missouri,21.9,,,9:00 AM,,,,,,,7.0,,WSW,5.8,240.0,63101.0
St Louis,Unknown,1970-01-01 18:00:00,18.0,,-,66.0,,30.09,,Missouri,28.0,,,12:00 PM,,,,,,,7.0,,South,10.4,170.0,63101.0
St Louis,Light Snow,1970-01-01 21:00:00,21.9,Snow,-,78.0,,30.05,,Missouri,28.0,,,3:00 PM,,,,,,,10.5,,SE,6.9,140.0,63101.0
St Louis,Unknown,1970-01-02 00:00:00,21.0,,-,75.0,,30.08,,Missouri,28.0,,,6:00 PM,,,,,,,7.0,,SE,5.8,140.0,63101.0
St Louis,Unknown,1970-01-02 03:00:00,21.0,,-,78.0,,30.08,,Missouri,27.0,,,9:00 PM,,,,,,,7.0,,SSE,10.4,160.0,63101.0
St Louis,Light Snow,1970-01-03 06:00:00,10.0,Snow,-,77.0,,30.19,,Missouri,16.0,,,12:00 AM,,,,,,,7.0,,WNW,16.1,300.0,63101.0
St Louis,Unknown,1970-01-03 09:00:00,7.0,,-,84.0,,30.19,,Missouri,10.9,,,3:00 AM,,,,,,,7.0,,West,8.1,280.0,63101.0
St Louis,Light Snow,1970-01-03 12:00:00,8.1,Snow,-,81.0,,30.18,,Missouri,12.9,,,6:00 AM,,,,,,,7.0,,NW,4.6,310.0,63101.0
St Louis,Clear,1970-01-03 15:00:00,9.0,,-,80.0,,30.23,,Missouri,14.0,,,9:00 AM,,,,,,,7.0,,WSW,6.9,250.0,63101.0
St Louis,Unknown,1970-01-03 18:00:00,10.0,,-,65.0,,30.16,,Missouri,19.9,,,12:00 PM,,,,,,,7.0,,WSW,5.8,250.0,63101.0
St Louis,Unknown,1970-01-03 21:00:00,10.9,,-,53.0,,30.11,,Missouri,26.1,,,3:00 PM,,,,,,,7.0,,SSE,5.8,150.0,63101.0
St Louis,Unknown,1970-01-04 00:00:00,12.0,,-,71.0,,30.09,,Missouri,19.9,,,6:00 PM,,,,,,,7.0,,ESE,11.5,120.0,63101.0
St Louis,Unknown,1970-01-04 03:00:00,14.0,,-,74.0,,30.08,,Missouri,21.0,,,9:00 PM,,,,,,,7.0,,SSE,8.1,160.0,63101.0
St Louis,Clear,1970-01-04 06:00:00,12.9,,-,74.0,,30.08,,Missouri,19.9,,,12:00 AM,,,,,,,7.0,,SW,6.9,230.0,63101.0
St Louis,Clear,1970-01-04 09:00:00,16.0,,-,85.0,,30.1,,Missouri,19.9,,,3:00 AM,,,,,,,10.0,,WSW,5.8,250.0,63101.0
St Louis,Clear,1970-01-04 12:00:00,16.0,,-,88.0,,30.12,,Missouri,19.0,,,6:00 AM,,,,,,,10.0,,West,3.5,260.0,63101.0
St Louis,Clear,1970-01-04 15:00:00,19.0,,-,75.0,,30.17,,Missouri,26.1,,,9:00 AM,,,,,,,10.0,,SW,10.4,220.0,63101.0
St Louis,Clear,1970-01-04 18:00:00,19.9,,-,54.0,,30.13,,Missouri,35.1,,,12:00 PM,,,,,,,10.0,,South,5.8,180.0,63101.0
St Louis,Clear,1970-01-04 21:00:00,21.0,,-,45.0,,30.13,,Missouri,41.0,,,3:00 PM,,,,,,,10.0,,West,6.9,260.0,63101.0
St Louis,Unknown,1970-01-05 00:00:00,21.0,,-,59.0,,30.16,,Missouri,34.0,,,6:00 PM,,,,,,,15.0,,ESE,3.5,110.0,63101.0
St Louis,Clear,1970-01-05 03:00:00,21.9,,-,61.0,,30.17,,Missouri,34.0,,,9:00 PM,,,,,,,15.0,,SSE,11.5,160.0,63101.0
St Louis,Clear,1970-01-05 06:00:00,23.0,,-,72.0,,30.17,,Missouri,30.9,,,12:00 AM,,,,,,,15.0,,SSE,11.5,160.0,63101.0
St Louis,Clear,1970-01-05 09:00:00,25.0,,-,75.0,,30.2,,Missouri,32.0,,,3:00 AM,,,,,,,15.0,,South,9.2,190.0,63101.0
St Louis,Unknown,1970-01-05 12:00:00,26.1,,-,85.0,,30.21,,Missouri,30.0,,,6:00 AM,,,,,,,10.0,,WNW,9.2,300.0,63101.0
St Louis,Fog,1970-01-05 15:00:00,15.1,Fog,-,92.0,,30.33,,Missouri,17.1,,,9:00 AM,,,,,,,2.0,,NW,11.5,320.0,63101.0
St Louis,Freezing Rain,1970-01-05 18:00:00,10.9,,-,71.0,,30.33,,Missouri,19.0,,,12:00 PM,,,,,,,3.0,,NNW,11.5,340.0,63101.0
St Louis,Unknown,1970-01-05 21:00:00,8.1,,-,60.0,,30.36,,Missouri,19.9,,,3:00 PM,,,,,,,7.0,,North,17.3,360.0,63101.0
St Louis,Unknown,1970-01-06 00:00:00,7.0,,-,62.0,,30.4,,Missouri,18.0,,,6:00 PM,,,,,,,15.0,,NNW,13.8,330.0,63101.0
St Louis,Unknown,1970-01-06 03:00:00,3.0,,-,62.0,,30.43,,Missouri,14.0,,,9:00 PM,,,,,,,15.0,,NNW,13.8,340.0,63101.0
St Louis,Unknown,1970-01-06 06:00:00,-0.0,,-,59.0,,30.46,,Missouri,12.0,,,12:00 AM,,,,,,,15.0,,NW,11.5,320.0,63101.0
St Louis,Unknown,1970-01-06 09:00:00,-0.9,,-,70.0,,30.44,,Missouri,7.0,,,3:00 AM,,,,,,,15.0,,NW,13.8,320.0,63101.0
St Louis,Unknown,1970-01-06 12:00:00,-5.1,,-,72.0,,30.42,,Missouri,1.9,,,6:00 AM,,,,,,,15.0,,WNW,11.5,300.0,63101.0
St Louis,Unknown,1970-01-06 15:00:00,-5.1,,-,79.0,,30.46,,Missouri,-0.0,,,9:00 AM,,,,,,,10.0,,WNW,12.7,290.0,63101.0
St Louis,Unknown,1970-01-06 18:00:00,-2.0,,-,64.0,,30.39,,Missouri,8.1,,,12:00 PM,,,,,,,10.0,,West,13.8,280.0,63101.0
St Louis,Clear,1970-01-06 21:00:00,1.0,,-,59.0,,30.33,,Missouri,12.9,,,3:00 PM,,,,,,,10.0,,WNW,13.8,290.0,63101.0
St Louis,Unknown,1970-01-07 00:00:00,1.0,,-,67.0,,30.33,,Missouri,10.0,,,6:00 PM,,,,,,,10.0,,West,13.8,280.0,63101.0
St Louis,Unknown,1970-01-07 03:00:00,-0.0,,-,67.0,,30.33,,Missouri,9.0,,,9:00 PM,,,,,,,10.0,,WNW,16.1,290.0,63101.0
St Louis,Clear,1970-01-07 06:00:00,-5.1,,-,66.0,,30.33,,Missouri,3.9,,,12:00 AM,,,,,,,10.0,,WNW,10.4,290.0,63101.0
St Louis,Clear,1970-01-07 09:00:00,-5.1,,-,72.0,,30.3,,Missouri,1.9,,,3:00 AM,,,,,,,10.0,,WNW,15.0,290.0,63101.0
St Louis,Clear,1970-01-07 12:00:00,-6.0,,-,76.0,,30.29,,Missouri,-0.0,,,6:00 AM,,,,,,,10.0,,WSW,8.1,250.0,63101.0
St Louis,Unknown,1970-01-07 15:00:00,-7.1,,-,63.0,,30.33,,Missouri,3.0,,,9:00 AM,,,,,,,15.0,,WNW,18.4,290.0,63101.0
St Louis,Unknown,1970-01-07 18:00:00,-8.0,,-,48.0,,30.34,,Missouri,8.1,,,12:00 PM,,,,,,,15.0,,WNW,19.6,290.0,63101.0
St Louis,Unknown,1970-01-07 21:00:00,-6.0,,-,51.0,,30.32,,Missouri,9.0,,,3:00 PM,,,,,,,15.0,,WNW,18.4,300.0,63101.0
St Louis,Unknown,1970-01-08 00:00:00,-6.0,,-,61.0,,30.36,,Missouri,5.0,,,6:00 PM,,,,,,,15.0,,West,17.3,270.0,63101.0
St Louis,Unknown,1970-01-08 03:00:00,-6.0,,-,64.0,,30.35,,Missouri,3.9,,,9:00 PM,,,,,,,10.0,,WNW,18.4,290.0,63101.0
St Louis,Unknown,1970-01-08 06:00:00,-11.9,,-,60.0,,30.37,,Missouri,-0.9,,,12:00 AM,,,,,,,10.0,,WNW,21.9,290.0,63101.0
St Louis,Unknown,1970-01-08 09:00:00,-14.1,,-,59.0,,30.38,,Missouri,-2.9,,,3:00 AM,,,,,,,10.0,,West,20.7,280.0,63101.0
St Louis,Clear,1970-01-08 12:00:00,-15.0,,-,59.0,,30.42,,Missouri,-4.0,,,6:00 AM,,,,,,,10.0,,WNW,20.7,290.0,63101.0
St Louis,Unknown,1970-01-08 15:00:00,-14.1,,-,59.0,,30.49,,Missouri,-2.9,,,9:00 AM,,,,,,,15.0,,West,23.0,280.0,63101.0
St Louis,Unknown,1970-01-08 18:00:00,-11.9,,-,52.0,,30.51,,Missouri,1.9,,,12:00 PM,,,,,,,15.0,,WNW,25.3,290.0,63101.0
St Louis,Clear,1970-01-08 21:00:00,-9.0,,-,50.0,,30.52,,Missouri,6.1,,,3:00 PM,,,,,,,15.0,,West,20.7,270.0,63101.0
St Louis,Clear,1970-01-09 00:00:00,-9.0,,-,52.0,,30.51,,Missouri,5.0,,,6:00 PM,,,,,,,10.0,,SW,13.8,230.0,63101.0
St Louis,Clear,1970-01-09 03:00:00,-7.1,,-,55.0,,30.45,,Missouri,6.1,,,9:00 PM,,,,,,,10.0,,WSW,15.0,250.0,63101.0
St Louis,Clear,1970-01-09 06:00:00,-6.0,,-,55.0,,30.4,,Missouri,7.0,,,12:00 AM,,,,,,,10.0,,West,19.6,260.0,63101.0
St Louis,Unknown,1970-01-09 09:00:00,-6.0,,-,61.0,,30.42,,Missouri,5.0,,,3:00 AM,,,,,,,10.0,,WNW,18.4,290.0,63101.0
St Louis,Unknown,1970-01-09 12:00:00,-2.9,,-,67.0,,30.4,,Missouri,6.1,,,6:00 AM,,,,,,,10.0,,WNW,23.0,290.0,63101.0
St Louis,Unknown,1970-01-09 15:00:00,-4.0,,-,66.0,,30.47,,Missouri,5.0,,,9:00 AM,,,,,,,10.0,,WNW,20.7,290.0,63101.0
St Louis,Unknown,1970-01-09 18:00:00,-2.0,,-,56.0,,30.48,,Missouri,10.9,,,12:00 PM,,,,,,,15.0,,WNW,21.9,300.0,63101.0
St Louis,Clear,1970-01-09 21:00:00,1.0,,-,54.0,,30.48,,Missouri,15.1,,,3:00 PM,,,,,,,15.0,,West,13.8,280.0,63101.0
St Louis,Clear,1970-01-10 00:00:00,-0.0,,-,61.0,,30.5,,Missouri,10.9,,,6:00 PM,,,,,,,15.0,,WNW,8.1,300.0,63101.0
St Louis,Clear,1970-01-10 03:00:00,-0.0,,-,70.0,,30.5,,Missouri,8.1,,,9:00 PM,,,,,,,15.0,,Calm,Calm,0.0,63101.0
St Louis,Clear,1970-01-10 06:00:00,1.9,,-,64.0,,30.48,,Missouri,12.0,,,12:00 AM,,,,,,,10.0,,SSE,5.8,160.0,63101.0
St Louis,Clear,1970-01-10 09:00:00,-0.0,,-,70.0,,30.47,,Missouri,8.1,,,3:00 AM,,,,,,,10.0,,South,9.2,170.0,63101.0
St Louis,Unknown,1970-01-10 12:00:00,-0.0,,-,67.0,,30.4,,Missouri,9.0,,,6:00 AM,,,,,,,10.0,,SE,6.9,130.0,63101.0
St Louis,Unknown,1970-01-10 15:00:00,5.0,,-,64.0,,30.38,,Missouri,15.1,,,9:00 AM,,,,,,,10.0,,SSE,11.5,150.0,63101.0
St Louis,Unknown,1970-01-10 18:00:00,12.9,,-,65.0,,30.27,,Missouri,23.0,,,12:00 PM,,,,,,,10.0,,SE,12.7,130.0,63101.0
St Louis,Unknown,1970-01-10 21:00:00,15.1,,-,66.0,,30.16,,Missouri,25.0,,,3:00 PM,,,,,,,15.0,,SE,13.8,140.0,63101.0
St Louis,Light Snow,1970-01-11 00:00:00,15.1,Snow,-,69.0,,30.1,,Missouri,24.1,,,6:00 PM,,,,,,,5.5,,SE,17.3,130.0,63101.0
St Louis,Light Freezing Drizzle,1970-01-11 03:00:00,19.9,Fog,-,84.0,0.04,30.02,,Missouri,24.1,,,9:00 PM,,,,,,,10.5,,SE,15.0,140.0,63101.0
St Louis,Light Freezing Drizzle,1970-01-11 06:00:00,23.0,Fog,-,92.0,,29.95,,Missouri,25.0,,,12:00 AM,,,,,,,5.0,,SE,11.5,140.0,63101.0
St Louis,Light Snow,1970-01-11 09:00:00,26.1,Fog-Snow,-,96.0,0.01,29.91,,Missouri,27.0,,,3:00 AM,,,,,,,5.0,,SE,8.1,130.0,63101.0
St Louis,Light Freezing Drizzle,1970-01-11 12:00:00,27.0,Fog,-,92.0,,29.89,,Missouri,28.9,,,6:00 AM,,,,,,,5.0,,ESE,3.5,120.0,63101.0
St Louis,Fog,1970-01-11 15:00:00,28.9,Fog,-,92.0,,29.89,,Missouri,30.9,,,9:00 AM,,,,,,,2.0,,SE,4.6,140.0,63101.0
St Louis,Fog,1970-01-11 18:00:00,30.9,Fog,-,92.0,,29.91,,Missouri,33.1,,,12:00 PM,,,,,,,5.0,,West,8.1,270.0,63101.0
St Louis,Unknown,1970-01-11 21:00:00,30.0,,-,89.0,,29.9,,Missouri,33.1,,,3:00 PM,,,,,,,7.0,,NW,9.2,310.0,63101.0
St Louis,Fog,1970-01-12 00:00:00,28.9,Fog,-,88.0,,29.95,,Missouri,32.0,,,6:00 PM,,,,,,,5.0,,NW,9.2,320.0,63101.0
St Louis,Fog,1970-01-12 03:00:00,28.0,Fog,-,92.0,,30.01,,Missouri,30.0,,,9:00 PM,,,,,,,3.0,,WNW,9.2,290.0,63101.0
St Louis,Fog,1970-01-12 06:00:00,27.0,Fog,-,88.0,,30.03,,Missouri,30.0,,,12:00 AM,,,,,,,10.5,,WNW,10.4,300.0,63101.0
St Louis,Fog,1970-01-12 09:00:00,26.1,Fog,-,85.0,,30.08,,Missouri,30.0,,,3:00 AM,,,,,,,5.0,,WNW,8.1,290.0,63101.0
St Louis,Fog,1970-01-12 12:00:00,24.1,Fog,-,89.0,,30.14,,Missouri,27.0,,,6:00 AM,,,,,,,4.0,,WNW,11.5,300.0,63101.0
St Louis,Fog,1970-01-12 15:00:00,21.9,Fog,-,84.0,,30.21,,Missouri,26.1,,,9:00 AM,,,,,,,4.0,,NW,10.4,320.0,63101.0
St Louis,Freezing Rain,1970-01-12 18:00:00,21.0,,-,75.0,,30.25,,Missouri,28.0,,,12:00 PM,,,,,,,3.0,,NNW,6.9,330.0,63101.0
St Louis,Freezing Rain,1970-01-12 21:00:00,19.9,,-,72.0,,30.26,,Missouri,28.0,,,3:00 PM,,,,,,,5.0,,North,5.8,10.0,63101.0
St Louis,Freezing Rain,1970-01-13 00:00:00,19.0,,-,81.0,,30.32,,Missouri,24.1,,,6:00 PM,,,,,,,5.0,,North,4.6,10.0,63101.0
St Louis,Freezing Rain,1970-01-13 03:00:00,16.0,,-,85.0,,30.33,,Missouri,19.9,,,9:00 PM,,,,,,,6.0,,North,3.5,10.0,63101.0
St Louis,Fog,1970-01-13 06:00:00,16.0,Fog,-,88.0,,30.35,,Missouri,19.0,,,12:00 AM,,,,,,,6.0,,SW,3.5,230.0,63101.0
St Louis,Fog,1970-01-13 09:00:00,14.0,Fog,-,92.0,,30.36,,Missouri,16.0,,,3:00 AM,,,,,,,3.0,,South,5.8,180.0,63101.0
St Louis,Fog,1970-01-13 12:00:00,17.1,Fog,-,92.0,,30.32,,Missouri,19.0,,,6:00 AM,,,,,,,5.5,,SSE,9.2,160.0,63101.0
St Louis,Fog,1970-01-13 15:00:00,18.0,Fog,-,85.0,,30.36,,Missouri,21.9,,,9:00 AM,,,,,,,5.5,,SSE,11.5,160.0,63101.0
St Louis,Smoke,1970-01-13 18:00:00,23.0,,-,72.0,,30.32,,Missouri,30.9,,,12:00 PM,,,,,,,4.0,,South,8.1,180.0,63101.0
St Louis,Smoke,1970-01-13 21:00:00,21.0,,-,57.0,,30.26,,Missouri,35.1,,,3:00 PM,,,,,,,6.0,,ESE,4.6,110.0,63101.0
St Louis,Fog,1970-01-14 00:00:00,25.0,Fog,-,82.0,,30.25,,Missouri,30.0,,,6:00 PM,,,,,,,2.0,,SE,8.1,130.0,63101.0
St Louis,Smoke,1970-01-14 03:00:00,24.1,,-,76.0,,30.21,,Missouri,30.9,,,9:00 PM,,,,,,,5.0,,SSE,8.1,150.0,63101.0
St Louis,Clear,1970-01-14 06:00:00,21.0,,-,78.0,,30.18,,Missouri,27.0,,,12:00 AM,,,,,,,7.0,,Calm,Calm,0.0,63101.0
St Louis,Clear,1970-01-14 09:00:00,19.9,,-,88.0,,30.2,,Missouri,23.0,,,3:00 AM,,,,,,,7.0,,Calm,Calm,0.0,63101.0
St Louis,Clear,1970-01-14 12:00:00,17.1,,-,89.0,,30.2,,Missouri,19.9,,,6:00 AM,,,,,,,7.0,,East,4.6,90.0,63101.0
St Louis,Drizzle,1970-01-14 15:00:00,21.0,,-,64.0,,30.22,,Missouri,32.0,,,9:00 AM,,,,,,,5.0,,South,3.5,180.0,63101.0
St Louis,Unknown,1970-01-14 18:00:00,24.1,,-,49.0,,30.2,,Missouri,42.1,,,12:00 PM,,,,,,,10.0,,SW,9.2,230.0,63101.0
St Louis,Unknown,1970-01-14 21:00:00,24.1,,-,41.0,,30.12,,Missouri,46.9,,,3:00 PM,,,,,,,10.0,,SE,8.1,140.0,63101.0
St Louis,Unknown,1970-01-15 00:00:00,27.0,,-,70.0,,30.1,,Missouri,36.0,,,6:00 PM,,,,,,,7.0,,ESE,10.4,120.0,63101.0
St Louis,Clear,1970-01-15 03:00:00,25.0,,-,75.0,,30.1,,Missouri,32.0,,,9:00 PM,,,,,,,7.0,,ENE,4.6,60.0,63101.0
St Louis,Unknown,1970-01-15 06:00:00,28.0,,-,79.0,,30.11,,Missouri,34.0,,,12:00 AM,,,,,,,7.0,,South,6.9,170.0,63101.0
St Louis,Clear,1970-01-15 09:00:00,27.0,,-,88.0,,30.08,,Missouri,30.0,,,3:00 AM,,,,,,,7.0,,ESE,3.5,110.0,63101.0
St Louis,Fog,1970-01-15 12:00:00,26.1,Fog,-,96.0,,30.09,,Missouri,27.0,,,6:00 AM,,,,,,,4.0,,ESE,4.6,120.0,63101.0
St Louis,Fog,1970-01-15 15:00:00,33.1,Fog,-,86.0,,30.12,,Missouri,37.0,,,9:00 AM,,,,,,,3.0,,SSE,10.4,160.0,63101.0
St Louis,Smoke,1970-01-15 18:00:00,34.0,,-,63.0,,30.1,,Missouri,46.0,,,12:00 PM,,,,,,,6.0,,SSW,5.8,200.0,63101.0
St Louis,Clear,1970-01-15 21:00:00,36.0,,-,63.0,,30.05,,Missouri,48.0,,,3:00 PM,,,,,,,7.0,,SE,6.9,130.0,63101.0
St Louis,Fog,1970-01-16 00:00:00,35.1,Fog,-,83.0,,30.08,,Missouri,39.9,,,6:00 PM,,,,,,,3.0,,ESE,6.9,110.0,63101.0
St Louis,Clear,1970-01-16 03:00:00,33.1,,-,79.0,,30.09,,Missouri,39.0,,,9:00 PM,,,,,,,7.0,,SE,8.1,130.0,63101.0
St Louis,Clear,1970-01-16 06:00:00,32.0,,-,76.0,,30.12,,Missouri,39.0,,,12:00 AM,,,,,,,7.0,,South,6.9,180.0,63101.0
St Louis,Clear,1970-01-16 09:00:00,30.9,,-,92.0,,30.15,,Missouri,33.1,,,3:00 AM,,,,,,,7.0,,SSE,3.5,150.0,63101.0
St Louis,Clear,1970-01-16 12:00:00,28.9,,-,96.0,,30.15,,Missouri,30.0,,,6:00 AM,,,,,,,7.0,,ESE,6.9,120.0,63101.0
St Louis,Fog,1970-01-16 15:00:00,34.0,Fog,-,93.0,,30.19,,Missouri,36.0,,,9:00 AM,,,,,,,10.5,,Calm,Calm,0.0,63101.0
St Louis,Unknown,1970-01-16 18:00:00,37.9,,-,82.0,,30.17,,Missouri,43.0,,,12:00 PM,,,,,,,7.0,,WSW,6.9,240.0,63101.0
St Louis,Unknown,1970-01-16 21:00:00,37.9,,-,68.0,,30.13,,Missouri,48.0,,,3:00 PM,,,,,,,7.0,,WNW,4.6,290.0,63101.0
St Louis,Unknown,1970-01-17 00:00:00,34.0,,-,79.0,,30.14,,Missouri,39.9,,,6:00 PM,,,,,,,7.0,,NNE,6.9,30.0,63101.0
St Louis,Fog,1970-01-17 03:00:00,33.1,Fog,-,92.0,,30.16,,Missouri,35.1,,,9:00 PM,,,,,,,0.8,,NNW,8.1,340.0,63101.0
St Louis,Fog,1970-01-17 06:00:00,28.9,Fog,-,92.0,,30.14,,Missouri,30.9,,,12:00 AM,,,,,,,1.0,,North,6.9,360.0,63101.0
St Louis,Light Freezing Drizzle,1970-01-17 09:00:00,26.1,Fog,-,89.0,,30.12,,Missouri,28.9,,,3:00 AM,,,,,,,3.0,,NW,8.1,320.0,63101.0
St Louis,Fog,1970-01-17 12:00:00,24.1,Fog,-,92.0,,30.06,,Missouri,26.1,,,6:00 AM,,,,,,,0.8,,North,8.1,350.0,63101.0
St Louis,Fog,1970-01-17 15:00:00,19.9,Fog,-,92.0,,30.07,,Missouri,21.9,,,9:00 AM,,,,,,,0.1,,NNW,10.4,340.0,63101.0
St Louis,Snow Grains,1970-01-17 18:00:00,19.0,Fog-Snow,-,92.0,,30.05,,Missouri,21.0,,,12:00 PM,,,,,,,1.0,,NNW,10.4,330.0,63101.0
St Louis,Light Freezing Rain,1970-01-17 21:00:00,16.0,Fog-Rain,-,85.0,,30.03,,Missouri,19.9,,,3:00 PM,,,,,,,5.0,,NNW,9.2,330.0,63101.0
St Louis,Snow Grains,1970-01-18 00:00:00,12.0,Fog-Snow,-,81.0,0.01,30.08,,Missouri,17.1,,,6:00 PM,,,,,,,4.0,,NNW,11.5,330.0,63101.0
St Louis,Light Snow,1970-01-18 03:00:00,8.1,Fog-Snow,-,77.0,,30.14,,Missouri,14.0,,,9:00 PM,,,,,,,10.5,,NW,16.1,320.0,63101.0
St Louis,Unknown,1970-01-18 06:00:00,3.9,,-,70.0,,30.18,,Missouri,12.0,,,12:00 AM,,,,,,,10.0,,NNW,13.8,330.0,63101.0
St Louis,Unknown,1970-01-18 09:00:00,3.0,,-,70.0,,30.22,,Missouri,10.9,,,3:00 AM,,,,,,,15.0,,NW,17.3,320.0,63101.0
St Louis,Unknown,1970-01-18 12:00:00,-2.0,,-,69.0,,30.26,,Missouri,6.1,,,6:00 AM,,,,,,,15.0,,NNW,16.1,330.0,63101.0
St Louis,Light Snow,1970-01-18 15:00:00,1.0,Snow,-,84.0,,30.3,,Missouri,5.0,,,9:00 AM,,,,,,,5.5,,WNW,13.8,300.0,63101.0
St Louis,Unknown,1970-01-18 18:00:00,-2.9,,-,56.0,,30.32,,Missouri,10.0,,,12:00 PM,,,,,,,10.0,,WNW,11.5,300.0,63101.0
St Louis,Unknown,1970-01-18 21:00:00,-2.9,,-,56.0,,30.26,,Missouri,10.0,,,3:00 PM,,,,,,,10.0,,WNW,10.4,290.0,63101.0
St Louis,Unknown,1970-01-19 00:00:00,-2.9,,-,59.0,,30.29,,Missouri,9.0,,,6:00 PM,,,,,,,10.0,,NNW,8.1,330.0,63101.0
St Louis,Unknown,1970-01-19 03:00:00,-4.0,,-,58.0,,30.29,,Missouri,8.1,,,9:00 PM,,,,,,,7.0,,NW,9.2,310.0,63101.0
St Louis,Unknown,1970-01-19 06:00:00,-4.0,,-,58.0,,30.29,,Missouri,8.1,,,12:00 AM,,,,,,,7.0,,NW,6.9,320.0,63101.0
St Louis,Light Snow,1970-01-19 09:00:00,-2.9,Snow,-,64.0,,30.3,,Missouri,7.0,,,3:00 AM,,,,,,,15.0,,NNW,9.2,330.0,63101.0
St Louis,Light Snow,1970-01-19 12:00:00,-2.0,Snow,-,64.0,,30.3,,Missouri,8.1,,,6:00 AM,,,,,,,7.0,,NW,9.2,320.0,63101.0
St Louis,Unknown,1970-01-19 15:00:00,-2.9,,-,64.0,,30.34,,Missouri,7.0,,,9:00 AM,,,,,,,10.0,,North,11.5,360.0,63101.0
St Louis,Unknown,1970-01-19 18:00:00,-0.9,,-,54.0,,30.36,,Missouri,12.9,,,12:00 PM,,,,,,,10.0,,WNW,4.6,300.0,63101.0
St Louis,Unknown,1970-01-19 21:00:00,-0.9,,-,54.0,,30.3,,Missouri,12.9,,,3:00 PM,,,,,,,10.0,,West,6.9,280.0,63101.0
St Louis,Unknown,1970-01-20 00:00:00,-0.9,,-,56.0,,30.26,,Missouri,12.0,,,6:00 PM,,,,,,,10.0,,NNE,6.9,20.0,63101.0
St Louis,Unknown,1970-01-20 03:00:00,-0.9,,-,61.0,,30.25,,Missouri,10.0,,,9:00 PM,,,,,,,10.0,,NNE,5.8,20.0,63101.0
St Louis,Unknown,1970-01-20 06:00:00,-2.9,,-,59.0,,30.22,,Missouri,9.0,,,12:00 AM,,,,,,,10.0,,NNE,5.8,30.0,63101.0
St Louis,Unknown,1970-01-20 09:00:00,-2.0,,-,58.0,,30.19,,Missouri,10.0,,,3:00 AM,,,,,,,10.0,,West,4.6,270.0,63101.0
St Louis,Light Snow,1970-01-20 12:00:00,1.0,Snow,-,67.0,,30.18,,Missouri,10.0,,,6:00 AM,,,,,,,7.0,,WNW,8.1,300.0,63101.0
St Louis,Light Snow,1970-01-20 15:00:00,1.9,Snow,-,62.0,,30.22,,Missouri,12.9,,,9:00 AM,,,,,,,7.0,,WNW,16.1,290.0,63101.0
St Louis,Light Snow,1970-01-20 18:00:00,3.9,Snow,-,61.0,,30.29,,Missouri,15.1,,,12:00 PM,,,,,,,3.0,,WNW,19.6,300.0,63101.0
St Louis,Unknown,1970-01-20 21:00:00,-9.9,,-,37.0,,30.36,,Missouri,12.0,,,3:00 PM,,,,,,,15.0,,NW,19.6,320.0,63101.0
St Louis,Unknown,1970-01-21 00:00:00,-13.0,,-,47.0,,30.47,,Missouri,3.0,,,6:00 PM,,,,,,,15.0,,WNW,9.2,300.0,63101.0
St Louis,Clear,1970-01-21 03:00:00,-17.0,,-,45.0,,30.55,,Missouri,-0.0,,,9:00 PM,,,,,,,15.0,,NW,11.5,310.0,63101.0
St Louis,Clear,1970-01-21 06:00:00,-18.9,,-,46.0,,30.61,,Missouri,-2.9,,,12:00 AM,,,,,,,15.0,,NW,10.4,310.0,63101.0
St Louis,Clear,1970-01-21 09:00:00,-20.0,,-,51.0,,30.66,,Missouri,-6.0,,,3:00 AM,,,,,,,15.0,,WNW,8.1,300.0,63101.0
St Louis,Clear,1970-01-21 12:00:00,-20.0,,-,53.0,,30.68,,Missouri,-7.1,,,6:00 AM,,,,,,,15.0,,WNW,8.1,290.0,63101.0
St Louis,Unknown,1970-01-21 15:00:00,-20.0,,-,49.0,,30.71,,Missouri,-5.1,,,9:00 AM,,,,,,,10.0,,NW,8.1,310.0,63101.0
St Louis,Freezing Rain,1970-01-21 18:00:00,-15.0,,-,41.0,,30.69,,Missouri,3.9,,,12:00 PM,,,,,,,5.0,,NNW,5.8,330.0,63101.0
St Louis,Unknown,1970-01-21 21:00:00,-13.0,,-,35.0,,30.59,,Missouri,10.0,,,3:00 PM,,,,,,,7.0,,West,5.8,270.0,63101.0
St Louis,Unknown,1970-01-22 00:00:00,-11.9,,-,46.0,,30.56,,Missouri,5.0,,,6:00 PM,,,,,,,7.0,,North,2.3,10.0,63101.0
St Louis,Clear,1970-01-22 03:00:00,-9.0,,-,55.0,,30.54,,Missouri,3.9,,,9:00 PM,,,,,,,15.0,,East,3.5,80.0,63101.0
St Louis,Clear,1970-01-22 06:00:00,-7.1,,-,58.0,,30.49,,Missouri,5.0,,,12:00 AM,,,,,,,7.0,,SE,8.1,130.0,63101.0
St Louis,Unknown,1970-01-22 09:00:00,-9.9,,-,44.0,,30.42,,Missouri,8.1,,,3:00 AM,,,,,,,7.0,,SSE,6.9,150.0,63101.0
St Louis,Unknown,1970-01-22 12:00:00,-5.1,,-,46.0,,30.34,,Missouri,12.0,,,6:00 AM,,,,,,,10.0,,SSE,8.1,160.0,63101.0
St Louis,Unknown,1970-01-22 15:00:00,-0.9,,-,47.0,,30.26,,Missouri,16.0,,,9:00 AM,,,,,,,7.0,,SSE,12.7,160.0,63101.0
St Louis,Unknown,1970-01-22 18:00:00,1.9,,-,42.0,,30.16,,Missouri,21.9,,,12:00 PM,,,,,,,10.0,,SSE,11.5,150.0,63101.0
St Louis,Light Snow,1970-01-22 21:00:00,10.0,Snow,-,51.0,,30.02,,Missouri,26.1,,,3:00 PM,,,,,,,7.0,,SSE,15.0,160.0,63101.0
St Louis,Light Snow,1970-01-23 00:00:00,12.0,Snow,-,58.0,,29.95,,Missouri,25.0,,,6:00 PM,,,,,,,5.0,,SSE,13.8,150.0,63101.0
St Louis,Unknown,1970-01-23 03:00:00,17.1,,-,72.0,,29.92,,Missouri,25.0,,,9:00 PM,,,,,,,7.0,,South,9.2,180.0,63101.0
St Louis,Light Snow,1970-01-23 06:00:00,18.0,Snow,-,71.0,,29.89,,Missouri,26.1,,,12:00 AM,,,,,,,10.5,,South,6.9,190.0,63101.0
St Louis,Light Snow,1970-01-23 09:00:00,21.0,Snow,-,78.0,,29.89,,Missouri,27.0,,,3:00 AM,,,,,,,6.0,,South,4.6,170.0,63101.0
St Louis,Fog,1970-01-23 12:00:00,26.1,Fog,-,89.0,,29.94,,Missouri,28.9,,,6:00 AM,,,,,,,2.0,,WNW,6.9,300.0,63101.0
St Louis,Snow Grains,1970-01-23 15:00:00,25.0,Fog-Snow,-,85.0,,30.04,,Missouri,28.9,,,9:00 AM,,,,,,,3.0,,WNW,9.2,300.0,63101.0
St Louis,Fog,1970-01-23 18:00:00,23.0,Fog,-,78.0,,30.13,,Missouri,28.9,,,12:00 PM,,,,,,,2.0,,NW,13.8,310.0,63101.0
St Louis,Smoke,1970-01-23 21:00:00,16.0,,-,61.0,,30.16,,Missouri,28.0,,,3:00 PM,,,,,,,4.0,,WNW,11.5,290.0,63101.0
St Louis,Smoke,1970-01-24 00:00:00,12.9,,-,74.0,,30.22,,Missouri,19.9,,,6:00 PM,,,,,,,5.0,,North,8.1,10.0,63101.0
St Louis,Smoke,1970-01-24 03:00:00,12.0,,-,71.0,,30.23,,Missouri,19.9,,,9:00 PM,,,,,,,5.0,,ESE,4.6,110.0,63101.0
St Louis,Smoke,1970-01-24 06:00:00,14.0,,-,74.0,,30.18,,Missouri,21.0,,,12:00 AM,,,,,,,5.0,,SSE,11.5,150.0,63101.0
St Louis,Smoke,1970-01-24 09:00:00,16.0,,-,78.0,,30.14,,Missouri,21.9,,,3:00 AM,,,,,,,6.0,,SE,8.1,140.0,63101.0
St Louis,Smoke,1970-01-24 12:00:00,21.0,,-,85.0,,30.07,,Missouri,25.0,,,6:00 AM,,,,,,,5.0,,SSE,12.7,150.0,63101.0
St Louis,Light Freezing Rain,1970-01-24 15:00:00,25.0,Rain,-,82.0,,30.04,,Missouri,30.0,,,9:00 AM,,,,,,,2.0,,SE,8.1,140.0,63101.0
St Louis,Smoke,1970-01-24 18:00:00,30.9,,-,62.0,,29.93,,Missouri,43.0,,,12:00 PM,,,,,,,5.0,,South,12.7,170.0,63101.0
St Louis,Unknown,1970-01-24 21:00:00,30.0,,-,32.0,,29.78,,Missouri,60.1,,,3:00 PM,,,,,,,10.0,,South,10.4,170.0,63101.0
St Louis,Unknown,1970-01-25 00:00:00,30.9,,-,48.0,,29.76,,Missouri,50.0,,,6:00 PM,,,,,,,10.0,,SSE,11.5,160.0,63101.0
St Louis,Unknown,1970-01-25 03:00:00,34.0,,-,68.0,,29.69,,Missouri,44.1,,,9:00 PM,,,,,,,7.0,,SSE,16.1,150.0,63101.0
St Louis,Unknown,1970-01-25 06:00:00,37.9,,-,71.0,,29.66,,Missouri,46.9,,,12:00 AM,,,,,,,7.0,,South,11.5,180.0,63101.0
St Louis,Unknown,1970-01-25 09:00:00,41.0,,-,80.0,,29.58,,Missouri,46.9,,,3:00 AM,,,,,,,15.0,,South,13.8,180.0,63101.0
St Louis,Unknown,1970-01-25 12:00:00,39.9,,-,85.0,,29.55,,Missouri,44.1,,,6:00 AM,,,,,,,10.0,,South,6.9,180.0,63101.0
St Louis,Unknown,1970-01-25 15:00:00,44.1,,-,80.0,,29.55,,Missouri,50.0,,,9:00 AM,,,,,,,7.0,,SW,13.8,220.0,63101.0
St Louis,Unknown,1970-01-25 18:00:00,39.9,,-,49.0,,29.57,,Missouri,59.0,,,12:00 PM,,,,,,,10.0,,WSW,19.6,250.0,63101.0
St Louis,Unknown,1970-01-25 21:00:00,37.0,,-,44.0,,29.61,,Missouri,59.0,,,3:00 PM,,,,,,,15.0,,West,20.7,260.0,63101.0
St Louis,Clear,1970-01-26 00:00:00,37.0,,-,68.0,,29.74,,Missouri,46.9,,,6:00 PM,,,,,,,15.0,,WNW,11.5,290.0,63101.0
St Louis,Clear,1970-01-26 03:00:00,32.0,,-,79.0,,29.86,,Missouri,37.9,,,9:00 PM,,,,,,,15.0,,West,11.5,280.0,63101.0
St Louis,Clear,1970-01-26 06:00:00,28.9,,-,85.0,,29.9,,Missouri,33.1,,,12:00 AM,,,,,,,15.0,,West,5.8,260.0,63101.0
St Louis,Unknown,1970-01-26 09:00:00,32.0,,-,89.0,,29.93,,Missouri,35.1,,,3:00 AM,,,,,,,10.0,,West,8.1,270.0,63101.0
St Louis,Unknown,1970-01-26 12:00:00,30.0,,-,85.0,,29.98,,Missouri,34.0,,,6:00 AM,,,,,,,7.0,,WNW,3.5,290.0,63101.0
St Louis,Fog,1970-01-26 15:00:00,30.9,Fog,-,82.0,,30.06,,Missouri,36.0,,,9:00 AM,,,,,,,2.0,,West,5.8,260.0,63101.0
St Louis,Fog,1970-01-26 18:00:00,33.1,Fog,-,79.0,,30.09,,Missouri,39.0,,,12:00 PM,,,,,,,10.5,,WSW,9.2,250.0,63101.0
St Louis,Unknown,1970-01-26 21:00:00,33.1,,-,65.0,,30.1,,Missouri,44.1,,,3:00 PM,,,,,,,7.0,,SW,13.8,230.0,63101.0
St Louis,Clear,1970-01-27 00:00:00,33.1,,-,73.0,,30.1,,Missouri,41.0,,,6:00 PM,,,,,,,10.0,,South,4.6,180.0,63101.0
St Louis,Clear,1970-01-27 03:00:00,32.0,,-,73.0,,30.02,,Missouri,39.9,,,9:00 PM,,,,,,,10.0,,South,11.5,170.0,63101.0
St Louis,Unknown,1970-01-27 06:00:00,30.9,,-,73.0,,30.05,,Missouri,39.0,,,12:00 AM,,,,,,,10.0,,WSW,10.4,250.0,63101.0
St Louis,Unknown,1970-01-27 09:00:00,30.9,,-,73.0,,30.07,,Missouri,39.0,,,3:00 AM,,,,,,,15.0,,West,10.4,260.0,63101.0
St Louis,Unknown,1970-01-27 12:00:00,28.9,,-,82.0,,30.12,,Missouri,34.0,,,6:00 AM,,,,,,,15.0,,West,10.4,270.0,63101.0
St Louis,Drizzle,1970-01-27 15:00:00,30.9,,-,79.0,,30.17,,Missouri,37.0,,,9:00 AM,,,,,,,5.0,,West,9.2,260.0,63101.0
St Louis,Drizzle,1970-01-27 18:00:00,28.9,,-,55.0,,30.12,,Missouri,44.1,,,12:00 PM,,,,,,,5.0,,ENE,3.5,70.0,63101.0
St Louis,Drizzle,1970-01-27 21:00:00,28.0,,-,41.0,,30.02,,Missouri,51.1,,,3:00 PM,,,,,,,5.0,,ESE,10.4,120.0,63101.0
St Louis,Unknown,1970-01-28 00:00:00,32.0,,-,67.0,,29.96,,Missouri,42.1,,,6:00 PM,,,,,,,10.0,,ESE,11.5,110.0,63101.0
St Louis,Unknown,1970-01-28 03:00:00,30.0,,-,56.0,,29.87,,Missouri,45.0,,,9:00 PM,,,,,,,10.0,,SE,13.8,130.0,63101.0
St Louis,Unknown,1970-01-28 06:00:00,32.0,,-,58.0,,29.75,,Missouri,46.0,,,12:00 AM,,,,,,,10.0,,SE,11.5,140.0,63101.0
St Louis,Unknown,1970-01-28 09:00:00,37.9,,-,61.0,,29.64,,Missouri,51.1,,,3:00 AM,,,,,,,10.0,,SE,13.8,140.0,63101.0
St Louis,Unknown,1970-01-28 12:00:00,46.9,,-,74.0,,29.5,,Missouri,55.0,,,6:00 AM,,,,,,,10.0,,SSE,13.8,160.0,63101.0
St Louis,Unknown,1970-01-28 15:00:00,52.0,,-,65.0,,29.5,,Missouri,64.0,,,9:00 AM,,,,,,,10.0,,South,17.3,180.0,63101.0
St Louis,Unknown,1970-01-28 18:00:00,50.0,,-,44.0,,29.45,,Missouri,73.0,,,12:00 PM,,,,,,,10.0,,WSW,23.0,250.0,63101.0
St Louis,Unknown,1970-01-28 21:00:00,48.0,,-,38.0,,29.5,,Missouri,75.0,,,3:00 PM,,,,,,,10.0,,WSW,20.7,240.0,63101.0
St Louis,Unknown,1970-01-29 00:00:00,43.0,,-,58.0,,29.63,,Missouri,57.9,,,6:00 PM,,,,,,,15.0,,NW,15.0,310.0,63101.0
St Louis,Unknown,1970-01-29 03:00:00,43.0,,-,80.0,,29.72,,Missouri,48.9,,,9:00 PM,,,,,,,10.0,,WNW,15.0,290.0,63101.0
St Louis,Unknown,1970-01-29 06:00:00,33.1,,-,70.0,,29.83,,Missouri,42.1,,,12:00 AM,,,,,,,15.0,,WNW,16.1,300.0,63101.0
St Louis,Unknown,1970-01-29 09:00:00,28.9,,-,73.0,,29.92,,Missouri,37.0,,,3:00 AM,,,,,,,10.0,,WNW,13.8,290.0,63101.0
St Louis,Unknown,1970-01-29 12:00:00,28.0,,-,73.0,,29.99,,Missouri,36.0,,,6:00 AM,,,,,,,10.0,,West,13.8,280.0,63101.0
St Louis,Unknown,1970-01-29 15:00:00,24.1,,-,64.0,,30.06,,Missouri,35.1,,,9:00 AM,,,,,,,10.0,,West,16.1,280.0,63101.0
St Louis,Unknown,1970-01-29 18:00:00,23.0,,-,64.0,,30.16,,Missouri,34.0,,,12:00 PM,,,,,,,7.0,,WNW,17.3,300.0,63101.0
St Louis,Unknown,1970-01-29 21:00:00,19.0,,-,59.0,,30.23,,Missouri,32.0,,,3:00 PM,,,,,,,7.0,,WNW,18.4,290.0,63101.0
St Louis,Clear,1970-01-30 00:00:00,18.0,,-,66.0,,30.31,,Missouri,28.0,,,6:00 PM,,,,,,,15.0,,WNW,11.5,300.0,63101.0
St Louis,Clear,1970-01-30 03:00:00,14.0,,-,63.0,,30.35,,Missouri,25.0,,,9:00 PM,,,,,,,15.0,,WNW,13.8,300.0,63101.0
St Louis,Clear,1970-01-30 06:00:00,12.9,,-,68.0,,30.39,,Missouri,21.9,,,12:00 AM,,,,,,,15.0,,WNW,11.5,290.0,63101.0
St Louis,Clear,1970-01-30 09:00:00,12.9,,-,74.0,,30.38,,Missouri,19.9,,,3:00 AM,,,,,,,15.0,,WSW,5.8,240.0,63101.0
St Louis,Clear,1970-01-30 12:00:00,12.0,,-,60.0,,30.36,,Missouri,24.1,,,6:00 AM,,,,,,,15.0,,SSW,6.9,210.0,63101.0
St Louis,Clear,1970-01-30 15:00:00,14.0,,-,50.0,,30.38,,Missouri,30.9,,,9:00 AM,,,,,,,15.0,,WSW,13.8,250.0,63101.0
St Louis,Clear,1970-01-30 18:00:00,19.0,,-,41.0,,30.34,,Missouri,41.0,,,12:00 PM,,,,,,,15.0,,WSW,13.8,240.0,63101.0
St Louis,Unknown,1970-01-30 21:00:00,19.9,,-,34.0,,30.29,,Missouri,46.9,,,3:00 PM,,,,,,,15.0,,WSW,13.8,250.0,63101.0
St Louis,Unknown,1970-01-31 00:00:00,18.0,,-,46.0,,30.31,,Missouri,37.0,,,6:00 PM,,,,,,,15.0,,WSW,5.8,250.0,63101.0
St Louis,Unknown,1970-01-31 03:00:00,17.1,,-,43.0,,30.33,,Missouri,37.9,,,9:00 PM,,,,,,,15.0,,SW,9.2,220.0,63101.0
St Louis,Unknown,1970-01-31 06:00:00,16.0,,-,44.0,,30.3,,Missouri,36.0,,,12:00 AM,,,,,,,15.0,,SSW,8.1,210.0,63101.0
St Louis,Clear,1970-01-31 09:00:00,17.1,,-,52.0,,30.3,,Missouri,33.1,,,3:00 AM,,,,,,,15.0,,SSW,9.2,210.0,63101.0
St Louis,Clear,1970-01-31 12:00:00,17.1,,-,52.0,,30.26,,Missouri,33.1,,,6:00 AM,,,,,,,15.0,,SSW,8.1,210.0,63101.0
St Louis,Unknown,1970-01-31 15:00:00,17.1,,-,41.0,,30.27,,Missouri,39.0,,,9:00 AM,,,,,,,15.0,,SSW,12.7,200.0,63101.0
St Louis,Unknown,1970-01-31 18:00:00,18.0,,-,23.0,,30.19,,Missouri,55.0,,,12:00 PM,,,,,,,15.0,,SW,17.3,230.0,63101.0
St Louis,Unknown,1970-01-31 21:00:00,17.1,,-,20.0,,30.12,,Missouri,59.0,,,3:00 PM,,,,,,,15.0,,SW,16.1,230.0,63101.0
St Louis,Unknown,1970-02-01 00:00:00,17.1,,-,23.0,,30.09,,Missouri,54.0,,,6:00 PM,,,,,,,15.0,,SSW,15.0,200.0,63101.0
St Louis,Unknown,1970-02-01 03:00:00,17.1,,-,28.0,,30.07,,Missouri,48.9,,,9:00 PM,,,,,,,15.0,,South,9.2,190.0,63101.0
Tulsa,Fog,1970-01-01 06:00:00,19.9,Fog,-,84.0,,30.09,,Oklahoma,24.1,,,12:00 AM,,,,,,,5.5,,South,8.1,170.0,74104.0
Tulsa,Fog,1970-01-01 09:00:00,19.0,Fog,-,89.0,,30.08,,Oklahoma,21.9,,,3:00 AM,,,,,,,0.0,,South,6.9,170.0,74104.0
Tulsa,Fog,1970-01-01 12:00:00,17.1,Fog,-,89.0,,30.03,,Oklahoma,19.9,,,6:00 AM,,,,,,,0.2,,SSW,6.9,200.0,74104.0
Tulsa,Fog,1970-01-01 15:00:00,12.9,Fog,-,81.0,,30.07,,Oklahoma,18.0,,,9:00 AM,,,,,,,3.0,,South,5.8,180.0,74104.0
Tulsa,Unknown,1970-01-01 18:00:00,23.0,,-,85.0,,30.06,,Oklahoma,27.0,,,12:00 PM,,,,,,,7.0,,SW,3.5,230.0,74104.0
Tulsa,Unknown,1970-01-01 21:00:00,28.0,,-,70.0,,30.03,,Oklahoma,37.0,,,3:00 PM,,,,,,,15.0,,SW,8.1,230.0,74104.0
Tulsa,Unknown,1970-01-02 00:00:00,25.0,,-,79.0,,30.06,,Oklahoma,30.9,,,6:00 PM,,,,,,,15.0,,South,8.1,180.0,74104.0
Tulsa,Unknown,1970-01-02 03:00:00,23.0,,-,85.0,,30.14,,Oklahoma,27.0,,,9:00 PM,,,,,,,15.0,,Calm,Calm,0.0,74104.0
Tulsa,Clear,1970-01-03 06:00:00,8.1,,-,68.0,,30.24,,Oklahoma,17.1,,,12:00 AM,,,,,,,15.0,,South,4.6,180.0,74104.0
Tulsa,Clear,1970-01-03 09:00:00,5.0,,-,67.0,,30.25,,Oklahoma,14.0,,,3:00 AM,,,,,,,15.0,,SSE,5.8,160.0,74104.0
Tulsa,Clear,1970-01-03 12:00:00,5.0,,-,67.0,,30.18,,Oklahoma,14.0,,,6:00 AM,,,,,,,15.0,,South,8.1,180.0,74104.0
Tulsa,Clear,1970-01-03 15:00:00,10.9,,-,74.0,,30.19,,Oklahoma,18.0,,,9:00 AM,,,,,,,10.0,,South,8.1,180.0,74104.0
Tulsa,Clear,1970-01-03 18:00:00,21.0,,-,57.0,,30.12,,Oklahoma,35.1,,,12:00 PM,,,,,,,15.0,,SW,12.7,230.0,74104.0
Tulsa,Clear,1970-01-03 21:00:00,24.1,,-,53.0,,30.07,,Oklahoma,39.9,,,3:00 PM,,,,,,,15.0,,SSW,10.4,200.0,74104.0
Tulsa,Unknown,1970-01-04 00:00:00,24.1,,-,64.0,,30.1,,Oklahoma,35.1,,,6:00 PM,,,,,,,15.0,,SW,6.9,220.0,74104.0
Tulsa,Clear,1970-01-04 03:00:00,21.9,,-,66.0,,30.13,,Oklahoma,32.0,,,9:00 PM,,,,,,,15.0,,WSW,8.1,240.0,74104.0
Tulsa,Clear,1970-01-04 06:00:00,19.9,,-,66.0,,30.14,,Oklahoma,30.0,,,12:00 AM,,,,,,,15.0,,Calm,Calm,0.0,74104.0
Tulsa,Clear,1970-01-04 09:00:00,14.0,,-,78.0,,30.14,,Oklahoma,19.9,,,3:00 AM,,,,,,,10.0,,South,5.8,190.0,74104.0
Tulsa,Clear,1970-01-04 12:00:00,10.9,,-,77.0,,30.15,,Oklahoma,17.1,,,6:00 AM,,,,,,,10.0,,South,6.9,180.0,74104.0
Tulsa,Unknown,1970-01-04 15:00:00,15.1,,-,78.0,,30.18,,Oklahoma,21.0,,,9:00 AM,,,,,,,10.0,,South,9.2,180.0,74104.0
Tulsa,Unknown,1970-01-04 18:00:00,21.9,,-,64.0,,30.13,,Oklahoma,33.1,,,12:00 PM,,,,,,,15.0,,South,11.5,180.0,74104.0
Tulsa,Unknown,1970-01-04 21:00:00,26.1,,-,55.0,,30.08,,Oklahoma,41.0,,,3:00 PM,,,,,,,15.0,,South,12.7,180.0,74104.0
Tulsa,Unknown,1970-01-05 00:00:00,24.1,,-,64.0,,30.08,,Oklahoma,35.1,,,6:00 PM,,,,,,,15.0,,South,6.9,180.0,74104.0
Tulsa,Unknown,1970-01-05 03:00:00,19.9,,-,54.0,,30.08,,Oklahoma,35.1,,,9:00 PM,,,,,,,15.0,,South,5.8,170.0,74104.0
Tulsa,Unknown,1970-01-05 06:00:00,23.0,,-,69.0,,30.09,,Oklahoma,32.0,,,12:00 AM,,,,,,,15.0,,South,9.2,170.0,74104.0
Tulsa,Unknown,1970-01-05 09:00:00,21.9,,-,69.0,,30.14,,Oklahoma,30.9,,,3:00 AM,,,,,,,15.0,,South,6.9,170.0,74104.0
Tulsa,Unknown,1970-01-05 12:00:00,25.0,,-,75.0,,30.14,,Oklahoma,32.0,,,6:00 AM,,,,,,,10.0,,South,4.6,190.0,74104.0
Tulsa,Fog,1970-01-05 15:00:00,19.0,Fog,-,75.0,,30.26,,Oklahoma,26.1,,,9:00 AM,,,,,,,6.0,,North,11.5,360.0,74104.0
Tulsa,Snow Grains,1970-01-05 18:00:00,12.9,Fog-Snow,-,71.0,,30.3,,Oklahoma,21.0,,,12:00 PM,,,,,,,4.0,,North,16.1,10.0,74104.0
Tulsa,Snow Grains,1970-01-05 21:00:00,12.0,Fog-Snow,-,71.0,,30.3,,Oklahoma,19.9,,,3:00 PM,,,,,,,5.0,,North,17.3,360.0,74104.0
Tulsa,Light Snow,1970-01-06 00:00:00,12.0,Fog-Snow,-,78.0,,30.37,,Oklahoma,18.0,,,6:00 PM,,,,,,,4.0,,North,13.8,360.0,74104.0
Tulsa,Light Snow,1970-01-06 03:00:00,9.0,Fog-Snow,-,68.0,,30.42,,Oklahoma,18.0,,,9:00 PM,,,,,,,5.0,,North,16.1,360.0,74104.0
Tulsa,Unknown,1970-01-06 06:00:00,3.9,,-,56.0,,30.48,,Oklahoma,17.1,,,12:00 AM,,,,,,,7.0,,North,18.4,10.0,74104.0
Tulsa,Unknown,1970-01-06 09:00:00,1.0,,-,56.0,,30.52,,Oklahoma,14.0,,,3:00 AM,,,,,,,10.0,,North,19.6,360.0,74104.0
Tulsa,Clear,1970-01-06 12:00:00,-2.9,,-,54.0,,30.52,,Oklahoma,10.9,,,6:00 AM,,,,,,,15.0,,North,13.8,350.0,74104.0
Tulsa,Clear,1970-01-06 15:00:00,-2.9,,-,56.0,,30.58,,Oklahoma,10.0,,,9:00 AM,,,,,,,15.0,,North,11.5,360.0,74104.0
Tulsa,Clear,1970-01-06 18:00:00,1.9,,-,46.0,,30.54,,Oklahoma,19.9,,,12:00 PM,,,,,,,15.0,,NNW,12.7,340.0,74104.0
Tulsa,Clear,1970-01-06 21:00:00,5.0,,-,43.0,,30.46,,Oklahoma,25.0,,,3:00 PM,,,,,,,15.0,,North,15.0,350.0,74104.0
Tulsa,Clear,1970-01-07 00:00:00,1.9,,-,40.0,,30.47,,Oklahoma,23.0,,,6:00 PM,,,,,,,15.0,,NNW,5.8,330.0,74104.0
Tulsa,Clear,1970-01-07 03:00:00,1.9,,-,54.0,,30.46,,Oklahoma,16.0,,,9:00 PM,,,,,,,15.0,,Calm,Calm,0.0,74104.0
Tulsa,Clear,1970-01-07 06:00:00,-0.0,,-,56.0,,30.44,,Oklahoma,12.9,,,12:00 AM,,,,,,,15.0,,Calm,Calm,0.0,74104.0
Tulsa,Clear,1970-01-07 09:00:00,-0.0,,-,56.0,,30.44,,Oklahoma,12.9,,,3:00 AM,,,,,,,15.0,,NW,5.8,320.0,74104.0
Tulsa,Clear,1970-01-07 12:00:00,1.0,,-,56.0,,30.45,,Oklahoma,14.0,,,6:00 AM,,,,,,,15.0,,NW,5.8,320.0,74104.0
Tulsa,Clear,1970-01-07 15:00:00,-2.0,,-,53.0,,30.52,,Oklahoma,12.0,,,9:00 AM,,,,,,,15.0,,North,15.0,360.0,74104.0
Tulsa,Clear,1970-01-07 18:00:00,1.0,,-,46.0,,30.48,,Oklahoma,19.0,,,12:00 PM,,,,,,,15.0,,NW,9.2,310.0,74104.0
Tulsa,Unknown,1970-01-07 21:00:00,3.9,,-,41.0,,30.43,,Oklahoma,25.0,,,3:00 PM,,,,,,,15.0,,NNW,8.1,330.0,74104.0
Tulsa,Clear,1970-01-08 00:00:00,1.0,,-,44.0,,30.43,,Oklahoma,19.9,,,6:00 PM,,,,,,,15.0,,North,5.8,360.0,74104.0
Tulsa,Unknown,1970-01-08 03:00:00,-0.0,,-,49.0,,30.46,,Oklahoma,16.0,,,9:00 PM,,,,,,,15.0,,Calm,Calm,0.0,74104.0
Tulsa,Clear,1970-01-08 06:00:00,-2.9,,-,56.0,,30.52,,Oklahoma,10.0,,,12:00 AM,,,,,,,15.0,,North,10.4,10.0,74104.0
Tulsa,Clear,1970-01-08 09:00:00,-8.0,,-,51.0,,30.6,,Oklahoma,7.0,,,3:00 AM,,,,,,,15.0,,North,10.4,350.0,74104.0
Tulsa,Clear,1970-01-08 12:00:00,-9.9,,-,53.0,,30.64,,Oklahoma,3.9,,,6:00 AM,,,,,,,15.0,,North,6.9,360.0,74104.0
Tulsa,Clear,1970-01-08 15:00:00,-9.9,,-,53.0,,30.73,,Oklahoma,3.9,,,9:00 AM,,,,,,,15.0,,North,12.7,350.0,74104.0
Tulsa,Clear,1970-01-08 18:00:00,-8.0,,-,42.0,,30.74,,Oklahoma,10.9,,,12:00 PM,,,,,,,15.0,,NW,9.2,310.0,74104.0
Tulsa,Clear,1970-01-08 21:00:00,-4.0,,-,41.0,,30.69,,Oklahoma,16.0,,,3:00 PM,,,,,,,15.0,,NW,5.8,320.0,74104.0
Tulsa,Unknown,1970-01-09 00:00:00,-5.1,,-,45.0,,30.67,,Oklahoma,12.9,,,6:00 PM,,,,,,,15.0,,NW,4.6,320.0,74104.0
Tulsa,Unknown,1970-01-09 03:00:00,-6.0,,-,48.0,,30.69,,Oklahoma,10.0,,,9:00 PM,,,,,,,15.0,,West,6.9,270.0,74104.0
Tulsa,Clear,1970-01-09 06:00:00,-5.1,,-,53.0,,30.67,,Oklahoma,9.0,,,12:00 AM,,,,,,,15.0,,West,5.8,280.0,74104.0
Tulsa,Clear,1970-01-09 09:00:00,-4.0,,-,56.0,,30.69,,Oklahoma,9.0,,,3:00 AM,,,,,,,15.0,,Calm,Calm,0.0,74104.0
Tulsa,Clear,1970-01-09 12:00:00,-2.9,,-,59.0,,30.67,,Oklahoma,9.0,,,6:00 AM,,,,,,,15.0,,Calm,Calm,0.0,74104.0
Tulsa,Unknown,1970-01-09 15:00:00,-0.9,,-,52.0,,30.66,,Oklahoma,14.0,,,9:00 AM,,,,,,,15.0,,West,5.8,270.0,74104.0
Tulsa,Unknown,1970-01-09 18:00:00,5.0,,-,41.0,,30.61,,Oklahoma,26.1,,,12:00 PM,,,,,,,15.0,,WSW,4.6,240.0,74104.0
Tulsa,Unknown,1970-01-09 21:00:00,10.0,,-,47.0,,30.54,,Oklahoma,28.0,,,3:00 PM,,,,,,,15.0,,South,11.5,170.0,74104.0
Tulsa,Unknown,1970-01-10 00:00:00,8.1,,-,49.0,,30.48,,Oklahoma,25.0,,,6:00 PM,,,,,,,15.0,,South,9.2,180.0,74104.0
Tulsa,Unknown,1970-01-10 03:00:00,5.0,,-,54.0,,30.45,,Oklahoma,19.0,,,9:00 PM,,,,,,,15.0,,South,6.9,180.0,74104.0
Tulsa,Unknown,1970-01-10 06:00:00,5.0,,-,54.0,,30.4,,Oklahoma,19.0,,,12:00 AM,,,,,,,15.0,,South,9.2,180.0,74104.0
Tulsa,Unknown,1970-01-10 09:00:00,10.0,,-,55.0,,30.33,,Oklahoma,24.1,,,3:00 AM,,,,,,,15.0,,South,9.2,170.0,74104.0
Tulsa,Unknown,1970-01-10 12:00:00,10.0,,-,51.0,,30.19,,Oklahoma,26.1,,,6:00 AM,,,,,,,15.0,,South,17.3,170.0,74104.0
Tulsa,Unknown,1970-01-10 15:00:00,12.9,,-,56.0,,30.1,,Oklahoma,27.0,,,9:00 AM,,,,,,,15.0,,SSE,19.6,160.0,74104.0
Tulsa,Unknown,1970-01-10 18:00:00,23.0,,-,66.0,,29.99,,Oklahoma,33.1,,,12:00 PM,,,,,,,15.0,,South,19.6,180.0,74104.0
Tulsa,Unknown,1970-01-10 21:00:00,25.0,,-,67.0,,29.83,,Oklahoma,35.1,,,3:00 PM,,,,,,,15.0,,South,20.7,180.0,74104.0
Tulsa,Unknown,1970-01-11 00:00:00,27.0,,-,72.0,,29.82,,Oklahoma,35.1,,,6:00 PM,,,,,,,15.0,,South,23.0,190.0,74104.0
Tulsa,Fog,1970-01-11 03:00:00,30.0,Fog,-,85.0,,29.77,,Oklahoma,34.0,,,9:00 PM,,,,,,,5.0,,South,23.0,170.0,74104.0
Tulsa,Light Drizzle,1970-01-11 06:00:00,30.9,Fog,-,85.0,,29.75,,Oklahoma,35.1,,,12:00 AM,,,,,,,4.0,,South,15.0,190.0,74104.0
Tulsa,Fog,1970-01-11 09:00:00,30.9,Fog,-,85.0,,29.76,,Oklahoma,35.1,,,3:00 AM,,,,,,,0.8,,South,5.8,180.0,74104.0
Tulsa,Fog,1970-01-11 12:00:00,30.0,Fog,-,85.0,,29.77,,Oklahoma,34.0,,,6:00 AM,,,,,,,0.1,,South,5.8,170.0,74104.0
Tulsa,Fog,1970-01-11 15:00:00,30.0,Fog,-,89.0,,29.85,,Oklahoma,33.1,,,9:00 AM,,,,,,,5.5,,Calm,Calm,0.0,74104.0
Tulsa,Fog,1970-01-11 18:00:00,34.0,Fog,-,86.0,,29.95,,Oklahoma,37.9,,,12:00 PM,,,,,,,5.0,,North,8.1,350.0,74104.0
Tulsa,Unknown,1970-01-11 21:00:00,30.9,,-,79.0,,29.95,,Oklahoma,37.0,,,3:00 PM,,,,,,,7.0,,North,8.1,10.0,74104.0
Tulsa,Unknown,1970-01-12 00:00:00,27.0,,-,72.0,,30.04,,Oklahoma,35.1,,,6:00 PM,,,,,,,7.0,,NNW,9.2,340.0,74104.0
Tulsa,Unknown,1970-01-12 03:00:00,27.0,,-,78.0,,30.07,,Oklahoma,33.1,,,9:00 PM,,,,,,,7.0,,NNE,6.9,20.0,74104.0
Tulsa,Unknown,1970-01-12 06:00:00,24.1,,-,79.0,,30.09,,Oklahoma,30.0,,,12:00 AM,,,,,,,7.0,,NNW,6.9,340.0,74104.0
Tulsa,Unknown,1970-01-12 09:00:00,24.1,,-,79.0,,30.14,,Oklahoma,30.0,,,3:00 AM,,,,,,,8.0,,North,6.9,360.0,74104.0
Tulsa,Unknown,1970-01-12 12:00:00,23.0,,-,75.0,,30.15,,Oklahoma,30.0,,,6:00 AM,,,,,,,8.0,,North,5.8,10.0,74104.0
Tulsa,Unknown,1970-01-12 15:00:00,23.0,,-,75.0,,30.2,,Oklahoma,30.0,,,9:00 AM,,,,,,,7.0,,NE,5.8,50.0,74104.0
Tulsa,Fog,1970-01-12 18:00:00,25.0,Fog,-,75.0,,30.2,,Oklahoma,32.0,,,12:00 PM,,,,,,,5.0,,ENE,6.9,60.0,74104.0
Tulsa,Fog,1970-01-12 21:00:00,25.0,Fog,-,67.0,,30.19,,Oklahoma,35.1,,,3:00 PM,,,,,,,5.0,,NE,6.9,50.0,74104.0
Tulsa,Unknown,1970-01-13 00:00:00,24.1,,-,73.0,,30.23,,Oklahoma,32.0,,,6:00 PM,,,,,,,8.0,,Calm,Calm,0.0,74104.0
Tulsa,Unknown,1970-01-13 03:00:00,21.9,,-,78.0,,30.25,,Oklahoma,28.0,,,9:00 PM,,,,,,,7.0,,Calm,Calm,0.0,74104.0
Tulsa,Unknown,1970-01-13 06:00:00,19.9,,-,81.0,,30.27,,Oklahoma,25.0,,,12:00 AM,,,,,,,8.0,,Calm,Calm,0.0,74104.0
Tulsa,Fog,1970-01-13 09:00:00,18.0,Fog,-,77.0,,30.27,,Oklahoma,24.1,,,3:00 AM,,,,,,,6.0,,Calm,Calm,0.0,74104.0
Tulsa,Fog,1970-01-13 12:00:00,17.1,Fog,-,82.0,,30.27,,Oklahoma,21.9,,,6:00 AM,,,,,,,6.0,,Calm,Calm,0.0,74104.0
Tulsa,Fog,1970-01-13 15:00:00,21.9,Fog,-,84.0,,30.3,,Oklahoma,26.1,,,9:00 AM,,,,,,,2.0,,South,5.8,180.0,74104.0
Tulsa,Drizzle,1970-01-13 18:00:00,28.9,,-,73.0,,30.29,,Oklahoma,37.0,,,12:00 PM,,,,,,,6.0,,South,8.1,180.0,74104.0
Tulsa,Clear,1970-01-13 21:00:00,32.0,,-,67.0,,30.23,,Oklahoma,42.1,,,3:00 PM,,,,,,,8.0,,South,10.4,190.0,74104.0
Tulsa,Unknown,1970-01-14 00:00:00,27.0,,-,72.0,,30.24,,Oklahoma,35.1,,,6:00 PM,,,,,,,8.0,,SSE,9.2,160.0,74104.0
Tulsa,Unknown,1970-01-14 03:00:00,24.1,,-,79.0,,30.23,,Oklahoma,30.0,,,9:00 PM,,,,,,,8.0,,South,6.9,190.0,74104.0
Tulsa,Unknown,1970-01-14 06:00:00,24.1,,-,73.0,,30.22,,Oklahoma,32.0,,,12:00 AM,,,,,,,7.0,,SSE,4.6,160.0,74104.0
Tulsa,Unknown,1970-01-14 09:00:00,21.9,,-,75.0,,30.19,,Oklahoma,28.9,,,3:00 AM,,,,,,,7.0,,South,8.1,170.0,74104.0
Tulsa,Unknown,1970-01-14 12:00:00,23.0,,-,78.0,,30.18,,Oklahoma,28.9,,,6:00 AM,,,,,,,7.0,,South,8.1,170.0,74104.0
Tulsa,Fog,1970-01-14 15:00:00,23.0,Fog,-,78.0,,30.2,,Oklahoma,28.9,,,9:00 AM,,,,,,,6.0,,South,9.2,180.0,74104.0
Tulsa,Unknown,1970-01-14 18:00:00,30.0,,-,65.0,,30.16,,Oklahoma,41.0,,,12:00 PM,,,,,,,7.0,,South,11.5,190.0,74104.0
Tulsa,Unknown,1970-01-14 21:00:00,32.0,,-,60.0,,30.07,,Oklahoma,45.0,,,3:00 PM,,,,,,,10.0,,SSE,10.4,160.0,74104.0
Tulsa,Unknown,1970-01-15 00:00:00,28.0,,-,68.0,,30.05,,Oklahoma,37.9,,,6:00 PM,,,,,,,7.0,,SSE,8.1,150.0,74104.0
Tulsa,Unknown,1970-01-15 03:00:00,26.1,,-,75.0,,30.08,,Oklahoma,33.1,,,9:00 PM,,,,,,,7.0,,WNW,4.6,300.0,74104.0
Tulsa,Clear,1970-01-15 06:00:00,26.1,,-,82.0,,30.08,,Oklahoma,30.9,,,12:00 AM,,,,,,,7.0,,Calm,Calm,0.0,74104.0
Tulsa,Fog,1970-01-15 09:00:00,23.0,Fog,-,96.0,,30.05,,Oklahoma,24.1,,,3:00 AM,,,,,,,0.1,,Calm,Calm,0.0,74104.0
Tulsa,Fog,1970-01-15 12:00:00,19.9,Fog,-,92.0,,30.02,,Oklahoma,21.9,,,6:00 AM,,,,,,,5.0,,Calm,Calm,0.0,74104.0
Tulsa,Fog,1970-01-15 15:00:00,27.0,Fog,-,85.0,,30.03,,Oklahoma,30.9,,,9:00 AM,,,,,,,5.0,,South,8.1,170.0,74104.0
Tulsa,Fog,1970-01-15 18:00:00,37.0,Fog,-,68.0,,30.01,,Oklahoma,46.9,,,12:00 PM,,,,,,,6.0,,South,13.8,170.0,74104.0
Tulsa,Clear,1970-01-15 21:00:00,37.9,,-,59.0,,29.92,,Oklahoma,52.0,,,3:00 PM,,,,,,,8.0,,South,16.1,190.0,74104.0
Tulsa,Unknown,1970-01-16 00:00:00,37.9,,-,71.0,,29.95,,Oklahoma,46.9,,,6:00 PM,,,,,,,8.0,,SSE,11.5,160.0,74104.0
Tulsa,Unknown,1970-01-16 03:00:00,37.0,,-,86.0,,30.0,,Oklahoma,41.0,,,9:00 PM,,,,,,,8.0,,South,9.2,180.0,74104.0
Tulsa,Unknown,1970-01-16 06:00:00,37.0,,-,89.0,,30.03,,Oklahoma,39.9,,,12:00 AM,,,,,,,8.0,,SE,4.6,130.0,74104.0
Tulsa,Unknown,1970-01-16 09:00:00,36.0,,-,96.0,,30.05,,Oklahoma,37.0,,,3:00 AM,,,,,,,7.0,,South,4.6,170.0,74104.0
Tulsa,Fog,1970-01-16 12:00:00,33.1,Fog,-,96.0,,30.08,,Oklahoma,34.0,,,6:00 AM,,,,,,,5.0,,North,4.6,360.0,74104.0
Tulsa,Fog,1970-01-16 15:00:00,36.0,Fog,-,96.0,,30.14,,Oklahoma,37.0,,,9:00 AM,,,,,,,3.0,,Calm,Calm,0.0,74104.0
Tulsa,Fog,1970-01-16 18:00:00,37.9,Fog,-,93.0,,30.19,,Oklahoma,39.9,,,12:00 PM,,,,,,,10.5,,WNW,4.6,290.0,74104.0
Tulsa,Fog,1970-01-16 21:00:00,41.0,Fog,-,80.0,,30.09,,Oklahoma,46.9,,,3:00 PM,,,,,,,3.0,,NE,5.8,40.0,74104.0
Tulsa,Smoke,1970-01-17 00:00:00,39.0,,-,86.0,,30.11,,Oklahoma,43.0,,,6:00 PM,,,,,,,3.0,,North,5.8,350.0,74104.0
Tulsa,Fog,1970-01-17 03:00:00,32.0,Fog,-,82.0,,30.11,,Oklahoma,37.0,,,9:00 PM,,,,,,,4.0,,North,9.2,360.0,74104.0
Tulsa,Fog,1970-01-17 06:00:00,28.9,Fog,-,82.0,,30.08,,Oklahoma,34.0,,,12:00 AM,,,,,,,4.0,,North,5.8,10.0,74104.0
Tulsa,Fog,1970-01-17 09:00:00,28.0,Fog,-,85.0,,30.02,,Oklahoma,32.0,,,3:00 AM,,,,,,,3.0,,North,6.9,360.0,74104.0
Tulsa,Fog,1970-01-17 12:00:00,27.0,Fog,-,88.0,,29.94,,Oklahoma,30.0,,,6:00 AM,,,,,,,3.0,,North,5.8,360.0,74104.0
Tulsa,Fog,1970-01-17 15:00:00,28.9,Fog,-,100.0,,29.95,,Oklahoma,28.9,,,9:00 AM,,,,,,,0.0,,NNE,6.9,20.0,74104.0
Tulsa,Light Freezing Drizzle,1970-01-17 18:00:00,30.0,Fog,-,100.0,,29.96,,Oklahoma,30.0,,,12:00 PM,,,,,,,0.1,,North,11.5,10.0,74104.0
Tulsa,Freezing Rain,1970-01-17 21:00:00,28.0,Fog-Rain,-,100.0,,29.94,,Oklahoma,28.0,,,3:00 PM,,,,,,,3.0,,NNE,17.3,30.0,74104.0
Tulsa,Light Snow,1970-01-18 00:00:00,18.0,Fog-Snow,-,88.0,0.01,30.03,,Oklahoma,21.0,,,6:00 PM,,,,,,,6.0,,North,16.1,10.0,74104.0
Tulsa,Light Snow,1970-01-18 03:00:00,12.9,Fog-Snow,-,88.0,0.01,30.11,,Oklahoma,16.0,,,9:00 PM,,,,,,,2.0,,North,17.3,360.0,74104.0
Tulsa,Light Snow,1970-01-18 06:00:00,10.0,Fog-Snow,-,88.0,0.03,30.18,,Oklahoma,12.9,,,12:00 AM,,,,,,,0.2,,North,13.8,10.0,74104.0
Tulsa,Light Snow,1970-01-18 09:00:00,8.1,Fog-Snow,-,88.0,0.01,30.22,,Oklahoma,10.9,,,3:00 AM,,,,,,,1.0,,North,17.3,10.0,74104.0
Tulsa,Light Snow,1970-01-18 12:00:00,6.1,Fog-Snow,-,88.0,,30.24,,Oklahoma,9.0,,,6:00 AM,,,,,,,4.0,,North,17.3,360.0,74104.0
Tulsa,Unknown,1970-01-18 15:00:00,1.9,,-,83.0,,30.32,,Oklahoma,6.1,,,9:00 AM,,,,,,,8.0,,North,13.8,360.0,74104.0
Tulsa,Unknown,1970-01-18 18:00:00,3.0,,-,80.0,,30.34,,Oklahoma,8.1,,,12:00 PM,,,,,,,10.0,,NNE,19.6,20.0,74104.0
Tulsa,Light Snow,1970-01-18 21:00:00,6.1,Snow,-,81.0,,30.28,,Oklahoma,10.9,,,3:00 PM,,,,,,,8.0,,North,15.0,10.0,74104.0
Tulsa,Unknown,1970-01-19 00:00:00,7.0,,-,80.0,,30.29,,Oklahoma,12.0,,,6:00 PM,,,,,,,15.0,,North,11.5,360.0,74104.0
Tulsa,Unknown,1970-01-19 03:00:00,7.0,,-,84.0,,30.29,,Oklahoma,10.9,,,9:00 PM,,,,,,,10.0,,North,9.2,360.0,74104.0
Tulsa,Unknown,1970-01-19 06:00:00,1.9,,-,87.0,,30.33,,Oklahoma,5.0,,,12:00 AM,,,,,,,10.0,,North,5.8,360.0,74104.0
Tulsa,Clear,1970-01-19 09:00:00,-0.0,,-,87.0,,30.34,,Oklahoma,3.0,,,3:00 AM,,,,,,,10.0,,North,5.8,360.0,74104.0
Tulsa,Unknown,1970-01-19 12:00:00,1.9,,-,87.0,,30.32,,Oklahoma,5.0,,,6:00 AM,,,,,,,10.0,,North,5.8,360.0,74104.0
Tulsa,Unknown,1970-01-19 15:00:00,-0.0,,-,76.0,,30.35,,Oklahoma,6.1,,,9:00 AM,,,,,,,15.0,,NNE,8.1,30.0,74104.0
Tulsa,Unknown,1970-01-19 18:00:00,1.0,,-,67.0,,30.34,,Oklahoma,10.0,,,12:00 PM,,,,,,,15.0,,NNE,6.9,20.0,74104.0
Tulsa,Unknown,1970-01-19 21:00:00,5.0,,-,73.0,,30.25,,Oklahoma,12.0,,,3:00 PM,,,,,,,10.0,,NNE,4.6,20.0,74104.0
Tulsa,Unknown,1970-01-20 00:00:00,5.0,,-,71.0,,30.24,,Oklahoma,12.9,,,6:00 PM,,,,,,,10.0,,Calm,Calm,0.0,74104.0
Tulsa,Unknown,1970-01-20 03:00:00,6.1,,-,74.0,,30.24,,Oklahoma,12.9,,,9:00 PM,,,,,,,10.0,,Calm,Calm,0.0,74104.0
Tulsa,Unknown,1970-01-20 06:00:00,8.1,,-,81.0,,30.24,,Oklahoma,12.9,,,12:00 AM,,,,,,,10.0,,Calm,Calm,0.0,74104.0
Tulsa,Clear,1970-01-20 09:00:00,8.1,,-,84.0,,30.25,,Oklahoma,12.0,,,3:00 AM,,,,,,,10.0,,Calm,Calm,0.0,74104.0
Tulsa,Unknown,1970-01-20 12:00:00,8.1,,-,96.0,,30.26,,Oklahoma,9.0,,,6:00 AM,,,,,,,10.0,,South,3.5,190.0,74104.0
Tulsa,Unknown,1970-01-20 15:00:00,9.0,,-,95.0,,30.32,,Oklahoma,10.0,,,9:00 AM,,,,,,,7.0,,Calm,Calm,0.0,74104.0
Tulsa,Light Snow,1970-01-20 18:00:00,15.1,Snow,-,78.0,,30.38,,Oklahoma,21.0,,,12:00 PM,,,,,,,7.0,,West,5.8,270.0,74104.0
Tulsa,Unknown,1970-01-20 21:00:00,19.0,,-,75.0,,30.37,,Oklahoma,26.1,,,3:00 PM,,,,,,,8.0,,NE,13.8,50.0,74104.0
Tulsa,Unknown,1970-01-21 00:00:00,15.1,,-,75.0,,30.38,,Oklahoma,21.9,,,6:00 PM,,,,,,,8.0,,NE,16.1,40.0,74104.0
Tulsa,Unknown,1970-01-21 03:00:00,12.9,,-,77.0,,30.45,,Oklahoma,19.0,,,9:00 PM,,,,,,,8.0,,NNE,13.8,20.0,74104.0
Tulsa,Unknown,1970-01-21 06:00:00,6.1,,-,65.0,,30.53,,Oklahoma,16.0,,,12:00 AM,,,,,,,8.0,,NE,13.8,40.0,74104.0
Tulsa,Unknown,1970-01-21 09:00:00,5.0,,-,73.0,,30.56,,Oklahoma,12.0,,,3:00 AM,,,,,,,10.0,,NNE,13.8,30.0,74104.0
Tulsa,Unknown,1970-01-21 12:00:00,-0.0,,-,64.0,,30.54,,Oklahoma,10.0,,,6:00 AM,,,,,,,10.0,,NNE,9.2,30.0,74104.0
Tulsa,Unknown,1970-01-21 15:00:00,1.9,,-,70.0,,30.61,,Oklahoma,10.0,,,9:00 AM,,,,,,,10.0,,NE,10.4,40.0,74104.0
Tulsa,Snow,1970-01-21 18:00:00,3.9,Snow,-,76.0,,30.64,,Oklahoma,10.0,,,12:00 PM,,,,,,,0.4,,North,13.8,360.0,74104.0
Tulsa,Light Snow,1970-01-21 21:00:00,5.0,Snow,-,84.0,0.03,30.52,,Oklahoma,9.0,,,3:00 PM,,,,,,,1.0,,ENE,5.8,60.0,74104.0
Tulsa,Fog,1970-01-22 00:00:00,7.0,Fog,-,84.0,,30.47,,Oklahoma,10.9,,,6:00 PM,,,,,,,6.0,,North,4.6,360.0,74104.0
Tulsa,Unknown,1970-01-22 03:00:00,8.1,,-,88.0,,30.47,,Oklahoma,10.9,,,9:00 PM,,,,,,,7.0,,Calm,Calm,0.0,74104.0
Tulsa,Unknown,1970-01-22 06:00:00,10.0,,-,88.0,,30.42,,Oklahoma,12.9,,,12:00 AM,,,,,,,7.0,,South,4.6,180.0,74104.0
Tulsa,Unknown,1970-01-22 09:00:00,10.9,,-,92.0,,30.31,,Oklahoma,12.9,,,3:00 AM,,,,,,,8.0,,South,8.1,180.0,74104.0
Tulsa,Unknown,1970-01-22 12:00:00,17.1,,-,96.0,,30.24,,Oklahoma,18.0,,,6:00 AM,,,,,,,7.0,,South,8.1,180.0,74104.0
Tulsa,Unknown,1970-01-22 15:00:00,19.0,,-,92.0,,30.17,,Oklahoma,21.0,,,9:00 AM,,,,,,,7.0,,South,12.7,170.0,74104.0
Tulsa,Unknown,1970-01-22 18:00:00,21.0,,-,78.0,,30.09,,Oklahoma,27.0,,,12:00 PM,,,,,,,7.0,,SSW,23.0,200.0,74104.0
Tulsa,Unknown,1970-01-22 21:00:00,24.1,,-,79.0,,30.06,,Oklahoma,30.0,,,3:00 PM,,,,,,,8.0,,SW,13.8,230.0,74104.0
Tulsa,Unknown,1970-01-23 00:00:00,25.0,,-,79.0,,30.02,,Oklahoma,30.9,,,6:00 PM,,,,,,,7.0,,SSW,11.5,210.0,74104.0
Tulsa,Unknown,1970-01-23 03:00:00,28.0,,-,82.0,,30.03,,Oklahoma,33.1,,,9:00 PM,,,,,,,7.0,,SW,8.1,230.0,74104.0
Tulsa,Unknown,1970-01-23 06:00:00,28.9,,-,88.0,,30.05,,Oklahoma,32.0,,,12:00 AM,,,,,,,8.0,,West,10.4,260.0,74104.0
Tulsa,Unknown,1970-01-23 09:00:00,26.1,,-,96.0,,30.05,,Oklahoma,27.0,,,3:00 AM,,,,,,,8.0,,South,8.1,180.0,74104.0
Tulsa,Fog,1970-01-23 12:00:00,25.0,Fog,-,96.0,,30.06,,Oklahoma,26.1,,,6:00 AM,,,,,,,5.0,,Calm,Calm,0.0,74104.0
Tulsa,Fog,1970-01-23 15:00:00,25.0,Fog,-,92.0,,30.14,,Oklahoma,27.0,,,9:00 AM,,,,,,,5.0,,Calm,Calm,0.0,74104.0
Tulsa,Unknown,1970-01-23 18:00:00,30.0,,-,70.0,,30.19,,Oklahoma,39.0,,,12:00 PM,,,,,,,10.0,,ENE,4.6,70.0,74104.0
Tulsa,Unknown,1970-01-23 21:00:00,32.0,,-,70.0,,30.17,,Oklahoma,41.0,,,3:00 PM,,,,,,,15.0,,South,6.9,170.0,74104.0
Tulsa,Unknown,1970-01-24 00:00:00,28.9,,-,73.0,,30.16,,Oklahoma,37.0,,,6:00 PM,,,,,,,10.0,,ESE,5.8,120.0,74104.0
Tulsa,Unknown,1970-01-24 03:00:00,27.0,,-,85.0,,30.15,,Oklahoma,30.9,,,9:00 PM,,,,,,,10.0,,South,5.8,170.0,74104.0
Tulsa,Clear,1970-01-24 06:00:00,28.0,,-,92.0,,30.09,,Oklahoma,30.0,,,12:00 AM,,,,,,,7.0,,South,6.9,170.0,74104.0
Tulsa,Unknown,1970-01-24 09:00:00,28.0,,-,92.0,,30.07,,Oklahoma,30.0,,,3:00 AM,,,,,,,7.0,,South,8.1,190.0,74104.0
Tulsa,Clear,1970-01-24 12:00:00,30.0,,-,89.0,,30.04,,Oklahoma,33.1,,,6:00 AM,,,,,,,7.0,,South,13.8,180.0,74104.0
Tulsa,Unknown,1970-01-24 15:00:00,36.0,,-,89.0,,29.99,,Oklahoma,39.0,,,9:00 AM,,,,,,,8.0,,South,12.7,180.0,74104.0
Tulsa,Fog,1970-01-24 18:00:00,39.9,Fog,-,92.0,,29.93,,Oklahoma,42.1,,,12:00 PM,,,,,,,4.0,,South,11.5,180.0,74104.0
Tulsa,Unknown,1970-01-24 21:00:00,42.1,,-,80.0,,29.81,,Oklahoma,48.0,,,3:00 PM,,,,,,,8.0,,South,17.3,190.0,74104.0
Tulsa,Unknown,1970-01-25 00:00:00,41.0,,-,89.0,,29.75,,Oklahoma,44.1,,,6:00 PM,,,,,,,10.0,,South,15.0,180.0,74104.0
Tulsa,Unknown,1970-01-25 03:00:00,39.9,,-,92.0,,29.74,,Oklahoma,42.1,,,9:00 PM,,,,,,,8.0,,South,11.5,180.0,74104.0
Tulsa,Unknown,1970-01-25 06:00:00,45.0,,-,96.0,,29.64,,Oklahoma,46.0,,,12:00 AM,,,,,,,7.0,,South,11.5,180.0,74104.0
Tulsa,Clear,1970-01-25 09:00:00,46.0,,-,93.0,,29.66,,Oklahoma,48.0,,,3:00 AM,,,,,,,10.0,,WSW,6.9,250.0,74104.0
Tulsa,Unknown,1970-01-25 12:00:00,42.1,,-,83.0,,29.72,,Oklahoma,46.9,,,6:00 AM,,,,,,,10.0,,West,8.1,270.0,74104.0
Tulsa,Unknown,1970-01-25 15:00:00,37.0,,-,64.0,,29.82,,Oklahoma,48.9,,,9:00 AM,,,,,,,10.0,,SSW,8.1,210.0,74104.0
Tulsa,Unknown,1970-01-25 18:00:00,33.1,,-,42.0,,29.86,,Oklahoma,55.9,,,12:00 PM,,,,,,,15.0,,NW,6.9,310.0,74104.0
Tulsa,Unknown,1970-01-25 21:00:00,33.1,,-,29.0,,29.85,,Oklahoma,66.0,,,3:00 PM,,,,,,,15.0,,NW,4.6,320.0,74104.0
Tulsa,Clear,1970-01-26 00:00:00,30.0,,-,33.0,,29.88,,Oklahoma,59.0,,,6:00 PM,,,,,,,15.0,,West,5.8,270.0,74104.0
Tulsa,Clear,1970-01-26 03:00:00,30.0,,-,44.0,,29.94,,Oklahoma,51.1,,,9:00 PM,,,,,,,10.0,,West,5.8,270.0,74104.0
Tulsa,Clear,1970-01-26 06:00:00,28.0,,-,46.0,,30.0,,Oklahoma,48.0,,,12:00 AM,,,,,,,10.0,,West,6.9,270.0,74104.0
Tulsa,Clear,1970-01-26 09:00:00,27.0,,-,37.0,,30.02,,Oklahoma,53.1,,,3:00 AM,,,,,,,10.0,,NNW,5.8,330.0,74104.0
Tulsa,Clear,1970-01-26 12:00:00,28.0,,-,73.0,,30.06,,Oklahoma,36.0,,,6:00 AM,,,,,,,10.0,,Calm,Calm,0.0,74104.0
Tulsa,Unknown,1970-01-26 15:00:00,30.9,,-,79.0,,30.15,,Oklahoma,37.0,,,9:00 AM,,,,,,,10.0,,Calm,Calm,0.0,74104.0
Tulsa,Unknown,1970-01-26 18:00:00,36.0,,-,59.0,,30.14,,Oklahoma,50.0,,,12:00 PM,,,,,,,10.0,,ESE,4.6,120.0,74104.0
Tulsa,Unknown,1970-01-26 21:00:00,36.0,,-,41.0,,30.07,,Oklahoma,60.1,,,3:00 PM,,,,,,,10.0,,South,8.1,190.0,74104.0
Tulsa,Unknown,1970-01-27 00:00:00,36.0,,-,49.0,,30.07,,Oklahoma,55.0,,,6:00 PM,,,,,,,10.0,,SE,3.5,140.0,74104.0
Tulsa,Unknown,1970-01-27 03:00:00,37.0,,-,82.0,,30.07,,Oklahoma,42.1,,,9:00 PM,,,,,,,10.0,,South,5.8,180.0,74104.0
Tulsa,Unknown,1970-01-27 06:00:00,36.0,,-,79.0,,30.08,,Oklahoma,42.1,,,12:00 AM,,,,,,,10.0,,NW,3.5,320.0,74104.0
Tulsa,Clear,1970-01-27 09:00:00,32.0,,-,92.0,,30.1,,Oklahoma,34.0,,,3:00 AM,,,,,,,10.0,,Calm,Calm,0.0,74104.0
Tulsa,Clear,1970-01-27 12:00:00,30.9,,-,92.0,,30.05,,Oklahoma,33.1,,,6:00 AM,,,,,,,10.0,,Calm,Calm,0.0,74104.0
Tulsa,Unknown,1970-01-27 15:00:00,35.1,,-,83.0,,30.04,,Oklahoma,39.9,,,9:00 AM,,,,,,,7.0,,SSE,8.1,160.0,74104.0
Tulsa,Unknown,1970-01-27 18:00:00,37.9,,-,47.0,,29.92,,Oklahoma,57.9,,,12:00 PM,,,,,,,10.0,,South,13.8,180.0,74104.0
Tulsa,Unknown,1970-01-27 21:00:00,54.0,,-,65.0,,29.76,,Oklahoma,66.0,,,3:00 PM,,,,,,,10.0,,South,26.5,180.0,74104.0
Tulsa,Unknown,1970-01-28 00:00:00,53.1,,-,70.0,,29.69,,Oklahoma,63.0,,,6:00 PM,,,,,,,10.0,,South,16.1,180.0,74104.0
Tulsa,Unknown,1970-01-28 03:00:00,54.0,,-,83.0,,29.65,,Oklahoma,59.0,,,9:00 PM,,,,,,,10.0,,South,17.3,180.0,74104.0
Tulsa,Unknown,1970-01-28 06:00:00,55.0,,-,87.0,,29.57,,Oklahoma,59.0,,,12:00 AM,,,,,,,10.0,,South,20.7,180.0,74104.0
Tulsa,Unknown,1970-01-28 09:00:00,55.0,,-,81.0,,29.5,,Oklahoma,61.0,,,3:00 AM,,,,,,,10.0,,SSW,27.6,210.0,74104.0
Tulsa,Unknown,1970-01-28 12:00:00,53.1,,-,84.0,,29.52,,Oklahoma,57.9,,,6:00 AM,,,,,,,10.0,,SSW,19.6,200.0,74104.0
Tulsa,Unknown,1970-01-28 15:00:00,52.0,,-,72.0,,29.59,,Oklahoma,61.0,,,9:00 AM,,,,,,,10.0,,SW,23.0,230.0,74104.0
Tulsa,Unknown,1970-01-28 18:00:00,53.1,,-,59.0,,29.61,,Oklahoma,68.0,,,12:00 PM,,,,,,,15.0,,SW,19.6,230.0,74104.0
Tulsa,Unknown,1970-01-28 21:00:00,46.9,,-,45.0,,29.62,,Oklahoma,69.1,,,3:00 PM,,,,,,,15.0,,WSW,16.1,250.0,74104.0
Tulsa,Unknown,1970-01-29 00:00:00,37.9,,-,53.0,,29.74,,Oklahoma,55.0,,,6:00 PM,,,,,,,10.0,,NW,11.5,320.0,74104.0
Tulsa,Unknown,1970-01-29 03:00:00,37.9,,-,66.0,,29.86,,Oklahoma,48.9,,,9:00 PM,,,,,,,10.0,,North,11.5,350.0,74104.0
Tulsa,Unknown,1970-01-29 06:00:00,30.9,,-,60.0,,29.99,,Oklahoma,44.1,,,12:00 AM,,,,,,,10.0,,North,12.7,350.0,74104.0
Tulsa,Unknown,1970-01-29 09:00:00,30.9,,-,70.0,,30.11,,Oklahoma,39.9,,,3:00 AM,,,,,,,10.0,,North,5.8,350.0,74104.0
Tulsa,Unknown,1970-01-29 12:00:00,24.1,,-,64.0,,30.23,,Oklahoma,35.1,,,6:00 AM,,,,,,,15.0,,North,15.0,350.0,74104.0
Tulsa,Unknown,1970-01-29 15:00:00,19.0,,-,56.0,,30.37,,Oklahoma,33.1,,,9:00 AM,,,,,,,15.0,,North,17.3,350.0,74104.0
Tulsa,Clear,1970-01-29 18:00:00,18.0,,-,41.0,,30.43,,Oklahoma,39.9,,,12:00 PM,,,,,,,15.0,,NNW,18.4,340.0,74104.0
Tulsa,Clear,1970-01-29 21:00:00,14.0,,-,30.0,,30.41,,Oklahoma,44.1,,,3:00 PM,,,,,,,15.0,,NNW,11.5,340.0,74104.0
Tulsa,Clear,1970-01-30 00:00:00,12.9,,-,34.0,,30.43,,Oklahoma,39.0,,,6:00 PM,,,,,,,15.0,,North,10.4,350.0,74104.0
Tulsa,Clear,1970-01-30 03:00:00,15.1,,-,50.0,,30.49,,Oklahoma,32.0,,,9:00 PM,,,,,,,15.0,,West,6.9,280.0,74104.0
Tulsa,Clear,1970-01-30 06:00:00,17.1,,-,63.0,,30.5,,Oklahoma,28.0,,,12:00 AM,,,,,,,15.0,,South,5.8,190.0,74104.0
Tulsa,Clear,1970-01-30 09:00:00,19.0,,-,85.0,,30.48,,Oklahoma,23.0,,,3:00 AM,,,,,,,15.0,,SSW,4.6,200.0,74104.0
Tulsa,Clear,1970-01-30 12:00:00,16.0,,-,71.0,,30.48,,Oklahoma,24.1,,,6:00 AM,,,,,,,15.0,,SSW,5.8,200.0,74104.0
Tulsa,Clear,1970-01-30 15:00:00,19.9,,-,61.0,,30.53,,Oklahoma,32.0,,,9:00 AM,,,,,,,15.0,,West,9.2,270.0,74104.0
Tulsa,Clear,1970-01-30 18:00:00,19.0,,-,33.0,,30.53,,Oklahoma,46.9,,,12:00 PM,,,,,,,15.0,,NW,6.9,320.0,74104.0
Tulsa,Clear,1970-01-30 21:00:00,12.9,,-,20.0,,30.42,,Oklahoma,53.1,,,3:00 PM,,,,,,,15.0,,West,13.8,270.0,74104.0
Tulsa,Clear,1970-01-31 00:00:00,10.9,,-,23.0,,30.39,,Oklahoma,46.9,,,6:00 PM,,,,,,,15.0,,WNW,6.9,290.0,74104.0
Tulsa,Clear,1970-01-31 03:00:00,19.0,,-,54.0,,30.39,,Oklahoma,34.0,,,9:00 PM,,,,,,,15.0,,South,8.1,180.0,74104.0
Tulsa,Clear,1970-01-31 06:00:00,19.0,,-,67.0,,30.37,,Oklahoma,28.9,,,12:00 AM,,,,,,,15.0,,South,10.4,180.0,74104.0
Tulsa,Clear,1970-01-31 09:00:00,19.0,,-,64.0,,30.34,,Oklahoma,30.0,,,3:00 AM,,,,,,,15.0,,South,10.4,180.0,74104.0
Tulsa,Clear,1970-01-31 12:00:00,19.0,,-,50.0,,30.3,,Oklahoma,36.0,,,6:00 AM,,,,,,,15.0,,SSW,17.3,200.0,74104.0
Tulsa,Unknown,1970-01-31 15:00:00,19.9,,-,45.0,,30.33,,Oklahoma,39.9,,,9:00 AM,,,,,,,15.0,,SW,15.0,220.0,74104.0
Tulsa,Unknown,1970-01-31 18:00:00,18.0,,-,23.0,,30.29,,Oklahoma,55.0,,,12:00 PM,,,,,,,15.0,,SW,17.3,220.0,74104.0
Tulsa,Unknown,1970-01-31 21:00:00,15.1,,-,19.0,,30.14,,Oklahoma,57.9,,,3:00 PM,,,,,,,15.0,,South,23.0,190.0,74104.0
Tulsa,Unknown,1970-02-01 00:00:00,17.1,,-,27.0,,30.08,,Oklahoma,50.0,,,6:00 PM,,,,,,,15.0,,South,13.8,180.0,74104.0
Tulsa,Unknown,1970-02-01 03:00:00,19.9,,-,34.0,,30.06,,Oklahoma,46.9,,,9:00 PM,,,,,,,15.0,,South,12.7,180.0,74104.0
Washington,Unknown,1970-01-01 05:00:00,24.1,,-,64.0,,30.1,,District of Columbia,35.1,,,,12:00 AM,,,,,,10.0,,NNW,8.1,330.0,20001.0
Washington,Unknown,1970-01-01 06:00:00,23.0,,-,64.0,,30.05,,District of Columbia,34.0,,,,1:00 AM,,,,,,10.0,,North,11.5,360.0,20001.0
Washington,Unknown,1970-01-01 07:00:00,23.0,,-,64.0,,30.11,,District of Columbia,34.0,,,,2:00 AM,,,,,,10.0,,NW,6.9,310.0,20001.0
Washington,Unknown,1970-01-01 08:00:00,23.0,,-,64.0,,30.13,,District of Columbia,34.0,,,,3:00 AM,,,,,,10.0,,NW,3.5,310.0,20001.0
Washington,Unknown,1970-01-01 09:00:00,23.0,,-,66.0,,30.11,,District of Columbia,33.1,,,,4:00 AM,,,,,,10.0,,NNW,8.1,330.0,20001.0
Washington,Unknown,1970-01-01 10:00:00,23.0,,-,69.0,,30.09,,District of Columbia,32.0,,,,5:00 AM,,,,,,10.0,,North,8.1,360.0,20001.0
Washington,Unknown,1970-01-01 11:00:00,23.0,,-,69.0,,30.07,,District of Columbia,32.0,,,,6:00 AM,,,,,,10.0,,North,13.8,10.0,20001.0
Washington,Unknown,1970-01-01 12:00:00,21.0,,-,64.0,,30.08,,District of Columbia,32.0,,,,7:00 AM,,,,,,10.0,,NNE,11.5,20.0,20001.0
Washington,Unknown,1970-01-01 13:00:00,19.0,,-,61.0,,30.08,,District of Columbia,30.9,,,,8:00 AM,,,,,,15.0,,NE,11.5,40.0,20001.0
Washington,Unknown,1970-01-01 14:00:00,18.0,,-,59.0,,30.1,,District of Columbia,30.9,,,,9:00 AM,,,,,,15.0,,NNE,8.1,20.0,20001.0
Washington,Light Snow Showers,1970-01-01 15:00:00,17.1,Snow,-,57.0,,30.13,,District of Columbia,30.9,,,,10:00 AM,,,,,,15.0,,NE,3.5,40.0,20001.0
Washington,Light Snow Showers,1970-01-01 16:00:00,17.1,Snow,-,57.0,,30.12,,District of Columbia,30.9,,,,11:00 AM,,,,,,15.0,,East,4.6,80.0,20001.0
Washington,Unknown,1970-01-01 17:00:00,19.0,,-,59.0,,30.06,,District of Columbia,32.0,,,,12:00 PM,,,,,,15.0,,East,4.6,100.0,20001.0
Washington,Unknown,1970-01-01 18:00:00,19.0,,-,59.0,,30.03,,District of Columbia,32.0,,,,1:00 PM,,,,,,15.0,,NNE,4.6,30.0,20001.0
Washington,Unknown,1970-01-01 19:00:00,19.0,,-,59.0,,30.0,,District of Columbia,32.0,,,,2:00 PM,,,,,,15.0,,ENE,4.6,60.0,20001.0
Washington,Unknown,1970-01-01 20:00:00,19.9,,-,59.0,,30.0,,District of Columbia,33.1,,,,3:00 PM,,,,,,15.0,,ENE,3.5,70.0,20001.0
Washington,Unknown,1970-01-01 21:00:00,19.9,,-,59.0,,30.0,,District of Columbia,33.1,,,,4:00 PM,,,,,,15.0,,Calm,Calm,0.0,20001.0
Washington,Unknown,1970-01-01 22:00:00,19.9,,-,59.0,,30.0,,District of Columbia,33.1,,,,5:00 PM,,,,,,10.0,,NW,4.6,320.0,20001.0
Washington,Unknown,1970-01-01 23:00:00,21.0,,-,64.0,,30.0,,District of Columbia,32.0,,,,6:00 PM,,,,,,10.0,,NNW,6.9,330.0,20001.0
Washington,Unknown,1970-01-02 00:00:00,21.0,,-,61.0,,30.03,,District of Columbia,33.1,,,,7:00 PM,,,,,,10.0,,WNW,3.5,290.0,20001.0
Washington,Unknown,1970-01-02 01:00:00,19.0,,-,61.0,,30.03,,District of Columbia,30.9,,,,8:00 PM,,,,,,10.0,,NW,9.2,320.0,20001.0
Washington,Unknown,1970-01-02 02:00:00,18.0,,-,64.0,,30.03,,District of Columbia,28.9,,,,9:00 PM,,,,,,10.0,,NNW,5.8,330.0,20001.0
Washington,Unknown,1970-01-02 03:00:00,17.1,,-,63.0,,30.04,,District of Columbia,28.0,,,,10:00 PM,,,,,,10.0,,West,6.9,280.0,20001.0
Washington,Clear,1970-01-02 04:00:00,17.1,,-,63.0,,30.03,,District of Columbia,28.0,,,,11:00 PM,,,,,,10.0,,SSW,3.5,210.0,20001.0
Washington,Unknown,1970-01-03 05:00:00,25.0,,-,72.0,,30.07,,District of Columbia,33.1,,,,12:00 AM,,,,,,10.0,,South,9.2,180.0,20001.0
Washington,Unknown,1970-01-03 06:00:00,26.1,,-,75.0,,30.05,,District of Columbia,33.1,,,,1:00 AM,,,,,,10.0,,SSE,4.6,160.0,20001.0
Washington,Unknown,1970-01-03 07:00:00,26.1,,-,75.0,,30.03,,District of Columbia,33.1,,,,2:00 AM,,,,,,10.0,,SSE,4.6,150.0,20001.0
Washington,Unknown,1970-01-03 08:00:00,27.0,,-,75.0,,30.02,,District of Columbia,34.0,,,,3:00 AM,,,,,,10.0,,South,6.9,180.0,20001.0
Washington,Unknown,1970-01-03 09:00:00,28.0,,-,79.0,,30.0,,District of Columbia,34.0,,,,4:00 AM,,,,,,10.0,,South,6.9,180.0,20001.0
Washington,Unknown,1970-01-03 10:00:00,28.0,,-,79.0,,29.98,,District of Columbia,34.0,,,,5:00 AM,,,,,,10.0,,South,8.1,180.0,20001.0
Washington,Light Snow Showers,1970-01-03 11:00:00,28.9,Snow,-,78.0,,29.98,,District of Columbia,35.1,,,,6:00 AM,,,,,,10.0,,South,9.2,180.0,20001.0
Washington,Light Snow,1970-01-03 12:00:00,28.9,Snow,-,82.0,,29.98,,District of Columbia,34.0,,,,7:00 AM,,,,,,3.0,,South,9.2,180.0,20001.0
Washington,Light Snow,1970-01-03 13:00:00,30.0,Snow,-,85.0,0.01,29.98,,District of Columbia,34.0,,,,8:00 AM,,,,,,5.5,,South,9.2,180.0,20001.0
Washington,Light Rain,1970-01-03 14:00:00,30.0,Rain,-,85.0,,29.97,,District of Columbia,34.0,,,,9:00 AM,,,,,,4.0,,South,8.1,180.0,20001.0
Washington,Drizzle,1970-01-03 15:00:00,33.1,,-,83.0,,29.96,,District of Columbia,37.9,,,,10:00 AM,,,,,,5.0,,South,9.2,180.0,20001.0
Washington,Snow Grains,1970-01-03 16:00:00,32.0,Snow,-,82.0,0.01,29.96,,District of Columbia,37.0,,,,11:00 AM,,,,,,1.0,,WNW,10.4,290.0,20001.0
Washington,Light Rain,1970-01-03 17:00:00,32.0,Rain,-,86.0,0.01,29.95,,District of Columbia,36.0,,,,12:00 PM,,,,,,2.0,,West,5.8,280.0,20001.0
Washington,Unknown,1970-01-03 18:00:00,27.0,,-,70.0,0.01,29.94,,District of Columbia,36.0,,,,1:00 PM,,,,,,10.0,,NW,13.8,320.0,20001.0
Washington,Unknown,1970-01-03 19:00:00,21.9,,-,59.0,,29.94,,District of Columbia,35.1,,,,2:00 PM,,,,,,15.0,,NW,17.3,320.0,20001.0
Washington,Unknown,1970-01-03 20:00:00,19.0,,-,50.0,,29.96,,District of Columbia,36.0,,,,3:00 PM,,,,,,15.0,,NW,11.5,320.0,20001.0
Washington,Unknown,1970-01-03 21:00:00,17.1,,-,46.0,,29.97,,District of Columbia,36.0,,,,4:00 PM,,,,,,15.0,,NNW,12.7,340.0,20001.0
Washington,Unknown,1970-01-03 22:00:00,14.0,,-,41.0,,29.99,,District of Columbia,36.0,,,,5:00 PM,,,,,,15.0,,NW,10.4,320.0,20001.0
Washington,Clear,1970-01-03 23:00:00,16.0,,-,50.0,,30.0,,District of Columbia,33.1,,,,6:00 PM,,,,,,15.0,,NW,15.0,320.0,20001.0
Washington,Clear,1970-01-04 00:00:00,15.1,,-,52.0,,30.02,,District of Columbia,30.9,,,,7:00 PM,,,,,,15.0,,NNW,8.1,330.0,20001.0
Washington,Clear,1970-01-04 01:00:00,15.1,,-,52.0,,30.02,,District of Columbia,30.9,,,,8:00 PM,,,,,,15.0,,NW,15.0,320.0,20001.0
Washington,Clear,1970-01-04 02:00:00,14.0,,-,54.0,,30.02,,District of Columbia,28.9,,,,9:00 PM,,,,,,15.0,,NNW,10.4,330.0,20001.0
Washington,Clear,1970-01-04 03:00:00,14.0,,-,56.0,,30.03,,District of Columbia,28.0,,,,10:00 PM,,,,,,15.0,,NNW,9.2,330.0,20001.0
Washington,Clear,1970-01-04 04:00:00,14.0,,-,58.0,,30.03,,District of Columbia,27.0,,,,11:00 PM,,,,,,15.0,,NW,13.8,320.0,20001.0
Washington,Clear,1970-01-04 05:00:00,14.0,,-,58.0,,30.04,,District of Columbia,27.0,,,,12:00 AM,,,,,,10.0,,NW,15.0,320.0,20001.0
Washington,Clear,1970-01-04 06:00:00,12.9,,-,58.0,,30.04,,District of Columbia,26.1,,,,1:00 AM,,,,,,8.0,,NW,12.7,320.0,20001.0
Washington,Clear,1970-01-04 07:00:00,12.9,,-,58.0,,30.06,,District of Columbia,26.1,,,,2:00 AM,,,,,,8.0,,NW,13.8,310.0,20001.0
Washington,Clear,1970-01-04 08:00:00,12.0,,-,58.0,,30.09,,District of Columbia,25.0,,,,3:00 AM,,,,,,8.0,,NW,9.2,320.0,20001.0
Washington,Clear,1970-01-04 09:00:00,12.0,,-,58.0,,30.07,,District of Columbia,25.0,,,,4:00 AM,,,,,,8.0,,NW,17.3,320.0,20001.0
Washington,Clear,1970-01-04 10:00:00,10.9,,-,57.0,,30.08,,District of Columbia,24.1,,,,5:00 AM,,,,,,8.0,,NW,11.5,320.0,20001.0
Washington,Clear,1970-01-04 11:00:00,10.9,,-,57.0,,30.1,,District of Columbia,24.1,,,,6:00 AM,,,,,,8.0,,NW,12.7,320.0,20001.0
Washington,Clear,1970-01-04 12:00:00,10.0,,-,60.0,,30.12,,District of Columbia,21.9,,,,7:00 AM,,,,,,8.0,,NW,10.4,320.0,20001.0
Washington,Clear,1970-01-04 13:00:00,10.0,,-,58.0,,30.16,,District of Columbia,23.0,,,,8:00 AM,,,,,,10.0,,NNW,8.1,330.0,20001.0
Washington,Clear,1970-01-04 14:00:00,10.9,,-,55.0,,30.18,,District of Columbia,25.0,,,,9:00 AM,,,,,,10.0,,NNW,10.4,330.0,20001.0
Washington,Clear,1970-01-04 15:00:00,12.0,,-,51.0,,30.19,,District of Columbia,28.0,,,,10:00 AM,,,,,,10.0,,NNW,10.4,340.0,20001.0
Washington,Clear,1970-01-04 16:00:00,12.0,,-,49.0,,30.2,,District of Columbia,28.9,,,,11:00 AM,,,,,,10.0,,NNW,13.8,330.0,20001.0
Washington,Clear,1970-01-04 17:00:00,12.0,,-,46.0,,30.17,,District of Columbia,30.9,,,,12:00 PM,,,,,,10.0,,WNW,12.7,300.0,20001.0
Washington,Clear,1970-01-04 18:00:00,12.0,,-,44.0,,30.16,,District of Columbia,32.0,,,,1:00 PM,,,,,,10.0,,NW,15.0,310.0,20001.0
Washington,Clear,1970-01-04 19:00:00,12.0,,-,42.0,,30.17,,District of Columbia,33.1,,,,2:00 PM,,,,,,10.0,,WNW,15.0,300.0,20001.0
Washington,Clear,1970-01-04 20:00:00,10.9,,-,42.0,,30.18,,District of Columbia,32.0,,,,3:00 PM,,,,,,10.0,,WNW,16.1,300.0,20001.0
Washington,Clear,1970-01-04 21:00:00,10.9,,-,42.0,,30.2,,District of Columbia,32.0,,,,4:00 PM,,,,,,10.0,,NW,11.5,320.0,20001.0
Washington,Clear,1970-01-04 22:00:00,10.9,,-,47.0,,30.23,,District of Columbia,28.9,,,,5:00 PM,,,,,,10.0,,NNW,10.4,330.0,20001.0
Washington,Clear,1970-01-04 23:00:00,10.0,,-,49.0,,30.25,,District of Columbia,27.0,,,,6:00 PM,,,,,,10.0,,NNW,8.1,340.0,20001.0
Washington,Clear,1970-01-05 00:00:00,10.9,,-,53.0,,30.26,,District of Columbia,26.1,,,,7:00 PM,,,,,,10.0,,North,6.9,360.0,20001.0
Washington,Clear,1970-01-05 01:00:00,10.0,,-,51.0,,30.27,,District of Columbia,26.1,,,,8:00 PM,,,,,,10.0,,NW,5.8,320.0,20001.0
Washington,Clear,1970-01-05 02:00:00,10.9,,-,55.0,,30.29,,District of Columbia,25.0,,,,9:00 PM,,,,,,10.0,,NNW,6.9,330.0,20001.0
Washington,Clear,1970-01-05 03:00:00,10.0,,-,53.0,,30.3,,District of Columbia,25.0,,,,10:00 PM,,,,,,10.0,,North,4.6,350.0,20001.0
Washington,Clear,1970-01-05 04:00:00,12.9,,-,60.0,,30.32,,District of Columbia,25.0,,,,11:00 PM,,,,,,10.0,,SW,3.5,220.0,20001.0
Washington,Clear,1970-01-05 05:00:00,12.9,,-,68.0,,30.32,,District of Columbia,21.9,,,,12:00 AM,,,,,,10.0,,West,3.5,260.0,20001.0
Washington,Smoke,1970-01-05 06:00:00,14.0,,-,72.0,,30.34,,District of Columbia,21.9,,,,1:00 AM,,,,,,6.0,,SW,6.9,220.0,20001.0
Washington,Smoke,1970-01-05 07:00:00,14.0,,-,72.0,,30.37,,District of Columbia,21.9,,,,2:00 AM,,,,,,6.0,,SSW,6.9,210.0,20001.0
Washington,Smoke,1970-01-05 08:00:00,14.0,,-,74.0,,30.38,,District of Columbia,21.0,,,,3:00 AM,,,,,,6.0,,SSW,8.1,210.0,20001.0
Washington,Smoke,1970-01-05 09:00:00,15.1,,-,81.0,,30.36,,District of Columbia,19.9,,,,4:00 AM,,,,,,5.0,,SSW,5.8,210.0,20001.0
Washington,Smoke,1970-01-05 10:00:00,15.1,,-,81.0,,30.35,,District of Columbia,19.9,,,,5:00 AM,,,,,,5.0,,SW,6.9,220.0,20001.0
Washington,Smoke,1970-01-05 11:00:00,15.1,,-,81.0,,30.37,,District of Columbia,19.9,,,,6:00 AM,,,,,,5.0,,SSW,5.8,210.0,20001.0
Washington,Smoke,1970-01-05 12:00:00,16.0,,-,85.0,,30.38,,District of Columbia,19.9,,,,7:00 AM,,,,,,5.0,,SW,6.9,230.0,20001.0
Washington,Smoke,1970-01-05 13:00:00,16.0,,-,81.0,,30.41,,District of Columbia,21.0,,,,8:00 AM,,,,,,4.0,,SSW,5.8,210.0,20001.0
Washington,Smoke,1970-01-05 14:00:00,18.0,,-,77.0,,30.42,,District of Columbia,24.1,,,,9:00 AM,,,,,,5.0,,SSW,6.9,210.0,20001.0
Washington,Smoke,1970-01-05 15:00:00,21.0,,-,78.0,,30.41,,District of Columbia,27.0,,,,10:00 AM,,,,,,6.0,,SSW,8.1,210.0,20001.0
Washington,Smoke,1970-01-05 16:00:00,23.0,,-,69.0,,30.39,,District of Columbia,32.0,,,,11:00 AM,,,,,,6.0,,SSW,10.4,200.0,20001.0
Washington,Unknown,1970-01-05 17:00:00,23.0,,-,55.0,,30.37,,District of Columbia,37.9,,,,12:00 PM,,,,,,8.0,,South,8.1,170.0,20001.0
Washington,Unknown,1970-01-05 18:00:00,24.1,,-,55.0,,30.32,,District of Columbia,39.0,,,,1:00 PM,,,,,,10.0,,South,6.9,170.0,20001.0
Washington,Unknown,1970-01-05 19:00:00,24.1,,-,51.0,,30.31,,District of Columbia,41.0,,,,2:00 PM,,,,,,10.0,,SSE,6.9,160.0,20001.0
Washington,Unknown,1970-01-05 20:00:00,24.1,,-,45.0,,30.3,,District of Columbia,44.1,,,,3:00 PM,,,,,,15.0,,SSW,15.0,200.0,20001.0
Washington,Unknown,1970-01-05 21:00:00,19.9,,-,41.0,,30.28,,District of Columbia,42.1,,,,4:00 PM,,,,,,15.0,,SW,11.5,220.0,20001.0
Washington,Unknown,1970-01-05 22:00:00,19.9,,-,45.0,,30.29,,District of Columbia,39.9,,,,5:00 PM,,,,,,15.0,,South,9.2,190.0,20001.0
Washington,Unknown,1970-01-05 23:00:00,23.0,,-,57.0,,30.28,,District of Columbia,37.0,,,,6:00 PM,,,,,,15.0,,South,8.1,190.0,20001.0
Washington,Unknown,1970-01-06 00:00:00,24.1,,-,64.0,,30.27,,District of Columbia,35.1,,,,7:00 PM,,,,,,15.0,,South,9.2,190.0,20001.0
Washington,Unknown,1970-01-06 01:00:00,23.0,,-,66.0,,30.26,,District of Columbia,33.1,,,,8:00 PM,,,,,,15.0,,South,8.1,190.0,20001.0
Washington,Unknown,1970-01-06 02:00:00,21.9,,-,64.0,,30.25,,District of Columbia,33.1,,,,9:00 PM,,,,,,10.0,,South,9.2,190.0,20001.0
Washington,Unknown,1970-01-06 03:00:00,24.1,,-,59.0,,30.23,,District of Columbia,37.0,,,,10:00 PM,,,,,,10.0,,SSW,11.5,210.0,20001.0
Washington,Unknown,1970-01-06 04:00:00,21.0,,-,57.0,,30.23,,District of Columbia,35.1,,,,11:00 PM,,,,,,10.0,,SW,9.2,220.0,20001.0
Washington,Unknown,1970-01-06 05:00:00,21.0,,-,57.0,,30.21,,District of Columbia,35.1,,,,12:00 AM,,,,,,10.0,,SSW,5.8,210.0,20001.0
Washington,Unknown,1970-01-06 06:00:00,21.0,,-,55.0,,30.21,,District of Columbia,36.0,,,,1:00 AM,,,,,,10.0,,South,4.6,170.0,20001.0
Washington,Unknown,1970-01-06 07:00:00,23.0,,-,61.0,,30.2,,District of Columbia,35.1,,,,2:00 AM,,,,,,10.0,,South,8.1,180.0,20001.0
Washington,Unknown,1970-01-06 08:00:00,23.0,,-,61.0,,30.2,,District of Columbia,35.1,,,,3:00 AM,,,,,,10.0,,South,6.9,180.0,20001.0
Washington,Unknown,1970-01-06 09:00:00,24.1,,-,70.0,,30.19,,District of Columbia,33.1,,,,4:00 AM,,,,,,10.0,,South,4.6,190.0,20001.0
Washington,Unknown,1970-01-06 10:00:00,24.1,,-,70.0,,30.16,,District of Columbia,33.1,,,,5:00 AM,,,,,,10.0,,South,5.8,190.0,20001.0
Washington,Unknown,1970-01-06 11:00:00,24.1,,-,73.0,,30.14,,District of Columbia,32.0,,,,6:00 AM,,,,,,10.0,,South,3.5,180.0,20001.0
Washington,Unknown,1970-01-06 12:00:00,24.1,,-,73.0,,30.14,,District of Columbia,32.0,,,,7:00 AM,,,,,,10.0,,SSW,4.6,210.0,20001.0
Washington,Unknown,1970-01-06 13:00:00,25.0,,-,72.0,,30.15,,District of Columbia,33.1,,,,8:00 AM,,,,,,8.0,,South,5.8,180.0,20001.0
Washington,Unknown,1970-01-06 14:00:00,26.1,,-,73.0,,30.15,,District of Columbia,34.0,,,,9:00 AM,,,,,,8.0,,South,5.8,180.0,20001.0
Washington,Unknown,1970-01-06 15:00:00,25.0,,-,67.0,,30.15,,District of Columbia,35.1,,,,10:00 AM,,,,,,10.0,,Calm,Calm,0.0,20001.0
Washington,Unknown,1970-01-06 16:00:00,25.0,,-,64.0,,30.14,,District of Columbia,36.0,,,,11:00 AM,,,,,,8.0,,South,3.5,180.0,20001.0
Washington,Unknown,1970-01-06 17:00:00,25.0,,-,62.0,,30.1,,District of Columbia,37.0,,,,12:00 PM,,,,,,8.0,,South,6.9,190.0,20001.0
Washington,Unknown,1970-01-06 18:00:00,25.0,,-,62.0,,30.06,,District of Columbia,37.0,,,,1:00 PM,,,,,,8.0,,South,5.8,190.0,20001.0
Washington,Light Rain,1970-01-06 19:00:00,26.1,Rain,-,65.0,,30.04,,District of Columbia,37.0,,,,2:00 PM,,,,,,5.0,,SE,3.5,140.0,20001.0
Washington,Light Rain,1970-01-06 20:00:00,28.0,Rain,-,70.0,,30.01,,District of Columbia,37.0,,,,3:00 PM,,,,,,4.0,,ENE,3.5,70.0,20001.0
Washington,Light Rain,1970-01-06 21:00:00,33.1,Fog-Rain,-,86.0,0.04,29.98,,District of Columbia,37.0,,,,4:00 PM,,,,,,3.0,,ENE,8.1,70.0,20001.0
Washington,Light Rain,1970-01-06 22:00:00,32.0,Fog-Rain-Snow,-,89.0,0.01,29.97,,District of Columbia,35.1,,,,5:00 PM,,,,,,3.0,,ENE,6.9,70.0,20001.0
Washington,Light Snow,1970-01-06 23:00:00,30.9,Fog-Snow,-,89.0,0.03,29.95,,District of Columbia,34.0,,,,6:00 PM,,,,,,10.5,,NE,8.1,40.0,20001.0
Washington,Light Snow,1970-01-07 00:00:00,30.9,Fog-Snow,-,89.0,0.01,29.91,,District of Columbia,34.0,,,,7:00 PM,,,,,,10.5,,NE,8.1,50.0,20001.0
Washington,Light Snow,1970-01-07 01:00:00,30.9,Snow,-,89.0,0.02,29.89,,District of Columbia,34.0,,,,8:00 PM,,,,,,10.5,,NE,8.1,50.0,20001.0
Washington,Light Snow,1970-01-07 02:00:00,30.9,Snow,-,92.0,0.02,29.86,,District of Columbia,33.1,,,,9:00 PM,,,,,,10.5,,NE,9.2,40.0,20001.0
Washington,Light Snow,1970-01-07 03:00:00,30.9,Fog-Snow,-,89.0,0.01,29.84,,District of Columbia,34.0,,,,10:00 PM,,,,,,2.0,,NE,9.2,40.0,20001.0
Washington,Light Snow,1970-01-07 04:00:00,30.9,Fog-Snow,-,92.0,0.01,29.83,,District of Columbia,33.1,,,,11:00 PM,,,,,,2.0,,North,11.5,10.0,20001.0
Washington,Light Snow,1970-01-07 05:00:00,30.9,Snow,-,92.0,,29.83,,District of Columbia,33.1,,,,12:00 AM,,,,,,10.5,,North,9.2,10.0,20001.0
Washington,Light Snow,1970-01-07 06:00:00,30.9,Snow,-,89.0,0.03,29.83,,District of Columbia,34.0,,,,1:00 AM,,,,,,1.0,,North,10.4,360.0,20001.0
Washington,Light Snow,1970-01-07 07:00:00,30.9,Snow,-,89.0,0.01,29.82,,District of Columbia,34.0,,,,2:00 AM,,,,,,5.5,,North,10.4,360.0,20001.0
Washington,Light Snow,1970-01-07 08:00:00,30.0,Snow,-,89.0,0.01,29.82,,District of Columbia,33.1,,,,3:00 AM,,,,,,5.5,,North,11.5,10.0,20001.0
Washington,Light Snow,1970-01-07 09:00:00,30.0,Snow,-,89.0,,29.81,,District of Columbia,33.1,,,,4:00 AM,,,,,,10.5,,North,10.4,10.0,20001.0
Washington,Light Snow,1970-01-07 10:00:00,26.1,Fog-Snow,-,75.0,,29.8,,District of Columbia,33.1,,,,5:00 AM,,,,,,4.0,,NE,16.1,40.0,20001.0
Washington,Light Snow,1970-01-07 11:00:00,25.0,Fog-Snow,-,75.0,,29.8,,District of Columbia,32.0,,,,6:00 AM,,,,,,4.0,,NE,11.5,40.0,20001.0
Washington,Light Snow,1970-01-07 12:00:00,25.0,Fog-Snow,-,82.0,,29.81,,District of Columbia,30.0,,,,7:00 AM,,,,,,5.0,,NNE,13.8,30.0,20001.0
Washington,Light Snow,1970-01-07 13:00:00,25.0,Fog-Snow,-,85.0,,29.85,,District of Columbia,28.9,,,,8:00 AM,,,,,,3.0,,North,13.8,10.0,20001.0
Washington,Light Snow,1970-01-07 14:00:00,24.1,Fog-Snow,-,85.0,0.01,29.87,,District of Columbia,28.0,,,,9:00 AM,,,,,,10.5,,NNE,11.5,20.0,20001.0
Washington,Light Snow,1970-01-07 15:00:00,23.0,Fog-Snow,-,85.0,0.02,29.89,,District of Columbia,27.0,,,,10:00 AM,,,,,,1.0,,North,11.5,10.0,20001.0
Washington,Light Snow,1970-01-07 16:00:00,24.1,Fog-Snow,-,89.0,0.02,29.9,,District of Columbia,27.0,,,,11:00 AM,,,,,,1.0,,NNW,11.5,340.0,20001.0
Washington,Light Snow,1970-01-07 17:00:00,23.0,Fog-Snow,-,85.0,0.01,29.89,,District of Columbia,27.0,,,,12:00 PM,,,,,,2.0,,NNW,11.5,330.0,20001.0
Washington,Light Snow,1970-01-07 18:00:00,24.1,Fog-Snow,-,85.0,0.01,29.87,,District of Columbia,28.0,,,,1:00 PM,,,,,,3.0,,NNW,12.7,330.0,20001.0
Washington,Smoke,1970-01-07 19:00:00,23.0,,-,81.0,,29.86,,District of Columbia,28.0,,,,2:00 PM,,,,,,5.0,,North,11.5,360.0,20001.0
Washington,Unknown,1970-01-07 20:00:00,21.0,,-,72.0,,29.86,,District of Columbia,28.9,,,,3:00 PM,,,,,,8.0,,NNW,8.1,330.0,20001.0
Washington,Unknown,1970-01-07 21:00:00,21.0,,-,72.0,,29.89,,District of Columbia,28.9,,,,4:00 PM,,,,,,8.0,,NNW,12.7,330.0,20001.0
Washington,Unknown,1970-01-07 22:00:00,19.0,,-,69.0,,29.89,,District of Columbia,28.0,,,,5:00 PM,,,,,,7.0,,NNW,13.8,340.0,20001.0
Washington,Unknown,1970-01-07 23:00:00,16.0,,-,63.0,,29.91,,District of Columbia,27.0,,,,6:00 PM,,,,,,7.0,,NW,13.8,320.0,20001.0
Washington,Unknown,1970-01-08 00:00:00,15.1,,-,61.0,,29.94,,District of Columbia,27.0,,,,7:00 PM,,,,,,7.0,,NW,11.5,320.0,20001.0
Washington,Unknown,1970-01-08 01:00:00,12.9,,-,60.0,,29.95,,District of Columbia,25.0,,,,8:00 PM,,,,,,7.0,,NW,13.8,320.0,20001.0
Washington,Unknown,1970-01-08 02:00:00,10.9,,-,60.0,,29.95,,District of Columbia,23.0,,,,9:00 PM,,,,,,7.0,,NW,10.4,320.0,20001.0
Washington,Unknown,1970-01-08 03:00:00,10.0,,-,63.0,,29.97,,District of Columbia,21.0,,,,10:00 PM,,,,,,7.0,,NW,8.1,310.0,20001.0
Washington,Clear,1970-01-08 04:00:00,7.0,,-,59.0,,29.97,,District of Columbia,19.0,,,,11:00 PM,,,,,,10.0,,NW,13.8,320.0,20001.0
Washington,Unknown,1970-01-08 05:00:00,5.0,,-,59.0,,29.99,,District of Columbia,17.1,,,,12:00 AM,,,,,,10.0,,NW,15.0,320.0,20001.0
Washington,Unknown,1970-01-08 06:00:00,5.0,,-,59.0,,29.98,,District of Columbia,17.1,,,,1:00 AM,,,,,,10.0,,WNW,13.8,300.0,20001.0
Washington,Unknown,1970-01-08 07:00:00,1.9,,-,54.0,,30.0,,District of Columbia,16.0,,,,2:00 AM,,,,,,10.0,,NW,15.0,310.0,20001.0
Washington,Unknown,1970-01-08 08:00:00,1.9,,-,56.0,,30.01,,District of Columbia,15.1,,,,3:00 AM,,,,,,10.0,,WNW,15.0,300.0,20001.0
Washington,Unknown,1970-01-08 09:00:00,-0.0,,-,56.0,,30.02,,District of Columbia,12.9,,,,4:00 AM,,,,,,10.0,,NW,18.4,320.0,20001.0
Washington,Unknown,1970-01-08 10:00:00,-2.0,,-,56.0,,30.02,,District of Columbia,10.9,,,,5:00 AM,,,,,,10.0,,NW,16.1,310.0,20001.0
Washington,Unknown,1970-01-08 11:00:00,-4.0,,-,53.0,,30.03,,District of Columbia,10.0,,,,6:00 AM,,,,,,10.0,,NW,16.1,320.0,20001.0
Washington,Unknown,1970-01-08 12:00:00,-5.1,,-,53.0,,30.04,,District of Columbia,9.0,,,,7:00 AM,,,,,,10.0,,WNW,15.0,300.0,20001.0
Washington,Unknown,1970-01-08 13:00:00,-6.0,,-,51.0,,30.06,,District of Columbia,9.0,,,,8:00 AM,,,,,,15.0,,NW,13.8,320.0,20001.0
Washington,Clear,1970-01-08 14:00:00,-13.0,,-,35.0,,30.09,,District of Columbia,10.0,,,,9:00 AM,,,,,,15.0,,WNW,9.2,290.0,20001.0
Washington,Clear,1970-01-08 15:00:00,-18.0,,-,26.0,,30.09,,District of Columbia,10.9,,,,10:00 AM,,,,,,15.0,,West,13.8,270.0,20001.0
Washington,Unknown,1970-01-08 16:00:00,-15.0,,-,29.0,,30.07,,District of Columbia,12.0,,,,11:00 AM,,,,,,15.0,,West,11.5,280.0,20001.0
Washington,Unknown,1970-01-08 17:00:00,-11.0,,-,35.0,,30.02,,District of Columbia,12.0,,,,12:00 PM,,,,,,15.0,,West,15.0,270.0,20001.0
Washington,Unknown,1970-01-08 18:00:00,-9.9,,-,35.0,,30.0,,District of Columbia,12.9,,,,1:00 PM,,,,,,15.0,,West,15.0,270.0,20001.0
Washington,Unknown,1970-01-08 19:00:00,-9.0,,-,34.0,,30.0,,District of Columbia,15.1,,,,2:00 PM,,,,,,15.0,,NW,18.4,310.0,20001.0
Washington,Unknown,1970-01-08 20:00:00,-9.0,,-,32.0,,30.0,,District of Columbia,16.0,,,,3:00 PM,,,,,,15.0,,West,18.4,270.0,20001.0
Washington,Unknown,1970-01-08 21:00:00,-11.0,,-,32.0,,30.02,,District of Columbia,14.0,,,,4:00 PM,,,,,,15.0,,NW,19.6,320.0,20001.0
Washington,Unknown,1970-01-08 22:00:00,-14.1,,-,32.0,,30.04,,District of Columbia,10.9,,,,5:00 PM,,,,,,15.0,,West,16.1,270.0,20001.0
Washington,Clear,1970-01-08 23:00:00,-13.0,,-,35.0,,30.07,,District of Columbia,10.0,,,,6:00 PM,,,,,,15.0,,NW,9.2,310.0,20001.0
Washington,Clear,1970-01-09 00:00:00,-13.0,,-,35.0,,30.09,,District of Columbia,10.0,,,,7:00 PM,,,,,,15.0,,NW,15.0,310.0,20001.0
Washington,Clear,1970-01-09 01:00:00,-14.1,,-,33.0,,30.09,,District of Columbia,10.0,,,,8:00 PM,,,,,,15.0,,West,6.9,280.0,20001.0
Washington,Clear,1970-01-09 02:00:00,-14.1,,-,35.0,,30.09,,District of Columbia,9.0,,,,9:00 PM,,,,,,15.0,,NW,11.5,310.0,20001.0
Washington,Clear,1970-01-09 03:00:00,-14.1,,-,35.0,,30.1,,District of Columbia,9.0,,,,10:00 PM,,,,,,15.0,,West,11.5,260.0,20001.0
Washington,Unknown,1970-01-09 04:00:00,-13.0,,-,36.0,,30.1,,District of Columbia,9.0,,,,11:00 PM,,,,,,15.0,,West,8.1,280.0,20001.0
Washington,Unknown,1970-01-09 05:00:00,-13.0,,-,36.0,,30.11,,District of Columbia,9.0,,,,12:00 AM,,,,,,15.0,,West,13.8,270.0,20001.0
Washington,Unknown,1970-01-09 06:00:00,-11.9,,-,40.0,,30.12,,District of Columbia,8.1,,,,1:00 AM,,,,,,15.0,,WNW,12.7,290.0,20001.0
Washington,Unknown,1970-01-09 07:00:00,-11.9,,-,40.0,,30.14,,District of Columbia,8.1,,,,2:00 AM,,,,,,15.0,,SW,8.1,220.0,20001.0
Washington,Unknown,1970-01-09 08:00:00,-13.0,,-,41.0,,30.15,,District of Columbia,6.1,,,,3:00 AM,,,,,,15.0,,SW,8.1,220.0,20001.0
Washington,Clear,1970-01-09 09:00:00,-13.0,,-,41.0,,30.14,,District of Columbia,6.1,,,,4:00 AM,,,,,,15.0,,South,8.1,190.0,20001.0
Washington,Clear,1970-01-09 10:00:00,-11.0,,-,48.0,,30.14,,District of Columbia,5.0,,,,5:00 AM,,,,,,15.0,,WSW,5.8,240.0,20001.0
Washington,Unknown,1970-01-09 11:00:00,-11.0,,-,45.0,,30.14,,District of Columbia,6.1,,,,6:00 AM,,,,,,15.0,,Calm,Calm,0.0,20001.0
Washington,Unknown,1970-01-09 12:00:00,-9.9,,-,44.0,,30.15,,District of Columbia,8.1,,,,7:00 AM,,,,,,15.0,,West,6.9,280.0,20001.0
Washington,Unknown,1970-01-09 13:00:00,-9.9,,-,44.0,,30.16,,District of Columbia,8.1,,,,8:00 AM,,,,,,15.0,,West,6.9,270.0,20001.0
Washington,Unknown,1970-01-09 14:00:00,-9.9,,-,42.0,,30.18,,District of Columbia,9.0,,,,9:00 AM,,,,,,15.0,,West,6.9,270.0,20001.0
Washington,Unknown,1970-01-09 15:00:00,-9.0,,-,44.0,,30.19,,District of Columbia,9.0,,,,10:00 AM,,,,,,15.0,,SSW,6.9,210.0,20001.0
Washington,Light Snow,1970-01-09 16:00:00,-6.0,Snow,-,48.0,,30.17,,District of Columbia,10.0,,,,11:00 AM,,,,,,3.0,,NNW,11.5,330.0,20001.0
Washington,Light Snow,1970-01-09 17:00:00,-2.9,Snow,-,56.0,,30.13,,District of Columbia,10.0,,,,12:00 PM,,,,,,5.0,,West,13.8,280.0,20001.0
Washington,Unknown,1970-01-09 18:00:00,-4.0,,-,53.0,,30.11,,District of Columbia,10.0,,,,1:00 PM,,,,,,10.0,,NW,16.1,320.0,20001.0
Washington,Unknown,1970-01-09 19:00:00,-5.1,,-,49.0,,30.11,,District of Columbia,10.9,,,,2:00 PM,,,,,,15.0,,West,13.8,270.0,20001.0
Washington,Unknown,1970-01-09 20:00:00,-7.1,,-,46.0,,30.11,,District of Columbia,10.0,,,,3:00 PM,,,,,,15.0,,NW,16.1,310.0,20001.0
Washington,Clear,1970-01-09 21:00:00,-9.0,,-,40.0,,30.12,,District of Columbia,10.9,,,,4:00 PM,,,,,,15.0,,NW,13.8,310.0,20001.0
Washington,Clear,1970-01-09 22:00:00,-11.0,,-,38.0,,30.12,,District of Columbia,10.0,,,,5:00 PM,,,,,,15.0,,West,13.8,280.0,20001.0
Washington,Clear,1970-01-09 23:00:00,-11.0,,-,38.0,,30.14,,District of Columbia,10.0,,,,6:00 PM,,,,,,15.0,,West,13.8,270.0,20001.0
Washington,Unknown,1970-01-10 00:00:00,-9.9,,-,40.0,,30.14,,District of Columbia,10.0,,,,7:00 PM,,,,,,15.0,,NW,13.8,310.0,20001.0
Washington,Unknown,1970-01-10 01:00:00,-9.0,,-,42.0,,30.15,,District of Columbia,10.0,,,,8:00 PM,,,,,,15.0,,WNW,12.7,290.0,20001.0
Washington,Unknown,1970-01-10 02:00:00,-9.0,,-,42.0,,30.16,,District of Columbia,10.0,,,,9:00 PM,,,,,,15.0,,NW,13.8,310.0,20001.0
Washington,Clear,1970-01-10 03:00:00,-9.0,,-,42.0,,30.16,,District of Columbia,10.0,,,,10:00 PM,,,,,,15.0,,WNW,13.8,300.0,20001.0
Washington,Clear,1970-01-10 04:00:00,-9.0,,-,44.0,,30.15,,District of Columbia,9.0,,,,11:00 PM,,,,,,15.0,,NW,16.1,310.0,20001.0
Washington,Clear,1970-01-10 05:00:00,-8.0,,-,46.0,,30.14,,District of Columbia,9.0,,,,12:00 AM,,,,,,15.0,,NW,17.3,310.0,20001.0
Washington,Clear,1970-01-10 06:00:00,-7.1,,-,46.0,,30.14,,District of Columbia,10.0,,,,1:00 AM,,,,,,15.0,,NW,16.1,310.0,20001.0
Washington,Clear,1970-01-10 07:00:00,-7.1,,-,44.0,,30.16,,District of Columbia,10.9,,,,2:00 AM,,,,,,15.0,,NW,13.8,310.0,20001.0
Washington,Clear,1970-01-10 08:00:00,-6.0,,-,47.0,,30.17,,District of Columbia,10.9,,,,3:00 AM,,,,,,15.0,,WNW,13.8,300.0,20001.0
Washington,Clear,1970-01-10 09:00:00,-6.0,,-,47.0,,30.15,,District of Columbia,10.9,,,,4:00 AM,,,,,,15.0,,NW,15.0,310.0,20001.0
Washington,Clear,1970-01-10 10:00:00,-5.1,,-,46.0,,30.15,,District of Columbia,12.0,,,,5:00 AM,,,,,,15.0,,WNW,12.7,290.0,20001.0
Washington,Unknown,1970-01-10 11:00:00,-4.0,,-,45.0,,30.16,,District of Columbia,14.0,,,,6:00 AM,,,,,,15.0,,West,11.5,270.0,20001.0
Washington,Clear,1970-01-10 12:00:00,-2.0,,-,49.0,,30.16,,District of Columbia,14.0,,,,7:00 AM,,,,,,15.0,,West,11.5,280.0,20001.0
Washington,Clear,1970-01-10 13:00:00,-0.9,,-,45.0,,30.17,,District of Columbia,17.1,,,,8:00 AM,,,,,,15.0,,West,13.8,280.0,20001.0
Washington,Clear,1970-01-10 14:00:00,1.0,,-,46.0,,30.18,,District of Columbia,19.0,,,,9:00 AM,,,,,,15.0,,NW,18.4,310.0,20001.0
Washington,Clear,1970-01-10 15:00:00,5.0,,-,48.0,,30.19,,District of Columbia,21.9,,,,10:00 AM,,,,,,15.0,,NW,16.1,310.0,20001.0
Washington,Unknown,1970-01-10 16:00:00,10.9,,-,60.0,,30.18,,District of Columbia,23.0,,,,11:00 AM,,,,,,15.0,,NW,23.0,310.0,20001.0
Washington,Unknown,1970-01-10 17:00:00,7.0,,-,46.0,,30.16,,District of Columbia,25.0,,,,12:00 PM,,,,,,15.0,,NW,18.4,320.0,20001.0
Washington,Clear,1970-01-10 18:00:00,8.1,,-,45.0,,30.15,,District of Columbia,27.0,,,,1:00 PM,,,,,,15.0,,WNW,19.6,300.0,20001.0
Washington,Clear,1970-01-10 19:00:00,8.1,,-,43.0,,30.15,,District of Columbia,28.0,,,,2:00 PM,,,,,,15.0,,WNW,20.7,300.0,20001.0
Washington,Clear,1970-01-10 20:00:00,8.1,,-,43.0,,30.16,,District of Columbia,28.0,,,,3:00 PM,,,,,,15.0,,WNW,16.1,300.0,20001.0
Washington,Clear,1970-01-10 21:00:00,9.0,,-,47.0,,30.17,,District of Columbia,27.0,,,,4:00 PM,,,,,,15.0,,WNW,16.1,290.0,20001.0
Washington,Clear,1970-01-10 22:00:00,8.1,,-,47.0,,30.17,,District of Columbia,26.1,,,,5:00 PM,,,,,,15.0,,West,13.8,280.0,20001.0
Washington,Clear,1970-01-10 23:00:00,8.1,,-,49.0,,30.19,,District of Columbia,25.0,,,,6:00 PM,,,,,,15.0,,WNW,16.1,300.0,20001.0
Washington,Clear,1970-01-11 00:00:00,8.1,,-,49.0,,30.19,,District of Columbia,25.0,,,,7:00 PM,,,,,,15.0,,WNW,11.5,290.0,20001.0
Washington,Clear,1970-01-11 01:00:00,8.1,,-,53.0,,30.19,,District of Columbia,23.0,,,,8:00 PM,,,,,,15.0,,NW,11.5,310.0,20001.0
Washington,Clear,1970-01-11 02:00:00,8.1,,-,53.0,,30.19,,District of Columbia,23.0,,,,9:00 PM,,,,,,15.0,,West,9.2,270.0,20001.0
Washington,Clear,1970-01-11 03:00:00,6.1,,-,51.0,,30.19,,District of Columbia,21.9,,,,10:00 PM,,,,,,15.0,,WNW,11.5,300.0,20001.0
Washington,Clear,1970-01-11 04:00:00,5.0,,-,48.0,,30.19,,District of Columbia,21.9,,,,11:00 PM,,,,,,15.0,,NW,11.5,320.0,20001.0
Washington,Clear,1970-01-11 05:00:00,3.9,,-,48.0,,30.17,,District of Columbia,21.0,,,,12:00 AM,,,,,,15.0,,NW,11.5,320.0,20001.0
Washington,Unknown,1970-01-11 06:00:00,5.0,,-,50.0,,30.16,,District of Columbia,21.0,,,,1:00 AM,,,,,,15.0,,North,5.8,350.0,20001.0
Washington,Unknown,1970-01-11 07:00:00,5.0,,-,52.0,,30.2,,District of Columbia,19.9,,,,2:00 AM,,,,,,15.0,,North,8.1,360.0,20001.0
Washington,Clear,1970-01-11 08:00:00,5.0,,-,54.0,,30.21,,District of Columbia,19.0,,,,3:00 AM,,,,,,15.0,,NNW,5.8,340.0,20001.0
Washington,Clear,1970-01-11 09:00:00,3.9,,-,59.0,,30.18,,District of Columbia,16.0,,,,4:00 AM,,,,,,15.0,,North,6.9,360.0,20001.0
Washington,Clear,1970-01-11 10:00:00,6.1,,-,60.0,,30.17,,District of Columbia,18.0,,,,5:00 AM,,,,,,15.0,,NNW,3.5,330.0,20001.0
Washington,Clear,1970-01-11 11:00:00,7.0,,-,62.0,,30.19,,District of Columbia,18.0,,,,6:00 AM,,,,,,15.0,,WNW,5.8,290.0,20001.0
Washington,Unknown,1970-01-11 12:00:00,6.1,,-,57.0,,30.2,,District of Columbia,19.0,,,,7:00 AM,,,,,,15.0,,WNW,6.9,300.0,20001.0
Washington,Unknown,1970-01-11 13:00:00,5.0,,-,52.0,,30.21,,District of Columbia,19.9,,,,8:00 AM,,,,,,15.0,,NW,5.8,320.0,20001.0
Washington,Unknown,1970-01-11 14:00:00,6.1,,-,51.0,,30.21,,District of Columbia,21.9,,,,9:00 AM,,,,,,15.0,,NW,5.8,320.0,20001.0
Washington,Unknown,1970-01-11 15:00:00,5.0,,-,46.0,,30.21,,District of Columbia,23.0,,,,10:00 AM,,,,,,15.0,,Calm,Calm,0.0,20001.0
Washington,Unknown,1970-01-11 16:00:00,7.0,,-,46.0,,30.2,,District of Columbia,25.0,,,,11:00 AM,,,,,,15.0,,ESE,3.5,110.0,20001.0
Washington,Unknown,1970-01-11 17:00:00,8.1,,-,47.0,,30.16,,District of Columbia,26.1,,,,12:00 PM,,,,,,15.0,,East,3.5,100.0,20001.0
Washington,Unknown,1970-01-11 18:00:00,12.0,,-,53.0,,30.13,,District of Columbia,27.0,,,,1:00 PM,,,,,,15.0,,SSE,3.5,160.0,20001.0
Washington,Unknown,1970-01-11 19:00:00,10.0,,-,49.0,,30.13,,District of Columbia,27.0,,,,2:00 PM,,,,,,15.0,,South,4.6,180.0,20001.0
Washington,Unknown,1970-01-11 20:00:00,10.9,,-,49.0,,30.11,,District of Columbia,28.0,,,,3:00 PM,,,,,,15.0,,SE,3.5,130.0,20001.0
Washington,Unknown,1970-01-11 21:00:00,12.0,,-,51.0,,30.09,,District of Columbia,28.0,,,,4:00 PM,,,,,,15.0,,South,5.8,170.0,20001.0
Washington,Unknown,1970-01-11 22:00:00,12.9,,-,53.0,,30.09,,District of Columbia,28.0,,,,5:00 PM,,,,,,10.0,,South,4.6,190.0,20001.0
Washington,Unknown,1970-01-11 23:00:00,12.9,,-,53.0,,30.07,,District of Columbia,28.0,,,,6:00 PM,,,,,,10.0,,SSW,5.8,210.0,20001.0
Washington,Unknown,1970-01-12 00:00:00,14.0,,-,56.0,,30.07,,District of Columbia,28.0,,,,7:00 PM,,,,,,10.0,,SSW,5.8,210.0,20001.0
Washington,Light Snow,1970-01-12 01:00:00,16.0,Snow,-,61.0,,30.05,,District of Columbia,28.0,,,,8:00 PM,,,,,,5.0,,Calm,Calm,0.0,20001.0
Washington,Unknown,1970-01-12 02:00:00,19.0,,-,72.0,,30.04,,District of Columbia,27.0,,,,9:00 PM,,,,,,7.0,,North,3.5,10.0,20001.0
Washington,Unknown,1970-01-12 03:00:00,18.0,,-,66.0,,30.03,,District of Columbia,28.0,,,,10:00 PM,,,,,,7.0,,SE,5.8,130.0,20001.0
Washington,Unknown,1970-01-12 04:00:00,18.0,,-,66.0,,30.01,,District of Columbia,28.0,,,,11:00 PM,,,,,,7.0,,SE,5.8,130.0,20001.0
Washington,Light Snow,1970-01-12 05:00:00,18.0,Snow,-,66.0,,29.99,,District of Columbia,28.0,,,,12:00 AM,,,,,,7.0,,SE,3.5,140.0,20001.0
Washington,Unknown,1970-01-12 06:00:00,19.0,,-,69.0,,29.97,,District of Columbia,28.0,,,,1:00 AM,,,,,,7.0,,SSE,4.6,160.0,20001.0
Washington,Light Snow,1970-01-12 07:00:00,19.9,Snow,-,72.0,,29.96,,District of Columbia,28.0,,,,2:00 AM,,,,,,6.0,,SSE,3.5,150.0,20001.0
Washington,Light Snow,1970-01-12 08:00:00,21.0,Snow,-,78.0,0.01,29.96,,District of Columbia,27.0,,,,3:00 AM,,,,,,4.0,,SE,3.5,140.0,20001.0
Washington,Light Snow,1970-01-12 09:00:00,23.0,Snow,-,81.0,,29.93,,District of Columbia,28.0,,,,4:00 AM,,,,,,5.0,,SE,4.6,130.0,20001.0
Washington,Light Snow,1970-01-12 10:00:00,24.1,Snow,-,82.0,0.01,29.91,,District of Columbia,28.9,,,,5:00 AM,,,,,,4.0,,SSE,3.5,160.0,20001.0
Washington,Unknown,1970-01-12 11:00:00,25.0,,-,85.0,,29.91,,District of Columbia,28.9,,,,6:00 AM,,,,,,7.0,,Calm,Calm,0.0,20001.0
Washington,Unknown,1970-01-12 12:00:00,25.0,,-,82.0,,29.9,,District of Columbia,30.0,,,,7:00 AM,,,,,,7.0,,North,3.5,360.0,20001.0
Washington,Fog,1970-01-12 13:00:00,26.1,Fog,-,85.0,,29.9,,District of Columbia,30.0,,,,8:00 AM,,,,,,5.0,,ENE,4.6,70.0,20001.0
Washington,Fog,1970-01-12 14:00:00,26.1,Fog,-,85.0,,29.9,,District of Columbia,30.0,,,,9:00 AM,,,,,,5.0,,NE,4.6,40.0,20001.0
Washington,Smoke,1970-01-12 15:00:00,27.0,,-,82.0,,29.92,,District of Columbia,32.0,,,,10:00 AM,,,,,,6.0,,ENE,3.5,70.0,20001.0
Washington,Unknown,1970-01-12 16:00:00,28.0,,-,82.0,,29.92,,District of Columbia,33.1,,,,11:00 AM,,,,,,7.0,,SW,5.8,230.0,20001.0
Washington,Unknown,1970-01-12 17:00:00,28.0,,-,76.0,,29.9,,District of Columbia,35.1,,,,12:00 PM,,,,,,7.0,,SW,5.8,230.0,20001.0
Washington,Unknown,1970-01-12 18:00:00,26.1,,-,67.0,,29.88,,District of Columbia,36.0,,,,1:00 PM,,,,,,7.0,,North,9.2,360.0,20001.0
Washington,Unknown,1970-01-12 19:00:00,25.0,,-,64.0,,29.89,,District of Columbia,36.0,,,,2:00 PM,,,,,,7.0,,NNW,6.9,330.0,20001.0
Washington,Unknown,1970-01-12 20:00:00,25.0,,-,64.0,,29.9,,District of Columbia,36.0,,,,3:00 PM,,,,,,8.0,,North,5.8,10.0,20001.0
Washington,Unknown,1970-01-12 21:00:00,25.0,,-,62.0,,29.92,,District of Columbia,37.0,,,,4:00 PM,,,,,,8.0,,North,9.2,350.0,20001.0
Washington,Unknown,1970-01-12 22:00:00,25.0,,-,64.0,,29.93,,District of Columbia,36.0,,,,5:00 PM,,,,,,8.0,,NNW,8.1,330.0,20001.0
Washington,Unknown,1970-01-12 23:00:00,25.0,,-,64.0,,29.96,,District of Columbia,36.0,,,,6:00 PM,,,,,,8.0,,NNW,6.9,330.0,20001.0
Washington,Unknown,1970-01-13 00:00:00,25.0,,-,64.0,,29.98,,District of Columbia,36.0,,,,7:00 PM,,,,,,8.0,,WNW,5.8,300.0,20001.0
Washington,Unknown,1970-01-13 01:00:00,23.0,,-,59.0,,30.01,,District of Columbia,36.0,,,,8:00 PM,,,,,,8.0,,WNW,8.1,300.0,20001.0
Washington,Unknown,1970-01-13 02:00:00,19.9,,-,54.0,,30.02,,District of Columbia,35.1,,,,9:00 PM,,,,,,8.0,,NW,12.7,320.0,20001.0
Washington,Unknown,1970-01-13 03:00:00,19.0,,-,54.0,,30.05,,District of Columbia,34.0,,,,10:00 PM,,,,,,8.0,,WNW,13.8,300.0,20001.0
Washington,Unknown,1970-01-13 04:00:00,18.0,,-,56.0,,30.06,,District of Columbia,32.0,,,,11:00 PM,,,,,,8.0,,NW,11.5,310.0,20001.0
Washington,Unknown,1970-01-13 05:00:00,17.1,,-,57.0,,30.06,,District of Columbia,30.9,,,,12:00 AM,,,,,,8.0,,NW,11.5,320.0,20001.0
Washington,Unknown,1970-01-13 06:00:00,16.0,,-,56.0,,30.06,,District of Columbia,30.0,,,,1:00 AM,,,,,,8.0,,NNW,8.1,330.0,20001.0
Washington,Unknown,1970-01-13 07:00:00,15.1,,-,56.0,,30.09,,District of Columbia,28.9,,,,2:00 AM,,,,,,8.0,,NW,8.1,320.0,20001.0
Washington,Clear,1970-01-13 08:00:00,15.1,,-,58.0,,30.11,,District of Columbia,28.0,,,,3:00 AM,,,,,,8.0,,NW,9.2,320.0,20001.0
Washington,Clear,1970-01-13 09:00:00,14.0,,-,58.0,,30.1,,District of Columbia,27.0,,,,4:00 AM,,,,,,10.0,,NW,8.1,320.0,20001.0
Washington,Clear,1970-01-13 10:00:00,14.0,,-,58.0,,30.11,,District of Columbia,27.0,,,,5:00 AM,,,,,,10.0,,NW,6.9,310.0,20001.0
Washington,Clear,1970-01-13 11:00:00,14.0,,-,60.0,,30.13,,District of Columbia,26.1,,,,6:00 AM,,,,,,10.0,,WSW,5.8,240.0,20001.0
Washington,Clear,1970-01-13 12:00:00,14.0,,-,63.0,,30.15,,District of Columbia,25.0,,,,7:00 AM,,,,,,8.0,,West,8.1,260.0,20001.0
Washington,Clear,1970-01-13 13:00:00,15.1,,-,58.0,,30.16,,District of Columbia,28.0,,,,8:00 AM,,,,,,10.0,,West,6.9,280.0,20001.0
Washington,Clear,1970-01-13 14:00:00,15.1,,-,52.0,,30.17,,District of Columbia,30.9,,,,9:00 AM,,,,,,10.0,,NW,12.7,310.0,20001.0
Washington,Clear,1970-01-13 15:00:00,16.0,,-,50.0,,30.17,,District of Columbia,33.1,,,,10:00 AM,,,,,,10.0,,NW,12.7,310.0,20001.0
Washington,Clear,1970-01-13 16:00:00,16.0,,-,46.0,,30.18,,District of Columbia,35.1,,,,11:00 AM,,,,,,10.0,,NW,18.4,320.0,20001.0
Washington,Clear,1970-01-13 17:00:00,15.1,,-,44.0,,30.15,,District of Columbia,35.1,,,,12:00 PM,,,,,,10.0,,NW,16.1,310.0,20001.0
Washington,Clear,1970-01-13 18:00:00,14.0,,-,39.0,,30.14,,District of Columbia,37.0,,,,1:00 PM,,,,,,10.0,,WNW,12.7,290.0,20001.0
Washington,Clear,1970-01-13 19:00:00,14.0,,-,38.0,,30.13,,District of Columbia,37.9,,,,2:00 PM,,,,,,15.0,,WNW,11.5,290.0,20001.0
Washington,Clear,1970-01-13 20:00:00,14.0,,-,36.0,,30.13,,District of Columbia,39.0,,,,3:00 PM,,,,,,15.0,,NNW,9.2,330.0,20001.0
Washington,Clear,1970-01-13 21:00:00,14.0,,-,36.0,,30.13,,District of Columbia,39.0,,,,4:00 PM,,,,,,15.0,,West,11.5,280.0,20001.0
Washington,Clear,1970-01-13 22:00:00,12.0,,-,35.0,,30.13,,District of Columbia,37.9,,,,5:00 PM,,,,,,15.0,,West,13.8,280.0,20001.0
Washington,Clear,1970-01-13 23:00:00,10.9,,-,36.0,,30.15,,District of Columbia,36.0,,,,6:00 PM,,,,,,15.0,,WNW,12.7,300.0,20001.0
Washington,Clear,1970-01-14 00:00:00,10.0,,-,35.0,,30.17,,District of Columbia,35.1,,,,7:00 PM,,,,,,15.0,,West,11.5,280.0,20001.0
Washington,Clear,1970-01-14 01:00:00,10.0,,-,35.0,,30.17,,District of Columbia,35.1,,,,8:00 PM,,,,,,15.0,,West,10.4,270.0,20001.0
Washington,Clear,1970-01-14 02:00:00,9.0,,-,35.0,,30.17,,District of Columbia,34.0,,,,9:00 PM,,,,,,15.0,,West,13.8,280.0,20001.0
Washington,Clear,1970-01-14 03:00:00,9.0,,-,35.0,,30.17,,District of Columbia,34.0,,,,10:00 PM,,,,,,15.0,,West,10.4,270.0,20001.0
Washington,Clear,1970-01-14 04:00:00,8.1,,-,37.0,,30.17,,District of Columbia,32.0,,,,11:00 PM,,,,,,15.0,,West,8.1,270.0,20001.0
Washington,Clear,1970-01-14 05:00:00,8.1,,-,40.0,,30.16,,District of Columbia,30.0,,,,12:00 AM,,,,,,15.0,,West,5.8,270.0,20001.0
Washington,Clear,1970-01-14 06:00:00,9.0,,-,40.0,,30.15,,District of Columbia,30.9,,,,1:00 AM,,,,,,15.0,,West,9.2,270.0,20001.0
Washington,Clear,1970-01-14 07:00:00,9.0,,-,47.0,,30.16,,District of Columbia,27.0,,,,2:00 AM,,,,,,15.0,,WSW,5.8,240.0,20001.0
Washington,Clear,1970-01-14 08:00:00,9.0,,-,45.0,,30.18,,District of Columbia,28.0,,,,3:00 AM,,,,,,15.0,,West,4.6,270.0,20001.0
Washington,Clear,1970-01-14 09:00:00,10.9,,-,47.0,,30.17,,District of Columbia,28.9,,,,4:00 AM,,,,,,15.0,,West,6.9,270.0,20001.0
Washington,Clear,1970-01-14 10:00:00,10.0,,-,45.0,,30.17,,District of Columbia,28.9,,,,5:00 AM,,,,,,15.0,,WNW,5.8,300.0,20001.0
Washington,Clear,1970-01-14 11:00:00,10.9,,-,47.0,,30.19,,District of Columbia,28.9,,,,6:00 AM,,,,,,15.0,,North,3.5,350.0,20001.0
Washington,Clear,1970-01-14 12:00:00,10.0,,-,58.0,,30.21,,District of Columbia,23.0,,,,7:00 AM,,,,,,15.0,,NNW,5.8,330.0,20001.0
Washington,Clear,1970-01-14 13:00:00,10.9,,-,51.0,,30.22,,District of Columbia,27.0,,,,8:00 AM,,,,,,10.0,,North,5.8,350.0,20001.0
Washington,Unknown,1970-01-14 14:00:00,12.0,,-,46.0,,30.23,,District of Columbia,30.9,,,,9:00 AM,,,,,,10.0,,NE,4.6,40.0,20001.0
Washington,Unknown,1970-01-14 15:00:00,10.9,,-,42.0,,30.25,,District of Columbia,32.0,,,,10:00 AM,,,,,,10.0,,North,5.8,10.0,20001.0
Washington,Unknown,1970-01-14 16:00:00,12.9,,-,40.0,,30.24,,District of Columbia,35.1,,,,11:00 AM,,,,,,10.0,,NW,9.2,320.0,20001.0
Washington,Unknown,1970-01-14 17:00:00,15.1,,-,41.0,,30.21,,District of Columbia,37.0,,,,12:00 PM,,,,,,10.0,,NNW,11.5,330.0,20001.0
Washington,Unknown,1970-01-14 18:00:00,15.1,,-,41.0,,30.18,,District of Columbia,37.0,,,,1:00 PM,,,,,,10.0,,NNW,8.1,340.0,20001.0
Washington,Unknown,1970-01-14 19:00:00,16.0,,-,39.0,,30.17,,District of Columbia,39.0,,,,2:00 PM,,,,,,10.0,,West,6.9,270.0,20001.0
Washington,Clear,1970-01-14 20:00:00,17.1,,-,38.0,,30.17,,District of Columbia,41.0,,,,3:00 PM,,,,,,15.0,,WSW,8.1,250.0,20001.0
Washington,Unknown,1970-01-14 21:00:00,16.0,,-,38.0,,30.17,,District of Columbia,39.9,,,,4:00 PM,,,,,,15.0,,West,8.1,280.0,20001.0
Washington,Unknown,1970-01-14 22:00:00,16.0,,-,41.0,,30.18,,District of Columbia,37.9,,,,5:00 PM,,,,,,15.0,,West,11.5,280.0,20001.0
Washington,Unknown,1970-01-14 23:00:00,16.0,,-,48.0,,30.19,,District of Columbia,34.0,,,,6:00 PM,,,,,,15.0,,NW,4.6,320.0,20001.0
Washington,Unknown,1970-01-15 00:00:00,17.1,,-,54.0,,30.22,,District of Columbia,32.0,,,,7:00 PM,,,,,,10.0,,NW,5.8,310.0,20001.0
Washington,Unknown,1970-01-15 01:00:00,17.1,,-,57.0,,30.22,,District of Columbia,30.9,,,,8:00 PM,,,,,,10.0,,North,6.9,350.0,20001.0
Washington,Clear,1970-01-15 02:00:00,17.1,,-,59.0,,30.22,,District of Columbia,30.0,,,,9:00 PM,,,,,,10.0,,North,5.8,350.0,20001.0
Washington,Clear,1970-01-15 03:00:00,16.0,,-,54.0,,30.24,,District of Columbia,30.9,,,,10:00 PM,,,,,,10.0,,NNW,5.8,330.0,20001.0
Washington,Clear,1970-01-15 04:00:00,14.0,,-,51.0,,30.26,,District of Columbia,30.0,,,,11:00 PM,,,,,,10.0,,NNW,8.1,330.0,20001.0
Washington,Clear,1970-01-15 05:00:00,14.0,,-,56.0,,30.28,,District of Columbia,28.0,,,,12:00 AM,,,,,,10.0,,NW,8.1,320.0,20001.0
Washington,Clear,1970-01-15 06:00:00,12.0,,-,53.0,,30.28,,District of Columbia,27.0,,,,1:00 AM,,,,,,10.0,,NNW,4.6,330.0,20001.0
Washington,Clear,1970-01-15 07:00:00,10.9,,-,55.0,,30.29,,District of Columbia,25.0,,,,2:00 AM,,,,,,10.0,,NW,6.9,310.0,20001.0
Washington,Clear,1970-01-15 08:00:00,10.0,,-,53.0,,30.3,,District of Columbia,25.0,,,,3:00 AM,,,,,,10.0,,North,6.9,10.0,20001.0
Washington,Clear,1970-01-15 09:00:00,9.0,,-,53.0,,30.3,,District of Columbia,24.1,,,,4:00 AM,,,,,,10.0,,North,8.1,360.0,20001.0
Washington,Clear,1970-01-15 10:00:00,8.1,,-,49.0,,30.29,,District of Columbia,25.0,,,,5:00 AM,,,,,,10.0,,NNW,9.2,340.0,20001.0
Washington,Clear,1970-01-15 11:00:00,8.1,,-,57.0,,30.31,,District of Columbia,21.0,,,,6:00 AM,,,,,,10.0,,NNW,4.6,340.0,20001.0
Washington,Clear,1970-01-15 12:00:00,7.0,,-,48.0,,30.35,,District of Columbia,24.1,,,,7:00 AM,,,,,,10.0,,NE,6.9,40.0,20001.0
Washington,Unknown,1970-01-15 13:00:00,3.9,,-,42.0,,30.37,,District of Columbia,24.1,,,,8:00 AM,,,,,,10.0,,NNE,9.2,20.0,20001.0
Washington,Unknown,1970-01-15 14:00:00,5.0,,-,38.0,,30.41,,District of Columbia,28.0,,,,9:00 AM,,,,,,10.0,,NE,6.9,40.0,20001.0
Washington,Unknown,1970-01-15 15:00:00,5.0,,-,33.0,,30.44,,District of Columbia,30.9,,,,10:00 AM,,,,,,10.0,,NE,5.8,40.0,20001.0
Washington,Unknown,1970-01-15 16:00:00,6.1,,-,32.0,,30.44,,District of Columbia,33.1,,,,11:00 AM,,,,,,10.0,,WSW,4.6,240.0,20001.0
Washington,Unknown,1970-01-15 17:00:00,5.0,,-,28.0,,30.41,,District of Columbia,35.1,,,,12:00 PM,,,,,,10.0,,NNW,6.9,340.0,20001.0
Washington,Unknown,1970-01-15 18:00:00,6.1,,-,28.0,,30.36,,District of Columbia,37.0,,,,1:00 PM,,,,,,10.0,,NNE,4.6,30.0,20001.0
Washington,Unknown,1970-01-15 19:00:00,8.1,,-,30.0,,30.34,,District of Columbia,37.0,,,,2:00 PM,,,,,,10.0,,ENE,5.8,70.0,20001.0
Washington,Unknown,1970-01-15 20:00:00,10.0,,-,33.0,,30.34,,District of Columbia,37.0,,,,3:00 PM,,,,,,10.0,,ENE,6.9,70.0,20001.0
Washington,Unknown,1970-01-15 21:00:00,12.0,,-,39.0,,30.35,,District of Columbia,35.1,,,,4:00 PM,,,,,,10.0,,East,4.6,90.0,20001.0
Washington,Unknown,1970-01-15 22:00:00,12.0,,-,40.0,,30.35,,District of Columbia,34.0,,,,5:00 PM,,,,,,10.0,,NE,4.6,50.0,20001.0
Washington,Unknown,1970-01-15 23:00:00,15.1,,-,50.0,,30.35,,District of Columbia,32.0,,,,6:00 PM,,,,,,10.0,,ENE,8.1,60.0,20001.0
Washington,Unknown,1970-01-16 00:00:00,16.0,,-,54.0,,30.37,,District of Columbia,30.9,,,,7:00 PM,,,,,,10.0,,East,5.8,80.0,20001.0
Washington,Unknown,1970-01-16 01:00:00,14.0,,-,51.0,,30.37,,District of Columbia,30.0,,,,8:00 PM,,,,,,10.0,,SE,3.5,130.0,20001.0
Washington,Unknown,1970-01-16 02:00:00,15.1,,-,54.0,,30.37,,District of Columbia,30.0,,,,9:00 PM,,,,,,10.0,,SSE,3.5,150.0,20001.0
Washington,Unknown,1970-01-16 03:00:00,15.1,,-,56.0,,30.37,,District of Columbia,28.9,,,,10:00 PM,,,,,,10.0,,East,4.6,100.0,20001.0
Washington,Unknown,1970-01-16 04:00:00,14.0,,-,56.0,,30.38,,District of Columbia,28.0,,,,11:00 PM,,,,,,10.0,,East,4.6,100.0,20001.0
Washington,Unknown,1970-01-16 05:00:00,14.0,,-,56.0,,30.37,,District of Columbia,28.0,,,,12:00 AM,,,,,,10.0,,East,4.6,100.0,20001.0
Washington,Unknown,1970-01-16 06:00:00,14.0,,-,58.0,,30.36,,District of Columbia,27.0,,,,1:00 AM,,,,,,10.0,,Calm,Calm,0.0,20001.0
Washington,Unknown,1970-01-16 07:00:00,15.1,,-,66.0,,30.36,,District of Columbia,25.0,,,,2:00 AM,,,,,,10.0,,Calm,Calm,0.0,20001.0
Washington,Unknown,1970-01-16 08:00:00,14.0,,-,65.0,,30.36,,District of Columbia,24.1,,,,3:00 AM,,,,,,10.0,,SSW,3.5,210.0,20001.0
Washington,Unknown,1970-01-16 09:00:00,15.1,,-,66.0,,30.36,,District of Columbia,25.0,,,,4:00 AM,,,,,,10.0,,Calm,Calm,0.0,20001.0
Washington,Unknown,1970-01-16 10:00:00,16.0,,-,71.0,,30.35,,District of Columbia,24.1,,,,5:00 AM,,,,,,10.0,,Calm,Calm,0.0,20001.0
Washington,Unknown,1970-01-16 11:00:00,16.0,,-,78.0,,30.35,,District of Columbia,21.9,,,,6:00 AM,,,,,,8.0,,South,3.5,190.0,20001.0
Washington,Unknown,1970-01-16 12:00:00,16.0,,-,81.0,,30.35,,District of Columbia,21.0,,,,7:00 AM,,,,,,8.0,,SSW,3.5,210.0,20001.0
Washington,Smoke,1970-01-16 13:00:00,16.0,,-,74.0,,30.36,,District of Columbia,23.0,,,,8:00 AM,,,,,,6.0,,Calm,Calm,0.0,20001.0
Washington,Smoke,1970-01-16 14:00:00,19.9,,-,75.0,,30.36,,District of Columbia,27.0,,,,9:00 AM,,,,,,6.0,,South,5.8,180.0,20001.0
Washington,Smoke,1970-01-16 15:00:00,19.9,,-,64.0,,30.37,,District of Columbia,30.9,,,,10:00 AM,,,,,,6.0,,South,5.8,170.0,20001.0
Washington,Clear,1970-01-16 16:00:00,19.9,,-,59.0,,30.36,,District of Columbia,33.1,,,,11:00 AM,,,,,,8.0,,SSE,5.8,160.0,20001.0
Washington,Clear,1970-01-16 17:00:00,19.9,,-,50.0,,30.31,,District of Columbia,37.0,,,,12:00 PM,,,,,,8.0,,SSE,5.8,160.0,20001.0
Washington,Unknown,1970-01-16 18:00:00,21.0,,-,43.0,,30.27,,District of Columbia,42.1,,,,1:00 PM,,,,,,8.0,,SSW,8.1,210.0,20001.0
Washington,Unknown,1970-01-16 19:00:00,19.9,,-,38.0,,30.26,,District of Columbia,44.1,,,,2:00 PM,,,,,,8.0,,South,9.2,190.0,20001.0
Washington,Unknown,1970-01-16 20:00:00,19.9,,-,37.0,,30.24,,District of Columbia,45.0,,,,3:00 PM,,,,,,8.0,,South,6.9,180.0,20001.0
Washington,Unknown,1970-01-16 21:00:00,21.0,,-,40.0,,30.23,,District of Columbia,44.1,,,,4:00 PM,,,,,,8.0,,South,6.9,180.0,20001.0
Washington,Unknown,1970-01-16 22:00:00,19.9,,-,46.0,,30.21,,District of Columbia,39.0,,,,5:00 PM,,,,,,8.0,,South,8.1,180.0,20001.0
Washington,Unknown,1970-01-16 23:00:00,23.0,,-,51.0,,30.21,,District of Columbia,39.9,,,,6:00 PM,,,,,,8.0,,South,3.5,170.0,20001.0
Washington,Unknown,1970-01-17 00:00:00,21.0,,-,51.0,,30.21,,District of Columbia,37.9,,,,7:00 PM,,,,,,8.0,,SSW,4.6,200.0,20001.0
Washington,Unknown,1970-01-17 01:00:00,23.0,,-,64.0,,30.2,,District of Columbia,34.0,,,,8:00 PM,,,,,,7.0,,South,6.9,190.0,20001.0
Washington,Unknown,1970-01-17 02:00:00,25.0,,-,70.0,,30.22,,District of Columbia,34.0,,,,9:00 PM,,,,,,7.0,,Calm,Calm,0.0,20001.0
Washington,Smoke,1970-01-17 03:00:00,25.0,,-,72.0,,30.2,,District of Columbia,33.1,,,,10:00 PM,,,,,,6.0,,South,8.1,190.0,20001.0
Washington,Smoke,1970-01-17 04:00:00,26.1,,-,75.0,,30.2,,District of Columbia,33.1,,,,11:00 PM,,,,,,5.0,,South,4.6,180.0,20001.0
Washington,Smoke,1970-01-17 05:00:00,26.1,,-,79.0,,30.18,,District of Columbia,32.0,,,,12:00 AM,,,,,,6.0,,South,9.2,190.0,20001.0
Washington,Smoke,1970-01-17 06:00:00,26.1,,-,79.0,,30.16,,District of Columbia,32.0,,,,1:00 AM,,,,,,6.0,,SSW,8.1,200.0,20001.0
Washington,Unknown,1970-01-17 07:00:00,26.1,,-,79.0,,30.16,,District of Columbia,32.0,,,,2:00 AM,,,,,,7.0,,SW,4.6,220.0,20001.0
Washington,Unknown,1970-01-17 08:00:00,24.1,,-,82.0,,30.16,,District of Columbia,28.9,,,,3:00 AM,,,,,,7.0,,Calm,Calm,0.0,20001.0
Washington,Smoke,1970-01-17 09:00:00,23.0,,-,85.0,,30.14,,District of Columbia,27.0,,,,4:00 AM,,,,,,5.0,,SSW,5.8,210.0,20001.0
Washington,Smoke,1970-01-17 10:00:00,24.1,,-,79.0,,30.13,,District of Columbia,30.0,,,,5:00 AM,,,,,,5.0,,SSW,5.8,210.0,20001.0
Washington,Smoke,1970-01-17 11:00:00,25.0,,-,82.0,,30.12,,District of Columbia,30.0,,,,6:00 AM,,,,,,6.0,,SSW,4.6,210.0,20001.0
Washington,Smoke,1970-01-17 12:00:00,25.0,,-,79.0,,30.11,,District of Columbia,30.9,,,,7:00 AM,,,,,,6.0,,SSW,4.6,210.0,20001.0
Washington,Unknown,1970-01-17 13:00:00,25.0,,-,72.0,,30.1,,District of Columbia,33.1,,,,8:00 AM,,,,,,7.0,,SSW,4.6,210.0,20001.0
Washington,Unknown,1970-01-17 14:00:00,28.0,,-,70.0,,30.1,,District of Columbia,37.0,,,,9:00 AM,,,,,,7.0,,South,6.9,190.0,20001.0
Washington,Unknown,1970-01-17 15:00:00,27.0,,-,57.0,,30.1,,District of Columbia,41.0,,,,10:00 AM,,,,,,7.0,,South,5.8,180.0,20001.0
Washington,Unknown,1970-01-17 16:00:00,26.1,,-,51.0,,30.08,,District of Columbia,43.0,,,,11:00 AM,,,,,,8.0,,South,9.2,170.0,20001.0
Washington,Unknown,1970-01-17 17:00:00,27.0,,-,47.0,,30.04,,District of Columbia,46.0,,,,12:00 PM,,,,,,10.0,,South,8.1,190.0,20001.0
Washington,Unknown,1970-01-17 18:00:00,27.0,,-,44.0,,30.01,,District of Columbia,48.0,,,,1:00 PM,,,,,,10.0,,SSW,9.2,210.0,20001.0
Washington,Unknown,1970-01-17 19:00:00,27.0,,-,43.0,,29.97,,District of Columbia,48.9,,,,2:00 PM,,,,,,10.0,,SSW,5.8,200.0,20001.0
Washington,Light Rain,1970-01-17 20:00:00,27.0,Rain,-,46.0,,29.97,,District of Columbia,46.9,,,,3:00 PM,,,,,,10.0,,SSW,5.8,200.0,20001.0
Washington,Light Rain,1970-01-17 21:00:00,30.0,Rain,-,56.0,,29.96,,District of Columbia,45.0,,,,4:00 PM,,,,,,8.0,,Calm,Calm,0.0,20001.0
Washington,Light Rain,1970-01-17 22:00:00,30.0,Rain,-,58.0,,29.96,,District of Columbia,44.1,,,,5:00 PM,,,,,,8.0,,Calm,Calm,0.0,20001.0
Washington,Light Rain,1970-01-17 23:00:00,32.0,Rain,-,67.0,0.01,29.94,,District of Columbia,42.1,,,,6:00 PM,,,,,,6.0,,SSW,4.6,200.0,20001.0
Washington,Light Rain,1970-01-18 00:00:00,35.1,Rain,-,71.0,0.05,29.95,,District of Columbia,44.1,,,,7:00 PM,,,,,,4.0,,SSE,4.6,150.0,20001.0
Washington,Light Rain,1970-01-18 01:00:00,36.0,Fog-Rain,-,82.0,0.05,29.92,,District of Columbia,41.0,,,,8:00 PM,,,,,,4.0,,Calm,Calm,0.0,20001.0
Washington,Rain,1970-01-18 02:00:00,36.0,Fog-Rain,-,86.0,0.14,29.9,,District of Columbia,39.9,,,,9:00 PM,,,,,,3.0,,SSE,3.5,150.0,20001.0
Washington,Rain,1970-01-18 03:00:00,36.0,Fog-Rain,-,86.0,0.08,29.88,,District of Columbia,39.9,,,,10:00 PM,,,,,,2.0,,SSW,3.5,200.0,20001.0
Washington,Light Rain,1970-01-18 04:00:00,37.0,Fog-Rain,-,86.0,0.1,29.87,,District of Columbia,41.0,,,,11:00 PM,,,,,,5.5,,South,3.5,190.0,20001.0
Washington,Rain,1970-01-18 05:00:00,36.0,Fog-Rain,-,93.0,0.08,29.83,,District of Columbia,37.9,,,,12:00 AM,,,,,,0.2,,ENE,4.6,70.0,20001.0
Washington,Light Rain,1970-01-18 06:00:00,37.9,Fog-Rain,-,89.0,0.1,29.8,,District of Columbia,41.0,,,,1:00 AM,,,,,,0.5,,Calm,Calm,0.0,20001.0
Washington,Light Rain,1970-01-18 07:00:00,37.0,Fog-Rain,-,89.0,0.01,29.78,,District of Columbia,39.9,,,,2:00 AM,,,,,,0.2,,Calm,Calm,0.0,20001.0
Washington,Light Rain,1970-01-18 08:00:00,37.9,Fog-Rain,-,89.0,0.01,29.78,,District of Columbia,41.0,,,,3:00 AM,,,,,,0.5,,Calm,Calm,0.0,20001.0
Washington,Fog,1970-01-18 09:00:00,37.0,Fog,-,89.0,,29.76,,District of Columbia,39.9,,,,4:00 AM,,,,,,3.0,,NNW,5.8,340.0,20001.0
Washington,Fog,1970-01-18 10:00:00,37.9,Fog,-,89.0,,29.74,,District of Columbia,41.0,,,,5:00 AM,,,,,,3.0,,NNW,5.8,330.0,20001.0
Washington,Fog,1970-01-18 11:00:00,37.9,Fog,-,93.0,,29.73,,District of Columbia,39.9,,,,6:00 AM,,,,,,0.5,,NNW,3.5,330.0,20001.0
Washington,Fog,1970-01-18 12:00:00,36.0,Fog,-,93.0,,29.74,,District of Columbia,37.9,,,,7:00 AM,,,,,,1.0,,Calm,Calm,0.0,20001.0
Washington,Fog,1970-01-18 13:00:00,34.0,Fog,-,89.0,,29.75,,District of Columbia,37.0,,,,8:00 AM,,,,,,5.5,,NE,3.5,50.0,20001.0
Washington,Fog,1970-01-18 14:00:00,37.0,Fog,-,93.0,,29.76,,District of Columbia,39.0,,,,9:00 AM,,,,,,0.1,,SE,3.5,140.0,20001.0
Washington,Fog,1970-01-18 15:00:00,37.9,Fog,-,93.0,,29.77,,District of Columbia,39.9,,,,10:00 AM,,,,,,0.1,,East,3.5,80.0,20001.0
Washington,Unknown,1970-01-18 16:00:00,43.0,,-,93.0,,29.78,,District of Columbia,45.0,,,,11:00 AM,,,,,,7.0,,NE,3.5,50.0,20001.0
Washington,Unknown,1970-01-18 17:00:00,42.1,,-,74.0,,29.76,,District of Columbia,50.0,,,,12:00 PM,,,,,,10.0,,NNW,13.8,330.0,20001.0
Washington,Unknown,1970-01-18 18:00:00,37.9,,-,66.0,,29.75,,District of Columbia,48.9,,,,1:00 PM,,,,,,10.0,,NW,13.8,320.0,20001.0
Washington,Unknown,1970-01-18 19:00:00,34.0,,-,58.0,,29.75,,District of Columbia,48.0,,,,2:00 PM,,,,,,10.0,,NNW,17.3,330.0,20001.0
Washington,Unknown,1970-01-18 20:00:00,33.1,,-,61.0,,29.79,,District of Columbia,46.0,,,,3:00 PM,,,,,,10.0,,NNW,13.8,330.0,20001.0
Washington,Unknown,1970-01-18 21:00:00,30.9,,-,62.0,,29.83,,District of Columbia,43.0,,,,4:00 PM,,,,,,10.0,,NNW,15.0,330.0,20001.0
Washington,Light Rain,1970-01-18 22:00:00,30.0,Rain,-,65.0,,29.86,,District of Columbia,41.0,,,,5:00 PM,,,,,,8.0,,NNW,17.3,330.0,20001.0
Washington,Light Rain,1970-01-18 23:00:00,32.0,Rain,-,79.0,0.01,29.9,,District of Columbia,37.9,,,,6:00 PM,,,,,,8.0,,NNE,9.2,20.0,20001.0
Washington,Unknown,1970-01-19 00:00:00,28.9,,-,73.0,,29.92,,District of Columbia,37.0,,,,7:00 PM,,,,,,10.0,,NNE,15.0,20.0,20001.0
Washington,Unknown,1970-01-19 01:00:00,26.1,,-,67.0,,29.94,,District of Columbia,36.0,,,,8:00 PM,,,,,,10.0,,NNE,12.7,20.0,20001.0
Washington,Unknown,1970-01-19 02:00:00,24.1,,-,62.0,,29.96,,District of Columbia,36.0,,,,9:00 PM,,,,,,10.0,,NNE,10.4,20.0,20001.0
Washington,Unknown,1970-01-19 03:00:00,24.1,,-,64.0,,30.0,,District of Columbia,35.1,,,,10:00 PM,,,,,,15.0,,North,10.4,350.0,20001.0
Washington,Unknown,1970-01-19 04:00:00,21.0,,-,59.0,,30.01,,District of Columbia,34.0,,,,11:00 PM,,,,,,15.0,,North,16.1,350.0,20001.0
Washington,Unknown,1970-01-19 05:00:00,17.1,,-,54.0,,30.02,,District of Columbia,32.0,,,,12:00 AM,,,,,,10.0,,North,11.5,10.0,20001.0
Washington,Unknown,1970-01-19 06:00:00,16.0,,-,56.0,,30.02,,District of Columbia,30.0,,,,1:00 AM,,,,,,15.0,,North,13.8,10.0,20001.0
Washington,Unknown,1970-01-19 07:00:00,15.1,,-,58.0,,30.05,,District of Columbia,28.0,,,,2:00 AM,,,,,,15.0,,North,18.4,360.0,20001.0
Washington,Unknown,1970-01-19 08:00:00,10.0,,-,51.0,,30.07,,District of Columbia,26.1,,,,3:00 AM,,,,,,15.0,,North,18.4,350.0,20001.0
Washington,Unknown,1970-01-19 09:00:00,8.1,,-,51.0,,30.08,,District of Columbia,24.1,,,,4:00 AM,,,,,,15.0,,North,10.4,10.0,20001.0
Washington,Clear,1970-01-19 10:00:00,6.1,,-,51.0,,30.08,,District of Columbia,21.9,,,,5:00 AM,,,,,,15.0,,NE,9.2,40.0,20001.0
Washington,Clear,1970-01-19 11:00:00,3.0,,-,46.0,,30.11,,District of Columbia,21.0,,,,6:00 AM,,,,,,15.0,,North,11.5,360.0,20001.0
Washington,Unknown,1970-01-19 12:00:00,3.0,,-,46.0,,30.13,,District of Columbia,21.0,,,,7:00 AM,,,,,,15.0,,North,13.8,360.0,20001.0
Washington,Unknown,1970-01-19 13:00:00,3.0,,-,46.0,,30.15,,District of Columbia,21.0,,,,8:00 AM,,,,,,15.0,,NNE,12.7,30.0,20001.0
Washington,Unknown,1970-01-19 14:00:00,3.0,,-,46.0,,30.16,,District of Columbia,21.0,,,,9:00 AM,,,,,,15.0,,NE,11.5,40.0,20001.0
Washington,Unknown,1970-01-19 15:00:00,5.0,,-,50.0,,30.16,,District of Columbia,21.0,,,,10:00 AM,,,,,,15.0,,ENE,5.8,70.0,20001.0
Washington,Unknown,1970-01-19 16:00:00,5.0,,-,46.0,,30.16,,District of Columbia,23.0,,,,11:00 AM,,,,,,15.0,,North,3.5,10.0,20001.0
Washington,Unknown,1970-01-19 17:00:00,5.0,,-,46.0,,30.13,,District of Columbia,23.0,,,,12:00 PM,,,,,,15.0,,NE,4.6,40.0,20001.0
Washington,Unknown,1970-01-19 18:00:00,5.0,,-,43.0,,30.11,,District of Columbia,25.0,,,,1:00 PM,,,,,,15.0,,NNW,11.5,340.0,20001.0
Washington,Unknown,1970-01-19 19:00:00,5.0,,-,41.0,,30.1,,District of Columbia,26.1,,,,2:00 PM,,,,,,15.0,,NNW,8.1,330.0,20001.0
Washington,Unknown,1970-01-19 20:00:00,5.0,,-,43.0,,30.01,,District of Columbia,25.0,,,,3:00 PM,,,,,,15.0,,NNW,4.6,340.0,20001.0
Washington,Unknown,1970-01-19 21:00:00,3.9,,-,39.0,,30.09,,District of Columbia,26.1,,,,4:00 PM,,,,,,15.0,,West,4.6,270.0,20001.0
Washington,Unknown,1970-01-19 22:00:00,5.0,,-,41.0,,30.11,,District of Columbia,26.1,,,,5:00 PM,,,,,,15.0,,NNW,8.1,330.0,20001.0
Washington,Unknown,1970-01-19 23:00:00,3.9,,-,41.0,,30.12,,District of Columbia,25.0,,,,6:00 PM,,,,,,15.0,,NW,9.2,320.0,20001.0
Washington,Unknown,1970-01-20 00:00:00,6.1,,-,46.0,,30.13,,District of Columbia,24.1,,,,7:00 PM,,,,,,15.0,,NNW,6.9,330.0,20001.0
Washington,Unknown,1970-01-20 01:00:00,7.0,,-,50.0,,30.14,,District of Columbia,23.0,,,,8:00 PM,,,,,,15.0,,NNW,8.1,330.0,20001.0
Washington,Unknown,1970-01-20 02:00:00,7.0,,-,50.0,,30.15,,District of Columbia,23.0,,,,9:00 PM,,,,,,15.0,,NNW,6.9,330.0,20001.0
Washington,Unknown,1970-01-20 03:00:00,9.0,,-,58.0,,30.15,,District of Columbia,21.9,,,,10:00 PM,,,,,,15.0,,NNW,6.9,340.0,20001.0
Washington,Clear,1970-01-20 04:00:00,9.0,,-,62.0,,30.14,,District of Columbia,19.9,,,,11:00 PM,,,,,,15.0,,North,6.9,350.0,20001.0
Washington,Unknown,1970-01-20 05:00:00,10.9,,-,60.0,,30.15,,District of Columbia,23.0,,,,12:00 AM,,,,,,15.0,,NE,10.4,50.0,20001.0
Washington,Unknown,1970-01-20 06:00:00,10.9,,-,60.0,,30.13,,District of Columbia,23.0,,,,1:00 AM,,,,,,15.0,,NNE,10.4,30.0,20001.0
Washington,Unknown,1970-01-20 07:00:00,10.9,,-,57.0,,30.13,,District of Columbia,24.1,,,,2:00 AM,,,,,,15.0,,NNE,9.2,30.0,20001.0
Washington,Unknown,1970-01-20 08:00:00,10.0,,-,58.0,,30.13,,District of Columbia,23.0,,,,3:00 AM,,,,,,15.0,,ENE,8.1,60.0,20001.0
Washington,Unknown,1970-01-20 09:00:00,10.0,,-,60.0,,30.13,,District of Columbia,21.9,,,,4:00 AM,,,,,,10.0,,NE,8.1,50.0,20001.0
Washington,Unknown,1970-01-20 10:00:00,10.9,,-,63.0,,30.11,,District of Columbia,21.9,,,,5:00 AM,,,,,,10.0,,NE,9.2,40.0,20001.0
Washington,Unknown,1970-01-20 11:00:00,9.0,,-,60.0,,30.1,,District of Columbia,21.0,,,,6:00 AM,,,,,,10.0,,NE,10.4,50.0,20001.0
Washington,Unknown,1970-01-20 12:00:00,8.1,,-,60.0,,30.11,,District of Columbia,19.9,,,,7:00 AM,,,,,,10.0,,NNE,6.9,20.0,20001.0
Washington,Unknown,1970-01-20 13:00:00,9.0,,-,62.0,,30.12,,District of Columbia,19.9,,,,8:00 AM,,,,,,10.0,,ENE,8.1,60.0,20001.0
Washington,Unknown,1970-01-20 14:00:00,10.0,,-,63.0,,30.12,,District of Columbia,21.0,,,,9:00 AM,,,,,,9.0,,East,8.1,90.0,20001.0
Washington,Unknown,1970-01-20 15:00:00,8.1,,-,55.0,,30.12,,District of Columbia,21.9,,,,10:00 AM,,,,,,10.0,,SE,4.6,130.0,20001.0
Washington,Unknown,1970-01-20 16:00:00,10.0,,-,55.0,,30.09,,District of Columbia,24.1,,,,11:00 AM,,,,,,10.0,,SE,5.8,140.0,20001.0
Washington,Unknown,1970-01-20 17:00:00,10.0,,-,53.0,,30.03,,District of Columbia,25.0,,,,12:00 PM,,,,,,10.0,,SE,6.9,140.0,20001.0
Washington,Unknown,1970-01-20 18:00:00,10.0,,-,55.0,,29.99,,District of Columbia,24.1,,,,1:00 PM,,,,,,10.0,,SSE,4.6,150.0,20001.0
Washington,Snow,1970-01-20 19:00:00,14.0,Snow,-,74.0,0.02,29.96,,District of Columbia,21.0,,,,2:00 PM,,,,,,0.5,,South,8.1,180.0,20001.0
Washington,Light Snow,1970-01-20 20:00:00,16.0,Snow,-,78.0,0.04,29.93,,District of Columbia,21.9,,,,3:00 PM,,,,,,1.0,,SSE,4.6,150.0,20001.0
Washington,Light Snow,1970-01-20 21:00:00,16.0,Snow,-,78.0,0.02,29.91,,District of Columbia,21.9,,,,4:00 PM,,,,,,3.0,,SSE,5.8,150.0,20001.0
Washington,Light Snow,1970-01-20 22:00:00,16.0,Snow,-,78.0,0.01,29.87,,District of Columbia,21.9,,,,5:00 PM,,,,,,3.0,,SSE,5.8,160.0,20001.0
Washington,Light Snow,1970-01-20 23:00:00,16.0,Snow,-,78.0,,29.86,,District of Columbia,21.9,,,,6:00 PM,,,,,,5.0,,South,3.5,190.0,20001.0
Washington,Light Snow,1970-01-21 00:00:00,16.0,Snow,-,78.0,,29.85,,District of Columbia,21.9,,,,7:00 PM,,,,,,5.0,,South,4.6,190.0,20001.0
Washington,Light Snow,1970-01-21 01:00:00,16.0,Snow,-,78.0,,29.83,,District of Columbia,21.9,,,,8:00 PM,,,,,,7.0,,SSW,6.9,210.0,20001.0
Washington,Light Snow,1970-01-21 02:00:00,16.0,Snow,-,78.0,,29.82,,District of Columbia,21.9,,,,9:00 PM,,,,,,5.0,,SSW,6.9,210.0,20001.0
Washington,Unknown,1970-01-21 03:00:00,15.1,,-,81.0,,29.81,,District of Columbia,19.9,,,,10:00 PM,,,,,,7.0,,SSW,4.6,210.0,20001.0
Washington,Light Snow,1970-01-21 04:00:00,16.0,Snow,-,78.0,0.01,29.85,,District of Columbia,21.9,,,,11:00 PM,,,,,,4.0,,WNW,23.0,300.0,20001.0
Washington,Unknown,1970-01-21 05:00:00,3.9,,-,56.0,,29.9,,District of Columbia,17.1,,,,12:00 AM,,,,,,8.0,,NNW,27.6,330.0,20001.0
Washington,Unknown,1970-01-21 06:00:00,-2.0,,-,51.0,,29.96,,District of Columbia,12.9,,,,1:00 AM,,,,,,10.0,,WNW,24.2,300.0,20001.0
Washington,Unknown,1970-01-21 07:00:00,-5.1,,-,46.0,,29.98,,District of Columbia,12.0,,,,2:00 AM,,,,,,10.0,,WNW,18.4,300.0,20001.0
Washington,Clear,1970-01-21 08:00:00,-5.1,,-,49.0,,30.0,,District of Columbia,10.9,,,,3:00 AM,,,,,,10.0,,NW,27.6,310.0,20001.0
Washington,Clear,1970-01-21 09:00:00,-6.0,,-,48.0,,30.02,,District of Columbia,10.0,,,,4:00 AM,,,,,,10.0,,WNW,23.0,300.0,20001.0
Washington,Clear,1970-01-21 10:00:00,-6.0,,-,48.0,,30.06,,District of Columbia,10.0,,,,5:00 AM,,,,,,10.0,,NW,19.6,310.0,20001.0
Washington,Clear,1970-01-21 11:00:00,-6.0,,-,48.0,,30.08,,District of Columbia,10.0,,,,6:00 AM,,,,,,10.0,,NW,21.9,310.0,20001.0
Washington,Clear,1970-01-21 12:00:00,-5.1,,-,51.0,,30.12,,District of Columbia,10.0,,,,7:00 AM,,,,,,10.0,,NW,13.8,310.0,20001.0
Washington,Unknown,1970-01-21 13:00:00,-5.1,,-,51.0,,30.15,,District of Columbia,10.0,,,,8:00 AM,,,,,,15.0,,West,12.7,270.0,20001.0
Washington,Clear,1970-01-21 14:00:00,-4.0,,-,49.0,,30.19,,District of Columbia,12.0,,,,9:00 AM,,,,,,15.0,,NW,18.4,310.0,20001.0
Washington,Clear,1970-01-21 15:00:00,-2.9,,-,49.0,,30.22,,District of Columbia,12.9,,,,10:00 AM,,,,,,15.0,,NW,19.6,320.0,20001.0
Washington,Clear,1970-01-21 16:00:00,-0.9,,-,47.0,,30.25,,District of Columbia,16.0,,,,11:00 AM,,,,,,15.0,,NW,18.4,310.0,20001.0
Washington,Clear,1970-01-21 17:00:00,-0.9,,-,44.0,,30.25,,District of Columbia,18.0,,,,12:00 PM,,,,,,15.0,,NW,13.8,320.0,20001.0
Washington,Unknown,1970-01-21 18:00:00,-0.0,,-,43.0,,30.22,,District of Columbia,19.0,,,,1:00 PM,,,,,,15.0,,NW,20.7,310.0,20001.0
Washington,Unknown,1970-01-21 19:00:00,-0.9,,-,40.0,,30.21,,District of Columbia,19.9,,,,2:00 PM,,,,,,15.0,,NW,25.3,310.0,20001.0
Washington,Unknown,1970-01-21 20:00:00,-0.9,,-,40.0,,30.23,,District of Columbia,19.9,,,,3:00 PM,,,,,,15.0,,NW,23.0,310.0,20001.0
Washington,Unknown,1970-01-21 21:00:00,-4.0,,-,36.0,,30.26,,District of Columbia,19.0,,,,4:00 PM,,,,,,15.0,,West,17.3,270.0,20001.0
Washington,Clear,1970-01-21 22:00:00,-6.0,,-,35.0,,30.28,,District of Columbia,18.0,,,,5:00 PM,,,,,,15.0,,NW,16.1,320.0,20001.0
Washington,Clear,1970-01-21 23:00:00,-6.0,,-,36.0,,30.3,,District of Columbia,17.1,,,,6:00 PM,,,,,,15.0,,NW,12.7,320.0,20001.0
Washington,Clear,1970-01-22 00:00:00,-14.1,,-,26.0,,30.32,,District of Columbia,16.0,,,,7:00 PM,,,,,,15.0,,West,10.4,270.0,20001.0
Washington,Clear,1970-01-22 01:00:00,-11.9,,-,31.0,,30.33,,District of Columbia,14.0,,,,8:00 PM,,,,,,15.0,,West,11.5,270.0,20001.0
Washington,Clear,1970-01-22 02:00:00,-9.9,,-,35.0,,30.34,,District of Columbia,12.9,,,,9:00 PM,,,,,,15.0,,West,8.1,270.0,20001.0
Washington,Clear,1970-01-22 03:00:00,-9.0,,-,37.0,,30.34,,District of Columbia,12.9,,,,10:00 PM,,,,,,15.0,,NW,8.1,320.0,20001.0
Washington,Clear,1970-01-22 04:00:00,-9.0,,-,37.0,,30.35,,District of Columbia,12.9,,,,11:00 PM,,,,,,15.0,,WNW,11.5,290.0,20001.0
Washington,Clear,1970-01-22 05:00:00,-8.0,,-,41.0,,30.36,,District of Columbia,12.0,,,,12:00 AM,,,,,,15.0,,NW,8.1,320.0,20001.0
Washington,Clear,1970-01-22 06:00:00,-8.0,,-,41.0,,30.36,,District of Columbia,12.0,,,,1:00 AM,,,,,,15.0,,NW,11.5,320.0,20001.0
Washington,Clear,1970-01-22 07:00:00,-8.0,,-,41.0,,30.37,,District of Columbia,12.0,,,,2:00 AM,,,,,,15.0,,NW,8.1,310.0,20001.0
Washington,Clear,1970-01-22 08:00:00,-8.0,,-,42.0,,30.37,,District of Columbia,10.9,,,,3:00 AM,,,,,,15.0,,NNW,6.9,330.0,20001.0
Washington,Clear,1970-01-22 09:00:00,-8.0,,-,44.0,,30.38,,District of Columbia,10.0,,,,4:00 AM,,,,,,15.0,,NNW,8.1,330.0,20001.0
Washington,Clear,1970-01-22 10:00:00,-8.0,,-,42.0,,30.37,,District of Columbia,10.9,,,,5:00 AM,,,,,,15.0,,WNW,5.8,300.0,20001.0
Washington,Clear,1970-01-22 11:00:00,-8.0,,-,44.0,,30.38,,District of Columbia,10.0,,,,6:00 AM,,,,,,15.0,,WNW,8.1,290.0,20001.0
Washington,Clear,1970-01-22 12:00:00,-8.0,,-,44.0,,30.4,,District of Columbia,10.0,,,,7:00 AM,,,,,,15.0,,West,6.9,270.0,20001.0
Washington,Clear,1970-01-22 13:00:00,-6.0,,-,48.0,,30.41,,District of Columbia,10.0,,,,8:00 AM,,,,,,15.0,,SW,6.9,230.0,20001.0
Washington,Clear,1970-01-22 14:00:00,-4.0,,-,47.0,,30.41,,District of Columbia,12.9,,,,9:00 AM,,,,,,15.0,,West,6.9,280.0,20001.0
Washington,Clear,1970-01-22 15:00:00,-2.9,,-,43.0,,30.41,,District of Columbia,16.0,,,,10:00 AM,,,,,,15.0,,West,9.2,270.0,20001.0
Washington,Unknown,1970-01-22 16:00:00,-2.0,,-,41.0,,30.41,,District of Columbia,18.0,,,,11:00 AM,,,,,,15.0,,NW,9.2,310.0,20001.0
Washington,Unknown,1970-01-22 17:00:00,-0.0,,-,43.0,,30.39,,District of Columbia,19.0,,,,12:00 PM,,,,,,15.0,,West,10.4,280.0,20001.0
Washington,Unknown,1970-01-22 18:00:00,-0.0,,-,40.0,,30.35,,District of Columbia,21.0,,,,1:00 PM,,,,,,15.0,,NW,11.5,310.0,20001.0
Washington,Unknown,1970-01-22 19:00:00,1.9,,-,42.0,,30.31,,District of Columbia,21.9,,,,2:00 PM,,,,,,15.0,,West,6.9,260.0,20001.0
Washington,Unknown,1970-01-22 20:00:00,1.0,,-,39.0,,30.3,,District of Columbia,23.0,,,,3:00 PM,,,,,,15.0,,West,13.8,260.0,20001.0
Washington,Unknown,1970-01-22 21:00:00,-2.0,,-,35.0,,30.3,,District of Columbia,21.9,,,,4:00 PM,,,,,,15.0,,West,11.5,270.0,20001.0
Washington,Unknown,1970-01-22 22:00:00,-4.0,,-,33.0,,30.29,,District of Columbia,21.0,,,,5:00 PM,,,,,,15.0,,WSW,10.4,240.0,20001.0
Washington,Unknown,1970-01-22 23:00:00,-5.1,,-,34.0,,30.28,,District of Columbia,19.0,,,,6:00 PM,,,,,,15.0,,SW,6.9,220.0,20001.0
Washington,Unknown,1970-01-23 00:00:00,-4.0,,-,35.0,,30.27,,District of Columbia,19.9,,,,7:00 PM,,,,,,15.0,,SW,3.5,230.0,20001.0
Washington,Unknown,1970-01-23 01:00:00,-2.0,,-,41.0,,30.26,,District of Columbia,18.0,,,,8:00 PM,,,,,,15.0,,SSW,4.6,210.0,20001.0
Washington,Unknown,1970-01-23 02:00:00,1.0,,-,44.0,,30.24,,District of Columbia,19.9,,,,9:00 PM,,,,,,15.0,,SSE,3.5,160.0,20001.0
Washington,Unknown,1970-01-23 03:00:00,-0.0,,-,45.0,,30.22,,District of Columbia,18.0,,,,10:00 PM,,,,,,15.0,,South,4.6,170.0,20001.0
Washington,Clear,1970-01-23 04:00:00,-0.9,,-,42.0,,30.22,,District of Columbia,19.0,,,,11:00 PM,,,,,,15.0,,SSE,4.6,160.0,20001.0
Washington,Clear,1970-01-23 05:00:00,1.9,,-,52.0,,30.19,,District of Columbia,17.1,,,,12:00 AM,,,,,,15.0,,South,5.8,180.0,20001.0
Washington,Clear,1970-01-23 06:00:00,3.9,,-,54.0,,30.17,,District of Columbia,18.0,,,,1:00 AM,,,,,,15.0,,South,5.8,170.0,20001.0
Washington,Clear,1970-01-23 07:00:00,6.1,,-,60.0,,30.16,,District of Columbia,18.0,,,,2:00 AM,,,,,,15.0,,South,6.9,180.0,20001.0
Washington,Clear,1970-01-23 08:00:00,7.0,,-,65.0,,30.14,,District of Columbia,17.1,,,,3:00 AM,,,,,,15.0,,South,5.8,170.0,20001.0
Washington,Clear,1970-01-23 09:00:00,7.0,,-,68.0,,30.13,,District of Columbia,16.0,,,,4:00 AM,,,,,,15.0,,SSW,9.2,210.0,20001.0
Washington,Clear,1970-01-23 10:00:00,8.1,,-,71.0,,30.1,,District of Columbia,16.0,,,,5:00 AM,,,,,,15.0,,SSE,4.6,160.0,20001.0
Washington,Clear,1970-01-23 11:00:00,7.0,,-,68.0,,30.08,,District of Columbia,16.0,,,,6:00 AM,,,,,,15.0,,South,5.8,170.0,20001.0
Washington,Unknown,1970-01-23 12:00:00,7.0,,-,65.0,,30.05,,District of Columbia,17.1,,,,7:00 AM,,,,,,15.0,,South,8.1,180.0,20001.0
Washington,Unknown,1970-01-23 13:00:00,8.1,,-,65.0,,30.05,,District of Columbia,18.0,,,,8:00 AM,,,,,,10.0,,SSW,9.2,200.0,20001.0
Washington,Unknown,1970-01-23 14:00:00,8.1,,-,62.0,,30.04,,District of Columbia,19.0,,,,9:00 AM,,,,,,10.0,,SSW,6.9,210.0,20001.0
Washington,Unknown,1970-01-23 15:00:00,10.0,,-,60.0,,30.02,,District of Columbia,21.9,,,,10:00 AM,,,,,,10.0,,SSW,8.1,210.0,20001.0
Washington,Unknown,1970-01-23 16:00:00,12.0,,-,58.0,,29.99,,District of Columbia,25.0,,,,11:00 AM,,,,,,10.0,,South,12.7,190.0,20001.0
Washington,Unknown,1970-01-23 17:00:00,12.0,,-,55.0,,29.95,,District of Columbia,26.1,,,,12:00 PM,,,,,,10.0,,SSW,13.8,210.0,20001.0
Washington,Light Snow,1970-01-23 18:00:00,12.9,Snow,-,53.0,,29.93,,District of Columbia,28.0,,,,1:00 PM,,,,,,10.0,,West,9.2,260.0,20001.0
Washington,Unknown,1970-01-23 19:00:00,15.1,,-,56.0,,29.9,,District of Columbia,28.9,,,,2:00 PM,,,,,,10.0,,East,3.5,100.0,20001.0
Washington,Light Snow,1970-01-23 20:00:00,15.1,Snow,-,58.0,,29.9,,District of Columbia,28.0,,,,3:00 PM,,,,,,10.0,,WSW,5.8,250.0,20001.0
Washington,Light Snow,1970-01-23 21:00:00,16.0,Snow,-,61.0,,29.91,,District of Columbia,28.0,,,,4:00 PM,,,,,,10.0,,SSE,3.5,150.0,20001.0
Washington,Unknown,1970-01-23 22:00:00,17.1,,-,63.0,,29.92,,District of Columbia,28.0,,,,5:00 PM,,,,,,10.0,,South,3.5,190.0,20001.0
Washington,Light Snow,1970-01-23 23:00:00,18.0,Snow,-,66.0,,29.94,,District of Columbia,28.0,,,,6:00 PM,,,,,,8.0,,North,3.5,360.0,20001.0
Washington,Light Snow Showers,1970-01-24 00:00:00,18.0,Snow,-,71.0,,29.94,,District of Columbia,26.1,,,,7:00 PM,,,,,,8.0,,North,5.8,350.0,20001.0
Washington,Light Snow Showers,1970-01-24 01:00:00,19.0,Snow,-,72.0,,29.96,,District of Columbia,27.0,,,,8:00 PM,,,,,,8.0,,NW,6.9,320.0,20001.0
Washington,Unknown,1970-01-24 02:00:00,18.0,,-,75.0,,29.98,,District of Columbia,25.0,,,,9:00 PM,,,,,,10.0,,NNW,10.4,330.0,20001.0
Washington,Unknown,1970-01-24 03:00:00,17.1,,-,75.0,,29.99,,District of Columbia,24.1,,,,10:00 PM,,,,,,10.0,,North,5.8,350.0,20001.0
Washington,Unknown,1970-01-24 04:00:00,17.1,,-,75.0,,30.0,,District of Columbia,24.1,,,,11:00 PM,,,,,,10.0,,NNW,6.9,340.0,20001.0
Washington,Unknown,1970-01-24 05:00:00,17.1,,-,75.0,,30.02,,District of Columbia,24.1,,,,12:00 AM,,,,,,10.0,,NNW,9.2,330.0,20001.0
Washington,Unknown,1970-01-24 06:00:00,15.1,,-,69.0,,30.02,,District of Columbia,24.1,,,,1:00 AM,,,,,,8.0,,NNW,8.1,330.0,20001.0
Washington,Unknown,1970-01-24 07:00:00,12.9,,-,68.0,,30.02,,District of Columbia,21.9,,,,2:00 AM,,,,,,8.0,,NNW,4.6,340.0,20001.0
Washington,Clear,1970-01-24 08:00:00,12.9,,-,68.0,,30.04,,District of Columbia,21.9,,,,3:00 AM,,,,,,8.0,,NW,9.2,320.0,20001.0
Washington,Clear,1970-01-24 09:00:00,12.0,,-,66.0,,30.07,,District of Columbia,21.9,,,,4:00 AM,,,,,,8.0,,NNW,10.4,330.0,20001.0
Washington,Clear,1970-01-24 10:00:00,10.0,,-,60.0,,30.11,,District of Columbia,21.9,,,,5:00 AM,,,,,,8.0,,NNW,13.8,330.0,20001.0
Washington,Clear,1970-01-24 11:00:00,8.1,,-,57.0,,30.14,,District of Columbia,21.0,,,,6:00 AM,,,,,,10.0,,NNW,9.2,330.0,20001.0
Washington,Clear,1970-01-24 12:00:00,8.1,,-,60.0,,30.18,,District of Columbia,19.9,,,,7:00 AM,,,,,,15.0,,NNW,8.1,340.0,20001.0
Washington,Clear,1970-01-24 13:00:00,8.1,,-,57.0,,30.23,,District of Columbia,21.0,,,,8:00 AM,,,,,,15.0,,NNW,10.4,330.0,20001.0
Washington,Clear,1970-01-24 14:00:00,8.1,,-,55.0,,30.24,,District of Columbia,21.9,,,,9:00 AM,,,,,,15.0,,NNW,12.7,330.0,20001.0
Washington,Clear,1970-01-24 15:00:00,9.0,,-,51.0,,30.24,,District of Columbia,25.0,,,,10:00 AM,,,,,,15.0,,NNW,12.7,330.0,20001.0
Washington,Clear,1970-01-24 16:00:00,9.0,,-,47.0,,30.24,,District of Columbia,27.0,,,,11:00 AM,,,,,,15.0,,NNW,10.4,340.0,20001.0
Washington,Clear,1970-01-24 17:00:00,8.1,,-,41.0,,30.22,,District of Columbia,28.9,,,,12:00 PM,,,,,,15.0,,NNW,9.2,330.0,20001.0
Washington,Clear,1970-01-24 18:00:00,7.0,,-,38.0,,30.21,,District of Columbia,30.0,,,,1:00 PM,,,,,,15.0,,NNW,6.9,330.0,20001.0
Washington,Unknown,1970-01-24 19:00:00,7.0,,-,35.0,,30.2,,District of Columbia,32.0,,,,2:00 PM,,,,,,15.0,,WNW,8.1,290.0,20001.0
Washington,Unknown,1970-01-24 20:00:00,6.1,,-,34.0,,30.17,,District of Columbia,32.0,,,,3:00 PM,,,,,,15.0,,WNW,4.6,290.0,20001.0
Washington,Unknown,1970-01-24 21:00:00,3.9,,-,32.0,,30.16,,District of Columbia,30.9,,,,4:00 PM,,,,,,15.0,,NNW,5.8,330.0,20001.0
Washington,Unknown,1970-01-24 22:00:00,6.1,,-,36.0,,30.18,,District of Columbia,30.0,,,,5:00 PM,,,,,,15.0,,East,3.5,90.0,20001.0
Washington,Unknown,1970-01-24 23:00:00,9.0,,-,40.0,,30.17,,District of Columbia,30.9,,,,6:00 PM,,,,,,15.0,,SE,4.6,130.0,20001.0
Washington,Unknown,1970-01-25 00:00:00,9.0,,-,40.0,,30.18,,District of Columbia,30.9,,,,7:00 PM,,,,,,15.0,,ESE,4.6,110.0,20001.0
Washington,Unknown,1970-01-25 01:00:00,10.9,,-,43.0,,30.16,,District of Columbia,30.9,,,,8:00 PM,,,,,,15.0,,SE,6.9,140.0,20001.0
Washington,Unknown,1970-01-25 02:00:00,10.0,,-,42.0,,30.15,,District of Columbia,30.9,,,,9:00 PM,,,,,,15.0,,South,4.6,170.0,20001.0
Washington,Unknown,1970-01-25 03:00:00,10.9,,-,43.0,,30.15,,District of Columbia,30.9,,,,10:00 PM,,,,,,15.0,,South,8.1,190.0,20001.0
Washington,Unknown,1970-01-25 04:00:00,12.9,,-,45.0,,30.12,,District of Columbia,32.0,,,,11:00 PM,,,,,,10.0,,South,12.7,190.0,20001.0
Washington,Light Snow Showers,1970-01-25 05:00:00,18.0,Snow,-,56.0,,30.12,,District of Columbia,32.0,,,,12:00 AM,,,,,,10.0,,South,11.5,190.0,20001.0
Washington,Light Snow Showers,1970-01-25 06:00:00,19.9,Snow,-,61.0,,30.08,,District of Columbia,32.0,,,,1:00 AM,,,,,,7.0,,South,8.1,170.0,20001.0
Washington,Unknown,1970-01-25 07:00:00,18.0,,-,54.0,,30.04,,District of Columbia,33.1,,,,2:00 AM,,,,,,7.0,,South,11.5,170.0,20001.0
Washington,Unknown,1970-01-25 08:00:00,18.0,,-,54.0,,30.03,,District of Columbia,33.1,,,,3:00 AM,,,,,,7.0,,South,12.7,180.0,20001.0
Washington,Unknown,1970-01-25 09:00:00,18.0,,-,54.0,,30.02,,District of Columbia,33.1,,,,4:00 AM,,,,,,7.0,,South,8.1,190.0,20001.0
Washington,Unknown,1970-01-25 10:00:00,19.0,,-,59.0,,30.0,,District of Columbia,32.0,,,,5:00 AM,,,,,,7.0,,South,10.4,190.0,20001.0
Washington,Unknown,1970-01-25 11:00:00,21.0,,-,61.0,,29.99,,District of Columbia,33.1,,,,6:00 AM,,,,,,7.0,,South,10.4,190.0,20001.0
Washington,Unknown,1970-01-25 12:00:00,21.9,,-,61.0,,29.99,,District of Columbia,34.0,,,,7:00 AM,,,,,,10.0,,SSW,8.1,210.0,20001.0
Washington,Unknown,1970-01-25 13:00:00,24.1,,-,67.0,,29.96,,District of Columbia,34.0,,,,8:00 AM,,,,,,8.0,,South,9.2,180.0,20001.0
Washington,Unknown,1970-01-25 14:00:00,25.0,,-,64.0,,29.95,,District of Columbia,36.0,,,,9:00 AM,,,,,,10.0,,SSW,6.9,210.0,20001.0
Washington,Unknown,1970-01-25 15:00:00,26.1,,-,65.0,,29.95,,District of Columbia,37.0,,,,10:00 AM,,,,,,10.0,,SSW,8.1,210.0,20001.0
Washington,Unknown,1970-01-25 16:00:00,28.0,,-,60.0,,29.9,,District of Columbia,41.0,,,,11:00 AM,,,,,,10.0,,SSW,12.7,210.0,20001.0
Washington,Unknown,1970-01-25 17:00:00,28.9,,-,55.0,,29.85,,District of Columbia,44.1,,,,12:00 PM,,,,,,10.0,,SSW,13.8,200.0,20001.0
Washington,Unknown,1970-01-25 18:00:00,28.0,,-,56.0,,29.81,,District of Columbia,43.0,,,,1:00 PM,,,,,,10.0,,SSW,8.1,210.0,20001.0
Washington,Unknown,1970-01-25 19:00:00,28.0,,-,58.0,,29.79,,District of Columbia,42.1,,,,2:00 PM,,,,,,10.0,,South,5.8,180.0,20001.0
Washington,Unknown,1970-01-25 20:00:00,28.9,,-,60.0,,29.78,,District of Columbia,42.1,,,,3:00 PM,,,,,,10.0,,South,9.2,180.0,20001.0
Washington,Unknown,1970-01-25 21:00:00,28.9,,-,58.0,,29.76,,District of Columbia,43.0,,,,4:00 PM,,,,,,10.0,,South,11.5,190.0,20001.0
Washington,Unknown,1970-01-25 22:00:00,28.9,,-,58.0,,29.75,,District of Columbia,43.0,,,,5:00 PM,,,,,,10.0,,South,8.1,190.0,20001.0
Washington,Unknown,1970-01-25 23:00:00,30.0,,-,56.0,,29.74,,District of Columbia,45.0,,,,6:00 PM,,,,,,10.0,,SSW,10.4,200.0,20001.0
Washington,Unknown,1970-01-26 00:00:00,32.0,,-,56.0,,29.73,,District of Columbia,46.9,,,,7:00 PM,,,,,,10.0,,SSW,16.1,200.0,20001.0
Washington,Unknown,1970-01-26 01:00:00,34.0,,-,58.0,,29.71,,District of Columbia,48.0,,,,8:00 PM,,,,,,10.0,,SSW,17.3,210.0,20001.0
Washington,Unknown,1970-01-26 02:00:00,35.1,,-,61.0,,29.68,,District of Columbia,48.0,,,,9:00 PM,,,,,,10.0,,SSW,17.3,210.0,20001.0
Washington,Unknown,1970-01-26 03:00:00,36.0,,-,61.0,,29.66,,District of Columbia,48.9,,,,10:00 PM,,,,,,10.0,,SSW,13.8,210.0,20001.0
Washington,Unknown,1970-01-26 04:00:00,37.0,,-,64.0,,29.64,,District of Columbia,48.9,,,,11:00 PM,,,,,,10.0,,SSW,15.0,200.0,20001.0
Washington,Unknown,1970-01-26 05:00:00,37.0,,-,64.0,,29.64,,District of Columbia,48.9,,,,12:00 AM,,,,,,10.0,,SSW,12.7,210.0,20001.0
Washington,Unknown,1970-01-26 06:00:00,37.9,,-,71.0,,29.64,,District of Columbia,46.9,,,,1:00 AM,,,,,,10.0,,SSW,9.2,210.0,20001.0
Washington,Unknown,1970-01-26 07:00:00,37.9,,-,71.0,,29.63,,District of Columbia,46.9,,,,2:00 AM,,,,,,10.0,,SSW,9.2,210.0,20001.0
Washington,Unknown,1970-01-26 08:00:00,39.0,,-,76.0,,29.61,,District of Columbia,46.0,,,,3:00 AM,,,,,,10.0,,SW,8.1,220.0,20001.0
Washington,Unknown,1970-01-26 09:00:00,37.0,,-,82.0,,29.61,,District of Columbia,42.1,,,,4:00 AM,,,,,,10.0,,South,3.5,170.0,20001.0
Washington,Unknown,1970-01-26 10:00:00,37.9,,-,85.0,,29.61,,District of Columbia,42.1,,,,5:00 AM,,,,,,8.0,,South,5.8,180.0,20001.0
Washington,Unknown,1970-01-26 11:00:00,37.9,,-,85.0,,29.6,,District of Columbia,42.1,,,,6:00 AM,,,,,,8.0,,SW,5.8,230.0,20001.0
Washington,Unknown,1970-01-26 12:00:00,37.9,,-,85.0,,29.62,,District of Columbia,42.1,,,,7:00 AM,,,,,,8.0,,NW,6.9,320.0,20001.0
Washington,Unknown,1970-01-26 13:00:00,39.9,,-,85.0,,29.66,,District of Columbia,44.1,,,,8:00 AM,,,,,,7.0,,SSW,6.9,210.0,20001.0
Washington,Unknown,1970-01-26 14:00:00,39.9,,-,85.0,,29.67,,District of Columbia,44.1,,,,9:00 AM,,,,,,7.0,,South,6.9,190.0,20001.0
Washington,Unknown,1970-01-26 15:00:00,43.0,,-,86.0,,29.69,,District of Columbia,46.9,,,,10:00 AM,,,,,,8.0,,South,6.9,180.0,20001.0
Washington,Unknown,1970-01-26 16:00:00,36.0,,-,44.0,,29.69,,District of Columbia,57.9,,,,11:00 AM,,,,,,15.0,,WNW,16.1,300.0,20001.0
Washington,Unknown,1970-01-26 17:00:00,33.1,,-,40.0,,29.7,,District of Columbia,57.0,,,,12:00 PM,,,,,,15.0,,NNW,13.8,330.0,20001.0
Washington,Unknown,1970-01-26 18:00:00,35.1,,-,42.0,,29.72,,District of Columbia,57.9,,,,1:00 PM,,,,,,15.0,,NNW,18.4,330.0,20001.0
Washington,Unknown,1970-01-26 19:00:00,34.0,,-,48.0,,29.75,,District of Columbia,53.1,,,,2:00 PM,,,,,,15.0,,NW,18.4,310.0,20001.0
Washington,Unknown,1970-01-26 20:00:00,32.0,,-,48.0,,29.78,,District of Columbia,51.1,,,,3:00 PM,,,,,,15.0,,NW,19.6,310.0,20001.0
Washington,Unknown,1970-01-26 21:00:00,30.0,,-,48.0,,29.81,,District of Columbia,48.9,,,,4:00 PM,,,,,,15.0,,NW,11.5,310.0,20001.0
Washington,Unknown,1970-01-26 22:00:00,30.0,,-,50.0,,29.85,,District of Columbia,48.0,,,,5:00 PM,,,,,,15.0,,NW,18.4,310.0,20001.0
Washington,Unknown,1970-01-26 23:00:00,28.9,,-,51.0,,29.89,,District of Columbia,46.0,,,,6:00 PM,,,,,,15.0,,NW,13.8,310.0,20001.0
Washington,Unknown,1970-01-27 00:00:00,28.9,,-,53.0,,29.92,,District of Columbia,45.0,,,,7:00 PM,,,,,,15.0,,NW,16.1,320.0,20001.0
Washington,Unknown,1970-01-27 01:00:00,28.9,,-,55.0,,29.92,,District of Columbia,44.1,,,,8:00 PM,,,,,,15.0,,NW,13.8,320.0,20001.0
Washington,Unknown,1970-01-27 02:00:00,28.9,,-,58.0,,29.96,,District of Columbia,43.0,,,,9:00 PM,,,,,,15.0,,NW,9.2,310.0,20001.0
Washington,Unknown,1970-01-27 03:00:00,30.0,,-,62.0,,29.99,,District of Columbia,42.1,,,,10:00 PM,,,,,,15.0,,NW,13.8,310.0,20001.0
Washington,Light Rain,1970-01-27 04:00:00,30.9,Rain,-,70.0,,30.01,,District of Columbia,39.9,,,,11:00 PM,,,,,,10.0,,NW,11.5,320.0,20001.0
Washington,Unknown,1970-01-27 05:00:00,32.0,,-,73.0,,30.02,,District of Columbia,39.9,,,,12:00 AM,,,,,,10.0,,NW,8.1,320.0,20001.0
Washington,Unknown,1970-01-27 06:00:00,30.9,,-,73.0,,30.03,,District of Columbia,39.0,,,,1:00 AM,,,,,,10.0,,North,5.8,360.0,20001.0
Washington,Unknown,1970-01-27 07:00:00,32.0,,-,73.0,,30.05,,District of Columbia,39.9,,,,2:00 AM,,,,,,10.0,,West,4.6,260.0,20001.0
Washington,Unknown,1970-01-27 08:00:00,30.9,,-,76.0,,30.06,,District of Columbia,37.9,,,,3:00 AM,,,,,,10.0,,Calm,Calm,0.0,20001.0
Washington,Unknown,1970-01-27 09:00:00,32.0,,-,73.0,,30.06,,District of Columbia,39.9,,,,4:00 AM,,,,,,10.0,,NW,5.8,320.0,20001.0
Washington,Unknown,1970-01-27 10:00:00,30.0,,-,70.0,,30.08,,District of Columbia,39.0,,,,5:00 AM,,,,,,10.0,,West,5.8,260.0,20001.0
Washington,Unknown,1970-01-27 11:00:00,30.0,,-,73.0,,30.1,,District of Columbia,37.9,,,,6:00 AM,,,,,,10.0,,SW,3.5,220.0,20001.0
Washington,Unknown,1970-01-27 12:00:00,30.0,,-,76.0,,30.1,,District of Columbia,37.0,,,,7:00 AM,,,,,,10.0,,NE,3.5,50.0,20001.0
Washington,Smoke,1970-01-27 13:00:00,28.9,,-,78.0,,30.11,,District of Columbia,35.1,,,,8:00 AM,,,,,,6.0,,Calm,Calm,0.0,20001.0
Washington,Smoke,1970-01-27 14:00:00,32.0,,-,76.0,,30.12,,District of Columbia,39.0,,,,9:00 AM,,,,,,6.0,,SSW,4.6,200.0,20001.0
Washington,Smoke,1970-01-27 15:00:00,32.0,,-,70.0,,30.11,,District of Columbia,41.0,,,,10:00 AM,,,,,,6.0,,South,5.8,180.0,20001.0
Washington,Unknown,1970-01-27 16:00:00,30.0,,-,60.0,,30.1,,District of Columbia,43.0,,,,11:00 AM,,,,,,7.0,,South,5.8,190.0,20001.0
Washington,Unknown,1970-01-27 17:00:00,28.9,,-,58.0,,30.08,,District of Columbia,43.0,,,,12:00 PM,,,,,,8.0,,South,6.9,190.0,20001.0
Washington,Unknown,1970-01-27 18:00:00,30.0,,-,58.0,,30.04,,District of Columbia,44.1,,,,1:00 PM,,,,,,10.0,,South,9.2,190.0,20001.0
Washington,Unknown,1970-01-27 19:00:00,30.9,,-,58.0,,30.02,,District of Columbia,45.0,,,,2:00 PM,,,,,,10.0,,South,6.9,180.0,20001.0
Washington,Unknown,1970-01-27 20:00:00,30.0,,-,58.0,,30.02,,District of Columbia,44.1,,,,3:00 PM,,,,,,10.0,,South,6.9,180.0,20001.0
Washington,Unknown,1970-01-27 21:00:00,30.9,,-,52.0,,30.04,,District of Columbia,48.0,,,,4:00 PM,,,,,,10.0,,SSW,4.6,210.0,20001.0
Washington,Unknown,1970-01-27 22:00:00,30.0,,-,52.0,,30.07,,District of Columbia,46.9,,,,5:00 PM,,,,,,10.0,,WNW,3.5,300.0,20001.0
Washington,Unknown,1970-01-27 23:00:00,30.0,,-,62.0,,30.1,,District of Columbia,42.1,,,,6:00 PM,,,,,,10.0,,NNW,9.2,340.0,20001.0
Washington,Unknown,1970-01-28 00:00:00,30.0,,-,70.0,,30.12,,District of Columbia,39.0,,,,7:00 PM,,,,,,10.0,,NE,5.8,50.0,20001.0
Washington,Unknown,1970-01-28 01:00:00,30.0,,-,73.0,,30.15,,District of Columbia,37.9,,,,8:00 PM,,,,,,10.0,,East,3.5,100.0,20001.0
Washington,Unknown,1970-01-28 02:00:00,28.9,,-,76.0,,30.18,,District of Columbia,36.0,,,,9:00 PM,,,,,,10.0,,South,3.5,190.0,20001.0
Washington,Unknown,1970-01-28 03:00:00,30.0,,-,70.0,,30.18,,District of Columbia,39.0,,,,10:00 PM,,,,,,10.0,,West,6.9,270.0,20001.0
Washington,Clear,1970-01-28 04:00:00,28.0,,-,76.0,,30.21,,District of Columbia,35.1,,,,11:00 PM,,,,,,10.0,,WSW,6.9,250.0,20001.0
Washington,Clear,1970-01-28 05:00:00,28.0,,-,79.0,,30.21,,District of Columbia,34.0,,,,12:00 AM,,,,,,10.0,,NW,4.6,320.0,20001.0
Washington,Unknown,1970-01-28 06:00:00,27.0,,-,78.0,,30.22,,District of Columbia,33.1,,,,1:00 AM,,,,,,10.0,,West,5.8,270.0,20001.0
Washington,Smoke,1970-01-28 07:00:00,27.0,,-,78.0,,30.25,,District of Columbia,33.1,,,,2:00 AM,,,,,,6.0,,Calm,Calm,0.0,20001.0
Washington,Fog,1970-01-28 08:00:00,27.0,Fog,-,85.0,,30.26,,District of Columbia,30.9,,,,3:00 AM,,,,,,4.0,,WSW,5.8,240.0,20001.0
Washington,Unknown,1970-01-28 09:00:00,26.1,,-,85.0,,30.26,,District of Columbia,30.0,,,,4:00 AM,,,,,,7.0,,SSW,5.8,210.0,20001.0
Washington,Unknown,1970-01-28 10:00:00,26.1,,-,85.0,,30.28,,District of Columbia,30.0,,,,5:00 AM,,,,,,7.0,,Calm,Calm,0.0,20001.0
Washington,Unknown,1970-01-28 11:00:00,28.0,,-,82.0,,30.29,,District of Columbia,33.1,,,,6:00 AM,,,,,,7.0,,Calm,Calm,0.0,20001.0
Washington,Smoke,1970-01-28 12:00:00,28.0,,-,82.0,,30.31,,District of Columbia,33.1,,,,7:00 AM,,,,,,6.0,,South,6.9,180.0,20001.0
Washington,Smoke,1970-01-28 13:00:00,28.9,,-,82.0,,30.32,,District of Columbia,34.0,,,,8:00 AM,,,,,,4.0,,South,5.8,190.0,20001.0
Washington,Smoke,1970-01-28 14:00:00,30.9,,-,82.0,,30.32,,District of Columbia,36.0,,,,9:00 AM,,,,,,4.0,,SW,4.6,220.0,20001.0
Washington,Smoke,1970-01-28 15:00:00,32.0,,-,82.0,,30.32,,District of Columbia,37.0,,,,10:00 AM,,,,,,5.0,,Calm,Calm,0.0,20001.0
Washington,Smoke,1970-01-28 16:00:00,33.1,,-,73.0,,30.32,,District of Columbia,41.0,,,,11:00 AM,,,,,,5.0,,SSE,3.5,160.0,20001.0
Washington,Unknown,1970-01-28 17:00:00,34.0,,-,63.0,,30.29,,District of Columbia,46.0,,,,12:00 PM,,,,,,9.0,,South,6.9,180.0,20001.0
Washington,Unknown,1970-01-28 18:00:00,32.0,,-,54.0,,30.25,,District of Columbia,48.0,,,,1:00 PM,,,,,,10.0,,SSW,12.7,200.0,20001.0
Washington,Unknown,1970-01-28 19:00:00,30.0,,-,50.0,,30.2,,District of Columbia,48.0,,,,2:00 PM,,,,,,10.0,,South,13.8,190.0,20001.0
Washington,Unknown,1970-01-28 20:00:00,30.0,,-,52.0,,30.18,,District of Columbia,46.9,,,,3:00 PM,,,,,,15.0,,South,15.0,180.0,20001.0
Washington,Unknown,1970-01-28 21:00:00,28.9,,-,50.0,,30.15,,District of Columbia,46.9,,,,4:00 PM,,,,,,15.0,,South,10.4,190.0,20001.0
Washington,Unknown,1970-01-28 22:00:00,28.9,,-,51.0,,30.13,,District of Columbia,46.0,,,,5:00 PM,,,,,,15.0,,SSE,6.9,160.0,20001.0
Washington,Unknown,1970-01-28 23:00:00,28.9,,-,55.0,,30.11,,District of Columbia,44.1,,,,6:00 PM,,,,,,15.0,,South,5.8,170.0,20001.0
Washington,Unknown,1970-01-29 00:00:00,30.0,,-,60.0,,30.09,,District of Columbia,43.0,,,,7:00 PM,,,,,,15.0,,South,8.1,180.0,20001.0
Washington,Unknown,1970-01-29 01:00:00,30.0,,-,65.0,,30.07,,District of Columbia,41.0,,,,8:00 PM,,,,,,15.0,,South,4.6,180.0,20001.0
Washington,Unknown,1970-01-29 02:00:00,32.0,,-,70.0,,30.06,,District of Columbia,41.0,,,,9:00 PM,,,,,,15.0,,Calm,Calm,0.0,20001.0
Washington,Unknown,1970-01-29 03:00:00,32.0,,-,70.0,,30.03,,District of Columbia,41.0,,,,10:00 PM,,,,,,15.0,,SSE,3.5,150.0,20001.0
Washington,Unknown,1970-01-29 04:00:00,34.0,,-,79.0,,29.99,,District of Columbia,39.9,,,,11:00 PM,,,,,,15.0,,SSW,4.6,210.0,20001.0
Washington,Unknown,1970-01-29 05:00:00,34.0,,-,79.0,,29.96,,District of Columbia,39.9,,,,12:00 AM,,,,,,10.0,,South,11.5,190.0,20001.0
Washington,Unknown,1970-01-29 06:00:00,34.0,,-,79.0,,29.93,,District of Columbia,39.9,,,,1:00 AM,,,,,,10.0,,South,11.5,190.0,20001.0
Washington,Unknown,1970-01-29 07:00:00,35.1,,-,74.0,,29.9,,District of Columbia,43.0,,,,2:00 AM,,,,,,10.0,,South,12.7,190.0,20001.0
Washington,Unknown,1970-01-29 08:00:00,37.0,,-,71.0,,29.87,,District of Columbia,46.0,,,,3:00 AM,,,,,,10.0,,South,13.8,190.0,20001.0
Washington,Unknown,1970-01-29 09:00:00,37.0,,-,61.0,,29.83,,District of Columbia,50.0,,,,4:00 AM,,,,,,10.0,,South,15.0,190.0,20001.0
Washington,Unknown,1970-01-29 10:00:00,39.0,,-,57.0,,29.82,,District of Columbia,54.0,,,,5:00 AM,,,,,,10.0,,South,18.4,190.0,20001.0
Washington,Unknown,1970-01-29 11:00:00,39.9,,-,53.0,,29.79,,District of Columbia,57.0,,,,6:00 AM,,,,,,10.0,,South,19.6,190.0,20001.0
Washington,Unknown,1970-01-29 12:00:00,42.1,,-,57.0,,29.76,,District of Columbia,57.0,,,,7:00 AM,,,,,,10.0,,South,20.7,190.0,20001.0
Washington,Unknown,1970-01-29 13:00:00,45.0,,-,64.0,,29.76,,District of Columbia,57.0,,,,8:00 AM,,,,,,15.0,,South,16.1,190.0,20001.0
Washington,Unknown,1970-01-29 14:00:00,46.9,,-,72.0,,29.76,,District of Columbia,55.9,,,,9:00 AM,,,,,,15.0,,South,17.3,190.0,20001.0
Washington,Unknown,1970-01-29 15:00:00,48.9,,-,67.0,,29.73,,District of Columbia,60.1,,,,10:00 AM,,,,,,15.0,,SSW,17.3,200.0,20001.0
Washington,Light Rain Showers,1970-01-29 16:00:00,50.0,Rain,-,72.0,,29.81,,District of Columbia,59.0,,,,11:00 AM,,,,,,10.0,,NW,13.8,320.0,20001.0
Washington,Unknown,1970-01-29 17:00:00,48.0,,-,77.0,,29.79,,District of Columbia,55.0,,,,12:00 PM,,,,,,10.0,,SSW,9.2,200.0,20001.0
Washington,Light Rain Showers,1970-01-29 18:00:00,45.0,Rain,-,83.0,,29.78,,District of Columbia,50.0,,,,1:00 PM,,,,,,10.0,,South,9.2,180.0,20001.0
Washington,Light Rain Showers,1970-01-29 19:00:00,48.9,Fog-Rain,-,83.0,0.01,29.77,,District of Columbia,54.0,,,,2:00 PM,,,,,,5.0,,South,9.2,190.0,20001.0
Washington,Light Rain,1970-01-29 20:00:00,48.0,Fog-Rain,-,89.0,0.05,29.76,,District of Columbia,51.1,,,,3:00 PM,,,,,,4.0,,South,10.4,180.0,20001.0
Washington,Light Rain,1970-01-29 21:00:00,53.1,Rain,-,90.0,0.01,29.72,,District of Columbia,55.9,,,,4:00 PM,,,,,,8.0,,South,15.0,180.0,20001.0
Washington,Light Rain,1970-01-29 22:00:00,52.0,Rain,-,87.0,0.08,29.74,,District of Columbia,55.9,,,,5:00 PM,,,,,,7.0,,SSW,12.7,200.0,20001.0
Washington,Unknown,1970-01-29 23:00:00,50.0,,-,86.0,0.02,29.71,,District of Columbia,54.0,,,,6:00 PM,,,,,,10.0,,SSW,11.5,210.0,20001.0
Washington,Unknown,1970-01-30 00:00:00,52.0,,-,87.0,,29.71,,District of Columbia,55.9,,,,7:00 PM,,,,,,10.0,,SSW,13.8,210.0,20001.0
Washington,Unknown,1970-01-30 01:00:00,52.0,,-,87.0,,29.72,,District of Columbia,55.9,,,,8:00 PM,,,,,,10.0,,SSW,10.4,210.0,20001.0
Washington,Unknown,1970-01-30 02:00:00,51.1,,-,84.0,,29.74,,District of Columbia,55.9,,,,9:00 PM,,,,,,10.0,,NNW,6.9,330.0,20001.0
Washington,Unknown,1970-01-30 03:00:00,48.0,,-,77.0,,29.77,,District of Columbia,55.0,,,,10:00 PM,,,,,,10.0,,NNW,19.6,340.0,20001.0
Washington,Unknown,1970-01-30 04:00:00,39.0,,-,69.0,,29.83,,District of Columbia,48.9,,,,11:00 PM,,,,,,10.0,,NNW,17.3,330.0,20001.0
Washington,Unknown,1970-01-30 05:00:00,35.1,,-,63.0,,29.86,,District of Columbia,46.9,,,,12:00 AM,,,,,,10.0,,NNW,16.1,330.0,20001.0
Washington,Unknown,1970-01-30 06:00:00,33.1,,-,61.0,,29.88,,District of Columbia,46.0,,,,1:00 AM,,,,,,10.0,,NNW,11.5,330.0,20001.0
Washington,Unknown,1970-01-30 07:00:00,30.0,,-,56.0,,29.89,,District of Columbia,45.0,,,,2:00 AM,,,,,,15.0,,NW,12.7,310.0,20001.0
Washington,Unknown,1970-01-30 08:00:00,27.0,,-,51.0,,29.9,,District of Columbia,44.1,,,,3:00 AM,,,,,,15.0,,NW,13.8,310.0,20001.0
Washington,Unknown,1970-01-30 09:00:00,27.0,,-,51.0,,29.9,,District of Columbia,44.1,,,,4:00 AM,,,,,,15.0,,WNW,15.0,290.0,20001.0
Washington,Unknown,1970-01-30 10:00:00,26.1,,-,51.0,,29.9,,District of Columbia,43.0,,,,5:00 AM,,,,,,15.0,,NW,13.8,310.0,20001.0
Washington,Unknown,1970-01-30 11:00:00,26.1,,-,53.0,,29.91,,District of Columbia,42.1,,,,6:00 AM,,,,,,15.0,,NW,10.4,320.0,20001.0
Washington,Unknown,1970-01-30 12:00:00,26.1,,-,53.0,,29.94,,District of Columbia,42.1,,,,7:00 AM,,,,,,15.0,,NNW,16.1,330.0,20001.0
Washington,Unknown,1970-01-30 13:00:00,25.0,,-,55.0,,29.97,,District of Columbia,39.9,,,,8:00 AM,,,,,,15.0,,NW,15.0,320.0,20001.0
Washington,Unknown,1970-01-30 14:00:00,24.1,,-,55.0,,30.0,,District of Columbia,39.0,,,,9:00 AM,,,,,,15.0,,NNW,15.0,340.0,20001.0
Washington,Unknown,1970-01-30 15:00:00,23.0,,-,51.0,,30.03,,District of Columbia,39.9,,,,10:00 AM,,,,,,15.0,,NW,16.1,320.0,20001.0
Washington,Unknown,1970-01-30 16:00:00,19.9,,-,45.0,,30.03,,District of Columbia,39.9,,,,11:00 AM,,,,,,15.0,,NW,20.7,320.0,20001.0
Washington,Unknown,1970-01-30 17:00:00,18.0,,-,43.0,,30.03,,District of Columbia,39.0,,,,12:00 PM,,,,,,15.0,,NNW,18.4,330.0,20001.0
Washington,Unknown,1970-01-30 18:00:00,19.0,,-,45.0,,30.04,,District of Columbia,39.0,,,,1:00 PM,,,,,,15.0,,NNW,19.6,340.0,20001.0
Washington,Unknown,1970-01-30 19:00:00,17.1,,-,43.0,,30.04,,District of Columbia,37.9,,,,2:00 PM,,,,,,15.0,,NNW,20.7,340.0,20001.0
Washington,Unknown,1970-01-30 20:00:00,15.1,,-,38.0,,30.06,,District of Columbia,39.0,,,,3:00 PM,,,,,,15.0,,NW,18.4,320.0,20001.0
Washington,Unknown,1970-01-30 21:00:00,14.0,,-,39.0,,30.08,,District of Columbia,37.0,,,,4:00 PM,,,,,,15.0,,NNW,18.4,340.0,20001.0
Washington,Unknown,1970-01-30 22:00:00,12.9,,-,40.0,,30.11,,District of Columbia,35.1,,,,5:00 PM,,,,,,15.0,,NNW,18.4,330.0,20001.0
Washington,Clear,1970-01-30 23:00:00,12.0,,-,42.0,,30.13,,District of Columbia,33.1,,,,6:00 PM,,,,,,15.0,,NNW,15.0,330.0,20001.0
Washington,Clear,1970-01-31 00:00:00,12.0,,-,46.0,,30.17,,District of Columbia,30.9,,,,7:00 PM,,,,,,15.0,,NNW,13.8,330.0,20001.0
Washington,Clear,1970-01-31 01:00:00,12.0,,-,46.0,,30.19,,District of Columbia,30.9,,,,8:00 PM,,,,,,15.0,,NW,15.0,320.0,20001.0
Washington,Clear,1970-01-31 02:00:00,10.0,,-,43.0,,30.2,,District of Columbia,30.0,,,,9:00 PM,,,,,,15.0,,NNW,15.0,330.0,20001.0
Washington,Clear,1970-01-31 03:00:00,10.0,,-,47.0,,30.22,,District of Columbia,28.0,,,,10:00 PM,,,,,,15.0,,NNW,11.5,330.0,20001.0
Washington,Clear,1970-01-31 04:00:00,10.9,,-,51.0,,30.23,,District of Columbia,27.0,,,,11:00 PM,,,,,,15.0,,NNW,6.9,330.0,20001.0
Washington,Clear,1970-01-31 05:00:00,10.9,,-,51.0,,30.24,,District of Columbia,27.0,,,,12:00 AM,,,,,,15.0,,NW,6.9,310.0,20001.0
Washington,Unknown,1970-01-31 06:00:00,10.9,,-,55.0,,30.24,,District of Columbia,25.0,,,,1:00 AM,,,,,,15.0,,SSW,3.5,210.0,20001.0
Washington,Unknown,1970-01-31 07:00:00,12.0,,-,58.0,,30.25,,District of Columbia,25.0,,,,2:00 AM,,,,,,15.0,,WSW,3.5,240.0,20001.0
Washington,Unknown,1970-01-31 08:00:00,14.0,,-,60.0,,30.26,,District of Columbia,26.1,,,,3:00 AM,,,,,,15.0,,SW,8.1,230.0,20001.0
Washington,Unknown,1970-01-31 09:00:00,14.0,,-,58.0,,30.26,,District of Columbia,27.0,,,,4:00 AM,,,,,,15.0,,SSW,6.9,210.0,20001.0
Washington,Unknown,1970-01-31 10:00:00,15.1,,-,58.0,,30.26,,District of Columbia,28.0,,,,5:00 AM,,,,,,10.0,,South,4.6,190.0,20001.0
Washington,Unknown,1970-01-31 11:00:00,15.1,,-,61.0,,30.27,,District of Columbia,27.0,,,,6:00 AM,,,,,,10.0,,SW,8.1,220.0,20001.0
Washington,Unknown,1970-01-31 12:00:00,14.0,,-,63.0,,30.27,,District of Columbia,25.0,,,,7:00 AM,,,,,,10.0,,SW,8.1,220.0,20001.0
Washington,Clear,1970-01-31 13:00:00,15.1,,-,56.0,,30.3,,District of Columbia,28.9,,,,8:00 AM,,,,,,10.0,,SW,9.2,230.0,20001.0
Washington,Clear,1970-01-31 14:00:00,17.1,,-,54.0,,30.32,,District of Columbia,32.0,,,,9:00 AM,,,,,,15.0,,South,9.2,180.0,20001.0
Washington,Clear,1970-01-31 15:00:00,21.9,,-,57.0,,30.32,,District of Columbia,36.0,,,,10:00 AM,,,,,,15.0,,SSW,8.1,200.0,20001.0
Washington,Clear,1970-01-31 16:00:00,23.0,,-,51.0,,30.31,,District of Columbia,39.9,,,,11:00 AM,,,,,,15.0,,WSW,9.2,240.0,20001.0
Washington,Clear,1970-01-31 17:00:00,21.0,,-,43.0,,30.28,,District of Columbia,42.1,,,,12:00 PM,,,,,,15.0,,South,10.4,190.0,20001.0
Washington,Clear,1970-01-31 18:00:00,23.0,,-,43.0,,30.24,,District of Columbia,44.1,,,,1:00 PM,,,,,,15.0,,SSW,11.5,200.0,20001.0
Washington,Clear,1970-01-31 19:00:00,23.0,,-,45.0,,30.21,,District of Columbia,43.0,,,,2:00 PM,,,,,,15.0,,South,9.2,170.0,20001.0
Washington,Clear,1970-01-31 20:00:00,23.0,,-,42.0,,30.19,,District of Columbia,45.0,,,,3:00 PM,,,,,,15.0,,South,9.2,180.0,20001.0
Washington,Unknown,1970-01-31 21:00:00,23.0,,-,40.0,,30.18,,District of Columbia,46.0,,,,4:00 PM,,,,,,15.0,,South,11.5,190.0,20001.0
Washington,Unknown,1970-01-31 22:00:00,21.0,,-,39.0,,30.17,,District of Columbia,45.0,,,,5:00 PM,,,,,,15.0,,SSW,11.5,200.0,20001.0
Washington,Unknown,1970-01-31 23:00:00,19.9,,-,41.0,,30.17,,District of Columbia,42.1,,,,6:00 PM,,,,,,15.0,,SSW,9.2,210.0,20001.0
Washington,Clear,1970-02-01 00:00:00,21.9,,-,54.0,,30.19,,District of Columbia,37.0,,,,7:00 PM,,,,,,15.0,,SSW,10.4,200.0,20001.0
Washington,Clear,1970-02-01 01:00:00,23.0,,-,51.0,,30.18,,District of Columbia,39.9,,,,8:00 PM,,,,,,15.0,,SSW,11.5,210.0,20001.0
Washington,Clear,1970-02-01 02:00:00,21.0,,-,51.0,,30.18,,District of Columbia,37.9,,,,9:00 PM,,,,,,15.0,,SSW,6.9,210.0,20001.0
Washington,Clear,1970-02-01 03:00:00,21.0,,-,52.0,,30.19,,District of Columbia,37.0,,,,10:00 PM,,,,,,15.0,,SSW,6.9,210.0,20001.0
Washington,Clear,1970-02-01 04:00:00,19.9,,-,54.0,,30.19,,District of Columbia,35.1,,,,11:00 PM,,,,,,15.0,,SSW,5.8,210.0,20001.0
