,Conditions,DateUTC,Dew PointF,Events,Gust SpeedMPH,Humidity,PrecipitationIn,Sea Level PressureIn,TemperatureF,TimePDT,TimePST,VisibilityMPH,Wind Direction,Wind SpeedMPH,WindDirDegrees,City,State,Zip
0,Haze,2016-01-01 08:47:00,19.0,,-,32,N/A,30.08,48.0,,12:47 AM,6.0,NNE,4.6,20,Los Angeles,California,90001
1,Clear,2016-01-01 09:47:00,19.0,,-,33,N/A,30.07,46.9,,1:47 AM,10.0,Calm,Calm,0,Los Angeles,California,90001
2,Clear,2016-01-01 10:47:00,19.0,,-,36,N/A,30.07,45.0,,2:47 AM,10.0,Calm,Calm,0,Los Angeles,California,90001
3,Clear,2016-01-01 11:47:00,18.0,,-,34,N/A,30.07,45.0,,3:47 AM,10.0,NNE,3.5,20,Los Angeles,California,90001
4,Clear,2016-01-01 12:47:00,18.0,,-,34,N/A,30.08,45.0,,4:47 AM,10.0,NNE,4.6,30,Los Angeles,California,90001
5,Clear,2016-01-01 13:47:00,18.0,,-,35,N/A,30.10,44.1,,5:47 AM,10.0,NNE,3.5,30,Los Angeles,California,90001
6,Clear,2016-01-01 14:47:00,16.0,,-,32,N/A,30.12,44.1,,6:47 AM,10.0,NNE,4.6,30,Los Angeles,California,90001
7,Clear,2016-01-01 15:47:00,16.0,,-,31,N/A,30.14,45.0,,7:47 AM,10.0,NNE,3.5,30,Los Angeles,California,90001
8,Clear,2016-01-01 16:47:00,17.1,,-,27,N/A,30.15,50.0,,8:47 AM,10.0,Variable,3.5,0,Los Angeles,California,90001
9,Clear,2016-01-01 17:47:00,16.0,,-,22,N/A,30.16,54.0,,9:47 AM,10.0,Variable,5.8,0,Los Angeles,California,90001
10,Clear,2016-01-01 18:47:00,17.1,,-,20,N/A,30.15,59.0,,10:47 AM,10.0,Variable,3.5,0,Los Angeles,California,90001
11,Clear,2016-01-01 19:47:00,15.1,,-,17,N/A,30.12,61.0,,11:47 AM,10.0,East,3.5,100,Los Angeles,California,90001
12,Clear,2016-01-01 20:47:00,15.1,,-,16,N/A,30.10,63.0,,12:47 PM,10.0,Variable,4.6,0,Los Angeles,California,90001
13,Clear,2016-01-01 21:47:00,16.0,,-,16,N/A,30.08,63.0,,1:47 PM,10.0,Calm,Calm,0,Los Angeles,California,90001
14,Clear,2016-01-01 22:47:00,18.0,,-,17,N/A,30.07,64.0,,2:47 PM,10.0,Calm,Calm,0,Los Angeles,California,90001
15,Clear,2016-01-01 23:47:00,17.1,,-,17,N/A,30.06,63.0,,3:47 PM,10.0,Calm,Calm,0,Los Angeles,California,90001
16,Clear,2016-01-02 00:47:00,19.0,,-,20,N/A,30.07,60.1,,4:47 PM,10.0,Calm,Calm,0,Los Angeles,California,90001
17,Clear,2016-01-02 01:47:00,21.9,,-,25,N/A,30.08,57.9,,5:47 PM,10.0,West,4.6,280,Los Angeles,California,90001
18,Clear,2016-01-02 02:47:00,36.0,,-,51,N/A,30.09,54.0,,6:47 PM,10.0,Calm,Calm,0,Los Angeles,California,90001
19,Clear,2016-01-02 03:47:00,24.1,,-,32,N/A,30.09,53.1,,7:47 PM,10.0,Calm,Calm,0,Los Angeles,California,90001
20,Clear,2016-01-02 04:47:00,19.0,,-,26,N/A,30.10,53.1,,8:47 PM,10.0,Calm,Calm,0,Los Angeles,California,90001
21,Clear,2016-01-02 05:47:00,18.0,,-,25,N/A,30.10,53.1,,9:47 PM,10.0,North,3.5,10,Los Angeles,California,90001
22,Clear,2016-01-02 06:47:00,18.0,,-,26,N/A,30.10,52.0,,10:47 PM,10.0,NNE,3.5,30,Los Angeles,California,90001
23,Clear,2016-01-02 07:47:00,18.0,,-,25,N/A,30.10,53.1,,11:47 PM,10.0,Variable,3.5,0,Los Angeles,California,90001
0,Clear,2016-01-02 08:47:00,17.1,,-,25,N/A,30.09,52.0,,12:47 AM,10.0,Calm,Calm,0,Los Angeles,California,90001
1,Clear,2016-01-02 09:47:00,17.1,,-,27,N/A,30.10,50.0,,1:47 AM,10.0,Calm,Calm,0,Los Angeles,California,90001
2,Clear,2016-01-02 10:47:00,17.1,,-,27,N/A,30.10,50.0,,2:47 AM,10.0,NNE,4.6,20,Los Angeles,California,90001
3,Clear,2016-01-02 11:47:00,18.0,,-,29,N/A,30.09,48.9,,3:47 AM,10.0,Calm,Calm,0,Los Angeles,California,90001
4,Clear,2016-01-02 12:47:00,18.0,,-,30,N/A,30.08,48.0,,4:47 AM,10.0,North,3.5,10,Los Angeles,California,90001
5,Clear,2016-01-02 13:47:00,18.0,,-,30,N/A,30.09,48.0,,5:47 AM,10.0,North,3.5,10,Los Angeles,California,90001
6,Clear,2016-01-02 14:47:00,18.0,,-,30,N/A,30.09,48.0,,6:47 AM,10.0,North,3.5,350,Los Angeles,California,90001
7,Clear,2016-01-02 15:47:00,18.0,,-,30,N/A,30.08,48.0,,7:47 AM,10.0,NNE,4.6,30,Los Angeles,California,90001
8,Clear,2016-01-02 16:47:00,19.0,,-,27,N/A,30.09,52.0,,8:47 AM,10.0,North,4.6,360,Los Angeles,California,90001
9,Clear,2016-01-02 17:47:00,17.1,,-,21,N/A,30.09,57.0,,9:47 AM,10.0,Variable,3.5,0,Los Angeles,California,90001
10,Clear,2016-01-02 18:47:00,18.0,,-,20,N/A,30.10,59.0,,10:47 AM,10.0,NE,3.5,40,Los Angeles,California,90001
11,Clear,2016-01-02 19:47:00,18.0,,-,18,N/A,30.06,62.1,,11:47 AM,10.0,Variable,4.6,0,Los Angeles,California,90001
12,Clear,2016-01-02 20:47:00,18.0,,-,18,N/A,30.04,63.0,,12:47 PM,10.0,East,3.5,100,Los Angeles,California,90001
13,Clear,2016-01-02 21:47:00,21.9,,-,20,N/A,30.02,64.0,,1:47 PM,10.0,Calm,Calm,0,Los Angeles,California,90001
14,Clear,2016-01-02 22:47:00,21.0,,-,19,N/A,30.02,64.9,,2:47 PM,10.0,Calm,Calm,0,Los Angeles,California,90001
15,Clear,2016-01-02 23:47:00,34.0,,-,33,N/A,30.02,64.0,,3:47 PM,10.0,Variable,3.5,0,Los Angeles,California,90001
16,Clear,2016-01-03 00:47:00,41.0,,-,51,N/A,30.02,59.0,,4:47 PM,10.0,West,4.6,280,Los Angeles,California,90001
17,Clear,2016-01-03 01:47:00,42.1,,-,60,N/A,30.04,55.9,,5:47 PM,10.0,Calm,Calm,0,Los Angeles,California,90001
18,Clear,2016-01-03 02:47:00,43.0,,-,64,N/A,30.05,55.0,,6:47 PM,10.0,Calm,Calm,0,Los Angeles,California,90001
19,Clear,2016-01-03 03:47:00,44.1,,-,71,N/A,30.05,53.1,,7:47 PM,10.0,Calm,Calm,0,Los Angeles,California,90001
20,Clear,2016-01-03 04:47:00,44.1,,-,77,N/A,30.05,51.1,,8:47 PM,10.0,Calm,Calm,0,Los Angeles,California,90001
21,Clear,2016-01-03 05:47:00,43.0,,-,74,N/A,30.06,51.1,,9:47 PM,10.0,Calm,Calm,0,Los Angeles,California,90001
22,Clear,2016-01-03 06:47:00,43.0,,-,74,N/A,30.06,51.1,,10:47 PM,10.0,Calm,Calm,0,Los Angeles,California,90001
23,Clear,2016-01-03 07:47:00,41.0,,-,71,N/A,30.05,50.0,,11:47 PM,10.0,Calm,Calm,0,Los Angeles,California,90001
0,Clear,2016-01-03 08:47:00,34.0,,-,58,N/A,30.03,48.0,,12:47 AM,10.0,Calm,Calm,0,Los Angeles,California,90001
1,Clear,2016-01-03 09:47:00,34.0,,-,63,N/A,30.03,46.0,,1:47 AM,10.0,Calm,Calm,0,Los Angeles,California,90001
2,Clear,2016-01-03 10:47:00,30.0,,-,52,N/A,30.01,46.9,,2:47 AM,10.0,Calm,Calm,0,Los Angeles,California,90001
3,Clear,2016-01-03 11:47:00,28.9,,-,51,N/A,29.99,46.0,,3:47 AM,10.0,Calm,Calm,0,Los Angeles,California,90001
4,Clear,2016-01-03 12:47:00,30.0,,-,56,N/A,29.99,45.0,,4:47 AM,10.0,Calm,Calm,0,Los Angeles,California,90001
5,Clear,2016-01-03 13:47:00,30.9,,-,60,N/A,29.99,44.1,,5:47 AM,10.0,Calm,Calm,0,Los Angeles,California,90001
6,Clear,2016-01-03 14:47:00,30.0,,-,58,N/A,30.00,44.1,,6:47 AM,10.0,Calm,Calm,0,Los Angeles,California,90001
7,Clear,2016-01-03 15:47:00,28.9,,-,53,N/A,30.00,45.0,,7:47 AM,10.0,Calm,Calm,0,Los Angeles,California,90001
8,Clear,2016-01-03 16:47:00,32.0,,-,48,N/A,30.01,51.1,,8:47 AM,10.0,Calm,Calm,0,Los Angeles,California,90001
9,Clear,2016-01-03 17:47:00,30.9,,-,39,N/A,30.01,55.9,,9:47 AM,10.0,Calm,Calm,0,Los Angeles,California,90001
10,Clear,2016-01-03 18:47:00,43.0,,-,58,N/A,30.01,57.9,,10:47 AM,10.0,Calm,Calm,0,Los Angeles,California,90001
11,Clear,2016-01-03 19:47:00,45.0,,-,56,N/A,29.97,61.0,,11:47 AM,10.0,Calm,Calm,0,Los Angeles,California,90001
12,Clear,2016-01-03 20:47:00,45.0,,-,56,N/A,29.94,61.0,,12:47 PM,10.0,Variable,3.5,0,Los Angeles,California,90001
13,Clear,2016-01-03 21:47:00,45.0,,-,56,N/A,29.90,61.0,,1:47 PM,10.0,ESE,4.6,120,Los Angeles,California,90001
14,Clear,2016-01-03 22:47:00,44.1,,-,52,N/A,29.88,62.1,,2:47 PM,10.0,North,-9999.0,0,Los Angeles,California,90001
15,Clear,2016-01-03 23:47:00,45.0,,-,56,N/A,29.87,61.0,,3:47 PM,10.0,Variable,4.6,0,Los Angeles,California,90001
16,Clear,2016-01-04 00:47:00,44.1,,-,55,N/A,29.86,60.1,,4:47 PM,10.0,SE,3.5,130,Los Angeles,California,90001
17,Clear,2016-01-04 01:47:00,45.0,,-,62,N/A,29.86,57.9,,5:47 PM,10.0,Calm,Calm,0,Los Angeles,California,90001
18,Clear,2016-01-04 02:47:00,46.0,,-,69,N/A,29.87,55.9,,6:47 PM,10.0,Calm,Calm,0,Los Angeles,California,90001
19,Clear,2016-01-04 03:47:00,46.0,,-,75,N/A,29.87,54.0,,7:47 PM,10.0,Calm,Calm,0,Los Angeles,California,90001
20,Scattered Clouds,2016-01-04 04:47:00,45.0,,-,69,N/A,29.87,55.0,,8:47 PM,10.0,Calm,Calm,0,Los Angeles,California,90001
21,Overcast,2016-01-04 05:47:00,46.0,,-,69,N/A,29.86,55.9,,9:47 PM,10.0,Calm,Calm,0,Los Angeles,California,90001
22,Overcast,2016-01-04 06:47:00,45.0,,-,64,N/A,29.84,57.0,,10:47 PM,10.0,Calm,Calm,0,Los Angeles,California,90001
23,Mostly Cloudy,2016-01-04 07:47:00,45.0,,-,67,N/A,29.81,55.9,,11:47 PM,10.0,Calm,Calm,0,Los Angeles,California,90001
0,Overcast,2016-01-04 08:47:00,42.1,,-,57,N/A,29.79,57.0,,12:47 AM,10.0,Variable,5.8,0,Los Angeles,California,90001
1,Light Rain,2016-01-04 09:47:00,43.0,Rain,-,62,0.00,29.77,55.9,,1:47 AM,10.0,Variable,4.6,0,Los Angeles,California,90001
2,Overcast,2016-01-04 10:47:00,45.0,,-,64,0.00,29.76,57.0,,2:47 AM,10.0,Calm,Calm,0,Los Angeles,California,90001
3,Overcast,2016-01-04 11:47:00,45.0,,-,67,N/A,29.74,55.9,,3:47 AM,10.0,Calm,Calm,0,Los Angeles,California,90001
4,Overcast,2016-01-04 12:47:00,43.0,,-,59,N/A,29.73,57.0,,4:47 AM,10.0,North,3.5,10,Los Angeles,California,90001
5,Overcast,2016-01-04 13:47:00,45.0,,-,67,0.01,29.74,55.9,,5:47 AM,10.0,Calm,Calm,0,Los Angeles,California,90001
6,Overcast,2016-01-04 14:47:00,46.0,,-,69,N/A,29.76,55.9,,6:47 AM,10.0,Calm,Calm,0,Los Angeles,California,90001
7,Overcast,2016-01-04 15:47:00,45.0,,-,67,N/A,29.78,55.9,,7:47 AM,10.0,Calm,Calm,0,Los Angeles,California,90001
8,Mostly Cloudy,2016-01-04 16:47:00,45.0,,-,60,N/A,29.79,59.0,,8:47 AM,10.0,NE,4.6,40,Los Angeles,California,90001
9,Clear,2016-01-04 17:47:00,45.0,,-,52,N/A,29.80,63.0,,9:47 AM,10.0,Calm,Calm,0,Los Angeles,California,90001
10,Clear,2016-01-04 18:47:00,42.1,,-,45,N/A,29.79,64.0,,10:47 AM,10.0,Variable,3.5,0,Los Angeles,California,90001
11,Partly Cloudy,2016-01-04 19:47:00,39.9,,-,36,N/A,29.78,68.0,,11:47 AM,10.0,Calm,Calm,0,Los Angeles,California,90001
12,Overcast,2016-01-04 20:47:00,41.0,,-,37,N/A,29.76,68.0,,12:47 PM,10.0,Calm,Calm,0,Los Angeles,California,90001
13,Clear,2016-01-04 21:47:00,42.1,,-,40,N/A,29.75,66.9,,1:47 PM,10.0,Calm,Calm,0,Los Angeles,California,90001
14,Clear,2016-01-04 22:47:00,41.0,,-,39,N/A,29.75,66.9,,2:47 PM,10.0,Calm,Calm,0,Los Angeles,California,90001
15,Clear,2016-01-04 23:47:00,46.0,,-,50,N/A,29.77,64.9,,3:47 PM,10.0,West,4.6,270,Los Angeles,California,90001
16,Overcast,2016-01-05 00:47:00,46.9,,-,58,N/A,29.80,62.1,,4:47 PM,10.0,West,5.8,280,Los Angeles,California,90001
17,Overcast,2016-01-05 01:47:00,48.9,,-,64,N/A,29.81,61.0,,5:47 PM,10.0,Calm,Calm,0,Los Angeles,California,90001
18,Clear,2016-01-05 02:47:00,48.9,,-,69,N/A,29.83,59.0,,6:47 PM,10.0,Calm,Calm,0,Los Angeles,California,90001
19,Clear,2016-01-05 03:47:00,51.1,,-,78,N/A,29.85,57.9,,7:47 PM,10.0,Calm,Calm,0,Los Angeles,California,90001
20,Overcast,2016-01-05 07:47:00,50.0,,-,75,N/A,29.87,57.9,,11:47 PM,10.0,Calm,Calm,0,Los Angeles,California,90001
0,Overcast,2016-01-05 08:47:00,50.0,,-,77,N/A,29.87,57.0,,12:47 AM,10.0,Calm,Calm,0,Los Angeles,California,90001
1,Overcast,2016-01-05 09:47:00,51.1,,-,81,N/A,29.87,57.0,,1:47 AM,10.0,Calm,Calm,0,Los Angeles,California,90001
2,Overcast,2016-01-05 10:47:00,48.9,,-,74,N/A,29.85,57.0,,2:47 AM,10.0,East,4.6,90,Los Angeles,California,90001
3,Overcast,2016-01-05 11:47:00,50.0,,-,75,N/A,29.84,57.9,,3:47 AM,10.0,Variable,3.5,0,Los Angeles,California,90001
4,Overcast,2016-01-05 12:47:00,50.0,,-,77,N/A,29.84,57.0,,4:47 AM,10.0,Calm,Calm,0,Los Angeles,California,90001
5,Light Rain,2016-01-05 13:47:00,50.0,Rain,-,77,0.00,29.84,57.0,,5:47 AM,9.0,East,3.5,100,Los Angeles,California,90001
6,Overcast,2016-01-05 14:16:00,51.1,,-,81,0.00,29.84,57.0,,6:16 AM,9.0,Variable,4.6,0,Los Angeles,California,90001
7,Overcast,2016-01-05 14:23:00,52.0,,-,83,0.00,29.84,57.0,,6:23 AM,9.0,East,5.8,90,Los Angeles,California,90001
8,Overcast,2016-01-05 14:38:00,52.0,,-,83,0.00,29.83,57.0,,6:38 AM,9.0,ESE,6.9,110,Los Angeles,California,90001
9,Light Rain,2016-01-05 14:47:00,52.0,Rain,-,83,0.00,29.83,57.0,,6:47 AM,10.0,East,5.8,90,Los Angeles,California,90001
10,Overcast,2016-01-05 14:59:00,52.0,,-,83,0.00,29.83,57.0,,6:59 AM,7.0,East,5.8,100,Los Angeles,California,90001
11,Heavy Rain,2016-01-05 15:17:00,54.0,Rain,-,93,0.02,29.84,55.9,,7:17 AM,2.0,East,8.1,100,Los Angeles,California,90001
12,Heavy Rain,2016-01-05 15:21:00,54.0,Rain,-,93,0.06,29.83,55.9,,7:21 AM,1.5,Variable,5.8,0,Los Angeles,California,90001
13,Heavy Rain,2016-01-05 15:28:00,54.0,Rain,-,93,0.11,29.84,55.9,,7:28 AM,1.8,East,5.8,100,Los Angeles,California,90001
14,Light Rain,2016-01-05 15:31:00,54.0,Rain,-,93,0.12,29.84,55.9,,7:31 AM,2.0,East,5.8,100,Los Angeles,California,90001
15,Rain,2016-01-05 15:47:00,55.0,Rain,-,97,0.16,29.83,55.9,,7:47 AM,2.0,ESE,4.6,110,Los Angeles,California,90001
16,Rain,2016-01-05 15:49:00,55.0,Rain,-,97,0.00,29.83,55.9,,7:49 AM,1.8,Variable,5.8,0,Los Angeles,California,90001
17,Light Rain,2016-01-05 15:58:00,55.0,Rain,-,97,0.02,29.83,55.9,,7:58 AM,2.0,ESE,6.9,110,Los Angeles,California,90001
18,Light Rain,2016-01-05 16:01:00,55.0,Rain,-,97,0.02,29.83,55.9,,8:01 AM,3.0,Variable,6.9,0,Los Angeles,California,90001
19,Light Rain,2016-01-05 16:04:00,55.0,Rain,-,93,0.02,29.83,57.0,,8:04 AM,4.0,Variable,6.9,0,Los Angeles,California,90001
20,Light Rain,2016-01-05 16:10:00,55.0,Rain,-,93,0.02,29.83,57.0,,8:10 AM,5.0,Variable,4.6,0,Los Angeles,California,90001
21,Heavy Rain,2016-01-05 16:17:00,55.0,Rain,-,93,0.04,29.83,57.0,,8:17 AM,1.8,ESE,6.9,120,Los Angeles,California,90001
22,Rain,2016-01-05 16:20:00,55.0,Rain,-,93,0.06,29.83,57.0,,8:20 AM,1.5,Variable,5.8,0,Los Angeles,California,90001
23,Rain,2016-01-05 16:27:00,55.0,Rain,-,93,0.07,29.83,57.0,,8:27 AM,2.5,Variable,6.9,0,Los Angeles,California,90001
24,Rain,2016-01-05 16:30:00,54.0,Rain,-,93,0.07,29.83,55.9,,8:30 AM,3.0,SE,9.2,140,Los Angeles,California,90001
25,Rain,2016-01-05 16:39:00,55.0,Rain,-,93,0.09,29.83,57.0,,8:39 AM,2.5,SE,6.9,140,Los Angeles,California,90001
26,Rain,2016-01-05 16:42:00,55.0,Rain,-,93,0.10,29.83,57.0,,8:42 AM,2.0,SE,5.8,140,Los Angeles,California,90001
27,Rain,2016-01-05 16:47:00,55.0,Rain,-,93,0.12,29.83,57.0,,8:47 AM,2.0,SE,8.1,140,Los Angeles,California,90001
28,Rain,2016-01-05 16:50:00,54.0,Rain,-,93,0.00,29.83,55.9,,8:50 AM,2.0,SE,9.2,130,Los Angeles,California,90001
29,Rain,2016-01-05 17:06:00,54.0,Rain,-,93,0.04,29.84,55.9,,9:06 AM,2.5,Variable,4.6,0,Los Angeles,California,90001
30,Heavy Rain,2016-01-05 17:12:00,54.0,Rain,-,93,0.06,29.85,55.9,,9:12 AM,1.8,SE,5.8,140,Los Angeles,California,90001
31,Heavy Rain,2016-01-05 17:15:00,54.0,Rain,-,93,0.08,29.85,55.9,,9:15 AM,1.0,Variable,4.6,0,Los Angeles,California,90001
32,Heavy Rain,2016-01-05 17:18:00,54.0,Rain,-,93,0.11,29.85,55.9,,9:18 AM,0.8,Variable,5.8,0,Los Angeles,California,90001
33,Heavy Rain,2016-01-05 17:21:00,54.0,Rain,-,93,0.14,29.85,55.9,,9:21 AM,0.8,Variable,3.5,0,Los Angeles,California,90001
34,Heavy Rain,2016-01-05 17:26:00,54.0,Rain,-,93,0.17,29.85,55.9,,9:26 AM,1.0,Variable,5.8,0,Los Angeles,California,90001
35,Rain,2016-01-05 17:47:00,55.0,Rain,-,97,0.29,29.85,55.9,,9:47 AM,1.5,Variable,3.5,0,Los Angeles,California,90001
36,Rain,2016-01-05 17:58:00,55.0,Rain,-,97,0.04,29.86,55.9,,9:58 AM,2.0,Calm,Calm,0,Los Angeles,California,90001
37,Rain,2016-01-05 18:05:00,55.0,Rain,-,97,0.06,29.86,55.9,,10:05 AM,3.0,Variable,3.5,0,Los Angeles,California,90001
38,Rain,2016-01-05 18:13:00,55.0,Rain,-,93,0.08,29.85,57.0,,10:13 AM,2.5,Variable,5.8,0,Los Angeles,California,90001
39,Rain,2016-01-05 18:20:00,55.0,Rain,-,93,0.09,29.85,57.0,,10:20 AM,3.0,SE,4.6,130,Los Angeles,California,90001
40,Heavy Rain,2016-01-05 18:29:00,55.9,Rain,-,96,0.11,29.85,57.0,,10:29 AM,1.8,Variable,4.6,0,Los Angeles,California,90001
41,Rain,2016-01-05 18:41:00,55.9,Rain,-,96,0.17,29.85,57.0,,10:41 AM,2.0,North,-9999.0,0,Los Angeles,California,90001
42,Rain,2016-01-05 18:47:00,55.9,Rain,-,96,0.19,29.85,57.0,,10:47 AM,2.0,Calm,Calm,0,Los Angeles,California,90001
43,Rain,2016-01-05 18:58:00,55.9,Rain,-,96,0.02,29.84,57.0,,10:58 AM,2.5,Variable,4.6,0,Los Angeles,California,90001
44,Rain,2016-01-05 19:03:00,55.9,Rain,-,93,0.03,29.84,57.9,,11:03 AM,2.5,Calm,Calm,0,Los Angeles,California,90001
45,Light Rain,2016-01-05 19:13:00,57.0,Rain,-,97,0.06,29.83,57.9,,11:13 AM,3.0,Variable,4.6,0,Los Angeles,California,90001
46,Rain,2016-01-05 19:47:00,57.0,Rain,-,97,0.09,29.80,57.9,,11:47 AM,4.0,SE,4.6,130,Los Angeles,California,90001
47,Rain,2016-01-05 19:52:00,57.0,Rain,-,97,0.01,29.79,57.9,,11:52 AM,4.0,ESE,3.5,120,Los Angeles,California,90001
48,Rain,2016-01-05 20:12:00,57.0,Rain,-,97,0.06,29.78,57.9,,12:12 PM,2.0,Calm,Calm,0,Los Angeles,California,90001
49,Heavy Rain,2016-01-05 20:16:00,57.0,Rain,-,97,0.07,29.78,57.9,,12:16 PM,1.8,Calm,Calm,0,Los Angeles,California,90001
50,Heavy Rain,2016-01-05 20:29:00,57.0,Fog-Rain,-,97,0.16,29.77,57.9,,12:29 PM,0.5,Variable,4.6,0,Los Angeles,California,90001
51,Heavy Rain,2016-01-05 20:37:00,57.0,Fog-Rain,-,100,0.45,29.78,57.0,,12:37 PM,0.2,Calm,Calm,0,Los Angeles,California,90001
52,Light Rain,2016-01-05 20:42:00,55.9,Fog-Rain,-,96,0.51,29.78,57.0,,12:42 PM,0.5,Calm,Calm,0,Los Angeles,California,90001
53,Light Rain,2016-01-05 20:47:00,57.0,Rain,-,100,0.51,29.77,57.0,,12:47 PM,2.5,Calm,Calm,0,Los Angeles,California,90001
54,Light Rain,2016-01-05 20:50:00,55.9,Rain,-,96,0.00,29.77,57.0,,12:50 PM,3.0,Calm,Calm,0,Los Angeles,California,90001
55,Rain,2016-01-05 20:53:00,55.9,Rain,-,96,0.01,29.76,57.0,,12:53 PM,2.5,Calm,Calm,0,Los Angeles,California,90001
56,Light Rain,2016-01-05 21:03:00,55.9,Rain,-,96,0.02,29.76,57.0,,1:03 PM,4.0,Calm,Calm,0,Los Angeles,California,90001
57,Light Rain,2016-01-05 21:09:00,55.0,Rain,-,97,0.02,29.76,55.9,,1:09 PM,3.0,West,4.6,280,Los Angeles,California,90001
58,Heavy Rain,2016-01-05 21:11:00,54.0,Rain,-,96,0.03,29.76,55.0,,1:11 PM,1.8,West,5.8,280,Los Angeles,California,90001
59,Heavy Rain,2016-01-05 21:14:00,54.0,Fog-Rain,-,96,0.05,29.76,55.0,,1:14 PM,0.5,Variable,3.5,0,Los Angeles,California,90001
60,Heavy Rain,2016-01-05 21:18:00,54.0,Fog-Rain,-,100,0.18,29.76,54.0,,1:18 PM,0.2,WNW,3.5,290,Los Angeles,California,90001
61,Light Rain,2016-01-05 21:22:00,54.0,Fog-Rain,-,100,0.20,29.75,54.0,,1:22 PM,0.5,WNW,3.5,300,Los Angeles,California,90001
62,Light Rain,2016-01-05 21:26:00,54.0,Rain,-,100,0.20,29.75,54.0,,1:26 PM,1.8,Calm,Calm,0,Los Angeles,California,90001
63,Light Rain,2016-01-05 21:28:00,54.0,Rain,-,96,0.21,29.75,55.0,,1:28 PM,2.5,Calm,Calm,0,Los Angeles,California,90001
64,Light Rain,2016-01-05 21:30:00,54.0,Rain,-,96,0.21,29.74,55.0,,1:30 PM,3.0,Calm,Calm,0,Los Angeles,California,90001
65,Light Rain,2016-01-05 21:43:00,55.0,Rain,-,97,0.21,29.74,55.9,,1:43 PM,4.0,Calm,Calm,0,Los Angeles,California,90001
66,Light Rain,2016-01-05 21:47:00,55.0,Rain,-,97,0.21,29.75,55.9,,1:47 PM,5.0,Calm,Calm,0,Los Angeles,California,90001
67,Rain,2016-01-05 21:55:00,55.0,Rain,-,97,0.01,29.75,55.9,,1:55 PM,2.0,Calm,Calm,0,Los Angeles,California,90001
68,Rain,2016-01-05 21:58:00,55.0,Rain,-,97,0.02,29.74,55.9,,1:58 PM,1.8,Calm,Calm,0,Los Angeles,California,90001
69,Light Rain,2016-01-05 22:02:00,55.0,Rain,-,97,0.03,29.74,55.9,,2:02 PM,2.0,Calm,Calm,0,Los Angeles,California,90001
70,Light Rain,2016-01-05 22:12:00,55.0,Rain,-,97,0.04,29.74,55.9,,2:12 PM,3.0,WNW,3.5,290,Los Angeles,California,90001
71,Light Rain,2016-01-05 22:17:00,55.0,Rain,-,97,0.04,29.74,55.9,,2:17 PM,5.0,West,3.5,280,Los Angeles,California,90001
72,Light Rain,2016-01-05 22:20:00,55.0,Rain,-,97,0.04,29.75,55.9,,2:20 PM,6.0,WNW,3.5,290,Los Angeles,California,90001
73,Light Rain,2016-01-05 22:28:00,54.0,Rain,-,93,0.04,29.75,55.9,,2:28 PM,6.0,West,5.8,270,Los Angeles,California,90001
74,Light Rain,2016-01-05 22:36:00,55.0,Rain,-,97,0.04,29.75,55.9,,2:36 PM,8.0,West,4.6,270,Los Angeles,California,90001
75,Overcast,2016-01-05 22:47:00,55.0,,-,93,0.04,29.75,57.0,,2:47 PM,10.0,Variable,3.5,0,Los Angeles,California,90001
76,Scattered Clouds,2016-01-05 23:47:00,53.1,,-,84,N/A,29.78,57.9,,3:47 PM,10.0,Variable,4.6,0,Los Angeles,California,90001
77,Partly Cloudy,2016-01-06 00:47:00,51.1,,-,81,N/A,29.80,57.0,,4:47 PM,10.0,Variable,4.6,0,Los Angeles,California,90001
78,Mostly Cloudy,2016-01-06 01:47:00,50.0,,-,80,N/A,29.81,55.9,,5:47 PM,10.0,Variable,4.6,0,Los Angeles,California,90001
79,Clear,2016-01-06 02:47:00,48.9,,-,83,N/A,29.83,54.0,,6:47 PM,10.0,West,3.5,270,Los Angeles,California,90001
80,Clear,2016-01-06 03:47:00,48.9,,-,89,N/A,29.85,52.0,,7:47 PM,10.0,Calm,Calm,0,Los Angeles,California,90001
81,Clear,2016-01-06 04:47:00,46.9,,-,80,N/A,29.86,53.1,,8:47 PM,10.0,Calm,Calm,0,Los Angeles,California,90001
82,Clear,2016-01-06 05:47:00,46.0,,-,86,N/A,29.89,50.0,,9:47 PM,10.0,Calm,Calm,0,Los Angeles,California,90001
83,Clear,2016-01-06 06:47:00,46.0,,-,86,N/A,29.91,50.0,,10:47 PM,10.0,Calm,Calm,0,Los Angeles,California,90001
84,Clear,2016-01-06 07:47:00,45.0,,-,86,N/A,29.91,48.9,,11:47 PM,10.0,Calm,Calm,0,Los Angeles,California,90001
0,Clear,2016-01-06 08:47:00,45.0,,-,89,N/A,29.92,48.0,,12:47 AM,10.0,Calm,Calm,0,Los Angeles,California,90001
1,Clear,2016-01-06 09:47:00,44.1,,-,86,N/A,29.92,48.0,,1:47 AM,10.0,Calm,Calm,0,Los Angeles,California,90001
2,Clear,2016-01-06 10:47:00,44.1,,-,93,N/A,29.94,46.0,,2:47 AM,10.0,Calm,Calm,0,Los Angeles,California,90001
3,Clear,2016-01-06 11:47:00,43.0,,-,89,N/A,29.95,46.0,,3:47 AM,10.0,Calm,Calm,0,Los Angeles,California,90001
4,Mostly Cloudy,2016-01-06 12:47:00,45.0,,-,89,N/A,29.96,48.0,,4:47 AM,10.0,Calm,Calm,0,Los Angeles,California,90001
5,Mostly Cloudy,2016-01-06 13:27:00,45.0,,-,86,N/A,29.97,48.9,,5:27 AM,10.0,Calm,Calm,0,Los Angeles,California,90001
6,Overcast,2016-01-06 13:47:00,44.1,,-,80,N/A,29.96,50.0,,5:47 AM,10.0,East,4.6,100,Los Angeles,California,90001
7,Overcast,2016-01-06 14:47:00,45.0,,-,83,0.00,29.99,50.0,,6:47 AM,10.0,East,5.8,100,Los Angeles,California,90001
8,Overcast,2016-01-06 14:52:00,45.0,,-,83,N/A,29.99,50.0,,6:52 AM,10.0,East,4.6,100,Los Angeles,California,90001
9,Overcast,2016-01-06 15:03:00,45.0,,-,83,N/A,30.00,50.0,,7:03 AM,10.0,East,4.6,100,Los Angeles,California,90001
10,Overcast,2016-01-06 15:06:00,45.0,,-,83,N/A,30.00,50.0,,7:06 AM,10.0,Variable,4.6,0,Los Angeles,California,90001
11,Light Rain,2016-01-06 15:47:00,45.0,Rain,-,80,0.00,30.01,51.1,,7:47 AM,4.0,SE,4.6,130,Los Angeles,California,90001
12,Light Rain,2016-01-06 15:51:00,46.0,Rain,-,86,0.00,30.01,50.0,,7:51 AM,2.0,Variable,3.5,0,Los Angeles,California,90001
13,Light Rain,2016-01-06 15:59:00,46.0,Rain,-,86,0.01,30.00,50.0,,7:59 AM,4.0,ESE,5.8,110,Los Angeles,California,90001
14,Light Rain,2016-01-06 16:10:00,46.0,Rain,-,86,0.01,30.00,50.0,,8:10 AM,7.0,East,5.8,100,Los Angeles,California,90001
15,Light Rain,2016-01-06 16:47:00,46.0,Rain,-,83,0.01,30.00,51.1,,8:47 AM,4.0,East,6.9,90,Los Angeles,California,90001
16,Rain,2016-01-06 17:21:00,46.9,Rain,-,86,0.02,30.00,51.1,,9:21 AM,2.0,ESE,9.2,110,Los Angeles,California,90001
17,Heavy Rain,2016-01-06 17:24:00,46.9,Rain,-,86,0.03,30.00,51.1,,9:24 AM,1.5,East,6.9,100,Los Angeles,California,90001
18,Rain,2016-01-06 17:34:00,48.0,Rain,-,89,0.06,30.00,51.1,,9:34 AM,1.8,Variable,4.6,0,Los Angeles,California,90001
19,Rain,2016-01-06 17:40:00,48.0,Rain,-,89,0.08,30.00,51.1,,9:40 AM,2.0,East,6.9,80,Los Angeles,California,90001
20,Light Rain,2016-01-06 17:44:00,48.0,Rain,-,89,0.09,30.00,51.1,,9:44 AM,3.0,ESE,8.1,110,Los Angeles,California,90001
21,Light Rain,2016-01-06 17:47:00,48.0,Rain,-,89,0.09,30.01,51.1,,9:47 AM,5.0,East,6.9,100,Los Angeles,California,90001
22,Heavy Rain,2016-01-06 17:56:00,48.0,Rain,-,93,0.02,30.00,50.0,,9:56 AM,1.8,East,9.2,100,Los Angeles,California,90001
23,Light Rain,2016-01-06 18:06:00,48.0,Rain,-,93,0.06,30.00,50.0,,10:06 AM,3.0,East,10.4,90,Los Angeles,California,90001
24,Overcast,2016-01-06 18:17:00,48.0,,17.3,89,0.06,29.98,51.1,,10:17 AM,10.0,ESE,9.2,110,Los Angeles,California,90001
25,Heavy Rain,2016-01-06 18:36:00,48.0,Rain,-,89,0.09,29.97,51.1,,10:36 AM,1.8,ESE,8.1,110,Los Angeles,California,90001
26,Rain,2016-01-06 18:47:00,48.9,Rain,-,92,0.16,29.96,51.1,,10:47 AM,1.8,ESE,8.1,110,Los Angeles,California,90001
27,Rain,2016-01-06 18:50:00,48.9,Rain,-,92,0.00,29.95,51.1,,10:50 AM,2.0,ESE,6.9,110,Los Angeles,California,90001
28,Heavy Rain,2016-01-06 18:59:00,48.9,Rain,-,92,0.04,29.95,51.1,,10:59 AM,1.8,ESE,8.1,110,Los Angeles,California,90001
29,Rain,2016-01-06 19:03:00,48.9,Rain,-,92,0.06,29.95,51.1,,11:03 AM,2.0,SE,4.6,140,Los Angeles,California,90001
30,Rain,2016-01-06 19:08:00,50.0,Rain,-,93,0.07,29.95,52.0,,11:08 AM,3.0,SE,6.9,130,Los Angeles,California,90001
31,Heavy Rain,2016-01-06 19:21:00,51.1,Rain,-,93,0.09,29.93,53.1,,11:21 AM,2.5,SE,8.1,130,Los Angeles,California,90001
32,Light Rain,2016-01-06 19:29:00,52.0,Rain,-,93,0.11,29.94,54.0,,11:29 AM,4.0,North,-9999.0,0,Los Angeles,California,90001
33,Light Rain,2016-01-06 19:36:00,53.1,Rain,-,93,0.12,29.94,55.0,,11:36 AM,5.0,Calm,Calm,0,Los Angeles,California,90001
34,Rain,2016-01-06 19:42:00,53.1,Rain,-,93,0.14,29.93,55.0,,11:42 AM,2.5,Calm,Calm,0,Los Angeles,California,90001
35,Rain,2016-01-06 19:47:00,53.1,Rain,-,93,0.15,29.93,55.0,,11:47 AM,2.5,Calm,Calm,0,Los Angeles,California,90001
36,Light Rain,2016-01-06 19:52:00,53.1,Rain,-,93,0.01,29.93,55.0,,11:52 AM,3.0,Calm,Calm,0,Los Angeles,California,90001
37,Rain,2016-01-06 20:02:00,54.0,Rain,-,96,0.04,29.92,55.0,,12:02 PM,3.0,Variable,3.5,0,Los Angeles,California,90001
38,Rain,2016-01-06 20:19:00,53.1,Rain,-,93,0.07,29.91,55.0,,12:19 PM,1.8,Variable,3.5,0,Los Angeles,California,90001
39,Heavy Rain,2016-01-06 20:30:00,53.1,Rain,-,97,0.15,29.90,54.0,,12:30 PM,0.8,Calm,Calm,0,Los Angeles,California,90001
40,Light Rain,2016-01-06 20:40:00,53.1,Rain,-,97,0.26,29.90,54.0,,12:40 PM,1.5,Variable,3.5,0,Los Angeles,California,90001
41,Light Rain,2016-01-06 20:42:00,53.1,Rain,-,97,0.26,29.90,54.0,,12:42 PM,3.0,Variable,3.5,0,Los Angeles,California,90001
42,Rain,2016-01-06 20:47:00,52.0,Rain,-,93,0.27,29.90,54.0,,12:47 PM,3.0,Variable,3.5,0,Los Angeles,California,90001
43,Scattered Clouds,2016-01-06 21:47:00,53.1,,-,87,0.01,29.88,57.0,,1:47 PM,10.0,Variable,4.6,0,Los Angeles,California,90001
44,Light Rain,2016-01-06 22:47:00,51.1,Rain,-,90,0.01,29.90,54.0,,2:47 PM,5.0,West,6.9,280,Los Angeles,California,90001
45,Rain,2016-01-06 22:57:00,51.1,Rain,-,93,0.02,29.89,53.1,,2:57 PM,2.5,Variable,4.6,0,Los Angeles,California,90001
46,Light Rain,2016-01-06 23:01:00,51.1,Rain,-,93,0.03,29.89,53.1,,3:01 PM,3.0,Calm,Calm,0,Los Angeles,California,90001
47,Light Rain,2016-01-06 23:08:00,50.0,Rain,-,89,0.03,29.89,53.1,,3:08 PM,8.0,West,3.5,260,Los Angeles,California,90001
48,Rain,2016-01-06 23:21:00,51.1,Rain,-,93,0.05,29.90,53.1,,3:21 PM,2.0,West,4.6,280,Los Angeles,California,90001
49,Rain,2016-01-06 23:24:00,51.1,Rain,-,93,0.06,29.90,53.1,,3:24 PM,1.8,Calm,Calm,0,Los Angeles,California,90001
50,Light Rain,2016-01-06 23:29:00,51.1,Rain,-,93,0.07,29.89,53.1,,3:29 PM,2.5,North,-9999.0,0,Los Angeles,California,90001
51,Light Rain,2016-01-06 23:33:00,50.0,Rain,-,93,0.07,29.89,52.0,,3:33 PM,3.0,Calm,Calm,0,Los Angeles,California,90001
52,Light Rain,2016-01-06 23:47:00,50.0,Rain,-,89,0.08,29.89,53.1,,3:47 PM,10.0,Calm,Calm,0,Los Angeles,California,90001
53,Light Rain,2016-01-07 00:26:00,50.0,Rain,-,93,0.00,29.90,52.0,,4:26 PM,10.0,Calm,Calm,0,Los Angeles,California,90001
54,Light Rain,2016-01-07 00:31:00,48.9,Rain,-,89,0.00,29.90,52.0,,4:31 PM,10.0,Calm,Calm,0,Los Angeles,California,90001
55,Light Rain,2016-01-07 00:47:00,50.0,Rain,-,93,0.00,29.91,52.0,,4:47 PM,5.0,Calm,Calm,0,Los Angeles,California,90001
56,Light Rain,2016-01-07 01:01:00,46.9,Rain,-,89,0.02,29.90,50.0,,5:01 PM,5.0,NW,4.6,310,Los Angeles,California,90001
57,Overcast,2016-01-07 01:08:00,46.9,,-,89,0.02,29.90,50.0,,5:08 PM,10.0,NNW,3.5,330,Los Angeles,California,90001
58,Mostly Cloudy,2016-01-07 01:47:00,46.0,,-,86,0.02,29.91,50.0,,5:47 PM,10.0,Calm,Calm,0,Los Angeles,California,90001
59,Overcast,2016-01-07 02:47:00,46.0,,-,86,N/A,29.91,50.0,,6:47 PM,10.0,SSE,3.5,150,Los Angeles,California,90001
60,Overcast,2016-01-07 03:47:00,46.0,,-,86,N/A,29.94,50.0,,7:47 PM,10.0,SE,4.6,130,Los Angeles,California,90001
61,Mostly Cloudy,2016-01-07 04:47:00,46.0,,-,86,N/A,29.92,50.0,,8:47 PM,10.0,East,4.6,100,Los Angeles,California,90001
62,Scattered Clouds,2016-01-07 05:47:00,46.0,,-,86,N/A,29.92,50.0,,9:47 PM,10.0,Variable,4.6,0,Los Angeles,California,90001
63,Mostly Cloudy,2016-01-07 06:47:00,45.0,,-,83,N/A,29.92,50.0,,10:47 PM,10.0,Calm,Calm,0,Los Angeles,California,90001
64,Mostly Cloudy,2016-01-07 06:55:00,45.0,,-,83,N/A,29.92,50.0,,10:55 PM,10.0,Variable,4.6,0,Los Angeles,California,90001
65,Light Rain,2016-01-07 07:02:00,45.0,Rain,-,80,0.00,29.91,51.1,,11:02 PM,10.0,East,5.8,100,Los Angeles,California,90001
66,Mostly Cloudy,2016-01-07 07:47:00,45.0,,-,80,0.00,29.90,51.1,,11:47 PM,10.0,East,3.5,90,Los Angeles,California,90001
0,Light Rain,2016-01-07 08:35:00,46.9,Rain,-,89,0.01,29.89,50.0,,12:35 AM,7.0,Variable,3.5,0,Los Angeles,California,90001
1,Heavy Rain,2016-01-07 08:47:00,48.0,Rain,-,93,0.08,29.89,50.0,,12:47 AM,2.5,Variable,3.5,0,Los Angeles,California,90001
2,Light Rain,2016-01-07 08:56:00,48.0,Rain,-,93,0.03,29.87,50.0,,12:56 AM,3.0,Variable,3.5,0,Los Angeles,California,90001
3,Rain,2016-01-07 09:47:00,46.9,Rain,-,89,0.03,29.87,50.0,,1:47 AM,6.0,ENE,3.5,60,Los Angeles,California,90001
4,Light Rain,2016-01-07 10:15:00,48.0,Rain,-,97,0.05,29.87,48.9,,2:15 AM,6.0,Calm,Calm,0,Los Angeles,California,90001
5,Mostly Cloudy,2016-01-07 10:47:00,46.9,,-,93,0.06,29.86,48.9,,2:47 AM,10.0,Calm,Calm,0,Los Angeles,California,90001
6,Heavy Rain,2016-01-07 11:18:00,48.0,Rain,-,97,0.03,29.87,48.9,,3:18 AM,2.5,Calm,Calm,0,Los Angeles,California,90001
7,Light Rain,2016-01-07 11:25:00,48.0,Rain,-,97,0.05,29.86,48.9,,3:25 AM,2.5,ENE,4.6,60,Los Angeles,California,90001
8,Light Rain,2016-01-07 11:27:00,48.0,Rain,-,97,0.05,29.86,48.9,,3:27 AM,4.0,ENE,5.8,70,Los Angeles,California,90001
9,Light Rain,2016-01-07 11:30:00,48.0,Rain,-,97,0.05,29.86,48.9,,3:30 AM,6.0,Calm,Calm,0,Los Angeles,California,90001
10,Light Rain,2016-01-07 11:34:00,48.0,Rain,-,97,0.06,29.86,48.9,,3:34 AM,9.0,Calm,Calm,0,Los Angeles,California,90001
11,Light Rain,2016-01-07 11:44:00,46.9,Rain,-,93,0.06,29.87,48.9,,3:44 AM,6.0,NW,3.5,320,Los Angeles,California,90001
12,Rain,2016-01-07 11:47:00,46.9,Rain,-,93,0.07,29.87,48.9,,3:47 AM,4.0,Variable,3.5,0,Los Angeles,California,90001
13,Overcast,2016-01-07 12:47:00,46.0,,-,93,0.02,29.87,48.0,,4:47 AM,10.0,Calm,Calm,0,Los Angeles,California,90001
14,Mostly Cloudy,2016-01-07 13:47:00,46.0,,-,93,0.01,29.89,48.0,,5:47 AM,10.0,Calm,Calm,0,Los Angeles,California,90001
15,Partly Cloudy,2016-01-07 14:47:00,44.1,,-,93,0.03,29.89,46.0,,6:47 AM,10.0,Calm,Calm,0,Los Angeles,California,90001
16,Clear,2016-01-07 15:47:00,45.0,,-,93,N/A,29.90,46.9,,7:47 AM,10.0,Calm,Calm,0,Los Angeles,California,90001
17,Clear,2016-01-07 16:47:00,44.1,,-,80,N/A,29.93,50.0,,8:47 AM,10.0,Calm,Calm,0,Los Angeles,California,90001
18,Clear,2016-01-07 17:47:00,44.1,,-,69,N/A,29.96,54.0,,9:47 AM,10.0,Calm,Calm,0,Los Angeles,California,90001
19,Overcast,2016-01-07 18:28:00,43.0,,-,64,N/A,29.95,55.0,,10:28 AM,10.0,North,5.8,10,Los Angeles,California,90001
20,Overcast,2016-01-07 18:43:00,43.0,,-,66,N/A,29.94,54.0,,10:43 AM,10.0,NNW,3.5,330,Los Angeles,California,90001
21,Overcast,2016-01-07 18:47:00,43.0,,-,69,N/A,29.94,53.1,,10:47 AM,10.0,NW,3.5,320,Los Angeles,California,90001
22,Overcast,2016-01-07 19:47:00,43.0,,-,59,N/A,29.91,57.0,,11:47 AM,10.0,Variable,3.5,0,Los Angeles,California,90001
23,Mostly Cloudy,2016-01-07 19:57:00,43.0,,-,62,N/A,29.90,55.9,,11:57 AM,10.0,Calm,Calm,0,Los Angeles,California,90001
24,Partly Cloudy,2016-01-07 20:47:00,42.1,,-,60,N/A,29.88,55.9,,12:47 PM,10.0,Variable,3.5,0,Los Angeles,California,90001
25,Overcast,2016-01-07 21:47:00,44.1,,-,60,N/A,29.86,57.9,,1:47 PM,10.0,Calm,Calm,0,Los Angeles,California,90001
26,Clear,2016-01-07 22:47:00,43.0,,-,58,N/A,29.86,57.9,,2:47 PM,10.0,Variable,3.5,0,Los Angeles,California,90001
27,Clear,2016-01-07 23:47:00,44.1,,-,58,N/A,29.87,59.0,,3:47 PM,10.0,West,5.8,270,Los Angeles,California,90001
28,Clear,2016-01-08 00:47:00,41.0,,-,55,N/A,29.88,57.0,,4:47 PM,10.0,NW,3.5,310,Los Angeles,California,90001
29,Clear,2016-01-08 01:47:00,42.1,,-,60,N/A,29.90,55.9,,5:47 PM,10.0,Calm,Calm,0,Los Angeles,California,90001
30,Scattered Clouds,2016-01-08 02:47:00,43.0,,-,66,N/A,29.91,54.0,,6:47 PM,10.0,West,3.5,270,Los Angeles,California,90001
31,Clear,2016-01-08 03:47:00,44.1,,-,71,N/A,29.91,53.1,,7:47 PM,10.0,Calm,Calm,0,Los Angeles,California,90001
32,Clear,2016-01-08 04:47:00,43.0,,-,74,N/A,29.93,51.1,,8:47 PM,10.0,Calm,Calm,0,Los Angeles,California,90001
33,Clear,2016-01-08 05:47:00,37.9,,-,59,N/A,29.94,52.0,,9:47 PM,10.0,Calm,Calm,0,Los Angeles,California,90001
34,Clear,2016-01-08 06:47:00,35.1,,-,53,N/A,29.95,52.0,,10:47 PM,10.0,Calm,Calm,0,Los Angeles,California,90001
35,Clear,2016-01-08 07:47:00,33.1,,-,45,N/A,29.94,54.0,,11:47 PM,10.0,North,6.9,360,Los Angeles,California,90001
0,Clear,2016-01-08 08:47:00,33.1,,-,45,N/A,29.93,54.0,,12:47 AM,10.0,North,8.1,360,Los Angeles,California,90001
1,Clear,2016-01-08 09:47:00,34.0,,-,50,N/A,29.93,52.0,,1:47 AM,10.0,Calm,Calm,0,Los Angeles,California,90001
2,Clear,2016-01-08 10:47:00,34.0,,-,52,N/A,29.94,51.1,,2:47 AM,10.0,Calm,Calm,0,Los Angeles,California,90001
3,Clear,2016-01-08 11:47:00,37.0,,-,66,N/A,29.95,48.0,,3:47 AM,10.0,Calm,Calm,0,Los Angeles,California,90001
4,Clear,2016-01-08 12:47:00,39.0,,-,80,N/A,29.96,45.0,,4:47 AM,10.0,Calm,Calm,0,Los Angeles,California,90001
5,Clear,2016-01-08 13:47:00,39.9,,-,82,N/A,29.97,45.0,,5:47 AM,10.0,Calm,Calm,0,Los Angeles,California,90001
6,Clear,2016-01-08 14:47:00,39.0,,-,76,N/A,29.99,46.0,,6:47 AM,10.0,ESE,3.5,110,Los Angeles,California,90001
7,Clear,2016-01-08 15:47:00,37.0,,-,68,N/A,30.01,46.9,,7:47 AM,10.0,ESE,3.5,120,Los Angeles,California,90001
8,Clear,2016-01-08 16:47:00,37.9,,-,63,N/A,30.03,50.0,,8:47 AM,10.0,East,4.6,90,Los Angeles,California,90001
9,Clear,2016-01-08 17:47:00,37.9,,-,55,N/A,30.04,54.0,,9:47 AM,10.0,East,4.6,90,Los Angeles,California,90001
10,Clear,2016-01-08 18:47:00,39.0,,-,53,N/A,30.04,55.9,,10:47 AM,10.0,Variable,3.5,0,Los Angeles,California,90001
11,Clear,2016-01-08 19:47:00,36.0,,-,42,N/A,30.03,59.0,,11:47 AM,10.0,Variable,3.5,0,Los Angeles,California,90001
12,Clear,2016-01-08 20:47:00,35.1,,-,39,N/A,30.02,60.1,,12:47 PM,10.0,Variable,3.5,0,Los Angeles,California,90001
13,Clear,2016-01-08 21:47:00,35.1,,-,38,N/A,30.01,61.0,,1:47 PM,10.0,Variable,3.5,0,Los Angeles,California,90001
14,Clear,2016-01-08 22:47:00,41.0,,-,49,N/A,30.03,60.1,,2:47 PM,10.0,Variable,3.5,0,Los Angeles,California,90001
15,Clear,2016-01-08 23:47:00,39.9,,-,49,N/A,30.04,59.0,,3:47 PM,10.0,West,4.6,270,Los Angeles,California,90001
16,Clear,2016-01-09 00:47:00,39.0,,-,53,N/A,30.06,55.9,,4:47 PM,10.0,West,3.5,270,Los Angeles,California,90001
17,Clear,2016-01-09 01:47:00,39.9,,-,57,N/A,30.07,55.0,,5:47 PM,10.0,Calm,Calm,0,Los Angeles,California,90001
18,Clear,2016-01-09 02:47:00,41.0,,-,62,N/A,30.09,54.0,,6:47 PM,10.0,Calm,Calm,0,Los Angeles,California,90001
19,Clear,2016-01-09 03:47:00,41.0,,-,66,N/A,30.10,52.0,,7:47 PM,10.0,Calm,Calm,0,Los Angeles,California,90001
20,Clear,2016-01-09 04:47:00,42.1,,-,71,N/A,30.12,51.1,,8:47 PM,10.0,Calm,Calm,0,Los Angeles,California,90001
21,Clear,2016-01-09 05:47:00,39.9,,-,61,N/A,30.12,53.1,,9:47 PM,10.0,ESE,4.6,110,Los Angeles,California,90001
22,Clear,2016-01-09 06:47:00,41.0,,-,71,N/A,30.15,50.0,,10:47 PM,10.0,Calm,Calm,0,Los Angeles,California,90001
23,Clear,2016-01-09 07:47:00,41.0,,-,74,N/A,30.15,48.9,,11:47 PM,10.0,Calm,Calm,0,Los Angeles,California,90001
0,Clear,2016-01-09 08:47:00,41.0,,-,80,N/A,30.15,46.9,,12:47 AM,10.0,Calm,Calm,0,Los Angeles,California,90001
1,Clear,2016-01-09 09:47:00,39.0,,-,66,N/A,30.16,50.0,,1:47 AM,10.0,Variable,3.5,0,Los Angeles,California,90001
2,Clear,2016-01-09 10:47:00,39.0,,-,69,N/A,30.16,48.9,,2:47 AM,10.0,Calm,Calm,0,Los Angeles,California,90001
3,Clear,2016-01-09 11:47:00,37.9,,-,63,N/A,30.16,50.0,,3:47 AM,10.0,Calm,Calm,0,Los Angeles,California,90001
4,Partly Cloudy,2016-01-09 12:47:00,39.0,,-,76,N/A,30.17,46.0,,4:47 AM,10.0,Calm,Calm,0,Los Angeles,California,90001
5,Clear,2016-01-09 13:47:00,39.0,,-,76,N/A,30.20,46.0,,5:47 AM,9.0,NNE,3.5,30,Los Angeles,California,90001
6,Mostly Cloudy,2016-01-09 14:47:00,39.0,,-,71,N/A,30.20,48.0,,6:47 AM,10.0,Calm,Calm,0,Los Angeles,California,90001
7,Overcast,2016-01-09 15:47:00,37.0,,-,61,N/A,30.22,50.0,,7:47 AM,10.0,Calm,Calm,0,Los Angeles,California,90001
8,Overcast,2016-01-09 16:47:00,37.9,,-,57,N/A,30.24,53.1,,8:47 AM,8.0,ESE,3.5,110,Los Angeles,California,90001
9,Overcast,2016-01-09 17:47:00,37.9,,-,55,N/A,30.25,54.0,,9:47 AM,10.0,East,6.9,90,Los Angeles,California,90001
10,Overcast,2016-01-09 18:47:00,39.0,,-,51,N/A,30.23,57.0,,10:47 AM,10.0,NE,4.6,50,Los Angeles,California,90001
11,Overcast,2016-01-09 19:47:00,42.1,,-,53,N/A,30.21,59.0,,11:47 AM,10.0,Variable,3.5,0,Los Angeles,California,90001
12,Overcast,2016-01-09 20:47:00,42.1,,-,53,N/A,30.19,59.0,,12:47 PM,10.0,Calm,Calm,0,Los Angeles,California,90001
13,Overcast,2016-01-09 21:47:00,41.0,,-,49,N/A,30.16,60.1,,1:47 PM,10.0,Calm,Calm,0,Los Angeles,California,90001
14,Overcast,2016-01-09 22:47:00,43.0,,-,55,N/A,30.17,59.0,,2:47 PM,10.0,Calm,Calm,0,Los Angeles,California,90001
15,Overcast,2016-01-09 23:47:00,44.1,,-,60,N/A,30.16,57.9,,3:47 PM,10.0,Calm,Calm,0,Los Angeles,California,90001
16,Overcast,2016-01-10 00:47:00,46.9,,-,67,N/A,30.17,57.9,,4:47 PM,10.0,Calm,Calm,0,Los Angeles,California,90001
17,Overcast,2016-01-10 01:47:00,50.0,,-,83,0.00,30.18,55.0,,5:47 PM,10.0,Calm,Calm,0,Los Angeles,California,90001
18,Overcast,2016-01-10 02:47:00,48.9,,-,83,N/A,30.19,54.0,,6:47 PM,10.0,Calm,Calm,0,Los Angeles,California,90001
19,Overcast,2016-01-10 03:47:00,48.9,,-,83,N/A,30.18,54.0,,7:47 PM,10.0,Calm,Calm,0,Los Angeles,California,90001
20,Overcast,2016-01-10 04:47:00,48.0,,-,80,N/A,30.19,54.0,,8:47 PM,10.0,Calm,Calm,0,Los Angeles,California,90001
21,Overcast,2016-01-10 05:47:00,46.9,,-,77,N/A,30.19,54.0,,9:47 PM,10.0,Calm,Calm,0,Los Angeles,California,90001
22,Overcast,2016-01-10 06:47:00,46.9,,-,77,N/A,30.18,54.0,,10:47 PM,10.0,Calm,Calm,0,Los Angeles,California,90001
23,Overcast,2016-01-10 07:47:00,46.0,,-,75,N/A,30.16,54.0,,11:47 PM,10.0,Calm,Calm,0,Los Angeles,California,90001
0,Overcast,2016-01-10 08:47:00,46.9,,-,74,N/A,30.17,55.0,,12:47 AM,10.0,Calm,Calm,0,Los Angeles,California,90001
1,Overcast,2016-01-10 09:47:00,46.0,,-,75,N/A,30.16,54.0,,1:47 AM,10.0,Variable,4.6,0,Los Angeles,California,90001
2,Light Rain,2016-01-10 10:41:00,48.0,Rain,-,83,0.00,30.17,53.1,,2:41 AM,7.0,Calm,Calm,0,Los Angeles,California,90001
3,Light Rain,2016-01-10 10:47:00,48.0,Rain,-,83,0.00,30.17,53.1,,2:47 AM,9.0,Calm,Calm,0,Los Angeles,California,90001
4,Light Rain,2016-01-10 10:51:00,48.0,Rain,-,83,0.00,30.17,53.1,,2:51 AM,9.0,Calm,Calm,0,Los Angeles,California,90001
5,Mostly Cloudy,2016-01-10 11:37:00,48.9,,-,92,0.00,30.16,51.1,,3:37 AM,10.0,Calm,Calm,0,Los Angeles,California,90001
6,Mostly Cloudy,2016-01-10 11:47:00,48.0,,-,89,0.00,30.17,51.1,,3:47 AM,10.0,Calm,Calm,0,Los Angeles,California,90001
7,Overcast,2016-01-10 12:47:00,48.9,,-,89,N/A,30.16,52.0,,4:47 AM,10.0,Calm,Calm,0,Los Angeles,California,90001
8,Clear,2016-01-10 13:47:00,48.0,,-,86,N/A,30.14,52.0,,5:47 AM,10.0,East,3.5,100,Los Angeles,California,90001
9,Clear,2016-01-10 14:47:00,46.9,,-,83,N/A,30.16,52.0,,6:47 AM,10.0,Calm,Calm,0,Los Angeles,California,90001
10,Overcast,2016-01-10 15:47:00,48.0,,-,89,N/A,30.18,51.1,,7:47 AM,10.0,Calm,Calm,0,Los Angeles,California,90001
11,Overcast,2016-01-10 16:47:00,48.9,,-,83,N/A,30.20,54.0,,8:47 AM,8.0,Calm,Calm,0,Los Angeles,California,90001
12,Overcast,2016-01-10 17:47:00,46.9,,-,72,N/A,30.20,55.9,,9:47 AM,9.0,Variable,4.6,0,Los Angeles,California,90001
13,Overcast,2016-01-10 18:00:00,46.9,,-,69,N/A,30.20,57.0,,10:00 AM,9.0,Variable,4.6,0,Los Angeles,California,90001
14,Overcast,2016-01-10 18:47:00,46.0,,-,65,N/A,30.20,57.9,,10:47 AM,10.0,Calm,Calm,0,Los Angeles,California,90001
15,Scattered Clouds,2016-01-10 19:07:00,46.9,,-,62,N/A,30.19,60.1,,11:07 AM,10.0,Calm,Calm,0,Los Angeles,California,90001
16,Partly Cloudy,2016-01-10 19:47:00,46.9,,-,60,N/A,30.16,61.0,,11:47 AM,10.0,Calm,Calm,0,Los Angeles,California,90001
17,Partly Cloudy,2016-01-10 20:47:00,46.0,,-,60,N/A,30.14,60.1,,12:47 PM,10.0,Calm,Calm,0,Los Angeles,California,90001
18,Partly Cloudy,2016-01-10 21:47:00,46.9,,-,60,N/A,30.12,61.0,,1:47 PM,10.0,Calm,Calm,0,Los Angeles,California,90001
19,Scattered Clouds,2016-01-10 22:47:00,46.9,,-,62,N/A,30.12,60.1,,2:47 PM,10.0,Variable,4.6,0,Los Angeles,California,90001
20,Partly Cloudy,2016-01-10 23:47:00,48.0,,-,67,N/A,30.14,59.0,,3:47 PM,9.0,West,4.6,270,Los Angeles,California,90001
21,Clear,2016-01-11 00:47:00,48.9,,-,74,N/A,30.16,57.0,,4:47 PM,10.0,Variable,4.6,0,Los Angeles,California,90001
22,Mostly Cloudy,2016-01-11 01:47:00,48.9,,-,74,N/A,30.18,57.0,,5:47 PM,10.0,West,3.5,280,Los Angeles,California,90001
23,Mostly Cloudy,2016-01-11 02:47:00,50.0,,-,80,N/A,30.19,55.9,,6:47 PM,10.0,Calm,Calm,0,Los Angeles,California,90001
24,Overcast,2016-01-11 03:47:00,50.0,,-,77,0.00,30.19,57.0,,7:47 PM,10.0,Calm,Calm,0,Los Angeles,California,90001
25,Mostly Cloudy,2016-01-11 04:47:00,51.1,,-,84,N/A,30.19,55.9,,8:47 PM,10.0,Calm,Calm,0,Los Angeles,California,90001
26,Partly Cloudy,2016-01-11 05:47:00,50.0,,-,80,N/A,30.22,55.9,,9:47 PM,10.0,Calm,Calm,0,Los Angeles,California,90001
27,Clear,2016-01-11 06:47:00,50.0,,-,86,N/A,30.21,54.0,,10:47 PM,8.0,Calm,Calm,0,Los Angeles,California,90001
28,Clear,2016-01-11 07:47:00,50.0,,-,83,N/A,30.20,55.0,,11:47 PM,8.0,Calm,Calm,0,Los Angeles,California,90001
0,Clear,2016-01-11 08:47:00,48.9,,-,83,N/A,30.21,54.0,,12:47 AM,7.0,Calm,Calm,0,Los Angeles,California,90001
1,Haze,2016-01-11 09:47:00,48.0,,-,83,N/A,30.23,53.1,,1:47 AM,6.0,Calm,Calm,0,Los Angeles,California,90001
2,Clear,2016-01-11 10:47:00,48.0,,-,89,N/A,30.24,51.1,,2:47 AM,5.0,Calm,Calm,0,Los Angeles,California,90001
3,Clear,2016-01-11 11:47:00,46.9,,-,89,N/A,30.24,50.0,,3:47 AM,4.0,Calm,Calm,0,Los Angeles,California,90001
4,Clear,2016-01-11 12:47:00,46.0,,-,90,N/A,30.25,48.9,,4:47 AM,4.0,Calm,Calm,0,Los Angeles,California,90001
5,Clear,2016-01-11 13:47:00,45.0,,-,89,N/A,30.26,48.0,,5:47 AM,4.0,Calm,Calm,0,Los Angeles,California,90001
6,Clear,2016-01-11 14:47:00,45.0,,-,89,N/A,30.26,48.0,,6:47 AM,7.0,Calm,Calm,0,Los Angeles,California,90001
7,Clear,2016-01-11 15:47:00,44.1,,-,77,N/A,30.26,51.1,,7:47 AM,9.0,Calm,Calm,0,Los Angeles,California,90001
8,Clear,2016-01-11 16:47:00,42.1,,-,66,N/A,30.27,53.1,,8:47 AM,10.0,Calm,Calm,0,Los Angeles,California,90001
9,Clear,2016-01-11 17:47:00,43.0,,-,59,N/A,30.29,57.0,,9:47 AM,10.0,Calm,Calm,0,Los Angeles,California,90001
10,Clear,2016-01-11 18:47:00,41.0,,-,49,N/A,30.28,60.1,,10:47 AM,9.0,Calm,Calm,0,Los Angeles,California,90001
11,Clear,2016-01-11 19:47:00,41.0,,-,46,N/A,30.26,62.1,,11:47 AM,10.0,Calm,Calm,0,Los Angeles,California,90001
12,Clear,2016-01-11 20:47:00,37.9,,-,40,N/A,30.23,63.0,,12:47 PM,10.0,Calm,Calm,0,Los Angeles,California,90001
13,Clear,2016-01-11 21:47:00,36.0,,-,37,N/A,30.20,63.0,,1:47 PM,10.0,West,5.8,270,Los Angeles,California,90001
14,Clear,2016-01-11 22:47:00,39.0,,-,43,N/A,30.20,62.1,,2:47 PM,10.0,Variable,3.5,0,Los Angeles,California,90001
15,Clear,2016-01-11 23:47:00,41.0,,-,48,N/A,30.21,61.0,,3:47 PM,10.0,Calm,Calm,0,Los Angeles,California,90001
16,Clear,2016-01-12 00:47:00,44.1,,-,58,N/A,30.22,59.0,,4:47 PM,10.0,Calm,Calm,0,Los Angeles,California,90001
17,Clear,2016-01-12 01:47:00,44.1,,-,62,N/A,30.24,57.0,,5:47 PM,10.0,Calm,Calm,0,Los Angeles,California,90001
18,Clear,2016-01-12 02:47:00,44.1,,-,67,N/A,30.24,55.0,,6:47 PM,10.0,Calm,Calm,0,Los Angeles,California,90001
19,Clear,2016-01-12 03:47:00,45.0,,-,69,N/A,30.24,55.0,,7:47 PM,10.0,Calm,Calm,0,Los Angeles,California,90001
20,Clear,2016-01-12 04:47:00,45.0,,-,74,N/A,30.26,53.1,,8:47 PM,10.0,Calm,Calm,0,Los Angeles,California,90001
21,Clear,2016-01-12 05:47:00,43.0,,-,71,N/A,30.26,52.0,,9:47 PM,10.0,Calm,Calm,0,Los Angeles,California,90001
22,Clear,2016-01-12 06:47:00,42.1,,-,74,N/A,30.26,50.0,,10:47 PM,10.0,Calm,Calm,0,Los Angeles,California,90001
23,Clear,2016-01-12 07:47:00,41.0,,-,71,N/A,30.25,50.0,,11:47 PM,10.0,Calm,Calm,0,Los Angeles,California,90001
0,Clear,2016-01-12 08:47:00,35.1,,-,59,N/A,30.23,48.9,,12:47 AM,10.0,Calm,Calm,0,Los Angeles,California,90001
1,Clear,2016-01-12 09:47:00,30.0,,-,46,N/A,30.23,50.0,,1:47 AM,10.0,Calm,Calm,0,Los Angeles,California,90001
2,Clear,2016-01-12 10:47:00,30.0,,-,48,N/A,30.22,48.9,,2:47 AM,10.0,NNE,3.5,30,Los Angeles,California,90001
3,Clear,2016-01-12 11:47:00,28.9,,-,48,N/A,30.21,48.0,,3:47 AM,10.0,Calm,Calm,0,Los Angeles,California,90001
4,Clear,2016-01-12 12:47:00,28.9,,-,48,N/A,30.20,48.0,,4:47 AM,10.0,NNE,3.5,30,Los Angeles,California,90001
5,Clear,2016-01-12 13:47:00,28.9,,-,50,N/A,30.23,46.9,,5:47 AM,10.0,Calm,Calm,0,Los Angeles,California,90001
6,Clear,2016-01-12 14:47:00,28.0,,-,50,N/A,30.23,46.0,,6:47 AM,10.0,Calm,Calm,0,Los Angeles,California,90001
7,Clear,2016-01-12 15:47:00,27.0,,-,43,N/A,30.24,48.9,,7:47 AM,10.0,NNE,3.5,20,Los Angeles,California,90001
8,Clear,2016-01-12 16:47:00,27.0,,-,34,N/A,30.23,55.0,,8:47 AM,10.0,Calm,Calm,0,Los Angeles,California,90001
9,Clear,2016-01-12 17:47:00,25.0,,-,27,N/A,30.23,59.0,,9:47 AM,10.0,Variable,3.5,0,Los Angeles,California,90001
10,Clear,2016-01-12 18:47:00,25.0,,-,24,N/A,30.20,63.0,,10:47 AM,10.0,Variable,4.6,0,Los Angeles,California,90001
11,Clear,2016-01-12 19:47:00,25.0,,-,21,N/A,30.15,66.9,,11:47 AM,10.0,East,3.5,80,Los Angeles,California,90001
12,Clear,2016-01-12 20:47:00,26.1,,-,21,N/A,30.12,68.0,,12:47 PM,10.0,Calm,Calm,0,Los Angeles,California,90001
13,Clear,2016-01-12 21:47:00,23.0,,-,18,N/A,30.12,69.1,,1:47 PM,10.0,Variable,3.5,0,Los Angeles,California,90001
14,Clear,2016-01-12 22:47:00,32.0,,-,30,N/A,30.14,64.0,,2:47 PM,10.0,West,8.1,260,Los Angeles,California,90001
15,Clear,2016-01-12 23:47:00,39.0,,-,43,N/A,30.12,62.1,,3:47 PM,10.0,Calm,Calm,0,Los Angeles,California,90001
16,Clear,2016-01-13 00:47:00,43.0,,-,53,N/A,30.12,60.1,,4:47 PM,10.0,West,3.5,280,Los Angeles,California,90001
17,Clear,2016-01-13 01:47:00,45.0,,-,64,N/A,30.15,57.0,,5:47 PM,10.0,Calm,Calm,0,Los Angeles,California,90001
18,Clear,2016-01-13 02:47:00,46.0,,-,72,N/A,30.17,55.0,,6:47 PM,10.0,Calm,Calm,0,Los Angeles,California,90001
19,Clear,2016-01-13 03:47:00,46.0,,-,75,N/A,30.18,54.0,,7:47 PM,10.0,Calm,Calm,0,Los Angeles,California,90001
20,Clear,2016-01-13 04:47:00,46.0,,-,80,N/A,30.18,52.0,,8:47 PM,10.0,Calm,Calm,0,Los Angeles,California,90001
21,Clear,2016-01-13 05:47:00,46.0,,-,77,N/A,30.18,53.1,,9:47 PM,10.0,Calm,Calm,0,Los Angeles,California,90001
22,Clear,2016-01-13 06:47:00,44.1,,-,77,N/A,30.18,51.1,,10:47 PM,10.0,Calm,Calm,0,Los Angeles,California,90001
23,Clear,2016-01-13 07:47:00,44.1,,-,86,N/A,30.16,48.0,,11:47 PM,10.0,Calm,Calm,0,Los Angeles,California,90001
0,Clear,2016-01-13 08:47:00,39.9,,-,74,N/A,30.15,48.0,,12:47 AM,10.0,Calm,Calm,0,Los Angeles,California,90001
1,Clear,2016-01-13 09:47:00,39.9,,-,79,N/A,30.17,46.0,,1:47 AM,10.0,Calm,Calm,0,Los Angeles,California,90001
2,Clear,2016-01-13 10:47:00,36.0,,-,68,N/A,30.14,46.0,,2:47 AM,10.0,Calm,Calm,0,Los Angeles,California,90001
3,Clear,2016-01-13 11:47:00,36.0,,-,71,N/A,30.13,45.0,,3:47 AM,10.0,Calm,Calm,0,Los Angeles,California,90001
4,Clear,2016-01-13 12:47:00,33.1,,-,56,N/A,30.13,48.0,,4:47 AM,10.0,Calm,Calm,0,Los Angeles,California,90001
5,Clear,2016-01-13 13:47:00,34.0,,-,65,N/A,30.15,45.0,,5:47 AM,10.0,North,3.5,360,Los Angeles,California,90001
6,Clear,2016-01-13 14:47:00,33.1,,-,59,N/A,30.16,46.9,,6:47 AM,10.0,Calm,Calm,0,Los Angeles,California,90001
7,Clear,2016-01-13 15:47:00,33.1,,-,54,N/A,30.17,48.9,,7:47 AM,10.0,Calm,Calm,0,Los Angeles,California,90001
8,Clear,2016-01-13 16:47:00,37.0,,-,61,N/A,30.19,50.0,,8:47 AM,10.0,Calm,Calm,0,Los Angeles,California,90001
9,Clear,2016-01-13 17:47:00,35.1,,-,47,N/A,30.19,55.0,,9:47 AM,10.0,Calm,Calm,0,Los Angeles,California,90001
10,Clear,2016-01-13 18:47:00,37.9,,-,44,N/A,30.18,60.1,,10:47 AM,10.0,Calm,Calm,0,Los Angeles,California,90001
11,Clear,2016-01-13 19:47:00,37.0,,-,38,N/A,30.14,63.0,,11:47 AM,10.0,Calm,Calm,0,Los Angeles,California,90001
12,Mostly Cloudy,2016-01-13 20:47:00,44.1,,-,47,N/A,30.11,64.9,,12:47 PM,10.0,Calm,Calm,0,Los Angeles,California,90001
13,Partly Cloudy,2016-01-13 21:47:00,48.0,,-,56,N/A,30.09,64.0,,1:47 PM,10.0,Calm,Calm,0,Los Angeles,California,90001
14,Clear,2016-01-13 22:47:00,52.0,,-,67,N/A,30.09,63.0,,2:47 PM,10.0,Calm,Calm,0,Los Angeles,California,90001
15,Scattered Clouds,2016-01-13 23:47:00,55.0,,-,81,N/A,30.09,61.0,,3:47 PM,10.0,Calm,Calm,0,Los Angeles,California,90001
16,Mostly Cloudy,2016-01-14 00:15:00,55.0,,-,83,N/A,30.09,60.1,,4:15 PM,10.0,Calm,Calm,0,Los Angeles,California,90001
17,Scattered Clouds,2016-01-14 00:18:00,55.0,,-,83,N/A,30.09,60.1,,4:18 PM,10.0,Calm,Calm,0,Los Angeles,California,90001
18,Mostly Cloudy,2016-01-14 00:22:00,55.0,,-,83,N/A,30.10,60.1,,4:22 PM,10.0,Calm,Calm,0,Los Angeles,California,90001
19,Overcast,2016-01-14 00:47:00,55.0,,-,83,N/A,30.10,60.1,,4:47 PM,10.0,West,3.5,280,Los Angeles,California,90001
20,Overcast,2016-01-14 01:42:00,55.0,,-,87,N/A,30.11,59.0,,5:42 PM,10.0,Calm,Calm,0,Los Angeles,California,90001
21,Mostly Cloudy,2016-01-14 01:47:00,55.0,,-,87,N/A,30.11,59.0,,5:47 PM,10.0,Calm,Calm,0,Los Angeles,California,90001
22,Scattered Clouds,2016-01-14 02:03:00,55.0,,-,87,N/A,30.10,59.0,,6:03 PM,10.0,Calm,Calm,0,Los Angeles,California,90001
23,Clear,2016-01-14 02:47:00,54.0,,-,89,N/A,30.10,57.0,,6:47 PM,10.0,Calm,Calm,0,Los Angeles,California,90001
24,Mostly Cloudy,2016-01-14 03:21:00,54.0,,-,89,N/A,30.09,57.0,,7:21 PM,10.0,Calm,Calm,0,Los Angeles,California,90001
25,Overcast,2016-01-14 03:47:00,54.0,,-,89,N/A,30.10,57.0,,7:47 PM,10.0,Calm,Calm,0,Los Angeles,California,90001
26,Overcast,2016-01-14 04:47:00,55.0,,-,90,N/A,30.10,57.9,,8:47 PM,10.0,Calm,Calm,0,Los Angeles,California,90001
27,Overcast,2016-01-14 05:17:00,54.0,,-,83,N/A,30.10,59.0,,9:17 PM,10.0,Calm,Calm,0,Los Angeles,California,90001
28,Overcast,2016-01-14 05:47:00,53.1,,-,81,N/A,30.09,59.0,,9:47 PM,10.0,Calm,Calm,0,Los Angeles,California,90001
29,Overcast,2016-01-14 06:47:00,54.0,,-,87,N/A,30.11,57.9,,10:47 PM,10.0,Calm,Calm,0,Los Angeles,California,90001
30,Overcast,2016-01-14 07:29:00,54.0,,-,87,N/A,30.10,57.9,,11:29 PM,9.0,East,3.5,100,Los Angeles,California,90001
31,Overcast,2016-01-14 07:47:00,54.0,,-,87,N/A,30.11,57.9,,11:47 PM,10.0,Calm,Calm,0,Los Angeles,California,90001
0,Mostly Cloudy,2016-01-14 08:42:00,52.0,,-,83,N/A,30.11,57.0,,12:42 AM,10.0,ESE,3.5,110,Los Angeles,California,90001
1,Scattered Clouds,2016-01-14 08:47:00,52.0,,-,83,N/A,30.10,57.0,,12:47 AM,10.0,East,3.5,100,Los Angeles,California,90001
2,Scattered Clouds,2016-01-14 08:59:00,51.1,,-,81,N/A,30.10,57.0,,12:59 AM,10.0,East,3.5,100,Los Angeles,California,90001
3,Mostly Cloudy,2016-01-14 09:08:00,51.1,,-,81,N/A,30.10,57.0,,1:08 AM,10.0,East,3.5,100,Los Angeles,California,90001
4,Overcast,2016-01-14 09:23:00,51.1,,-,81,N/A,30.10,57.0,,1:23 AM,9.0,East,3.5,90,Los Angeles,California,90001
5,Overcast,2016-01-14 09:47:00,48.9,,-,74,N/A,30.09,57.0,,1:47 AM,10.0,East,4.6,100,Los Angeles,California,90001
6,Overcast,2016-01-14 10:23:00,48.9,,-,74,N/A,30.09,57.0,,2:23 AM,9.0,Variable,3.5,0,Los Angeles,California,90001
7,Overcast,2016-01-14 10:29:00,48.9,,-,74,N/A,30.09,57.0,,2:29 AM,9.0,East,3.5,90,Los Angeles,California,90001
8,Mostly Cloudy,2016-01-14 10:47:00,48.0,,-,75,N/A,30.09,55.9,,2:47 AM,9.0,ESE,3.5,110,Los Angeles,California,90001
9,Mostly Cloudy,2016-01-14 11:01:00,48.0,,-,75,N/A,30.09,55.9,,3:01 AM,9.0,NE,3.5,50,Los Angeles,California,90001
10,Mostly Cloudy,2016-01-14 11:06:00,48.0,,-,75,N/A,30.09,55.9,,3:06 AM,9.0,East,3.5,80,Los Angeles,California,90001
11,Scattered Clouds,2016-01-14 11:16:00,48.0,,-,75,N/A,30.08,55.9,,3:16 AM,9.0,Calm,Calm,0,Los Angeles,California,90001
12,Clear,2016-01-14 11:47:00,48.0,,-,77,N/A,30.08,55.0,,3:47 AM,9.0,NE,3.5,50,Los Angeles,California,90001
13,Mostly Cloudy,2016-01-14 12:08:00,48.0,,-,83,N/A,30.08,53.1,,4:08 AM,8.0,Calm,Calm,0,Los Angeles,California,90001
14,Scattered Clouds,2016-01-14 12:11:00,48.0,,-,83,N/A,30.08,53.1,,4:11 AM,8.0,Calm,Calm,0,Los Angeles,California,90001
15,Mostly Cloudy,2016-01-14 12:47:00,48.0,,-,86,N/A,30.09,52.0,,4:47 AM,7.0,Calm,Calm,0,Los Angeles,California,90001
16,Scattered Clouds,2016-01-14 13:27:00,48.0,,-,89,N/A,30.09,51.1,,5:27 AM,6.0,Calm,Calm,0,Los Angeles,California,90001
17,Clear,2016-01-14 13:47:00,48.0,,-,89,N/A,30.09,51.1,,5:47 AM,6.0,Calm,Calm,0,Los Angeles,California,90001
18,Clear,2016-01-14 14:47:00,46.0,,-,83,N/A,30.11,51.1,,6:47 AM,7.0,Calm,Calm,0,Los Angeles,California,90001
19,Haze,2016-01-14 15:47:00,46.9,,-,83,N/A,30.12,52.0,,7:47 AM,6.0,Calm,Calm,0,Los Angeles,California,90001
20,Haze,2016-01-14 16:47:00,46.9,,-,72,N/A,30.14,55.9,,8:47 AM,6.0,Calm,Calm,0,Los Angeles,California,90001
21,Haze,2016-01-14 17:47:00,46.0,,-,65,N/A,30.14,57.9,,9:47 AM,6.0,East,4.6,90,Los Angeles,California,90001
22,Clear,2016-01-14 18:47:00,46.9,,-,62,N/A,30.11,60.1,,10:47 AM,8.0,Calm,Calm,0,Los Angeles,California,90001
23,Partly Cloudy,2016-01-14 19:47:00,46.9,,-,60,N/A,30.13,61.0,,11:47 AM,8.0,Variable,3.5,0,Los Angeles,California,90001
24,Clear,2016-01-14 20:47:00,48.0,,-,56,N/A,30.06,64.0,,12:47 PM,8.0,Calm,Calm,0,Los Angeles,California,90001
25,Clear,2016-01-14 21:47:00,46.9,,-,56,N/A,30.07,63.0,,1:47 PM,7.0,West,4.6,270,Los Angeles,California,90001
26,Clear,2016-01-14 22:47:00,48.0,,-,58,N/A,30.05,63.0,,2:47 PM,10.0,Calm,Calm,0,Los Angeles,California,90001
27,Clear,2016-01-14 23:47:00,48.9,,-,62,N/A,30.05,62.1,,3:47 PM,10.0,Variable,3.5,0,Los Angeles,California,90001
28,Clear,2016-01-15 00:47:00,50.0,,-,72,N/A,30.07,59.0,,4:47 PM,10.0,Calm,Calm,0,Los Angeles,California,90001
29,Partly Cloudy,2016-01-15 01:47:00,51.1,,-,81,N/A,30.08,57.0,,5:47 PM,9.0,West,4.6,280,Los Angeles,California,90001
30,Clear,2016-01-15 02:47:00,51.1,,-,84,N/A,30.08,55.9,,6:47 PM,10.0,Calm,Calm,0,Los Angeles,California,90001
31,Clear,2016-01-15 03:47:00,51.1,,-,86,N/A,30.08,55.0,,7:47 PM,10.0,Calm,Calm,0,Los Angeles,California,90001
32,Clear,2016-01-15 04:47:00,51.1,,-,84,N/A,30.08,55.9,,8:47 PM,10.0,Calm,Calm,0,Los Angeles,California,90001
33,Clear,2016-01-15 05:47:00,50.0,,-,86,N/A,30.09,54.0,,9:47 PM,10.0,Calm,Calm,0,Los Angeles,California,90001
34,Clear,2016-01-15 06:47:00,50.0,,-,83,N/A,30.09,55.0,,10:47 PM,10.0,Calm,Calm,0,Los Angeles,California,90001
35,Clear,2016-01-15 07:47:00,50.0,,-,86,N/A,30.07,54.0,,11:47 PM,9.0,Calm,Calm,0,Los Angeles,California,90001
0,Clear,2016-01-15 08:47:00,50.0,,-,89,N/A,30.06,53.1,,12:47 AM,6.0,ESE,3.5,120,Los Angeles,California,90001
1,Mostly Cloudy,2016-01-15 09:15:00,50.0,,-,89,N/A,30.04,53.1,,1:15 AM,6.0,ESE,3.5,110,Los Angeles,California,90001
2,Overcast,2016-01-15 09:47:00,50.0,,-,86,N/A,30.05,54.0,,1:47 AM,6.0,Calm,Calm,0,Los Angeles,California,90001
3,Overcast,2016-01-15 10:47:00,48.9,,-,83,N/A,30.05,54.0,,2:47 AM,7.0,Calm,Calm,0,Los Angeles,California,90001
4,Overcast,2016-01-15 11:47:00,48.9,,-,86,N/A,30.05,53.1,,3:47 AM,6.0,Calm,Calm,0,Los Angeles,California,90001
5,Mostly Cloudy,2016-01-15 12:47:00,48.0,,-,83,N/A,30.04,53.1,,4:47 AM,7.0,East,3.5,100,Los Angeles,California,90001
6,Haze,2016-01-15 13:08:00,48.0,,-,83,N/A,30.04,53.1,,5:08 AM,6.0,Calm,Calm,0,Los Angeles,California,90001
7,Haze,2016-01-15 13:14:00,48.0,,-,83,N/A,30.04,53.1,,5:14 AM,6.0,Calm,Calm,0,Los Angeles,California,90001
8,Mostly Cloudy,2016-01-15 13:47:00,48.0,,-,86,N/A,30.05,52.0,,5:47 AM,6.0,Calm,Calm,0,Los Angeles,California,90001
9,Scattered Clouds,2016-01-15 14:00:00,48.0,,-,89,N/A,30.05,51.1,,6:00 AM,6.0,Calm,Calm,0,Los Angeles,California,90001
10,Mostly Cloudy,2016-01-15 14:04:00,46.9,,-,86,N/A,30.05,51.1,,6:04 AM,6.0,Calm,Calm,0,Los Angeles,California,90001
11,Scattered Clouds,2016-01-15 14:11:00,48.0,,-,89,N/A,30.05,51.1,,6:11 AM,5.0,Calm,Calm,0,Los Angeles,California,90001
12,Mostly Cloudy,2016-01-15 14:47:00,48.0,,-,89,N/A,30.06,51.1,,6:47 AM,6.0,Calm,Calm,0,Los Angeles,California,90001
13,Overcast,2016-01-15 15:34:00,48.0,,-,80,N/A,30.07,54.0,,7:34 AM,7.0,Calm,Calm,0,Los Angeles,California,90001
14,Haze,2016-01-15 15:47:00,48.0,,-,80,N/A,30.08,54.0,,7:47 AM,6.0,Calm,Calm,0,Los Angeles,California,90001
15,Haze,2016-01-15 16:47:00,48.0,,-,77,N/A,30.09,55.0,,8:47 AM,5.0,East,4.6,90,Los Angeles,California,90001
16,Haze,2016-01-15 17:28:00,50.0,,-,77,N/A,30.11,57.0,,9:28 AM,5.0,Variable,3.5,0,Los Angeles,California,90001
17,Overcast,2016-01-15 17:47:00,48.9,,-,72,N/A,30.11,57.9,,9:47 AM,8.0,Variable,4.6,0,Los Angeles,California,90001
18,Overcast,2016-01-15 18:47:00,50.0,,-,69,N/A,30.11,60.1,,10:47 AM,10.0,Calm,Calm,0,Los Angeles,California,90001
19,Overcast,2016-01-15 19:47:00,50.0,,-,65,N/A,30.08,62.1,,11:47 AM,9.0,Variable,3.5,0,Los Angeles,California,90001
20,Overcast,2016-01-15 20:14:00,50.0,,-,63,N/A,30.07,63.0,,12:14 PM,10.0,Calm,Calm,0,Los Angeles,California,90001
21,Mostly Cloudy,2016-01-15 20:22:00,48.9,,-,60,N/A,30.07,63.0,,12:22 PM,10.0,East,4.6,90,Los Angeles,California,90001
22,Overcast,2016-01-15 20:47:00,48.9,,-,60,N/A,30.06,63.0,,12:47 PM,10.0,Calm,Calm,0,Los Angeles,California,90001
23,Partly Cloudy,2016-01-15 21:47:00,48.9,,-,60,N/A,30.04,63.0,,1:47 PM,10.0,East,3.5,80,Los Angeles,California,90001
24,Clear,2016-01-15 22:47:00,48.9,,-,58,N/A,30.03,64.0,,2:47 PM,10.0,Calm,Calm,0,Los Angeles,California,90001
25,Overcast,2016-01-15 23:47:00,52.0,,-,65,N/A,30.04,64.0,,3:47 PM,10.0,Calm,Calm,0,Los Angeles,California,90001
26,Mostly Cloudy,2016-01-16 00:40:00,50.0,,-,63,N/A,30.05,63.0,,4:40 PM,10.0,Variable,3.5,0,Los Angeles,California,90001
27,Mostly Cloudy,2016-01-16 00:47:00,51.1,,-,65,N/A,30.05,63.0,,4:47 PM,10.0,West,4.6,280,Los Angeles,California,90001
28,Overcast,2016-01-16 01:23:00,52.0,,-,72,N/A,30.07,61.0,,5:23 PM,10.0,Calm,Calm,0,Los Angeles,California,90001
29,Overcast,2016-01-16 01:28:00,52.0,,-,72,N/A,30.07,61.0,,5:28 PM,10.0,Variable,3.5,0,Los Angeles,California,90001
30,Overcast,2016-01-16 01:38:00,53.1,,-,78,N/A,30.07,60.1,,5:38 PM,10.0,Variable,3.5,0,Los Angeles,California,90001
31,Overcast,2016-01-16 01:47:00,53.1,,-,78,N/A,30.08,60.1,,5:47 PM,10.0,Calm,Calm,0,Los Angeles,California,90001
32,Scattered Clouds,2016-01-16 02:25:00,53.1,,-,81,N/A,30.08,59.0,,6:25 PM,10.0,Calm,Calm,0,Los Angeles,California,90001
33,Clear,2016-01-16 02:47:00,53.1,,-,84,N/A,30.09,57.9,,6:47 PM,10.0,Calm,Calm,0,Los Angeles,California,90001
34,Mostly Cloudy,2016-01-16 02:59:00,54.0,,-,83,N/A,30.10,59.0,,6:59 PM,10.0,Calm,Calm,0,Los Angeles,California,90001
35,Overcast,2016-01-16 03:43:00,54.0,,-,87,N/A,30.11,57.9,,7:43 PM,10.0,Calm,Calm,0,Los Angeles,California,90001
36,Overcast,2016-01-16 03:47:00,54.0,,-,87,N/A,30.12,57.9,,7:47 PM,10.0,Calm,Calm,0,Los Angeles,California,90001
37,Overcast,2016-01-16 03:53:00,54.0,,-,87,N/A,30.11,57.9,,7:53 PM,10.0,Calm,Calm,0,Los Angeles,California,90001
38,Mostly Cloudy,2016-01-16 04:01:00,54.0,,-,87,N/A,30.11,57.9,,8:01 PM,10.0,Calm,Calm,0,Los Angeles,California,90001
39,Overcast,2016-01-16 04:10:00,54.0,,-,87,N/A,30.11,57.9,,8:10 PM,10.0,Calm,Calm,0,Los Angeles,California,90001
40,Overcast,2016-01-16 04:17:00,54.0,,-,87,N/A,30.11,57.9,,8:17 PM,10.0,Calm,Calm,0,Los Angeles,California,90001
41,Overcast,2016-01-16 04:27:00,54.0,,-,87,N/A,30.11,57.9,,8:27 PM,10.0,Calm,Calm,0,Los Angeles,California,90001
42,Mostly Cloudy,2016-01-16 04:42:00,54.0,,-,87,N/A,30.11,57.9,,8:42 PM,10.0,Calm,Calm,0,Los Angeles,California,90001
43,Mostly Cloudy,2016-01-16 04:47:00,54.0,,-,87,N/A,30.12,57.9,,8:47 PM,10.0,Calm,Calm,0,Los Angeles,California,90001
44,Overcast,2016-01-16 05:42:00,55.0,,-,87,N/A,30.13,59.0,,9:42 PM,9.0,Calm,Calm,0,Los Angeles,California,90001
45,Overcast,2016-01-16 05:47:00,55.0,,-,87,N/A,30.13,59.0,,9:47 PM,9.0,Calm,Calm,0,Los Angeles,California,90001
46,Overcast,2016-01-16 06:12:00,55.0,,-,87,N/A,30.14,59.0,,10:12 PM,9.0,Variable,3.5,0,Los Angeles,California,90001
47,Overcast,2016-01-16 06:33:00,55.0,,-,87,N/A,30.14,59.0,,10:33 PM,10.0,SSE,4.6,150,Los Angeles,California,90001
48,Overcast,2016-01-16 06:40:00,55.0,,-,87,N/A,30.14,59.0,,10:40 PM,10.0,Calm,Calm,0,Los Angeles,California,90001
49,Overcast,2016-01-16 06:47:00,55.0,,-,87,N/A,30.14,59.0,,10:47 PM,10.0,Calm,Calm,0,Los Angeles,California,90001
50,Overcast,2016-01-16 07:47:00,54.0,,-,87,N/A,30.15,57.9,,11:47 PM,10.0,Calm,Calm,0,Los Angeles,California,90001
51,Overcast,2016-01-16 07:52:00,54.0,,-,87,N/A,30.15,57.9,,11:52 PM,10.0,Calm,Calm,0,Los Angeles,California,90001
52,Overcast,2016-01-16 07:56:00,54.0,,-,87,N/A,30.15,57.9,,11:56 PM,10.0,East,4.6,90,Los Angeles,California,90001
0,Overcast,2016-01-16 08:03:00,54.0,,-,87,N/A,30.15,57.9,,12:03 AM,10.0,East,3.5,100,Los Angeles,California,90001
1,Overcast,2016-01-16 08:10:00,54.0,,-,87,N/A,30.16,57.9,,12:10 AM,10.0,Calm,Calm,0,Los Angeles,California,90001
2,Overcast,2016-01-16 08:15:00,54.0,,-,87,N/A,30.16,57.9,,12:15 AM,10.0,Calm,Calm,0,Los Angeles,California,90001
3,Overcast,2016-01-16 08:41:00,54.0,,-,87,N/A,30.15,57.9,,12:41 AM,10.0,Calm,Calm,0,Los Angeles,California,90001
4,Overcast,2016-01-16 08:47:00,54.0,,-,87,N/A,30.14,57.9,,12:47 AM,10.0,East,3.5,100,Los Angeles,California,90001
5,Overcast,2016-01-16 09:19:00,54.0,,-,87,N/A,30.14,57.9,,1:19 AM,10.0,Calm,Calm,0,Los Angeles,California,90001
6,Overcast,2016-01-16 09:28:00,54.0,,-,87,N/A,30.14,57.9,,1:28 AM,10.0,East,3.5,100,Los Angeles,California,90001
7,Overcast,2016-01-16 09:36:00,54.0,,-,87,N/A,30.15,57.9,,1:36 AM,10.0,Calm,Calm,0,Los Angeles,California,90001
8,Overcast,2016-01-16 09:47:00,53.1,,-,84,N/A,30.14,57.9,,1:47 AM,10.0,Calm,Calm,0,Los Angeles,California,90001
9,Overcast,2016-01-16 10:34:00,53.1,,-,84,N/A,30.15,57.9,,2:34 AM,10.0,Calm,Calm,0,Los Angeles,California,90001
10,Overcast,2016-01-16 10:47:00,52.0,,-,81,N/A,30.15,57.9,,2:47 AM,10.0,Calm,Calm,0,Los Angeles,California,90001
11,Mostly Cloudy,2016-01-16 11:47:00,50.0,,-,77,N/A,30.14,57.0,,3:47 AM,10.0,Calm,Calm,0,Los Angeles,California,90001
12,Partly Cloudy,2016-01-16 12:47:00,48.9,,-,77,N/A,30.14,55.9,,4:47 AM,10.0,Calm,Calm,0,Los Angeles,California,90001
13,Clear,2016-01-16 13:47:00,48.9,,-,83,N/A,30.15,54.0,,5:47 AM,9.0,Calm,Calm,0,Los Angeles,California,90001
14,Partly Cloudy,2016-01-16 14:47:00,48.9,,-,80,N/A,30.17,55.0,,6:47 AM,9.0,Calm,Calm,0,Los Angeles,California,90001
15,Mostly Cloudy,2016-01-16 15:12:00,50.0,,-,86,N/A,30.18,54.0,,7:12 AM,7.0,Calm,Calm,0,Los Angeles,California,90001
16,Scattered Clouds,2016-01-16 15:44:00,48.0,,-,75,N/A,30.18,55.9,,7:44 AM,9.0,Calm,Calm,0,Los Angeles,California,90001
17,Scattered Clouds,2016-01-16 15:47:00,48.0,,-,75,N/A,30.18,55.9,,7:47 AM,9.0,Variable,3.5,0,Los Angeles,California,90001
18,Scattered Clouds,2016-01-16 16:47:00,46.9,,-,67,N/A,30.20,57.9,,8:47 AM,10.0,Calm,Calm,0,Los Angeles,California,90001
19,Mostly Cloudy,2016-01-16 16:54:00,46.9,,-,67,N/A,30.21,57.9,,8:54 AM,10.0,Calm,Calm,0,Los Angeles,California,90001
20,Overcast,2016-01-16 17:47:00,46.9,,-,62,N/A,30.22,60.1,,9:47 AM,9.0,Calm,Calm,0,Los Angeles,California,90001
21,Scattered Clouds,2016-01-16 18:31:00,48.9,,-,62,N/A,30.21,62.1,,10:31 AM,8.0,Calm,Calm,0,Los Angeles,California,90001
22,Clear,2016-01-16 18:47:00,50.0,,-,63,N/A,30.19,63.0,,10:47 AM,8.0,Calm,Calm,0,Los Angeles,California,90001
23,Clear,2016-01-16 19:47:00,50.0,,-,63,N/A,30.15,63.0,,11:47 AM,7.0,Calm,Calm,0,Los Angeles,California,90001
24,Clear,2016-01-16 20:47:00,52.0,,-,60,N/A,30.12,66.0,,12:47 PM,7.0,Calm,Calm,0,Los Angeles,California,90001
25,Clear,2016-01-16 21:47:00,53.1,,-,67,N/A,30.11,64.0,,1:47 PM,9.0,Variable,3.5,0,Los Angeles,California,90001
26,Clear,2016-01-16 22:47:00,54.0,,-,72,N/A,30.10,63.0,,2:47 PM,8.0,Variable,5.8,0,Los Angeles,California,90001
27,Clear,2016-01-16 23:47:00,54.0,,-,75,N/A,30.10,62.1,,3:47 PM,9.0,West,4.6,280,Los Angeles,California,90001
28,Partly Cloudy,2016-01-17 00:47:00,54.0,,-,78,N/A,30.11,61.0,,4:47 PM,9.0,Calm,Calm,0,Los Angeles,California,90001
29,Clear,2016-01-17 01:47:00,53.1,,-,81,N/A,30.12,59.0,,5:47 PM,10.0,West,3.5,280,Los Angeles,California,90001
30,Clear,2016-01-17 02:47:00,54.0,,-,87,N/A,30.13,57.9,,6:47 PM,10.0,Calm,Calm,0,Los Angeles,California,90001
31,Clear,2016-01-17 03:47:00,53.1,,-,84,N/A,30.14,57.9,,7:47 PM,9.0,Calm,Calm,0,Los Angeles,California,90001
32,Mostly Cloudy,2016-01-17 04:47:00,53.1,,-,81,N/A,30.17,59.0,,8:47 PM,10.0,Calm,Calm,0,Los Angeles,California,90001
33,Scattered Clouds,2016-01-17 05:17:00,54.0,,-,87,N/A,30.15,57.9,,9:17 PM,8.0,Calm,Calm,0,Los Angeles,California,90001
34,Clear,2016-01-17 05:47:00,53.1,,-,87,N/A,30.15,57.0,,9:47 PM,8.0,Calm,Calm,0,Los Angeles,California,90001
35,Clear,2016-01-17 06:47:00,53.1,,-,90,N/A,30.16,55.9,,10:47 PM,7.0,Calm,Calm,0,Los Angeles,California,90001
36,Clear,2016-01-17 07:47:00,52.0,,-,89,N/A,30.16,55.0,,11:47 PM,6.0,Calm,Calm,0,Los Angeles,California,90001
0,Clear,2016-01-17 08:47:00,52.0,,-,93,N/A,30.15,54.0,,12:47 AM,5.0,Calm,Calm,0,Los Angeles,California,90001
1,Clear,2016-01-17 09:47:00,52.0,,-,89,N/A,30.13,55.0,,1:47 AM,6.0,Calm,Calm,0,Los Angeles,California,90001
2,Clear,2016-01-17 10:47:00,50.0,,-,89,N/A,30.12,53.1,,2:47 AM,4.0,Calm,Calm,0,Los Angeles,California,90001
3,Clear,2016-01-17 11:47:00,48.9,,-,92,N/A,30.13,51.1,,3:47 AM,4.0,West,3.5,270,Los Angeles,California,90001
4,Clear,2016-01-17 12:47:00,48.9,,-,96,N/A,30.14,50.0,,4:47 AM,4.0,Calm,Calm,0,Los Angeles,California,90001
5,Clear,2016-01-17 13:47:00,48.0,,-,93,N/A,30.15,50.0,,5:47 AM,4.0,Calm,Calm,0,Los Angeles,California,90001
6,Clear,2016-01-17 14:47:00,46.9,,-,89,N/A,30.19,50.0,,6:47 AM,4.0,Calm,Calm,0,Los Angeles,California,90001
7,Clear,2016-01-17 14:59:00,46.9,,-,93,N/A,30.20,48.9,,6:59 AM,2.5,Calm,Calm,0,Los Angeles,California,90001
8,Clear,2016-01-17 15:20:00,48.9,,-,92,N/A,30.19,51.1,,7:20 AM,3.0,Calm,Calm,0,Los Angeles,California,90001
9,Clear,2016-01-17 15:47:00,48.9,,-,89,N/A,30.20,52.0,,7:47 AM,4.0,Calm,Calm,0,Los Angeles,California,90001
10,Haze,2016-01-17 16:47:00,48.9,,-,80,N/A,30.19,55.0,,8:47 AM,6.0,East,5.8,100,Los Angeles,California,90001
11,Haze,2016-01-17 17:47:00,48.9,,-,67,N/A,30.22,60.1,,9:47 AM,5.0,Calm,Calm,0,Los Angeles,California,90001
12,Haze,2016-01-17 18:47:00,48.9,,-,58,N/A,30.20,64.0,,10:47 AM,5.0,Calm,Calm,0,Los Angeles,California,90001
13,Haze,2016-01-17 19:47:00,48.9,,-,52,N/A,30.17,66.9,,11:47 AM,6.0,Calm,Calm,0,Los Angeles,California,90001
14,Haze,2016-01-17 20:47:00,50.0,,-,54,N/A,30.16,66.9,,12:47 PM,5.0,Variable,3.5,0,Los Angeles,California,90001
15,Haze,2016-01-17 21:47:00,53.1,,-,63,N/A,30.13,66.0,,1:47 PM,5.0,Calm,Calm,0,Los Angeles,California,90001
16,Haze,2016-01-17 22:47:00,53.1,,-,61,N/A,30.12,66.9,,2:47 PM,6.0,Variable,5.8,0,Los Angeles,California,90001
17,Haze,2016-01-17 23:47:00,53.1,,-,70,N/A,30.12,63.0,,3:47 PM,5.0,Variable,4.6,0,Los Angeles,California,90001
18,Haze,2016-01-18 00:47:00,54.0,,-,75,N/A,30.13,62.1,,4:47 PM,5.0,Calm,Calm,0,Los Angeles,California,90001
19,Haze,2016-01-18 01:47:00,53.1,,-,81,N/A,30.15,59.0,,5:47 PM,6.0,West,3.5,270,Los Angeles,California,90001
20,Clear,2016-01-18 02:47:00,54.0,,-,87,N/A,30.14,57.9,,6:47 PM,6.0,West,3.5,270,Los Angeles,California,90001
21,Partly Cloudy,2016-01-18 03:11:00,55.0,,-,93,N/A,30.15,57.0,,7:11 PM,6.0,Calm,Calm,0,Los Angeles,California,90001
22,Clear,2016-01-18 03:47:00,55.0,,-,93,N/A,30.14,57.0,,7:47 PM,6.0,Calm,Calm,0,Los Angeles,California,90001
23,Clear,2016-01-18 04:47:00,55.0,,-,93,N/A,30.15,57.0,,8:47 PM,7.0,Calm,Calm,0,Los Angeles,California,90001
24,Clear,2016-01-18 05:47:00,54.0,,-,93,N/A,30.16,55.9,,9:47 PM,6.0,Calm,Calm,0,Los Angeles,California,90001
25,Partly Cloudy,2016-01-18 06:09:00,54.0,,-,93,N/A,30.16,55.9,,10:09 PM,5.0,Calm,Calm,0,Los Angeles,California,90001
26,Mostly Cloudy,2016-01-18 06:17:00,54.0,,-,93,N/A,30.16,55.9,,10:17 PM,2.0,Calm,Calm,0,Los Angeles,California,90001
27,Mostly Cloudy,2016-01-18 06:21:00,54.0,,-,96,N/A,30.16,55.0,,10:21 PM,1.5,Calm,Calm,0,Los Angeles,California,90001
28,Fog,2016-01-18 06:28:00,54.0,Fog,-,96,N/A,30.16,55.0,,10:28 PM,0.5,Calm,Calm,0,Los Angeles,California,90001
29,Fog,2016-01-18 06:47:00,55.0,Fog,-,100,N/A,30.15,55.0,,10:47 PM,0.2,Calm,Calm,0,Los Angeles,California,90001
30,Overcast,2016-01-18 07:05:00,55.0,,-,97,N/A,30.16,55.9,,11:05 PM,1.2,Calm,Calm,0,Los Angeles,California,90001
31,Mist,2016-01-18 07:19:00,55.0,,-,97,N/A,30.15,55.9,,11:19 PM,0.8,Calm,Calm,0,Los Angeles,California,90001
32,Overcast,2016-01-18 07:32:00,55.0,,-,97,N/A,30.15,55.9,,11:32 PM,1.0,Calm,Calm,0,Los Angeles,California,90001
33,Overcast,2016-01-18 07:47:00,55.0,,-,97,N/A,30.15,55.9,,11:47 PM,1.0,Calm,Calm,0,Los Angeles,California,90001
34,Overcast,2016-01-18 07:56:00,55.0,,-,97,N/A,30.15,55.9,,11:56 PM,0.8,Calm,Calm,0,Los Angeles,California,90001
0,Fog,2016-01-18 08:47:00,55.0,Fog,-,100,N/A,30.14,55.0,,12:47 AM,0.5,Calm,Calm,0,Los Angeles,California,90001
1,Mist,2016-01-18 09:29:00,55.0,,-,100,N/A,30.15,55.0,,1:29 AM,1.0,Calm,Calm,0,Los Angeles,California,90001
2,Overcast,2016-01-18 09:47:00,55.0,,-,100,N/A,30.15,55.0,,1:47 AM,1.2,SSE,3.5,150,Los Angeles,California,90001
3,Overcast,2016-01-18 10:01:00,55.0,,-,100,N/A,30.15,55.0,,2:01 AM,0.8,Calm,Calm,0,Los Angeles,California,90001
4,Mist,2016-01-18 10:47:00,55.0,,-,100,N/A,30.15,55.0,,2:47 AM,0.8,East,3.5,80,Los Angeles,California,90001
5,Overcast,2016-01-18 10:50:00,55.0,,-,100,N/A,30.15,55.0,,2:50 AM,1.2,Calm,Calm,0,Los Angeles,California,90001
6,Overcast,2016-01-18 11:15:00,55.0,,-,100,N/A,30.15,55.0,,3:15 AM,2.0,Calm,Calm,0,Los Angeles,California,90001
7,Overcast,2016-01-18 11:37:00,54.0,,-,96,N/A,30.16,55.0,,3:37 AM,3.0,Calm,Calm,0,Los Angeles,California,90001
8,Overcast,2016-01-18 11:47:00,54.0,,-,96,N/A,30.15,55.0,,3:47 AM,3.0,SE,5.8,140,Los Angeles,California,90001
9,Overcast,2016-01-18 12:21:00,54.0,,-,93,N/A,30.15,55.9,,4:21 AM,4.0,Calm,Calm,0,Los Angeles,California,90001
10,Overcast,2016-01-18 12:47:00,54.0,,-,93,N/A,30.13,55.9,,4:47 AM,4.0,ESE,3.5,110,Los Angeles,California,90001
11,Overcast,2016-01-18 13:47:00,54.0,,-,93,N/A,30.14,55.9,,5:47 AM,3.0,East,4.6,100,Los Angeles,California,90001
12,Overcast,2016-01-18 14:47:00,54.0,,-,93,N/A,30.19,55.9,,6:47 AM,5.0,Calm,Calm,0,Los Angeles,California,90001
13,Overcast,2016-01-18 15:47:00,53.1,,-,87,N/A,30.20,57.0,,7:47 AM,4.0,Calm,Calm,0,Los Angeles,California,90001
14,Mostly Cloudy,2016-01-18 16:47:00,53.1,,-,87,N/A,30.21,57.0,,8:47 AM,3.0,Calm,Calm,0,Los Angeles,California,90001
15,Haze,2016-01-18 17:00:00,53.1,,-,84,N/A,30.21,57.9,,9:00 AM,3.0,East,4.6,90,Los Angeles,California,90001
16,Haze,2016-01-18 17:47:00,53.1,,-,81,N/A,30.22,59.0,,9:47 AM,4.0,Calm,Calm,0,Los Angeles,California,90001
17,Haze,2016-01-18 18:11:00,53.1,,-,78,N/A,30.23,60.1,,10:11 AM,4.0,Calm,Calm,0,Los Angeles,California,90001
18,Haze,2016-01-18 18:23:00,53.1,,-,75,N/A,30.23,61.0,,10:23 AM,5.0,Calm,Calm,0,Los Angeles,California,90001
19,Haze,2016-01-18 18:27:00,53.1,,-,78,N/A,30.22,60.1,,10:27 AM,5.0,Calm,Calm,0,Los Angeles,California,90001
20,Haze,2016-01-18 18:47:00,53.1,,-,75,N/A,30.22,61.0,,10:47 AM,5.0,Calm,Calm,0,Los Angeles,California,90001
21,Haze,2016-01-18 19:14:00,53.1,,-,72,N/A,30.21,62.1,,11:14 AM,6.0,Calm,Calm,0,Los Angeles,California,90001
22,Haze,2016-01-18 19:47:00,53.1,,-,75,N/A,30.19,61.0,,11:47 AM,6.0,Calm,Calm,0,Los Angeles,California,90001
23,Haze,2016-01-18 20:47:00,54.0,,-,75,N/A,30.17,62.1,,12:47 PM,6.0,Calm,Calm,0,Los Angeles,California,90001
24,Overcast,2016-01-18 21:44:00,53.1,,-,72,N/A,30.16,62.1,,1:44 PM,10.0,Variable,5.8,0,Los Angeles,California,90001
25,Overcast,2016-01-18 21:47:00,53.1,,-,72,N/A,30.16,62.1,,1:47 PM,10.0,Calm,Calm,0,Los Angeles,California,90001
26,Overcast,2016-01-18 22:47:00,54.0,,-,78,N/A,30.17,61.0,,2:47 PM,10.0,West,4.6,270,Los Angeles,California,90001
27,Overcast,2016-01-18 23:47:00,55.0,,-,81,N/A,30.16,61.0,,3:47 PM,10.0,Variable,3.5,0,Los Angeles,California,90001
28,Overcast,2016-01-19 00:08:00,55.0,,-,83,N/A,30.16,60.1,,4:08 PM,10.0,Variable,3.5,0,Los Angeles,California,90001
29,Overcast,2016-01-19 00:25:00,55.9,,-,86,N/A,30.15,60.1,,4:25 PM,10.0,West,5.8,270,Los Angeles,California,90001
30,Overcast,2016-01-19 00:47:00,55.9,,-,90,N/A,30.15,59.0,,4:47 PM,10.0,West,4.6,270,Los Angeles,California,90001
31,Scattered Clouds,2016-01-19 01:47:00,55.0,,-,87,N/A,30.15,59.0,,5:47 PM,10.0,Calm,Calm,0,Los Angeles,California,90001
32,Mostly Cloudy,2016-01-19 02:05:00,55.0,,-,87,N/A,30.16,59.0,,6:05 PM,10.0,Calm,Calm,0,Los Angeles,California,90001
33,Overcast,2016-01-19 02:47:00,55.9,,-,90,N/A,30.18,59.0,,6:47 PM,10.0,Calm,Calm,0,Los Angeles,California,90001
34,Overcast,2016-01-19 03:47:00,55.9,,-,90,N/A,30.19,59.0,,7:47 PM,10.0,Calm,Calm,0,Los Angeles,California,90001
35,Overcast,2016-01-19 04:39:00,55.9,,-,86,N/A,30.19,60.1,,8:39 PM,10.0,Calm,Calm,0,Los Angeles,California,90001
36,Overcast,2016-01-19 04:47:00,55.9,,-,86,N/A,30.19,60.1,,8:47 PM,10.0,Calm,Calm,0,Los Angeles,California,90001
37,Overcast,2016-01-19 05:11:00,55.9,,-,86,N/A,30.20,60.1,,9:11 PM,10.0,Calm,Calm,0,Los Angeles,California,90001
38,Overcast,2016-01-19 05:34:00,55.9,,-,90,N/A,30.20,59.0,,9:34 PM,10.0,Calm,Calm,0,Los Angeles,California,90001
39,Overcast,2016-01-19 05:39:00,55.9,,-,90,N/A,30.20,59.0,,9:39 PM,10.0,Calm,Calm,0,Los Angeles,California,90001
40,Overcast,2016-01-19 05:47:00,55.9,,-,90,N/A,30.19,59.0,,9:47 PM,10.0,Calm,Calm,0,Los Angeles,California,90001
41,Overcast,2016-01-19 06:25:00,55.9,,-,90,N/A,30.20,59.0,,10:25 PM,10.0,Calm,Calm,0,Los Angeles,California,90001
42,Overcast,2016-01-19 06:47:00,55.9,,-,90,N/A,30.20,59.0,,10:47 PM,10.0,Calm,Calm,0,Los Angeles,California,90001
43,Overcast,2016-01-19 07:19:00,55.0,,-,87,N/A,30.20,59.0,,11:19 PM,10.0,Calm,Calm,0,Los Angeles,California,90001
44,Overcast,2016-01-19 07:27:00,55.0,,-,90,N/A,30.20,57.9,,11:27 PM,10.0,Calm,Calm,0,Los Angeles,California,90001
45,Overcast,2016-01-19 07:47:00,55.0,,-,90,N/A,30.19,57.9,,11:47 PM,10.0,Calm,Calm,0,Los Angeles,California,90001
46,Overcast,2016-01-19 07:50:00,55.0,,-,90,N/A,30.19,57.9,,11:50 PM,10.0,Calm,Calm,0,Los Angeles,California,90001
47,Overcast,2016-01-19 07:57:00,55.0,,-,90,N/A,30.19,57.9,,11:57 PM,10.0,Calm,Calm,0,Los Angeles,California,90001
0,Overcast,2016-01-19 08:32:00,55.0,,-,90,N/A,30.20,57.9,,12:32 AM,10.0,Calm,Calm,0,Los Angeles,California,90001
1,Overcast,2016-01-19 08:47:00,55.0,,-,90,N/A,30.20,57.9,,12:47 AM,10.0,Calm,Calm,0,Los Angeles,California,90001
2,Overcast,2016-01-19 09:42:00,55.0,,-,90,N/A,30.20,57.9,,1:42 AM,10.0,Calm,Calm,0,Los Angeles,California,90001
3,Overcast,2016-01-19 09:47:00,55.0,,-,90,N/A,30.20,57.9,,1:47 AM,10.0,Calm,Calm,0,Los Angeles,California,90001
4,Overcast,2016-01-19 10:44:00,55.0,,-,90,N/A,30.19,57.9,,2:44 AM,10.0,Calm,Calm,0,Los Angeles,California,90001
5,Overcast,2016-01-19 10:47:00,55.0,,-,90,N/A,30.19,57.9,,2:47 AM,10.0,Calm,Calm,0,Los Angeles,California,90001
6,Clear,2016-01-19 11:47:00,54.0,,-,93,N/A,30.17,55.9,,3:47 AM,9.0,Calm,Calm,0,Los Angeles,California,90001
7,Clear,2016-01-19 12:47:00,52.0,,-,93,N/A,30.17,54.0,,4:47 AM,9.0,Calm,Calm,0,Los Angeles,California,90001
8,Clear,2016-01-19 13:47:00,52.0,,-,93,N/A,30.18,54.0,,5:47 AM,9.0,Calm,Calm,0,Los Angeles,California,90001
9,Mostly Cloudy,2016-01-19 14:34:00,51.1,,-,90,N/A,30.19,54.0,,6:34 AM,10.0,Calm,Calm,0,Los Angeles,California,90001
10,Mostly Cloudy,2016-01-19 14:47:00,51.1,,-,86,N/A,30.17,55.0,,6:47 AM,10.0,Variable,3.5,0,Los Angeles,California,90001
11,Scattered Clouds,2016-01-19 15:00:00,51.1,,-,86,N/A,30.18,55.0,,7:00 AM,10.0,Calm,Calm,0,Los Angeles,California,90001
12,Clear,2016-01-19 15:47:00,51.1,,-,84,N/A,30.19,55.9,,7:47 AM,8.0,Calm,Calm,0,Los Angeles,California,90001
13,Clear,2016-01-19 16:47:00,52.0,,-,78,N/A,30.20,59.0,,8:47 AM,7.0,Calm,Calm,0,Los Angeles,California,90001
14,Haze,2016-01-19 17:47:00,52.0,,-,70,N/A,30.21,62.1,,9:47 AM,6.0,Calm,Calm,0,Los Angeles,California,90001
15,Haze,2016-01-19 18:47:00,52.0,,-,67,N/A,30.21,63.0,,10:47 AM,6.0,Calm,Calm,0,Los Angeles,California,90001
16,Clear,2016-01-19 19:47:00,53.1,,-,72,N/A,30.19,62.1,,11:47 AM,9.0,West,3.5,280,Los Angeles,California,90001
17,Clear,2016-01-19 20:47:00,52.0,,-,67,N/A,30.16,63.0,,12:47 PM,9.0,Variable,3.5,0,Los Angeles,California,90001
18,Overcast,2016-01-19 21:47:00,53.1,,-,70,N/A,30.15,63.0,,1:47 PM,10.0,West,6.9,270,Los Angeles,California,90001
19,Overcast,2016-01-19 22:42:00,54.0,,-,75,N/A,30.17,62.1,,2:42 PM,10.0,Variable,3.5,0,Los Angeles,California,90001
20,Overcast,2016-01-19 22:47:00,54.0,,-,78,N/A,30.17,61.0,,2:47 PM,10.0,Calm,Calm,0,Los Angeles,California,90001
21,Overcast,2016-01-19 23:18:00,55.0,,-,83,0.00,30.17,60.1,,3:18 PM,10.0,Variable,4.6,0,Los Angeles,California,90001
22,Overcast,2016-01-19 23:38:00,54.0,,-,80,0.00,30.17,60.1,,3:38 PM,10.0,Calm,Calm,0,Los Angeles,California,90001
23,Overcast,2016-01-19 23:42:00,54.0,,-,80,0.00,30.17,60.1,,3:42 PM,10.0,Calm,Calm,0,Los Angeles,California,90001
24,Overcast,2016-01-19 23:47:00,55.0,,-,83,0.00,30.17,60.1,,3:47 PM,10.0,Calm,Calm,0,Los Angeles,California,90001
25,Overcast,2016-01-20 00:47:00,55.9,,-,86,0.00,30.18,60.1,,4:47 PM,10.0,Calm,Calm,0,Los Angeles,California,90001
26,Overcast,2016-01-20 00:58:00,55.0,,-,83,N/A,30.17,60.1,,4:58 PM,10.0,Calm,Calm,0,Los Angeles,California,90001
27,Overcast,2016-01-20 01:23:00,55.0,,-,87,N/A,30.18,59.0,,5:23 PM,10.0,Calm,Calm,0,Los Angeles,California,90001
28,Overcast,2016-01-20 01:47:00,55.0,,-,87,N/A,30.18,59.0,,5:47 PM,10.0,Calm,Calm,0,Los Angeles,California,90001
29,Overcast,2016-01-20 02:38:00,55.0,,-,87,N/A,30.19,59.0,,6:38 PM,10.0,Calm,Calm,0,Los Angeles,California,90001
30,Overcast,2016-01-20 02:47:00,55.0,,-,87,N/A,30.19,59.0,,6:47 PM,10.0,Calm,Calm,0,Los Angeles,California,90001
31,Overcast,2016-01-20 03:00:00,55.0,,-,87,N/A,30.19,59.0,,7:00 PM,10.0,Calm,Calm,0,Los Angeles,California,90001
32,Overcast,2016-01-20 03:27:00,55.0,,-,87,N/A,30.19,59.0,,7:27 PM,10.0,Calm,Calm,0,Los Angeles,California,90001
33,Overcast,2016-01-20 03:47:00,55.9,,-,90,N/A,30.20,59.0,,7:47 PM,5.0,Calm,Calm,0,Los Angeles,California,90001
34,Overcast,2016-01-20 04:03:00,55.9,,-,93,N/A,30.19,57.9,,8:03 PM,8.0,Calm,Calm,0,Los Angeles,California,90001
35,Overcast,2016-01-20 04:34:00,55.9,,-,93,N/A,30.20,57.9,,8:34 PM,10.0,Calm,Calm,0,Los Angeles,California,90001
36,Overcast,2016-01-20 04:40:00,55.9,,-,93,N/A,30.20,57.9,,8:40 PM,10.0,Calm,Calm,0,Los Angeles,California,90001
37,Overcast,2016-01-20 04:47:00,55.9,,-,93,N/A,30.20,57.9,,8:47 PM,10.0,Calm,Calm,0,Los Angeles,California,90001
38,Overcast,2016-01-20 05:14:00,55.9,,-,93,N/A,30.21,57.9,,9:14 PM,10.0,Calm,Calm,0,Los Angeles,California,90001
39,Overcast,2016-01-20 05:17:00,55.9,,-,93,N/A,30.21,57.9,,9:17 PM,10.0,Calm,Calm,0,Los Angeles,California,90001
40,Overcast,2016-01-20 05:22:00,55.9,,-,93,N/A,30.21,57.9,,9:22 PM,9.0,Calm,Calm,0,Los Angeles,California,90001
41,Overcast,2016-01-20 05:29:00,55.9,,-,90,N/A,30.21,59.0,,9:29 PM,8.0,Calm,Calm,0,Los Angeles,California,90001
42,Overcast,2016-01-20 05:47:00,55.9,,-,90,N/A,30.21,59.0,,9:47 PM,7.0,Calm,Calm,0,Los Angeles,California,90001
43,Light Rain,2016-01-20 06:11:00,55.9,Rain,-,90,0.00,30.21,59.0,,10:11 PM,3.0,Calm,Calm,0,Los Angeles,California,90001
44,Overcast,2016-01-20 06:47:00,57.0,,-,97,0.00,30.21,57.9,,10:47 PM,5.0,Calm,Calm,0,Los Angeles,California,90001
45,Overcast,2016-01-20 07:01:00,57.0,,-,93,N/A,30.21,59.0,,11:01 PM,3.0,Calm,Calm,0,Los Angeles,California,90001
46,Overcast,2016-01-20 07:12:00,57.0,,-,93,N/A,30.21,59.0,,11:12 PM,2.5,Calm,Calm,0,Los Angeles,California,90001
47,Light Rain,2016-01-20 07:28:00,57.0,Rain,-,93,0.01,30.21,59.0,,11:28 PM,1.8,Calm,Calm,0,Los Angeles,California,90001
48,Light Rain,2016-01-20 07:38:00,57.0,Rain,-,97,0.01,30.21,57.9,,11:38 PM,2.0,Calm,Calm,0,Los Angeles,California,90001
49,Light Rain,2016-01-20 07:47:00,57.0,Rain,-,97,0.01,30.21,57.9,,11:47 PM,1.8,ESE,4.6,120,Los Angeles,California,90001
50,Light Rain,2016-01-20 07:57:00,57.0,Rain,-,97,0.00,30.21,57.9,,11:57 PM,2.0,ESE,4.6,120,Los Angeles,California,90001
0,Overcast,2016-01-20 08:20:00,57.0,,-,97,0.00,30.20,57.9,,12:20 AM,3.0,East,4.6,100,Los Angeles,California,90001
1,Overcast,2016-01-20 08:47:00,57.0,,-,97,0.00,30.20,57.9,,12:47 AM,4.0,ESE,3.5,110,Los Angeles,California,90001
2,Overcast,2016-01-20 09:13:00,57.0,,-,93,N/A,30.21,59.0,,1:13 AM,4.0,ESE,3.5,120,Los Angeles,California,90001
3,Overcast,2016-01-20 09:28:00,57.0,,-,93,N/A,30.21,59.0,,1:28 AM,4.0,SE,3.5,130,Los Angeles,California,90001
4,Overcast,2016-01-20 09:47:00,57.0,,-,93,N/A,30.21,59.0,,1:47 AM,2.5,Calm,Calm,0,Los Angeles,California,90001
5,Overcast,2016-01-20 09:58:00,57.0,,-,93,N/A,30.21,59.0,,1:58 AM,2.5,Calm,Calm,0,Los Angeles,California,90001
6,Overcast,2016-01-20 10:01:00,57.0,,-,93,N/A,30.21,59.0,,2:01 AM,2.0,Calm,Calm,0,Los Angeles,California,90001
7,Overcast,2016-01-20 10:09:00,57.0,,-,93,N/A,30.21,59.0,,2:09 AM,2.0,East,3.5,100,Los Angeles,California,90001
8,Light Rain,2016-01-20 10:16:00,57.0,Rain,-,97,0.01,30.21,57.9,,2:16 AM,1.8,SE,3.5,130,Los Angeles,California,90001
9,Light Rain,2016-01-20 10:32:00,57.0,Rain,-,97,0.01,30.20,57.9,,2:32 AM,2.5,ESE,3.5,110,Los Angeles,California,90001
10,Overcast,2016-01-20 10:37:00,57.0,,-,97,0.01,30.20,57.9,,2:37 AM,3.0,Calm,Calm,0,Los Angeles,California,90001
11,Overcast,2016-01-20 10:47:00,57.0,,-,93,0.01,30.20,59.0,,2:47 AM,4.0,Calm,Calm,0,Los Angeles,California,90001
12,Overcast,2016-01-20 11:47:00,57.0,,-,93,N/A,30.19,59.0,,3:47 AM,3.0,Calm,Calm,0,Los Angeles,California,90001
13,Overcast,2016-01-20 12:47:00,57.0,,-,93,N/A,30.19,59.0,,4:47 AM,5.0,East,3.5,90,Los Angeles,California,90001
14,Overcast,2016-01-20 13:01:00,57.0,,-,93,N/A,30.19,59.0,,5:01 AM,5.0,NE,3.5,40,Los Angeles,California,90001
15,Overcast,2016-01-20 13:47:00,57.0,,-,93,N/A,30.20,59.0,,5:47 AM,3.0,Calm,Calm,0,Los Angeles,California,90001
16,Overcast,2016-01-20 14:02:00,55.9,,-,93,N/A,30.20,57.9,,6:02 AM,3.0,Calm,Calm,0,Los Angeles,California,90001
17,Overcast,2016-01-20 14:06:00,55.9,,-,93,N/A,30.20,57.9,,6:06 AM,3.0,Calm,Calm,0,Los Angeles,California,90001
18,Overcast,2016-01-20 14:47:00,55.9,,-,90,N/A,30.21,59.0,,6:47 AM,4.0,Calm,Calm,0,Los Angeles,California,90001
19,Overcast,2016-01-20 14:51:00,55.9,,-,90,N/A,30.21,59.0,,6:51 AM,4.0,Calm,Calm,0,Los Angeles,California,90001
20,Haze,2016-01-20 15:47:00,55.0,,-,83,N/A,30.22,60.1,,7:47 AM,5.0,Calm,Calm,0,Los Angeles,California,90001
21,Haze,2016-01-20 16:47:00,55.9,,-,83,N/A,30.23,61.0,,8:47 AM,4.0,Calm,Calm,0,Los Angeles,California,90001
22,Haze,2016-01-20 17:13:00,57.0,,-,84,N/A,30.24,62.1,,9:13 AM,5.0,Calm,Calm,0,Los Angeles,California,90001
23,Haze,2016-01-20 17:18:00,55.9,,-,80,N/A,30.24,62.1,,9:18 AM,5.0,Calm,Calm,0,Los Angeles,California,90001
24,Haze,2016-01-20 17:47:00,55.0,,-,73,N/A,30.24,64.0,,9:47 AM,6.0,Calm,Calm,0,Los Angeles,California,90001
25,Mostly Cloudy,2016-01-20 18:36:00,55.0,,-,66,N/A,30.23,66.9,,10:36 AM,8.0,Calm,Calm,0,Los Angeles,California,90001
26,Mostly Cloudy,2016-01-20 18:47:00,55.0,,-,66,N/A,30.23,66.9,,10:47 AM,8.0,Calm,Calm,0,Los Angeles,California,90001
27,Scattered Clouds,2016-01-20 19:26:00,53.1,,-,61,N/A,30.22,66.9,,11:26 AM,10.0,Calm,Calm,0,Los Angeles,California,90001
28,Clear,2016-01-20 19:47:00,52.0,,-,63,N/A,30.20,64.9,,11:47 AM,10.0,Calm,Calm,0,Los Angeles,California,90001
29,Clear,2016-01-20 20:47:00,55.0,,-,63,N/A,30.17,68.0,,12:47 PM,8.0,Variable,3.5,0,Los Angeles,California,90001
30,Mostly Cloudy,2016-01-20 21:38:00,55.0,,-,63,N/A,30.15,68.0,,1:38 PM,10.0,Calm,Calm,0,Los Angeles,California,90001
31,Scattered Clouds,2016-01-20 21:47:00,54.0,,-,63,N/A,30.14,66.9,,1:47 PM,10.0,West,4.6,280,Los Angeles,California,90001
32,Clear,2016-01-20 22:47:00,55.0,,-,68,N/A,30.14,66.0,,2:47 PM,10.0,Variable,3.5,0,Los Angeles,California,90001
33,Clear,2016-01-20 23:47:00,55.0,,-,70,N/A,30.12,64.9,,3:47 PM,10.0,West,3.5,260,Los Angeles,California,90001
34,Clear,2016-01-21 00:47:00,54.0,,-,75,N/A,30.13,62.1,,4:47 PM,10.0,West,4.6,270,Los Angeles,California,90001
35,Clear,2016-01-21 01:47:00,54.0,,-,80,N/A,30.15,60.1,,5:47 PM,10.0,Calm,Calm,0,Los Angeles,California,90001
36,Clear,2016-01-21 02:47:00,55.0,,-,90,N/A,30.16,57.9,,6:47 PM,10.0,Calm,Calm,0,Los Angeles,California,90001
37,Clear,2016-01-21 03:47:00,55.0,,-,90,N/A,30.17,57.9,,7:47 PM,10.0,Calm,Calm,0,Los Angeles,California,90001
38,Clear,2016-01-21 04:47:00,55.0,,-,93,N/A,30.18,57.0,,8:47 PM,10.0,Calm,Calm,0,Los Angeles,California,90001
39,Clear,2016-01-21 05:47:00,54.0,,-,93,N/A,30.19,55.9,,9:47 PM,10.0,Calm,Calm,0,Los Angeles,California,90001
40,Partly Cloudy,2016-01-21 05:52:00,54.0,,-,93,N/A,30.19,55.9,,9:52 PM,10.0,Calm,Calm,0,Los Angeles,California,90001
41,Mostly Cloudy,2016-01-21 06:02:00,54.0,,-,93,N/A,30.19,55.9,,10:02 PM,5.0,Calm,Calm,0,Los Angeles,California,90001
42,Mostly Cloudy,2016-01-21 06:07:00,55.0,,-,97,N/A,30.19,55.9,,10:07 PM,1.8,Calm,Calm,0,Los Angeles,California,90001
43,Mist,2016-01-21 06:13:00,55.0,,-,97,N/A,30.19,55.9,,10:13 PM,0.8,Calm,Calm,0,Los Angeles,California,90001
44,Fog,2016-01-21 06:47:00,55.0,Fog,-,100,N/A,30.19,55.0,,10:47 PM,0.2,Calm,Calm,0,Los Angeles,California,90001
45,Fog,2016-01-21 07:47:00,55.0,Fog,-,100,N/A,30.17,55.0,,11:47 PM,0.2,Calm,Calm,0,Los Angeles,California,90001
0,Fog,2016-01-21 08:47:00,54.0,Fog,-,96,N/A,30.17,55.0,,12:47 AM,0.2,Calm,Calm,0,Los Angeles,California,90001
1,Fog,2016-01-21 09:47:00,54.0,Fog,-,100,N/A,30.17,54.0,,1:47 AM,0.2,Calm,Calm,0,Los Angeles,California,90001
2,Mist,2016-01-21 10:15:00,53.1,,-,100,N/A,30.17,53.1,,2:15 AM,1.0,Calm,Calm,0,Los Angeles,California,90001
3,Fog,2016-01-21 10:40:00,53.1,Fog,-,100,N/A,30.17,53.1,,2:40 AM,0.5,Calm,Calm,0,Los Angeles,California,90001
4,Fog,2016-01-21 10:47:00,53.1,Fog,-,100,N/A,30.17,53.1,,2:47 AM,0.2,Calm,Calm,0,Los Angeles,California,90001
5,Fog,2016-01-21 11:47:00,52.0,Fog,-,100,N/A,30.17,52.0,,3:47 AM,0.5,Calm,Calm,0,Los Angeles,California,90001
6,Overcast,2016-01-21 12:43:00,50.0,,-,96,N/A,30.17,51.1,,4:43 AM,1.2,Calm,Calm,0,Los Angeles,California,90001
7,Mostly Cloudy,2016-01-21 12:47:00,50.0,,-,96,N/A,30.17,51.1,,4:47 AM,2.0,Calm,Calm,0,Los Angeles,California,90001
8,Mostly Cloudy,2016-01-21 12:57:00,50.0,,-,96,N/A,30.16,51.1,,4:57 AM,1.8,Calm,Calm,0,Los Angeles,California,90001
9,Mostly Cloudy,2016-01-21 13:04:00,50.0,,-,96,N/A,30.16,51.1,,5:04 AM,2.5,Calm,Calm,0,Los Angeles,California,90001
10,Mostly Cloudy,2016-01-21 13:07:00,50.0,,-,96,N/A,30.16,51.1,,5:07 AM,3.0,Calm,Calm,0,Los Angeles,California,90001
11,Mostly Cloudy,2016-01-21 13:10:00,50.0,,-,96,N/A,30.16,51.1,,5:10 AM,1.8,Calm,Calm,0,Los Angeles,California,90001
12,Mist,2016-01-21 13:17:00,50.0,,-,96,N/A,30.17,51.1,,5:17 AM,0.8,Calm,Calm,0,Los Angeles,California,90001
13,Mist,2016-01-21 13:21:00,50.0,,-,96,N/A,30.16,51.1,,5:21 AM,1.0,Calm,Calm,0,Los Angeles,California,90001
14,Mostly Cloudy,2016-01-21 13:26:00,50.0,,-,100,N/A,30.16,50.0,,5:26 AM,3.0,Calm,Calm,0,Los Angeles,California,90001
15,Scattered Clouds,2016-01-21 13:31:00,50.0,,-,100,N/A,30.16,50.0,,5:31 AM,5.0,Calm,Calm,0,Los Angeles,California,90001
16,Clear,2016-01-21 13:47:00,48.9,,-,96,N/A,30.16,50.0,,5:47 AM,9.0,Calm,Calm,0,Los Angeles,California,90001
17,Clear,2016-01-21 14:47:00,45.0,,-,77,N/A,30.17,52.0,,6:47 AM,10.0,NNE,3.5,30,Los Angeles,California,90001
18,Clear,2016-01-21 15:47:00,43.0,,-,66,N/A,30.18,54.0,,7:47 AM,10.0,Calm,Calm,0,Los Angeles,California,90001
19,Clear,2016-01-21 16:47:00,43.0,,-,58,N/A,30.19,57.9,,8:47 AM,10.0,Calm,Calm,0,Los Angeles,California,90001
20,Clear,2016-01-21 17:47:00,43.0,,-,46,N/A,30.19,64.0,,9:47 AM,10.0,Calm,Calm,0,Los Angeles,California,90001
21,Clear,2016-01-21 18:47:00,33.1,,-,25,N/A,30.18,71.1,,10:47 AM,10.0,Variable,6.9,0,Los Angeles,California,90001
22,Clear,2016-01-21 19:47:00,34.0,,-,23,N/A,30.16,73.9,,11:47 AM,10.0,Variable,3.5,0,Los Angeles,California,90001
23,Clear,2016-01-21 20:47:00,36.0,,-,23,N/A,30.13,77.0,,12:47 PM,10.0,East,4.6,80,Los Angeles,California,90001
24,Clear,2016-01-21 21:47:00,33.1,,-,20,N/A,30.11,77.0,,1:47 PM,10.0,Variable,4.6,0,Los Angeles,California,90001
25,Clear,2016-01-21 22:47:00,35.1,,-,23,N/A,30.10,75.9,,2:47 PM,10.0,Calm,Calm,0,Los Angeles,California,90001
26,Clear,2016-01-21 23:47:00,48.0,,-,47,N/A,30.12,69.1,,3:47 PM,10.0,Variable,3.5,0,Los Angeles,California,90001
27,Clear,2016-01-22 00:47:00,48.9,,-,56,N/A,30.14,64.9,,4:47 PM,10.0,West,3.5,280,Los Angeles,California,90001
28,Clear,2016-01-22 01:47:00,48.0,,-,56,N/A,30.13,64.0,,5:47 PM,10.0,Calm,Calm,0,Los Angeles,California,90001
29,Clear,2016-01-22 02:47:00,45.0,,-,52,N/A,30.12,63.0,,6:47 PM,10.0,Calm,Calm,0,Los Angeles,California,90001
30,Clear,2016-01-22 03:47:00,45.0,,-,53,N/A,30.14,62.1,,7:47 PM,10.0,Calm,Calm,0,Los Angeles,California,90001
31,Clear,2016-01-22 04:47:00,50.0,,-,69,N/A,30.14,60.1,,8:47 PM,10.0,Calm,Calm,0,Los Angeles,California,90001
32,Clear,2016-01-22 05:47:00,51.1,,-,78,N/A,30.15,57.9,,9:47 PM,10.0,Calm,Calm,0,Los Angeles,California,90001
33,Partly Cloudy,2016-01-22 06:41:00,52.0,,-,87,N/A,30.17,55.9,,10:41 PM,8.0,Calm,Calm,0,Los Angeles,California,90001
34,Scattered Clouds,2016-01-22 06:47:00,54.0,,-,93,N/A,30.17,55.9,,10:47 PM,6.0,Calm,Calm,0,Los Angeles,California,90001
35,Mostly Cloudy,2016-01-22 06:50:00,54.0,,-,93,N/A,30.17,55.9,,10:50 PM,4.0,Calm,Calm,0,Los Angeles,California,90001
36,Scattered Clouds,2016-01-22 06:55:00,55.0,,-,97,N/A,30.17,55.9,,10:55 PM,3.0,Calm,Calm,0,Los Angeles,California,90001
37,Clear,2016-01-22 07:47:00,53.1,,-,90,N/A,30.16,55.9,,11:47 PM,3.0,Calm,Calm,0,Los Angeles,California,90001
0,Partly Cloudy,2016-01-22 08:07:00,53.1,,-,93,N/A,30.18,55.0,,12:07 AM,4.0,Calm,Calm,0,Los Angeles,California,90001
1,Mostly Cloudy,2016-01-22 08:15:00,53.1,,-,93,N/A,30.17,55.0,,12:15 AM,3.0,Calm,Calm,0,Los Angeles,California,90001
2,Scattered Clouds,2016-01-22 08:19:00,53.1,,-,93,N/A,30.17,55.0,,12:19 AM,4.0,Calm,Calm,0,Los Angeles,California,90001
3,Scattered Clouds,2016-01-22 08:47:00,53.1,,-,93,N/A,30.14,55.0,,12:47 AM,3.0,Calm,Calm,0,Los Angeles,California,90001
4,Mostly Cloudy,2016-01-22 08:52:00,53.1,,-,93,N/A,30.15,55.0,,12:52 AM,3.0,Calm,Calm,0,Los Angeles,California,90001
5,Scattered Clouds,2016-01-22 09:12:00,53.1,,-,97,N/A,30.15,54.0,,1:12 AM,4.0,Calm,Calm,0,Los Angeles,California,90001
6,Clear,2016-01-22 09:47:00,52.0,,-,93,N/A,30.14,54.0,,1:47 AM,3.0,Calm,Calm,0,Los Angeles,California,90001
7,Clear,2016-01-22 10:47:00,51.1,,-,93,N/A,30.14,53.1,,2:47 AM,5.0,Calm,Calm,0,Los Angeles,California,90001
8,Clear,2016-01-22 11:47:00,50.0,,-,96,N/A,30.13,51.1,,3:47 AM,5.0,Calm,Calm,0,Los Angeles,California,90001
9,Partly Cloudy,2016-01-22 11:51:00,50.0,,-,96,N/A,30.13,51.1,,3:51 AM,5.0,Calm,Calm,0,Los Angeles,California,90001
10,Clear,2016-01-22 12:47:00,48.0,,-,89,N/A,30.11,51.1,,4:47 AM,10.0,Calm,Calm,0,Los Angeles,California,90001
11,Clear,2016-01-22 13:47:00,46.0,,-,86,N/A,30.13,50.0,,5:47 AM,10.0,Calm,Calm,0,Los Angeles,California,90001
12,Clear,2016-01-22 14:47:00,42.1,,-,71,N/A,30.14,51.1,,6:47 AM,10.0,Calm,Calm,0,Los Angeles,California,90001
13,Clear,2016-01-22 15:47:00,42.1,,-,66,N/A,30.14,53.1,,7:47 AM,10.0,Calm,Calm,0,Los Angeles,California,90001
14,Clear,2016-01-22 16:47:00,42.1,,-,57,N/A,30.14,57.0,,8:47 AM,10.0,Calm,Calm,0,Los Angeles,California,90001
15,Clear,2016-01-22 17:47:00,46.0,,-,60,N/A,30.16,60.1,,9:47 AM,10.0,Calm,Calm,0,Los Angeles,California,90001
16,Clear,2016-01-22 18:47:00,39.9,,-,40,N/A,30.13,64.9,,10:47 AM,10.0,Calm,Calm,0,Los Angeles,California,90001
17,Clear,2016-01-22 19:47:00,36.0,,-,30,N/A,30.11,69.1,,11:47 AM,10.0,Calm,Calm,0,Los Angeles,California,90001
18,Clear,2016-01-22 20:47:00,34.0,,-,27,N/A,30.07,70.0,,12:47 PM,10.0,Calm,Calm,0,Los Angeles,California,90001
19,Clear,2016-01-22 21:47:00,46.9,,-,47,N/A,30.05,68.0,,1:47 PM,10.0,Variable,4.6,0,Los Angeles,California,90001
20,Clear,2016-01-22 22:47:00,50.0,,-,56,N/A,30.05,66.0,,2:47 PM,10.0,West,3.5,280,Los Angeles,California,90001
21,Clear,2016-01-22 23:47:00,48.9,,-,54,N/A,30.02,66.0,,3:47 PM,10.0,SSE,4.6,160,Los Angeles,California,90001
22,Clear,2016-01-23 00:47:00,48.0,,-,56,N/A,30.04,64.0,,4:47 PM,10.0,Variable,3.5,0,Los Angeles,California,90001
23,Clear,2016-01-23 01:47:00,48.0,,-,62,N/A,30.04,61.0,,5:47 PM,10.0,Calm,Calm,0,Los Angeles,California,90001
24,Clear,2016-01-23 02:47:00,45.0,,-,57,N/A,30.05,60.1,,6:47 PM,10.0,Calm,Calm,0,Los Angeles,California,90001
25,Clear,2016-01-23 03:47:00,48.0,,-,67,N/A,30.07,59.0,,7:47 PM,10.0,West,3.5,280,Los Angeles,California,90001
26,Clear,2016-01-23 04:47:00,53.1,,-,84,N/A,30.08,57.9,,8:47 PM,10.0,Variable,3.5,0,Los Angeles,California,90001
27,Clear,2016-01-23 05:47:00,54.0,,-,89,N/A,30.07,57.0,,9:47 PM,9.0,Calm,Calm,0,Los Angeles,California,90001
28,Clear,2016-01-23 06:47:00,53.1,,-,87,N/A,30.07,57.0,,10:47 PM,9.0,Calm,Calm,0,Los Angeles,California,90001
29,Clear,2016-01-23 07:47:00,53.1,,-,87,N/A,30.06,57.0,,11:47 PM,10.0,Calm,Calm,0,Los Angeles,California,90001
0,Clear,2016-01-23 08:47:00,53.1,,-,87,N/A,30.04,57.0,,12:47 AM,9.0,East,3.5,90,Los Angeles,California,90001
1,Clear,2016-01-23 09:47:00,53.1,,-,87,N/A,30.04,57.0,,1:47 AM,8.0,Calm,Calm,0,Los Angeles,California,90001
2,Clear,2016-01-23 10:47:00,53.1,,-,90,N/A,30.03,55.9,,2:47 AM,7.0,Calm,Calm,0,Los Angeles,California,90001
3,Clear,2016-01-23 11:47:00,51.1,,-,84,N/A,30.02,55.9,,3:47 AM,8.0,East,3.5,90,Los Angeles,California,90001
4,Clear,2016-01-23 12:47:00,51.1,,-,90,N/A,30.02,54.0,,4:47 AM,6.0,Calm,Calm,0,Los Angeles,California,90001
5,Partly Cloudy,2016-01-23 13:09:00,52.0,,-,89,N/A,30.02,55.0,,5:09 AM,5.0,Calm,Calm,0,Los Angeles,California,90001
6,Mostly Cloudy,2016-01-23 13:18:00,53.1,,-,93,N/A,30.03,55.0,,5:18 AM,5.0,Calm,Calm,0,Los Angeles,California,90001
7,Mostly Cloudy,2016-01-23 13:47:00,52.0,,-,89,N/A,30.03,55.0,,5:47 AM,5.0,Calm,Calm,0,Los Angeles,California,90001
8,Overcast,2016-01-23 14:47:00,52.0,,-,87,N/A,30.04,55.9,,6:47 AM,6.0,Calm,Calm,0,Los Angeles,California,90001
9,Scattered Clouds,2016-01-23 15:42:00,48.9,,-,80,N/A,30.05,55.0,,7:42 AM,8.0,Calm,Calm,0,Los Angeles,California,90001
10,Scattered Clouds,2016-01-23 15:47:00,50.0,,-,80,N/A,30.06,55.9,,7:47 AM,7.0,Calm,Calm,0,Los Angeles,California,90001
11,Scattered Clouds,2016-01-23 16:47:00,46.0,,-,67,N/A,30.06,57.0,,8:47 AM,10.0,East,3.5,100,Los Angeles,California,90001
12,Scattered Clouds,2016-01-23 17:47:00,46.0,,-,62,N/A,30.07,59.0,,9:47 AM,10.0,Calm,Calm,0,Los Angeles,California,90001
13,Haze,2016-01-23 18:47:00,52.0,,-,75,N/A,30.07,60.1,,10:47 AM,5.0,Calm,Calm,0,Los Angeles,California,90001
14,Mostly Cloudy,2016-01-23 19:47:00,51.1,,-,65,N/A,30.04,63.0,,11:47 AM,7.0,Calm,Calm,0,Los Angeles,California,90001
15,Haze,2016-01-23 20:47:00,53.1,,-,70,N/A,30.01,63.0,,12:47 PM,6.0,Calm,Calm,0,Los Angeles,California,90001
16,Overcast,2016-01-23 20:55:00,53.1,,-,67,N/A,30.01,64.0,,12:55 PM,8.0,Variable,4.6,0,Los Angeles,California,90001
17,Scattered Clouds,2016-01-23 21:42:00,55.0,,-,78,N/A,29.99,62.1,,1:42 PM,10.0,Calm,Calm,0,Los Angeles,California,90001
18,Scattered Clouds,2016-01-23 21:47:00,55.0,,-,78,N/A,29.99,62.1,,1:47 PM,10.0,Calm,Calm,0,Los Angeles,California,90001
19,Scattered Clouds,2016-01-23 22:47:00,55.0,,-,75,N/A,29.97,63.0,,2:47 PM,10.0,South,3.5,170,Los Angeles,California,90001
20,Mostly Cloudy,2016-01-23 23:04:00,54.0,,-,72,N/A,29.97,63.0,,3:04 PM,10.0,Calm,Calm,0,Los Angeles,California,90001
21,Overcast,2016-01-23 23:47:00,54.0,,-,75,N/A,29.97,62.1,,3:47 PM,10.0,Calm,Calm,0,Los Angeles,California,90001
22,Scattered Clouds,2016-01-24 00:47:00,50.0,,-,69,N/A,29.98,60.1,,4:47 PM,10.0,Variable,5.8,0,Los Angeles,California,90001
23,Clear,2016-01-24 01:47:00,51.1,,-,78,N/A,29.99,57.9,,5:47 PM,10.0,Calm,Calm,0,Los Angeles,California,90001
24,Clear,2016-01-24 02:47:00,51.1,,-,81,N/A,29.99,57.0,,6:47 PM,10.0,Calm,Calm,0,Los Angeles,California,90001
25,Clear,2016-01-24 03:47:00,51.1,,-,84,N/A,29.99,55.9,,7:47 PM,10.0,Calm,Calm,0,Los Angeles,California,90001
26,Clear,2016-01-24 04:47:00,46.0,,-,69,N/A,30.00,55.9,,8:47 PM,10.0,Calm,Calm,0,Los Angeles,California,90001
27,Clear,2016-01-24 05:47:00,35.1,,-,41,N/A,30.00,59.0,,9:47 PM,10.0,Variable,3.5,0,Los Angeles,California,90001
28,Clear,2016-01-24 06:47:00,34.0,,-,42,N/A,30.00,57.0,,10:47 PM,10.0,Calm,Calm,0,Los Angeles,California,90001
29,Clear,2016-01-24 07:47:00,34.0,,-,39,N/A,30.00,59.0,,11:47 PM,10.0,North,6.9,350,Los Angeles,California,90001
0,Clear,2016-01-24 08:47:00,36.0,,-,45,N/A,30.01,57.0,,12:47 AM,10.0,Calm,Calm,0,Los Angeles,California,90001
1,Clear,2016-01-24 09:47:00,36.0,,-,51,N/A,30.01,54.0,,1:47 AM,10.0,Calm,Calm,0,Los Angeles,California,90001
2,Clear,2016-01-24 10:47:00,44.1,,-,69,N/A,30.02,54.0,,2:47 AM,10.0,Calm,Calm,0,Los Angeles,California,90001
3,Clear,2016-01-24 11:47:00,46.0,,-,77,N/A,30.03,53.1,,3:47 AM,10.0,Variable,3.5,0,Los Angeles,California,90001
4,Clear,2016-01-24 12:47:00,46.0,,-,90,N/A,30.04,48.9,,4:47 AM,10.0,Calm,Calm,0,Los Angeles,California,90001
5,Clear,2016-01-24 13:47:00,45.0,,-,89,N/A,30.06,48.0,,5:47 AM,10.0,Calm,Calm,0,Los Angeles,California,90001
6,Clear,2016-01-24 14:47:00,44.1,,-,90,N/A,30.08,46.9,,6:47 AM,10.0,Calm,Calm,0,Los Angeles,California,90001
7,Clear,2016-01-24 15:47:00,44.1,,-,80,N/A,30.11,50.0,,7:47 AM,10.0,Calm,Calm,0,Los Angeles,California,90001
8,Clear,2016-01-24 16:47:00,44.1,,-,64,N/A,30.11,55.9,,8:47 AM,10.0,NE,3.5,40,Los Angeles,California,90001
9,Clear,2016-01-24 17:47:00,46.9,,-,67,N/A,30.12,57.9,,9:47 AM,10.0,Variable,3.5,0,Los Angeles,California,90001
10,Clear,2016-01-24 18:47:00,48.0,,-,62,N/A,30.13,61.0,,10:47 AM,10.0,Variable,3.5,0,Los Angeles,California,90001
11,Mostly Cloudy,2016-01-24 19:31:00,48.0,,-,58,N/A,30.12,63.0,,11:31 AM,10.0,Calm,Calm,0,Los Angeles,California,90001
12,Scattered Clouds,2016-01-24 19:42:00,46.9,,-,58,N/A,30.11,62.1,,11:42 AM,10.0,East,6.9,90,Los Angeles,California,90001
13,Scattered Clouds,2016-01-24 19:47:00,46.0,,-,54,N/A,30.11,63.0,,11:47 AM,10.0,SE,3.5,140,Los Angeles,California,90001
14,Clear,2016-01-24 20:47:00,45.0,,-,50,N/A,30.07,64.0,,12:47 PM,10.0,ESE,6.9,110,Los Angeles,California,90001
15,Clear,2016-01-24 21:47:00,45.0,,-,50,N/A,30.04,64.0,,1:47 PM,10.0,Calm,Calm,0,Los Angeles,California,90001
16,Clear,2016-01-24 22:47:00,45.0,,-,48,N/A,30.03,64.9,,2:47 PM,10.0,Calm,Calm,0,Los Angeles,California,90001
17,Clear,2016-01-24 23:47:00,46.9,,-,56,N/A,30.04,63.0,,3:47 PM,10.0,North,-9999.0,0,Los Angeles,California,90001
18,Clear,2016-01-25 00:47:00,43.0,,-,53,N/A,30.04,60.1,,4:47 PM,10.0,Calm,Calm,0,Los Angeles,California,90001
19,Clear,2016-01-25 01:47:00,43.0,,-,58,N/A,30.06,57.9,,5:47 PM,10.0,Calm,Calm,0,Los Angeles,California,90001
20,Clear,2016-01-25 02:47:00,39.9,,-,51,N/A,30.05,57.9,,6:47 PM,10.0,Calm,Calm,0,Los Angeles,California,90001
21,Clear,2016-01-25 03:47:00,41.0,,-,53,N/A,30.06,57.9,,7:47 PM,10.0,Calm,Calm,0,Los Angeles,California,90001
22,Clear,2016-01-25 04:47:00,39.9,,-,51,N/A,30.07,57.9,,8:47 PM,10.0,Calm,Calm,0,Los Angeles,California,90001
23,Clear,2016-01-25 05:47:00,37.9,,-,53,N/A,30.06,55.0,,9:47 PM,10.0,Calm,Calm,0,Los Angeles,California,90001
24,Clear,2016-01-25 06:47:00,37.9,,-,57,N/A,30.07,53.1,,10:47 PM,10.0,Calm,Calm,0,Los Angeles,California,90001
25,Clear,2016-01-25 07:47:00,37.9,,-,59,N/A,30.08,52.0,,11:47 PM,10.0,Calm,Calm,0,Los Angeles,California,90001
0,Clear,2016-01-25 08:47:00,35.1,,-,49,N/A,30.07,54.0,,12:47 AM,10.0,Calm,Calm,0,Los Angeles,California,90001
1,Clear,2016-01-25 09:47:00,39.0,,-,59,N/A,30.07,53.1,,1:47 AM,10.0,Calm,Calm,0,Los Angeles,California,90001
2,Clear,2016-01-25 10:47:00,41.0,,-,62,N/A,30.08,54.0,,2:47 AM,10.0,Calm,Calm,0,Los Angeles,California,90001
3,Clear,2016-01-25 11:47:00,42.1,,-,69,N/A,30.06,52.0,,3:47 AM,10.0,Calm,Calm,0,Los Angeles,California,90001
4,Clear,2016-01-25 12:47:00,42.1,,-,71,N/A,30.06,51.1,,4:47 AM,10.0,Calm,Calm,0,Los Angeles,California,90001
5,Clear,2016-01-25 13:47:00,41.0,,-,66,N/A,30.08,52.0,,5:47 AM,10.0,Calm,Calm,0,Los Angeles,California,90001
6,Clear,2016-01-25 14:47:00,39.0,,-,63,N/A,30.09,51.1,,6:47 AM,10.0,Calm,Calm,0,Los Angeles,California,90001
7,Clear,2016-01-25 15:47:00,41.0,,-,66,N/A,30.11,52.0,,7:47 AM,10.0,Calm,Calm,0,Los Angeles,California,90001
8,Clear,2016-01-25 16:47:00,39.9,,-,51,N/A,30.12,57.9,,8:47 AM,10.0,Calm,Calm,0,Los Angeles,California,90001
9,Clear,2016-01-25 17:47:00,37.0,,-,38,N/A,30.13,63.0,,9:47 AM,10.0,Calm,Calm,0,Los Angeles,California,90001
10,Clear,2016-01-25 18:47:00,39.9,,-,38,N/A,30.12,66.0,,10:47 AM,10.0,Calm,Calm,0,Los Angeles,California,90001
11,Clear,2016-01-25 19:47:00,39.9,,-,35,N/A,30.09,69.1,,11:47 AM,10.0,Calm,Calm,0,Los Angeles,California,90001
12,Clear,2016-01-25 20:47:00,36.0,,-,30,N/A,30.06,69.1,,12:47 PM,10.0,Calm,Calm,0,Los Angeles,California,90001
13,Clear,2016-01-25 21:47:00,34.0,,-,26,N/A,30.05,71.1,,1:47 PM,10.0,Variable,3.5,0,Los Angeles,California,90001
14,Clear,2016-01-25 22:47:00,37.9,,-,33,N/A,30.04,68.0,,2:47 PM,10.0,WNW,5.8,290,Los Angeles,California,90001
15,Clear,2016-01-25 23:47:00,37.9,,-,34,N/A,30.04,66.9,,3:47 PM,10.0,Variable,3.5,0,Los Angeles,California,90001
16,Clear,2016-01-26 00:47:00,37.9,,-,37,N/A,30.05,64.9,,4:47 PM,10.0,Variable,3.5,0,Los Angeles,California,90001
17,Clear,2016-01-26 01:47:00,42.1,,-,48,N/A,30.05,62.1,,5:47 PM,10.0,Calm,Calm,0,Los Angeles,California,90001
18,Clear,2016-01-26 02:47:00,43.0,,-,55,N/A,30.07,59.0,,6:47 PM,10.0,Calm,Calm,0,Los Angeles,California,90001
19,Clear,2016-01-26 03:47:00,44.1,,-,60,N/A,30.09,57.9,,7:47 PM,10.0,Calm,Calm,0,Los Angeles,California,90001
20,Clear,2016-01-26 04:47:00,39.0,,-,46,N/A,30.12,60.1,,8:47 PM,10.0,Calm,Calm,0,Los Angeles,California,90001
21,Clear,2016-01-26 05:47:00,39.0,,-,49,N/A,30.13,57.9,,9:47 PM,10.0,Calm,Calm,0,Los Angeles,California,90001
22,Clear,2016-01-26 06:47:00,37.9,,-,53,N/A,30.14,55.0,,10:47 PM,10.0,Calm,Calm,0,Los Angeles,California,90001
23,Clear,2016-01-26 07:47:00,36.0,,-,47,N/A,30.14,55.9,,11:47 PM,10.0,Calm,Calm,0,Los Angeles,California,90001
0,Clear,2016-01-26 08:47:00,36.0,,-,52,N/A,30.15,53.1,,12:47 AM,10.0,Calm,Calm,0,Los Angeles,California,90001
1,Clear,2016-01-26 09:47:00,35.1,,-,54,N/A,30.15,51.1,,1:47 AM,10.0,Calm,Calm,0,Los Angeles,California,90001
2,Clear,2016-01-26 10:47:00,36.0,,-,59,N/A,30.15,50.0,,2:47 AM,10.0,Calm,Calm,0,Los Angeles,California,90001
3,Clear,2016-01-26 11:47:00,33.1,,-,47,N/A,30.16,53.1,,3:47 AM,10.0,East,4.6,90,Los Angeles,California,90001
4,Clear,2016-01-26 12:47:00,34.0,,-,56,N/A,30.18,48.9,,4:47 AM,10.0,Calm,Calm,0,Los Angeles,California,90001
5,Clear,2016-01-26 13:47:00,35.1,,-,61,N/A,30.20,48.0,,5:47 AM,10.0,Calm,Calm,0,Los Angeles,California,90001
6,Clear,2016-01-26 14:47:00,35.1,,-,61,N/A,30.21,48.0,,6:47 AM,10.0,Calm,Calm,0,Los Angeles,California,90001
7,Clear,2016-01-26 15:47:00,36.0,,-,59,N/A,30.22,50.0,,7:47 AM,10.0,Calm,Calm,0,Los Angeles,California,90001
8,Clear,2016-01-26 16:47:00,36.0,,-,44,N/A,30.23,57.9,,8:47 AM,10.0,Calm,Calm,0,Los Angeles,California,90001
9,Clear,2016-01-26 17:47:00,35.1,,-,33,N/A,30.23,64.9,,9:47 AM,10.0,Calm,Calm,0,Los Angeles,California,90001
10,Clear,2016-01-26 18:47:00,32.0,,-,25,N/A,30.23,69.1,,10:47 AM,10.0,Calm,Calm,0,Los Angeles,California,90001
11,Clear,2016-01-26 19:47:00,30.0,,-,21,N/A,30.22,72.0,,11:47 AM,10.0,Variable,3.5,0,Los Angeles,California,90001
12,Clear,2016-01-26 20:47:00,33.1,,-,24,N/A,30.20,72.0,,12:47 PM,10.0,Variable,4.6,0,Los Angeles,California,90001
13,Clear,2016-01-26 21:47:00,30.0,,-,22,N/A,30.19,71.1,,1:47 PM,10.0,Variable,3.5,0,Los Angeles,California,90001
14,Clear,2016-01-26 22:47:00,30.0,,-,23,N/A,30.19,69.1,,2:47 PM,10.0,North,-9999.0,0,Los Angeles,California,90001
15,Clear,2016-01-26 23:47:00,30.9,,-,26,N/A,30.19,66.9,,3:47 PM,10.0,West,3.5,280,Los Angeles,California,90001
16,Clear,2016-01-27 00:47:00,32.0,,-,29,N/A,30.19,64.9,,4:47 PM,10.0,West,8.1,280,Los Angeles,California,90001
17,Clear,2016-01-27 01:47:00,33.1,,-,33,N/A,30.20,63.0,,5:47 PM,10.0,Calm,Calm,0,Los Angeles,California,90001
18,Clear,2016-01-27 02:47:00,35.1,,-,39,N/A,30.21,60.1,,6:47 PM,10.0,Calm,Calm,0,Los Angeles,California,90001
19,Clear,2016-01-27 03:47:00,39.9,,-,51,N/A,30.22,57.9,,7:47 PM,10.0,Calm,Calm,0,Los Angeles,California,90001
20,Clear,2016-01-27 04:47:00,39.9,,-,55,N/A,30.22,55.9,,8:47 PM,10.0,Calm,Calm,0,Los Angeles,California,90001
21,Clear,2016-01-27 05:47:00,34.0,,-,41,N/A,30.22,57.9,,9:47 PM,10.0,Calm,Calm,0,Los Angeles,California,90001
22,Clear,2016-01-27 06:47:00,35.1,,-,47,N/A,30.24,55.0,,10:47 PM,10.0,Calm,Calm,0,Los Angeles,California,90001
23,Clear,2016-01-27 07:47:00,28.9,,-,34,N/A,30.24,57.0,,11:47 PM,10.0,NNE,4.6,20,Los Angeles,California,90001
0,Clear,2016-01-27 08:47:00,26.1,,-,33,N/A,30.24,55.0,,12:47 AM,10.0,NE,4.6,40,Los Angeles,California,90001
1,Clear,2016-01-27 09:47:00,21.9,,-,27,N/A,30.25,55.9,,1:47 AM,10.0,NE,3.5,40,Los Angeles,California,90001
2,Clear,2016-01-27 10:47:00,21.9,,-,28,N/A,30.23,55.0,,2:47 AM,10.0,North,3.5,360,Los Angeles,California,90001
3,Clear,2016-01-27 11:47:00,21.9,,-,28,N/A,30.22,55.0,,3:47 AM,10.0,Calm,Calm,0,Los Angeles,California,90001
4,Clear,2016-01-27 12:47:00,23.0,,-,31,N/A,30.22,53.1,,4:47 AM,10.0,NNE,3.5,20,Los Angeles,California,90001
5,Clear,2016-01-27 13:47:00,23.0,,-,31,N/A,30.23,53.1,,5:47 AM,10.0,Calm,Calm,0,Los Angeles,California,90001
6,Clear,2016-01-27 14:47:00,21.9,,-,29,N/A,30.25,54.0,,6:47 AM,10.0,Calm,Calm,0,Los Angeles,California,90001
7,Clear,2016-01-27 15:47:00,21.0,,-,27,N/A,30.27,55.0,,7:47 AM,10.0,Calm,Calm,0,Los Angeles,California,90001
8,Clear,2016-01-27 16:47:00,21.9,,-,24,N/A,30.27,59.0,,8:47 AM,10.0,Calm,Calm,0,Los Angeles,California,90001
9,Clear,2016-01-27 17:47:00,23.0,,-,21,N/A,30.28,64.0,,9:47 AM,10.0,North,4.6,10,Los Angeles,California,90001
10,Clear,2016-01-27 18:47:00,19.9,,-,17,N/A,30.28,66.9,,10:47 AM,10.0,Variable,4.6,0,Los Angeles,California,90001
11,Clear,2016-01-27 19:47:00,24.1,,-,19,N/A,30.25,68.0,,11:47 AM,10.0,Calm,Calm,0,Los Angeles,California,90001
12,Clear,2016-01-27 20:47:00,19.0,,-,15,N/A,30.22,68.0,,12:47 PM,10.0,North,4.6,360,Los Angeles,California,90001
13,Clear,2016-01-27 21:47:00,18.0,,-,13,N/A,30.19,72.0,,1:47 PM,10.0,Variable,3.5,0,Los Angeles,California,90001
14,Clear,2016-01-27 22:47:00,18.0,,-,13,N/A,30.17,72.0,,2:47 PM,10.0,East,3.5,100,Los Angeles,California,90001
15,Clear,2016-01-27 23:47:00,19.0,,-,14,N/A,30.18,71.1,,3:47 PM,10.0,Calm,Calm,0,Los Angeles,California,90001
16,Clear,2016-01-28 00:47:00,33.1,,-,27,N/A,30.18,68.0,,4:47 PM,10.0,Variable,3.5,0,Los Angeles,California,90001
17,Clear,2016-01-28 01:47:00,32.0,,-,31,N/A,30.19,63.0,,5:47 PM,10.0,Calm,Calm,0,Los Angeles,California,90001
18,Clear,2016-01-28 02:47:00,33.1,,-,36,N/A,30.19,60.1,,6:47 PM,10.0,Calm,Calm,0,Los Angeles,California,90001
19,Clear,2016-01-28 03:47:00,33.1,,-,39,N/A,30.20,57.9,,7:47 PM,10.0,Calm,Calm,0,Los Angeles,California,90001
20,Clear,2016-01-28 04:47:00,34.0,,-,41,N/A,30.21,57.9,,8:47 PM,10.0,Calm,Calm,0,Los Angeles,California,90001
21,Clear,2016-01-28 05:47:00,32.0,,-,37,N/A,30.21,57.9,,9:47 PM,10.0,Calm,Calm,0,Los Angeles,California,90001
22,Clear,2016-01-28 06:47:00,28.9,,-,33,N/A,30.22,57.9,,10:47 PM,10.0,Calm,Calm,0,Los Angeles,California,90001
23,Clear,2016-01-28 07:47:00,30.9,,-,37,N/A,30.21,57.0,,11:47 PM,10.0,Calm,Calm,0,Los Angeles,California,90001
0,Clear,2016-01-28 08:47:00,26.1,,-,30,N/A,30.19,57.0,,12:47 AM,10.0,Calm,Calm,0,Los Angeles,California,90001
1,Clear,2016-01-28 09:47:00,28.0,,-,37,N/A,30.20,54.0,,1:47 AM,10.0,Calm,Calm,0,Los Angeles,California,90001
2,Clear,2016-01-28 10:47:00,28.0,,-,37,N/A,30.19,54.0,,2:47 AM,10.0,Calm,Calm,0,Los Angeles,California,90001
3,Clear,2016-01-28 11:47:00,28.0,,-,37,N/A,30.18,54.0,,3:47 AM,10.0,NE,3.5,40,Los Angeles,California,90001
4,Clear,2016-01-28 12:47:00,28.9,,-,43,N/A,30.18,51.1,,4:47 AM,10.0,Calm,Calm,0,Los Angeles,California,90001
5,Clear,2016-01-28 13:47:00,27.0,,-,37,N/A,30.17,53.1,,5:47 AM,10.0,Calm,Calm,0,Los Angeles,California,90001
6,Clear,2016-01-28 14:47:00,27.0,,-,38,N/A,30.19,52.0,,6:47 AM,10.0,Calm,Calm,0,Los Angeles,California,90001
7,Clear,2016-01-28 15:47:00,30.0,,-,41,N/A,30.19,53.1,,7:47 AM,10.0,Calm,Calm,0,Los Angeles,California,90001
8,Clear,2016-01-28 16:47:00,26.1,,-,27,N/A,30.20,60.1,,8:47 AM,10.0,Calm,Calm,0,Los Angeles,California,90001
9,Clear,2016-01-28 17:47:00,24.1,,-,21,N/A,30.18,64.9,,9:47 AM,10.0,Variable,3.5,0,Los Angeles,California,90001
10,Clear,2016-01-28 18:47:00,23.0,,-,18,N/A,30.15,69.1,,10:47 AM,10.0,Calm,Calm,0,Los Angeles,California,90001
11,Clear,2016-01-28 19:47:00,26.1,,-,18,N/A,30.14,72.0,,11:47 AM,10.0,Calm,Calm,0,Los Angeles,California,90001
12,Clear,2016-01-28 20:47:00,21.9,,-,14,N/A,30.09,73.9,,12:47 PM,10.0,Calm,Calm,0,Los Angeles,California,90001
13,Clear,2016-01-28 21:47:00,28.9,,-,20,N/A,30.06,73.0,,1:47 PM,10.0,Calm,Calm,0,Los Angeles,California,90001
14,Clear,2016-01-28 22:47:00,37.0,,-,28,N/A,30.07,72.0,,2:47 PM,10.0,Variable,3.5,0,Los Angeles,California,90001
15,Clear,2016-01-28 23:47:00,34.0,,-,30,N/A,30.07,66.0,,3:47 PM,10.0,West,6.9,270,Los Angeles,California,90001
16,Clear,2016-01-29 00:47:00,39.9,,-,40,N/A,30.09,64.9,,4:47 PM,10.0,Calm,Calm,0,Los Angeles,California,90001
17,Clear,2016-01-29 01:47:00,44.1,,-,52,N/A,30.09,62.1,,5:47 PM,10.0,Calm,Calm,0,Los Angeles,California,90001
18,Clear,2016-01-29 02:47:00,48.0,,-,64,N/A,30.10,60.1,,6:47 PM,10.0,Calm,Calm,0,Los Angeles,California,90001
19,Clear,2016-01-29 03:47:00,48.9,,-,69,N/A,30.09,59.0,,7:47 PM,10.0,Calm,Calm,0,Los Angeles,California,90001
20,Clear,2016-01-29 04:47:00,48.9,,-,74,N/A,30.10,57.0,,8:47 PM,10.0,Calm,Calm,0,Los Angeles,California,90001
21,Clear,2016-01-29 05:47:00,48.9,,-,77,N/A,30.10,55.9,,9:47 PM,10.0,Calm,Calm,0,Los Angeles,California,90001
22,Clear,2016-01-29 06:47:00,48.9,,-,80,N/A,30.10,55.0,,10:47 PM,10.0,Calm,Calm,0,Los Angeles,California,90001
23,Clear,2016-01-29 07:47:00,48.9,,-,80,N/A,30.10,55.0,,11:47 PM,10.0,Calm,Calm,0,Los Angeles,California,90001
0,Clear,2016-01-29 08:47:00,48.9,,-,80,N/A,30.07,55.0,,12:47 AM,10.0,Calm,Calm,0,Los Angeles,California,90001
1,Clear,2016-01-29 09:47:00,42.1,,-,60,N/A,30.08,55.9,,1:47 AM,10.0,Calm,Calm,0,Los Angeles,California,90001
2,Clear,2016-01-29 10:47:00,44.1,,-,71,N/A,30.09,53.1,,2:47 AM,10.0,Calm,Calm,0,Los Angeles,California,90001
3,Clear,2016-01-29 11:47:00,44.1,,-,74,N/A,30.07,52.0,,3:47 AM,10.0,Calm,Calm,0,Los Angeles,California,90001
4,Clear,2016-01-29 12:47:00,44.1,,-,77,N/A,30.07,51.1,,4:47 AM,10.0,Calm,Calm,0,Los Angeles,California,90001
5,Clear,2016-01-29 13:47:00,44.1,,-,77,N/A,30.07,51.1,,5:47 AM,10.0,Calm,Calm,0,Los Angeles,California,90001
6,Clear,2016-01-29 14:47:00,43.0,,-,74,N/A,30.09,51.1,,6:47 AM,10.0,Calm,Calm,0,Los Angeles,California,90001
7,Clear,2016-01-29 15:47:00,44.1,,-,74,N/A,30.09,52.0,,7:47 AM,10.0,Calm,Calm,0,Los Angeles,California,90001
8,Clear,2016-01-29 16:47:00,45.0,,-,60,N/A,30.09,59.0,,8:47 AM,8.0,ESE,3.5,110,Los Angeles,California,90001
9,Clear,2016-01-29 17:47:00,46.0,,-,54,N/A,30.09,63.0,,9:47 AM,7.0,Calm,Calm,0,Los Angeles,California,90001
10,Clear,2016-01-29 18:47:00,46.9,,-,52,N/A,30.06,64.9,,10:47 AM,8.0,East,3.5,100,Los Angeles,California,90001
11,Clear,2016-01-29 19:47:00,48.9,,-,47,N/A,30.04,70.0,,11:47 AM,8.0,Calm,Calm,0,Los Angeles,California,90001
12,Clear,2016-01-29 20:47:00,51.1,,-,49,N/A,30.00,71.1,,12:47 PM,9.0,Calm,Calm,0,Los Angeles,California,90001
13,Clear,2016-01-29 21:47:00,52.0,,-,51,N/A,29.97,71.1,,1:47 PM,10.0,Calm,Calm,0,Los Angeles,California,90001
14,Clear,2016-01-29 22:47:00,53.1,,-,59,N/A,29.98,68.0,,2:47 PM,10.0,Variable,5.8,0,Los Angeles,California,90001
15,Clear,2016-01-29 23:47:00,52.0,,-,56,N/A,29.98,68.0,,3:47 PM,10.0,Calm,Calm,0,Los Angeles,California,90001
16,Clear,2016-01-30 00:47:00,51.1,,-,61,N/A,29.97,64.9,,4:47 PM,10.0,Calm,Calm,0,Los Angeles,California,90001
17,Clear,2016-01-30 01:47:00,52.0,,-,67,N/A,29.98,63.0,,5:47 PM,10.0,Calm,Calm,0,Los Angeles,California,90001
18,Clear,2016-01-30 02:47:00,53.1,,-,72,N/A,29.99,62.1,,6:47 PM,10.0,Calm,Calm,0,Los Angeles,California,90001
19,Clear,2016-01-30 03:47:00,53.1,,-,75,N/A,30.00,61.0,,7:47 PM,10.0,Calm,Calm,0,Los Angeles,California,90001
20,Clear,2016-01-30 04:47:00,53.1,,-,75,N/A,30.02,61.0,,8:47 PM,10.0,Calm,Calm,0,Los Angeles,California,90001
21,Clear,2016-01-30 05:47:00,53.1,,-,78,N/A,30.02,60.1,,9:47 PM,10.0,East,3.5,100,Los Angeles,California,90001
22,Partly Cloudy,2016-01-30 06:21:00,54.0,,-,83,N/A,30.03,59.0,,10:21 PM,10.0,East,3.5,100,Los Angeles,California,90001
23,Mostly Cloudy,2016-01-30 06:42:00,55.0,,-,87,N/A,30.03,59.0,,10:42 PM,9.0,East,3.5,80,Los Angeles,California,90001
24,Mostly Cloudy,2016-01-30 06:47:00,55.0,,-,87,N/A,30.03,59.0,,10:47 PM,9.0,Calm,Calm,0,Los Angeles,California,90001
25,Scattered Clouds,2016-01-30 07:08:00,55.0,,-,87,N/A,30.02,59.0,,11:08 PM,9.0,East,4.6,100,Los Angeles,California,90001
26,Clear,2016-01-30 07:47:00,54.0,,-,87,N/A,30.01,57.9,,11:47 PM,9.0,East,3.5,100,Los Angeles,California,90001
0,Clear,2016-01-30 08:47:00,53.1,,-,87,N/A,30.01,57.0,,12:47 AM,9.0,Calm,Calm,0,Los Angeles,California,90001
1,Clear,2016-01-30 09:47:00,53.1,,-,93,N/A,30.00,55.0,,1:47 AM,8.0,Calm,Calm,0,Los Angeles,California,90001
2,Clear,2016-01-30 10:47:00,53.1,,-,90,N/A,29.99,55.9,,2:47 AM,8.0,SE,3.5,130,Los Angeles,California,90001
3,Partly Cloudy,2016-01-30 11:01:00,54.0,,-,93,N/A,29.99,55.9,,3:01 AM,7.0,Calm,Calm,0,Los Angeles,California,90001
4,Mostly Cloudy,2016-01-30 11:09:00,54.0,,-,89,N/A,29.98,57.0,,3:09 AM,6.0,East,3.5,90,Los Angeles,California,90001
5,Scattered Clouds,2016-01-30 11:31:00,53.1,,-,90,N/A,29.98,55.9,,3:31 AM,7.0,Calm,Calm,0,Los Angeles,California,90001
6,Scattered Clouds,2016-01-30 11:47:00,53.1,,-,90,N/A,29.98,55.9,,3:47 AM,8.0,Calm,Calm,0,Los Angeles,California,90001
7,Mostly Cloudy,2016-01-30 11:52:00,53.1,,-,90,N/A,29.98,55.9,,3:52 AM,8.0,NE,3.5,50,Los Angeles,California,90001
8,Overcast,2016-01-30 12:47:00,53.1,,-,87,N/A,29.98,57.0,,4:47 AM,8.0,Calm,Calm,0,Los Angeles,California,90001
9,Overcast,2016-01-30 13:47:00,52.0,,-,83,N/A,29.99,57.0,,5:47 AM,9.0,Calm,Calm,0,Los Angeles,California,90001
10,Overcast,2016-01-30 14:47:00,52.0,,-,83,N/A,30.00,57.0,,6:47 AM,10.0,Calm,Calm,0,Los Angeles,California,90001
11,Overcast,2016-01-30 15:47:00,52.0,,-,83,N/A,30.00,57.0,,7:47 AM,8.0,Calm,Calm,0,Los Angeles,California,90001
12,Overcast,2016-01-30 16:14:00,52.0,,-,83,N/A,30.01,57.0,,8:14 AM,7.0,East,3.5,100,Los Angeles,California,90001
13,Overcast,2016-01-30 16:29:00,52.0,,-,81,N/A,30.01,57.9,,8:29 AM,7.0,East,3.5,100,Los Angeles,California,90001
14,Overcast,2016-01-30 16:37:00,53.1,,-,84,N/A,30.02,57.9,,8:37 AM,7.0,Calm,Calm,0,Los Angeles,California,90001
15,Overcast,2016-01-30 16:47:00,52.0,,-,81,N/A,30.03,57.9,,8:47 AM,7.0,Calm,Calm,0,Los Angeles,California,90001
16,Haze,2016-01-30 17:24:00,53.1,,-,84,N/A,30.04,57.9,,9:24 AM,6.0,Calm,Calm,0,Los Angeles,California,90001
17,Overcast,2016-01-30 17:33:00,53.1,,-,81,N/A,30.04,59.0,,9:33 AM,7.0,Calm,Calm,0,Los Angeles,California,90001
18,Overcast,2016-01-30 17:42:00,53.1,,-,81,N/A,30.04,59.0,,9:42 AM,8.0,Calm,Calm,0,Los Angeles,California,90001
19,Overcast,2016-01-30 17:47:00,53.1,,-,81,N/A,30.04,59.0,,9:47 AM,8.0,Variable,3.5,0,Los Angeles,California,90001
20,Overcast,2016-01-30 18:47:00,53.1,,-,72,N/A,30.03,62.1,,10:47 AM,8.0,Variable,3.5,0,Los Angeles,California,90001
21,Mostly Cloudy,2016-01-30 19:42:00,52.0,,-,67,N/A,30.01,63.0,,11:42 AM,8.0,Variable,3.5,0,Los Angeles,California,90001
22,Mostly Cloudy,2016-01-30 19:47:00,52.0,,-,67,N/A,30.00,63.0,,11:47 AM,8.0,Variable,3.5,0,Los Angeles,California,90001
23,Mostly Cloudy,2016-01-30 19:50:00,52.0,,-,67,N/A,30.00,63.0,,11:50 AM,8.0,Variable,4.6,0,Los Angeles,California,90001
24,Scattered Clouds,2016-01-30 20:02:00,52.0,,-,67,N/A,30.00,63.0,,12:02 PM,8.0,ENE,3.5,60,Los Angeles,California,90001
25,Mostly Cloudy,2016-01-30 20:47:00,52.0,,-,65,N/A,29.98,64.0,,12:47 PM,8.0,Variable,3.5,0,Los Angeles,California,90001
26,Overcast,2016-01-30 21:47:00,53.1,,-,65,N/A,29.97,64.9,,1:47 PM,9.0,Calm,Calm,0,Los Angeles,California,90001
27,Overcast,2016-01-30 22:47:00,53.1,,-,63,N/A,29.96,66.0,,2:47 PM,10.0,Calm,Calm,0,Los Angeles,California,90001
28,Partly Cloudy,2016-01-30 23:47:00,55.0,,-,70,N/A,29.97,64.9,,3:47 PM,10.0,Calm,Calm,0,Los Angeles,California,90001
29,Scattered Clouds,2016-01-31 00:47:00,55.9,,-,78,N/A,29.98,63.0,,4:47 PM,10.0,Calm,Calm,0,Los Angeles,California,90001
30,Mostly Cloudy,2016-01-31 01:28:00,55.0,,-,78,N/A,29.98,62.1,,5:28 PM,10.0,Calm,Calm,0,Los Angeles,California,90001
31,Overcast,2016-01-31 01:47:00,55.0,,-,81,N/A,29.99,61.0,,5:47 PM,10.0,Variable,3.5,0,Los Angeles,California,90001
32,Mostly Cloudy,2016-01-31 02:47:00,55.0,,-,83,N/A,30.00,60.1,,6:47 PM,10.0,Calm,Calm,0,Los Angeles,California,90001
33,Overcast,2016-01-31 03:11:00,55.9,,-,86,N/A,30.00,60.1,,7:11 PM,10.0,Calm,Calm,0,Los Angeles,California,90001
34,Overcast,2016-01-31 03:43:00,55.0,,-,83,N/A,30.00,60.1,,7:43 PM,10.0,Calm,Calm,0,Los Angeles,California,90001
35,Overcast,2016-01-31 03:47:00,55.0,,-,83,N/A,30.01,60.1,,7:47 PM,10.0,Calm,Calm,0,Los Angeles,California,90001
36,Overcast,2016-01-31 04:47:00,55.0,,-,83,N/A,30.01,60.1,,8:47 PM,10.0,Calm,Calm,0,Los Angeles,California,90001
37,Overcast,2016-01-31 05:47:00,54.0,,-,80,N/A,30.01,60.1,,9:47 PM,10.0,Calm,Calm,0,Los Angeles,California,90001
38,Overcast,2016-01-31 06:47:00,54.0,,-,80,N/A,30.01,60.1,,10:47 PM,10.0,Calm,Calm,0,Los Angeles,California,90001
39,Overcast,2016-01-31 07:47:00,54.0,,-,83,N/A,30.00,59.0,,11:47 PM,10.0,Calm,Calm,0,Los Angeles,California,90001
0,Mostly Cloudy,2016-01-31 08:07:00,54.0,,-,87,N/A,29.99,57.9,,12:07 AM,10.0,Calm,Calm,0,Los Angeles,California,90001
1,Clear,2016-01-31 08:47:00,53.1,,-,87,N/A,29.98,57.0,,12:47 AM,10.0,Calm,Calm,0,Los Angeles,California,90001
2,Mostly Cloudy,2016-01-31 09:47:00,53.1,,-,87,N/A,29.97,57.0,,1:47 AM,10.0,Calm,Calm,0,Los Angeles,California,90001
3,Overcast,2016-01-31 10:43:00,53.1,,-,87,N/A,29.96,57.0,,2:43 AM,10.0,Calm,Calm,0,Los Angeles,California,90001
4,Overcast,2016-01-31 10:47:00,53.1,,-,87,N/A,29.95,57.0,,2:47 AM,10.0,Calm,Calm,0,Los Angeles,California,90001
5,Overcast,2016-01-31 11:47:00,53.1,,-,87,N/A,29.94,57.0,,3:47 AM,10.0,Calm,Calm,0,Los Angeles,California,90001
6,Overcast,2016-01-31 12:47:00,52.0,,-,83,N/A,29.92,57.0,,4:47 AM,10.0,Calm,Calm,0,Los Angeles,California,90001
7,Overcast,2016-01-31 13:09:00,52.0,,-,83,N/A,29.93,57.0,,5:09 AM,10.0,Calm,Calm,0,Los Angeles,California,90001
8,Overcast,2016-01-31 13:47:00,52.0,,-,83,N/A,29.92,57.0,,5:47 AM,10.0,Calm,Calm,0,Los Angeles,California,90001
9,Overcast,2016-01-31 14:47:00,51.1,,-,81,N/A,29.90,57.0,,6:47 AM,10.0,Variable,3.5,0,Los Angeles,California,90001
10,Light Rain,2016-01-31 15:44:00,52.0,Rain,-,83,0.00,29.85,57.0,,7:44 AM,4.0,SE,4.6,130,Los Angeles,California,90001
11,Light Rain,2016-01-31 15:47:00,52.0,Rain,-,87,0.01,29.85,55.9,,7:47 AM,2.5,Variable,3.5,0,Los Angeles,California,90001
12,Light Rain,2016-01-31 16:04:00,53.1,Rain,-,90,0.01,29.85,55.9,,8:04 AM,2.5,SE,4.6,140,Los Angeles,California,90001
13,Rain,2016-01-31 16:09:00,54.0,Rain,-,93,0.02,29.85,55.9,,8:09 AM,1.8,Calm,Calm,0,Los Angeles,California,90001
14,Light Rain,2016-01-31 16:31:00,52.0,Rain,-,93,0.05,29.85,54.0,,8:31 AM,1.5,Variable,3.5,0,Los Angeles,California,90001
15,Light Rain,2016-01-31 16:44:00,53.1,Rain,-,97,0.08,29.85,54.0,,8:44 AM,1.2,North,-9999.0,0,Los Angeles,California,90001
16,Light Rain,2016-01-31 16:47:00,53.1,Rain,-,97,0.08,29.85,54.0,,8:47 AM,1.2,North,-9999.0,0,Los Angeles,California,90001
17,Light Rain,2016-01-31 17:03:00,54.0,Rain,-,96,0.03,29.83,55.0,,9:03 AM,3.0,Variable,4.6,0,Los Angeles,California,90001
18,Light Rain,2016-01-31 17:07:00,54.0,Rain,-,96,0.03,29.83,55.0,,9:07 AM,5.0,Variable,4.6,0,Los Angeles,California,90001
19,Overcast,2016-01-31 17:27:00,54.0,,-,93,0.03,29.83,55.9,,9:27 AM,10.0,Variable,3.5,0,Los Angeles,California,90001
20,Light Rain,2016-01-31 17:47:00,54.0,Rain,-,89,0.03,29.82,57.0,,9:47 AM,10.0,Variable,3.5,0,Los Angeles,California,90001
21,Rain,2016-01-31 17:59:00,54.0,Rain,-,89,0.01,29.82,57.0,,9:59 AM,2.0,Calm,Calm,0,Los Angeles,California,90001
22,Rain,2016-01-31 18:03:00,54.0,Rain,-,93,0.03,29.81,55.9,,10:03 AM,1.0,Calm,Calm,0,Los Angeles,California,90001
23,Heavy Rain,2016-01-31 18:05:00,54.0,Rain,-,93,0.04,29.81,55.9,,10:05 AM,0.8,Calm,Calm,0,Los Angeles,California,90001
24,Light Rain,2016-01-31 18:19:00,55.0,Rain,-,97,0.18,29.81,55.9,,10:19 AM,1.8,Calm,Calm,0,Los Angeles,California,90001
25,Light Rain,2016-01-31 18:21:00,55.0,Rain,-,97,0.18,29.81,55.9,,10:21 AM,3.0,Calm,Calm,0,Los Angeles,California,90001
26,Light Rain,2016-01-31 18:30:00,55.0,Rain,-,93,0.19,29.80,57.0,,10:30 AM,2.5,Calm,Calm,0,Los Angeles,California,90001
27,Light Rain,2016-01-31 18:40:00,54.0,Rain,-,93,0.19,29.80,55.9,,10:40 AM,1.8,Calm,Calm,0,Los Angeles,California,90001
28,Rain,2016-01-31 18:47:00,55.0,Rain,-,97,0.21,29.79,55.9,,10:47 AM,1.2,Variable,3.5,0,Los Angeles,California,90001
29,Light Rain,2016-01-31 19:02:00,55.0,Rain,-,93,0.03,29.77,57.0,,11:02 AM,3.0,Variable,3.5,0,Los Angeles,California,90001
30,Rain,2016-01-31 19:18:00,54.0,Rain,-,89,0.04,29.75,57.0,,11:18 AM,2.0,North,-9999.0,0,Los Angeles,California,90001
31,Light Rain,2016-01-31 19:30:00,54.0,Rain,-,89,0.06,29.74,57.0,,11:30 AM,4.0,Variable,3.5,0,Los Angeles,California,90001
32,Light Rain,2016-01-31 19:47:00,54.0,Rain,-,87,0.06,29.72,57.9,,11:47 AM,10.0,Variable,3.5,0,Los Angeles,California,90001
33,Light Rain,2016-01-31 19:57:00,54.0,Rain,-,87,0.00,29.71,57.9,,11:57 AM,9.0,Variable,4.6,0,Los Angeles,California,90001
34,Light Rain,2016-01-31 20:14:00,53.1,Rain,-,84,0.00,29.69,57.9,,12:14 PM,8.0,Variable,3.5,0,Los Angeles,California,90001
35,Light Rain,2016-01-31 20:17:00,54.0,Rain,-,87,0.00,29.68,57.9,,12:17 PM,9.0,North,-9999.0,0,Los Angeles,California,90001
36,Light Rain,2016-01-31 20:33:00,54.0,Rain,-,87,0.01,29.66,57.9,,12:33 PM,5.0,North,-9999.0,0,Los Angeles,California,90001
37,Light Rain,2016-01-31 20:47:00,55.0,Rain,-,90,0.01,29.64,57.9,,12:47 PM,2.5,Variable,5.8,0,Los Angeles,California,90001
38,Light Rain,2016-01-31 21:00:00,55.0,Rain,-,90,0.01,29.62,57.9,,1:00 PM,4.0,North,-9999.0,0,Los Angeles,California,90001
39,Overcast,2016-01-31 21:47:00,53.1,,23.0,84,0.03,29.60,57.9,,1:47 PM,10.0,West,8.1,260,Los Angeles,California,90001
40,Scattered Clouds,2016-01-31 22:28:00,48.0,,32.2,72,N/A,29.61,57.0,,2:28 PM,10.0,West,10.4,270,Los Angeles,California,90001
41,Mostly Cloudy,2016-01-31 22:40:00,46.9,,26.5,69,N/A,29.61,57.0,,2:40 PM,10.0,West,10.4,270,Los Angeles,California,90001
42,Mostly Cloudy,2016-01-31 22:47:00,46.0,,25.3,67,N/A,29.61,57.0,,2:47 PM,10.0,West,11.5,260,Los Angeles,California,90001
43,Overcast,2016-01-31 23:47:00,45.0,,25.3,69,N/A,29.62,55.0,,3:47 PM,10.0,West,11.5,280,Los Angeles,California,90001
44,Overcast,2016-01-31 23:54:00,45.0,,21.9,69,N/A,29.62,55.0,,3:54 PM,10.0,West,8.1,260,Los Angeles,California,90001
45,Overcast,2016-02-01 00:47:00,43.0,,-,71,N/A,29.65,52.0,,4:47 PM,10.0,Variable,6.9,0,Los Angeles,California,90001
46,Clear,2016-02-01 01:47:00,37.9,,-,61,N/A,29.68,51.1,,5:47 PM,10.0,Variable,3.5,0,Los Angeles,California,90001
47,Clear,2016-02-01 02:47:00,37.0,,-,59,N/A,29.71,51.1,,6:47 PM,10.0,Variable,5.8,0,Los Angeles,California,90001
48,Clear,2016-02-01 03:47:00,28.0,,-,41,N/A,29.73,51.1,,7:47 PM,10.0,West,4.6,280,Los Angeles,California,90001
49,Clear,2016-02-01 04:47:00,30.9,,-,48,N/A,29.76,50.0,,8:47 PM,10.0,West,5.8,280,Los Angeles,California,90001
50,Clear,2016-02-01 05:47:00,32.0,,-,50,N/A,29.77,50.0,,9:47 PM,10.0,West,8.1,270,Los Angeles,California,90001
51,Clear,2016-02-01 06:47:00,32.0,,-,50,N/A,29.78,50.0,,10:47 PM,10.0,West,5.8,280,Los Angeles,California,90001
52,Clear,2016-02-01 07:47:00,30.0,,-,46,N/A,29.78,50.0,,11:47 PM,10.0,West,8.1,280,Los Angeles,California,90001
0,Mostly Cloudy,2016-02-01 08:47:00,28.0,,-,43,N/A,29.80,50.0,,12:47 AM,10.0,WNW,4.6,290,Los Angeles,California,90001
1,Partly Cloudy,2016-02-01 09:47:00,28.9,,-,50,N/A,29.81,46.9,,1:47 AM,10.0,Calm,Calm,0,Los Angeles,California,90001
2,Overcast,2016-02-01 10:47:00,30.0,,-,52,N/A,29.81,46.9,,2:47 AM,10.0,West,3.5,270,Los Angeles,California,90001
3,Clear,2016-02-01 11:47:00,28.0,,-,46,N/A,29.83,48.0,,3:47 AM,10.0,WNW,4.6,290,Los Angeles,California,90001
4,Partly Cloudy,2016-02-01 12:47:00,30.9,,-,58,N/A,29.86,45.0,,4:47 AM,10.0,Calm,Calm,0,Los Angeles,California,90001
5,Clear,2016-02-01 13:47:00,30.9,,-,60,N/A,29.89,44.1,,5:47 AM,10.0,Calm,Calm,0,Los Angeles,California,90001
6,Clear,2016-02-01 14:47:00,32.0,,-,63,N/A,29.93,44.1,,6:47 AM,10.0,Calm,Calm,0,Los Angeles,California,90001
7,Clear,2016-02-01 15:47:00,25.0,,18.4,39,N/A,29.97,48.9,,7:47 AM,10.0,NW,9.2,310,Los Angeles,California,90001
8,Clear,2016-02-01 16:47:00,24.1,,32.2,36,N/A,30.00,50.0,,8:47 AM,10.0,NW,9.2,320,Los Angeles,California,90001
9,Clear,2016-02-01 17:47:00,23.0,,21.9,31,N/A,30.04,53.1,,9:47 AM,10.0,NNW,9.2,340,Los Angeles,California,90001
10,Clear,2016-02-01 18:47:00,21.9,,25.3,29,N/A,30.06,54.0,,10:47 AM,10.0,NNW,15.0,340,Los Angeles,California,90001
11,Clear,2016-02-01 19:47:00,21.9,,20.7,28,N/A,30.06,55.0,,11:47 AM,10.0,NW,10.4,320,Los Angeles,California,90001
12,Clear,2016-02-01 20:47:00,23.0,,16.1,27,N/A,30.05,57.0,,12:47 PM,10.0,NNW,9.2,330,Los Angeles,California,90001
13,Clear,2016-02-01 21:47:00,23.0,,-,27,N/A,30.04,57.0,,1:47 PM,10.0,NNW,10.4,340,Los Angeles,California,90001
14,Clear,2016-02-01 22:47:00,21.9,,23.0,26,N/A,30.05,57.0,,2:47 PM,10.0,NNW,10.4,330,Los Angeles,California,90001
15,Clear,2016-02-01 23:47:00,19.9,,24.2,24,N/A,30.07,57.0,,3:47 PM,10.0,NW,11.5,320,Los Angeles,California,90001
16,Clear,2016-02-02 00:47:00,23.0,,18.4,30,N/A,30.12,54.0,,4:47 PM,10.0,NW,5.8,320,Los Angeles,California,90001
17,Clear,2016-02-02 01:47:00,23.0,,20.7,31,N/A,30.14,53.1,,5:47 PM,10.0,NNW,9.2,330,Los Angeles,California,90001
18,Clear,2016-02-02 02:47:00,23.0,,-,32,N/A,30.15,52.0,,6:47 PM,10.0,Variable,3.5,0,Los Angeles,California,90001
19,Clear,2016-02-02 03:47:00,23.0,,-,33,N/A,30.16,51.1,,7:47 PM,10.0,Calm,Calm,0,Los Angeles,California,90001
20,Clear,2016-02-02 04:47:00,23.0,,-,35,N/A,30.14,50.0,,8:47 PM,10.0,Calm,Calm,0,Los Angeles,California,90001
21,Clear,2016-02-02 05:47:00,23.0,,-,36,N/A,30.15,48.9,,9:47 PM,10.0,NW,6.9,320,Los Angeles,California,90001
22,Clear,2016-02-02 06:47:00,19.9,,-,31,N/A,30.15,50.0,,10:47 PM,10.0,NNW,8.1,340,Los Angeles,California,90001
23,Clear,2016-02-02 07:47:00,21.9,,-,35,N/A,30.17,48.9,,11:47 PM,10.0,Variable,3.5,0,Los Angeles,California,90001
0,Clear,2016-02-02 08:47:00,21.0,,-,36,N/A,30.17,46.9,,12:47 AM,10.0,Calm,Calm,0,Los Angeles,California,90001
1,Clear,2016-02-02 09:47:00,21.0,,-,37,N/A,30.17,46.0,,1:47 AM,10.0,Calm,Calm,0,Los Angeles,California,90001
2,Clear,2016-02-02 10:47:00,24.1,,-,47,N/A,30.17,43.0,,2:47 AM,10.0,North,3.5,360,Los Angeles,California,90001
3,Clear,2016-02-02 11:47:00,23.0,,-,43,N/A,30.17,44.1,,3:47 AM,10.0,East,3.5,90,Los Angeles,California,90001
4,Clear,2016-02-02 12:47:00,24.1,,-,49,N/A,30.17,42.1,,4:47 AM,10.0,NNE,3.5,30,Los Angeles,California,90001
5,Clear,2016-02-02 13:47:00,25.0,,-,53,N/A,30.19,41.0,,5:47 AM,10.0,Calm,Calm,0,Los Angeles,California,90001
6,Clear,2016-02-02 14:47:00,24.1,,-,49,N/A,30.21,42.1,,6:47 AM,10.0,Calm,Calm,0,Los Angeles,California,90001
7,Clear,2016-02-02 15:47:00,24.1,,-,44,N/A,30.23,45.0,,7:47 AM,10.0,Calm,Calm,0,Los Angeles,California,90001
8,Clear,2016-02-02 16:47:00,21.0,,-,31,N/A,30.23,51.1,,8:47 AM,10.0,Calm,Calm,0,Los Angeles,California,90001
9,Clear,2016-02-02 17:47:00,23.0,,-,28,N/A,30.23,55.9,,9:47 AM,10.0,Calm,Calm,0,Los Angeles,California,90001
10,Clear,2016-02-02 18:47:00,26.1,,-,27,N/A,30.22,60.1,,10:47 AM,10.0,Calm,Calm,0,Los Angeles,California,90001
11,Clear,2016-02-02 19:47:00,26.1,,-,27,N/A,30.19,60.1,,11:47 AM,10.0,Calm,Calm,0,Los Angeles,California,90001
12,Clear,2016-02-02 20:47:00,28.0,,-,29,N/A,30.17,61.0,,12:47 PM,10.0,Variable,4.6,0,Los Angeles,California,90001
13,Clear,2016-02-02 21:47:00,32.0,,-,36,N/A,30.16,59.0,,1:47 PM,10.0,Calm,Calm,0,Los Angeles,California,90001
14,Partly Cloudy,2016-02-02 22:47:00,35.1,,-,41,N/A,30.15,59.0,,2:47 PM,10.0,Calm,Calm,0,Los Angeles,California,90001
15,Clear,2016-02-02 23:47:00,30.9,,-,35,N/A,30.15,59.0,,3:47 PM,10.0,Calm,Calm,0,Los Angeles,California,90001
16,Clear,2016-02-03 00:47:00,36.0,,-,45,N/A,30.16,57.0,,4:47 PM,10.0,Variable,3.5,0,Los Angeles,California,90001
17,Clear,2016-02-03 01:47:00,36.0,,-,49,N/A,30.17,55.0,,5:47 PM,10.0,Calm,Calm,0,Los Angeles,California,90001
18,Clear,2016-02-03 02:47:00,36.0,,-,51,N/A,30.18,54.0,,6:47 PM,10.0,Calm,Calm,0,Los Angeles,California,90001
19,Clear,2016-02-03 03:47:00,36.0,,-,51,N/A,30.19,54.0,,7:47 PM,10.0,North,3.5,10,Los Angeles,California,90001
20,Clear,2016-02-03 04:47:00,36.0,,-,54,N/A,30.21,52.0,,8:47 PM,10.0,Calm,Calm,0,Los Angeles,California,90001
21,Clear,2016-02-03 05:47:00,37.0,,-,59,N/A,30.22,51.1,,9:47 PM,10.0,Calm,Calm,0,Los Angeles,California,90001
22,Clear,2016-02-03 06:47:00,39.0,,-,66,N/A,30.22,50.0,,10:47 PM,10.0,Calm,Calm,0,Los Angeles,California,90001
23,Clear,2016-02-03 07:47:00,37.0,,-,64,N/A,30.23,48.9,,11:47 PM,10.0,East,3.5,90,Los Angeles,California,90001
0,Clear,2016-02-03 08:47:00,36.0,,-,61,N/A,30.23,48.9,,12:47 AM,10.0,Calm,Calm,0,Los Angeles,California,90001
1,Clear,2016-02-03 09:47:00,37.0,,-,68,N/A,30.25,46.9,,1:47 AM,10.0,Calm,Calm,0,Los Angeles,California,90001
2,Clear,2016-02-03 10:47:00,37.0,,-,74,N/A,30.25,45.0,,2:47 AM,10.0,Calm,Calm,0,Los Angeles,California,90001
3,Clear,2016-02-03 11:47:00,37.0,,-,76,N/A,30.25,44.1,,3:47 AM,10.0,Calm,Calm,0,Los Angeles,California,90001
4,Clear,2016-02-03 12:47:00,35.1,,-,63,N/A,30.27,46.9,,4:47 AM,10.0,Calm,Calm,0,Los Angeles,California,90001
5,Clear,2016-02-03 13:47:00,35.1,,-,66,N/A,30.28,46.0,,5:47 AM,9.0,North,5.8,10,Los Angeles,California,90001
6,Clear,2016-02-03 14:47:00,34.0,,-,65,N/A,30.30,45.0,,6:47 AM,10.0,Calm,Calm,0,Los Angeles,California,90001
7,Clear,2016-02-03 15:47:00,35.1,,-,61,N/A,30.33,48.0,,7:47 AM,9.0,Calm,Calm,0,Los Angeles,California,90001
8,Clear,2016-02-03 16:47:00,33.1,,-,47,N/A,30.35,53.1,,8:47 AM,10.0,Calm,Calm,0,Los Angeles,California,90001
9,Clear,2016-02-03 17:47:00,32.0,,-,39,N/A,30.36,57.0,,9:47 AM,10.0,Variable,5.8,0,Los Angeles,California,90001
10,Clear,2016-02-03 18:47:00,30.0,,-,32,N/A,30.37,60.1,,10:47 AM,10.0,Calm,Calm,0,Los Angeles,California,90001
11,Clear,2016-02-03 19:47:00,30.0,,-,31,N/A,30.34,61.0,,11:47 AM,10.0,Calm,Calm,0,Los Angeles,California,90001
12,Clear,2016-02-03 20:47:00,30.0,,-,29,N/A,30.31,63.0,,12:47 PM,10.0,Calm,Calm,0,Los Angeles,California,90001
13,Clear,2016-02-03 21:47:00,30.0,,-,29,N/A,30.29,63.0,,1:47 PM,10.0,Calm,Calm,0,Los Angeles,California,90001
14,Clear,2016-02-03 22:47:00,28.0,,-,25,N/A,30.28,64.9,,2:47 PM,10.0,Calm,Calm,0,Los Angeles,California,90001
15,Clear,2016-02-03 23:47:00,32.0,,-,31,N/A,30.28,63.0,,3:47 PM,10.0,Variable,4.6,0,Los Angeles,California,90001
16,Clear,2016-02-04 00:47:00,32.0,,-,34,N/A,30.28,61.0,,4:47 PM,10.0,Variable,3.5,0,Los Angeles,California,90001
17,Clear,2016-02-04 01:47:00,37.0,,-,47,N/A,30.31,57.0,,5:47 PM,10.0,Calm,Calm,0,Los Angeles,California,90001
18,Clear,2016-02-04 02:47:00,39.0,,-,53,N/A,30.33,55.9,,6:47 PM,10.0,West,5.8,280,Los Angeles,California,90001
19,Clear,2016-02-04 03:47:00,41.0,,-,59,N/A,30.35,55.0,,7:47 PM,10.0,Calm,Calm,0,Los Angeles,California,90001
20,Clear,2016-02-04 04:47:00,42.1,,-,64,N/A,30.34,54.0,,8:47 PM,10.0,Calm,Calm,0,Los Angeles,California,90001
21,Clear,2016-02-04 05:47:00,41.0,,-,62,N/A,30.35,54.0,,9:47 PM,10.0,Calm,Calm,0,Los Angeles,California,90001
22,Clear,2016-02-04 06:47:00,39.9,,-,66,N/A,30.35,51.1,,10:47 PM,10.0,Calm,Calm,0,Los Angeles,California,90001
23,Clear,2016-02-04 07:47:00,33.1,,-,49,N/A,30.36,52.0,,11:47 PM,10.0,Calm,Calm,0,Los Angeles,California,90001
0,Clear,2016-02-04 08:47:00,28.0,,-,41,N/A,30.36,51.1,,12:47 AM,10.0,Calm,Calm,0,Los Angeles,California,90001
1,Clear,2016-02-04 09:47:00,28.9,,-,44,N/A,30.34,50.0,,1:47 AM,10.0,Calm,Calm,0,Los Angeles,California,90001
2,Clear,2016-02-04 10:47:00,28.0,,-,44,N/A,30.33,48.9,,2:47 AM,10.0,Calm,Calm,0,Los Angeles,California,90001
3,Clear,2016-02-04 11:47:00,28.9,,-,48,N/A,30.32,48.0,,3:47 AM,10.0,Calm,Calm,0,Los Angeles,California,90001
4,Clear,2016-02-04 12:47:00,28.9,,-,48,N/A,30.32,48.0,,4:47 AM,10.0,Calm,Calm,0,Los Angeles,California,90001
5,Clear,2016-02-04 13:47:00,28.9,,-,50,N/A,30.32,46.9,,5:47 AM,10.0,Calm,Calm,0,Los Angeles,California,90001
6,Clear,2016-02-04 14:47:00,28.0,,-,48,N/A,30.32,46.9,,6:47 AM,10.0,North,3.5,10,Los Angeles,California,90001
7,Clear,2016-02-04 15:47:00,28.0,,-,44,N/A,30.33,48.9,,7:47 AM,10.0,Calm,Calm,0,Los Angeles,California,90001
8,Clear,2016-02-04 16:47:00,28.9,,-,37,N/A,30.34,55.0,,8:47 AM,10.0,NNE,3.5,30,Los Angeles,California,90001
9,Clear,2016-02-04 17:47:00,26.1,,-,28,N/A,30.33,59.0,,9:47 AM,10.0,Variable,3.5,0,Los Angeles,California,90001
10,Clear,2016-02-04 18:47:00,25.0,,-,24,N/A,30.32,62.1,,10:47 AM,10.0,Calm,Calm,0,Los Angeles,California,90001
11,Clear,2016-02-04 19:47:00,26.1,,-,22,N/A,30.29,66.0,,11:47 AM,10.0,Calm,Calm,0,Los Angeles,California,90001
12,Clear,2016-02-04 20:47:00,26.1,,-,21,N/A,30.26,68.0,,12:47 PM,10.0,Calm,Calm,0,Los Angeles,California,90001
13,Clear,2016-02-04 21:47:00,26.1,,-,21,N/A,30.23,68.0,,1:47 PM,10.0,Calm,Calm,0,Los Angeles,California,90001
14,Clear,2016-02-04 22:47:00,30.9,,-,26,N/A,30.22,66.9,,2:47 PM,10.0,West,5.8,280,Los Angeles,California,90001
15,Clear,2016-02-04 23:47:00,30.9,,-,27,N/A,30.22,66.0,,3:47 PM,10.0,West,3.5,260,Los Angeles,California,90001
16,Clear,2016-02-05 00:47:00,26.1,,-,24,N/A,30.21,64.0,,4:47 PM,10.0,Calm,Calm,0,Los Angeles,California,90001
17,Clear,2016-02-05 01:47:00,28.9,,-,29,N/A,30.22,62.1,,5:47 PM,10.0,Calm,Calm,0,Los Angeles,California,90001
18,Clear,2016-02-05 02:47:00,35.1,,-,39,N/A,30.22,60.1,,6:47 PM,10.0,Calm,Calm,0,Los Angeles,California,90001
19,Clear,2016-02-05 03:47:00,36.0,,-,44,N/A,30.23,57.9,,7:47 PM,10.0,Calm,Calm,0,Los Angeles,California,90001
20,Clear,2016-02-05 04:47:00,33.1,,-,40,N/A,30.24,57.0,,8:47 PM,10.0,Calm,Calm,0,Los Angeles,California,90001
21,Clear,2016-02-05 05:47:00,30.0,,-,36,N/A,30.25,57.0,,9:47 PM,10.0,Calm,Calm,0,Los Angeles,California,90001
22,Clear,2016-02-05 06:47:00,32.0,,-,43,N/A,30.26,54.0,,10:47 PM,10.0,Calm,Calm,0,Los Angeles,California,90001
23,Clear,2016-02-05 07:47:00,33.1,,-,50,N/A,30.27,51.1,,11:47 PM,10.0,Calm,Calm,0,Los Angeles,California,90001
0,Clear,2016-02-05 08:47:00,28.9,,-,43,N/A,30.26,51.1,,12:47 AM,10.0,Calm,Calm,0,Los Angeles,California,90001
1,Clear,2016-02-05 09:47:00,28.0,,-,43,N/A,30.26,50.0,,1:47 AM,10.0,Calm,Calm,0,Los Angeles,California,90001
2,Clear,2016-02-05 10:47:00,30.0,,-,50,N/A,30.27,48.0,,2:47 AM,10.0,Calm,Calm,0,Los Angeles,California,90001
3,Clear,2016-02-05 11:47:00,30.0,,-,50,N/A,30.27,48.0,,3:47 AM,10.0,Calm,Calm,0,Los Angeles,California,90001
4,Clear,2016-02-05 12:47:00,30.0,,-,52,N/A,30.28,46.9,,4:47 AM,10.0,Calm,Calm,0,Los Angeles,California,90001
5,Clear,2016-02-05 13:47:00,30.9,,-,56,N/A,30.29,46.0,,5:47 AM,10.0,Calm,Calm,0,Los Angeles,California,90001
6,Clear,2016-02-05 14:47:00,28.9,,-,48,N/A,30.30,48.0,,6:47 AM,10.0,North,3.5,350,Los Angeles,California,90001
7,Clear,2016-02-05 15:47:00,30.9,,-,46,N/A,30.32,51.1,,7:47 AM,10.0,Calm,Calm,0,Los Angeles,California,90001
8,Clear,2016-02-05 16:47:00,26.1,,-,26,N/A,30.33,61.0,,8:47 AM,10.0,Variable,3.5,0,Los Angeles,California,90001
9,Clear,2016-02-05 17:47:00,25.0,,-,21,N/A,30.33,66.9,,9:47 AM,10.0,Calm,Calm,0,Los Angeles,California,90001
10,Clear,2016-02-05 18:47:00,23.0,,-,18,N/A,30.32,69.1,,10:47 AM,10.0,Calm,Calm,0,Los Angeles,California,90001
11,Clear,2016-02-05 19:47:00,23.0,,-,16,N/A,30.30,72.0,,11:47 AM,10.0,Calm,Calm,0,Los Angeles,California,90001
12,Clear,2016-02-05 20:47:00,19.9,,-,13,N/A,30.27,75.0,,12:47 PM,10.0,Variable,3.5,0,Los Angeles,California,90001
13,Clear,2016-02-05 21:47:00,19.0,,-,13,N/A,30.25,73.9,,1:47 PM,10.0,Variable,3.5,0,Los Angeles,California,90001
14,Clear,2016-02-05 22:47:00,24.1,,-,15,N/A,30.23,75.9,,2:47 PM,10.0,Variable,4.6,0,Los Angeles,California,90001
15,Clear,2016-02-05 23:47:00,24.1,,-,15,N/A,30.22,75.9,,3:47 PM,10.0,Variable,3.5,0,Los Angeles,California,90001
16,Clear,2016-02-06 00:47:00,26.1,,-,17,N/A,30.23,73.9,,4:47 PM,10.0,Calm,Calm,0,Los Angeles,California,90001
17,Clear,2016-02-06 01:47:00,30.9,,-,24,N/A,30.24,70.0,,5:47 PM,10.0,Calm,Calm,0,Los Angeles,California,90001
18,Clear,2016-02-06 02:47:00,33.1,,-,29,N/A,30.25,66.0,,6:47 PM,10.0,Calm,Calm,0,Los Angeles,California,90001
19,Clear,2016-02-06 03:47:00,36.0,,-,35,N/A,30.26,64.0,,7:47 PM,10.0,Calm,Calm,0,Los Angeles,California,90001
20,Clear,2016-02-06 04:47:00,34.0,,-,36,N/A,30.27,61.0,,8:47 PM,10.0,Calm,Calm,0,Los Angeles,California,90001
21,Clear,2016-02-06 05:47:00,28.9,,-,31,N/A,30.27,60.1,,9:47 PM,10.0,Calm,Calm,0,Los Angeles,California,90001
22,Clear,2016-02-06 06:47:00,28.9,,-,33,N/A,30.27,57.9,,10:47 PM,10.0,Calm,Calm,0,Los Angeles,California,90001
23,Clear,2016-02-06 07:47:00,25.0,,-,27,N/A,30.28,59.0,,11:47 PM,10.0,Calm,Calm,0,Los Angeles,California,90001
0,Clear,2016-02-06 08:47:00,27.0,,-,33,N/A,30.28,55.9,,12:47 AM,10.0,NNE,3.5,30,Los Angeles,California,90001
1,Clear,2016-02-06 09:47:00,25.0,,-,29,N/A,30.28,57.0,,1:47 AM,10.0,Calm,Calm,0,Los Angeles,California,90001
2,Clear,2016-02-06 10:47:00,28.0,,-,38,N/A,30.27,53.1,,2:47 AM,10.0,Calm,Calm,0,Los Angeles,California,90001
3,Clear,2016-02-06 11:47:00,28.0,,-,41,N/A,30.28,51.1,,3:47 AM,10.0,Calm,Calm,0,Los Angeles,California,90001
4,Clear,2016-02-06 12:47:00,26.1,,-,35,N/A,30.25,53.1,,4:47 AM,10.0,Calm,Calm,0,Los Angeles,California,90001
5,Haze,2016-02-06 13:47:00,28.0,,-,43,N/A,30.25,50.0,,5:47 AM,3.0,North,3.5,10,Los Angeles,California,90001
6,Clear,2016-02-06 14:47:00,27.0,,-,41,N/A,30.26,50.0,,6:47 AM,10.0,Calm,Calm,0,Los Angeles,California,90001
7,Clear,2016-02-06 15:47:00,28.0,,-,38,N/A,30.27,53.1,,7:47 AM,10.0,Calm,Calm,0,Los Angeles,California,90001
8,Clear,2016-02-06 16:47:00,26.1,,-,25,N/A,30.27,63.0,,8:47 AM,10.0,Calm,Calm,0,Los Angeles,California,90001
9,Clear,2016-02-06 17:47:00,24.1,,-,18,N/A,30.27,69.1,,9:47 AM,10.0,Calm,Calm,0,Los Angeles,California,90001
10,Clear,2016-02-06 18:47:00,21.9,,-,16,N/A,30.26,71.1,,10:47 AM,10.0,Calm,Calm,0,Los Angeles,California,90001
11,Clear,2016-02-06 19:47:00,26.1,,-,16,N/A,30.23,75.0,,11:47 AM,10.0,Calm,Calm,0,Los Angeles,California,90001
12,Clear,2016-02-06 20:47:00,26.1,,-,16,N/A,30.18,75.9,,12:47 PM,10.0,Calm,Calm,0,Los Angeles,California,90001
13,Clear,2016-02-06 21:47:00,25.0,,-,15,N/A,30.15,77.0,,1:47 PM,10.0,Variable,3.5,0,Los Angeles,California,90001
14,Clear,2016-02-06 22:47:00,23.0,,-,13,N/A,30.13,77.0,,2:47 PM,10.0,WNW,3.5,290,Los Angeles,California,90001
15,Clear,2016-02-06 23:47:00,28.9,,-,18,N/A,30.13,75.0,,3:47 PM,10.0,Calm,Calm,0,Los Angeles,California,90001
16,Clear,2016-02-07 00:47:00,24.1,,-,17,N/A,30.13,72.0,,4:47 PM,10.0,West,4.6,270,Los Angeles,California,90001
17,Clear,2016-02-07 01:47:00,27.0,,-,22,N/A,30.14,66.9,,5:47 PM,10.0,Calm,Calm,0,Los Angeles,California,90001
18,Clear,2016-02-07 02:47:00,27.0,,-,24,N/A,30.14,64.9,,6:47 PM,10.0,Calm,Calm,0,Los Angeles,California,90001
19,Clear,2016-02-07 03:47:00,30.0,,-,29,N/A,30.15,63.0,,7:47 PM,10.0,Calm,Calm,0,Los Angeles,California,90001
20,Clear,2016-02-07 04:47:00,32.0,,-,32,N/A,30.15,62.1,,8:47 PM,10.0,Calm,Calm,0,Los Angeles,California,90001
21,Clear,2016-02-07 05:47:00,32.0,,-,35,N/A,30.16,60.1,,9:47 PM,10.0,Calm,Calm,0,Los Angeles,California,90001
22,Clear,2016-02-07 06:47:00,32.0,,-,37,N/A,30.16,57.9,,10:47 PM,10.0,Calm,Calm,0,Los Angeles,California,90001
23,Clear,2016-02-07 07:47:00,27.0,,-,27,N/A,30.16,61.0,,11:47 PM,10.0,Calm,Calm,0,Los Angeles,California,90001
0,Clear,2016-02-07 08:47:00,27.0,,-,29,N/A,30.15,59.0,,12:47 AM,10.0,Calm,Calm,0,Los Angeles,California,90001
1,Clear,2016-02-07 09:47:00,30.0,,-,40,N/A,30.15,54.0,,1:47 AM,10.0,Calm,Calm,0,Los Angeles,California,90001
2,Clear,2016-02-07 10:47:00,30.0,,-,43,N/A,30.14,52.0,,2:47 AM,10.0,Calm,Calm,0,Los Angeles,California,90001
3,Clear,2016-02-07 11:47:00,28.9,,-,41,N/A,30.13,52.0,,3:47 AM,10.0,Calm,Calm,0,Los Angeles,California,90001
4,Clear,2016-02-07 12:47:00,26.1,,-,33,N/A,30.12,55.0,,4:47 AM,10.0,Calm,Calm,0,Los Angeles,California,90001
5,Clear,2016-02-07 13:47:00,26.1,,-,35,N/A,30.12,53.1,,5:47 AM,10.0,Calm,Calm,0,Los Angeles,California,90001
6,Clear,2016-02-07 14:47:00,28.0,,-,40,N/A,30.13,52.0,,6:47 AM,10.0,NNE,3.5,20,Los Angeles,California,90001
7,Clear,2016-02-07 15:47:00,25.0,,-,27,N/A,30.13,59.0,,7:47 AM,10.0,North,3.5,350,Los Angeles,California,90001
8,Clear,2016-02-07 16:47:00,24.1,,-,20,N/A,30.14,66.9,,8:47 AM,10.0,Variable,3.5,0,Los Angeles,California,90001
9,Clear,2016-02-07 17:47:00,25.0,,-,17,N/A,30.14,72.0,,9:47 AM,10.0,Calm,Calm,0,Los Angeles,California,90001
10,Clear,2016-02-07 18:47:00,23.0,,-,14,N/A,30.13,75.9,,10:47 AM,10.0,Calm,Calm,0,Los Angeles,California,90001
11,Clear,2016-02-07 19:47:00,25.0,,-,13,N/A,30.11,80.1,,11:47 AM,10.0,Calm,Calm,0,Los Angeles,California,90001
12,Clear,2016-02-07 20:47:00,24.1,,-,12,N/A,30.08,82.9,,12:47 PM,10.0,Calm,Calm,0,Los Angeles,California,90001
13,Clear,2016-02-07 21:47:00,21.9,,-,11,N/A,30.06,82.9,,1:47 PM,10.0,Calm,Calm,0,Los Angeles,California,90001
14,Clear,2016-02-07 22:47:00,24.1,,-,12,N/A,30.06,82.0,,2:47 PM,10.0,West,4.6,280,Los Angeles,California,90001
15,Clear,2016-02-07 23:47:00,21.0,,-,11,N/A,30.06,81.0,,3:47 PM,10.0,West,5.8,270,Los Angeles,California,90001
16,Clear,2016-02-08 00:47:00,21.9,,-,12,N/A,30.06,78.1,,4:47 PM,10.0,West,5.8,280,Los Angeles,California,90001
17,Clear,2016-02-08 01:47:00,27.0,,-,18,N/A,30.07,73.0,,5:47 PM,10.0,Calm,Calm,0,Los Angeles,California,90001
18,Clear,2016-02-08 02:47:00,30.0,,-,25,N/A,30.09,66.9,,6:47 PM,10.0,Calm,Calm,0,Los Angeles,California,90001
19,Clear,2016-02-08 03:47:00,30.9,,-,27,N/A,30.09,66.0,,7:47 PM,10.0,Calm,Calm,0,Los Angeles,California,90001
20,Clear,2016-02-08 04:47:00,33.1,,-,33,N/A,30.10,63.0,,8:47 PM,10.0,Calm,Calm,0,Los Angeles,California,90001
21,Clear,2016-02-08 05:47:00,34.0,,-,35,N/A,30.11,62.1,,9:47 PM,10.0,Calm,Calm,0,Los Angeles,California,90001
22,Clear,2016-02-08 06:47:00,35.1,,-,39,N/A,30.12,60.1,,10:47 PM,10.0,Calm,Calm,0,Los Angeles,California,90001
23,Clear,2016-02-08 07:47:00,35.1,,-,39,N/A,30.12,60.1,,11:47 PM,10.0,Calm,Calm,0,Los Angeles,California,90001
0,Clear,2016-02-08 08:47:00,36.0,,-,44,N/A,30.11,57.9,,12:47 AM,10.0,Calm,Calm,0,Los Angeles,California,90001
1,Clear,2016-02-08 09:47:00,37.0,,-,49,N/A,30.11,55.9,,1:47 AM,10.0,Calm,Calm,0,Los Angeles,California,90001
2,Clear,2016-02-08 10:47:00,36.0,,-,49,N/A,30.10,55.0,,2:47 AM,10.0,Calm,Calm,0,Los Angeles,California,90001
3,Clear,2016-02-08 11:47:00,35.1,,-,47,N/A,30.10,55.0,,3:47 AM,10.0,Calm,Calm,0,Los Angeles,California,90001
4,Clear,2016-02-08 12:47:00,36.0,,-,52,N/A,30.10,53.1,,4:47 AM,10.0,Calm,Calm,0,Los Angeles,California,90001
5,Clear,2016-02-08 13:47:00,36.0,,-,52,N/A,30.10,53.1,,5:47 AM,10.0,Calm,Calm,0,Los Angeles,California,90001
6,Clear,2016-02-08 14:47:00,36.0,,-,51,N/A,30.12,54.0,,6:47 AM,10.0,Calm,Calm,0,Los Angeles,California,90001
7,Clear,2016-02-08 15:47:00,37.9,,-,47,N/A,30.13,57.9,,7:47 AM,10.0,Calm,Calm,0,Los Angeles,California,90001
8,Clear,2016-02-08 16:47:00,37.0,,-,29,N/A,30.13,71.1,,8:47 AM,10.0,Calm,Calm,0,Los Angeles,California,90001
9,Clear,2016-02-08 17:47:00,33.1,,-,19,N/A,30.13,78.1,,9:47 AM,10.0,Calm,Calm,0,Los Angeles,California,90001
10,Clear,2016-02-08 18:47:00,26.1,,-,13,N/A,30.13,82.9,,10:47 AM,10.0,Calm,Calm,0,Los Angeles,California,90001
11,Clear,2016-02-08 19:47:00,23.0,,-,10,N/A,30.11,84.9,,11:47 AM,10.0,Calm,Calm,0,Los Angeles,California,90001
12,Clear,2016-02-08 20:47:00,24.1,,-,10,N/A,30.09,88.0,,12:47 PM,10.0,ENE,5.8,70,Los Angeles,California,90001
13,Clear,2016-02-08 21:47:00,21.9,,-,10,N/A,30.07,86.0,,1:47 PM,10.0,Calm,Calm,0,Los Angeles,California,90001
14,Clear,2016-02-08 22:47:00,21.9,,-,9,N/A,30.06,87.1,,2:47 PM,10.0,Calm,Calm,0,Los Angeles,California,90001
15,Clear,2016-02-08 23:47:00,24.1,,-,10,N/A,30.06,86.0,,3:47 PM,10.0,Variable,4.6,0,Los Angeles,California,90001
16,Clear,2016-02-09 00:47:00,28.9,,-,14,N/A,30.06,84.0,,4:47 PM,10.0,Calm,Calm,0,Los Angeles,California,90001
17,Clear,2016-02-09 01:47:00,33.1,,-,19,N/A,30.08,78.1,,5:47 PM,10.0,Calm,Calm,0,Los Angeles,California,90001
18,Clear,2016-02-09 02:47:00,30.9,,-,21,N/A,30.09,73.9,,6:47 PM,10.0,Calm,Calm,0,Los Angeles,California,90001
19,Clear,2016-02-09 03:47:00,33.1,,-,25,N/A,30.09,71.1,,7:47 PM,10.0,Calm,Calm,0,Los Angeles,California,90001
20,Clear,2016-02-09 04:47:00,35.1,,-,30,N/A,30.11,68.0,,8:47 PM,10.0,Calm,Calm,0,Los Angeles,California,90001
21,Clear,2016-02-09 05:47:00,36.0,,-,34,N/A,30.12,64.9,,9:47 PM,10.0,Calm,Calm,0,Los Angeles,California,90001
22,Clear,2016-02-09 06:47:00,35.1,,-,33,N/A,30.12,64.9,,10:47 PM,10.0,East,3.5,100,Los Angeles,California,90001
23,Clear,2016-02-09 07:47:00,34.0,,-,35,N/A,30.12,62.1,,11:47 PM,10.0,Calm,Calm,0,Los Angeles,California,90001
0,Clear,2016-02-09 08:47:00,33.1,,-,35,N/A,30.12,61.0,,12:47 AM,10.0,Calm,Calm,0,Los Angeles,California,90001
1,Clear,2016-02-09 09:47:00,30.9,,-,35,N/A,30.11,59.0,,1:47 AM,10.0,Calm,Calm,0,Los Angeles,California,90001
2,Clear,2016-02-09 10:47:00,33.1,,-,40,N/A,30.11,57.0,,2:47 AM,10.0,Calm,Calm,0,Los Angeles,California,90001
3,Clear,2016-02-09 11:47:00,32.0,,-,40,N/A,30.10,55.9,,3:47 AM,10.0,NNE,3.5,20,Los Angeles,California,90001
4,Clear,2016-02-09 12:47:00,28.9,,-,33,N/A,30.11,57.9,,4:47 AM,10.0,Calm,Calm,0,Los Angeles,California,90001
5,Clear,2016-02-09 13:47:00,30.0,,-,36,N/A,30.12,57.0,,5:47 AM,10.0,North,3.5,10,Los Angeles,California,90001
6,Clear,2016-02-09 14:47:00,28.9,,-,31,N/A,30.14,60.1,,6:47 AM,10.0,NNE,3.5,30,Los Angeles,California,90001
7,Clear,2016-02-09 15:47:00,30.0,,-,28,N/A,30.15,64.0,,7:47 AM,10.0,Calm,Calm,0,Los Angeles,California,90001
8,Clear,2016-02-09 16:47:00,30.0,,-,22,N/A,30.16,71.1,,8:47 AM,10.0,NNE,3.5,30,Los Angeles,California,90001
9,Clear,2016-02-09 17:47:00,30.0,,-,16,N/A,30.16,80.1,,9:47 AM,10.0,Calm,Calm,0,Los Angeles,California,90001
10,Clear,2016-02-09 18:47:00,28.9,,-,14,N/A,30.14,82.9,,10:47 AM,10.0,Calm,Calm,0,Los Angeles,California,90001
11,Haze,2016-02-09 19:47:00,28.9,,-,12,N/A,30.11,87.1,,11:47 AM,5.0,WSW,3.5,250,Los Angeles,California,90001
12,Clear,2016-02-09 20:47:00,24.1,,-,10,N/A,30.07,88.0,,12:47 PM,10.0,Calm,Calm,0,Los Angeles,California,90001
13,Clear,2016-02-09 21:47:00,27.0,,-,11,N/A,30.05,88.0,,1:47 PM,10.0,Calm,Calm,0,Los Angeles,California,90001
14,Clear,2016-02-09 22:47:00,26.1,,-,11,N/A,30.04,88.0,,2:47 PM,10.0,Calm,Calm,0,Los Angeles,California,90001
15,Clear,2016-02-09 23:47:00,30.0,,-,13,N/A,30.05,86.0,,3:47 PM,10.0,Calm,Calm,0,Los Angeles,California,90001
16,Clear,2016-02-10 00:47:00,30.0,,-,15,N/A,30.06,82.9,,4:47 PM,10.0,Calm,Calm,0,Los Angeles,California,90001
17,Clear,2016-02-10 01:47:00,30.9,,-,19,N/A,30.06,77.0,,5:47 PM,10.0,Calm,Calm,0,Los Angeles,California,90001
18,Clear,2016-02-10 02:47:00,32.0,,-,22,N/A,30.06,73.0,,6:47 PM,10.0,Calm,Calm,0,Los Angeles,California,90001
19,Clear,2016-02-10 03:47:00,37.0,,-,29,N/A,30.09,71.1,,7:47 PM,10.0,Calm,Calm,0,Los Angeles,California,90001
20,Clear,2016-02-10 04:47:00,39.0,,-,36,N/A,30.09,66.9,,8:47 PM,10.0,Calm,Calm,0,Los Angeles,California,90001
21,Clear,2016-02-10 05:47:00,39.9,,-,40,N/A,30.09,64.9,,9:47 PM,10.0,Calm,Calm,0,Los Angeles,California,90001
22,Clear,2016-02-10 06:47:00,41.0,,-,43,N/A,30.09,64.0,,10:47 PM,10.0,Calm,Calm,0,Los Angeles,California,90001
23,Clear,2016-02-10 07:47:00,35.1,,-,34,N/A,30.10,64.0,,11:47 PM,10.0,Calm,Calm,0,Los Angeles,California,90001
0,Clear,2016-02-10 08:47:00,37.9,,-,42,N/A,30.11,61.0,,12:47 AM,10.0,Calm,Calm,0,Los Angeles,California,90001
1,Clear,2016-02-10 09:47:00,30.9,,-,27,N/A,30.10,66.0,,1:47 AM,10.0,ENE,3.5,70,Los Angeles,California,90001
2,Clear,2016-02-10 10:47:00,28.0,,-,24,N/A,30.10,66.0,,2:47 AM,10.0,North,3.5,10,Los Angeles,California,90001
3,Clear,2016-02-10 11:47:00,28.9,,-,28,N/A,30.10,63.0,,3:47 AM,10.0,NNE,3.5,30,Los Angeles,California,90001
4,Clear,2016-02-10 12:47:00,28.9,,-,29,N/A,30.11,62.1,,4:47 AM,10.0,Calm,Calm,0,Los Angeles,California,90001
5,Clear,2016-02-10 13:47:00,28.9,,-,29,N/A,30.11,62.1,,5:47 AM,10.0,NE,3.5,40,Los Angeles,California,90001
6,Clear,2016-02-10 14:47:00,28.9,,-,30,N/A,30.12,61.0,,6:47 AM,10.0,NNE,3.5,30,Los Angeles,California,90001
7,Clear,2016-02-10 15:47:00,28.9,,-,27,N/A,30.13,64.0,,7:47 AM,10.0,Variable,3.5,0,Los Angeles,California,90001
8,Clear,2016-02-10 16:47:00,33.1,,-,26,N/A,30.14,70.0,,8:47 AM,10.0,Calm,Calm,0,Los Angeles,California,90001
9,Clear,2016-02-10 17:47:00,28.9,,-,18,N/A,30.15,75.9,,9:47 AM,8.0,NNE,3.5,20,Los Angeles,California,90001
10,Clear,2016-02-10 18:47:00,27.0,,-,13,N/A,30.14,82.0,,10:47 AM,10.0,Calm,Calm,0,Los Angeles,California,90001
11,Clear,2016-02-10 19:47:00,32.0,,-,14,N/A,30.12,86.0,,11:47 AM,10.0,Calm,Calm,0,Los Angeles,California,90001
12,Clear,2016-02-10 20:47:00,27.0,,-,11,N/A,30.07,88.0,,12:47 PM,10.0,Calm,Calm,0,Los Angeles,California,90001
13,Clear,2016-02-10 21:47:00,25.0,,-,11,N/A,30.06,84.9,,1:47 PM,10.0,Calm,Calm,0,Los Angeles,California,90001
14,Clear,2016-02-10 22:47:00,37.9,,-,18,N/A,30.04,86.0,,2:47 PM,10.0,Calm,Calm,0,Los Angeles,California,90001
15,Clear,2016-02-10 23:47:00,37.9,,-,21,N/A,30.05,81.0,,3:47 PM,10.0,Variable,3.5,0,Los Angeles,California,90001
16,Clear,2016-02-11 00:47:00,37.0,,-,26,N/A,30.06,73.9,,4:47 PM,10.0,West,5.8,280,Los Angeles,California,90001
17,Clear,2016-02-11 01:47:00,37.9,,-,31,N/A,30.07,70.0,,5:47 PM,10.0,Variable,3.5,0,Los Angeles,California,90001
18,Clear,2016-02-11 02:47:00,39.0,,-,35,N/A,30.08,68.0,,6:47 PM,10.0,Calm,Calm,0,Los Angeles,California,90001
19,Clear,2016-02-11 03:47:00,39.0,,-,37,N/A,30.08,66.0,,7:47 PM,10.0,Calm,Calm,0,Los Angeles,California,90001
20,Clear,2016-02-11 04:47:00,41.0,,-,43,N/A,30.08,64.0,,8:47 PM,10.0,Calm,Calm,0,Los Angeles,California,90001
21,Clear,2016-02-11 05:47:00,42.1,,-,48,N/A,30.09,62.1,,9:47 PM,10.0,Calm,Calm,0,Los Angeles,California,90001
22,Clear,2016-02-11 06:47:00,41.0,,-,46,N/A,30.09,62.1,,10:47 PM,10.0,Calm,Calm,0,Los Angeles,California,90001
23,Clear,2016-02-11 07:47:00,35.1,,-,34,N/A,30.08,64.0,,11:47 PM,10.0,Calm,Calm,0,Los Angeles,California,90001
0,Clear,2016-02-11 08:47:00,34.0,,-,33,N/A,30.08,64.0,,12:47 AM,10.0,NNE,3.5,20,Los Angeles,California,90001
1,Clear,2016-02-11 09:47:00,34.0,,-,33,N/A,30.07,64.0,,1:47 AM,10.0,NE,3.5,40,Los Angeles,California,90001
2,Clear,2016-02-11 10:47:00,34.0,,-,34,N/A,30.06,63.0,,2:47 AM,10.0,North,3.5,10,Los Angeles,California,90001
3,Clear,2016-02-11 11:47:00,33.1,,-,34,N/A,30.06,62.1,,3:47 AM,10.0,North,3.5,10,Los Angeles,California,90001
4,Clear,2016-02-11 12:47:00,32.0,,-,32,N/A,30.06,62.1,,4:47 AM,10.0,NE,3.5,40,Los Angeles,California,90001
5,Clear,2016-02-11 13:47:00,30.9,,-,31,N/A,30.07,62.1,,5:47 AM,10.0,Calm,Calm,0,Los Angeles,California,90001
6,Haze,2016-02-11 14:47:00,30.9,,-,31,N/A,30.08,62.1,,6:47 AM,6.0,NNE,3.5,20,Los Angeles,California,90001
7,Clear,2016-02-11 15:47:00,30.9,,-,28,N/A,30.09,64.9,,7:47 AM,10.0,North,3.5,10,Los Angeles,California,90001
8,Clear,2016-02-11 16:47:00,30.0,,-,21,N/A,30.10,72.0,,8:47 AM,10.0,NNE,3.5,30,Los Angeles,California,90001
9,Clear,2016-02-11 17:47:00,30.0,,-,18,N/A,30.10,77.0,,9:47 AM,10.0,Variable,4.6,0,Los Angeles,California,90001
10,Clear,2016-02-11 18:47:00,28.0,,-,14,N/A,30.11,82.0,,10:47 AM,10.0,Variable,4.6,0,Los Angeles,California,90001
11,Clear,2016-02-11 19:47:00,27.0,,-,12,N/A,30.08,84.9,,11:47 AM,10.0,East,4.6,100,Los Angeles,California,90001
12,Clear,2016-02-11 20:47:00,28.0,,-,12,N/A,30.05,87.1,,12:47 PM,10.0,SSE,5.8,150,Los Angeles,California,90001
13,Clear,2016-02-11 21:47:00,28.0,,-,12,N/A,30.03,86.0,,1:47 PM,10.0,Calm,Calm,0,Los Angeles,California,90001
14,Clear,2016-02-11 22:47:00,41.0,,-,23,N/A,30.03,82.0,,2:47 PM,10.0,Variable,3.5,0,Los Angeles,California,90001
15,Clear,2016-02-11 23:47:00,39.0,,-,25,N/A,30.05,78.1,,3:47 PM,10.0,Variable,3.5,0,Los Angeles,California,90001
16,Clear,2016-02-12 00:47:00,39.0,,-,29,N/A,30.06,73.0,,4:47 PM,10.0,Calm,Calm,0,Los Angeles,California,90001
17,Clear,2016-02-12 01:47:00,36.0,,-,29,N/A,30.07,70.0,,5:47 PM,10.0,Calm,Calm,0,Los Angeles,California,90001
18,Clear,2016-02-12 02:47:00,37.0,,-,32,N/A,30.09,68.0,,6:47 PM,10.0,Calm,Calm,0,Los Angeles,California,90001
19,Clear,2016-02-12 03:47:00,37.9,,-,36,N/A,30.09,66.0,,7:47 PM,10.0,Calm,Calm,0,Los Angeles,California,90001
20,Clear,2016-02-12 04:47:00,39.9,,-,40,N/A,30.10,64.9,,8:47 PM,10.0,Calm,Calm,0,Los Angeles,California,90001
21,Clear,2016-02-12 05:47:00,41.0,,-,45,N/A,30.09,63.0,,9:47 PM,10.0,Calm,Calm,0,Los Angeles,California,90001
22,Clear,2016-02-12 06:47:00,41.0,,-,46,N/A,30.10,62.1,,10:47 PM,10.0,Calm,Calm,0,Los Angeles,California,90001
23,Clear,2016-02-12 07:47:00,42.1,,-,51,N/A,30.10,60.1,,11:47 PM,10.0,Calm,Calm,0,Los Angeles,California,90001
0,Clear,2016-02-12 08:47:00,42.1,,-,53,N/A,30.10,59.0,,12:47 AM,10.0,Calm,Calm,0,Los Angeles,California,90001
1,Clear,2016-02-12 09:47:00,41.0,,-,53,N/A,30.09,57.9,,1:47 AM,10.0,Calm,Calm,0,Los Angeles,California,90001
2,Clear,2016-02-12 10:47:00,37.9,,-,42,N/A,30.08,61.0,,2:47 AM,10.0,NNE,3.5,30,Los Angeles,California,90001
3,Clear,2016-02-12 11:47:00,37.9,,-,49,N/A,30.07,57.0,,3:47 AM,10.0,Calm,Calm,0,Los Angeles,California,90001
4,Clear,2016-02-12 12:47:00,39.0,,-,53,N/A,30.07,55.9,,4:47 AM,10.0,Calm,Calm,0,Los Angeles,California,90001
5,Clear,2016-02-12 13:47:00,37.0,,-,46,N/A,30.08,57.9,,5:47 AM,10.0,Calm,Calm,0,Los Angeles,California,90001
6,Clear,2016-02-12 14:47:00,36.0,,-,45,N/A,30.09,57.0,,6:47 AM,10.0,Calm,Calm,0,Los Angeles,California,90001
7,Clear,2016-02-12 15:47:00,37.0,,-,41,N/A,30.10,61.0,,7:47 AM,10.0,Calm,Calm,0,Los Angeles,California,90001
8,Clear,2016-02-12 16:47:00,42.1,,-,39,N/A,30.11,68.0,,8:47 AM,10.0,Calm,Calm,0,Los Angeles,California,90001
9,Clear,2016-02-12 17:47:00,35.1,,-,23,N/A,30.10,75.0,,9:47 AM,10.0,Calm,Calm,0,Los Angeles,California,90001
10,Clear,2016-02-12 18:47:00,33.1,,-,18,N/A,30.09,80.1,,10:47 AM,10.0,Calm,Calm,0,Los Angeles,California,90001
11,Clear,2016-02-12 19:47:00,28.9,,-,14,N/A,30.07,84.0,,11:47 AM,10.0,Calm,Calm,0,Los Angeles,California,90001
12,Clear,2016-02-12 20:47:00,30.9,,-,14,N/A,30.04,84.9,,12:47 PM,10.0,Calm,Calm,0,Los Angeles,California,90001
13,Clear,2016-02-12 21:47:00,45.0,,-,25,N/A,30.01,84.0,,1:47 PM,10.0,West,3.5,270,Los Angeles,California,90001
14,Clear,2016-02-12 22:47:00,41.0,,-,25,N/A,30.01,80.1,,2:47 PM,8.0,North,-9999.0,0,Los Angeles,California,90001
15,Clear,2016-02-12 23:47:00,37.0,,-,23,N/A,30.02,78.1,,3:47 PM,10.0,Variable,3.5,0,Los Angeles,California,90001
16,Clear,2016-02-13 00:47:00,46.0,,-,38,N/A,30.03,73.0,,4:47 PM,10.0,Calm,Calm,0,Los Angeles,California,90001
17,Clear,2016-02-13 01:47:00,45.0,,-,43,N/A,30.04,68.0,,5:47 PM,10.0,Calm,Calm,0,Los Angeles,California,90001
18,Clear,2016-02-13 02:47:00,46.9,,-,52,N/A,30.05,64.9,,6:47 PM,10.0,West,3.5,270,Los Angeles,California,90001
19,Clear,2016-02-13 03:47:00,50.0,,-,65,N/A,30.05,62.1,,7:47 PM,10.0,Calm,Calm,0,Los Angeles,California,90001
20,Clear,2016-02-13 04:47:00,53.1,,-,75,N/A,30.06,61.0,,8:47 PM,10.0,Calm,Calm,0,Los Angeles,California,90001
21,Clear,2016-02-13 05:47:00,54.0,,-,80,N/A,30.07,60.1,,9:47 PM,10.0,Calm,Calm,0,Los Angeles,California,90001
22,Clear,2016-02-13 06:47:00,54.0,,-,83,N/A,30.08,59.0,,10:47 PM,10.0,Calm,Calm,0,Los Angeles,California,90001
23,Clear,2016-02-13 07:47:00,53.1,,-,84,N/A,30.08,57.9,,11:47 PM,10.0,Calm,Calm,0,Los Angeles,California,90001
0,Clear,2016-02-13 08:47:00,53.1,,-,87,N/A,30.07,57.0,,12:47 AM,9.0,Calm,Calm,0,Los Angeles,California,90001
1,Clear,2016-02-13 09:47:00,53.1,,-,87,N/A,30.07,57.0,,1:47 AM,8.0,Calm,Calm,0,Los Angeles,California,90001
2,Clear,2016-02-13 10:47:00,52.0,,-,89,N/A,30.07,55.0,,2:47 AM,8.0,Calm,Calm,0,Los Angeles,California,90001
3,Clear,2016-02-13 11:47:00,51.1,,-,90,N/A,30.07,54.0,,3:47 AM,8.0,Calm,Calm,0,Los Angeles,California,90001
4,Clear,2016-02-13 12:47:00,50.0,,-,89,N/A,30.07,53.1,,4:47 AM,8.0,Calm,Calm,0,Los Angeles,California,90001
5,Clear,2016-02-13 13:47:00,48.9,,-,89,N/A,30.09,52.0,,5:47 AM,9.0,Calm,Calm,0,Los Angeles,California,90001
6,Clear,2016-02-13 14:47:00,48.9,,-,89,N/A,30.10,52.0,,6:47 AM,9.0,Calm,Calm,0,Los Angeles,California,90001
7,Clear,2016-02-13 15:47:00,48.9,,-,83,N/A,30.10,54.0,,7:47 AM,10.0,Calm,Calm,0,Los Angeles,California,90001
8,Clear,2016-02-13 16:47:00,50.0,,-,67,N/A,30.09,61.0,,8:47 AM,7.0,Calm,Calm,0,Los Angeles,California,90001
9,Haze,2016-02-13 17:47:00,46.9,,-,49,N/A,30.09,66.9,,9:47 AM,5.0,Calm,Calm,0,Los Angeles,California,90001
10,Haze,2016-02-13 18:47:00,45.0,,-,37,N/A,30.07,73.0,,10:47 AM,5.0,Calm,Calm,0,Los Angeles,California,90001
11,Haze,2016-02-13 19:47:00,52.0,,-,44,N/A,30.04,75.0,,11:47 AM,5.0,Calm,Calm,0,Los Angeles,California,90001
12,Haze,2016-02-13 20:47:00,52.0,,-,46,N/A,30.04,73.9,,12:47 PM,5.0,Variable,3.5,0,Los Angeles,California,90001
13,Haze,2016-02-13 21:47:00,51.1,,-,53,N/A,30.04,69.1,,1:47 PM,5.0,Variable,3.5,0,Los Angeles,California,90001
14,Haze,2016-02-13 22:47:00,48.0,,-,44,N/A,30.03,71.1,,2:47 PM,5.0,Variable,3.5,0,Los Angeles,California,90001
15,Haze,2016-02-13 23:47:00,51.1,,-,57,N/A,30.02,66.9,,3:47 PM,6.0,Variable,4.6,0,Los Angeles,California,90001
16,Haze,2016-02-14 00:47:00,52.0,,-,67,N/A,30.03,63.0,,4:47 PM,5.0,Variable,3.5,0,Los Angeles,California,90001
17,Haze,2016-02-14 01:47:00,51.1,,-,70,N/A,30.02,61.0,,5:47 PM,5.0,West,4.6,270,Los Angeles,California,90001
18,Haze,2016-02-14 02:47:00,52.0,,-,78,N/A,30.04,59.0,,6:47 PM,5.0,Calm,Calm,0,Los Angeles,California,90001
19,Haze,2016-02-14 03:47:00,52.0,,-,83,N/A,30.04,57.0,,7:47 PM,4.0,Calm,Calm,0,Los Angeles,California,90001
20,Clear,2016-02-14 04:47:00,52.0,,-,89,N/A,30.05,55.0,,8:47 PM,3.0,Calm,Calm,0,Los Angeles,California,90001
21,Clear,2016-02-14 05:14:00,52.0,,-,89,N/A,30.05,55.0,,9:14 PM,2.5,Calm,Calm,0,Los Angeles,California,90001
22,Partly Cloudy,2016-02-14 05:21:00,52.0,,-,93,N/A,30.05,54.0,,9:21 PM,2.0,Variable,3.5,0,Los Angeles,California,90001
23,Scattered Clouds,2016-02-14 05:26:00,52.0,,-,93,N/A,30.06,54.0,,9:26 PM,1.8,Calm,Calm,0,Los Angeles,California,90001
24,Mostly Cloudy,2016-02-14 05:29:00,52.0,,-,93,N/A,30.06,54.0,,9:29 PM,1.5,Calm,Calm,0,Los Angeles,California,90001
25,Mostly Cloudy,2016-02-14 05:39:00,53.1,,-,97,N/A,30.06,54.0,,9:39 PM,0.8,Calm,Calm,0,Los Angeles,California,90001
26,Fog,2016-02-14 05:47:00,53.1,Fog,-,100,N/A,30.07,53.1,,9:47 PM,0.5,Calm,Calm,0,Los Angeles,California,90001
27,Mostly Cloudy,2016-02-14 06:01:00,53.1,,-,97,N/A,30.07,54.0,,10:01 PM,1.2,Calm,Calm,0,Los Angeles,California,90001
28,Scattered Clouds,2016-02-14 06:12:00,52.0,,-,96,N/A,30.06,53.1,,10:12 PM,1.8,Calm,Calm,0,Los Angeles,California,90001
29,Mist,2016-02-14 06:30:00,52.0,,-,96,N/A,30.06,53.1,,10:30 PM,1.0,Calm,Calm,0,Los Angeles,California,90001
30,Fog,2016-02-14 06:34:00,52.0,Fog,-,96,N/A,30.06,53.1,,10:34 PM,0.5,Calm,Calm,0,Los Angeles,California,90001
31,Fog,2016-02-14 06:47:00,52.0,Fog,-,96,N/A,30.06,53.1,,10:47 PM,0.2,Calm,Calm,0,Los Angeles,California,90001
32,Mostly Cloudy,2016-02-14 06:59:00,52.0,,-,96,N/A,30.06,53.1,,10:59 PM,1.2,Calm,Calm,0,Los Angeles,California,90001
33,Scattered Clouds,2016-02-14 07:05:00,52.0,,-,96,N/A,30.06,53.1,,11:05 PM,1.5,Calm,Calm,0,Los Angeles,California,90001
34,Clear,2016-02-14 07:20:00,52.0,,-,96,N/A,30.05,53.1,,11:20 PM,2.0,Calm,Calm,0,Los Angeles,California,90001
35,Clear,2016-02-14 07:47:00,52.0,,-,96,N/A,30.05,53.1,,11:47 PM,2.5,Calm,Calm,0,Los Angeles,California,90001
0,Clear,2016-02-14 08:47:00,50.0,,-,93,N/A,30.05,52.0,,12:47 AM,2.5,Calm,Calm,0,Los Angeles,California,90001
1,Clear,2016-02-14 08:50:00,50.0,,-,89,N/A,30.05,53.1,,12:50 AM,3.0,Calm,Calm,0,Los Angeles,California,90001
2,Clear,2016-02-14 09:47:00,48.9,,-,89,N/A,30.05,52.0,,1:47 AM,3.0,Calm,Calm,0,Los Angeles,California,90001
3,Clear,2016-02-14 10:26:00,48.9,,-,92,N/A,30.05,51.1,,2:26 AM,2.5,Calm,Calm,0,Los Angeles,California,90001
4,Clear,2016-02-14 10:37:00,48.9,,-,92,N/A,30.04,51.1,,2:37 AM,3.0,Calm,Calm,0,Los Angeles,California,90001
5,Clear,2016-02-14 10:47:00,48.9,,-,92,N/A,30.04,51.1,,2:47 AM,3.0,Calm,Calm,0,Los Angeles,California,90001
6,Clear,2016-02-14 11:09:00,48.9,,-,92,N/A,30.04,51.1,,3:09 AM,2.5,Calm,Calm,0,Los Angeles,California,90001
7,Clear,2016-02-14 11:17:00,48.9,,-,92,N/A,30.04,51.1,,3:17 AM,3.0,Calm,Calm,0,Los Angeles,California,90001
8,Clear,2016-02-14 11:47:00,48.0,,-,93,N/A,30.04,50.0,,3:47 AM,3.0,Calm,Calm,0,Los Angeles,California,90001
9,Clear,2016-02-14 11:55:00,48.0,,-,93,N/A,30.03,50.0,,3:55 AM,2.5,Calm,Calm,0,Los Angeles,California,90001
10,Clear,2016-02-14 12:13:00,48.0,,-,97,N/A,30.04,48.9,,4:13 AM,3.0,Calm,Calm,0,Los Angeles,California,90001
11,Clear,2016-02-14 12:47:00,46.9,,-,89,N/A,30.04,50.0,,4:47 AM,3.0,Calm,Calm,0,Los Angeles,California,90001
12,Clear,2016-02-14 12:51:00,46.9,,-,93,N/A,30.04,48.9,,4:51 AM,2.5,Calm,Calm,0,Los Angeles,California,90001
13,Clear,2016-02-14 12:57:00,46.9,,-,93,N/A,30.04,48.9,,4:57 AM,3.0,Calm,Calm,0,Los Angeles,California,90001
14,Clear,2016-02-14 13:47:00,46.0,,-,93,N/A,30.04,48.0,,5:47 AM,4.0,Calm,Calm,0,Los Angeles,California,90001
15,Clear,2016-02-14 14:47:00,45.0,,-,89,N/A,30.05,48.0,,6:47 AM,3.0,Calm,Calm,0,Los Angeles,California,90001
16,Clear,2016-02-14 15:01:00,46.9,,-,93,N/A,30.05,48.9,,7:01 AM,2.5,Calm,Calm,0,Los Angeles,California,90001
17,Clear,2016-02-14 15:06:00,46.0,,-,90,N/A,30.04,48.9,,7:06 AM,3.0,Calm,Calm,0,Los Angeles,California,90001
18,Clear,2016-02-14 15:47:00,48.0,,-,86,N/A,30.05,52.0,,7:47 AM,3.0,Calm,Calm,0,Los Angeles,California,90001
19,Clear,2016-02-14 16:08:00,50.0,,-,89,N/A,30.06,53.1,,8:08 AM,2.0,Calm,Calm,0,Los Angeles,California,90001
20,Clear,2016-02-14 16:13:00,51.1,,-,93,N/A,30.06,53.1,,8:13 AM,1.5,Calm,Calm,0,Los Angeles,California,90001
21,Clear,2016-02-14 16:35:00,52.0,,-,87,N/A,30.05,55.9,,8:35 AM,2.0,Calm,Calm,0,Los Angeles,California,90001
22,Haze,2016-02-14 16:47:00,52.0,,-,81,N/A,30.05,57.9,,8:47 AM,2.5,Calm,Calm,0,Los Angeles,California,90001
23,Haze,2016-02-14 17:01:00,50.0,,-,72,N/A,30.05,59.0,,9:01 AM,3.0,Calm,Calm,0,Los Angeles,California,90001
24,Haze,2016-02-14 17:28:00,50.0,,-,65,N/A,30.05,62.1,,9:28 AM,2.5,Calm,Calm,0,Los Angeles,California,90001
25,Haze,2016-02-14 17:47:00,51.1,,-,63,N/A,30.05,64.0,,9:47 AM,2.5,Calm,Calm,0,Los Angeles,California,90001
26,Haze,2016-02-14 18:00:00,50.0,,-,58,N/A,30.05,64.9,,10:00 AM,3.0,Calm,Calm,0,Los Angeles,California,90001
27,Haze,2016-02-14 18:47:00,48.9,,-,45,N/A,30.04,71.1,,10:47 AM,3.0,Calm,Calm,0,Los Angeles,California,90001
28,Haze,2016-02-14 19:47:00,48.0,,-,36,N/A,30.02,77.0,,11:47 AM,4.0,Calm,Calm,0,Los Angeles,California,90001
29,Haze,2016-02-14 20:47:00,52.0,,-,42,N/A,29.99,77.0,,12:47 PM,5.0,Calm,Calm,0,Los Angeles,California,90001
30,Clear,2016-02-14 21:47:00,51.1,,-,38,N/A,29.97,79.0,,1:47 PM,7.0,Calm,Calm,0,Los Angeles,California,90001
31,Clear,2016-02-14 22:47:00,48.0,,-,36,N/A,29.95,77.0,,2:47 PM,10.0,WNW,3.5,290,Los Angeles,California,90001
32,Clear,2016-02-14 23:47:00,45.0,,-,33,N/A,29.95,75.9,,3:47 PM,10.0,West,4.6,280,Los Angeles,California,90001
33,Clear,2016-02-15 00:47:00,46.9,,-,37,N/A,29.94,75.0,,4:47 PM,10.0,Calm,Calm,0,Los Angeles,California,90001
34,Clear,2016-02-15 01:47:00,46.0,,-,42,N/A,29.95,70.0,,5:47 PM,10.0,Calm,Calm,0,Los Angeles,California,90001
35,Clear,2016-02-15 02:47:00,50.0,,-,54,N/A,29.96,66.9,,6:47 PM,10.0,Calm,Calm,0,Los Angeles,California,90001
36,Clear,2016-02-15 03:47:00,51.1,,-,65,N/A,29.98,63.0,,7:47 PM,10.0,Calm,Calm,0,Los Angeles,California,90001
37,Clear,2016-02-15 04:47:00,50.0,,-,56,N/A,29.98,66.0,,8:47 PM,10.0,Calm,Calm,0,Los Angeles,California,90001
38,Clear,2016-02-15 05:47:00,51.1,,-,70,N/A,29.99,61.0,,9:47 PM,9.0,Calm,Calm,0,Los Angeles,California,90001
39,Clear,2016-02-15 06:47:00,51.1,,-,67,N/A,29.99,62.1,,10:47 PM,9.0,Calm,Calm,0,Los Angeles,California,90001
40,Clear,2016-02-15 07:47:00,51.1,,-,70,N/A,29.99,61.0,,11:47 PM,10.0,Calm,Calm,0,Los Angeles,California,90001
0,Clear,2016-02-15 08:47:00,50.0,,-,69,N/A,29.99,60.1,,12:47 AM,10.0,Calm,Calm,0,Los Angeles,California,90001
1,Clear,2016-02-15 09:47:00,48.9,,-,72,N/A,29.98,57.9,,1:47 AM,9.0,Calm,Calm,0,Los Angeles,California,90001
2,Clear,2016-02-15 11:47:00,46.0,,-,67,N/A,29.96,57.0,,3:47 AM,10.0,Calm,Calm,0,Los Angeles,California,90001
3,Clear,2016-02-15 12:47:00,44.1,,-,62,N/A,29.95,57.0,,4:47 AM,10.0,Calm,Calm,0,Los Angeles,California,90001
4,Clear,2016-02-15 13:47:00,44.1,,-,67,N/A,29.97,55.0,,5:47 AM,10.0,Calm,Calm,0,Los Angeles,California,90001
5,Clear,2016-02-15 14:47:00,42.1,,-,57,N/A,29.97,57.0,,6:47 AM,10.0,Variable,3.5,0,Los Angeles,California,90001
6,Clear,2016-02-15 15:47:00,42.1,,-,48,N/A,29.98,62.1,,7:47 AM,10.0,Calm,Calm,0,Los Angeles,California,90001
7,Clear,2016-02-15 16:47:00,45.0,,-,38,N/A,29.99,72.0,,8:47 AM,10.0,Calm,Calm,0,Los Angeles,California,90001
8,Clear,2016-02-15 17:47:00,42.1,,-,27,N/A,29.98,79.0,,9:47 AM,10.0,Calm,Calm,0,Los Angeles,California,90001
9,Clear,2016-02-15 18:47:00,37.0,,-,19,N/A,29.97,84.0,,10:47 AM,10.0,Calm,Calm,0,Los Angeles,California,90001
10,Clear,2016-02-15 19:47:00,34.0,,-,15,N/A,29.95,87.1,,11:47 AM,10.0,Calm,Calm,0,Los Angeles,California,90001
11,Clear,2016-02-15 20:47:00,37.0,,-,16,N/A,29.92,88.0,,12:47 PM,10.0,Variable,3.5,0,Los Angeles,California,90001
12,Clear,2016-02-15 21:47:00,37.0,,-,17,N/A,29.89,87.1,,1:47 PM,10.0,Calm,Calm,0,Los Angeles,California,90001
13,Clear,2016-02-15 22:47:00,44.1,,-,22,N/A,29.88,87.1,,2:47 PM,10.0,Variable,4.6,0,Los Angeles,California,90001
14,Clear,2016-02-15 23:47:00,42.1,,-,23,N/A,29.88,84.0,,3:47 PM,10.0,West,3.5,280,Los Angeles,California,90001
15,Clear,2016-02-16 00:47:00,39.9,,-,22,N/A,29.88,82.0,,4:47 PM,10.0,West,4.6,270,Los Angeles,California,90001
16,Clear,2016-02-16 01:47:00,41.0,,-,28,N/A,29.89,77.0,,5:47 PM,10.0,Calm,Calm,0,Los Angeles,California,90001
17,Clear,2016-02-16 02:47:00,43.0,,-,34,N/A,29.90,73.0,,6:47 PM,10.0,Calm,Calm,0,Los Angeles,California,90001
18,Clear,2016-02-16 03:47:00,45.0,,-,42,N/A,29.91,69.1,,7:47 PM,10.0,Calm,Calm,0,Los Angeles,California,90001
19,Clear,2016-02-16 04:47:00,46.9,,-,45,N/A,29.92,69.1,,8:47 PM,10.0,Calm,Calm,0,Los Angeles,California,90001
20,Clear,2016-02-16 05:47:00,48.0,,-,52,N/A,29.93,66.0,,9:47 PM,10.0,Calm,Calm,0,Los Angeles,California,90001
21,Clear,2016-02-16 06:47:00,48.0,,-,54,N/A,29.93,64.9,,10:47 PM,10.0,Calm,Calm,0,Los Angeles,California,90001
22,Clear,2016-02-16 07:47:00,48.0,,-,56,N/A,29.94,64.0,,11:47 PM,10.0,Calm,Calm,0,Los Angeles,California,90001
0,Clear,2016-02-16 08:47:00,46.0,,-,54,N/A,29.94,63.0,,12:47 AM,10.0,Calm,Calm,0,Los Angeles,California,90001
1,Clear,2016-02-16 09:47:00,45.0,,-,56,N/A,29.93,61.0,,1:47 AM,10.0,Calm,Calm,0,Los Angeles,California,90001
2,Clear,2016-02-16 10:47:00,45.0,,-,60,N/A,29.92,59.0,,2:47 AM,10.0,Calm,Calm,0,Los Angeles,California,90001
3,Clear,2016-02-16 11:47:00,44.1,,-,58,N/A,29.92,59.0,,3:47 AM,10.0,Calm,Calm,0,Los Angeles,California,90001
4,Clear,2016-02-16 12:47:00,41.0,,-,53,N/A,29.91,57.9,,4:47 AM,10.0,Calm,Calm,0,Los Angeles,California,90001
5,Clear,2016-02-16 13:47:00,37.0,,-,41,N/A,29.93,61.0,,5:47 AM,10.0,Calm,Calm,0,Los Angeles,California,90001
6,Clear,2016-02-16 14:47:00,34.0,,-,35,N/A,29.93,62.1,,6:47 AM,10.0,NNE,3.5,20,Los Angeles,California,90001
7,Clear,2016-02-16 15:47:00,34.0,,-,30,N/A,29.92,66.9,,7:47 AM,10.0,North,3.5,10,Los Angeles,California,90001
8,Clear,2016-02-16 16:47:00,33.1,,-,22,N/A,29.93,75.0,,8:47 AM,10.0,Calm,Calm,0,Los Angeles,California,90001
9,Clear,2016-02-16 17:47:00,32.0,,-,16,N/A,29.92,82.0,,9:47 AM,10.0,North,4.6,350,Los Angeles,California,90001
10,Clear,2016-02-16 18:47:00,33.1,,-,16,N/A,29.91,84.9,,10:47 AM,10.0,East,3.5,100,Los Angeles,California,90001
11,Clear,2016-02-16 19:47:00,32.0,,-,14,N/A,29.88,88.0,,11:47 AM,10.0,Calm,Calm,0,Los Angeles,California,90001
12,Clear,2016-02-16 20:47:00,34.0,,-,15,N/A,29.85,88.0,,12:47 PM,10.0,Calm,Calm,0,Los Angeles,California,90001
13,Clear,2016-02-16 21:47:00,33.1,,-,14,N/A,29.81,89.1,,1:47 PM,10.0,Variable,3.5,0,Los Angeles,California,90001
14,Clear,2016-02-16 22:47:00,34.0,,-,14,N/A,29.80,89.1,,2:47 PM,10.0,North,-9999.0,0,Los Angeles,California,90001
15,Clear,2016-02-16 23:47:00,39.9,,-,22,N/A,29.80,82.9,,3:47 PM,10.0,West,4.6,270,Los Angeles,California,90001
16,Clear,2016-02-17 00:47:00,39.0,,-,25,N/A,29.81,78.1,,4:47 PM,10.0,West,5.8,260,Los Angeles,California,90001
17,Clear,2016-02-17 01:47:00,37.0,,-,25,N/A,29.81,75.0,,5:47 PM,10.0,West,5.8,280,Los Angeles,California,90001
18,Clear,2016-02-17 02:47:00,39.0,,-,30,N/A,29.81,72.0,,6:47 PM,10.0,Calm,Calm,0,Los Angeles,California,90001
19,Clear,2016-02-17 03:47:00,41.0,,-,35,N/A,29.82,70.0,,7:47 PM,10.0,Variable,3.5,0,Los Angeles,California,90001
20,Clear,2016-02-17 04:47:00,45.0,,-,45,N/A,29.83,66.9,,8:47 PM,10.0,Calm,Calm,0,Los Angeles,California,90001
21,Clear,2016-02-17 05:47:00,48.9,,-,58,N/A,29.83,64.0,,9:47 PM,10.0,Calm,Calm,0,Los Angeles,California,90001
22,Clear,2016-02-17 06:47:00,48.9,,-,60,N/A,29.84,63.0,,10:47 PM,10.0,Calm,Calm,0,Los Angeles,California,90001
23,Clear,2016-02-17 07:47:00,48.9,,-,56,N/A,29.85,64.9,,11:47 PM,10.0,East,3.5,100,Los Angeles,California,90001
0,Clear,2016-02-17 08:47:00,46.0,,-,56,N/A,29.84,62.1,,12:47 AM,10.0,Calm,Calm,0,Los Angeles,California,90001
1,Clear,2016-02-17 09:47:00,39.9,,-,41,N/A,29.83,64.0,,1:47 AM,10.0,Calm,Calm,0,Los Angeles,California,90001
2,Clear,2016-02-17 10:47:00,44.1,,-,58,N/A,29.85,59.0,,2:47 AM,10.0,Calm,Calm,0,Los Angeles,California,90001
3,Clear,2016-02-17 11:47:00,43.0,,-,53,N/A,29.84,60.1,,3:47 AM,10.0,Calm,Calm,0,Los Angeles,California,90001
4,Clear,2016-02-17 12:47:00,41.0,,-,46,N/A,29.83,62.1,,4:47 AM,10.0,Calm,Calm,0,Los Angeles,California,90001
5,Clear,2016-02-17 13:47:00,43.0,,-,59,N/A,29.83,57.0,,5:47 AM,10.0,Calm,Calm,0,Los Angeles,California,90001
6,Clear,2016-02-17 14:47:00,43.0,,-,59,N/A,29.85,57.0,,6:47 AM,10.0,Calm,Calm,0,Los Angeles,California,90001
7,Clear,2016-02-17 15:47:00,43.0,,-,52,N/A,29.86,61.0,,7:47 AM,10.0,Calm,Calm,0,Los Angeles,California,90001
8,Clear,2016-02-17 16:47:00,44.1,,-,40,N/A,29.86,69.1,,8:47 AM,10.0,Calm,Calm,0,Los Angeles,California,90001
9,Clear,2016-02-17 17:47:00,37.9,,-,29,N/A,29.86,72.0,,9:47 AM,10.0,Variable,5.8,0,Los Angeles,California,90001
10,Unknown,2016-02-17 18:47:00,39.0,,-,27,N/A,29.85,75.0,,10:47 AM,-9999.0,North,-9999.0,0,Los Angeles,California,90001
11,Clear,2016-02-17 19:47:00,39.0,,-,28,N/A,29.84,73.9,,11:47 AM,10.0,Variable,3.5,0,Los Angeles,California,90001
12,Clear,2016-02-17 20:47:00,48.0,,-,44,N/A,29.83,71.1,,12:47 PM,10.0,Calm,Calm,0,Los Angeles,California,90001
13,Light Rain,2016-02-17 21:47:00,55.0,Rain,-,66,0.00,29.83,66.9,,1:47 PM,10.0,West,4.6,270,Los Angeles,California,90001
14,Light Rain,2016-02-17 22:47:00,57.0,Rain,-,78,0.00,29.82,64.0,,2:47 PM,6.0,Calm,Calm,0,Los Angeles,California,90001
15,Light Rain,2016-02-17 23:47:00,59.0,Rain,-,84,0.02,29.85,64.0,,3:47 PM,6.0,West,3.5,270,Los Angeles,California,90001
16,Rain,2016-02-18 00:15:00,59.0,Rain,-,90,0.03,29.84,62.1,,4:15 PM,2.5,Calm,Calm,0,Los Angeles,California,90001
17,Light Rain,2016-02-18 00:26:00,59.0,Rain,-,90,0.05,29.83,62.1,,4:26 PM,4.0,North,4.6,10,Los Angeles,California,90001
18,Light Rain,2016-02-18 00:47:00,59.0,Rain,-,93,0.08,29.84,61.0,,4:47 PM,3.0,Variable,3.5,0,Los Angeles,California,90001
19,Rain,2016-02-18 01:07:00,60.1,Rain,-,93,0.02,29.86,62.1,,5:07 PM,2.0,West,3.5,280,Los Angeles,California,90001
20,Rain,2016-02-18 01:29:00,60.1,Rain,-,93,0.05,29.88,62.1,,5:29 PM,3.0,Variable,3.5,0,Los Angeles,California,90001
21,Rain,2016-02-18 01:33:00,60.1,Rain,-,97,0.06,29.89,61.0,,5:33 PM,2.5,WNW,3.5,300,Los Angeles,California,90001
22,Rain,2016-02-18 01:42:00,57.9,Rain,-,90,0.09,29.89,61.0,,5:42 PM,3.0,Calm,Calm,0,Los Angeles,California,90001
23,Light Rain,2016-02-18 01:47:00,57.9,Rain,-,90,0.09,29.90,61.0,,5:47 PM,4.0,Calm,Calm,0,Los Angeles,California,90001
24,Rain,2016-02-18 02:47:00,53.1,Rain,-,84,0.08,29.90,57.9,,6:47 PM,5.0,NE,3.5,40,Los Angeles,California,90001
25,Rain,2016-02-18 03:47:00,51.1,Rain,-,81,0.13,29.91,57.0,,7:47 PM,6.0,NE,3.5,50,Los Angeles,California,90001
26,Rain,2016-02-18 04:47:00,51.1,Rain,-,84,0.10,29.88,55.9,,8:47 PM,5.0,East,6.9,100,Los Angeles,California,90001
27,Overcast,2016-02-18 05:47:00,50.0,,-,77,0.08,29.91,57.0,,9:47 PM,10.0,East,6.9,90,Los Angeles,California,90001
28,Overcast,2016-02-18 06:47:00,48.0,,17.3,72,N/A,29.87,57.0,,10:47 PM,10.0,East,10.4,90,Los Angeles,California,90001
29,Overcast,2016-02-18 07:47:00,48.9,,-,72,0.00,29.90,57.9,,11:47 PM,10.0,Variable,3.5,0,Los Angeles,California,90001
0,Overcast,2016-02-18 08:47:00,50.0,,-,75,0.00,29.88,57.9,,12:47 AM,10.0,East,4.6,100,Los Angeles,California,90001
1,Overcast,2016-02-18 09:47:00,48.9,,-,69,0.00,29.89,59.0,,1:47 AM,10.0,Calm,Calm,0,Los Angeles,California,90001
2,Overcast,2016-02-18 10:47:00,48.9,,-,74,N/A,29.90,57.0,,2:47 AM,10.0,Variable,3.5,0,Los Angeles,California,90001
3,Overcast,2016-02-18 11:17:00,48.9,,-,72,N/A,29.90,57.9,,3:17 AM,10.0,Variable,3.5,0,Los Angeles,California,90001
4,Overcast,2016-02-18 11:47:00,50.0,,-,75,0.00,29.89,57.9,,3:47 AM,10.0,Variable,4.6,0,Los Angeles,California,90001
5,Overcast,2016-02-18 12:47:00,53.1,,-,87,0.00,29.90,57.0,,4:47 AM,10.0,East,6.9,100,Los Angeles,California,90001
6,Overcast,2016-02-18 12:51:00,53.1,,-,87,N/A,29.90,57.0,,4:51 AM,10.0,East,6.9,100,Los Angeles,California,90001
7,Light Rain,2016-02-18 13:47:00,54.0,Rain,-,89,0.03,29.91,57.0,,5:47 AM,6.0,East,6.9,80,Los Angeles,California,90001
8,Light Rain,2016-02-18 14:05:00,54.0,Rain,-,89,0.00,29.92,57.0,,6:05 AM,9.0,Calm,Calm,0,Los Angeles,California,90001
9,Heavy Rain,2016-02-18 14:30:00,55.0,Rain,-,93,0.03,29.92,57.0,,6:30 AM,2.5,East,4.6,100,Los Angeles,California,90001
10,Rain,2016-02-18 14:47:00,55.0,Rain,-,93,0.12,29.93,57.0,,6:47 AM,2.5,East,5.8,90,Los Angeles,California,90001
11,Rain,2016-02-18 14:55:00,55.0,Rain,-,93,0.02,29.93,57.0,,6:55 AM,3.0,Calm,Calm,0,Los Angeles,California,90001
12,Light Rain,2016-02-18 15:01:00,55.9,Rain,-,96,0.04,29.94,57.0,,7:01 AM,2.5,Calm,Calm,0,Los Angeles,California,90001
13,Light Rain,2016-02-18 15:04:00,55.9,Rain,-,96,0.05,29.94,57.0,,7:04 AM,3.0,Calm,Calm,0,Los Angeles,California,90001
14,Light Rain,2016-02-18 15:08:00,55.9,Rain,-,96,0.05,29.95,57.0,,7:08 AM,2.5,Calm,Calm,0,Los Angeles,California,90001
15,Light Rain,2016-02-18 15:16:00,55.9,Rain,-,96,0.05,29.95,57.0,,7:16 AM,2.0,Calm,Calm,0,Los Angeles,California,90001
16,Light Rain,2016-02-18 15:19:00,55.9,Rain,-,96,0.05,29.95,57.0,,7:19 AM,2.0,Calm,Calm,0,Los Angeles,California,90001
17,Light Rain,2016-02-18 15:22:00,55.9,Rain,-,93,0.05,29.95,57.9,,7:22 AM,2.5,Calm,Calm,0,Los Angeles,California,90001
18,Light Rain,2016-02-18 15:36:00,55.9,Rain,-,93,0.06,29.97,57.9,,7:36 AM,3.0,Calm,Calm,0,Los Angeles,California,90001
19,Light Rain,2016-02-18 15:42:00,55.9,Rain,-,93,0.06,29.97,57.9,,7:42 AM,5.0,Calm,Calm,0,Los Angeles,California,90001
20,Overcast,2016-02-18 15:47:00,55.9,,-,93,0.06,29.97,57.9,,7:47 AM,6.0,SE,4.6,140,Los Angeles,California,90001
21,Light Rain,2016-02-18 15:50:00,55.9,Rain,-,93,0.00,29.98,57.9,,7:50 AM,5.0,Calm,Calm,0,Los Angeles,California,90001
22,Light Rain,2016-02-18 15:53:00,55.9,Rain,-,93,0.00,29.98,57.9,,7:53 AM,6.0,Calm,Calm,0,Los Angeles,California,90001
23,Mostly Cloudy,2016-02-18 16:30:00,57.0,,-,93,0.00,30.00,59.0,,8:30 AM,6.0,Calm,Calm,0,Los Angeles,California,90001
24,Mostly Cloudy,2016-02-18 16:33:00,57.0,,-,93,0.00,30.00,59.0,,8:33 AM,6.0,Calm,Calm,0,Los Angeles,California,90001
25,Mostly Cloudy,2016-02-18 16:38:00,57.0,,-,93,0.00,30.00,59.0,,8:38 AM,6.0,Calm,Calm,0,Los Angeles,California,90001
26,Mostly Cloudy,2016-02-18 16:47:00,57.0,,-,90,0.00,30.01,60.1,,8:47 AM,7.0,Calm,Calm,0,Los Angeles,California,90001
27,Overcast,2016-02-18 16:59:00,57.0,,-,90,N/A,30.00,60.1,,8:59 AM,9.0,Calm,Calm,0,Los Angeles,California,90001
28,Overcast,2016-02-18 17:03:00,55.9,,-,86,N/A,30.01,60.1,,9:03 AM,9.0,Variable,3.5,0,Los Angeles,California,90001
29,Overcast,2016-02-18 17:26:00,55.0,,-,83,N/A,30.02,60.1,,9:26 AM,10.0,Variable,3.5,0,Los Angeles,California,90001
30,Overcast,2016-02-18 17:32:00,55.0,,-,81,N/A,30.02,61.0,,9:32 AM,10.0,Calm,Calm,0,Los Angeles,California,90001
31,Overcast,2016-02-18 17:35:00,55.0,,-,81,N/A,30.02,61.0,,9:35 AM,10.0,West,4.6,280,Los Angeles,California,90001
32,Overcast,2016-02-18 17:47:00,55.0,,-,78,N/A,30.02,62.1,,9:47 AM,10.0,Calm,Calm,0,Los Angeles,California,90001
33,Mostly Cloudy,2016-02-18 18:47:00,54.0,,-,63,N/A,30.03,66.9,,10:47 AM,10.0,Calm,Calm,0,Los Angeles,California,90001
34,Scattered Clouds,2016-02-18 18:56:00,52.0,,-,60,N/A,30.03,66.0,,10:56 AM,10.0,Calm,Calm,0,Los Angeles,California,90001
35,Mostly Cloudy,2016-02-18 19:47:00,52.0,,-,59,N/A,30.01,66.9,,11:47 AM,10.0,Calm,Calm,0,Los Angeles,California,90001
36,Clear,2016-02-18 20:47:00,50.0,,-,54,N/A,29.98,66.9,,12:47 PM,10.0,Calm,Calm,0,Los Angeles,California,90001
37,Clear,2016-02-18 21:47:00,48.9,,-,54,N/A,29.95,66.0,,1:47 PM,10.0,Variable,6.9,0,Los Angeles,California,90001
38,Clear,2016-02-18 22:47:00,46.9,,-,50,N/A,29.96,66.0,,2:47 PM,10.0,North,-9999.0,0,Los Angeles,California,90001
39,Clear,2016-02-18 23:47:00,46.9,,-,52,N/A,29.96,64.9,,3:47 PM,10.0,Calm,Calm,0,Los Angeles,California,90001
40,Clear,2016-02-19 00:47:00,46.9,,-,56,N/A,29.96,63.0,,4:47 PM,10.0,Variable,5.8,0,Los Angeles,California,90001
41,Clear,2016-02-19 01:47:00,48.9,,-,62,N/A,29.98,62.1,,5:47 PM,10.0,Calm,Calm,0,Los Angeles,California,90001
42,Scattered Clouds,2016-02-19 02:47:00,52.0,,-,75,N/A,30.01,60.1,,6:47 PM,10.0,Calm,Calm,0,Los Angeles,California,90001
43,Clear,2016-02-19 03:47:00,52.0,,-,78,N/A,30.02,59.0,,7:47 PM,10.0,Calm,Calm,0,Los Angeles,California,90001
44,Clear,2016-02-19 04:47:00,52.0,,-,81,N/A,30.04,57.9,,8:47 PM,10.0,SE,3.5,130,Los Angeles,California,90001
45,Clear,2016-02-19 05:47:00,52.0,,-,81,N/A,30.04,57.9,,9:47 PM,10.0,Calm,Calm,0,Los Angeles,California,90001
46,Clear,2016-02-19 06:47:00,52.0,,-,81,N/A,30.03,57.9,,10:47 PM,10.0,Calm,Calm,0,Los Angeles,California,90001
47,Clear,2016-02-19 07:47:00,51.1,,-,81,N/A,30.03,57.0,,11:47 PM,10.0,East,3.5,100,Los Angeles,California,90001
0,Clear,2016-02-19 08:47:00,51.1,,-,81,N/A,30.03,57.0,,12:47 AM,10.0,Calm,Calm,0,Los Angeles,California,90001
1,Clear,2016-02-19 09:47:00,51.1,,-,86,N/A,30.03,55.0,,1:47 AM,10.0,Calm,Calm,0,Los Angeles,California,90001
2,Clear,2016-02-19 10:47:00,50.0,,-,89,N/A,30.04,53.1,,2:47 AM,10.0,Calm,Calm,0,Los Angeles,California,90001
3,Clear,2016-02-19 11:47:00,48.9,,-,86,N/A,30.04,53.1,,3:47 AM,10.0,Calm,Calm,0,Los Angeles,California,90001
4,Clear,2016-02-19 12:47:00,48.0,,-,86,N/A,30.04,52.0,,4:47 AM,10.0,Calm,Calm,0,Los Angeles,California,90001
5,Clear,2016-02-19 13:47:00,46.9,,-,86,N/A,30.07,51.1,,5:47 AM,10.0,Calm,Calm,0,Los Angeles,California,90001
6,Clear,2016-02-19 14:47:00,46.9,,-,83,N/A,30.07,52.0,,6:47 AM,10.0,Calm,Calm,0,Los Angeles,California,90001
7,Clear,2016-02-19 15:47:00,48.0,,-,77,N/A,30.10,55.0,,7:47 AM,10.0,Calm,Calm,0,Los Angeles,California,90001
8,Clear,2016-02-19 16:47:00,48.9,,-,64,N/A,30.10,61.0,,8:47 AM,10.0,Calm,Calm,0,Los Angeles,California,90001
9,Clear,2016-02-19 17:47:00,48.0,,-,58,N/A,30.11,63.0,,9:47 AM,10.0,Calm,Calm,0,Los Angeles,California,90001
10,Clear,2016-02-19 18:47:00,48.0,,-,52,N/A,30.12,66.0,,10:47 AM,10.0,Variable,3.5,0,Los Angeles,California,90001
11,Clear,2016-02-19 19:47:00,48.0,,-,49,N/A,30.10,68.0,,11:47 AM,10.0,Calm,Calm,0,Los Angeles,California,90001
12,Clear,2016-02-19 20:47:00,48.0,,-,51,N/A,30.07,66.9,,12:47 PM,10.0,Calm,Calm,0,Los Angeles,California,90001
13,Clear,2016-02-19 21:47:00,50.0,,-,52,N/A,30.07,68.0,,1:47 PM,10.0,Variable,4.6,0,Los Angeles,California,90001
14,Clear,2016-02-19 22:47:00,48.9,,-,52,N/A,30.05,66.9,,2:47 PM,10.0,Calm,Calm,0,Los Angeles,California,90001
15,Clear,2016-02-19 23:47:00,45.0,,-,48,N/A,30.05,64.9,,3:47 PM,10.0,Variable,3.5,0,Los Angeles,California,90001
16,Clear,2016-02-20 00:47:00,45.0,,-,52,N/A,30.05,63.0,,4:47 PM,10.0,Variable,3.5,0,Los Angeles,California,90001
17,Clear,2016-02-20 01:47:00,48.9,,-,64,N/A,30.06,61.0,,5:47 PM,10.0,Calm,Calm,0,Los Angeles,California,90001
18,Clear,2016-02-20 02:47:00,50.0,,-,72,N/A,30.07,59.0,,6:47 PM,10.0,Calm,Calm,0,Los Angeles,California,90001
19,Clear,2016-02-20 03:47:00,51.1,,-,78,N/A,30.08,57.9,,7:47 PM,10.0,Calm,Calm,0,Los Angeles,California,90001
20,Clear,2016-02-20 04:47:00,52.0,,-,81,N/A,30.10,57.9,,8:47 PM,10.0,Calm,Calm,0,Los Angeles,California,90001
21,Clear,2016-02-20 05:47:00,52.0,,-,83,N/A,30.12,57.0,,9:47 PM,10.0,Calm,Calm,0,Los Angeles,California,90001
22,Clear,2016-02-20 06:47:00,52.0,,-,87,N/A,30.12,55.9,,10:47 PM,10.0,Calm,Calm,0,Los Angeles,California,90001
23,Clear,2016-02-20 07:47:00,52.0,,-,87,N/A,30.12,55.9,,11:47 PM,10.0,Calm,Calm,0,Los Angeles,California,90001
0,Clear,2016-02-20 08:47:00,50.0,,-,80,N/A,30.11,55.9,,12:47 AM,10.0,Calm,Calm,0,Los Angeles,California,90001
1,Clear,2016-02-20 09:47:00,48.9,,-,77,N/A,30.10,55.9,,1:47 AM,10.0,Variable,3.5,0,Los Angeles,California,90001
2,Clear,2016-02-20 10:47:00,48.0,,-,77,N/A,30.07,55.0,,2:47 AM,10.0,Calm,Calm,0,Los Angeles,California,90001
3,Clear,2016-02-20 11:47:00,48.0,,-,83,N/A,30.06,53.1,,3:47 AM,10.0,Calm,Calm,0,Los Angeles,California,90001
4,Clear,2016-02-20 12:47:00,46.0,,-,77,N/A,30.06,53.1,,4:47 AM,10.0,Calm,Calm,0,Los Angeles,California,90001
5,Clear,2016-02-20 13:47:00,46.0,,-,86,N/A,30.07,50.0,,5:47 AM,10.0,Calm,Calm,0,Los Angeles,California,90001
6,Clear,2016-02-20 14:47:00,46.0,,-,86,N/A,30.09,50.0,,6:47 AM,10.0,Calm,Calm,0,Los Angeles,California,90001
7,Clear,2016-02-20 15:47:00,46.0,,-,75,N/A,30.11,54.0,,7:47 AM,10.0,Calm,Calm,0,Los Angeles,California,90001
8,Clear,2016-02-20 16:47:00,45.0,,-,60,N/A,30.12,59.0,,8:47 AM,10.0,Calm,Calm,0,Los Angeles,California,90001
9,Clear,2016-02-20 17:47:00,46.0,,-,52,N/A,30.12,64.0,,9:47 AM,10.0,Calm,Calm,0,Los Angeles,California,90001
10,Clear,2016-02-20 18:47:00,44.1,,-,40,N/A,30.10,69.1,,10:47 AM,10.0,Calm,Calm,0,Los Angeles,California,90001
11,Clear,2016-02-20 19:47:00,44.1,,-,38,N/A,30.09,71.1,,11:47 AM,10.0,Calm,Calm,0,Los Angeles,California,90001
12,Clear,2016-02-20 20:47:00,46.0,,-,41,N/A,30.06,71.1,,12:47 PM,10.0,Calm,Calm,0,Los Angeles,California,90001
13,Clear,2016-02-20 21:47:00,45.0,,-,42,N/A,30.04,69.1,,1:47 PM,10.0,West,6.9,280,Los Angeles,California,90001
14,Clear,2016-02-20 22:47:00,46.0,,-,45,N/A,30.02,68.0,,2:47 PM,10.0,Variable,3.5,0,Los Angeles,California,90001
15,Clear,2016-02-20 23:47:00,48.9,,-,52,N/A,30.02,66.9,,3:47 PM,10.0,Variable,3.5,0,Los Angeles,California,90001
16,Clear,2016-02-21 00:47:00,48.0,,-,56,N/A,30.03,64.0,,4:47 PM,10.0,West,6.9,270,Los Angeles,California,90001
17,Clear,2016-02-21 01:47:00,48.9,,-,64,N/A,30.04,61.0,,5:47 PM,10.0,Variable,4.6,0,Los Angeles,California,90001
18,Clear,2016-02-21 02:47:00,50.0,,-,69,N/A,30.05,60.1,,6:47 PM,10.0,West,3.5,280,Los Angeles,California,90001
19,Clear,2016-02-21 03:47:00,52.0,,-,81,N/A,30.06,57.9,,7:47 PM,10.0,Calm,Calm,0,Los Angeles,California,90001
20,Clear,2016-02-21 04:47:00,52.0,,-,83,N/A,30.07,57.0,,8:47 PM,10.0,Calm,Calm,0,Los Angeles,California,90001
21,Clear,2016-02-21 05:47:00,51.1,,-,81,N/A,30.08,57.0,,9:47 PM,10.0,Calm,Calm,0,Los Angeles,California,90001
22,Clear,2016-02-21 06:47:00,51.1,,-,84,N/A,30.09,55.9,,10:47 PM,10.0,Calm,Calm,0,Los Angeles,California,90001
23,Clear,2016-02-21 07:47:00,51.1,,-,84,N/A,30.09,55.9,,11:47 PM,10.0,Calm,Calm,0,Los Angeles,California,90001
0,Clear,2016-02-21 08:47:00,51.1,,-,90,N/A,30.09,54.0,,12:47 AM,10.0,Calm,Calm,0,Los Angeles,California,90001
1,Clear,2016-02-21 09:47:00,50.0,,-,89,N/A,30.08,53.1,,1:47 AM,10.0,Calm,Calm,0,Los Angeles,California,90001
2,Clear,2016-02-21 10:47:00,48.9,,-,89,N/A,30.07,52.0,,2:47 AM,10.0,Calm,Calm,0,Los Angeles,California,90001
3,Clear,2016-02-21 11:47:00,48.0,,-,89,N/A,30.07,51.1,,3:47 AM,10.0,Calm,Calm,0,Los Angeles,California,90001
4,Clear,2016-02-21 12:47:00,46.9,,-,86,N/A,30.07,51.1,,4:47 AM,10.0,Calm,Calm,0,Los Angeles,California,90001
5,Clear,2016-02-21 13:47:00,46.0,,-,86,N/A,30.08,50.0,,5:47 AM,10.0,Calm,Calm,0,Los Angeles,California,90001
6,Clear,2016-02-21 14:47:00,46.0,,-,86,N/A,30.08,50.0,,6:47 AM,10.0,Calm,Calm,0,Los Angeles,California,90001
7,Clear,2016-02-21 15:47:00,46.0,,-,72,N/A,30.09,55.0,,7:47 AM,10.0,Calm,Calm,0,Los Angeles,California,90001
8,Clear,2016-02-21 16:47:00,46.0,,-,58,N/A,30.10,61.0,,8:47 AM,10.0,Calm,Calm,0,Los Angeles,California,90001
9,Clear,2016-02-21 17:47:00,46.9,,-,52,N/A,30.09,64.9,,9:47 AM,10.0,Calm,Calm,0,Los Angeles,California,90001
10,Clear,2016-02-21 18:47:00,46.0,,-,44,N/A,30.09,69.1,,10:47 AM,10.0,Calm,Calm,0,Los Angeles,California,90001
11,Clear,2016-02-21 19:47:00,45.0,,-,38,N/A,30.07,72.0,,11:47 AM,10.0,Calm,Calm,0,Los Angeles,California,90001
12,Clear,2016-02-21 20:47:00,51.1,,-,49,N/A,30.05,71.1,,12:47 PM,10.0,Variable,4.6,0,Los Angeles,California,90001
13,Clear,2016-02-21 21:47:00,48.0,,-,46,N/A,30.03,70.0,,1:47 PM,10.0,Calm,Calm,0,Los Angeles,California,90001
14,Clear,2016-02-21 22:47:00,48.9,,-,49,N/A,30.02,69.1,,2:47 PM,10.0,Variable,3.5,0,Los Angeles,California,90001
15,Clear,2016-02-21 23:47:00,50.0,,-,54,N/A,30.03,66.9,,3:47 PM,10.0,Calm,Calm,0,Los Angeles,California,90001
16,Clear,2016-02-22 00:47:00,54.0,,-,70,N/A,30.03,64.0,,4:47 PM,10.0,Calm,Calm,0,Los Angeles,California,90001
17,Clear,2016-02-22 01:47:00,55.0,,-,78,N/A,30.03,62.1,,5:47 PM,10.0,Calm,Calm,0,Los Angeles,California,90001
18,Clear,2016-02-22 02:47:00,55.0,,-,83,N/A,30.04,60.1,,6:47 PM,10.0,Calm,Calm,0,Los Angeles,California,90001
19,Clear,2016-02-22 03:47:00,54.0,,-,80,N/A,30.05,60.1,,7:47 PM,10.0,Calm,Calm,0,Los Angeles,California,90001
20,Clear,2016-02-22 04:47:00,53.1,,-,81,N/A,30.05,59.0,,8:47 PM,10.0,Calm,Calm,0,Los Angeles,California,90001
21,Clear,2016-02-22 05:47:00,53.1,,-,84,N/A,30.04,57.9,,9:47 PM,10.0,Calm,Calm,0,Los Angeles,California,90001
22,Clear,2016-02-22 06:47:00,53.1,,-,87,N/A,30.04,57.0,,10:47 PM,10.0,Calm,Calm,0,Los Angeles,California,90001
23,Clear,2016-02-22 07:47:00,52.0,,-,89,N/A,30.04,55.0,,11:47 PM,9.0,Calm,Calm,0,Los Angeles,California,90001
0,Clear,2016-02-22 08:47:00,53.1,,-,87,N/A,30.02,57.0,,12:47 AM,9.0,ESE,3.5,120,Los Angeles,California,90001
1,Clear,2016-02-22 09:47:00,52.0,,-,87,N/A,30.01,55.9,,1:47 AM,9.0,Calm,Calm,0,Los Angeles,California,90001
2,Clear,2016-02-22 10:47:00,51.1,,-,86,N/A,29.99,55.0,,2:47 AM,5.0,Calm,Calm,0,Los Angeles,California,90001
3,Clear,2016-02-22 11:47:00,50.0,,-,93,N/A,29.99,52.0,,3:47 AM,8.0,Calm,Calm,0,Los Angeles,California,90001
4,Clear,2016-02-22 12:47:00,48.9,,-,92,N/A,29.98,51.1,,4:47 AM,8.0,Calm,Calm,0,Los Angeles,California,90001
5,Clear,2016-02-22 13:47:00,48.0,,-,89,N/A,29.98,51.1,,5:47 AM,8.0,Calm,Calm,0,Los Angeles,California,90001
6,Clear,2016-02-22 14:47:00,46.0,,-,83,N/A,29.99,51.1,,6:47 AM,10.0,Calm,Calm,0,Los Angeles,California,90001
7,Clear,2016-02-22 15:47:00,45.0,,-,67,N/A,30.00,55.9,,7:47 AM,10.0,East,3.5,100,Los Angeles,California,90001
8,Clear,2016-02-22 16:47:00,46.0,,-,56,N/A,29.99,62.1,,8:47 AM,10.0,Calm,Calm,0,Los Angeles,California,90001
9,Clear,2016-02-22 17:47:00,48.9,,-,52,N/A,29.98,66.9,,9:47 AM,7.0,Variable,4.6,0,Los Angeles,California,90001
10,Clear,2016-02-22 18:47:00,46.0,,-,41,N/A,29.99,71.1,,10:47 AM,9.0,East,4.6,90,Los Angeles,California,90001
11,Clear,2016-02-22 19:47:00,44.1,,-,32,N/A,29.96,75.9,,11:47 AM,9.0,Variable,3.5,0,Los Angeles,California,90001
12,Clear,2016-02-22 20:47:00,45.0,,-,31,N/A,29.93,78.1,,12:47 PM,10.0,West,6.9,270,Los Angeles,California,90001
13,Clear,2016-02-22 21:47:00,48.9,,-,41,N/A,29.92,73.9,,1:47 PM,10.0,Calm,Calm,0,Los Angeles,California,90001
14,Clear,2016-02-22 22:47:00,50.0,,-,40,N/A,29.90,75.9,,2:47 PM,10.0,Calm,Calm,0,Los Angeles,California,90001
15,Clear,2016-02-22 23:47:00,48.9,,-,36,N/A,29.89,78.1,,3:47 PM,10.0,South,3.5,170,Los Angeles,California,90001
16,Clear,2016-02-23 00:47:00,51.1,,-,45,N/A,29.89,73.9,,4:47 PM,10.0,Calm,Calm,0,Los Angeles,California,90001
17,Clear,2016-02-23 01:47:00,52.0,,-,53,N/A,29.89,70.0,,5:47 PM,10.0,Calm,Calm,0,Los Angeles,California,90001
18,Clear,2016-02-23 02:47:00,54.0,,-,61,N/A,29.91,68.0,,6:47 PM,10.0,Calm,Calm,0,Los Angeles,California,90001
19,Clear,2016-02-23 03:47:00,48.9,,-,52,N/A,29.92,66.9,,7:47 PM,10.0,Calm,Calm,0,Los Angeles,California,90001
20,Clear,2016-02-23 04:47:00,27.0,,-,20,N/A,29.93,70.0,,8:47 PM,10.0,Variable,3.5,0,Los Angeles,California,90001
21,Clear,2016-02-23 05:47:00,21.9,,-,16,N/A,29.94,70.0,,9:47 PM,10.0,Variable,3.5,0,Los Angeles,California,90001
22,Clear,2016-02-23 06:47:00,23.0,,-,18,N/A,29.92,68.0,,10:47 PM,10.0,Calm,Calm,0,Los Angeles,California,90001
23,Clear,2016-02-23 07:47:00,28.0,,-,26,N/A,29.91,64.0,,11:47 PM,10.0,Calm,Calm,0,Los Angeles,California,90001
0,Clear,2016-02-23 08:47:00,28.0,,-,28,N/A,29.91,62.1,,12:47 AM,10.0,Calm,Calm,0,Los Angeles,California,90001
1,Clear,2016-02-23 09:47:00,25.0,,-,24,N/A,29.91,63.0,,1:47 AM,10.0,Variable,3.5,0,Los Angeles,California,90001
2,Clear,2016-02-23 10:47:00,27.0,,-,28,N/A,29.91,60.1,,2:47 AM,10.0,NNE,3.5,20,Los Angeles,California,90001
3,Clear,2016-02-23 11:47:00,26.1,,-,26,N/A,29.91,61.0,,3:47 AM,10.0,Calm,Calm,0,Los Angeles,California,90001
4,Clear,2016-02-23 12:47:00,30.9,,-,39,N/A,29.92,55.9,,4:47 AM,10.0,Calm,Calm,0,Los Angeles,California,90001
5,Clear,2016-02-23 13:47:00,33.1,,-,43,N/A,29.94,55.0,,5:47 AM,10.0,Calm,Calm,0,Los Angeles,California,90001
6,Clear,2016-02-23 14:47:00,33.1,,-,40,N/A,29.95,57.0,,6:47 AM,9.0,Calm,Calm,0,Los Angeles,California,90001
7,Clear,2016-02-23 15:47:00,34.0,,-,33,N/A,29.98,64.0,,7:47 AM,10.0,Calm,Calm,0,Los Angeles,California,90001
8,Clear,2016-02-23 16:47:00,28.0,,-,20,N/A,29.99,72.0,,8:47 AM,10.0,Variable,3.5,0,Los Angeles,California,90001
9,Clear,2016-02-23 17:47:00,25.0,,-,15,N/A,29.99,75.9,,9:47 AM,10.0,Variable,5.8,0,Los Angeles,California,90001
10,Clear,2016-02-23 18:47:00,24.1,,-,14,N/A,30.00,78.1,,10:47 AM,10.0,Variable,3.5,0,Los Angeles,California,90001
11,Clear,2016-02-23 19:47:00,23.0,,-,11,N/A,29.99,82.0,,11:47 AM,10.0,NNE,3.5,20,Los Angeles,California,90001
12,Clear,2016-02-23 20:47:00,23.0,,-,12,N/A,29.96,81.0,,12:47 PM,10.0,Calm,Calm,0,Los Angeles,California,90001
13,Clear,2016-02-23 21:47:00,26.1,,-,13,N/A,29.94,82.0,,1:47 PM,10.0,Variable,3.5,0,Los Angeles,California,90001
14,Clear,2016-02-23 22:47:00,37.9,,-,21,N/A,29.94,81.0,,2:47 PM,10.0,Variable,3.5,0,Los Angeles,California,90001
15,Clear,2016-02-23 23:47:00,41.0,,-,29,N/A,29.95,75.9,,3:47 PM,10.0,Variable,4.6,0,Los Angeles,California,90001
16,Clear,2016-02-24 00:47:00,35.1,,-,23,N/A,29.95,75.0,,4:47 PM,10.0,West,5.8,280,Los Angeles,California,90001
17,Clear,2016-02-24 01:47:00,34.0,,-,24,N/A,29.98,73.0,,5:47 PM,10.0,WNW,3.5,290,Los Angeles,California,90001
18,Clear,2016-02-24 02:47:00,34.0,,-,27,N/A,29.98,70.0,,6:47 PM,10.0,Calm,Calm,0,Los Angeles,California,90001
19,Clear,2016-02-24 03:47:00,36.0,,-,30,N/A,30.00,69.1,,7:47 PM,10.0,Calm,Calm,0,Los Angeles,California,90001
20,Clear,2016-02-24 04:47:00,37.9,,-,36,N/A,30.03,66.0,,8:47 PM,10.0,Calm,Calm,0,Los Angeles,California,90001
21,Clear,2016-02-24 05:47:00,37.9,,-,34,N/A,30.04,66.9,,9:47 PM,10.0,Calm,Calm,0,Los Angeles,California,90001
22,Clear,2016-02-24 06:47:00,33.1,,-,28,N/A,30.05,66.9,,10:47 PM,10.0,ENE,3.5,60,Los Angeles,California,90001
23,Clear,2016-02-24 07:47:00,27.0,,-,23,N/A,30.06,66.0,,11:47 PM,10.0,Calm,Calm,0,Los Angeles,California,90001
0,Clear,2016-02-24 08:47:00,28.0,,-,26,N/A,30.06,64.0,,12:47 AM,10.0,North,4.6,10,Los Angeles,California,90001
1,Clear,2016-02-24 09:47:00,28.0,,-,28,N/A,30.07,62.1,,1:47 AM,10.0,North,3.5,10,Los Angeles,California,90001
2,Clear,2016-02-24 10:47:00,28.9,,-,30,N/A,30.06,61.0,,2:47 AM,10.0,North,3.5,10,Los Angeles,California,90001
3,Clear,2016-02-24 11:47:00,26.1,,-,27,N/A,30.06,60.1,,3:47 AM,10.0,North,3.5,10,Los Angeles,California,90001
4,Clear,2016-02-24 12:47:00,26.1,,-,27,N/A,30.07,60.1,,4:47 AM,10.0,NNE,3.5,20,Los Angeles,California,90001
5,Clear,2016-02-24 13:47:00,27.0,,-,31,N/A,30.08,57.9,,5:47 AM,10.0,NNE,3.5,30,Los Angeles,California,90001
6,Clear,2016-02-24 14:47:00,26.1,,-,30,N/A,30.10,57.9,,6:47 AM,10.0,NNE,3.5,20,Los Angeles,California,90001
7,Clear,2016-02-24 15:47:00,27.0,,-,26,N/A,30.12,62.1,,7:47 AM,10.0,NNE,3.5,30,Los Angeles,California,90001
8,Clear,2016-02-24 16:47:00,25.0,,-,20,N/A,30.13,68.0,,8:47 AM,10.0,North,3.5,10,Los Angeles,California,90001
9,Clear,2016-02-24 17:47:00,28.9,,-,19,N/A,30.12,73.9,,9:47 AM,10.0,Calm,Calm,0,Los Angeles,California,90001
10,Clear,2016-02-24 18:47:00,25.0,,-,15,N/A,30.12,75.9,,10:47 AM,10.0,Calm,Calm,0,Los Angeles,California,90001
11,Clear,2016-02-24 19:47:00,24.1,,-,14,N/A,30.08,78.1,,11:47 AM,10.0,Calm,Calm,0,Los Angeles,California,90001
12,Clear,2016-02-24 20:47:00,25.0,,-,14,N/A,30.05,78.1,,12:47 PM,10.0,Calm,Calm,0,Los Angeles,California,90001
13,Clear,2016-02-24 21:47:00,26.1,,-,14,N/A,30.03,80.1,,1:47 PM,10.0,Calm,Calm,0,Los Angeles,California,90001
14,Clear,2016-02-24 22:47:00,26.1,,-,13,N/A,30.01,81.0,,2:47 PM,10.0,Calm,Calm,0,Los Angeles,California,90001
15,Clear,2016-02-24 23:47:00,23.0,,-,12,N/A,29.99,81.0,,3:47 PM,10.0,NNW,3.5,340,Los Angeles,California,90001
16,Clear,2016-02-25 00:47:00,26.1,,-,15,N/A,30.00,78.1,,4:47 PM,10.0,West,3.5,270,Los Angeles,California,90001
17,Clear,2016-02-25 01:47:00,24.1,,-,16,N/A,30.01,73.0,,5:47 PM,10.0,Variable,3.5,0,Los Angeles,California,90001
18,Clear,2016-02-25 02:47:00,25.0,,-,18,N/A,30.02,70.0,,6:47 PM,10.0,Calm,Calm,0,Los Angeles,California,90001
19,Clear,2016-02-25 03:47:00,30.0,,-,24,N/A,30.03,68.0,,7:47 PM,10.0,Calm,Calm,0,Los Angeles,California,90001
20,Clear,2016-02-25 04:47:00,33.1,,-,29,N/A,30.04,66.0,,8:47 PM,10.0,Calm,Calm,0,Los Angeles,California,90001
21,Clear,2016-02-25 05:47:00,37.0,,-,38,N/A,30.05,63.0,,9:47 PM,10.0,Calm,Calm,0,Los Angeles,California,90001
22,Clear,2016-02-25 06:47:00,36.0,,-,38,N/A,30.04,62.1,,10:47 PM,10.0,Calm,Calm,0,Los Angeles,California,90001
23,Clear,2016-02-25 07:47:00,28.0,,-,27,N/A,30.04,63.0,,11:47 PM,10.0,NNE,3.5,30,Los Angeles,California,90001
0,Clear,2016-02-25 08:47:00,27.0,,-,26,N/A,30.05,63.0,,12:47 AM,10.0,Calm,Calm,0,Los Angeles,California,90001
1,Clear,2016-02-25 09:47:00,28.9,,-,30,N/A,30.03,61.0,,1:47 AM,10.0,NNE,3.5,20,Los Angeles,California,90001
2,Clear,2016-02-25 10:47:00,28.0,,-,30,N/A,30.02,60.1,,2:47 AM,10.0,North,4.6,10,Los Angeles,California,90001
3,Clear,2016-02-25 11:47:00,30.9,,-,37,N/A,30.02,57.0,,3:47 AM,10.0,Calm,Calm,0,Los Angeles,California,90001
4,Clear,2016-02-25 12:47:00,28.0,,-,31,N/A,30.04,59.0,,4:47 AM,10.0,Variable,3.5,0,Los Angeles,California,90001
5,Clear,2016-02-25 13:47:00,28.0,,-,31,N/A,30.05,59.0,,5:47 AM,10.0,NNE,3.5,30,Los Angeles,California,90001
6,Clear,2016-02-25 14:47:00,28.0,,-,31,N/A,30.05,59.0,,6:47 AM,10.0,North,4.6,10,Los Angeles,California,90001
7,Clear,2016-02-25 15:47:00,28.9,,-,29,N/A,30.07,62.1,,7:47 AM,10.0,NNE,3.5,20,Los Angeles,California,90001
8,Clear,2016-02-25 16:47:00,28.0,,-,21,N/A,30.08,70.0,,8:47 AM,10.0,North,4.6,360,Los Angeles,California,90001
9,Clear,2016-02-25 17:47:00,27.0,,-,16,N/A,30.07,75.9,,9:47 AM,10.0,Calm,Calm,0,Los Angeles,California,90001
10,Clear,2016-02-25 18:47:00,28.0,,-,15,N/A,30.07,79.0,,10:47 AM,10.0,Calm,Calm,0,Los Angeles,California,90001
11,Clear,2016-02-25 19:47:00,27.0,,-,13,N/A,30.05,82.0,,11:47 AM,10.0,Calm,Calm,0,Los Angeles,California,90001
12,Clear,2016-02-25 20:47:00,24.1,,-,12,N/A,30.02,81.0,,12:47 PM,10.0,Calm,Calm,0,Los Angeles,California,90001
13,Clear,2016-02-25 21:47:00,37.9,,-,23,N/A,30.01,79.0,,1:47 PM,10.0,Calm,Calm,0,Los Angeles,California,90001
14,Clear,2016-02-25 22:47:00,39.0,,-,26,N/A,30.01,75.9,,2:47 PM,10.0,Variable,4.6,0,Los Angeles,California,90001
15,Clear,2016-02-25 23:47:00,35.1,,-,23,N/A,30.01,75.0,,3:47 PM,10.0,West,5.8,280,Los Angeles,California,90001
16,Clear,2016-02-26 00:47:00,37.0,,-,27,N/A,30.01,73.0,,4:47 PM,10.0,West,5.8,270,Los Angeles,California,90001
17,Clear,2016-02-26 01:47:00,41.0,,-,35,N/A,30.02,70.0,,5:47 PM,10.0,West,3.5,280,Los Angeles,California,90001
18,Clear,2016-02-26 02:47:00,51.1,,-,61,N/A,30.03,64.9,,6:47 PM,10.0,Calm,Calm,0,Los Angeles,California,90001
19,Clear,2016-02-26 03:47:00,52.0,,-,67,N/A,30.04,63.0,,7:47 PM,10.0,Calm,Calm,0,Los Angeles,California,90001
20,Clear,2016-02-26 04:47:00,50.0,,-,60,N/A,30.04,64.0,,8:47 PM,10.0,Calm,Calm,0,Los Angeles,California,90001
21,Clear,2016-02-26 05:47:00,50.0,,-,63,N/A,30.05,63.0,,9:47 PM,10.0,Calm,Calm,0,Los Angeles,California,90001
22,Clear,2016-02-26 06:47:00,48.0,,-,56,N/A,30.05,64.0,,10:47 PM,10.0,East,3.5,100,Los Angeles,California,90001
23,Clear,2016-02-26 07:47:00,48.0,,-,62,N/A,30.05,61.0,,11:47 PM,10.0,Calm,Calm,0,Los Angeles,California,90001
0,Clear,2016-02-26 08:47:00,48.0,,-,67,N/A,30.05,59.0,,12:47 AM,10.0,Calm,Calm,0,Los Angeles,California,90001
1,Clear,2016-02-26 09:47:00,46.9,,-,67,N/A,30.05,57.9,,1:47 AM,10.0,Calm,Calm,0,Los Angeles,California,90001
2,Clear,2016-02-26 10:47:00,46.9,,-,72,N/A,30.04,55.9,,2:47 AM,10.0,Calm,Calm,0,Los Angeles,California,90001
3,Clear,2016-02-26 11:47:00,45.0,,-,67,N/A,30.04,55.9,,3:47 AM,10.0,Calm,Calm,0,Los Angeles,California,90001
4,Clear,2016-02-26 12:47:00,44.1,,-,67,N/A,30.05,55.0,,4:47 AM,10.0,Calm,Calm,0,Los Angeles,California,90001
5,Clear,2016-02-26 13:47:00,44.1,,-,69,N/A,30.06,54.0,,5:47 AM,10.0,Calm,Calm,0,Los Angeles,California,90001
6,Clear,2016-02-26 14:47:00,42.1,,-,64,N/A,30.07,54.0,,6:47 AM,10.0,Calm,Calm,0,Los Angeles,California,90001
7,Clear,2016-02-26 15:47:00,41.0,,-,51,N/A,30.10,59.0,,7:47 AM,10.0,Calm,Calm,0,Los Angeles,California,90001
8,Haze,2016-02-26 16:47:00,37.9,,-,37,N/A,30.09,64.9,,8:47 AM,2.5,Calm,Calm,0,Los Angeles,California,90001
9,Clear,2016-02-26 16:56:00,37.9,,-,36,N/A,30.10,66.0,,8:56 AM,9.0,Calm,Calm,0,Los Angeles,California,90001
10,Clear,2016-02-26 17:47:00,39.0,,-,32,N/A,30.10,70.0,,9:47 AM,8.0,Calm,Calm,0,Los Angeles,California,90001
11,Clear,2016-02-26 18:47:00,37.9,,-,26,N/A,30.09,75.0,,10:47 AM,7.0,Calm,Calm,0,Los Angeles,California,90001
12,Clear,2016-02-26 19:47:00,39.0,,-,25,N/A,30.08,77.0,,11:47 AM,7.0,Calm,Calm,0,Los Angeles,California,90001
13,Clear,2016-02-26 20:47:00,46.0,,-,32,N/A,30.04,78.1,,12:47 PM,7.0,Calm,Calm,0,Los Angeles,California,90001
14,Clear,2016-02-26 21:47:00,50.0,,-,40,N/A,30.03,75.9,,1:47 PM,10.0,West,5.8,260,Los Angeles,California,90001
15,Clear,2016-02-26 22:47:00,42.1,,-,32,N/A,30.03,73.9,,2:47 PM,10.0,West,8.1,280,Los Angeles,California,90001
16,Clear,2016-02-26 23:47:00,43.0,,-,35,N/A,30.02,72.0,,3:47 PM,10.0,West,3.5,280,Los Angeles,California,90001
17,Clear,2016-02-27 00:47:00,46.0,,-,44,N/A,30.04,69.1,,4:47 PM,10.0,Variable,3.5,0,Los Angeles,California,90001
18,Clear,2016-02-27 01:47:00,48.9,,-,56,N/A,30.05,64.9,,5:47 PM,10.0,West,6.9,270,Los Angeles,California,90001
19,Clear,2016-02-27 02:47:00,55.0,,-,75,N/A,30.06,63.0,,6:47 PM,10.0,West,4.6,270,Los Angeles,California,90001
20,Clear,2016-02-27 03:47:00,54.0,,-,78,N/A,30.07,61.0,,7:47 PM,10.0,Calm,Calm,0,Los Angeles,California,90001
21,Clear,2016-02-27 04:47:00,54.0,,-,75,N/A,30.07,62.1,,8:47 PM,10.0,Calm,Calm,0,Los Angeles,California,90001
22,Clear,2016-02-27 05:47:00,55.9,,-,83,N/A,30.07,61.0,,9:47 PM,9.0,Calm,Calm,0,Los Angeles,California,90001
23,Clear,2016-02-27 06:47:00,55.0,,-,81,N/A,30.07,61.0,,10:47 PM,10.0,East,3.5,100,Los Angeles,California,90001
24,Clear,2016-02-27 07:47:00,54.0,,-,80,N/A,30.07,60.1,,11:47 PM,10.0,Calm,Calm,0,Los Angeles,California,90001
0,Clear,2016-02-27 08:47:00,55.0,,-,83,N/A,30.05,60.1,,12:47 AM,8.0,SE,3.5,130,Los Angeles,California,90001
1,Clear,2016-02-27 09:47:00,54.0,,-,89,N/A,30.05,57.0,,1:47 AM,8.0,Calm,Calm,0,Los Angeles,California,90001
2,Clear,2016-02-27 10:47:00,53.1,,-,90,N/A,30.04,55.9,,2:47 AM,8.0,Calm,Calm,0,Los Angeles,California,90001
3,Clear,2016-02-27 11:47:00,52.0,,-,89,N/A,30.04,55.0,,3:47 AM,8.0,Calm,Calm,0,Los Angeles,California,90001
4,Clear,2016-02-27 12:47:00,52.0,,-,89,N/A,30.04,55.0,,4:47 AM,8.0,Calm,Calm,0,Los Angeles,California,90001
5,Clear,2016-02-27 13:47:00,48.9,,-,77,N/A,30.04,55.9,,5:47 AM,10.0,Variable,3.5,0,Los Angeles,California,90001
6,Clear,2016-02-27 14:47:00,51.1,,-,90,N/A,30.04,54.0,,6:47 AM,6.0,Calm,Calm,0,Los Angeles,California,90001
7,Clear,2016-02-27 15:03:00,52.0,,-,96,N/A,30.05,53.1,,7:03 AM,2.5,SE,3.5,130,Los Angeles,California,90001
8,Clear,2016-02-27 15:09:00,52.0,,-,93,N/A,30.05,54.0,,7:09 AM,3.0,Calm,Calm,0,Los Angeles,California,90001
9,Partly Cloudy,2016-02-27 15:16:00,52.0,,-,93,N/A,30.05,54.0,,7:16 AM,2.5,SE,3.5,130,Los Angeles,California,90001
10,Mist,2016-02-27 15:20:00,53.1,,-,97,N/A,30.05,54.0,,7:20 AM,1.0,Variable,3.5,0,Los Angeles,California,90001
11,Fog,2016-02-27 15:23:00,53.1,Fog,-,100,N/A,30.05,53.1,,7:23 AM,0.5,Variable,3.5,0,Los Angeles,California,90001
12,Fog,2016-02-27 15:47:00,54.0,Fog,-,100,N/A,30.05,54.0,,7:47 AM,0.2,Calm,Calm,0,Los Angeles,California,90001
13,Mostly Cloudy,2016-02-27 15:59:00,54.0,,-,96,N/A,30.05,55.0,,7:59 AM,1.5,Calm,Calm,0,Los Angeles,California,90001
14,Mostly Cloudy,2016-02-27 16:03:00,54.0,,-,96,N/A,30.06,55.0,,8:03 AM,2.5,Calm,Calm,0,Los Angeles,California,90001
15,Mostly Cloudy,2016-02-27 16:06:00,53.1,,-,90,N/A,30.06,55.9,,8:06 AM,3.0,Calm,Calm,0,Los Angeles,California,90001
16,Mostly Cloudy,2016-02-27 16:18:00,54.0,,-,93,N/A,30.05,55.9,,8:18 AM,2.5,Calm,Calm,0,Los Angeles,California,90001
17,Overcast,2016-02-27 16:35:00,54.0,,-,93,N/A,30.05,55.9,,8:35 AM,1.5,Calm,Calm,0,Los Angeles,California,90001
18,Mostly Cloudy,2016-02-27 16:44:00,54.0,,-,87,N/A,30.06,57.9,,8:44 AM,2.0,Calm,Calm,0,Los Angeles,California,90001
19,Mostly Cloudy,2016-02-27 16:47:00,54.0,,-,87,N/A,30.06,57.9,,8:47 AM,2.5,Calm,Calm,0,Los Angeles,California,90001
20,Haze,2016-02-27 16:51:00,54.0,,-,83,N/A,30.06,59.0,,8:51 AM,3.0,SE,3.5,140,Los Angeles,California,90001
21,Haze,2016-02-27 16:54:00,54.0,,-,80,N/A,30.06,60.1,,8:54 AM,3.0,Calm,Calm,0,Los Angeles,California,90001
22,Haze,2016-02-27 17:29:00,55.0,,-,81,N/A,30.06,61.0,,9:29 AM,2.5,Calm,Calm,0,Los Angeles,California,90001
23,Haze,2016-02-27 17:35:00,55.0,,-,81,N/A,30.06,61.0,,9:35 AM,3.0,Calm,Calm,0,Los Angeles,California,90001
24,Haze,2016-02-27 17:47:00,55.0,,-,75,N/A,30.05,63.0,,9:47 AM,4.0,Calm,Calm,0,Los Angeles,California,90001
25,Haze,2016-02-27 18:47:00,52.0,,-,53,N/A,30.05,70.0,,10:47 AM,6.0,Calm,Calm,0,Los Angeles,California,90001
26,Haze,2016-02-27 19:47:00,53.1,,-,53,N/A,30.01,71.1,,11:47 AM,5.0,Calm,Calm,0,Los Angeles,California,90001
27,Clear,2016-02-27 20:47:00,55.0,,-,55,N/A,29.98,72.0,,12:47 PM,7.0,Variable,4.6,0,Los Angeles,California,90001
28,Clear,2016-02-27 21:47:00,52.0,,-,49,N/A,29.96,72.0,,1:47 PM,8.0,West,4.6,260,Los Angeles,California,90001
29,Clear,2016-02-27 22:47:00,55.9,,-,65,N/A,29.96,68.0,,2:47 PM,8.0,Variable,4.6,0,Los Angeles,California,90001
30,Clear,2016-02-27 23:47:00,55.0,,-,63,N/A,29.96,68.0,,3:47 PM,9.0,Variable,4.6,0,Los Angeles,California,90001
31,Clear,2016-02-28 00:47:00,54.0,,-,63,N/A,29.95,66.9,,4:47 PM,10.0,Calm,Calm,0,Los Angeles,California,90001
32,Clear,2016-02-28 01:47:00,54.0,,-,68,N/A,29.96,64.9,,5:47 PM,10.0,Calm,Calm,0,Los Angeles,California,90001
33,Clear,2016-02-28 02:47:00,55.0,,-,75,N/A,29.96,63.0,,6:47 PM,10.0,Calm,Calm,0,Los Angeles,California,90001
34,Clear,2016-02-28 03:47:00,55.0,,-,78,N/A,29.98,62.1,,7:47 PM,10.0,Calm,Calm,0,Los Angeles,California,90001
35,Clear,2016-02-28 04:47:00,55.0,,-,81,N/A,29.99,61.0,,8:47 PM,10.0,Calm,Calm,0,Los Angeles,California,90001
36,Clear,2016-02-28 05:47:00,55.0,,-,83,N/A,30.00,60.1,,9:47 PM,9.0,Calm,Calm,0,Los Angeles,California,90001
37,Clear,2016-02-28 06:47:00,55.0,,-,87,N/A,30.01,59.0,,10:47 PM,8.0,Calm,Calm,0,Los Angeles,California,90001
38,Clear,2016-02-28 07:47:00,55.0,,-,90,N/A,30.01,57.9,,11:47 PM,8.0,Calm,Calm,0,Los Angeles,California,90001
0,Clear,2016-02-28 08:47:00,55.0,,-,90,N/A,30.00,57.9,,12:47 AM,8.0,Calm,Calm,0,Los Angeles,California,90001
1,Clear,2016-02-28 09:47:00,55.0,,-,93,N/A,30.00,57.0,,1:47 AM,7.0,Calm,Calm,0,Los Angeles,California,90001
2,Clear,2016-02-28 10:47:00,54.0,,-,93,N/A,29.99,55.9,,2:47 AM,7.0,Calm,Calm,0,Los Angeles,California,90001
3,Clear,2016-02-28 11:47:00,55.0,,-,90,N/A,29.98,57.9,,3:47 AM,5.0,Calm,Calm,0,Los Angeles,California,90001
4,Partly Cloudy,2016-02-28 12:05:00,55.0,,-,93,N/A,29.98,57.0,,4:05 AM,4.0,Calm,Calm,0,Los Angeles,California,90001
5,Mostly Cloudy,2016-02-28 12:11:00,55.0,,-,97,N/A,29.99,55.9,,4:11 AM,1.8,ESE,3.5,120,Los Angeles,California,90001
6,Fog,2016-02-28 12:20:00,55.0,Fog,-,97,N/A,29.99,55.9,,4:20 AM,0.5,Calm,Calm,0,Los Angeles,California,90001
7,Fog,2016-02-28 12:47:00,55.9,Fog,-,100,N/A,29.99,55.9,,4:47 AM,0.2,Calm,Calm,0,Los Angeles,California,90001
8,Overcast,2016-02-28 13:47:00,55.9,,-,100,N/A,29.99,55.9,,5:47 AM,1.0,Calm,Calm,0,Los Angeles,California,90001
9,Overcast,2016-02-28 14:47:00,55.9,,-,100,N/A,30.01,55.9,,6:47 AM,1.5,Calm,Calm,0,Los Angeles,California,90001
10,Overcast,2016-02-28 15:47:00,55.0,,-,93,N/A,30.02,57.0,,7:47 AM,1.0,Calm,Calm,0,Los Angeles,California,90001
11,Overcast,2016-02-28 16:47:00,55.0,,-,93,N/A,30.04,57.0,,8:47 AM,1.2,Calm,Calm,0,Los Angeles,California,90001
12,Overcast,2016-02-28 17:43:00,55.9,,-,90,N/A,30.04,59.0,,9:43 AM,2.0,Calm,Calm,0,Los Angeles,California,90001
13,Overcast,2016-02-28 17:47:00,55.0,,-,87,N/A,30.04,59.0,,9:47 AM,2.0,Calm,Calm,0,Los Angeles,California,90001
14,Overcast,2016-02-28 17:56:00,55.9,,-,86,N/A,30.04,60.1,,9:56 AM,2.0,Calm,Calm,0,Los Angeles,California,90001
15,Haze,2016-02-28 18:16:00,55.9,,-,80,N/A,30.04,62.1,,10:16 AM,3.0,Variable,3.5,0,Los Angeles,California,90001
16,Haze,2016-02-28 18:30:00,55.9,,-,75,N/A,30.03,64.0,,10:30 AM,3.0,Variable,3.5,0,Los Angeles,California,90001
17,Haze,2016-02-28 18:47:00,55.9,,-,73,N/A,30.02,64.9,,10:47 AM,3.0,Calm,Calm,0,Los Angeles,California,90001
18,Haze,2016-02-28 19:47:00,54.0,,-,58,N/A,30.00,69.1,,11:47 AM,5.0,Calm,Calm,0,Los Angeles,California,90001
19,Haze,2016-02-28 20:47:00,55.9,,-,55,N/A,29.97,73.0,,12:47 PM,5.0,Calm,Calm,0,Los Angeles,California,90001
20,Haze,2016-02-28 21:47:00,55.9,,-,53,N/A,29.96,73.9,,1:47 PM,6.0,Calm,Calm,0,Los Angeles,California,90001
21,Clear,2016-02-28 22:47:00,55.0,,-,59,N/A,29.96,70.0,,2:47 PM,7.0,Variable,3.5,0,Los Angeles,California,90001
22,Clear,2016-02-28 23:47:00,55.0,,-,57,N/A,29.95,71.1,,3:47 PM,9.0,Calm,Calm,0,Los Angeles,California,90001
23,Clear,2016-02-29 00:47:00,55.9,,-,61,N/A,29.96,70.0,,4:47 PM,10.0,Calm,Calm,0,Los Angeles,California,90001
24,Clear,2016-02-29 01:47:00,57.0,,-,75,N/A,29.96,64.9,,5:47 PM,8.0,Calm,Calm,0,Los Angeles,California,90001
25,Clear,2016-02-29 02:47:00,57.0,,-,84,N/A,29.98,62.1,,6:47 PM,8.0,Calm,Calm,0,Los Angeles,California,90001
26,Clear,2016-02-29 03:47:00,57.0,,-,84,N/A,30.00,62.1,,7:47 PM,7.0,Calm,Calm,0,Los Angeles,California,90001
27,Clear,2016-02-29 04:47:00,57.0,,-,87,N/A,30.01,61.0,,8:47 PM,6.0,Calm,Calm,0,Los Angeles,California,90001
28,Haze,2016-02-29 05:47:00,57.0,,-,84,N/A,30.01,62.1,,9:47 PM,6.0,Variable,3.5,0,Los Angeles,California,90001
29,Clear,2016-02-29 06:47:00,57.0,,-,87,N/A,30.01,61.0,,10:47 PM,6.0,Calm,Calm,0,Los Angeles,California,90001
30,Clear,2016-02-29 07:47:00,57.0,,-,87,N/A,30.01,61.0,,11:47 PM,6.0,Calm,Calm,0,Los Angeles,California,90001
0,Clear,2016-02-29 08:47:00,57.0,,-,90,N/A,30.00,60.1,,12:47 AM,6.0,Calm,Calm,0,Los Angeles,California,90001
1,Clear,2016-02-29 09:47:00,55.9,,-,93,N/A,30.00,57.9,,1:47 AM,5.0,Calm,Calm,0,Los Angeles,California,90001
2,Clear,2016-02-29 10:47:00,55.9,,-,93,N/A,29.99,57.9,,2:47 AM,4.0,Calm,Calm,0,Los Angeles,California,90001
3,Scattered Clouds,2016-02-29 11:03:00,55.9,,-,96,N/A,30.00,57.0,,3:03 AM,4.0,Calm,Calm,0,Los Angeles,California,90001
4,Mostly Cloudy,2016-02-29 11:09:00,55.0,,-,93,N/A,30.01,57.0,,3:09 AM,5.0,Calm,Calm,0,Los Angeles,California,90001
5,Overcast,2016-02-29 11:25:00,55.0,,-,93,N/A,30.00,57.0,,3:25 AM,4.0,Calm,Calm,0,Los Angeles,California,90001
6,Overcast,2016-02-29 11:30:00,55.0,,-,93,N/A,30.01,57.0,,3:30 AM,4.0,Calm,Calm,0,Los Angeles,California,90001
7,Overcast,2016-02-29 11:38:00,55.0,,-,93,N/A,30.00,57.0,,3:38 AM,4.0,Calm,Calm,0,Los Angeles,California,90001
8,Overcast,2016-02-29 11:47:00,55.0,,-,93,N/A,30.01,57.0,,3:47 AM,4.0,Calm,Calm,0,Los Angeles,California,90001
9,Overcast,2016-02-29 12:22:00,57.0,,-,97,N/A,30.00,57.9,,4:22 AM,2.5,Calm,Calm,0,Los Angeles,California,90001
10,Overcast,2016-02-29 12:47:00,57.0,,-,97,N/A,30.00,57.9,,4:47 AM,2.0,Calm,Calm,0,Los Angeles,California,90001
11,Overcast,2016-02-29 12:51:00,57.0,,-,97,N/A,30.00,57.9,,4:51 AM,1.8,Calm,Calm,0,Los Angeles,California,90001
12,Overcast,2016-02-29 13:01:00,57.0,,-,97,N/A,30.01,57.9,,5:01 AM,2.0,Calm,Calm,0,Los Angeles,California,90001
13,Overcast,2016-02-29 13:04:00,57.0,,-,97,N/A,30.01,57.9,,5:04 AM,1.8,Calm,Calm,0,Los Angeles,California,90001
14,Overcast,2016-02-29 13:25:00,57.0,,-,100,N/A,30.01,57.0,,5:25 AM,0.8,Calm,Calm,0,Los Angeles,California,90001
15,Overcast,2016-02-29 13:35:00,57.0,,-,97,N/A,30.01,57.9,,5:35 AM,1.0,Calm,Calm,0,Los Angeles,California,90001
16,Overcast,2016-02-29 13:47:00,57.0,,-,97,N/A,30.01,57.9,,5:47 AM,1.8,Calm,Calm,0,Los Angeles,California,90001
17,Overcast,2016-02-29 13:55:00,57.0,,-,97,N/A,30.01,57.9,,5:55 AM,2.0,ESE,3.5,110,Los Angeles,California,90001
18,Overcast,2016-02-29 14:00:00,57.0,,-,97,N/A,30.01,57.9,,6:00 AM,1.8,Calm,Calm,0,Los Angeles,California,90001
19,Overcast,2016-02-29 14:47:00,57.0,,-,97,N/A,30.02,57.9,,6:47 AM,1.2,Calm,Calm,0,Los Angeles,California,90001
20,Overcast,2016-02-29 14:55:00,57.0,,-,97,N/A,30.02,57.9,,6:55 AM,0.8,Calm,Calm,0,Los Angeles,California,90001
21,Overcast,2016-02-29 15:08:00,57.0,,-,97,N/A,30.02,57.9,,7:08 AM,1.0,Calm,Calm,0,Los Angeles,California,90001
22,Overcast,2016-02-29 15:47:00,57.0,,-,93,N/A,30.04,59.0,,7:47 AM,1.2,Calm,Calm,0,Los Angeles,California,90001
23,Overcast,2016-02-29 16:01:00,57.0,,-,90,N/A,30.05,60.1,,8:01 AM,1.8,Calm,Calm,0,Los Angeles,California,90001
24,Overcast,2016-02-29 16:08:00,57.0,,-,90,N/A,30.05,60.1,,8:08 AM,2.0,Calm,Calm,0,Los Angeles,California,90001
25,Overcast,2016-02-29 16:23:00,57.0,,-,90,N/A,30.05,60.1,,8:23 AM,1.8,Calm,Calm,0,Los Angeles,California,90001
26,Overcast,2016-02-29 16:34:00,57.0,,-,87,N/A,30.05,61.0,,8:34 AM,2.0,Calm,Calm,0,Los Angeles,California,90001
27,Overcast,2016-02-29 16:39:00,57.0,,-,87,N/A,30.05,61.0,,8:39 AM,1.8,Calm,Calm,0,Los Angeles,California,90001
28,Overcast,2016-02-29 16:47:00,57.0,,-,87,N/A,30.05,61.0,,8:47 AM,1.8,Calm,Calm,0,Los Angeles,California,90001
29,Haze,2016-02-29 16:57:00,57.0,,-,84,N/A,30.06,62.1,,8:57 AM,2.0,Calm,Calm,0,Los Angeles,California,90001
30,Haze,2016-02-29 17:47:00,57.0,,-,78,N/A,30.06,64.0,,9:47 AM,2.5,Variable,3.5,0,Los Angeles,California,90001
31,Haze,2016-02-29 18:13:00,57.0,,-,78,N/A,30.05,64.0,,10:13 AM,2.5,Calm,Calm,0,Los Angeles,California,90001
32,Haze,2016-02-29 18:20:00,57.0,,-,78,N/A,30.05,64.0,,10:20 AM,2.5,West,4.6,270,Los Angeles,California,90001
33,Haze,2016-02-29 18:41:00,57.9,,-,73,N/A,30.05,66.9,,10:41 AM,3.0,Variable,3.5,0,Los Angeles,California,90001
34,Haze,2016-02-29 18:47:00,57.0,,-,70,N/A,30.05,66.9,,10:47 AM,2.5,Variable,3.5,0,Los Angeles,California,90001
35,Haze,2016-02-29 19:41:00,57.0,,-,63,N/A,30.03,70.0,,11:41 AM,3.0,Calm,Calm,0,Los Angeles,California,90001
36,Haze,2016-02-29 19:47:00,57.0,,-,65,N/A,30.02,69.1,,11:47 AM,3.0,Calm,Calm,0,Los Angeles,California,90001
37,Haze,2016-02-29 20:47:00,54.0,,-,51,N/A,30.00,73.0,,12:47 PM,5.0,Variable,3.5,0,Los Angeles,California,90001
38,Clear,2016-02-29 21:47:00,54.0,,-,51,N/A,29.97,73.0,,1:47 PM,7.0,Variable,3.5,0,Los Angeles,California,90001
39,Clear,2016-02-29 22:47:00,54.0,,-,53,N/A,29.96,72.0,,2:47 PM,8.0,Calm,Calm,0,Los Angeles,California,90001
40,Clear,2016-02-29 23:47:00,55.0,,-,59,N/A,29.97,70.0,,3:47 PM,7.0,Calm,Calm,0,Los Angeles,California,90001
41,Haze,2016-03-01 00:47:00,55.0,,-,70,N/A,29.98,64.9,,4:47 PM,5.0,WNW,3.5,290,Los Angeles,California,90001
42,Haze,2016-03-01 01:47:00,55.9,,-,80,N/A,29.99,62.1,,5:47 PM,5.0,Calm,Calm,0,Los Angeles,California,90001
43,Clear,2016-03-01 02:47:00,55.9,,-,86,N/A,30.01,60.1,,6:47 PM,5.0,Calm,Calm,0,Los Angeles,California,90001
44,Clear,2016-03-01 03:47:00,55.9,,-,90,N/A,30.03,59.0,,7:47 PM,4.0,Calm,Calm,0,Los Angeles,California,90001
45,Clear,2016-03-01 04:47:00,55.0,,-,90,N/A,30.03,57.9,,8:47 PM,4.0,Calm,Calm,0,Los Angeles,California,90001
46,Clear,2016-03-01 05:47:00,55.0,,-,93,N/A,30.04,57.0,,9:47 PM,3.0,Calm,Calm,0,Los Angeles,California,90001
47,Clear,2016-03-01 06:47:00,55.0,,-,93,N/A,30.04,57.0,,10:47 PM,3.0,Calm,Calm,0,Los Angeles,California,90001
48,Clear,2016-03-01 07:47:00,54.0,,-,93,N/A,30.04,55.9,,11:47 PM,3.0,Calm,Calm,0,Los Angeles,California,90001
0,Clear,2016-03-01 08:47:00,54.0,,-,89,N/A,30.03,57.0,,12:47 AM,3.0,Calm,Calm,0,Los Angeles,California,90001
1,Partly Cloudy,2016-03-01 09:22:00,54.0,,-,89,N/A,30.04,57.0,,1:22 AM,3.0,Calm,Calm,0,Los Angeles,California,90001
2,Mostly Cloudy,2016-03-01 09:47:00,53.1,,-,90,N/A,30.05,55.9,,1:47 AM,3.0,Calm,Calm,0,Los Angeles,California,90001
3,Mostly Cloudy,2016-03-01 09:56:00,54.0,,-,93,N/A,30.05,55.9,,1:56 AM,3.0,Calm,Calm,0,Los Angeles,California,90001
4,Overcast,2016-03-01 10:11:00,55.0,,-,97,N/A,30.05,55.9,,2:11 AM,1.8,Calm,Calm,0,Los Angeles,California,90001
5,Overcast,2016-03-01 10:23:00,55.0,,-,97,N/A,30.05,55.9,,2:23 AM,0.8,Calm,Calm,0,Los Angeles,California,90001
6,Overcast,2016-03-01 10:32:00,55.9,,-,100,N/A,30.05,55.9,,2:32 AM,1.0,Calm,Calm,0,Los Angeles,California,90001
7,Fog,2016-03-01 10:35:00,55.0,Fog,-,97,N/A,30.05,55.9,,2:35 AM,0.5,Calm,Calm,0,Los Angeles,California,90001
8,Fog,2016-03-01 10:47:00,55.0,Fog,-,97,N/A,30.04,55.9,,2:47 AM,0.2,Calm,Calm,0,Los Angeles,California,90001
9,Fog,2016-03-01 11:47:00,55.9,Fog,-,100,N/A,30.04,55.9,,3:47 AM,0.2,Calm,Calm,0,Los Angeles,California,90001
10,Fog,2016-03-01 12:47:00,55.9,Fog,-,100,N/A,30.06,55.9,,4:47 AM,0.5,Calm,Calm,0,Los Angeles,California,90001
11,Overcast,2016-03-01 13:05:00,55.9,,-,100,N/A,30.06,55.9,,5:05 AM,1.0,East,3.5,100,Los Angeles,California,90001
12,Overcast,2016-03-01 13:39:00,55.0,,-,97,N/A,30.06,55.9,,5:39 AM,2.0,Calm,Calm,0,Los Angeles,California,90001
13,Overcast,2016-03-01 13:47:00,55.0,,-,97,N/A,30.06,55.9,,5:47 AM,2.0,Calm,Calm,0,Los Angeles,California,90001
14,Overcast,2016-03-01 14:23:00,55.0,,-,93,N/A,30.07,57.0,,6:23 AM,2.5,Calm,Calm,0,Los Angeles,California,90001
15,Overcast,2016-03-01 14:38:00,55.0,,-,93,N/A,30.07,57.0,,6:38 AM,1.8,Calm,Calm,0,Los Angeles,California,90001
16,Mostly Cloudy,2016-03-01 14:47:00,55.0,,-,93,N/A,30.07,57.0,,6:47 AM,1.8,Calm,Calm,0,Los Angeles,California,90001
17,Scattered Clouds,2016-03-01 14:55:00,55.0,,-,93,N/A,30.07,57.0,,6:55 AM,1.8,Calm,Calm,0,Los Angeles,California,90001
18,Partly Cloudy,2016-03-01 15:04:00,55.0,,-,93,N/A,30.08,57.0,,7:04 AM,2.0,Calm,Calm,0,Los Angeles,California,90001
19,Partly Cloudy,2016-03-01 15:47:00,55.0,,-,87,N/A,30.09,59.0,,7:47 AM,2.0,Calm,Calm,0,Los Angeles,California,90001
20,Haze,2016-03-01 16:47:00,55.0,,-,75,N/A,30.10,63.0,,8:47 AM,2.5,Calm,Calm,0,Los Angeles,California,90001
21,Haze,2016-03-01 17:47:00,55.9,,-,70,N/A,30.11,66.0,,9:47 AM,2.5,Calm,Calm,0,Los Angeles,California,90001
22,Haze,2016-03-01 18:21:00,55.9,,-,61,N/A,30.11,70.0,,10:21 AM,3.0,SSE,3.5,150,Los Angeles,California,90001
23,Haze,2016-03-01 18:47:00,55.9,,-,59,N/A,30.10,71.1,,10:47 AM,3.0,Calm,Calm,0,Los Angeles,California,90001
24,Haze,2016-03-01 19:47:00,54.0,,-,50,N/A,30.08,73.9,,11:47 AM,4.0,Calm,Calm,0,Los Angeles,California,90001
25,Haze,2016-03-01 20:47:00,53.1,,-,46,N/A,30.04,75.0,,12:47 PM,5.0,Calm,Calm,0,Los Angeles,California,90001
26,Haze,2016-03-01 21:47:00,55.9,,-,57,N/A,30.03,72.0,,1:47 PM,3.0,Calm,Calm,0,Los Angeles,California,90001
27,Haze,2016-03-01 22:47:00,55.9,,-,63,N/A,30.03,69.1,,2:47 PM,3.0,Calm,Calm,0,Los Angeles,California,90001
28,Haze,2016-03-01 23:47:00,55.9,,-,63,N/A,30.04,69.1,,3:47 PM,3.0,Variable,3.5,0,Los Angeles,California,90001
29,Haze,2016-03-02 00:47:00,55.9,,-,70,N/A,30.04,66.0,,4:47 PM,3.0,Calm,Calm,0,Los Angeles,California,90001
30,Haze,2016-03-02 01:47:00,55.0,,-,73,N/A,30.06,64.0,,5:47 PM,4.0,Calm,Calm,0,Los Angeles,California,90001
31,Haze,2016-03-02 02:47:00,55.0,,-,78,N/A,30.07,62.1,,6:47 PM,5.0,West,3.5,270,Los Angeles,California,90001
32,Clear,2016-03-02 03:47:00,55.9,,-,86,N/A,30.07,60.1,,7:47 PM,5.0,Calm,Calm,0,Los Angeles,California,90001
33,Clear,2016-03-02 04:47:00,55.9,,-,90,N/A,30.07,59.0,,8:47 PM,5.0,Calm,Calm,0,Los Angeles,California,90001
34,Clear,2016-03-02 05:47:00,55.0,,-,90,N/A,30.07,57.9,,9:47 PM,5.0,Calm,Calm,0,Los Angeles,California,90001
35,Clear,2016-03-02 06:47:00,55.0,,-,93,N/A,30.07,57.0,,10:47 PM,4.0,Calm,Calm,0,Los Angeles,California,90001
36,Clear,2016-03-02 07:47:00,54.0,,-,89,N/A,30.08,57.0,,11:47 PM,4.0,Calm,Calm,0,Los Angeles,California,90001
0,Clear,2016-03-02 08:47:00,53.1,,-,90,N/A,30.06,55.9,,12:47 AM,4.0,Calm,Calm,0,Los Angeles,California,90001
1,Clear,2016-03-02 09:47:00,53.1,,-,93,N/A,30.06,55.0,,1:47 AM,3.0,Calm,Calm,0,Los Angeles,California,90001
2,Clear,2016-03-02 10:18:00,53.1,,-,93,N/A,30.06,55.0,,2:18 AM,2.5,Calm,Calm,0,Los Angeles,California,90001
3,Clear,2016-03-02 10:47:00,53.1,,-,97,N/A,30.05,54.0,,2:47 AM,2.5,Calm,Calm,0,Los Angeles,California,90001
4,Clear,2016-03-02 11:25:00,52.0,,-,93,N/A,30.05,54.0,,3:25 AM,3.0,Calm,Calm,0,Los Angeles,California,90001
5,Clear,2016-03-02 11:47:00,52.0,,-,93,N/A,30.04,54.0,,3:47 AM,3.0,Calm,Calm,0,Los Angeles,California,90001
6,Clear,2016-03-02 12:47:00,51.1,,-,93,N/A,30.05,53.1,,4:47 AM,4.0,Calm,Calm,0,Los Angeles,California,90001
7,Partly Cloudy,2016-03-02 13:47:00,50.0,,-,93,N/A,30.06,52.0,,5:47 AM,5.0,Calm,Calm,0,Los Angeles,California,90001
8,Scattered Clouds,2016-03-02 13:52:00,51.1,,-,93,N/A,30.06,53.1,,5:52 AM,1.8,Calm,Calm,0,Los Angeles,California,90001
9,Mist,2016-03-02 13:56:00,52.0,,-,96,N/A,30.06,53.1,,5:56 AM,0.8,Calm,Calm,0,Los Angeles,California,90001
10,Fog,2016-03-02 14:47:00,54.0,Fog,-,100,N/A,30.06,54.0,,6:47 AM,0.2,Calm,Calm,0,Los Angeles,California,90001
11,Fog,2016-03-02 15:47:00,54.0,Fog,-,96,N/A,30.08,55.0,,7:47 AM,0.2,Calm,Calm,0,Los Angeles,California,90001
12,Overcast,2016-03-02 16:30:00,55.0,,-,97,N/A,30.09,55.9,,8:30 AM,1.2,Calm,Calm,0,Los Angeles,California,90001
13,Overcast,2016-03-02 16:47:00,55.0,,-,93,N/A,30.09,57.0,,8:47 AM,1.5,Calm,Calm,0,Los Angeles,California,90001
14,Overcast,2016-03-02 17:47:00,55.9,,-,86,N/A,30.10,60.1,,9:47 AM,1.8,Variable,3.5,0,Los Angeles,California,90001
15,Haze,2016-03-02 17:56:00,55.0,,-,83,N/A,30.10,60.1,,9:56 AM,2.0,West,3.5,270,Los Angeles,California,90001
16,Haze,2016-03-02 18:30:00,55.9,,-,70,N/A,30.10,66.0,,10:30 AM,2.5,Calm,Calm,0,Los Angeles,California,90001
17,Haze,2016-03-02 18:47:00,55.9,,-,73,N/A,30.09,64.9,,10:47 AM,2.5,Calm,Calm,0,Los Angeles,California,90001
18,Haze,2016-03-02 19:34:00,55.9,,-,61,N/A,30.08,70.0,,11:34 AM,3.0,Calm,Calm,0,Los Angeles,California,90001
19,Haze,2016-03-02 19:44:00,55.9,,-,61,N/A,30.08,70.0,,11:44 AM,2.5,Calm,Calm,0,Los Angeles,California,90001
20,Haze,2016-03-02 19:47:00,55.0,,-,59,N/A,30.07,70.0,,11:47 AM,3.0,Calm,Calm,0,Los Angeles,California,90001
21,Haze,2016-03-02 20:47:00,55.0,,-,53,N/A,30.04,73.0,,12:47 PM,4.0,Variable,3.5,0,Los Angeles,California,90001
22,Haze,2016-03-02 21:47:00,54.0,,-,61,N/A,30.04,68.0,,1:47 PM,4.0,Variable,5.8,0,Los Angeles,California,90001
23,Haze,2016-03-02 22:47:00,55.0,,-,66,N/A,30.03,66.9,,2:47 PM,4.0,Variable,4.6,0,Los Angeles,California,90001
24,Clear,2016-03-02 23:47:00,54.0,,-,63,N/A,30.03,66.9,,3:47 PM,8.0,Calm,Calm,0,Los Angeles,California,90001
25,Clear,2016-03-03 00:47:00,54.0,,-,70,N/A,30.04,64.0,,4:47 PM,10.0,West,3.5,270,Los Angeles,California,90001
26,Clear,2016-03-03 01:47:00,54.0,,-,80,N/A,30.06,60.1,,5:47 PM,8.0,West,3.5,270,Los Angeles,California,90001
27,Partly Cloudy,2016-03-03 02:47:00,55.0,,-,83,N/A,30.06,60.1,,6:47 PM,10.0,West,3.5,270,Los Angeles,California,90001
28,Scattered Clouds,2016-03-03 03:01:00,55.0,,-,83,N/A,30.07,60.1,,7:01 PM,10.0,Calm,Calm,0,Los Angeles,California,90001
29,Mostly Cloudy,2016-03-03 03:41:00,55.0,,-,87,N/A,30.07,59.0,,7:41 PM,10.0,West,3.5,280,Los Angeles,California,90001
30,Mostly Cloudy,2016-03-03 03:47:00,55.0,,-,87,N/A,30.08,59.0,,7:47 PM,10.0,Calm,Calm,0,Los Angeles,California,90001
31,Mostly Cloudy,2016-03-03 04:47:00,54.0,,-,87,N/A,30.09,57.9,,8:47 PM,9.0,Calm,Calm,0,Los Angeles,California,90001
32,Scattered Clouds,2016-03-03 05:13:00,54.0,,-,89,N/A,30.09,57.0,,9:13 PM,8.0,Calm,Calm,0,Los Angeles,California,90001
33,Clear,2016-03-03 05:47:00,55.0,,-,90,N/A,30.09,57.9,,9:47 PM,9.0,Calm,Calm,0,Los Angeles,California,90001
34,Partly Cloudy,2016-03-03 05:50:00,55.0,,-,90,N/A,30.09,57.9,,9:50 PM,9.0,Calm,Calm,0,Los Angeles,California,90001
35,Mostly Cloudy,2016-03-03 06:05:00,55.0,,-,90,N/A,30.09,57.9,,10:05 PM,8.0,Calm,Calm,0,Los Angeles,California,90001
36,Overcast,2016-03-03 06:47:00,55.0,,-,90,N/A,30.09,57.9,,10:47 PM,6.0,Calm,Calm,0,Los Angeles,California,90001
37,Overcast,2016-03-03 07:47:00,55.0,,-,87,N/A,30.08,59.0,,11:47 PM,6.0,Calm,Calm,0,Los Angeles,California,90001
0,Scattered Clouds,2016-03-03 08:14:00,55.0,,-,90,N/A,30.09,57.9,,12:14 AM,6.0,Calm,Calm,0,Los Angeles,California,90001
1,Mostly Cloudy,2016-03-03 08:44:00,55.0,,-,90,N/A,30.09,57.9,,12:44 AM,6.0,Calm,Calm,0,Los Angeles,California,90001
2,Mostly Cloudy,2016-03-03 08:47:00,55.0,,-,90,N/A,30.09,57.9,,12:47 AM,6.0,Calm,Calm,0,Los Angeles,California,90001
3,Scattered Clouds,2016-03-03 09:04:00,55.0,,-,90,N/A,30.09,57.9,,1:04 AM,5.0,Calm,Calm,0,Los Angeles,California,90001
4,Mostly Cloudy,2016-03-03 09:47:00,54.0,,-,89,N/A,30.08,57.0,,1:47 AM,4.0,Calm,Calm,0,Los Angeles,California,90001
5,Scattered Clouds,2016-03-03 10:21:00,54.0,,-,89,N/A,30.08,57.0,,2:21 AM,4.0,Calm,Calm,0,Los Angeles,California,90001
6,Clear,2016-03-03 10:47:00,54.0,,-,93,N/A,30.07,55.9,,2:47 AM,4.0,Calm,Calm,0,Los Angeles,California,90001
7,Clear,2016-03-03 11:47:00,53.1,,-,93,N/A,30.06,55.0,,3:47 AM,4.0,Calm,Calm,0,Los Angeles,California,90001
8,Clear,2016-03-03 12:47:00,53.1,,-,93,N/A,30.06,55.0,,4:47 AM,4.0,Calm,Calm,0,Los Angeles,California,90001
9,Clear,2016-03-03 13:47:00,51.1,,-,90,N/A,30.07,54.0,,5:47 AM,5.0,Calm,Calm,0,Los Angeles,California,90001
10,Clear,2016-03-03 14:47:00,52.0,,-,93,N/A,30.08,54.0,,6:47 AM,3.0,Calm,Calm,0,Los Angeles,California,90001
11,Clear,2016-03-03 15:47:00,54.0,,-,87,N/A,30.08,57.9,,7:47 AM,3.0,Calm,Calm,0,Los Angeles,California,90001
12,Haze,2016-03-03 16:47:00,54.0,,-,78,N/A,30.08,61.0,,8:47 AM,4.0,Calm,Calm,0,Los Angeles,California,90001
13,Haze,2016-03-03 17:47:00,53.1,,-,65,N/A,30.08,64.9,,9:47 AM,4.0,Calm,Calm,0,Los Angeles,California,90001
14,Haze,2016-03-03 18:47:00,53.1,,-,59,N/A,30.07,68.0,,10:47 AM,4.0,Calm,Calm,0,Los Angeles,California,90001
15,Haze,2016-03-03 19:47:00,54.0,,-,53,N/A,30.04,72.0,,11:47 AM,4.0,Calm,Calm,0,Los Angeles,California,90001
16,Clear,2016-03-03 20:47:00,55.9,,-,59,N/A,30.03,71.1,,12:47 PM,8.0,Variable,4.6,0,Los Angeles,California,90001
17,Clear,2016-03-03 21:47:00,55.9,,-,63,N/A,30.01,69.1,,1:47 PM,8.0,Calm,Calm,0,Los Angeles,California,90001
18,Clear,2016-03-03 22:47:00,55.9,,-,65,N/A,30.01,68.0,,2:47 PM,7.0,Calm,Calm,0,Los Angeles,California,90001
19,Clear,2016-03-03 23:47:00,55.0,,-,68,N/A,30.01,66.0,,3:47 PM,7.0,Variable,3.5,0,Los Angeles,California,90001
20,Clear,2016-03-04 00:47:00,55.0,,-,70,N/A,30.01,64.9,,4:47 PM,10.0,Variable,4.6,0,Los Angeles,California,90001
21,Clear,2016-03-04 01:47:00,53.1,,-,70,N/A,30.02,63.0,,5:47 PM,10.0,Calm,Calm,0,Los Angeles,California,90001
22,Clear,2016-03-04 02:47:00,55.0,,-,83,N/A,30.03,60.1,,6:47 PM,10.0,Calm,Calm,0,Los Angeles,California,90001
23,Clear,2016-03-04 03:47:00,54.0,,-,83,N/A,30.03,59.0,,7:47 PM,10.0,Calm,Calm,0,Los Angeles,California,90001
24,Clear,2016-03-04 04:47:00,54.0,,-,83,N/A,30.05,59.0,,8:47 PM,10.0,Calm,Calm,0,Los Angeles,California,90001
25,Clear,2016-03-04 05:47:00,54.0,,-,87,N/A,30.05,57.9,,9:47 PM,10.0,Calm,Calm,0,Los Angeles,California,90001
26,Clear,2016-03-04 06:47:00,54.0,,-,89,N/A,30.05,57.0,,10:47 PM,10.0,Calm,Calm,0,Los Angeles,California,90001
27,Clear,2016-03-04 07:47:00,55.0,,-,93,N/A,30.04,57.0,,11:47 PM,10.0,Calm,Calm,0,Los Angeles,California,90001
0,Mostly Cloudy,2016-03-04 08:29:00,55.0,,-,90,N/A,30.05,57.9,,12:29 AM,10.0,Calm,Calm,0,Los Angeles,California,90001
1,Overcast,2016-03-04 08:47:00,55.0,,-,90,N/A,30.05,57.9,,12:47 AM,10.0,Calm,Calm,0,Los Angeles,California,90001
2,Mostly Cloudy,2016-03-04 09:47:00,54.0,,-,89,N/A,30.02,57.0,,1:47 AM,10.0,Calm,Calm,0,Los Angeles,California,90001
3,Overcast,2016-03-04 10:47:00,54.0,,-,87,N/A,30.00,57.9,,2:47 AM,7.0,Calm,Calm,0,Los Angeles,California,90001
4,Overcast,2016-03-04 11:47:00,53.1,,-,87,N/A,29.99,57.0,,3:47 AM,6.0,Calm,Calm,0,Los Angeles,California,90001
5,Haze,2016-03-04 12:47:00,53.1,,-,84,N/A,30.00,57.9,,4:47 AM,6.0,Calm,Calm,0,Los Angeles,California,90001
6,Haze,2016-03-04 13:47:00,53.1,,-,84,N/A,30.01,57.9,,5:47 AM,6.0,Calm,Calm,0,Los Angeles,California,90001
7,Haze,2016-03-04 14:47:00,52.0,,-,81,N/A,30.02,57.9,,6:47 AM,4.0,ESE,3.5,120,Los Angeles,California,90001
8,Haze,2016-03-04 15:47:00,52.0,,-,83,N/A,30.04,57.0,,7:47 AM,4.0,East,3.5,90,Los Angeles,California,90001
9,Haze,2016-03-04 16:47:00,53.1,,-,84,N/A,30.05,57.9,,8:47 AM,4.0,Calm,Calm,0,Los Angeles,California,90001
10,Haze,2016-03-04 17:35:00,53.1,,-,78,N/A,30.06,60.1,,9:35 AM,4.0,Calm,Calm,0,Los Angeles,California,90001
11,Haze,2016-03-04 17:47:00,52.0,,-,72,N/A,30.06,61.0,,9:47 AM,4.0,Calm,Calm,0,Los Angeles,California,90001
12,Haze,2016-03-04 18:11:00,52.0,,-,72,N/A,30.05,61.0,,10:11 AM,5.0,Calm,Calm,0,Los Angeles,California,90001
13,Haze,2016-03-04 18:47:00,52.0,,-,65,N/A,30.03,64.0,,10:47 AM,5.0,Calm,Calm,0,Los Angeles,California,90001
14,Haze,2016-03-04 19:47:00,52.0,,-,60,N/A,30.00,66.0,,11:47 AM,4.0,Variable,3.5,0,Los Angeles,California,90001
15,Haze,2016-03-04 20:47:00,52.0,,-,56,N/A,29.98,68.0,,12:47 PM,4.0,Calm,Calm,0,Los Angeles,California,90001
16,Clear,2016-03-04 21:47:00,52.0,,-,54,N/A,29.95,69.1,,1:47 PM,9.0,Variable,3.5,0,Los Angeles,California,90001
17,Clear,2016-03-04 22:47:00,53.1,,-,67,N/A,29.97,64.0,,2:47 PM,10.0,West,9.2,270,Los Angeles,California,90001
18,Clear,2016-03-04 23:47:00,54.0,,-,70,N/A,29.96,64.0,,3:47 PM,9.0,Calm,Calm,0,Los Angeles,California,90001
19,Clear,2016-03-05 00:47:00,52.0,,-,67,N/A,29.99,63.0,,4:47 PM,9.0,West,4.6,260,Los Angeles,California,90001
20,Clear,2016-03-05 01:47:00,53.1,,-,72,N/A,29.99,62.1,,5:47 PM,7.0,Variable,3.5,0,Los Angeles,California,90001
21,Clear,2016-03-05 02:47:00,54.0,,-,78,N/A,30.01,61.0,,6:47 PM,10.0,West,3.5,280,Los Angeles,California,90001
22,Mostly Cloudy,2016-03-05 03:39:00,55.0,,-,83,N/A,30.01,60.1,,7:39 PM,8.0,Calm,Calm,0,Los Angeles,California,90001
23,Mostly Cloudy,2016-03-05 03:47:00,55.0,,-,83,N/A,30.01,60.1,,7:47 PM,9.0,Calm,Calm,0,Los Angeles,California,90001
24,Overcast,2016-03-05 04:47:00,55.0,,-,83,N/A,30.04,60.1,,8:47 PM,10.0,Calm,Calm,0,Los Angeles,California,90001
25,Scattered Clouds,2016-03-05 05:13:00,54.0,,-,80,N/A,30.03,60.1,,9:13 PM,10.0,Variable,3.5,0,Los Angeles,California,90001
26,Mostly Cloudy,2016-03-05 05:27:00,54.0,,-,80,N/A,30.04,60.1,,9:27 PM,10.0,Calm,Calm,0,Los Angeles,California,90001
27,Overcast,2016-03-05 05:47:00,54.0,,-,78,N/A,30.04,61.0,,9:47 PM,10.0,Calm,Calm,0,Los Angeles,California,90001
28,Mostly Cloudy,2016-03-05 06:47:00,54.0,,-,80,N/A,30.03,60.1,,10:47 PM,10.0,ESE,3.5,110,Los Angeles,California,90001
29,Overcast,2016-03-05 07:47:00,54.0,,-,80,N/A,30.04,60.1,,11:47 PM,7.0,East,3.5,80,Los Angeles,California,90001
0,Overcast,2016-03-05 08:47:00,54.0,,-,80,N/A,30.04,60.1,,12:47 AM,7.0,ESE,4.6,110,Los Angeles,California,90001
1,Overcast,2016-03-05 09:47:00,54.0,,-,80,N/A,30.04,60.1,,1:47 AM,8.0,Variable,4.6,0,Los Angeles,California,90001
2,Overcast,2016-03-05 10:42:00,53.1,,-,78,N/A,30.02,60.1,,2:42 AM,8.0,Variable,3.5,0,Los Angeles,California,90001
3,Overcast,2016-03-05 10:47:00,54.0,,-,80,N/A,30.02,60.1,,2:47 AM,8.0,East,3.5,90,Los Angeles,California,90001
4,Overcast,2016-03-05 11:47:00,54.0,,-,83,N/A,30.02,59.0,,3:47 AM,7.0,Calm,Calm,0,Los Angeles,California,90001
5,Overcast,2016-03-05 12:29:00,55.0,,-,87,N/A,30.03,59.0,,4:29 AM,6.0,Calm,Calm,0,Los Angeles,California,90001
6,Overcast,2016-03-05 12:47:00,55.0,,-,87,N/A,30.02,59.0,,4:47 AM,8.0,Calm,Calm,0,Los Angeles,California,90001
7,Overcast,2016-03-05 13:47:00,52.0,,-,75,N/A,30.03,60.1,,5:47 AM,10.0,Calm,Calm,0,Los Angeles,California,90001
8,Overcast,2016-03-05 14:47:00,51.1,,-,70,N/A,30.04,61.0,,6:47 AM,10.0,East,3.5,100,Los Angeles,California,90001
9,Overcast,2016-03-05 15:02:00,51.1,,-,70,N/A,30.06,61.0,,7:02 AM,10.0,Calm,Calm,0,Los Angeles,California,90001
10,Overcast,2016-03-05 15:30:00,51.1,,-,70,N/A,30.06,61.0,,7:30 AM,10.0,East,3.5,90,Los Angeles,California,90001
11,Overcast,2016-03-05 15:40:00,51.1,,-,67,N/A,30.07,62.1,,7:40 AM,10.0,Calm,Calm,0,Los Angeles,California,90001
12,Overcast,2016-03-05 15:47:00,51.1,,-,70,N/A,30.06,61.0,,7:47 AM,10.0,ESE,3.5,110,Los Angeles,California,90001
13,Overcast,2016-03-05 16:47:00,51.1,,-,67,N/A,30.08,62.1,,8:47 AM,10.0,Calm,Calm,0,Los Angeles,California,90001
14,Overcast,2016-03-05 17:47:00,51.1,,-,65,N/A,30.06,63.0,,9:47 AM,10.0,Calm,Calm,0,Los Angeles,California,90001
15,Overcast,2016-03-05 18:47:00,52.0,,-,65,N/A,30.05,64.0,,10:47 AM,10.0,Variable,4.6,0,Los Angeles,California,90001
16,Overcast,2016-03-05 19:47:00,52.0,,-,63,N/A,30.04,64.9,,11:47 AM,10.0,SSE,3.5,150,Los Angeles,California,90001
17,Overcast,2016-03-05 20:06:00,53.1,,-,65,N/A,30.03,64.9,,12:06 PM,10.0,Calm,Calm,0,Los Angeles,California,90001
18,Overcast,2016-03-05 20:31:00,53.1,,-,63,N/A,30.02,66.0,,12:31 PM,10.0,Variable,3.5,0,Los Angeles,California,90001
19,Overcast,2016-03-05 20:34:00,53.1,,-,61,N/A,30.02,66.9,,12:34 PM,10.0,Variable,3.5,0,Los Angeles,California,90001
20,Overcast,2016-03-05 20:41:00,53.1,,-,63,N/A,30.02,66.0,,12:41 PM,10.0,Calm,Calm,0,Los Angeles,California,90001
21,Overcast,2016-03-05 20:47:00,54.0,,-,65,N/A,30.01,66.0,,12:47 PM,10.0,Calm,Calm,0,Los Angeles,California,90001
22,Overcast,2016-03-05 21:03:00,53.1,,-,63,N/A,30.01,66.0,,1:03 PM,10.0,Calm,Calm,0,Los Angeles,California,90001
23,Light Rain,2016-03-05 21:36:00,54.0,Rain,-,65,0.00,29.99,66.0,,1:36 PM,10.0,Calm,Calm,0,Los Angeles,California,90001
24,Overcast,2016-03-05 21:47:00,54.0,,-,65,0.00,29.99,66.0,,1:47 PM,10.0,Calm,Calm,0,Los Angeles,California,90001
25,Overcast,2016-03-05 21:59:00,54.0,,-,65,N/A,29.99,66.0,,1:59 PM,10.0,Calm,Calm,0,Los Angeles,California,90001
26,Overcast,2016-03-05 22:47:00,55.9,,-,70,N/A,29.98,66.0,,2:47 PM,10.0,Calm,Calm,0,Los Angeles,California,90001
27,Overcast,2016-03-05 23:06:00,55.9,,-,70,N/A,29.98,66.0,,3:06 PM,10.0,West,5.8,280,Los Angeles,California,90001
28,Overcast,2016-03-05 23:47:00,55.9,,-,73,N/A,29.97,64.9,,3:47 PM,10.0,West,4.6,270,Los Angeles,California,90001
29,Overcast,2016-03-06 00:47:00,57.0,,-,78,N/A,29.97,64.0,,4:47 PM,10.0,Calm,Calm,0,Los Angeles,California,90001
30,Overcast,2016-03-06 01:47:00,55.9,,-,78,N/A,29.98,63.0,,5:47 PM,10.0,Variable,3.5,0,Los Angeles,California,90001
31,Overcast,2016-03-06 02:47:00,57.0,,-,84,N/A,29.99,62.1,,6:47 PM,10.0,West,4.6,280,Los Angeles,California,90001
32,Overcast,2016-03-06 02:56:00,57.0,,-,84,N/A,30.00,62.1,,6:56 PM,10.0,Variable,3.5,0,Los Angeles,California,90001
33,Overcast,2016-03-06 03:47:00,57.0,,-,84,N/A,30.01,62.1,,7:47 PM,10.0,Calm,Calm,0,Los Angeles,California,90001
34,Overcast,2016-03-06 04:30:00,57.9,,-,86,N/A,30.01,62.1,,8:30 PM,10.0,Calm,Calm,0,Los Angeles,California,90001
35,Overcast,2016-03-06 04:47:00,57.9,,-,90,N/A,30.02,61.0,,8:47 PM,10.0,Calm,Calm,0,Los Angeles,California,90001
36,Overcast,2016-03-06 05:47:00,57.0,,-,90,N/A,30.03,60.1,,9:47 PM,10.0,Calm,Calm,0,Los Angeles,California,90001
37,Overcast,2016-03-06 05:55:00,57.0,,-,90,N/A,30.03,60.1,,9:55 PM,10.0,Calm,Calm,0,Los Angeles,California,90001
38,Light Rain,2016-03-06 06:24:00,57.9,Rain,-,96,0.01,30.04,59.0,,10:24 PM,3.0,Calm,Calm,0,Los Angeles,California,90001
39,Light Rain,2016-03-06 06:26:00,57.9,Rain,-,96,0.01,30.04,59.0,,10:26 PM,2.5,Calm,Calm,0,Los Angeles,California,90001
40,Light Rain,2016-03-06 06:31:00,57.9,Rain,-,96,0.01,30.04,59.0,,10:31 PM,3.0,Calm,Calm,0,Los Angeles,California,90001
41,Overcast,2016-03-06 06:47:00,57.9,,-,96,0.01,30.03,59.0,,10:47 PM,5.0,Calm,Calm,0,Los Angeles,California,90001
42,Overcast,2016-03-06 07:47:00,57.0,,-,90,N/A,30.02,60.1,,11:47 PM,10.0,Calm,Calm,0,Los Angeles,California,90001
0,Overcast,2016-03-06 08:47:00,55.9,,-,93,N/A,30.06,57.9,,12:47 AM,5.0,Variable,3.5,0,Los Angeles,California,90001
1,Overcast,2016-03-06 08:53:00,55.9,,-,93,N/A,30.05,57.9,,12:53 AM,10.0,Calm,Calm,0,Los Angeles,California,90001
2,Light Rain,2016-03-06 09:03:00,55.0,Rain,-,90,0.00,30.03,57.9,,1:03 AM,10.0,Calm,Calm,0,Los Angeles,California,90001
3,Light Rain,2016-03-06 09:47:00,55.0,Rain,-,90,0.00,30.00,57.9,,1:47 AM,10.0,Variable,3.5,0,Los Angeles,California,90001
4,Light Rain,2016-03-06 10:47:00,55.9,Rain,-,93,0.07,29.95,57.9,,2:47 AM,7.0,Variable,4.6,0,Los Angeles,California,90001
5,Rain,2016-03-06 11:07:00,57.0,Rain,-,97,0.04,29.95,57.9,,3:07 AM,2.5,Variable,3.5,0,Los Angeles,California,90001
6,Rain,2016-03-06 11:13:00,57.0,Rain,-,97,0.05,29.96,57.9,,3:13 AM,3.0,Calm,Calm,0,Los Angeles,California,90001
7,Rain,2016-03-06 11:20:00,57.0,Rain,-,97,0.07,29.96,57.9,,3:20 AM,2.5,Variable,3.5,0,Los Angeles,California,90001
8,Rain,2016-03-06 11:35:00,57.0,Rain,-,97,0.14,29.94,57.9,,3:35 AM,2.5,Variable,3.5,0,Los Angeles,California,90001
9,Rain,2016-03-06 11:39:00,57.0,Rain,-,97,0.15,29.94,57.9,,3:39 AM,3.0,Variable,4.6,0,Los Angeles,California,90001
10,Rain,2016-03-06 11:44:00,57.0,Rain,-,97,0.16,29.95,57.9,,3:44 AM,4.0,Calm,Calm,0,Los Angeles,California,90001
11,Rain,2016-03-06 11:47:00,57.0,Rain,-,97,0.17,29.97,57.9,,3:47 AM,3.0,Calm,Calm,0,Los Angeles,California,90001
12,Heavy Rain,2016-03-06 11:50:00,55.9,Rain,-,93,0.01,29.98,57.9,,3:50 AM,2.0,Variable,3.5,0,Los Angeles,California,90001
13,Heavy Rain,2016-03-06 11:53:00,55.9,Rain,-,96,0.05,29.97,57.0,,3:53 AM,1.5,Variable,3.5,0,Los Angeles,California,90001
14,Rain,2016-03-06 12:02:00,55.9,Rain,-,93,0.11,29.95,57.9,,4:02 AM,2.5,Variable,4.6,0,Los Angeles,California,90001
15,Rain,2016-03-06 12:05:00,55.9,Rain,-,93,0.11,29.95,57.9,,4:05 AM,4.0,Variable,6.9,0,Los Angeles,California,90001
16,Light Rain,2016-03-06 12:41:00,55.9,Rain,-,93,0.15,29.94,57.9,,4:41 AM,2.5,Variable,6.9,0,Los Angeles,California,90001
17,Light Rain,2016-03-06 12:47:00,55.9,Rain,-,93,0.15,29.93,57.9,,4:47 AM,2.5,SSE,5.8,150,Los Angeles,California,90001
18,Heavy Rain,2016-03-06 13:00:00,55.9,Rain,-,93,0.04,29.93,57.9,,5:00 AM,1.8,Variable,4.6,0,Los Angeles,California,90001
19,Heavy Rain,2016-03-06 13:12:00,55.9,Rain,-,93,0.10,29.93,57.9,,5:12 AM,2.0,Variable,6.9,0,Los Angeles,California,90001
20,Rain,2016-03-06 13:24:00,55.9,Rain,-,93,0.13,29.93,57.9,,5:24 AM,3.0,Variable,4.6,0,Los Angeles,California,90001
21,Heavy Rain,2016-03-06 13:39:00,57.0,Rain,-,97,0.16,29.94,57.9,,5:39 AM,2.5,Calm,Calm,0,Los Angeles,California,90001
22,Heavy Rain,2016-03-06 13:43:00,57.0,Rain,-,100,0.20,29.94,57.0,,5:43 AM,1.5,Calm,Calm,0,Los Angeles,California,90001
23,Rain,2016-03-06 13:47:00,55.9,Rain,-,100,0.23,29.94,55.9,,5:47 AM,1.8,Calm,Calm,0,Los Angeles,California,90001
24,Light Rain,2016-03-06 13:55:00,55.0,Rain,-,97,0.01,29.94,55.9,,5:55 AM,4.0,Calm,Calm,0,Los Angeles,California,90001
25,Light Rain,2016-03-06 13:58:00,55.0,Rain,-,97,0.01,29.94,55.9,,5:58 AM,5.0,Calm,Calm,0,Los Angeles,California,90001
26,Overcast,2016-03-06 14:47:00,55.0,,-,97,0.02,29.96,55.9,,6:47 AM,10.0,Variable,3.5,0,Los Angeles,California,90001
27,Mostly Cloudy,2016-03-06 15:47:00,54.0,,-,87,N/A,29.99,57.9,,7:47 AM,10.0,West,6.9,270,Los Angeles,California,90001
28,Partly Cloudy,2016-03-06 16:47:00,52.0,,-,72,N/A,29.99,61.0,,8:47 AM,10.0,West,8.1,270,Los Angeles,California,90001
29,Clear,2016-03-06 17:47:00,50.0,,-,63,N/A,30.01,63.0,,9:47 AM,10.0,West,9.2,280,Los Angeles,California,90001
30,Clear,2016-03-06 18:47:00,48.9,,16.1,54,N/A,30.00,66.0,,10:47 AM,10.0,West,8.1,270,Los Angeles,California,90001
31,Clear,2016-03-06 19:47:00,48.0,,-,52,N/A,29.99,66.0,,11:47 AM,10.0,Variable,4.6,0,Los Angeles,California,90001
32,Clear,2016-03-06 20:47:00,48.0,,18.4,54,N/A,29.97,64.9,,12:47 PM,10.0,West,6.9,260,Los Angeles,California,90001
33,Clear,2016-03-06 21:47:00,48.0,,20.7,54,N/A,29.97,64.9,,1:47 PM,10.0,West,8.1,270,Los Angeles,California,90001
34,Clear,2016-03-06 22:47:00,48.0,,23.0,56,N/A,29.96,64.0,,2:47 PM,10.0,West,12.7,270,Los Angeles,California,90001
35,Clear,2016-03-06 23:47:00,46.9,,23.0,56,N/A,29.96,63.0,,3:47 PM,10.0,West,10.4,260,Los Angeles,California,90001
36,Clear,2016-03-07 00:47:00,48.0,,-,58,N/A,29.95,63.0,,4:47 PM,10.0,Variable,3.5,0,Los Angeles,California,90001
37,Clear,2016-03-07 01:47:00,48.0,,-,62,N/A,29.96,61.0,,5:47 PM,10.0,Variable,3.5,0,Los Angeles,California,90001
38,Clear,2016-03-07 02:47:00,48.9,,-,69,N/A,29.97,59.0,,6:47 PM,10.0,West,6.9,280,Los Angeles,California,90001
39,Clear,2016-03-07 03:47:00,48.9,,-,74,N/A,29.98,57.0,,7:47 PM,10.0,Calm,Calm,0,Los Angeles,California,90001
40,Clear,2016-03-07 04:47:00,48.9,,-,74,N/A,30.00,57.0,,8:47 PM,10.0,Calm,Calm,0,Los Angeles,California,90001
41,Clear,2016-03-07 05:47:00,48.0,,-,75,N/A,30.00,55.9,,9:47 PM,10.0,Calm,Calm,0,Los Angeles,California,90001
42,Clear,2016-03-07 06:47:00,46.0,,-,72,N/A,29.99,55.0,,10:47 PM,10.0,Calm,Calm,0,Los Angeles,California,90001
43,Clear,2016-03-07 07:47:00,46.9,,-,77,N/A,29.99,54.0,,11:47 PM,10.0,Calm,Calm,0,Los Angeles,California,90001
0,Mostly Cloudy,2016-03-07 08:47:00,45.0,,-,69,N/A,29.99,55.0,,12:47 AM,10.0,Calm,Calm,0,Los Angeles,California,90001
1,Clear,2016-03-07 09:47:00,45.0,,-,74,N/A,29.97,53.1,,1:47 AM,10.0,Calm,Calm,0,Los Angeles,California,90001
2,Partly Cloudy,2016-03-07 10:47:00,45.0,,-,74,N/A,29.94,53.1,,2:47 AM,10.0,Calm,Calm,0,Los Angeles,California,90001
3,Clear,2016-03-07 11:47:00,45.0,,-,80,N/A,29.93,51.1,,3:47 AM,10.0,Calm,Calm,0,Los Angeles,California,90001
4,Scattered Clouds,2016-03-07 12:47:00,46.0,,-,80,N/A,29.89,52.0,,4:47 AM,10.0,East,3.5,90,Los Angeles,California,90001
5,Light Rain,2016-03-07 13:28:00,45.0,Rain,-,72,0.00,29.88,54.0,,5:28 AM,10.0,East,4.6,100,Los Angeles,California,90001
6,Overcast,2016-03-07 13:32:00,45.0,,-,72,0.00,29.88,54.0,,5:32 AM,10.0,ESE,4.6,110,Los Angeles,California,90001
7,Light Rain,2016-03-07 13:38:00,46.0,Rain,-,75,0.00,29.87,54.0,,5:38 AM,9.0,East,5.8,90,Los Angeles,California,90001
8,Light Rain,2016-03-07 13:47:00,46.0,Rain,-,75,0.00,29.87,54.0,,5:47 AM,8.0,Calm,Calm,0,Los Angeles,California,90001
9,Heavy Rain,2016-03-07 14:30:00,46.0,Rain,24.2,90,0.10,29.89,48.9,,6:30 AM,1.2,Variable,3.5,0,Los Angeles,California,90001
10,Heavy Rain,2016-03-07 14:43:00,46.9,Rain,-,96,0.26,29.89,48.0,,6:43 AM,2.5,Calm,Calm,0,Los Angeles,California,90001
11,Heavy Rain,2016-03-07 14:47:00,46.9,Rain,-,93,0.28,29.89,48.9,,6:47 AM,2.5,North,-9999.0,0,Los Angeles,California,90001
12,Rain,2016-03-07 14:53:00,46.9,Rain,21.9,93,0.02,29.89,48.9,,6:53 AM,2.5,West,10.4,270,Los Angeles,California,90001
13,Rain,2016-03-07 14:56:00,46.0,Rain,21.9,90,0.03,29.89,48.9,,6:56 AM,3.0,Variable,6.9,0,Los Angeles,California,90001
14,Mostly Cloudy,2016-03-07 15:47:00,46.0,,-,86,0.10,29.86,50.0,,7:47 AM,10.0,Calm,Calm,0,Los Angeles,California,90001
15,Overcast,2016-03-07 16:47:00,46.9,,-,86,N/A,29.88,51.1,,8:47 AM,10.0,Calm,Calm,0,Los Angeles,California,90001
16,Clear,2016-03-07 17:47:00,44.1,,-,67,N/A,29.88,55.0,,9:47 AM,10.0,WNW,4.6,290,Los Angeles,California,90001
17,Scattered Clouds,2016-03-07 18:47:00,41.0,,-,53,N/A,29.86,57.9,,10:47 AM,10.0,West,5.8,280,Los Angeles,California,90001
18,Mostly Cloudy,2016-03-07 19:47:00,39.9,,-,47,N/A,29.83,60.1,,11:47 AM,10.0,West,6.9,260,Los Angeles,California,90001
19,Partly Cloudy,2016-03-07 20:47:00,41.0,,21.9,48,N/A,29.79,61.0,,12:47 PM,10.0,West,8.1,270,Los Angeles,California,90001
20,Partly Cloudy,2016-03-07 21:47:00,39.9,,-,46,N/A,29.77,61.0,,1:47 PM,10.0,North,-9999.0,0,Los Angeles,California,90001
21,Partly Cloudy,2016-03-07 22:47:00,42.1,,20.7,56,N/A,29.75,57.9,,2:47 PM,10.0,West,10.4,260,Los Angeles,California,90001
22,Partly Cloudy,2016-03-07 23:47:00,42.1,,17.3,56,N/A,29.74,57.9,,3:47 PM,10.0,West,6.9,270,Los Angeles,California,90001
23,Clear,2016-03-08 00:47:00,44.1,,-,62,N/A,29.75,57.0,,4:47 PM,10.0,West,8.1,260,Los Angeles,California,90001
24,Mostly Cloudy,2016-03-08 01:47:00,43.0,,-,64,N/A,29.75,55.0,,5:47 PM,10.0,West,5.8,270,Los Angeles,California,90001
25,Clear,2016-03-08 02:47:00,39.9,,-,57,N/A,29.75,55.0,,6:47 PM,10.0,West,4.6,280,Los Angeles,California,90001
26,Clear,2016-03-08 03:47:00,42.1,,-,64,N/A,29.77,54.0,,7:47 PM,10.0,Calm,Calm,0,Los Angeles,California,90001
27,Clear,2016-03-08 04:47:00,43.0,,-,69,N/A,29.79,53.1,,8:47 PM,10.0,ENE,4.6,70,Los Angeles,California,90001
28,Clear,2016-03-08 05:47:00,42.1,,-,71,N/A,29.82,51.1,,9:47 PM,10.0,NNE,3.5,20,Los Angeles,California,90001
29,Clear,2016-03-08 06:47:00,42.1,,-,74,N/A,29.82,50.0,,10:47 PM,10.0,Calm,Calm,0,Los Angeles,California,90001
30,Clear,2016-03-08 07:47:00,42.1,,-,77,N/A,29.82,48.9,,11:47 PM,10.0,Calm,Calm,0,Los Angeles,California,90001
0,Clear,2016-03-08 08:47:00,39.0,,-,63,N/A,29.84,51.1,,12:47 AM,10.0,Calm,Calm,0,Los Angeles,California,90001
1,Clear,2016-03-08 09:47:00,37.0,,-,55,N/A,29.83,53.1,,1:47 AM,10.0,Variable,4.6,0,Los Angeles,California,90001
2,Clear,2016-03-08 10:47:00,37.0,,-,55,N/A,29.86,53.1,,2:47 AM,10.0,NW,3.5,310,Los Angeles,California,90001
3,Clear,2016-03-08 11:47:00,37.0,,-,59,N/A,29.85,51.1,,3:47 AM,10.0,Calm,Calm,0,Los Angeles,California,90001
4,Clear,2016-03-08 12:47:00,36.0,,-,51,N/A,29.88,54.0,,4:47 AM,10.0,Variable,5.8,0,Los Angeles,California,90001
5,Clear,2016-03-08 13:47:00,36.0,,-,51,N/A,29.89,54.0,,5:47 AM,10.0,Variable,4.6,0,Los Angeles,California,90001
6,Clear,2016-03-08 14:47:00,39.0,,-,63,N/A,29.92,51.1,,6:47 AM,10.0,East,3.5,100,Los Angeles,California,90001
7,Clear,2016-03-08 15:47:00,39.9,,-,55,N/A,29.95,55.9,,7:47 AM,10.0,Calm,Calm,0,Los Angeles,California,90001
8,Clear,2016-03-08 16:47:00,41.0,,-,51,N/A,29.96,59.0,,8:47 AM,10.0,Calm,Calm,0,Los Angeles,California,90001
9,Clear,2016-03-08 17:47:00,41.0,,-,45,N/A,29.98,63.0,,9:47 AM,10.0,Variable,3.5,0,Los Angeles,California,90001
10,Clear,2016-03-08 18:47:00,42.1,,-,40,N/A,29.98,66.9,,10:47 AM,10.0,Calm,Calm,0,Los Angeles,California,90001
11,Clear,2016-03-08 19:47:00,39.9,,-,33,N/A,29.96,70.0,,11:47 AM,10.0,Variable,3.5,0,Los Angeles,California,90001
12,Clear,2016-03-08 20:47:00,41.0,,-,35,N/A,29.94,70.0,,12:47 PM,10.0,Variable,3.5,0,Los Angeles,California,90001
13,Clear,2016-03-08 21:47:00,43.0,,-,38,N/A,29.94,70.0,,1:47 PM,10.0,Variable,3.5,0,Los Angeles,California,90001
14,Clear,2016-03-08 22:47:00,43.0,,-,40,N/A,29.92,68.0,,2:47 PM,10.0,Variable,3.5,0,Los Angeles,California,90001
15,Clear,2016-03-08 23:47:00,42.1,,-,40,N/A,29.92,66.9,,3:47 PM,10.0,North,-9999.0,0,Los Angeles,California,90001
16,Clear,2016-03-09 00:47:00,36.0,,-,30,N/A,29.91,69.1,,4:47 PM,10.0,Variable,4.6,0,Los Angeles,California,90001
17,Clear,2016-03-09 01:47:00,45.0,,-,50,N/A,29.95,64.0,,5:47 PM,10.0,Variable,4.6,0,Los Angeles,California,90001
18,Clear,2016-03-09 02:47:00,45.0,,-,50,N/A,29.96,64.0,,6:47 PM,10.0,Calm,Calm,0,Los Angeles,California,90001
19,Clear,2016-03-09 03:47:00,41.0,,-,43,N/A,29.98,64.0,,7:47 PM,10.0,Calm,Calm,0,Los Angeles,California,90001
20,Clear,2016-03-09 04:47:00,37.0,,-,38,N/A,29.98,63.0,,8:47 PM,10.0,Calm,Calm,0,Los Angeles,California,90001
21,Clear,2016-03-09 05:47:00,35.1,,-,37,N/A,29.98,62.1,,9:47 PM,10.0,West,5.8,270,Los Angeles,California,90001
22,Clear,2016-03-09 06:47:00,30.9,,-,31,N/A,29.96,62.1,,10:47 PM,10.0,Calm,Calm,0,Los Angeles,California,90001
23,Clear,2016-03-09 07:47:00,43.0,,-,55,N/A,29.96,59.0,,11:47 PM,10.0,SE,4.6,130,Los Angeles,California,90001
0,Clear,2016-03-09 08:47:00,48.0,,-,70,N/A,29.99,57.9,,12:47 AM,10.0,ESE,3.5,110,Los Angeles,California,90001
1,Clear,2016-03-09 09:47:00,44.1,,-,62,N/A,29.97,57.0,,1:47 AM,10.0,Calm,Calm,0,Los Angeles,California,90001
2,Clear,2016-03-09 10:47:00,45.0,,-,69,N/A,29.97,55.0,,2:47 AM,10.0,Calm,Calm,0,Los Angeles,California,90001
3,Clear,2016-03-09 11:47:00,45.0,,-,74,N/A,29.98,53.1,,3:47 AM,10.0,Calm,Calm,0,Los Angeles,California,90001
4,Clear,2016-03-09 12:47:00,44.1,,-,64,N/A,29.98,55.9,,4:47 AM,10.0,Calm,Calm,0,Los Angeles,California,90001
5,Mostly Cloudy,2016-03-09 13:24:00,46.9,,-,74,N/A,29.99,55.0,,5:24 AM,10.0,Calm,Calm,0,Los Angeles,California,90001
6,Mostly Cloudy,2016-03-09 13:47:00,48.9,,-,77,N/A,29.99,55.9,,5:47 AM,10.0,Calm,Calm,0,Los Angeles,California,90001
7,Scattered Clouds,2016-03-09 13:51:00,48.9,,-,77,N/A,30.00,55.9,,5:51 AM,10.0,Calm,Calm,0,Los Angeles,California,90001
8,Haze,2016-03-09 14:47:00,48.9,,-,77,N/A,30.01,55.9,,6:47 AM,6.0,Calm,Calm,0,Los Angeles,California,90001
9,Scattered Clouds,2016-03-09 15:12:00,48.0,,-,72,N/A,30.02,57.0,,7:12 AM,10.0,Calm,Calm,0,Los Angeles,California,90001
10,Clear,2016-03-09 15:47:00,48.9,,-,69,N/A,30.02,59.0,,7:47 AM,10.0,East,4.6,90,Los Angeles,California,90001
11,Clear,2016-03-09 16:47:00,51.1,,-,65,N/A,30.04,63.0,,8:47 AM,10.0,Variable,4.6,0,Los Angeles,California,90001
12,Clear,2016-03-09 17:47:00,48.9,,-,58,N/A,30.03,64.0,,9:47 AM,10.0,Variable,3.5,0,Los Angeles,California,90001
13,Clear,2016-03-09 18:47:00,46.0,,-,44,N/A,30.03,69.1,,10:47 AM,10.0,Variable,3.5,0,Los Angeles,California,90001
14,Clear,2016-03-09 19:47:00,45.0,,-,38,N/A,30.02,72.0,,11:47 AM,10.0,Calm,Calm,0,Los Angeles,California,90001
15,Clear,2016-03-09 20:47:00,52.0,,-,49,N/A,30.00,72.0,,12:47 PM,10.0,West,6.9,270,Los Angeles,California,90001
16,Clear,2016-03-09 21:47:00,53.1,,-,55,N/A,29.98,70.0,,1:47 PM,10.0,West,6.9,280,Los Angeles,California,90001
17,Clear,2016-03-09 22:47:00,52.0,,-,54,N/A,29.98,69.1,,2:47 PM,10.0,North,-9999.0,0,Los Angeles,California,90001
18,Clear,2016-03-09 23:47:00,50.0,,-,51,N/A,29.99,69.1,,3:47 PM,10.0,Variable,3.5,0,Los Angeles,California,90001
19,Clear,2016-03-10 00:47:00,45.0,,-,43,N/A,29.99,68.0,,4:47 PM,10.0,Variable,3.5,0,Los Angeles,California,90001
20,Clear,2016-03-10 01:47:00,52.0,,-,65,N/A,30.00,64.0,,5:47 PM,10.0,Calm,Calm,0,Los Angeles,California,90001
21,Clear,2016-03-10 02:47:00,54.0,,-,75,N/A,30.01,62.1,,6:47 PM,10.0,Calm,Calm,0,Los Angeles,California,90001
22,Clear,2016-03-10 03:47:00,54.0,,-,80,N/A,30.03,60.1,,7:47 PM,10.0,Calm,Calm,0,Los Angeles,California,90001
23,Clear,2016-03-10 04:47:00,54.0,,-,80,N/A,30.04,60.1,,8:47 PM,10.0,Calm,Calm,0,Los Angeles,California,90001
24,Clear,2016-03-10 05:47:00,54.0,,-,80,N/A,30.05,60.1,,9:47 PM,10.0,Calm,Calm,0,Los Angeles,California,90001
25,Clear,2016-03-10 06:47:00,54.0,,-,83,N/A,30.05,59.0,,10:47 PM,10.0,Calm,Calm,0,Los Angeles,California,90001
26,Clear,2016-03-10 07:47:00,54.0,,-,87,N/A,30.05,57.9,,11:47 PM,10.0,Calm,Calm,0,Los Angeles,California,90001
0,Clear,2016-03-10 08:47:00,54.0,,-,83,N/A,30.05,59.0,,12:47 AM,10.0,Calm,Calm,0,Los Angeles,California,90001
1,Clear,2016-03-10 09:47:00,53.1,,-,87,N/A,30.04,57.0,,1:47 AM,10.0,Calm,Calm,0,Los Angeles,California,90001
2,Clear,2016-03-10 10:47:00,53.1,,-,87,N/A,30.04,57.0,,2:47 AM,10.0,Calm,Calm,0,Los Angeles,California,90001
3,Clear,2016-03-10 11:47:00,53.1,,-,87,N/A,30.01,57.0,,3:47 AM,10.0,Calm,Calm,0,Los Angeles,California,90001
4,Clear,2016-03-10 12:47:00,52.0,,-,89,N/A,30.01,55.0,,4:47 AM,10.0,Calm,Calm,0,Los Angeles,California,90001
5,Clear,2016-03-10 13:47:00,51.1,,-,86,N/A,30.03,55.0,,5:47 AM,10.0,Calm,Calm,0,Los Angeles,California,90001
6,Clear,2016-03-10 14:47:00,51.1,,-,86,N/A,30.03,55.0,,6:47 AM,10.0,Calm,Calm,0,Los Angeles,California,90001
7,Clear,2016-03-10 15:47:00,51.1,,-,67,N/A,30.04,62.1,,7:47 AM,10.0,Calm,Calm,0,Los Angeles,California,90001
8,Clear,2016-03-10 16:47:00,52.0,,-,59,N/A,30.05,66.9,,8:47 AM,10.0,Calm,Calm,0,Los Angeles,California,90001
9,Clear,2016-03-10 17:47:00,51.1,,-,48,N/A,30.04,72.0,,9:47 AM,10.0,Calm,Calm,0,Los Angeles,California,90001
10,Clear,2016-03-10 18:47:00,50.0,,-,41,N/A,30.04,75.0,,10:47 AM,10.0,Calm,Calm,0,Los Angeles,California,90001
11,Clear,2016-03-10 19:47:00,54.0,,-,48,N/A,30.03,75.0,,11:47 AM,10.0,West,5.8,260,Los Angeles,California,90001
12,Clear,2016-03-10 20:47:00,51.1,,-,43,N/A,30.00,75.0,,12:47 PM,10.0,North,-9999.0,0,Los Angeles,California,90001
13,Clear,2016-03-10 21:47:00,51.1,,-,46,N/A,29.99,73.0,,1:47 PM,10.0,Variable,3.5,0,Los Angeles,California,90001
14,Clear,2016-03-10 22:47:00,52.0,,-,51,N/A,29.98,71.1,,2:47 PM,10.0,West,8.1,270,Los Angeles,California,90001
15,Clear,2016-03-10 23:47:00,52.0,,-,51,N/A,29.97,71.1,,3:47 PM,10.0,Variable,3.5,0,Los Angeles,California,90001
16,Clear,2016-03-11 00:47:00,50.0,,-,51,N/A,29.98,69.1,,4:47 PM,10.0,Calm,Calm,0,Los Angeles,California,90001
17,Clear,2016-03-11 01:47:00,53.1,,-,65,N/A,30.00,64.9,,5:47 PM,10.0,Variable,4.6,0,Los Angeles,California,90001
18,Clear,2016-03-11 02:47:00,54.0,,-,72,N/A,30.00,63.0,,6:47 PM,10.0,Variable,3.5,0,Los Angeles,California,90001
19,Clear,2016-03-11 03:47:00,54.0,,-,75,N/A,30.01,62.1,,7:47 PM,10.0,Calm,Calm,0,Los Angeles,California,90001
20,Clear,2016-03-11 04:47:00,55.0,,-,81,N/A,30.02,61.0,,8:47 PM,10.0,Calm,Calm,0,Los Angeles,California,90001
21,Clear,2016-03-11 05:47:00,54.0,,-,78,N/A,30.02,61.0,,9:47 PM,10.0,Calm,Calm,0,Los Angeles,California,90001
22,Clear,2016-03-11 06:47:00,55.0,,-,81,N/A,30.02,61.0,,10:47 PM,10.0,Calm,Calm,0,Los Angeles,California,90001
23,Clear,2016-03-11 07:47:00,54.0,,-,78,N/A,30.01,61.0,,11:47 PM,10.0,Calm,Calm,0,Los Angeles,California,90001
0,Clear,2016-03-11 08:47:00,53.1,,-,78,N/A,30.01,60.1,,12:47 AM,10.0,SE,3.5,130,Los Angeles,California,90001
1,Clear,2016-03-11 09:47:00,51.1,,-,78,N/A,30.00,57.9,,1:47 AM,10.0,Calm,Calm,0,Los Angeles,California,90001
2,Clear,2016-03-11 10:47:00,51.1,,-,78,N/A,29.99,57.9,,2:47 AM,10.0,Calm,Calm,0,Los Angeles,California,90001
3,Clear,2016-03-11 11:47:00,54.0,,-,87,N/A,29.96,57.9,,3:47 AM,8.0,Calm,Calm,0,Los Angeles,California,90001
4,Partly Cloudy,2016-03-11 12:42:00,55.0,,-,90,N/A,29.95,57.9,,4:42 AM,6.0,East,3.5,100,Los Angeles,California,90001
5,Scattered Clouds,2016-03-11 12:47:00,55.0,,-,90,N/A,29.95,57.9,,4:47 AM,7.0,East,3.5,100,Los Angeles,California,90001
6,Mostly Cloudy,2016-03-11 12:52:00,55.0,,-,90,N/A,29.95,57.9,,4:52 AM,9.0,Variable,3.5,0,Los Angeles,California,90001
7,Overcast,2016-03-11 13:47:00,55.0,,-,90,N/A,29.96,57.9,,5:47 AM,10.0,East,4.6,100,Los Angeles,California,90001
8,Overcast,2016-03-11 14:47:00,54.0,,-,87,N/A,29.97,57.9,,6:47 AM,6.0,East,3.5,100,Los Angeles,California,90001
9,Mostly Cloudy,2016-03-11 15:47:00,55.0,,-,87,N/A,29.99,59.0,,7:47 AM,9.0,Calm,Calm,0,Los Angeles,California,90001
10,Mostly Cloudy,2016-03-11 16:18:00,55.0,,-,78,N/A,30.01,62.1,,8:18 AM,10.0,Variable,3.5,0,Los Angeles,California,90001
11,Mostly Cloudy,2016-03-11 16:47:00,55.0,,-,78,N/A,30.01,62.1,,8:47 AM,8.0,Variable,4.6,0,Los Angeles,California,90001
12,Scattered Clouds,2016-03-11 16:57:00,54.0,,-,75,N/A,30.02,62.1,,8:57 AM,7.0,Calm,Calm,0,Los Angeles,California,90001
13,Mostly Cloudy,2016-03-11 17:07:00,55.0,,-,75,N/A,30.02,63.0,,9:07 AM,7.0,Calm,Calm,0,Los Angeles,California,90001
14,Mostly Cloudy,2016-03-11 17:47:00,54.0,,16.1,72,N/A,30.04,63.0,,9:47 AM,10.0,West,11.5,270,Los Angeles,California,90001
15,Scattered Clouds,2016-03-11 17:59:00,53.1,,-,65,N/A,30.04,64.9,,9:59 AM,10.0,West,3.5,260,Los Angeles,California,90001
16,Partly Cloudy,2016-03-11 18:47:00,48.0,,-,51,N/A,30.01,66.9,,10:47 AM,10.0,Calm,Calm,0,Los Angeles,California,90001
17,Clear,2016-03-11 19:47:00,48.0,,-,47,N/A,29.98,69.1,,11:47 AM,10.0,Variable,4.6,0,Los Angeles,California,90001
18,Overcast,2016-03-11 20:47:00,52.0,,-,63,N/A,29.95,64.9,,12:47 PM,10.0,Variable,3.5,0,Los Angeles,California,90001
19,Light Rain,2016-03-11 21:47:00,54.0,Rain,-,72,0.00,29.92,63.0,,1:47 PM,8.0,Variable,6.9,0,Los Angeles,California,90001
20,Heavy Rain,2016-03-11 21:53:00,55.0,Rain,-,81,0.02,29.91,61.0,,1:53 PM,2.5,Variable,4.6,0,Los Angeles,California,90001
21,Heavy Rain,2016-03-11 22:01:00,55.9,Rain,-,86,0.06,29.91,60.1,,2:01 PM,1.8,Calm,Calm,0,Los Angeles,California,90001
22,Rain,2016-03-11 22:07:00,55.9,Rain,-,86,0.09,29.90,60.1,,2:07 PM,2.0,Variable,5.8,0,Los Angeles,California,90001
23,Heavy Rain,2016-03-11 22:15:00,55.0,Rain,-,90,0.10,29.93,57.9,,2:15 PM,1.5,North,-9999.0,0,Los Angeles,California,90001
24,Heavy Rain,2016-03-11 22:20:00,51.1,Fog-Rain,-,93,0.18,29.94,53.1,,2:20 PM,0.5,Variable,4.6,0,Los Angeles,California,90001
25,Rain,2016-03-11 22:31:00,51.1,Rain,-,93,0.33,29.95,53.1,,2:31 PM,1.0,Variable,4.6,0,Los Angeles,California,90001
26,Rain,2016-03-11 22:43:00,51.1,Rain,17.3,93,0.36,29.92,53.1,,2:43 PM,2.0,West,6.9,270,Los Angeles,California,90001
27,Rain,2016-03-11 22:47:00,51.1,Rain,20.7,90,0.37,29.92,54.0,,2:47 PM,2.0,West,10.4,280,Los Angeles,California,90001
28,Rain,2016-03-11 22:51:00,51.1,Rain,20.7,90,0.02,29.92,54.0,,2:51 PM,1.5,West,9.2,270,Los Angeles,California,90001
29,Light Rain,2016-03-11 23:19:00,52.0,Rain,-,93,0.14,29.94,54.0,,3:19 PM,2.5,Variable,3.5,0,Los Angeles,California,90001
30,Light Rain,2016-03-11 23:23:00,52.0,Rain,-,93,0.14,29.95,54.0,,3:23 PM,4.0,WNW,4.6,290,Los Angeles,California,90001
31,Light Rain,2016-03-11 23:47:00,52.0,Rain,-,93,0.15,29.94,54.0,,3:47 PM,10.0,Calm,Calm,0,Los Angeles,California,90001
32,Overcast,2016-03-12 00:47:00,52.0,,-,81,0.00,29.96,57.9,,4:47 PM,10.0,West,5.8,280,Los Angeles,California,90001
33,Partly Cloudy,2016-03-12 01:47:00,51.1,,-,81,N/A,29.96,57.0,,5:47 PM,10.0,Variable,4.6,0,Los Angeles,California,90001
34,Clear,2016-03-12 02:47:00,46.9,,-,72,N/A,29.98,55.9,,6:47 PM,10.0,West,3.5,260,Los Angeles,California,90001
35,Clear,2016-03-12 03:47:00,46.0,,-,72,N/A,29.99,55.0,,7:47 PM,10.0,Calm,Calm,0,Los Angeles,California,90001
36,Clear,2016-03-12 04:47:00,43.0,,-,66,N/A,30.00,54.0,,8:47 PM,10.0,Calm,Calm,0,Los Angeles,California,90001
37,Clear,2016-03-12 05:47:00,44.1,,-,71,N/A,30.02,53.1,,9:47 PM,10.0,Calm,Calm,0,Los Angeles,California,90001
38,Clear,2016-03-12 06:47:00,41.0,,-,62,N/A,30.02,54.0,,10:47 PM,10.0,WNW,8.1,290,Los Angeles,California,90001
39,Clear,2016-03-12 07:47:00,42.1,,-,69,N/A,30.06,52.0,,11:47 PM,10.0,North,4.6,350,Los Angeles,California,90001
0,Clear,2016-03-12 08:47:00,42.1,,-,71,N/A,30.09,51.1,,12:47 AM,10.0,Calm,Calm,0,Los Angeles,California,90001
1,Clear,2016-03-12 09:47:00,42.1,,-,71,N/A,30.09,51.1,,1:47 AM,10.0,Calm,Calm,0,Los Angeles,California,90001
2,Clear,2016-03-12 10:47:00,43.0,,-,77,N/A,30.09,50.0,,2:47 AM,10.0,Calm,Calm,0,Los Angeles,California,90001
3,Clear,2016-03-12 11:47:00,43.0,,-,83,N/A,30.10,48.0,,3:47 AM,10.0,Calm,Calm,0,Los Angeles,California,90001
4,Clear,2016-03-12 12:47:00,43.0,,-,80,N/A,30.10,48.9,,4:47 AM,10.0,NE,3.5,50,Los Angeles,California,90001
5,Clear,2016-03-12 13:47:00,43.0,,-,77,N/A,30.10,50.0,,5:47 AM,10.0,Calm,Calm,0,Los Angeles,California,90001
6,Clear,2016-03-12 14:47:00,42.1,,-,74,N/A,30.13,50.0,,6:47 AM,10.0,Calm,Calm,0,Los Angeles,California,90001
7,Clear,2016-03-12 15:47:00,44.1,,-,69,N/A,30.16,54.0,,7:47 AM,10.0,Calm,Calm,0,Los Angeles,California,90001
8,Clear,2016-03-12 16:47:00,43.0,,-,59,N/A,30.17,57.0,,8:47 AM,10.0,Variable,3.5,0,Los Angeles,California,90001
9,Clear,2016-03-12 17:47:00,42.1,,-,51,N/A,30.17,60.1,,9:47 AM,10.0,Calm,Calm,0,Los Angeles,California,90001
10,Clear,2016-03-12 18:47:00,41.0,,-,48,N/A,30.17,61.0,,10:47 AM,10.0,Variable,3.5,0,Los Angeles,California,90001
11,Clear,2016-03-12 19:47:00,39.9,,-,41,N/A,30.16,64.0,,11:47 AM,10.0,East,4.6,80,Los Angeles,California,90001
12,Clear,2016-03-12 20:47:00,41.0,,-,42,N/A,30.14,64.9,,12:47 PM,10.0,Calm,Calm,0,Los Angeles,California,90001
13,Clear,2016-03-12 21:47:00,45.0,,-,50,N/A,30.13,64.0,,1:47 PM,10.0,North,-9999.0,0,Los Angeles,California,90001
14,Clear,2016-03-12 22:47:00,45.0,,-,52,N/A,30.13,63.0,,2:47 PM,10.0,WSW,3.5,240,Los Angeles,California,90001
15,Clear,2016-03-12 23:47:00,43.0,,-,50,N/A,30.13,62.1,,3:47 PM,10.0,Variable,3.5,0,Los Angeles,California,90001
16,Clear,2016-03-13 00:47:00,44.1,,-,54,N/A,30.13,61.0,,4:47 PM,10.0,Calm,Calm,0,Los Angeles,California,90001
17,Clear,2016-03-13 01:47:00,43.0,,-,53,N/A,30.14,60.1,,5:47 PM,10.0,Variable,3.5,0,Los Angeles,California,90001
18,Clear,2016-03-13 02:47:00,46.9,,-,64,N/A,30.15,59.0,,6:47 PM,10.0,Calm,Calm,0,Los Angeles,California,90001
19,Clear,2016-03-13 03:47:00,48.0,,-,70,N/A,30.16,57.9,,7:47 PM,10.0,Calm,Calm,0,Los Angeles,California,90001
20,Clear,2016-03-13 04:47:00,50.0,,-,75,N/A,30.17,57.9,,8:47 PM,10.0,Calm,Calm,0,Los Angeles,California,90001
21,Clear,2016-03-13 05:47:00,50.0,,-,77,N/A,30.18,57.0,,9:47 PM,10.0,Calm,Calm,0,Los Angeles,California,90001
22,Clear,2016-03-13 06:47:00,50.0,,-,80,N/A,30.18,55.9,,10:47 PM,10.0,East,3.5,100,Los Angeles,California,90001
23,Clear,2016-03-13 07:47:00,48.9,,-,77,N/A,30.17,55.9,,11:47 PM,10.0,East,5.8,90,Los Angeles,California,90001
0,Clear,2016-03-13 08:47:00,48.0,,-,77,N/A,30.17,55.0,12:47 AM,,10.0,East,4.6,100,Los Angeles,California,90001
1,Clear,2016-03-13 09:47:00,46.9,,-,77,N/A,30.17,54.0,1:47 AM,,10.0,East,4.6,80,Los Angeles,California,90001
2,Clear,2016-03-13 10:47:00,46.0,,-,75,N/A,30.16,54.0,3:47 AM,,10.0,Variable,3.5,0,Los Angeles,California,90001
3,Mostly Cloudy,2016-03-13 11:47:00,45.0,,-,74,N/A,30.15,53.1,4:47 AM,,10.0,Calm,Calm,0,Los Angeles,California,90001
4,Mostly Cloudy,2016-03-13 12:47:00,45.0,,-,74,N/A,30.14,53.1,5:47 AM,,10.0,East,3.5,90,Los Angeles,California,90001
5,Overcast,2016-03-13 13:47:00,45.0,,-,72,N/A,30.15,54.0,6:47 AM,,10.0,East,3.5,100,Los Angeles,California,90001
6,Scattered Clouds,2016-03-13 14:05:00,45.0,,-,74,N/A,30.16,53.1,7:05 AM,,10.0,Calm,Calm,0,Los Angeles,California,90001
7,Partly Cloudy,2016-03-13 14:47:00,46.0,,-,77,N/A,30.17,53.1,7:47 AM,,10.0,Calm,Calm,0,Los Angeles,California,90001
8,Clear,2016-03-13 15:47:00,46.9,,-,72,N/A,30.17,55.9,8:47 AM,,10.0,Calm,Calm,0,Los Angeles,California,90001
9,Clear,2016-03-13 16:47:00,46.9,,-,64,N/A,30.18,59.0,9:47 AM,,10.0,Calm,Calm,0,Los Angeles,California,90001
10,Mostly Cloudy,2016-03-13 17:38:00,48.0,,-,60,N/A,30.17,62.1,10:38 AM,,10.0,Calm,Calm,0,Los Angeles,California,90001
11,Scattered Clouds,2016-03-13 17:47:00,46.9,,-,60,N/A,30.17,61.0,10:47 AM,,10.0,Calm,Calm,0,Los Angeles,California,90001
12,Mostly Cloudy,2016-03-13 17:51:00,46.9,,-,60,N/A,30.17,61.0,10:51 AM,,10.0,Calm,Calm,0,Los Angeles,California,90001
13,Mostly Cloudy,2016-03-13 18:08:00,48.0,,-,62,N/A,30.17,61.0,11:08 AM,,10.0,Calm,Calm,0,Los Angeles,California,90001
14,Mostly Cloudy,2016-03-13 18:47:00,46.9,,-,58,N/A,30.16,62.1,11:47 AM,,10.0,Calm,Calm,0,Los Angeles,California,90001
15,Mostly Cloudy,2016-03-13 19:47:00,46.9,,-,52,N/A,30.15,64.9,12:47 PM,,10.0,Variable,4.6,0,Los Angeles,California,90001
16,Overcast,2016-03-13 20:47:00,48.0,,-,54,N/A,30.14,64.9,1:47 PM,,10.0,West,6.9,270,Los Angeles,California,90001
17,Clear,2016-03-13 21:47:00,48.0,,-,56,N/A,30.13,64.0,2:47 PM,,10.0,Variable,4.6,0,Los Angeles,California,90001
18,Clear,2016-03-13 22:47:00,48.0,,-,56,N/A,30.12,64.0,3:47 PM,,10.0,Variable,5.8,0,Los Angeles,California,90001
19,Overcast,2016-03-13 23:47:00,51.1,,-,65,N/A,30.12,63.0,4:47 PM,,10.0,West,9.2,280,Los Angeles,California,90001
20,Overcast,2016-03-14 00:47:00,52.0,,-,70,N/A,30.12,62.1,5:47 PM,,10.0,Variable,4.6,0,Los Angeles,California,90001
21,Overcast,2016-03-14 01:47:00,54.0,,-,80,N/A,30.14,60.1,6:47 PM,,10.0,West,5.8,270,Los Angeles,California,90001
22,Overcast,2016-03-14 02:05:00,54.0,,-,80,N/A,30.13,60.1,7:05 PM,,10.0,North,-9999.0,0,Los Angeles,California,90001
23,Mostly Cloudy,2016-03-14 02:42:00,54.0,,-,80,N/A,30.13,60.1,7:42 PM,,10.0,West,5.8,260,Los Angeles,California,90001
24,Mostly Cloudy,2016-03-14 02:47:00,54.0,,-,80,N/A,30.13,60.1,7:47 PM,,10.0,Variable,3.5,0,Los Angeles,California,90001
25,Overcast,2016-03-14 03:47:00,54.0,,-,80,N/A,30.14,60.1,8:47 PM,,10.0,Variable,3.5,0,Los Angeles,California,90001
26,Overcast,2016-03-14 04:47:00,55.0,,-,83,N/A,30.14,60.1,9:47 PM,,10.0,Calm,Calm,0,Los Angeles,California,90001
27,Overcast,2016-03-14 05:47:00,55.0,,-,83,N/A,30.13,60.1,10:47 PM,,10.0,West,4.6,270,Los Angeles,California,90001
28,Overcast,2016-03-14 06:47:00,55.0,,-,83,N/A,30.13,60.1,11:47 PM,,10.0,West,3.5,260,Los Angeles,California,90001
29,Overcast,2016-03-14 07:47:00,55.0,,-,87,N/A,30.13,59.0,12:47 AM,,10.0,Variable,4.6,0,Los Angeles,California,90001
0,Overcast,2016-03-14 07:47:00,55.0,,-,87,N/A,30.13,59.0,12:47 AM,,10.0,Variable,4.6,0,Los Angeles,California,90001
1,Overcast,2016-03-14 08:10:00,55.0,,-,87,N/A,30.14,59.0,1:10 AM,,10.0,West,3.5,280,Los Angeles,California,90001
2,Overcast,2016-03-14 08:27:00,55.9,,-,90,N/A,30.13,59.0,1:27 AM,,8.0,Calm,Calm,0,Los Angeles,California,90001
3,Light Rain,2016-03-14 08:32:00,55.9,Rain,-,90,0.00,30.13,59.0,1:32 AM,,5.0,Calm,Calm,0,Los Angeles,California,90001
4,Light Rain,2016-03-14 08:34:00,55.9,Rain,-,90,0.00,30.13,59.0,1:34 AM,,4.0,Calm,Calm,0,Los Angeles,California,90001
5,Light Rain,2016-03-14 08:47:00,57.0,Rain,-,93,0.01,30.13,59.0,1:47 AM,,6.0,Calm,Calm,0,Los Angeles,California,90001
6,Light Rain,2016-03-14 09:06:00,57.0,Rain,-,93,0.01,30.13,59.0,2:06 AM,,7.0,Calm,Calm,0,Los Angeles,California,90001
7,Light Rain,2016-03-14 09:11:00,57.0,Rain,-,93,0.01,30.13,59.0,2:11 AM,,5.0,Calm,Calm,0,Los Angeles,California,90001
8,Light Rain,2016-03-14 09:26:00,57.0,Rain,-,93,0.01,30.13,59.0,2:26 AM,,4.0,Calm,Calm,0,Los Angeles,California,90001
9,Overcast,2016-03-14 09:43:00,55.9,,-,93,0.02,30.12,57.9,2:43 AM,,10.0,Calm,Calm,0,Los Angeles,California,90001
10,Overcast,2016-03-14 09:47:00,55.9,,-,90,0.02,30.12,59.0,2:47 AM,,10.0,Calm,Calm,0,Los Angeles,California,90001
11,Overcast,2016-03-14 10:00:00,55.9,,-,93,N/A,30.12,57.9,3:00 AM,,10.0,Calm,Calm,0,Los Angeles,California,90001
12,Overcast,2016-03-14 10:47:00,55.9,,-,93,N/A,30.10,57.9,3:47 AM,,10.0,Calm,Calm,0,Los Angeles,California,90001
13,Overcast,2016-03-14 10:59:00,55.9,,-,90,N/A,30.10,59.0,3:59 AM,,10.0,Calm,Calm,0,Los Angeles,California,90001
14,Overcast,2016-03-14 11:37:00,55.9,,-,90,N/A,30.10,59.0,4:37 AM,,10.0,Calm,Calm,0,Los Angeles,California,90001
15,Overcast,2016-03-14 11:43:00,55.9,,-,90,N/A,30.10,59.0,4:43 AM,,10.0,West,3.5,260,Los Angeles,California,90001
16,Overcast,2016-03-14 11:47:00,55.9,,-,90,N/A,30.09,59.0,4:47 AM,,10.0,Calm,Calm,0,Los Angeles,California,90001
17,Overcast,2016-03-14 11:56:00,55.9,,-,90,N/A,30.10,59.0,4:56 AM,,10.0,Calm,Calm,0,Los Angeles,California,90001
18,Overcast,2016-03-14 12:47:00,55.9,,-,90,N/A,30.10,59.0,5:47 AM,,10.0,Calm,Calm,0,Los Angeles,California,90001
19,Overcast,2016-03-14 13:47:00,55.9,,-,90,N/A,30.11,59.0,6:47 AM,,10.0,Calm,Calm,0,Los Angeles,California,90001
20,Overcast,2016-03-14 14:06:00,55.9,,-,90,N/A,30.11,59.0,7:06 AM,,10.0,Calm,Calm,0,Los Angeles,California,90001
21,Overcast,2016-03-14 14:21:00,55.9,,-,90,N/A,30.11,59.0,7:21 AM,,10.0,Calm,Calm,0,Los Angeles,California,90001
22,Overcast,2016-03-14 14:24:00,55.9,,-,90,N/A,30.11,59.0,7:24 AM,,10.0,Calm,Calm,0,Los Angeles,California,90001
23,Overcast,2016-03-14 14:28:00,55.9,,-,90,N/A,30.11,59.0,7:28 AM,,10.0,Calm,Calm,0,Los Angeles,California,90001
24,Overcast,2016-03-14 14:39:00,55.9,,-,90,N/A,30.12,59.0,7:39 AM,,7.0,Calm,Calm,0,Los Angeles,California,90001
25,Overcast,2016-03-14 14:47:00,55.9,,-,90,N/A,30.12,59.0,7:47 AM,,9.0,West,3.5,270,Los Angeles,California,90001
26,Overcast,2016-03-14 15:47:00,55.9,,-,86,N/A,30.12,60.1,8:47 AM,,10.0,Calm,Calm,0,Los Angeles,California,90001
27,Overcast,2016-03-14 15:52:00,55.9,,-,86,N/A,30.12,60.1,8:52 AM,,10.0,Calm,Calm,0,Los Angeles,California,90001
28,Overcast,2016-03-14 15:58:00,55.9,,-,83,N/A,30.13,61.0,8:58 AM,,10.0,Calm,Calm,0,Los Angeles,California,90001
29,Overcast,2016-03-14 16:07:00,55.9,,-,83,N/A,30.13,61.0,9:07 AM,,10.0,Calm,Calm,0,Los Angeles,California,90001
30,Overcast,2016-03-14 16:21:00,55.0,,-,81,N/A,30.13,61.0,9:21 AM,,10.0,Calm,Calm,0,Los Angeles,California,90001
31,Overcast,2016-03-14 16:47:00,55.0,,-,78,N/A,30.13,62.1,9:47 AM,,10.0,Calm,Calm,0,Los Angeles,California,90001
32,Overcast,2016-03-14 17:03:00,54.0,,-,75,N/A,30.14,62.1,10:03 AM,,10.0,Calm,Calm,0,Los Angeles,California,90001
33,Overcast,2016-03-14 17:20:00,54.0,,-,72,N/A,30.14,63.0,10:20 AM,,10.0,Calm,Calm,0,Los Angeles,California,90001
34,Overcast,2016-03-14 17:47:00,55.0,,-,78,N/A,30.13,62.1,10:47 AM,,10.0,Calm,Calm,0,Los Angeles,California,90001
35,Overcast,2016-03-14 18:05:00,54.0,,-,72,N/A,30.14,63.0,11:05 AM,,10.0,Calm,Calm,0,Los Angeles,California,90001
36,Overcast,2016-03-14 18:47:00,54.0,,-,70,N/A,30.14,64.0,11:47 AM,,10.0,Calm,Calm,0,Los Angeles,California,90001
37,Scattered Clouds,2016-03-14 19:47:00,54.0,,-,58,N/A,30.11,69.1,12:47 PM,,10.0,Calm,Calm,0,Los Angeles,California,90001
38,Mostly Cloudy,2016-03-14 20:47:00,54.0,,-,61,N/A,30.09,68.0,1:47 PM,,10.0,Calm,Calm,0,Los Angeles,California,90001
39,Clear,2016-03-14 21:47:00,55.0,,-,63,N/A,30.07,68.0,2:47 PM,,10.0,Variable,3.5,0,Los Angeles,California,90001
40,Clear,2016-03-14 22:47:00,55.0,,-,66,N/A,30.05,66.9,3:47 PM,,10.0,Variable,3.5,0,Los Angeles,California,90001
41,Clear,2016-03-14 23:47:00,54.0,,-,63,N/A,30.04,66.9,4:47 PM,,10.0,West,5.8,260,Los Angeles,California,90001
42,Clear,2016-03-15 00:47:00,53.1,,-,63,N/A,30.03,66.0,5:47 PM,,10.0,West,3.5,270,Los Angeles,California,90001
43,Clear,2016-03-15 01:47:00,53.1,,-,65,N/A,30.04,64.9,6:47 PM,,10.0,West,4.6,280,Los Angeles,California,90001
44,Clear,2016-03-15 02:47:00,39.9,,-,36,N/A,30.03,68.0,7:47 PM,,10.0,NW,6.9,310,Los Angeles,California,90001
45,Clear,2016-03-15 03:47:00,50.0,,-,60,N/A,30.05,64.0,8:47 PM,,10.0,Calm,Calm,0,Los Angeles,California,90001
46,Clear,2016-03-15 04:47:00,43.0,,-,45,N/A,30.07,64.9,9:47 PM,,10.0,Calm,Calm,0,Los Angeles,California,90001
47,Clear,2016-03-15 05:47:00,54.0,,-,78,N/A,30.07,61.0,10:47 PM,,10.0,ESE,5.8,110,Los Angeles,California,90001
48,Clear,2016-03-15 06:47:00,53.1,,-,78,N/A,30.07,60.1,11:47 PM,,10.0,East,3.5,90,Los Angeles,California,90001
0,Clear,2016-03-15 07:47:00,54.0,,-,83,N/A,30.07,59.0,12:47 AM,,10.0,Calm,Calm,0,Los Angeles,California,90001
1,Clear,2016-03-15 08:47:00,53.1,,-,84,N/A,30.05,57.9,1:47 AM,,10.0,Calm,Calm,0,Los Angeles,California,90001
2,Clear,2016-03-15 09:47:00,53.1,,-,87,N/A,30.04,57.0,2:47 AM,,10.0,Calm,Calm,0,Los Angeles,California,90001
3,Clear,2016-03-15 10:47:00,52.0,,-,87,N/A,30.03,55.9,3:47 AM,,10.0,Calm,Calm,0,Los Angeles,California,90001
4,Clear,2016-03-15 11:47:00,51.1,,-,90,N/A,30.02,54.0,4:47 AM,,10.0,Calm,Calm,0,Los Angeles,California,90001
5,Clear,2016-03-15 12:47:00,51.1,,-,86,N/A,30.03,55.0,5:47 AM,,10.0,Calm,Calm,0,Los Angeles,California,90001
6,Clear,2016-03-15 13:47:00,51.1,,-,86,N/A,30.03,55.0,6:47 AM,,10.0,Calm,Calm,0,Los Angeles,California,90001
7,Clear,2016-03-15 14:47:00,51.1,,-,86,N/A,30.04,55.0,7:47 AM,,10.0,Calm,Calm,0,Los Angeles,California,90001
8,Clear,2016-03-15 15:47:00,51.1,,-,70,N/A,30.05,61.0,8:47 AM,,10.0,ESE,3.5,110,Los Angeles,California,90001
9,Clear,2016-03-15 16:47:00,52.0,,-,65,N/A,30.04,64.0,9:47 AM,,10.0,Variable,3.5,0,Los Angeles,California,90001
10,Clear,2016-03-15 17:47:00,53.1,,-,57,N/A,30.04,69.1,10:47 AM,,10.0,Calm,Calm,0,Los Angeles,California,90001
11,Clear,2016-03-15 18:47:00,52.0,,-,51,N/A,30.02,71.1,11:47 AM,,10.0,Calm,Calm,0,Los Angeles,California,90001
12,Clear,2016-03-15 19:47:00,52.0,,-,44,N/A,30.00,75.0,12:47 PM,,10.0,Calm,Calm,0,Los Angeles,California,90001
13,Clear,2016-03-15 20:47:00,52.0,,-,44,N/A,29.97,75.0,1:47 PM,,10.0,West,4.6,280,Los Angeles,California,90001
14,Clear,2016-03-15 21:47:00,52.0,,-,43,N/A,29.95,75.9,2:47 PM,,10.0,Calm,Calm,0,Los Angeles,California,90001
15,Clear,2016-03-15 22:47:00,51.1,,-,46,N/A,29.93,73.0,3:47 PM,,10.0,Variable,3.5,0,Los Angeles,California,90001
16,Clear,2016-03-15 23:47:00,52.0,,-,49,N/A,29.92,72.0,4:47 PM,,10.0,Variable,5.8,0,Los Angeles,California,90001
17,Clear,2016-03-16 00:47:00,48.0,,-,46,N/A,29.91,70.0,5:47 PM,,10.0,West,4.6,270,Los Angeles,California,90001
18,Clear,2016-03-16 01:47:00,48.9,,-,50,N/A,29.91,68.0,6:47 PM,,10.0,Calm,Calm,0,Los Angeles,California,90001
19,Clear,2016-03-16 02:47:00,52.0,,-,67,N/A,29.92,63.0,7:47 PM,,10.0,Calm,Calm,0,Los Angeles,California,90001
20,Clear,2016-03-16 03:47:00,53.1,,-,75,N/A,29.93,61.0,8:47 PM,,10.0,Calm,Calm,0,Los Angeles,California,90001
21,Clear,2016-03-16 04:47:00,51.1,,-,70,N/A,29.93,61.0,9:47 PM,,10.0,Calm,Calm,0,Los Angeles,California,90001
22,Clear,2016-03-16 05:47:00,52.0,,-,70,N/A,29.94,62.1,10:47 PM,,10.0,Calm,Calm,0,Los Angeles,California,90001
23,Clear,2016-03-16 06:47:00,51.1,,-,67,N/A,29.95,62.1,11:47 PM,,10.0,Calm,Calm,0,Los Angeles,California,90001
0,Clear,2016-03-16 07:47:00,50.0,,-,65,N/A,29.94,62.1,12:47 AM,,10.0,Calm,Calm,0,Los Angeles,California,90001
1,Clear,2016-03-16 08:47:00,51.1,,-,72,N/A,29.95,60.1,1:47 AM,,10.0,Calm,Calm,0,Los Angeles,California,90001
2,Clear,2016-03-16 09:47:00,52.0,,-,81,N/A,29.94,57.9,2:47 AM,,10.0,Calm,Calm,0,Los Angeles,California,90001
3,Clear,2016-03-16 10:47:00,48.0,,-,67,N/A,29.92,59.0,3:47 AM,,10.0,Calm,Calm,0,Los Angeles,California,90001
4,Clear,2016-03-16 11:47:00,48.0,,-,72,N/A,29.91,57.0,4:47 AM,,10.0,Calm,Calm,0,Los Angeles,California,90001
5,Clear,2016-03-16 12:47:00,44.1,,-,58,N/A,29.92,59.0,5:47 AM,,10.0,Calm,Calm,0,Los Angeles,California,90001
6,Clear,2016-03-16 13:47:00,41.0,,-,51,N/A,29.93,59.0,6:47 AM,,10.0,NE,3.5,50,Los Angeles,California,90001
7,Haze,2016-03-16 14:47:00,39.9,,-,46,N/A,29.94,61.0,7:47 AM,,6.0,Calm,Calm,0,Los Angeles,California,90001
8,Clear,2016-03-16 15:47:00,39.9,,-,37,N/A,29.95,66.9,8:47 AM,,10.0,Calm,Calm,0,Los Angeles,California,90001
9,Clear,2016-03-16 16:47:00,43.0,,-,33,N/A,29.96,73.9,9:47 AM,,10.0,Calm,Calm,0,Los Angeles,California,90001
10,Clear,2016-03-16 17:47:00,39.9,,-,25,N/A,29.95,78.1,10:47 AM,,10.0,North,5.8,10,Los Angeles,California,90001
11,Clear,2016-03-16 18:47:00,39.9,,-,22,N/A,29.94,82.0,11:47 AM,,10.0,Calm,Calm,0,Los Angeles,California,90001
12,Clear,2016-03-16 19:47:00,36.0,,-,17,N/A,29.92,84.9,12:47 PM,,10.0,ENE,3.5,60,Los Angeles,California,90001
13,Clear,2016-03-16 20:47:00,43.0,,-,23,N/A,29.90,84.9,1:47 PM,,10.0,Calm,Calm,0,Los Angeles,California,90001
14,Clear,2016-03-16 21:47:00,44.1,,-,25,N/A,29.88,82.9,2:47 PM,,10.0,Calm,Calm,0,Los Angeles,California,90001
15,Clear,2016-03-16 22:47:00,42.1,,-,24,N/A,29.87,82.9,3:47 PM,,10.0,WSW,3.5,240,Los Angeles,California,90001
16,Clear,2016-03-16 23:47:00,42.1,,-,24,N/A,29.86,82.9,4:47 PM,,10.0,Variable,4.6,0,Los Angeles,California,90001
17,Clear,2016-03-17 00:47:00,41.0,,-,23,N/A,29.85,82.0,5:47 PM,,10.0,Variable,4.6,0,Los Angeles,California,90001
18,Clear,2016-03-17 01:47:00,41.0,,-,27,N/A,29.85,78.1,6:47 PM,,10.0,Calm,Calm,0,Los Angeles,California,90001
19,Clear,2016-03-17 02:47:00,43.0,,-,35,N/A,29.86,72.0,7:47 PM,,10.0,Calm,Calm,0,Los Angeles,California,90001
20,Clear,2016-03-17 03:47:00,44.1,,-,38,N/A,29.87,71.1,8:47 PM,,10.0,Calm,Calm,0,Los Angeles,California,90001
21,Clear,2016-03-17 04:47:00,48.0,,-,49,N/A,29.88,68.0,9:47 PM,,10.0,Calm,Calm,0,Los Angeles,California,90001
22,Clear,2016-03-17 05:47:00,48.0,,-,51,N/A,29.88,66.9,10:47 PM,,10.0,Calm,Calm,0,Los Angeles,California,90001
23,Clear,2016-03-17 06:47:00,50.0,,-,54,N/A,29.90,66.9,11:47 PM,,10.0,East,4.6,100,Los Angeles,California,90001
0,Clear,2016-03-17 07:47:00,51.1,,-,61,N/A,29.89,64.9,12:47 AM,,10.0,East,3.5,100,Los Angeles,California,90001
1,Clear,2016-03-17 08:47:00,53.1,,-,70,N/A,29.89,63.0,1:47 AM,,10.0,Calm,Calm,0,Los Angeles,California,90001
2,Clear,2016-03-17 09:47:00,53.1,,-,75,N/A,29.88,61.0,2:47 AM,,10.0,Calm,Calm,0,Los Angeles,California,90001
3,Clear,2016-03-17 10:47:00,53.1,,-,78,N/A,29.88,60.1,3:47 AM,,10.0,Calm,Calm,0,Los Angeles,California,90001
4,Clear,2016-03-17 11:47:00,53.1,,-,81,N/A,29.88,59.0,4:47 AM,,10.0,Calm,Calm,0,Los Angeles,California,90001
5,Clear,2016-03-17 12:47:00,53.1,,-,81,N/A,29.87,59.0,5:47 AM,,10.0,Calm,Calm,0,Los Angeles,California,90001
6,Clear,2016-03-17 13:47:00,52.0,,-,78,N/A,29.88,59.0,6:47 AM,,10.0,Calm,Calm,0,Los Angeles,California,90001
7,Clear,2016-03-17 14:47:00,48.9,,-,64,N/A,29.90,61.0,7:47 AM,,10.0,Calm,Calm,0,Los Angeles,California,90001
8,Clear,2016-03-17 15:47:00,46.9,,-,50,N/A,29.90,66.0,8:47 AM,,10.0,Calm,Calm,0,Los Angeles,California,90001
9,Clear,2016-03-17 16:47:00,50.0,,-,49,N/A,29.91,70.0,9:47 AM,,10.0,Variable,3.5,0,Los Angeles,California,90001
10,Clear,2016-03-17 17:47:00,50.0,,-,43,N/A,29.90,73.9,10:47 AM,,10.0,Calm,Calm,0,Los Angeles,California,90001
11,Clear,2016-03-17 18:47:00,50.0,,-,37,N/A,29.89,78.1,11:47 AM,,10.0,Calm,Calm,0,Los Angeles,California,90001
12,Clear,2016-03-17 19:47:00,48.9,,-,34,N/A,29.88,80.1,12:47 PM,,10.0,West,3.5,280,Los Angeles,California,90001
13,Clear,2016-03-17 20:47:00,54.0,,-,42,N/A,29.86,79.0,1:47 PM,,10.0,Variable,4.6,0,Los Angeles,California,90001
14,Clear,2016-03-17 21:47:00,54.0,,-,46,N/A,29.85,75.9,2:47 PM,,10.0,West,8.1,280,Los Angeles,California,90001
15,Clear,2016-03-17 22:47:00,51.1,,-,45,N/A,29.86,73.9,3:47 PM,,10.0,Variable,6.9,0,Los Angeles,California,90001
16,Clear,2016-03-17 23:47:00,48.9,,-,42,N/A,29.86,73.0,4:47 PM,,10.0,West,4.6,270,Los Angeles,California,90001
17,Clear,2016-03-18 00:47:00,48.9,,-,45,N/A,29.85,71.1,5:47 PM,,10.0,West,6.9,270,Los Angeles,California,90001
18,Clear,2016-03-18 01:47:00,48.9,,-,50,N/A,29.85,68.0,6:47 PM,,10.0,Variable,3.5,0,Los Angeles,California,90001
19,Clear,2016-03-18 02:47:00,52.0,,-,60,N/A,29.87,66.0,7:47 PM,,10.0,Variable,3.5,0,Los Angeles,California,90001
20,Clear,2016-03-18 03:47:00,53.1,,-,67,N/A,29.89,64.0,8:47 PM,,10.0,Calm,Calm,0,Los Angeles,California,90001
21,Clear,2016-03-18 04:47:00,57.9,,-,86,N/A,29.91,62.1,9:47 PM,,10.0,West,3.5,270,Los Angeles,California,90001
22,Partly Cloudy,2016-03-18 05:29:00,57.9,,-,86,N/A,29.92,62.1,10:29 PM,,10.0,West,4.6,280,Los Angeles,California,90001
23,Mostly Cloudy,2016-03-18 05:38:00,57.9,,-,86,N/A,29.92,62.1,10:38 PM,,10.0,West,3.5,280,Los Angeles,California,90001
24,Mostly Cloudy,2016-03-18 05:47:00,57.0,,-,84,N/A,29.92,62.1,10:47 PM,,10.0,West,4.6,280,Los Angeles,California,90001
25,Mostly Cloudy,2016-03-18 06:09:00,57.0,,-,87,N/A,29.92,61.0,11:09 PM,,10.0,West,4.6,280,Los Angeles,California,90001
26,Overcast,2016-03-18 06:47:00,55.9,,-,83,N/A,29.92,61.0,11:47 PM,,10.0,Calm,Calm,0,Los Angeles,California,90001
0,Scattered Clouds,2016-03-18 07:00:00,55.9,,-,83,N/A,29.92,61.0,12:00 AM,,10.0,Calm,Calm,0,Los Angeles,California,90001
1,Mostly Cloudy,2016-03-18 07:16:00,55.9,,-,86,N/A,29.92,60.1,12:16 AM,,10.0,Calm,Calm,0,Los Angeles,California,90001
2,Mostly Cloudy,2016-03-18 07:47:00,55.0,,-,83,N/A,29.91,60.1,12:47 AM,,10.0,Calm,Calm,0,Los Angeles,California,90001
3,Scattered Clouds,2016-03-18 07:53:00,55.0,,-,83,N/A,29.92,60.1,12:53 AM,,10.0,Calm,Calm,0,Los Angeles,California,90001
4,Partly Cloudy,2016-03-18 08:47:00,55.0,,-,87,N/A,29.91,59.0,1:47 AM,,9.0,Calm,Calm,0,Los Angeles,California,90001
5,Mostly Cloudy,2016-03-18 09:00:00,55.0,,-,87,N/A,29.92,59.0,2:00 AM,,8.0,Calm,Calm,0,Los Angeles,California,90001
6,Overcast,2016-03-18 09:47:00,55.0,,-,87,N/A,29.92,59.0,2:47 AM,,7.0,Calm,Calm,0,Los Angeles,California,90001
7,Haze,2016-03-18 10:47:00,55.0,,-,83,N/A,29.91,60.1,3:47 AM,,6.0,Calm,Calm,0,Los Angeles,California,90001
8,Haze,2016-03-18 11:47:00,54.0,,-,83,N/A,29.91,59.0,4:47 AM,,6.0,Calm,Calm,0,Los Angeles,California,90001
9,Haze,2016-03-18 12:47:00,54.0,,-,83,N/A,29.91,59.0,5:47 AM,,6.0,Calm,Calm,0,Los Angeles,California,90001
10,Haze,2016-03-18 13:47:00,54.0,,-,80,N/A,29.92,60.1,6:47 AM,,5.0,Calm,Calm,0,Los Angeles,California,90001
11,Haze,2016-03-18 14:12:00,54.0,,-,78,N/A,29.92,61.0,7:12 AM,,5.0,Variable,3.5,0,Los Angeles,California,90001
12,Haze,2016-03-18 14:47:00,53.1,,-,75,N/A,29.93,61.0,7:47 AM,,3.0,Calm,Calm,0,Los Angeles,California,90001
13,Haze,2016-03-18 15:47:00,54.0,,-,75,N/A,29.94,62.1,8:47 AM,,4.0,Calm,Calm,0,Los Angeles,California,90001
14,Haze,2016-03-18 16:08:00,54.0,,-,72,N/A,29.94,63.0,9:08 AM,,4.0,Variable,3.5,0,Los Angeles,California,90001
15,Haze,2016-03-18 16:47:00,54.0,,-,68,N/A,29.95,64.9,9:47 AM,,5.0,Calm,Calm,0,Los Angeles,California,90001
16,Clear,2016-03-18 17:47:00,54.0,,-,61,N/A,29.95,68.0,10:47 AM,,7.0,Calm,Calm,0,Los Angeles,California,90001
17,Clear,2016-03-18 18:47:00,54.0,,-,55,N/A,29.95,71.1,11:47 AM,,8.0,Calm,Calm,0,Los Angeles,California,90001
18,Haze,2016-03-18 19:47:00,55.0,,-,57,N/A,29.94,71.1,12:47 PM,,6.0,Calm,Calm,0,Los Angeles,California,90001
19,Haze,2016-03-18 20:47:00,55.0,,-,61,N/A,29.93,69.1,1:47 PM,,6.0,Variable,4.6,0,Los Angeles,California,90001
20,Clear,2016-03-18 21:47:00,54.0,,-,58,N/A,29.92,69.1,2:47 PM,,7.0,North,-9999.0,0,Los Angeles,California,90001
21,Clear,2016-03-18 22:47:00,54.0,,-,65,N/A,29.92,66.0,3:47 PM,,8.0,Variable,3.5,0,Los Angeles,California,90001
22,Clear,2016-03-18 23:47:00,55.0,,-,68,N/A,29.92,66.0,4:47 PM,,10.0,Variable,4.6,0,Los Angeles,California,90001
23,Clear,2016-03-19 00:47:00,55.0,,-,70,N/A,29.91,64.9,5:47 PM,,10.0,Variable,3.5,0,Los Angeles,California,90001
24,Clear,2016-03-19 01:47:00,54.0,,-,72,N/A,29.93,63.0,6:47 PM,,10.0,West,5.8,270,Los Angeles,California,90001
25,Clear,2016-03-19 02:47:00,54.0,,-,78,N/A,29.94,61.0,7:47 PM,,10.0,West,3.5,260,Los Angeles,California,90001
26,Clear,2016-03-19 03:47:00,55.0,,-,83,N/A,29.96,60.1,8:47 PM,,10.0,Variable,3.5,0,Los Angeles,California,90001
27,Clear,2016-03-19 04:47:00,55.0,,-,87,N/A,29.98,59.0,9:47 PM,,8.0,Calm,Calm,0,Los Angeles,California,90001
28,Partly Cloudy,2016-03-19 05:15:00,55.0,,-,87,N/A,29.99,59.0,10:15 PM,,8.0,Calm,Calm,0,Los Angeles,California,90001
29,Partly Cloudy,2016-03-19 05:47:00,55.0,,-,90,N/A,29.99,57.9,10:47 PM,,7.0,West,3.5,280,Los Angeles,California,90001
30,Mostly Cloudy,2016-03-19 06:06:00,55.0,,-,90,N/A,29.99,57.9,11:06 PM,,7.0,Calm,Calm,0,Los Angeles,California,90001
31,Scattered Clouds,2016-03-19 06:32:00,55.0,,-,90,N/A,29.99,57.9,11:32 PM,,7.0,Calm,Calm,0,Los Angeles,California,90001
32,Partly Cloudy,2016-03-19 06:47:00,55.0,,-,90,N/A,29.99,57.9,11:47 PM,,7.0,Calm,Calm,0,Los Angeles,California,90001
0,Mostly Cloudy,2016-03-19 07:30:00,55.0,,-,90,N/A,29.99,57.9,12:30 AM,,6.0,Calm,Calm,0,Los Angeles,California,90001
1,Overcast,2016-03-19 07:47:00,55.0,,-,90,N/A,29.99,57.9,12:47 AM,,6.0,Calm,Calm,0,Los Angeles,California,90001
2,Overcast,2016-03-19 08:47:00,55.0,,-,90,N/A,29.99,57.9,1:47 AM,,5.0,Calm,Calm,0,Los Angeles,California,90001
3,Overcast,2016-03-19 09:47:00,55.0,,-,90,N/A,29.99,57.9,2:47 AM,,4.0,Calm,Calm,0,Los Angeles,California,90001
4,Overcast,2016-03-19 10:25:00,55.0,,-,87,N/A,29.99,59.0,3:25 AM,,4.0,Calm,Calm,0,Los Angeles,California,90001
5,Haze,2016-03-19 10:47:00,54.0,,-,83,N/A,29.98,59.0,3:47 AM,,4.0,Calm,Calm,0,Los Angeles,California,90001
6,Haze,2016-03-19 11:41:00,54.0,,-,83,N/A,29.98,59.0,4:41 AM,,3.0,Calm,Calm,0,Los Angeles,California,90001
7,Haze,2016-03-19 11:47:00,54.0,,-,83,N/A,29.98,59.0,4:47 AM,,3.0,Calm,Calm,0,Los Angeles,California,90001
8,Haze,2016-03-19 11:53:00,54.0,,-,83,N/A,29.99,59.0,4:53 AM,,3.0,Calm,Calm,0,Los Angeles,California,90001
9,Haze,2016-03-19 12:03:00,54.0,,-,83,N/A,29.99,59.0,5:03 AM,,4.0,Calm,Calm,0,Los Angeles,California,90001
10,Haze,2016-03-19 12:47:00,54.0,,-,83,N/A,29.99,59.0,5:47 AM,,3.0,Calm,Calm,0,Los Angeles,California,90001
11,Haze,2016-03-19 13:47:00,54.0,,-,83,N/A,29.99,59.0,6:47 AM,,4.0,SE,3.5,140,Los Angeles,California,90001
12,Haze,2016-03-19 14:29:00,54.0,,-,80,N/A,30.01,60.1,7:29 AM,,2.5,ESE,3.5,110,Los Angeles,California,90001
13,Haze,2016-03-19 14:42:00,54.0,,-,80,N/A,30.01,60.1,7:42 AM,,3.0,Calm,Calm,0,Los Angeles,California,90001
14,Haze,2016-03-19 14:47:00,54.0,,-,80,N/A,30.01,60.1,7:47 AM,,3.0,Calm,Calm,0,Los Angeles,California,90001
15,Haze,2016-03-19 15:47:00,54.0,,-,80,N/A,30.03,60.1,8:47 AM,,4.0,SE,3.5,140,Los Angeles,California,90001
16,Haze,2016-03-19 16:27:00,54.0,,-,78,N/A,30.03,61.0,9:27 AM,,4.0,Calm,Calm,0,Los Angeles,California,90001
17,Haze,2016-03-19 16:47:00,54.0,,-,75,N/A,30.04,62.1,9:47 AM,,4.0,Calm,Calm,0,Los Angeles,California,90001
18,Haze,2016-03-19 17:47:00,54.0,,-,68,N/A,30.04,64.9,10:47 AM,,4.0,SE,4.6,130,Los Angeles,California,90001
19,Haze,2016-03-19 18:47:00,55.0,,-,63,N/A,30.03,68.0,11:47 AM,,4.0,Calm,Calm,0,Los Angeles,California,90001
20,Haze,2016-03-19 19:47:00,55.0,,-,59,N/A,30.02,70.0,12:47 PM,,5.0,SSE,5.8,150,Los Angeles,California,90001
21,Haze,2016-03-19 20:47:00,55.0,,-,59,N/A,29.99,70.0,1:47 PM,,6.0,Calm,Calm,0,Los Angeles,California,90001
22,Haze,2016-03-19 21:47:00,55.9,,-,61,N/A,29.99,70.0,2:47 PM,,6.0,Variable,3.5,0,Los Angeles,California,90001
23,Haze,2016-03-19 22:47:00,55.0,,-,61,N/A,29.98,69.1,3:47 PM,,5.0,Calm,Calm,0,Los Angeles,California,90001
24,Haze,2016-03-19 23:47:00,55.0,,-,66,N/A,29.97,66.9,4:47 PM,,5.0,Variable,4.6,0,Los Angeles,California,90001
25,Clear,2016-03-20 00:47:00,54.0,,-,68,N/A,29.97,64.9,5:47 PM,,7.0,Variable,5.8,0,Los Angeles,California,90001
26,Clear,2016-03-20 01:47:00,54.0,,-,72,N/A,29.97,63.0,6:47 PM,,7.0,Variable,3.5,0,Los Angeles,California,90001
27,Clear,2016-03-20 02:47:00,55.0,,-,83,N/A,29.99,60.1,7:47 PM,,8.0,West,3.5,270,Los Angeles,California,90001
28,Clear,2016-03-20 03:47:00,55.0,,-,87,N/A,30.00,59.0,8:47 PM,,7.0,Calm,Calm,0,Los Angeles,California,90001
29,Clear,2016-03-20 04:47:00,55.0,,-,87,N/A,30.01,59.0,9:47 PM,,8.0,Calm,Calm,0,Los Angeles,California,90001
30,Clear,2016-03-20 05:47:00,55.0,,-,90,N/A,30.02,57.9,10:47 PM,,7.0,Calm,Calm,0,Los Angeles,California,90001
31,Clear,2016-03-20 06:47:00,55.0,,-,90,N/A,30.02,57.9,11:47 PM,,5.0,Calm,Calm,0,Los Angeles,California,90001
0,Partly Cloudy,2016-03-20 07:47:00,55.0,,-,90,N/A,30.02,57.9,12:47 AM,,5.0,Calm,Calm,0,Los Angeles,California,90001
1,Mostly Cloudy,2016-03-20 07:55:00,55.0,,-,93,N/A,30.02,57.0,12:55 AM,,5.0,Calm,Calm,0,Los Angeles,California,90001
2,Overcast,2016-03-20 08:25:00,55.0,,-,93,N/A,30.03,57.0,1:25 AM,,4.0,Calm,Calm,0,Los Angeles,California,90001
3,Overcast,2016-03-20 08:47:00,55.0,,-,90,N/A,30.03,57.9,1:47 AM,,4.0,Calm,Calm,0,Los Angeles,California,90001
4,Overcast,2016-03-20 09:47:00,55.0,,-,90,N/A,30.01,57.9,2:47 AM,,3.0,Calm,Calm,0,Los Angeles,California,90001
5,Overcast,2016-03-20 10:47:00,55.0,,-,93,N/A,30.01,57.0,3:47 AM,,3.0,Calm,Calm,0,Los Angeles,California,90001
6,Overcast,2016-03-20 10:51:00,55.0,,-,90,N/A,30.01,57.9,3:51 AM,,3.0,Calm,Calm,0,Los Angeles,California,90001
7,Overcast,2016-03-20 11:47:00,55.0,,-,90,N/A,30.02,57.9,4:47 AM,,3.0,Calm,Calm,0,Los Angeles,California,90001
8,Overcast,2016-03-20 12:47:00,55.0,,-,90,N/A,30.03,57.9,5:47 AM,,4.0,Calm,Calm,0,Los Angeles,California,90001
9,Overcast,2016-03-20 13:47:00,55.0,,-,90,N/A,30.04,57.9,6:47 AM,,4.0,Calm,Calm,0,Los Angeles,California,90001
10,Overcast,2016-03-20 14:27:00,55.0,,-,90,N/A,30.06,57.9,7:27 AM,,2.5,Calm,Calm,0,Los Angeles,California,90001
11,Overcast,2016-03-20 14:47:00,54.0,,-,87,N/A,30.06,57.9,7:47 AM,,2.5,Calm,Calm,0,Los Angeles,California,90001
12,Overcast,2016-03-20 15:47:00,55.0,,-,87,N/A,30.08,59.0,8:47 AM,,2.5,Calm,Calm,0,Los Angeles,California,90001
13,Haze,2016-03-20 16:47:00,54.0,,-,83,N/A,30.09,59.0,9:47 AM,,2.5,Calm,Calm,0,Los Angeles,California,90001
14,Haze,2016-03-20 17:47:00,55.0,,-,81,N/A,30.09,61.0,10:47 AM,,2.0,Variable,3.5,0,Los Angeles,California,90001
15,Haze,2016-03-20 18:52:00,55.0,,-,70,N/A,30.09,64.9,11:52 AM,,2.0,Variable,3.5,0,Los Angeles,California,90001
16,Haze,2016-03-20 19:40:00,55.0,,-,66,N/A,30.08,66.9,12:40 PM,,2.5,Calm,Calm,0,Los Angeles,California,90001
17,Haze,2016-03-20 19:47:00,55.9,,-,65,N/A,30.07,68.0,12:47 PM,,2.5,Variable,3.5,0,Los Angeles,California,90001
18,Haze,2016-03-20 20:25:00,55.9,,-,61,N/A,30.06,70.0,1:25 PM,,3.0,Calm,Calm,0,Los Angeles,California,90001
19,Haze,2016-03-20 20:47:00,55.9,,-,61,N/A,30.05,70.0,1:47 PM,,3.0,Calm,Calm,0,Los Angeles,California,90001
20,Haze,2016-03-20 21:47:00,55.9,,-,59,N/A,30.04,71.1,2:47 PM,,4.0,Variable,4.6,0,Los Angeles,California,90001
21,Haze,2016-03-20 22:47:00,55.0,,-,63,N/A,30.04,68.0,3:47 PM,,4.0,Variable,3.5,0,Los Angeles,California,90001
22,Haze,2016-03-20 23:47:00,55.0,,-,68,N/A,30.04,66.0,4:47 PM,,5.0,Variable,3.5,0,Los Angeles,California,90001
23,Haze,2016-03-21 00:47:00,55.0,,-,75,N/A,30.05,63.0,5:47 PM,,5.0,Variable,3.5,0,Los Angeles,California,90001
24,Scattered Clouds,2016-03-21 01:47:00,54.0,,-,80,N/A,30.06,60.1,6:47 PM,,7.0,Variable,3.5,0,Los Angeles,California,90001
25,Mostly Cloudy,2016-03-21 02:30:00,54.0,,-,83,N/A,30.06,59.0,7:30 PM,,8.0,Variable,3.5,0,Los Angeles,California,90001
26,Overcast,2016-03-21 02:47:00,54.0,,-,83,N/A,30.07,59.0,7:47 PM,,8.0,Calm,Calm,0,Los Angeles,California,90001
27,Mostly Cloudy,2016-03-21 03:47:00,54.0,,-,83,N/A,30.09,59.0,8:47 PM,,10.0,Calm,Calm,0,Los Angeles,California,90001
28,Scattered Clouds,2016-03-21 03:57:00,54.0,,-,83,N/A,30.09,59.0,8:57 PM,,10.0,Calm,Calm,0,Los Angeles,California,90001
29,Mostly Cloudy,2016-03-21 04:22:00,54.0,,-,83,N/A,30.10,59.0,9:22 PM,,10.0,Calm,Calm,0,Los Angeles,California,90001
30,Overcast,2016-03-21 04:47:00,55.0,,-,87,N/A,30.10,59.0,9:47 PM,,10.0,West,4.6,270,Los Angeles,California,90001
31,Overcast,2016-03-21 05:16:00,55.0,,-,87,N/A,30.10,59.0,10:16 PM,,9.0,Calm,Calm,0,Los Angeles,California,90001
32,Overcast,2016-03-21 05:47:00,55.0,,-,87,N/A,30.10,59.0,10:47 PM,,9.0,Calm,Calm,0,Los Angeles,California,90001
33,Scattered Clouds,2016-03-21 06:47:00,55.0,,-,90,N/A,30.10,57.9,11:47 PM,,7.0,Calm,Calm,0,Los Angeles,California,90001
0,Mostly Cloudy,2016-03-21 07:47:00,55.0,,-,87,N/A,30.10,59.0,12:47 AM,,7.0,East,3.5,100,Los Angeles,California,90001
1,Overcast,2016-03-21 08:47:00,55.0,,-,87,N/A,30.09,59.0,1:47 AM,,6.0,ENE,3.5,60,Los Angeles,California,90001
2,Overcast,2016-03-21 09:47:00,54.0,,-,87,N/A,30.08,57.9,2:47 AM,,4.0,Calm,Calm,0,Los Angeles,California,90001
3,Overcast,2016-03-21 10:10:00,54.0,,-,87,N/A,30.08,57.9,3:10 AM,,4.0,Calm,Calm,0,Los Angeles,California,90001
4,Overcast,2016-03-21 10:47:00,54.0,,-,87,N/A,30.07,57.9,3:47 AM,,4.0,Calm,Calm,0,Los Angeles,California,90001
5,Overcast,2016-03-21 11:47:00,54.0,,-,87,N/A,30.08,57.9,4:47 AM,,4.0,Calm,Calm,0,Los Angeles,California,90001
6,Haze,2016-03-21 12:47:00,53.1,,-,84,N/A,30.08,57.9,5:47 AM,,4.0,Variable,3.5,0,Los Angeles,California,90001
7,Overcast,2016-03-21 13:05:00,53.1,,-,87,N/A,30.08,57.0,6:05 AM,,4.0,Calm,Calm,0,Los Angeles,California,90001
8,Haze,2016-03-21 13:37:00,53.1,,-,84,N/A,30.09,57.9,6:37 AM,,4.0,Calm,Calm,0,Los Angeles,California,90001
9,Haze,2016-03-21 13:47:00,53.1,,-,84,N/A,30.09,57.9,6:47 AM,,4.0,Calm,Calm,0,Los Angeles,California,90001
10,Haze,2016-03-21 14:23:00,53.1,,-,84,N/A,30.10,57.9,7:23 AM,,2.5,Calm,Calm,0,Los Angeles,California,90001
11,Haze,2016-03-21 14:47:00,53.1,,-,84,N/A,30.10,57.9,7:47 AM,,2.5,Calm,Calm,0,Los Angeles,California,90001
12,Haze,2016-03-21 15:47:00,53.1,,-,81,N/A,30.12,59.0,8:47 AM,,2.5,Calm,Calm,0,Los Angeles,California,90001
13,Haze,2016-03-21 16:29:00,53.1,,-,78,N/A,30.13,60.1,9:29 AM,,3.0,ESE,3.5,110,Los Angeles,California,90001
14,Haze,2016-03-21 16:37:00,53.1,,-,78,N/A,30.13,60.1,9:37 AM,,2.5,Calm,Calm,0,Los Angeles,California,90001
15,Haze,2016-03-21 16:47:00,53.1,,-,78,N/A,30.14,60.1,9:47 AM,,3.0,Calm,Calm,0,Los Angeles,California,90001
16,Haze,2016-03-21 16:56:00,53.1,,-,78,N/A,30.14,60.1,9:56 AM,,3.0,Calm,Calm,0,Los Angeles,California,90001
17,Haze,2016-03-21 17:47:00,53.1,,-,75,N/A,30.15,61.0,10:47 AM,,4.0,Calm,Calm,0,Los Angeles,California,90001
18,Haze,2016-03-21 18:47:00,53.1,,-,67,N/A,30.14,64.0,11:47 AM,,5.0,Calm,Calm,0,Los Angeles,California,90001
19,Haze,2016-03-21 19:26:00,53.1,,-,61,N/A,30.12,66.9,12:26 PM,,5.0,Variable,3.5,0,Los Angeles,California,90001
20,Haze,2016-03-21 19:47:00,53.1,,-,61,N/A,30.11,66.9,12:47 PM,,6.0,Calm,Calm,0,Los Angeles,California,90001
21,Clear,2016-03-21 20:47:00,54.0,,-,57,N/A,30.08,70.0,1:47 PM,,10.0,Variable,3.5,0,Los Angeles,California,90001
22,Clear,2016-03-21 21:47:00,54.0,,-,63,N/A,30.07,66.9,2:47 PM,,10.0,Variable,4.6,0,Los Angeles,California,90001
23,Clear,2016-03-21 22:47:00,54.0,,-,65,N/A,30.06,66.0,3:47 PM,,10.0,Variable,3.5,0,Los Angeles,California,90001
24,Clear,2016-03-21 23:47:00,54.0,,-,65,N/A,30.03,66.0,4:47 PM,,10.0,Variable,3.5,0,Los Angeles,California,90001
25,Partly Cloudy,2016-03-22 00:47:00,54.0,,-,72,N/A,30.03,63.0,5:47 PM,,10.0,Variable,6.9,0,Los Angeles,California,90001
26,Clear,2016-03-22 01:47:00,53.1,,-,72,N/A,30.03,62.1,6:47 PM,,10.0,Calm,Calm,0,Los Angeles,California,90001
27,Clear,2016-03-22 02:47:00,51.1,,-,70,N/A,30.04,61.0,7:47 PM,,10.0,West,5.8,280,Los Angeles,California,90001
28,Clear,2016-03-22 03:47:00,51.1,,-,72,N/A,30.05,60.1,8:47 PM,,10.0,West,3.5,270,Los Angeles,California,90001
29,Clear,2016-03-22 04:47:00,51.1,,-,72,N/A,30.06,60.1,9:47 PM,,10.0,Calm,Calm,0,Los Angeles,California,90001
30,Clear,2016-03-22 05:47:00,51.1,,-,72,N/A,30.05,60.1,10:47 PM,,10.0,Calm,Calm,0,Los Angeles,California,90001
31,Partly Cloudy,2016-03-22 06:47:00,51.1,,-,78,N/A,30.05,57.9,11:47 PM,,10.0,Calm,Calm,0,Los Angeles,California,90001
0,Clear,2016-03-22 07:47:00,50.0,,-,72,N/A,30.04,59.0,12:47 AM,,10.0,Calm,Calm,0,Los Angeles,California,90001
1,Clear,2016-03-22 08:47:00,50.0,,-,75,N/A,30.04,57.9,1:47 AM,,10.0,Calm,Calm,0,Los Angeles,California,90001
2,Clear,2016-03-22 09:47:00,50.0,,-,77,N/A,30.03,57.0,2:47 AM,,10.0,Calm,Calm,0,Los Angeles,California,90001
3,Mostly Cloudy,2016-03-22 10:28:00,50.0,,-,80,N/A,30.02,55.9,3:28 AM,,10.0,Calm,Calm,0,Los Angeles,California,90001
4,Scattered Clouds,2016-03-22 10:32:00,50.0,,-,80,N/A,30.02,55.9,3:32 AM,,10.0,Calm,Calm,0,Los Angeles,California,90001
5,Partly Cloudy,2016-03-22 10:47:00,50.0,,-,83,N/A,30.01,55.0,3:47 AM,,10.0,Calm,Calm,0,Los Angeles,California,90001
6,Scattered Clouds,2016-03-22 11:47:00,50.0,,-,83,N/A,30.02,55.0,4:47 AM,,10.0,Calm,Calm,0,Los Angeles,California,90001
7,Clear,2016-03-22 12:47:00,48.0,,-,83,N/A,30.02,53.1,5:47 AM,,10.0,Calm,Calm,0,Los Angeles,California,90001
8,Clear,2016-03-22 13:47:00,48.0,,-,83,N/A,30.02,53.1,6:47 AM,,10.0,Calm,Calm,0,Los Angeles,California,90001
9,Clear,2016-03-22 14:47:00,48.0,,-,75,N/A,30.03,55.9,7:47 AM,,10.0,Calm,Calm,0,Los Angeles,California,90001
10,Clear,2016-03-22 15:47:00,48.0,,-,64,N/A,30.03,60.1,8:47 AM,,10.0,Calm,Calm,0,Los Angeles,California,90001
11,Clear,2016-03-22 16:47:00,37.0,,-,36,N/A,30.04,64.9,9:47 AM,,10.0,NW,6.9,320,Los Angeles,California,90001
12,Clear,2016-03-22 17:47:00,34.0,,17.3,30,N/A,30.04,66.0,10:47 AM,,10.0,North,11.5,350,Los Angeles,California,90001
13,Clear,2016-03-22 18:47:00,34.0,,18.4,28,N/A,30.05,68.0,11:47 AM,,10.0,NNW,10.4,340,Los Angeles,California,90001
14,Clear,2016-03-22 19:47:00,32.0,,19.6,26,N/A,30.04,68.0,12:47 PM,,10.0,NNW,10.4,330,Los Angeles,California,90001
15,Clear,2016-03-22 20:47:00,32.0,,-,25,N/A,30.02,70.0,1:47 PM,,10.0,Variable,5.8,0,Los Angeles,California,90001
16,Clear,2016-03-22 21:47:00,30.0,,20.7,23,N/A,30.00,69.1,2:47 PM,,10.0,NW,8.1,310,Los Angeles,California,90001
17,Clear,2016-03-22 22:47:00,28.9,,20.7,22,N/A,29.99,70.0,3:47 PM,,10.0,NNW,11.5,330,Los Angeles,California,90001
18,Clear,2016-03-22 23:47:00,28.0,,18.4,21,N/A,29.99,70.0,4:47 PM,,10.0,NW,9.2,310,Los Angeles,California,90001
19,Clear,2016-03-23 00:47:00,28.0,,-,22,N/A,29.99,69.1,5:47 PM,,10.0,Variable,6.9,0,Los Angeles,California,90001
20,Clear,2016-03-23 01:47:00,27.0,,-,22,N/A,29.99,66.9,6:47 PM,,10.0,NW,6.9,310,Los Angeles,California,90001
21,Clear,2016-03-23 02:47:00,26.1,,-,24,N/A,30.00,64.0,7:47 PM,,10.0,NNW,9.2,330,Los Angeles,California,90001
22,Clear,2016-03-23 03:47:00,26.1,,23.0,25,N/A,30.01,63.0,8:47 PM,,10.0,North,11.5,350,Los Angeles,California,90001
23,Clear,2016-03-23 04:47:00,30.0,,-,30,N/A,30.01,62.1,9:47 PM,,10.0,WNW,8.1,290,Los Angeles,California,90001
24,Clear,2016-03-23 05:47:00,28.0,,-,29,N/A,30.01,61.0,10:47 PM,,10.0,NW,5.8,320,Los Angeles,California,90001
25,Clear,2016-03-23 06:47:00,28.0,,-,30,N/A,30.02,60.1,11:47 PM,,10.0,NNW,8.1,330,Los Angeles,California,90001
0,Clear,2016-03-23 07:47:00,30.0,,-,32,N/A,30.03,60.1,12:47 AM,,10.0,Variable,4.6,0,Los Angeles,California,90001
1,Clear,2016-03-23 08:47:00,30.0,,-,35,N/A,30.04,57.9,1:47 AM,,10.0,NE,3.5,40,Los Angeles,California,90001
2,Clear,2016-03-23 09:47:00,33.1,,-,42,N/A,30.05,55.9,2:47 AM,,10.0,Calm,Calm,0,Los Angeles,California,90001
3,Clear,2016-03-23 10:47:00,35.1,,-,45,N/A,30.05,55.9,3:47 AM,,10.0,Calm,Calm,0,Los Angeles,California,90001
4,Clear,2016-03-23 11:47:00,37.0,,-,55,N/A,30.06,53.1,4:47 AM,,10.0,Calm,Calm,0,Los Angeles,California,90001
5,Clear,2016-03-23 12:47:00,37.0,,-,57,N/A,30.07,52.0,5:47 AM,,10.0,Calm,Calm,0,Los Angeles,California,90001
6,Clear,2016-03-23 13:47:00,37.0,,-,55,N/A,30.09,53.1,6:47 AM,,10.0,Calm,Calm,0,Los Angeles,California,90001
7,Clear,2016-03-23 14:47:00,39.0,,-,53,N/A,30.11,55.9,7:47 AM,,10.0,Calm,Calm,0,Los Angeles,California,90001
8,Clear,2016-03-23 15:47:00,33.1,,-,35,N/A,30.13,61.0,8:47 AM,,10.0,Calm,Calm,0,Los Angeles,California,90001
9,Clear,2016-03-23 16:47:00,37.0,,-,36,N/A,30.15,64.9,9:47 AM,,10.0,Variable,4.6,0,Los Angeles,California,90001
10,Clear,2016-03-23 17:47:00,34.0,,-,27,N/A,30.16,70.0,10:47 AM,,10.0,Calm,Calm,0,Los Angeles,California,90001
11,Clear,2016-03-23 18:47:00,21.9,,-,14,N/A,30.15,73.9,11:47 AM,,10.0,Calm,Calm,0,Los Angeles,California,90001
12,Clear,2016-03-23 19:47:00,19.9,,-,13,N/A,30.14,75.0,12:47 PM,,10.0,South,3.5,180,Los Angeles,California,90001
13,Clear,2016-03-23 20:47:00,28.9,,-,18,N/A,30.13,75.0,1:47 PM,,10.0,Variable,3.5,0,Los Angeles,California,90001
14,Clear,2016-03-23 21:47:00,28.9,,-,19,N/A,30.12,73.9,2:47 PM,,10.0,Variable,4.6,0,Los Angeles,California,90001
15,Clear,2016-03-23 22:47:00,33.1,,-,24,N/A,30.12,72.0,3:47 PM,,10.0,West,8.1,280,Los Angeles,California,90001
16,Clear,2016-03-23 23:47:00,30.9,,-,22,N/A,30.11,72.0,4:47 PM,,10.0,Variable,4.6,0,Los Angeles,California,90001
17,Clear,2016-03-24 00:47:00,30.0,,-,21,N/A,30.10,72.0,5:47 PM,,10.0,Variable,5.8,0,Los Angeles,California,90001
18,Clear,2016-03-24 01:47:00,37.9,,-,33,N/A,30.10,68.0,6:47 PM,,10.0,West,5.8,270,Los Angeles,California,90001
19,Clear,2016-03-24 02:47:00,41.0,,-,42,N/A,30.10,64.9,7:47 PM,,10.0,Calm,Calm,0,Los Angeles,California,90001
20,Clear,2016-03-24 03:47:00,44.1,,-,50,N/A,30.11,63.0,8:47 PM,,10.0,Calm,Calm,0,Los Angeles,California,90001
21,Clear,2016-03-24 04:47:00,44.1,,-,52,N/A,30.12,62.1,9:47 PM,,10.0,Calm,Calm,0,Los Angeles,California,90001
22,Clear,2016-03-24 05:47:00,45.0,,-,57,N/A,30.13,60.1,10:47 PM,,10.0,Calm,Calm,0,Los Angeles,California,90001
23,Clear,2016-03-24 06:47:00,42.1,,-,48,N/A,30.13,62.1,11:47 PM,,10.0,Calm,Calm,0,Los Angeles,California,90001
0,Clear,2016-03-24 07:47:00,37.9,,-,44,N/A,30.13,60.1,12:47 AM,,10.0,Calm,Calm,0,Los Angeles,California,90001
1,Clear,2016-03-24 08:47:00,35.1,,-,41,N/A,30.12,59.0,1:47 AM,,10.0,Calm,Calm,0,Los Angeles,California,90001
2,Clear,2016-03-24 09:47:00,37.0,,-,47,N/A,30.10,57.0,2:47 AM,,10.0,Calm,Calm,0,Los Angeles,California,90001
3,Clear,2016-03-24 10:47:00,33.1,,-,39,N/A,30.09,57.9,3:47 AM,,10.0,Calm,Calm,0,Los Angeles,California,90001
4,Clear,2016-03-24 11:47:00,34.0,,-,44,N/A,30.08,55.9,4:47 AM,,10.0,Calm,Calm,0,Los Angeles,California,90001
5,Clear,2016-03-24 12:47:00,34.0,,-,45,N/A,30.08,55.0,5:47 AM,,10.0,Calm,Calm,0,Los Angeles,California,90001
6,Clear,2016-03-24 13:47:00,30.9,,-,37,N/A,30.09,57.0,6:47 AM,,10.0,NNE,3.5,20,Los Angeles,California,90001
7,Clear,2016-03-24 14:47:00,30.9,,-,33,N/A,30.09,60.1,7:47 AM,,10.0,Calm,Calm,0,Los Angeles,California,90001
8,Clear,2016-03-24 15:47:00,33.1,,-,29,N/A,30.09,66.0,8:47 AM,,10.0,Calm,Calm,0,Los Angeles,California,90001
9,Clear,2016-03-24 16:47:00,23.0,,-,15,N/A,30.09,73.0,9:47 AM,,10.0,Calm,Calm,0,Los Angeles,California,90001
10,Clear,2016-03-24 17:47:00,21.9,,-,13,N/A,30.08,75.9,10:47 AM,,10.0,Variable,3.5,0,Los Angeles,California,90001
11,Clear,2016-03-24 18:47:00,23.0,,-,13,N/A,30.06,79.0,11:47 AM,,10.0,Calm,Calm,0,Los Angeles,California,90001
12,Clear,2016-03-24 19:47:00,34.0,,-,19,N/A,30.04,80.1,12:47 PM,,10.0,Calm,Calm,0,Los Angeles,California,90001
13,Clear,2016-03-24 20:47:00,34.0,,-,20,N/A,30.01,78.1,1:47 PM,,10.0,Calm,Calm,0,Los Angeles,California,90001
14,Clear,2016-03-24 21:47:00,30.0,,-,19,N/A,30.00,75.9,2:47 PM,,10.0,West,4.6,270,Los Angeles,California,90001
15,Clear,2016-03-24 22:47:00,30.9,,-,21,N/A,29.99,73.0,3:47 PM,,10.0,Variable,3.5,0,Los Angeles,California,90001
16,Clear,2016-03-24 23:47:00,33.1,,-,24,N/A,29.96,72.0,4:47 PM,,10.0,Variable,5.8,0,Los Angeles,California,90001
17,Clear,2016-03-25 00:47:00,37.0,,-,29,N/A,29.94,71.1,5:47 PM,,10.0,West,6.9,270,Los Angeles,California,90001
18,Clear,2016-03-25 01:47:00,42.1,,-,38,N/A,29.94,69.1,6:47 PM,,10.0,Calm,Calm,0,Los Angeles,California,90001
19,Clear,2016-03-25 02:47:00,39.9,,-,38,N/A,29.93,66.0,7:47 PM,,10.0,Calm,Calm,0,Los Angeles,California,90001
20,Clear,2016-03-25 03:47:00,46.9,,-,52,N/A,29.95,64.9,8:47 PM,,10.0,Calm,Calm,0,Los Angeles,California,90001
21,Clear,2016-03-25 04:47:00,48.9,,-,58,N/A,29.94,64.0,9:47 PM,,10.0,SE,3.5,130,Los Angeles,California,90001
22,Clear,2016-03-25 05:47:00,48.0,,-,56,N/A,29.95,64.0,10:47 PM,,10.0,ESE,3.5,120,Los Angeles,California,90001
23,Clear,2016-03-25 06:47:00,45.0,,-,52,N/A,29.94,63.0,11:47 PM,,10.0,Calm,Calm,0,Los Angeles,California,90001
0,Clear,2016-03-25 07:47:00,48.0,,-,64,N/A,29.94,60.1,12:47 AM,,10.0,Calm,Calm,0,Los Angeles,California,90001
1,Clear,2016-03-25 08:47:00,48.0,,-,70,N/A,29.94,57.9,1:47 AM,,10.0,Calm,Calm,0,Los Angeles,California,90001
2,Clear,2016-03-25 09:47:00,46.0,,-,65,N/A,29.93,57.9,2:47 AM,,10.0,Calm,Calm,0,Los Angeles,California,90001
3,Clear,2016-03-25 10:47:00,45.0,,-,67,N/A,29.91,55.9,3:47 AM,,10.0,Calm,Calm,0,Los Angeles,California,90001
4,Clear,2016-03-25 11:47:00,44.1,,-,62,N/A,29.90,57.0,4:47 AM,,10.0,Calm,Calm,0,Los Angeles,California,90001
5,Clear,2016-03-25 12:47:00,48.0,,-,70,N/A,29.89,57.9,5:47 AM,,10.0,Calm,Calm,0,Los Angeles,California,90001
6,Clear,2016-03-25 13:47:00,46.0,,-,75,N/A,29.90,54.0,6:47 AM,,10.0,Calm,Calm,0,Los Angeles,California,90001
7,Clear,2016-03-25 14:47:00,46.9,,-,67,N/A,29.91,57.9,7:47 AM,,10.0,Calm,Calm,0,Los Angeles,California,90001
8,Clear,2016-03-25 15:47:00,44.1,,-,48,N/A,29.91,64.0,8:47 AM,,10.0,Calm,Calm,0,Los Angeles,California,90001
9,Clear,2016-03-25 16:47:00,41.0,,-,37,N/A,29.90,68.0,9:47 AM,,10.0,Calm,Calm,0,Los Angeles,California,90001
10,Clear,2016-03-25 17:47:00,43.0,,-,35,N/A,29.90,72.0,10:47 AM,,10.0,Calm,Calm,0,Los Angeles,California,90001
11,Clear,2016-03-25 18:47:00,43.0,,-,32,N/A,29.88,75.0,11:47 AM,,10.0,Variable,3.5,0,Los Angeles,California,90001
12,Clear,2016-03-25 19:47:00,51.1,,-,43,N/A,29.86,75.0,12:47 PM,,10.0,Variable,6.9,0,Los Angeles,California,90001
13,Clear,2016-03-25 20:47:00,46.0,,-,37,N/A,29.85,73.9,1:47 PM,,10.0,Variable,6.9,0,Los Angeles,California,90001
14,Clear,2016-03-25 21:47:00,39.9,,-,28,N/A,29.82,75.0,2:47 PM,,10.0,Variable,4.6,0,Los Angeles,California,90001
15,Clear,2016-03-25 22:47:00,43.0,,-,34,N/A,29.79,73.0,3:47 PM,,10.0,Calm,Calm,0,Los Angeles,California,90001
16,Clear,2016-03-25 23:47:00,43.0,,-,34,N/A,29.77,73.0,4:47 PM,,10.0,Calm,Calm,0,Los Angeles,California,90001
17,Clear,2016-03-26 00:47:00,48.9,,-,47,N/A,29.77,70.0,5:47 PM,,10.0,Variable,4.6,0,Los Angeles,California,90001
18,Clear,2016-03-26 01:47:00,52.0,,-,63,N/A,29.78,64.9,6:47 PM,,10.0,Variable,4.6,0,Los Angeles,California,90001
19,Clear,2016-03-26 02:47:00,53.1,,-,70,N/A,29.79,63.0,7:47 PM,,10.0,Variable,3.5,0,Los Angeles,California,90001
20,Clear,2016-03-26 03:47:00,52.0,,-,70,N/A,29.80,62.1,8:47 PM,,10.0,Calm,Calm,0,Los Angeles,California,90001
21,Clear,2016-03-26 04:47:00,52.0,,-,70,N/A,29.81,62.1,9:47 PM,,10.0,Calm,Calm,0,Los Angeles,California,90001
22,Clear,2016-03-26 05:47:00,51.1,,-,65,N/A,29.81,63.0,10:47 PM,,10.0,Calm,Calm,0,Los Angeles,California,90001
23,Clear,2016-03-26 06:47:00,54.0,,-,78,N/A,29.82,61.0,11:47 PM,,10.0,ESE,3.5,110,Los Angeles,California,90001
0,Clear,2016-03-26 07:47:00,55.9,,-,83,N/A,29.81,61.0,12:47 AM,,10.0,Variable,3.5,0,Los Angeles,California,90001
1,Clear,2016-03-26 08:47:00,55.9,,-,86,N/A,29.81,60.1,1:47 AM,,9.0,Calm,Calm,0,Los Angeles,California,90001
2,Partly Cloudy,2016-03-26 08:51:00,55.9,,-,86,N/A,29.82,60.1,1:51 AM,,9.0,Calm,Calm,0,Los Angeles,California,90001
3,Mostly Cloudy,2016-03-26 09:47:00,55.9,,-,86,N/A,29.81,60.1,2:47 AM,,10.0,Calm,Calm,0,Los Angeles,California,90001
4,Overcast,2016-03-26 09:55:00,55.9,,-,86,N/A,29.82,60.1,2:55 AM,,9.0,Calm,Calm,0,Los Angeles,California,90001
5,Overcast,2016-03-26 10:44:00,55.0,,-,83,N/A,29.82,60.1,3:44 AM,,7.0,Variable,3.5,0,Los Angeles,California,90001
6,Overcast,2016-03-26 10:47:00,55.0,,-,83,N/A,29.81,60.1,3:47 AM,,7.0,Variable,3.5,0,Los Angeles,California,90001
7,Scattered Clouds,2016-03-26 11:02:00,55.0,,-,87,N/A,29.82,59.0,4:02 AM,,7.0,Calm,Calm,0,Los Angeles,California,90001
8,Mostly Cloudy,2016-03-26 11:05:00,55.0,,-,83,N/A,29.82,60.1,4:05 AM,,7.0,East,3.5,90,Los Angeles,California,90001
9,Overcast,2016-03-26 11:47:00,54.0,,-,80,N/A,29.81,60.1,4:47 AM,,10.0,Calm,Calm,0,Los Angeles,California,90001
10,Overcast,2016-03-26 11:59:00,54.0,,-,83,N/A,29.82,59.0,4:59 AM,,10.0,Calm,Calm,0,Los Angeles,California,90001
11,Overcast,2016-03-26 12:47:00,53.1,,-,81,N/A,29.81,59.0,5:47 AM,,10.0,ESE,4.6,120,Los Angeles,California,90001
12,Scattered Clouds,2016-03-26 13:10:00,53.1,,-,81,N/A,29.81,59.0,6:10 AM,,10.0,ESE,3.5,110,Los Angeles,California,90001
13,Clear,2016-03-26 13:47:00,53.1,,-,81,N/A,29.82,59.0,6:47 AM,,10.0,Calm,Calm,0,Los Angeles,California,90001
14,Clear,2016-03-26 14:47:00,53.1,,-,78,N/A,29.85,60.1,7:47 AM,,10.0,Calm,Calm,0,Los Angeles,California,90001
15,Mostly Cloudy,2016-03-26 15:19:00,53.1,,-,75,N/A,29.86,61.0,8:19 AM,,10.0,Calm,Calm,0,Los Angeles,California,90001
16,Mostly Cloudy,2016-03-26 15:23:00,53.1,,-,75,N/A,29.86,61.0,8:23 AM,,10.0,Variable,3.5,0,Los Angeles,California,90001
17,Scattered Clouds,2016-03-26 15:35:00,54.0,,-,75,N/A,29.86,62.1,8:35 AM,,10.0,Variable,3.5,0,Los Angeles,California,90001
18,Partly Cloudy,2016-03-26 15:47:00,54.0,,-,72,N/A,29.87,63.0,8:47 AM,,10.0,Calm,Calm,0,Los Angeles,California,90001
19,Partly Cloudy,2016-03-26 16:47:00,53.1,,-,67,N/A,29.88,64.0,9:47 AM,,10.0,Calm,Calm,0,Los Angeles,California,90001
20,Clear,2016-03-26 17:47:00,53.1,,-,59,N/A,29.88,68.0,10:47 AM,,10.0,Variable,3.5,0,Los Angeles,California,90001
21,Clear,2016-03-26 18:47:00,51.1,,-,48,N/A,29.87,72.0,11:47 AM,,10.0,West,3.5,280,Los Angeles,California,90001
22,Clear,2016-03-26 19:47:00,52.0,,-,46,N/A,29.86,73.9,12:47 PM,,10.0,Variable,3.5,0,Los Angeles,California,90001
23,Clear,2016-03-26 20:47:00,55.0,,-,55,N/A,29.86,72.0,1:47 PM,,10.0,West,4.6,260,Los Angeles,California,90001
24,Clear,2016-03-26 21:47:00,55.0,,-,59,N/A,29.86,70.0,2:47 PM,,10.0,Variable,4.6,0,Los Angeles,California,90001
25,Clear,2016-03-26 22:47:00,53.1,,-,55,N/A,29.86,70.0,3:47 PM,,10.0,West,6.9,270,Los Angeles,California,90001
26,Clear,2016-03-26 23:47:00,52.0,,-,54,N/A,29.85,69.1,4:47 PM,,10.0,Variable,4.6,0,Los Angeles,California,90001
27,Clear,2016-03-27 00:47:00,54.0,,-,61,N/A,29.86,68.0,5:47 PM,,10.0,WNW,3.5,290,Los Angeles,California,90001
28,Clear,2016-03-27 01:47:00,55.0,,-,70,N/A,29.87,64.9,6:47 PM,,10.0,Calm,Calm,0,Los Angeles,California,90001
29,Clear,2016-03-27 02:47:00,55.0,,-,73,N/A,29.88,64.0,7:47 PM,,10.0,Calm,Calm,0,Los Angeles,California,90001
30,Clear,2016-03-27 03:47:00,55.9,,-,80,N/A,29.91,62.1,8:47 PM,,10.0,Calm,Calm,0,Los Angeles,California,90001
31,Clear,2016-03-27 04:47:00,55.9,,-,83,N/A,29.92,61.0,9:47 PM,,10.0,Calm,Calm,0,Los Angeles,California,90001
32,Clear,2016-03-27 05:47:00,55.0,,-,81,N/A,29.94,61.0,10:47 PM,,10.0,Calm,Calm,0,Los Angeles,California,90001
33,Clear,2016-03-27 06:47:00,55.0,,-,81,N/A,29.95,61.0,11:47 PM,,9.0,Calm,Calm,0,Los Angeles,California,90001
0,Mostly Cloudy,2016-03-27 07:31:00,57.0,,-,87,N/A,29.97,61.0,12:31 AM,,8.0,Variable,3.5,0,Los Angeles,California,90001
1,Mostly Cloudy,2016-03-27 07:35:00,57.0,,-,87,N/A,29.97,61.0,12:35 AM,,8.0,Variable,4.6,0,Los Angeles,California,90001
2,Overcast,2016-03-27 07:47:00,57.0,,-,87,N/A,29.97,61.0,12:47 AM,,7.0,Calm,Calm,0,Los Angeles,California,90001
3,Overcast,2016-03-27 08:31:00,55.9,,-,83,N/A,29.98,61.0,1:31 AM,,8.0,East,3.5,100,Los Angeles,California,90001
4,Overcast,2016-03-27 08:47:00,55.9,,-,83,N/A,29.97,61.0,1:47 AM,,8.0,Calm,Calm,0,Los Angeles,California,90001
5,Scattered Clouds,2016-03-27 09:28:00,55.0,,-,81,N/A,29.97,61.0,2:28 AM,,9.0,East,3.5,100,Los Angeles,California,90001
6,Clear,2016-03-27 09:47:00,55.0,,-,83,N/A,29.97,60.1,2:47 AM,,9.0,Calm,Calm,0,Los Angeles,California,90001
7,Mostly Cloudy,2016-03-27 10:26:00,55.0,,-,83,N/A,29.97,60.1,3:26 AM,,9.0,Calm,Calm,0,Los Angeles,California,90001
8,Overcast,2016-03-27 10:47:00,55.0,,-,87,N/A,29.97,59.0,3:47 AM,,9.0,Calm,Calm,0,Los Angeles,California,90001
9,Overcast,2016-03-27 10:54:00,55.0,,-,87,N/A,29.97,59.0,3:54 AM,,9.0,Calm,Calm,0,Los Angeles,California,90001
10,Overcast,2016-03-27 11:04:00,55.0,,-,87,N/A,29.97,59.0,4:04 AM,,9.0,Calm,Calm,0,Los Angeles,California,90001
11,Mostly Cloudy,2016-03-27 11:26:00,55.0,,-,87,N/A,29.97,59.0,4:26 AM,,8.0,SE,3.5,140,Los Angeles,California,90001
12,Mostly Cloudy,2016-03-27 11:36:00,55.0,,-,87,N/A,29.97,59.0,4:36 AM,,8.0,Calm,Calm,0,Los Angeles,California,90001
13,Mostly Cloudy,2016-03-27 11:47:00,55.0,,-,87,N/A,29.97,59.0,4:47 AM,,8.0,Calm,Calm,0,Los Angeles,California,90001
14,Overcast,2016-03-27 11:57:00,55.0,,-,87,N/A,29.98,59.0,4:57 AM,,8.0,Calm,Calm,0,Los Angeles,California,90001
15,Overcast,2016-03-27 12:47:00,54.0,,-,83,N/A,29.99,59.0,5:47 AM,,9.0,Calm,Calm,0,Los Angeles,California,90001
16,Overcast,2016-03-27 13:47:00,54.0,,-,80,N/A,30.00,60.1,6:47 AM,,9.0,Variable,3.5,0,Los Angeles,California,90001
17,Overcast,2016-03-27 14:47:00,53.1,,-,78,N/A,30.02,60.1,7:47 AM,,8.0,NE,3.5,50,Los Angeles,California,90001
18,Overcast,2016-03-27 15:47:00,54.0,,-,78,N/A,30.03,61.0,8:47 AM,,8.0,Calm,Calm,0,Los Angeles,California,90001
19,Overcast,2016-03-27 15:59:00,54.0,,-,78,N/A,30.03,61.0,8:59 AM,,8.0,Calm,Calm,0,Los Angeles,California,90001
20,Overcast,2016-03-27 16:47:00,54.0,,-,75,N/A,30.04,62.1,9:47 AM,,8.0,Calm,Calm,0,Los Angeles,California,90001
21,Scattered Clouds,2016-03-27 17:16:00,54.0,,-,68,N/A,30.04,64.9,10:16 AM,,8.0,East,4.6,100,Los Angeles,California,90001
22,Clear,2016-03-27 17:47:00,55.0,,-,68,N/A,30.04,66.0,10:47 AM,,8.0,Calm,Calm,0,Los Angeles,California,90001
23,Clear,2016-03-27 18:47:00,55.0,,-,59,N/A,30.03,70.0,11:47 AM,,9.0,Calm,Calm,0,Los Angeles,California,90001
24,Clear,2016-03-27 19:47:00,54.0,,-,53,N/A,30.02,72.0,12:47 PM,,10.0,Calm,Calm,0,Los Angeles,California,90001
25,Clear,2016-03-27 20:47:00,55.9,,-,59,N/A,30.00,71.1,1:47 PM,,10.0,Calm,Calm,0,Los Angeles,California,90001
26,Clear,2016-03-27 21:47:00,55.0,,-,61,N/A,29.98,69.1,2:47 PM,,10.0,North,-9999.0,0,Los Angeles,California,90001
27,Clear,2016-03-27 22:47:00,55.0,,-,63,N/A,29.98,68.0,3:47 PM,,10.0,West,6.9,270,Los Angeles,California,90001
28,Clear,2016-03-27 23:47:00,55.0,,-,68,N/A,29.98,66.0,4:47 PM,,10.0,Variable,5.8,0,Los Angeles,California,90001
29,Clear,2016-03-28 00:47:00,54.0,,-,68,N/A,29.96,64.9,5:47 PM,,10.0,Variable,4.6,0,Los Angeles,California,90001
30,Partly Cloudy,2016-03-28 01:47:00,55.0,,-,75,N/A,29.97,63.0,6:47 PM,,10.0,West,4.6,270,Los Angeles,California,90001
31,Mostly Cloudy,2016-03-28 02:23:00,55.0,,-,78,N/A,29.98,62.1,7:23 PM,,9.0,West,4.6,260,Los Angeles,California,90001
32,Overcast,2016-03-28 02:47:00,55.0,,-,81,N/A,29.97,61.0,7:47 PM,,10.0,Variable,3.5,0,Los Angeles,California,90001
33,Overcast,2016-03-28 03:47:00,55.0,,-,81,N/A,29.98,61.0,8:47 PM,,9.0,Calm,Calm,0,Los Angeles,California,90001
34,Overcast,2016-03-28 04:07:00,54.0,,-,78,N/A,29.98,61.0,9:07 PM,,10.0,West,3.5,270,Los Angeles,California,90001
35,Overcast,2016-03-28 04:47:00,54.0,,-,78,N/A,29.99,61.0,9:47 PM,,9.0,Calm,Calm,0,Los Angeles,California,90001
36,Overcast,2016-03-28 05:47:00,54.0,,-,78,N/A,29.98,61.0,10:47 PM,,10.0,Calm,Calm,0,Los Angeles,California,90001
37,Overcast,2016-03-28 06:47:00,54.0,,-,78,N/A,29.97,61.0,11:47 PM,,9.0,Calm,Calm,0,Los Angeles,California,90001
0,Overcast,2016-03-28 07:47:00,53.1,,-,72,N/A,29.96,62.1,12:47 AM,,10.0,Calm,Calm,0,Los Angeles,California,90001
1,Overcast,2016-03-28 08:47:00,54.0,,-,78,N/A,29.94,61.0,1:47 AM,,10.0,Calm,Calm,0,Los Angeles,California,90001
2,Haze,2016-03-28 09:47:00,54.0,,-,83,N/A,29.94,59.0,2:47 AM,,4.0,Calm,Calm,0,Los Angeles,California,90001
3,Overcast,2016-03-28 10:14:00,55.0,,-,83,N/A,29.93,60.1,3:14 AM,,9.0,Calm,Calm,0,Los Angeles,California,90001
4,Overcast,2016-03-28 10:47:00,54.0,,-,83,N/A,29.92,59.0,3:47 AM,,10.0,Calm,Calm,0,Los Angeles,California,90001
5,Overcast,2016-03-28 11:26:00,54.0,,-,80,N/A,29.92,60.1,4:26 AM,,10.0,Calm,Calm,0,Los Angeles,California,90001
6,Overcast,2016-03-28 11:47:00,54.0,,-,80,N/A,29.91,60.1,4:47 AM,,10.0,Calm,Calm,0,Los Angeles,California,90001
7,Overcast,2016-03-28 12:17:00,54.0,,-,83,N/A,29.90,59.0,5:17 AM,,10.0,West,3.5,260,Los Angeles,California,90001
8,Overcast,2016-03-28 12:39:00,54.0,,-,83,N/A,29.91,59.0,5:39 AM,,10.0,Calm,Calm,0,Los Angeles,California,90001
9,Overcast,2016-03-28 12:47:00,54.0,,-,80,N/A,29.91,60.1,5:47 AM,,10.0,Calm,Calm,0,Los Angeles,California,90001
10,Overcast,2016-03-28 13:28:00,54.0,,-,83,N/A,29.91,59.0,6:28 AM,,8.0,Variable,3.5,0,Los Angeles,California,90001
11,Light Rain,2016-03-28 13:47:00,55.0,Rain,-,90,0.00,29.91,57.9,6:47 AM,,6.0,Calm,Calm,0,Los Angeles,California,90001
12,Light Rain,2016-03-28 13:50:00,55.0,Rain,-,90,0.00,29.91,57.9,6:50 AM,,6.0,Calm,Calm,0,Los Angeles,California,90001
13,Light Rain,2016-03-28 14:08:00,55.9,Rain,-,93,0.00,29.91,57.9,7:08 AM,,7.0,Calm,Calm,0,Los Angeles,California,90001
14,Overcast,2016-03-28 14:47:00,55.9,,-,93,0.00,29.91,57.9,7:47 AM,,8.0,Calm,Calm,0,Los Angeles,California,90001
15,Overcast,2016-03-28 14:52:00,55.9,,-,90,N/A,29.91,59.0,7:52 AM,,7.0,Calm,Calm,0,Los Angeles,California,90001
16,Rain,2016-03-28 15:12:00,55.9,Rain,-,90,0.00,29.91,59.0,8:12 AM,,2.5,Calm,Calm,0,Los Angeles,California,90001
17,Light Rain,2016-03-28 15:23:00,55.9,Rain,-,90,0.02,29.91,59.0,8:23 AM,,5.0,Calm,Calm,0,Los Angeles,California,90001
18,Overcast,2016-03-28 15:32:00,55.9,,-,90,0.02,29.91,59.0,8:32 AM,,7.0,Calm,Calm,0,Los Angeles,California,90001
19,Overcast,2016-03-28 15:47:00,55.9,,-,90,0.02,29.90,59.0,8:47 AM,,8.0,West,3.5,270,Los Angeles,California,90001
20,Overcast,2016-03-28 15:51:00,55.9,,-,90,N/A,29.90,59.0,8:51 AM,,8.0,Variable,3.5,0,Los Angeles,California,90001
21,Overcast,2016-03-28 16:03:00,55.9,,-,90,N/A,29.91,59.0,9:03 AM,,8.0,Variable,3.5,0,Los Angeles,California,90001
22,Overcast,2016-03-28 16:06:00,55.9,,-,90,N/A,29.91,59.0,9:06 AM,,8.0,Calm,Calm,0,Los Angeles,California,90001
23,Overcast,2016-03-28 16:19:00,55.0,,-,87,N/A,29.90,59.0,9:19 AM,,9.0,Calm,Calm,0,Los Angeles,California,90001
24,Mostly Cloudy,2016-03-28 16:42:00,55.0,,-,81,N/A,29.91,61.0,9:42 AM,,10.0,Calm,Calm,0,Los Angeles,California,90001
25,Mostly Cloudy,2016-03-28 16:47:00,55.0,,-,81,N/A,29.91,61.0,9:47 AM,,10.0,Variable,4.6,0,Los Angeles,California,90001
26,Overcast,2016-03-28 16:51:00,55.0,,-,78,N/A,29.90,62.1,9:51 AM,,10.0,West,3.5,270,Los Angeles,California,90001
27,Overcast,2016-03-28 16:57:00,55.0,,-,81,N/A,29.90,61.0,9:57 AM,,10.0,West,4.6,270,Los Angeles,California,90001
28,Mostly Cloudy,2016-03-28 17:13:00,55.0,,-,78,N/A,29.90,62.1,10:13 AM,,10.0,Variable,3.5,0,Los Angeles,California,90001
29,Mostly Cloudy,2016-03-28 17:16:00,55.0,,-,78,N/A,29.90,62.1,10:16 AM,,10.0,Calm,Calm,0,Los Angeles,California,90001
30,Overcast,2016-03-28 17:47:00,54.0,,-,75,N/A,29.90,62.1,10:47 AM,,10.0,Calm,Calm,0,Los Angeles,California,90001
31,Mostly Cloudy,2016-03-28 18:47:00,52.0,,-,67,N/A,29.89,63.0,11:47 AM,,10.0,Variable,3.5,0,Los Angeles,California,90001
32,Mostly Cloudy,2016-03-28 19:47:00,51.1,,-,63,N/A,29.88,64.0,12:47 PM,,10.0,Variable,3.5,0,Los Angeles,California,90001
33,Scattered Clouds,2016-03-28 20:17:00,50.0,,-,60,N/A,29.88,64.0,1:17 PM,,10.0,Variable,3.5,0,Los Angeles,California,90001
34,Mostly Cloudy,2016-03-28 20:35:00,50.0,,-,63,N/A,29.87,63.0,1:35 PM,,10.0,Variable,3.5,0,Los Angeles,California,90001
35,Scattered Clouds,2016-03-28 20:39:00,50.0,,-,60,N/A,29.87,64.0,1:39 PM,,10.0,North,-9999.0,0,Los Angeles,California,90001
36,Mostly Cloudy,2016-03-28 20:47:00,50.0,,-,60,N/A,29.86,64.0,1:47 PM,,10.0,West,6.9,260,Los Angeles,California,90001
37,Mostly Cloudy,2016-03-28 21:11:00,48.0,,-,60,N/A,29.86,62.1,2:11 PM,,10.0,Variable,3.5,0,Los Angeles,California,90001
38,Scattered Clouds,2016-03-28 21:17:00,48.0,,-,60,N/A,29.86,62.1,2:17 PM,,10.0,SW,3.5,230,Los Angeles,California,90001
39,Partly Cloudy,2016-03-28 21:47:00,46.9,,-,58,N/A,29.86,62.1,2:47 PM,,10.0,West,6.9,260,Los Angeles,California,90001
40,Clear,2016-03-28 22:47:00,41.0,,-,48,N/A,29.84,61.0,3:47 PM,,10.0,North,-9999.0,0,Los Angeles,California,90001
41,Clear,2016-03-28 23:47:00,43.0,,-,53,N/A,29.82,60.1,4:47 PM,,10.0,Variable,3.5,0,Los Angeles,California,90001
42,Clear,2016-03-29 00:47:00,43.0,,-,58,N/A,29.81,57.9,5:47 PM,,10.0,Variable,5.8,0,Los Angeles,California,90001
43,Clear,2016-03-29 01:47:00,42.1,,17.3,57,N/A,29.81,57.0,6:47 PM,,10.0,Variable,6.9,0,Los Angeles,California,90001
44,Partly Cloudy,2016-03-29 02:47:00,39.9,,-,55,N/A,29.81,55.9,7:47 PM,,10.0,West,3.5,270,Los Angeles,California,90001
45,Clear,2016-03-29 03:47:00,39.9,,-,57,N/A,29.81,55.0,8:47 PM,,10.0,Calm,Calm,0,Los Angeles,California,90001
46,Clear,2016-03-29 04:47:00,41.0,,-,62,N/A,29.83,54.0,9:47 PM,,10.0,Calm,Calm,0,Los Angeles,California,90001
47,Scattered Clouds,2016-03-29 05:47:00,39.9,,-,55,N/A,29.84,55.9,10:47 PM,,10.0,Variable,3.5,0,Los Angeles,California,90001
48,Mostly Cloudy,2016-03-29 06:47:00,39.9,,-,57,N/A,29.85,55.0,11:47 PM,,10.0,ENE,3.5,60,Los Angeles,California,90001
0,Scattered Clouds,2016-03-29 07:47:00,41.0,,-,62,N/A,29.85,54.0,12:47 AM,,10.0,Calm,Calm,0,Los Angeles,California,90001
1,Clear,2016-03-29 08:47:00,41.0,,-,64,N/A,29.85,53.1,1:47 AM,,10.0,Calm,Calm,0,Los Angeles,California,90001
2,Clear,2016-03-29 09:47:00,41.0,,-,68,N/A,29.84,51.1,2:47 AM,,10.0,Calm,Calm,0,Los Angeles,California,90001
3,Clear,2016-03-29 10:47:00,37.9,,-,61,N/A,29.84,51.1,3:47 AM,,10.0,Calm,Calm,0,Los Angeles,California,90001
4,Clear,2016-03-29 11:47:00,37.9,,-,63,N/A,29.85,50.0,4:47 AM,,10.0,Calm,Calm,0,Los Angeles,California,90001
5,Clear,2016-03-29 12:47:00,37.0,,-,64,N/A,29.87,48.9,5:47 AM,,10.0,Calm,Calm,0,Los Angeles,California,90001
6,Clear,2016-03-29 13:47:00,39.0,,-,71,N/A,29.89,48.0,6:47 AM,,10.0,Calm,Calm,0,Los Angeles,California,90001
7,Clear,2016-03-29 14:47:00,36.0,,-,54,N/A,29.89,52.0,7:47 AM,,10.0,Variable,4.6,0,Los Angeles,California,90001
8,Clear,2016-03-29 15:47:00,36.0,,-,47,N/A,29.90,55.9,8:47 AM,,10.0,Variable,4.6,0,Los Angeles,California,90001
9,Clear,2016-03-29 16:47:00,36.0,,-,42,N/A,29.91,59.0,9:47 AM,,10.0,WNW,3.5,290,Los Angeles,California,90001
10,Clear,2016-03-29 17:47:00,37.0,,-,39,N/A,29.91,62.1,10:47 AM,,10.0,Calm,Calm,0,Los Angeles,California,90001
11,Clear,2016-03-29 18:47:00,35.1,,-,35,N/A,29.90,63.0,11:47 AM,,10.0,Calm,Calm,0,Los Angeles,California,90001
12,Clear,2016-03-29 19:47:00,36.0,,-,35,N/A,29.89,64.0,12:47 PM,,10.0,North,-9999.0,0,Los Angeles,California,90001
13,Clear,2016-03-29 20:47:00,41.0,,-,45,N/A,29.88,63.0,1:47 PM,,10.0,Variable,5.8,0,Los Angeles,California,90001
14,Clear,2016-03-29 21:47:00,37.9,,-,41,N/A,29.86,62.1,2:47 PM,,10.0,North,-9999.0,0,Los Angeles,California,90001
15,Clear,2016-03-29 22:47:00,41.0,,-,48,N/A,29.85,61.0,3:47 PM,,10.0,Variable,6.9,0,Los Angeles,California,90001
16,Mostly Cloudy,2016-03-29 23:47:00,42.1,,17.3,50,N/A,29.84,61.0,4:47 PM,,10.0,Variable,5.8,0,Los Angeles,California,90001
17,Overcast,2016-03-30 00:47:00,44.1,,18.4,58,0.00,29.87,59.0,5:47 PM,,10.0,West,11.5,280,Los Angeles,California,90001
18,Partly Cloudy,2016-03-30 01:47:00,42.1,,-,53,N/A,29.88,59.0,6:47 PM,,10.0,Variable,6.9,0,Los Angeles,California,90001
19,Clear,2016-03-30 02:47:00,41.0,,-,55,N/A,29.88,57.0,7:47 PM,,10.0,West,6.9,280,Los Angeles,California,90001
20,Scattered Clouds,2016-03-30 03:47:00,46.0,,-,72,N/A,29.90,55.0,8:47 PM,,10.0,West,4.6,260,Los Angeles,California,90001
21,Clear,2016-03-30 04:47:00,46.0,,-,72,N/A,29.91,55.0,9:47 PM,,10.0,Calm,Calm,0,Los Angeles,California,90001
22,Clear,2016-03-30 05:47:00,46.0,,-,75,N/A,29.92,54.0,10:47 PM,,10.0,Calm,Calm,0,Los Angeles,California,90001
23,Mostly Cloudy,2016-03-30 06:15:00,46.0,,-,75,N/A,29.92,54.0,11:15 PM,,10.0,Calm,Calm,0,Los Angeles,California,90001
24,Scattered Clouds,2016-03-30 06:40:00,43.0,,-,66,N/A,29.92,54.0,11:40 PM,,10.0,East,5.8,90,Los Angeles,California,90001
25,Partly Cloudy,2016-03-30 06:47:00,43.0,,-,66,N/A,29.91,54.0,11:47 PM,,10.0,East,4.6,80,Los Angeles,California,90001
0,Mostly Cloudy,2016-03-30 07:05:00,43.0,,-,66,N/A,29.92,54.0,12:05 AM,,10.0,East,4.6,80,Los Angeles,California,90001
1,Overcast,2016-03-30 07:47:00,43.0,,-,66,N/A,29.92,54.0,12:47 AM,,10.0,Variable,5.8,0,Los Angeles,California,90001
2,Overcast,2016-03-30 08:47:00,42.1,,-,64,N/A,29.93,54.0,1:47 AM,,10.0,East,5.8,80,Los Angeles,California,90001
3,Overcast,2016-03-30 09:08:00,41.0,,-,64,N/A,29.93,53.1,2:08 AM,,10.0,Variable,3.5,0,Los Angeles,California,90001
4,Clear,2016-03-30 09:47:00,41.0,,-,64,N/A,29.93,53.1,2:47 AM,,10.0,East,5.8,100,Los Angeles,California,90001
5,Overcast,2016-03-30 10:47:00,41.0,,-,64,N/A,29.94,53.1,3:47 AM,,10.0,Calm,Calm,0,Los Angeles,California,90001
6,Mostly Cloudy,2016-03-30 11:47:00,39.9,,-,63,N/A,29.94,52.0,4:47 AM,,10.0,Variable,3.5,0,Los Angeles,California,90001
7,Partly Cloudy,2016-03-30 12:47:00,39.9,,-,63,N/A,29.95,52.0,5:47 AM,,10.0,ESE,3.5,110,Los Angeles,California,90001
8,Clear,2016-03-30 13:47:00,39.9,,-,63,N/A,29.96,52.0,6:47 AM,,10.0,Variable,3.5,0,Los Angeles,California,90001
9,Clear,2016-03-30 14:47:00,41.0,,-,64,N/A,29.97,53.1,7:47 AM,,10.0,East,3.5,100,Los Angeles,California,90001
10,Clear,2016-03-30 15:47:00,41.0,,-,57,N/A,29.99,55.9,8:47 AM,,10.0,ESE,4.6,120,Los Angeles,California,90001
11,Clear,2016-03-30 16:47:00,42.1,,-,53,N/A,29.99,59.0,9:47 AM,,10.0,Variable,3.5,0,Los Angeles,California,90001
12,Scattered Clouds,2016-03-30 17:47:00,41.0,,-,48,N/A,30.00,61.0,10:47 AM,,10.0,ENE,5.8,60,Los Angeles,California,90001
13,Clear,2016-03-30 18:47:00,39.9,,-,41,N/A,29.99,64.0,11:47 AM,,10.0,Variable,3.5,0,Los Angeles,California,90001
14,Mostly Cloudy,2016-03-30 19:47:00,37.9,,-,40,N/A,29.97,63.0,12:47 PM,,10.0,Calm,Calm,0,Los Angeles,California,90001
15,Partly Cloudy,2016-03-30 20:47:00,44.1,,-,47,N/A,29.96,64.9,1:47 PM,,10.0,Calm,Calm,0,Los Angeles,California,90001
16,Partly Cloudy,2016-03-30 21:47:00,44.1,,17.3,50,N/A,29.96,63.0,2:47 PM,,10.0,West,9.2,260,Los Angeles,California,90001
17,Clear,2016-03-30 22:47:00,45.0,,-,52,N/A,29.95,63.0,3:47 PM,,10.0,Variable,5.8,0,Los Angeles,California,90001
18,Clear,2016-03-30 23:47:00,43.0,,-,52,N/A,29.96,61.0,4:47 PM,,10.0,West,8.1,270,Los Angeles,California,90001
19,Clear,2016-03-31 00:47:00,42.1,,-,53,N/A,29.97,59.0,5:47 PM,,10.0,Variable,5.8,0,Los Angeles,California,90001
20,Clear,2016-03-31 01:47:00,44.1,,-,58,N/A,29.97,59.0,6:47 PM,,10.0,Variable,4.6,0,Los Angeles,California,90001
21,Clear,2016-03-31 02:47:00,42.1,,-,57,N/A,29.99,57.0,7:47 PM,,10.0,Variable,3.5,0,Los Angeles,California,90001
22,Clear,2016-03-31 03:47:00,45.0,,-,67,N/A,30.01,55.9,8:47 PM,,10.0,Calm,Calm,0,Los Angeles,California,90001
23,Clear,2016-03-31 04:47:00,46.9,,-,72,N/A,30.02,55.9,9:47 PM,,10.0,Calm,Calm,0,Los Angeles,California,90001
24,Clear,2016-03-31 05:47:00,46.9,,-,74,N/A,30.03,55.0,10:47 PM,,10.0,Calm,Calm,0,Los Angeles,California,90001
25,Clear,2016-03-31 06:47:00,46.9,,-,74,N/A,30.04,55.0,11:47 PM,,10.0,Calm,Calm,0,Los Angeles,California,90001
0,Clear,2016-03-31 07:47:00,46.9,,-,80,N/A,30.05,53.1,12:47 AM,,10.0,Calm,Calm,0,Los Angeles,California,90001
1,Clear,2016-03-31 08:47:00,46.9,,-,80,N/A,30.04,53.1,1:47 AM,,10.0,Calm,Calm,0,Los Angeles,California,90001
2,Clear,2016-03-31 09:47:00,44.1,,-,74,N/A,30.04,52.0,2:47 AM,,10.0,Calm,Calm,0,Los Angeles,California,90001
3,Clear,2016-03-31 10:47:00,43.0,,-,74,N/A,30.03,51.1,3:47 AM,,10.0,Calm,Calm,0,Los Angeles,California,90001
4,Clear,2016-03-31 11:47:00,42.1,,-,69,N/A,30.03,52.0,4:47 AM,,10.0,Calm,Calm,0,Los Angeles,California,90001
5,Clear,2016-03-31 12:47:00,42.1,,-,71,N/A,30.02,51.1,5:47 AM,,10.0,Calm,Calm,0,Los Angeles,California,90001
6,Clear,2016-03-31 13:47:00,42.1,,-,74,N/A,30.03,50.0,6:47 AM,,10.0,Calm,Calm,0,Los Angeles,California,90001
7,Clear,2016-03-31 14:47:00,42.1,,-,64,N/A,30.05,54.0,7:47 AM,,10.0,NNE,3.5,20,Los Angeles,California,90001
8,Clear,2016-03-31 15:47:00,42.1,,-,57,N/A,30.05,57.0,8:47 AM,,10.0,Calm,Calm,0,Los Angeles,California,90001
9,Clear,2016-03-31 16:47:00,42.1,,-,51,N/A,30.05,60.1,9:47 AM,,10.0,Calm,Calm,0,Los Angeles,California,90001
10,Clear,2016-03-31 17:47:00,43.0,,-,43,N/A,30.04,66.0,10:47 AM,,10.0,Variable,3.5,0,Los Angeles,California,90001
11,Clear,2016-03-31 18:47:00,44.1,,-,39,N/A,30.04,70.0,11:47 AM,,10.0,Variable,4.6,0,Los Angeles,California,90001
12,Clear,2016-03-31 19:47:00,43.0,,-,39,N/A,30.02,69.1,12:47 PM,,10.0,Variable,5.8,0,Los Angeles,California,90001
13,Clear,2016-03-31 20:47:00,39.9,,19.6,36,N/A,30.01,68.0,1:47 PM,,10.0,West,10.4,280,Los Angeles,California,90001
14,Clear,2016-03-31 21:47:00,39.9,,-,36,N/A,30.00,68.0,2:47 PM,,10.0,WSW,5.8,250,Los Angeles,California,90001
15,Clear,2016-03-31 22:47:00,44.1,,-,44,N/A,29.99,66.9,3:47 PM,,10.0,West,5.8,260,Los Angeles,California,90001
16,Clear,2016-03-31 23:47:00,39.9,,20.7,36,N/A,29.98,68.0,4:47 PM,,10.0,West,11.5,270,Los Angeles,California,90001
17,Clear,2016-04-01 00:47:00,43.0,,20.7,43,N/A,29.98,66.0,5:47 PM,,10.0,West,9.2,260,Los Angeles,California,90001
18,Clear,2016-04-01 01:47:00,46.0,,-,50,N/A,29.98,64.9,6:47 PM,,10.0,Variable,3.5,0,Los Angeles,California,90001
19,Clear,2016-04-01 02:47:00,48.0,,-,60,N/A,29.99,62.1,7:47 PM,,10.0,West,3.5,270,Los Angeles,California,90001
20,Clear,2016-04-01 03:47:00,48.9,,-,69,N/A,30.01,59.0,8:47 PM,,10.0,Calm,Calm,0,Los Angeles,California,90001
21,Clear,2016-04-01 04:47:00,51.1,,-,81,N/A,30.03,57.0,9:47 PM,,10.0,Calm,Calm,0,Los Angeles,California,90001
22,Clear,2016-04-01 05:47:00,51.1,,-,81,N/A,30.04,57.0,10:47 PM,,10.0,Calm,Calm,0,Los Angeles,California,90001
23,Clear,2016-04-01 06:47:00,51.1,,-,81,N/A,30.05,57.0,11:47 PM,,10.0,Variable,3.5,0,Los Angeles,California,90001
0,Clear,2016-04-01 07:47:00,51.1,,-,81,N/A,30.07,57.0,12:47 AM,,10.0,ESE,3.5,110,Los Angeles,California,90001
1,Clear,2016-04-01 08:47:00,50.0,,-,77,N/A,30.07,57.0,1:47 AM,,10.0,Variable,3.5,0,Los Angeles,California,90001
2,Mostly Cloudy,2016-04-01 09:29:00,51.1,,-,81,N/A,30.07,57.0,2:29 AM,,9.0,ESE,4.6,110,Los Angeles,California,90001
3,Mostly Cloudy,2016-04-01 09:47:00,52.0,,-,83,N/A,30.07,57.0,2:47 AM,,10.0,Variable,3.5,0,Los Angeles,California,90001
4,Overcast,2016-04-01 10:47:00,51.1,,-,81,N/A,30.06,57.0,3:47 AM,,10.0,East,4.6,90,Los Angeles,California,90001
5,Scattered Clouds,2016-04-01 11:16:00,50.0,,-,80,N/A,30.06,55.9,4:16 AM,,10.0,East,4.6,80,Los Angeles,California,90001
6,Clear,2016-04-01 11:47:00,48.9,,-,80,N/A,30.07,55.0,4:47 AM,,10.0,Calm,Calm,0,Los Angeles,California,90001
7,Clear,2016-04-01 12:47:00,48.9,,-,80,N/A,30.07,55.0,5:47 AM,,8.0,Calm,Calm,0,Los Angeles,California,90001
8,Clear,2016-04-01 13:47:00,48.9,,-,83,N/A,30.09,54.0,6:47 AM,,10.0,Calm,Calm,0,Los Angeles,California,90001
9,Clear,2016-04-01 14:47:00,48.9,,-,74,N/A,30.11,57.0,7:47 AM,,10.0,Calm,Calm,0,Los Angeles,California,90001
10,Clear,2016-04-01 15:47:00,50.0,,-,67,N/A,30.11,61.0,8:47 AM,,10.0,Calm,Calm,0,Los Angeles,California,90001
11,Clear,2016-04-01 16:47:00,48.0,,-,58,N/A,30.12,63.0,9:47 AM,,10.0,Variable,3.5,0,Los Angeles,California,90001
12,Clear,2016-04-01 17:47:00,46.9,,-,50,N/A,30.12,66.0,10:47 AM,,10.0,Variable,3.5,0,Los Angeles,California,90001
13,Clear,2016-04-01 18:47:00,48.0,,-,44,N/A,30.10,71.1,11:47 AM,,10.0,Calm,Calm,0,Los Angeles,California,90001
14,Clear,2016-04-01 19:47:00,51.1,,-,49,N/A,30.09,71.1,12:47 PM,,10.0,Calm,Calm,0,Los Angeles,California,90001
15,Clear,2016-04-01 20:47:00,52.0,,-,54,N/A,30.09,69.1,1:47 PM,,10.0,West,4.6,260,Los Angeles,California,90001
16,Clear,2016-04-01 21:47:00,53.1,,-,61,N/A,30.08,66.9,2:47 PM,,10.0,Variable,4.6,0,Los Angeles,California,90001
17,Clear,2016-04-01 22:47:00,53.1,,-,59,N/A,30.07,68.0,3:47 PM,,10.0,Variable,4.6,0,Los Angeles,California,90001
18,Clear,2016-04-01 23:47:00,50.0,,-,54,N/A,30.06,66.9,4:47 PM,,10.0,West,6.9,280,Los Angeles,California,90001
19,Clear,2016-04-02 00:47:00,50.0,,-,54,N/A,30.06,66.9,5:47 PM,,10.0,Calm,Calm,0,Los Angeles,California,90001
20,Clear,2016-04-02 01:47:00,48.9,,-,58,N/A,30.07,64.0,6:47 PM,,10.0,West,3.5,270,Los Angeles,California,90001
21,Clear,2016-04-02 02:47:00,52.0,,-,72,N/A,30.08,61.0,7:47 PM,,10.0,West,3.5,280,Los Angeles,California,90001
22,Clear,2016-04-02 03:47:00,54.0,,-,80,N/A,30.09,60.1,8:47 PM,,10.0,Calm,Calm,0,Los Angeles,California,90001
23,Clear,2016-04-02 04:47:00,53.1,,-,81,N/A,30.11,59.0,9:47 PM,,10.0,Calm,Calm,0,Los Angeles,California,90001
24,Clear,2016-04-02 05:47:00,52.0,,-,78,N/A,30.12,59.0,10:47 PM,,10.0,Calm,Calm,0,Los Angeles,California,90001
25,Clear,2016-04-02 06:47:00,52.0,,-,81,N/A,30.13,57.9,11:47 PM,,10.0,Calm,Calm,0,Los Angeles,California,90001
0,Clear,2016-04-02 07:47:00,52.0,,-,83,N/A,30.13,57.0,12:47 AM,,10.0,Calm,Calm,0,Los Angeles,California,90001
1,Clear,2016-04-02 08:47:00,52.0,,-,83,N/A,30.13,57.0,1:47 AM,,10.0,Calm,Calm,0,Los Angeles,California,90001
2,Clear,2016-04-02 09:47:00,52.0,,-,83,N/A,30.13,57.0,2:47 AM,,10.0,Calm,Calm,0,Los Angeles,California,90001
3,Clear,2016-04-02 10:47:00,52.0,,-,87,N/A,30.13,55.9,3:47 AM,,9.0,Calm,Calm,0,Los Angeles,California,90001
4,Clear,2016-04-02 11:47:00,51.1,,-,86,N/A,30.14,55.0,4:47 AM,,10.0,Calm,Calm,0,Los Angeles,California,90001
5,Clear,2016-04-02 12:47:00,51.1,,-,86,N/A,30.14,55.0,5:47 AM,,9.0,Calm,Calm,0,Los Angeles,California,90001
6,Clear,2016-04-02 13:47:00,51.1,,-,86,N/A,30.15,55.0,6:47 AM,,9.0,Calm,Calm,0,Los Angeles,California,90001
7,Clear,2016-04-02 14:47:00,53.1,,-,78,N/A,30.17,60.1,7:47 AM,,7.0,Calm,Calm,0,Los Angeles,California,90001
8,Haze,2016-04-02 15:47:00,53.1,,-,72,N/A,30.17,62.1,8:47 AM,,6.0,Calm,Calm,0,Los Angeles,California,90001
9,Clear,2016-04-02 16:47:00,50.0,,-,52,N/A,30.16,68.0,9:47 AM,,10.0,Calm,Calm,0,Los Angeles,California,90001
10,Clear,2016-04-02 17:47:00,50.0,,-,46,N/A,30.15,72.0,10:47 AM,,9.0,Variable,3.5,0,Los Angeles,California,90001
11,Clear,2016-04-02 18:47:00,53.1,,-,46,N/A,30.14,75.0,11:47 AM,,7.0,Variable,4.6,0,Los Angeles,California,90001
12,Clear,2016-04-02 19:47:00,55.0,,-,52,N/A,30.13,73.9,12:47 PM,,10.0,Calm,Calm,0,Los Angeles,California,90001
13,Clear,2016-04-02 20:47:00,53.1,,-,49,N/A,30.11,73.0,1:47 PM,,10.0,Variable,5.8,0,Los Angeles,California,90001
14,Clear,2016-04-02 21:47:00,51.1,,-,46,N/A,30.09,73.0,2:47 PM,,10.0,Variable,3.5,0,Los Angeles,California,90001
15,Clear,2016-04-02 22:47:00,48.9,,-,42,N/A,30.07,73.0,3:47 PM,,10.0,WNW,4.6,300,Los Angeles,California,90001
16,Clear,2016-04-02 23:47:00,48.9,,-,44,N/A,30.06,72.0,4:47 PM,,10.0,Variable,6.9,0,Los Angeles,California,90001
17,Clear,2016-04-03 00:47:00,51.1,,-,51,N/A,30.05,70.0,5:47 PM,,10.0,West,5.8,280,Los Angeles,California,90001
18,Clear,2016-04-03 01:47:00,51.1,,-,57,N/A,30.04,66.9,6:47 PM,,10.0,Variable,3.5,0,Los Angeles,California,90001
19,Clear,2016-04-03 02:47:00,54.0,,-,70,N/A,30.05,64.0,7:47 PM,,10.0,West,3.5,270,Los Angeles,California,90001
20,Clear,2016-04-03 03:47:00,55.0,,-,78,N/A,30.06,62.1,8:47 PM,,10.0,Calm,Calm,0,Los Angeles,California,90001
21,Clear,2016-04-03 04:47:00,55.0,,-,81,N/A,30.06,61.0,9:47 PM,,10.0,Calm,Calm,0,Los Angeles,California,90001
22,Clear,2016-04-03 05:47:00,55.0,,-,83,N/A,30.07,60.1,10:47 PM,,9.0,Calm,Calm,0,Los Angeles,California,90001
23,Clear,2016-04-03 06:47:00,54.0,,-,78,N/A,30.08,61.0,11:47 PM,,10.0,ESE,3.5,110,Los Angeles,California,90001
0,Clear,2016-04-03 07:47:00,54.0,,-,80,N/A,30.08,60.1,12:47 AM,,9.0,ESE,3.5,120,Los Angeles,California,90001
1,Clear,2016-04-03 08:47:00,54.0,,-,80,N/A,30.07,60.1,1:47 AM,,10.0,East,3.5,100,Los Angeles,California,90001
2,Clear,2016-04-03 09:47:00,53.1,,-,81,N/A,30.06,59.0,2:47 AM,,10.0,Calm,Calm,0,Los Angeles,California,90001
3,Clear,2016-04-03 10:47:00,53.1,,-,78,N/A,30.05,60.1,3:47 AM,,10.0,Calm,Calm,0,Los Angeles,California,90001
4,Clear,2016-04-03 11:47:00,52.0,,-,83,N/A,30.05,57.0,4:47 AM,,10.0,Calm,Calm,0,Los Angeles,California,90001
5,Clear,2016-04-03 12:47:00,52.0,,-,83,N/A,30.05,57.0,5:47 AM,,9.0,Calm,Calm,0,Los Angeles,California,90001
6,Clear,2016-04-03 13:47:00,52.0,,-,81,N/A,30.05,57.9,6:47 AM,,9.0,Calm,Calm,0,Los Angeles,California,90001
7,Clear,2016-04-03 14:47:00,53.1,,-,78,N/A,30.06,60.1,7:47 AM,,8.0,Calm,Calm,0,Los Angeles,California,90001
8,Clear,2016-04-03 15:47:00,53.1,,-,70,N/A,30.07,63.0,8:47 AM,,8.0,Calm,Calm,0,Los Angeles,California,90001
9,Clear,2016-04-03 16:47:00,51.1,,-,53,N/A,30.07,69.1,9:47 AM,,10.0,Calm,Calm,0,Los Angeles,California,90001
10,Clear,2016-04-03 17:47:00,52.0,,-,48,N/A,30.06,73.0,10:47 AM,,9.0,Calm,Calm,0,Los Angeles,California,90001
11,Clear,2016-04-03 18:47:00,51.1,,-,39,N/A,30.05,78.1,11:47 AM,,10.0,Calm,Calm,0,Los Angeles,California,90001
12,Clear,2016-04-03 19:47:00,55.0,,-,50,N/A,30.04,75.0,12:47 PM,,10.0,Calm,Calm,0,Los Angeles,California,90001
13,Clear,2016-04-03 20:47:00,51.1,,-,46,N/A,30.02,73.0,1:47 PM,,10.0,West,6.9,270,Los Angeles,California,90001
14,Clear,2016-04-03 21:47:00,51.1,,-,49,N/A,30.01,71.1,2:47 PM,,10.0,North,-9999.0,0,Los Angeles,California,90001
15,Clear,2016-04-03 22:47:00,50.0,,-,51,N/A,29.99,69.1,3:47 PM,,10.0,WNW,4.6,290,Los Angeles,California,90001
16,Clear,2016-04-03 23:47:00,50.0,,-,47,N/A,29.99,71.1,4:47 PM,,10.0,Variable,3.5,0,Los Angeles,California,90001
17,Clear,2016-04-04 00:47:00,50.0,,-,51,N/A,29.98,69.1,5:47 PM,,10.0,West,5.8,270,Los Angeles,California,90001
18,Clear,2016-04-04 01:47:00,52.0,,-,63,N/A,29.98,64.9,6:47 PM,,10.0,West,4.6,280,Los Angeles,California,90001
19,Clear,2016-04-04 02:47:00,51.1,,-,65,N/A,29.99,63.0,7:47 PM,,10.0,Calm,Calm,0,Los Angeles,California,90001
20,Clear,2016-04-04 03:47:00,52.0,,-,70,N/A,30.02,62.1,8:47 PM,,10.0,Calm,Calm,0,Los Angeles,California,90001
21,Clear,2016-04-04 04:47:00,52.0,,-,72,N/A,30.04,61.0,9:47 PM,,10.0,Calm,Calm,0,Los Angeles,California,90001
22,Clear,2016-04-04 05:47:00,51.1,,-,70,N/A,30.05,61.0,10:47 PM,,10.0,ESE,3.5,120,Los Angeles,California,90001
23,Clear,2016-04-04 06:47:00,51.1,,-,70,N/A,30.04,61.0,11:47 PM,,10.0,Variable,3.5,0,Los Angeles,California,90001
0,Clear,2016-04-04 07:47:00,50.0,,-,69,N/A,30.05,60.1,12:47 AM,,10.0,Calm,Calm,0,Los Angeles,California,90001
1,Clear,2016-04-04 08:47:00,50.0,,-,72,N/A,30.04,59.0,1:47 AM,,10.0,Calm,Calm,0,Los Angeles,California,90001
2,Clear,2016-04-04 09:47:00,50.0,,-,75,N/A,30.04,57.9,2:47 AM,,10.0,Calm,Calm,0,Los Angeles,California,90001
3,Clear,2016-04-04 10:47:00,50.0,,-,72,N/A,30.04,59.0,3:47 AM,,10.0,Calm,Calm,0,Los Angeles,California,90001
4,Clear,2016-04-04 11:47:00,51.1,,-,78,N/A,30.05,57.9,4:47 AM,,10.0,Calm,Calm,0,Los Angeles,California,90001
5,Clear,2016-04-04 12:47:00,52.0,,-,81,N/A,30.06,57.9,5:47 AM,,10.0,Calm,Calm,0,Los Angeles,California,90001
6,Clear,2016-04-04 13:47:00,51.1,,-,78,N/A,30.08,57.9,6:47 AM,,10.0,Calm,Calm,0,Los Angeles,California,90001
7,Haze,2016-04-04 14:47:00,54.0,,-,80,N/A,30.10,60.1,7:47 AM,,6.0,SE,4.6,140,Los Angeles,California,90001
8,Clear,2016-04-04 15:47:00,55.0,,-,75,N/A,30.11,63.0,8:47 AM,,7.0,Calm,Calm,0,Los Angeles,California,90001
9,Clear,2016-04-04 16:47:00,53.1,,-,63,N/A,30.12,66.0,9:47 AM,,8.0,Calm,Calm,0,Los Angeles,California,90001
10,Clear,2016-04-04 17:47:00,54.0,,-,51,N/A,30.11,73.0,10:47 AM,,10.0,Calm,Calm,0,Los Angeles,California,90001
11,Clear,2016-04-04 18:47:00,51.1,,-,40,N/A,30.10,77.0,11:47 AM,,10.0,Calm,Calm,0,Los Angeles,California,90001
12,Clear,2016-04-04 19:47:00,55.0,,-,47,N/A,30.08,77.0,12:47 PM,,10.0,Variable,3.5,0,Los Angeles,California,90001
13,Clear,2016-04-04 20:47:00,55.0,,-,52,N/A,30.06,73.9,1:47 PM,,10.0,West,5.8,270,Los Angeles,California,90001
14,Clear,2016-04-04 21:47:00,52.0,,-,46,N/A,30.04,73.9,2:47 PM,,10.0,West,3.5,260,Los Angeles,California,90001
15,Clear,2016-04-04 22:47:00,45.0,,-,33,N/A,30.03,75.9,3:47 PM,,10.0,North,-9999.0,0,Los Angeles,California,90001
16,Clear,2016-04-04 23:47:00,48.9,,-,42,N/A,30.03,73.0,4:47 PM,,10.0,Variable,3.5,0,Los Angeles,California,90001
17,Clear,2016-04-05 00:47:00,46.9,,-,41,N/A,30.03,72.0,5:47 PM,,10.0,Variable,4.6,0,Los Angeles,California,90001
18,Clear,2016-04-05 01:47:00,42.1,,-,36,N/A,30.04,70.0,6:47 PM,,10.0,West,4.6,270,Los Angeles,California,90001
19,Clear,2016-04-05 02:47:00,44.1,,-,44,N/A,30.04,66.9,7:47 PM,,10.0,West,3.5,270,Los Angeles,California,90001
20,Clear,2016-04-05 03:47:00,50.0,,-,58,N/A,30.04,64.9,8:47 PM,,10.0,WNW,3.5,290,Los Angeles,California,90001
21,Clear,2016-04-05 04:47:00,54.0,,-,72,N/A,30.05,63.0,9:47 PM,,10.0,Calm,Calm,0,Los Angeles,California,90001
22,Clear,2016-04-05 05:47:00,54.0,,-,75,N/A,30.06,62.1,10:47 PM,,10.0,Calm,Calm,0,Los Angeles,California,90001
23,Clear,2016-04-05 06:47:00,54.0,,-,78,N/A,30.06,61.0,11:47 PM,,10.0,Calm,Calm,0,Los Angeles,California,90001
0,Clear,2016-04-05 07:47:00,54.0,,-,80,N/A,30.05,60.1,12:47 AM,,9.0,Calm,Calm,0,Los Angeles,California,90001
1,Clear,2016-04-05 08:47:00,54.0,,-,80,N/A,30.05,60.1,1:47 AM,,9.0,Calm,Calm,0,Los Angeles,California,90001
2,Clear,2016-04-05 09:47:00,53.1,,-,84,N/A,30.04,57.9,2:47 AM,,9.0,Calm,Calm,0,Los Angeles,California,90001
3,Clear,2016-04-05 10:47:00,51.1,,-,75,N/A,30.04,59.0,3:47 AM,,10.0,Calm,Calm,0,Los Angeles,California,90001
4,Clear,2016-04-05 11:47:00,50.0,,-,75,N/A,30.04,57.9,4:47 AM,,10.0,Calm,Calm,0,Los Angeles,California,90001
5,Clear,2016-04-05 12:47:00,48.0,,-,72,N/A,30.06,57.0,5:47 AM,,10.0,Calm,Calm,0,Los Angeles,California,90001
6,Clear,2016-04-05 13:47:00,50.0,,-,80,N/A,30.07,55.9,6:47 AM,,10.0,Calm,Calm,0,Los Angeles,California,90001
7,Clear,2016-04-05 14:47:00,50.0,,-,69,N/A,30.08,60.1,7:47 AM,,10.0,Calm,Calm,0,Los Angeles,California,90001
8,Clear,2016-04-05 15:47:00,53.1,,-,65,N/A,30.09,64.9,8:47 AM,,7.0,Variable,4.6,0,Los Angeles,California,90001
9,Clear,2016-04-05 16:47:00,52.0,,-,54,N/A,30.08,69.1,9:47 AM,,7.0,Calm,Calm,0,Los Angeles,California,90001
10,Clear,2016-04-05 17:47:00,46.9,,-,37,N/A,30.08,75.0,10:47 AM,,8.0,Calm,Calm,0,Los Angeles,California,90001
11,Clear,2016-04-05 18:47:00,44.1,,-,29,N/A,30.07,79.0,11:47 AM,,10.0,Calm,Calm,0,Los Angeles,California,90001
12,Clear,2016-04-05 19:47:00,42.1,,-,24,N/A,30.04,82.0,12:47 PM,,10.0,Calm,Calm,0,Los Angeles,California,90001
13,Clear,2016-04-05 20:47:00,50.0,,-,33,N/A,30.02,82.0,1:47 PM,,10.0,Variable,4.6,0,Los Angeles,California,90001
14,Clear,2016-04-05 21:47:00,48.9,,-,31,N/A,29.99,82.0,2:47 PM,,10.0,WNW,4.6,290,Los Angeles,California,90001
15,Clear,2016-04-05 22:47:00,44.1,,-,25,N/A,29.96,82.9,3:47 PM,,10.0,Variable,3.5,0,Los Angeles,California,90001
16,Clear,2016-04-05 23:47:00,45.0,,-,30,N/A,29.95,79.0,4:47 PM,,10.0,West,5.8,280,Los Angeles,California,90001
17,Clear,2016-04-06 00:47:00,45.0,,-,33,N/A,29.95,75.9,5:47 PM,,10.0,West,4.6,280,Los Angeles,California,90001
18,Clear,2016-04-06 01:47:00,46.0,,-,41,N/A,29.97,71.1,6:47 PM,,10.0,Variable,4.6,0,Los Angeles,California,90001
19,Clear,2016-04-06 02:47:00,52.0,,-,60,N/A,30.00,66.0,7:47 PM,,10.0,West,3.5,280,Los Angeles,California,90001
20,Clear,2016-04-06 03:47:00,55.9,,-,73,N/A,30.02,64.9,8:47 PM,,10.0,Calm,Calm,0,Los Angeles,California,90001
21,Clear,2016-04-06 04:47:00,57.0,,-,75,N/A,30.05,64.9,9:47 PM,,10.0,Calm,Calm,0,Los Angeles,California,90001
22,Clear,2016-04-06 05:47:00,57.0,,-,78,N/A,30.08,64.0,10:47 PM,,10.0,Calm,Calm,0,Los Angeles,California,90001
23,Clear,2016-04-06 06:47:00,57.0,,-,81,N/A,30.08,63.0,11:47 PM,,10.0,Calm,Calm,0,Los Angeles,California,90001
0,Clear,2016-04-06 07:47:00,57.0,,-,81,N/A,30.09,63.0,12:47 AM,,9.0,Calm,Calm,0,Los Angeles,California,90001
1,Clear,2016-04-06 08:47:00,55.0,,-,78,N/A,30.09,62.1,1:47 AM,,7.0,Calm,Calm,0,Los Angeles,California,90001
2,Clear,2016-04-06 09:47:00,55.9,,-,80,N/A,30.08,62.1,2:47 AM,,9.0,East,3.5,100,Los Angeles,California,90001
3,Clear,2016-04-06 10:47:00,57.9,,-,90,N/A,30.09,61.0,3:47 AM,,5.0,Calm,Calm,0,Los Angeles,California,90001
4,Partly Cloudy,2016-04-06 10:50:00,57.9,,-,90,N/A,30.09,61.0,3:50 AM,,6.0,Calm,Calm,0,Los Angeles,California,90001
5,Clear,2016-04-06 11:47:00,57.9,,-,90,N/A,30.07,61.0,4:47 AM,,7.0,Calm,Calm,0,Los Angeles,California,90001
6,Clear,2016-04-06 12:47:00,55.9,,-,90,N/A,30.06,59.0,5:47 AM,,5.0,Calm,Calm,0,Los Angeles,California,90001
7,Clear,2016-04-06 13:47:00,57.0,,-,90,N/A,30.05,60.1,6:47 AM,,5.0,Calm,Calm,0,Los Angeles,California,90001
8,Haze,2016-04-06 14:47:00,55.0,,-,73,N/A,30.05,64.0,7:47 AM,,6.0,Calm,Calm,0,Los Angeles,California,90001
9,Clear,2016-04-06 15:47:00,51.1,,-,55,N/A,30.04,68.0,8:47 AM,,9.0,Calm,Calm,0,Los Angeles,California,90001
10,Clear,2016-04-06 16:47:00,51.1,,-,46,N/A,30.04,73.0,9:47 AM,,9.0,Calm,Calm,0,Los Angeles,California,90001
11,Clear,2016-04-06 17:47:00,48.9,,-,35,N/A,30.02,79.0,10:47 AM,,10.0,Calm,Calm,0,Los Angeles,California,90001
12,Clear,2016-04-06 18:47:00,46.0,,-,26,N/A,30.01,84.0,11:47 AM,,10.0,Calm,Calm,0,Los Angeles,California,90001
13,Clear,2016-04-06 19:47:00,53.1,,-,30,N/A,29.99,88.0,12:47 PM,,10.0,Calm,Calm,0,Los Angeles,California,90001
14,Clear,2016-04-06 20:47:00,57.0,,-,59,N/A,30.01,72.0,1:47 PM,,10.0,West,5.8,280,Los Angeles,California,90001
15,Clear,2016-04-06 21:47:00,55.0,,-,59,N/A,30.01,70.0,2:47 PM,,10.0,WNW,4.6,300,Los Angeles,California,90001
16,Clear,2016-04-06 22:47:00,57.0,,-,65,N/A,30.01,69.1,3:47 PM,,10.0,Variable,4.6,0,Los Angeles,California,90001
17,Clear,2016-04-06 23:47:00,55.0,,-,70,N/A,30.03,64.9,4:47 PM,,10.0,Variable,5.8,0,Los Angeles,California,90001
18,Clear,2016-04-07 00:47:00,52.0,,-,63,N/A,30.03,64.9,5:47 PM,,10.0,Variable,3.5,0,Los Angeles,California,90001
19,Clear,2016-04-07 01:47:00,53.1,,-,70,N/A,30.06,63.0,6:47 PM,,10.0,Variable,3.5,0,Los Angeles,California,90001
20,Clear,2016-04-07 02:47:00,54.0,,-,78,N/A,30.09,61.0,7:47 PM,,10.0,Calm,Calm,0,Los Angeles,California,90001
21,Clear,2016-04-07 03:47:00,54.0,,-,78,N/A,30.10,61.0,8:47 PM,,10.0,Calm,Calm,0,Los Angeles,California,90001
22,Clear,2016-04-07 04:47:00,54.0,,-,75,N/A,30.10,62.1,9:47 PM,,10.0,Calm,Calm,0,Los Angeles,California,90001
23,Clear,2016-04-07 05:47:00,54.0,,-,75,N/A,30.09,62.1,10:47 PM,,10.0,Calm,Calm,0,Los Angeles,California,90001
24,Clear,2016-04-07 06:47:00,53.1,,-,72,N/A,30.08,62.1,11:47 PM,,10.0,Calm,Calm,0,Los Angeles,California,90001
0,Clear,2016-04-07 07:47:00,54.0,,-,78,N/A,30.07,61.0,12:47 AM,,10.0,Calm,Calm,0,Los Angeles,California,90001
1,Clear,2016-04-07 08:47:00,54.0,,-,80,N/A,30.06,60.1,1:47 AM,,10.0,Calm,Calm,0,Los Angeles,California,90001
2,Clear,2016-04-07 09:47:00,54.0,,-,80,N/A,30.03,60.1,2:47 AM,,10.0,Calm,Calm,0,Los Angeles,California,90001
3,Clear,2016-04-07 10:47:00,51.1,,-,70,N/A,29.99,61.0,3:47 AM,,10.0,Calm,Calm,0,Los Angeles,California,90001
4,Clear,2016-04-07 11:47:00,52.0,,-,72,N/A,29.98,61.0,4:47 AM,,10.0,Calm,Calm,0,Los Angeles,California,90001
5,Clear,2016-04-07 12:47:00,52.0,,-,75,N/A,29.98,60.1,5:47 AM,,10.0,Calm,Calm,0,Los Angeles,California,90001
6,Clear,2016-04-07 13:47:00,53.1,,-,78,N/A,29.99,60.1,6:47 AM,,10.0,Calm,Calm,0,Los Angeles,California,90001
7,Clear,2016-04-07 14:47:00,52.0,,-,70,N/A,30.00,62.1,7:47 AM,,10.0,Calm,Calm,0,Los Angeles,California,90001
8,Clear,2016-04-07 15:47:00,51.1,,-,63,N/A,30.00,64.0,8:47 AM,,10.0,Calm,Calm,0,Los Angeles,California,90001
9,Clear,2016-04-07 16:47:00,53.1,,-,65,N/A,30.01,64.9,9:47 AM,,10.0,Calm,Calm,0,Los Angeles,California,90001
10,Clear,2016-04-07 17:47:00,51.1,,-,55,N/A,30.01,68.0,10:47 AM,,10.0,Calm,Calm,0,Los Angeles,California,90001
11,Mostly Cloudy,2016-04-07 18:47:00,54.0,,-,63,N/A,29.99,66.9,11:47 AM,,10.0,Variable,3.5,0,Los Angeles,California,90001
12,Overcast,2016-04-07 19:47:00,55.0,,-,68,N/A,29.99,66.0,12:47 PM,,10.0,Calm,Calm,0,Los Angeles,California,90001
13,Light Rain,2016-04-07 20:47:00,55.9,Rain,-,75,0.00,29.98,64.0,1:47 PM,,6.0,Calm,Calm,0,Los Angeles,California,90001
14,Light Rain,2016-04-07 21:47:00,59.0,Rain,-,87,0.05,29.95,63.0,2:47 PM,,5.0,Calm,Calm,0,Los Angeles,California,90001
15,Overcast,2016-04-07 22:47:00,59.0,,-,81,0.00,29.91,64.9,3:47 PM,,7.0,Calm,Calm,0,Los Angeles,California,90001
16,Light Rain,2016-04-07 23:47:00,59.0,Rain,-,78,0.00,29.89,66.0,4:47 PM,,7.0,WNW,3.5,300,Los Angeles,California,90001
17,Overcast,2016-04-08 00:47:00,57.9,,-,78,0.00,29.89,64.9,5:47 PM,,9.0,West,3.5,270,Los Angeles,California,90001
18,Overcast,2016-04-08 01:47:00,55.9,,-,80,0.00,29.89,62.1,6:47 PM,,9.0,Variable,3.5,0,Los Angeles,California,90001
19,Overcast,2016-04-08 02:47:00,55.0,,-,83,N/A,29.90,60.1,7:47 PM,,10.0,West,3.5,260,Los Angeles,California,90001
20,Mostly Cloudy,2016-04-08 03:47:00,55.0,,-,83,N/A,29.93,60.1,8:47 PM,,10.0,Calm,Calm,0,Los Angeles,California,90001
21,Mostly Cloudy,2016-04-08 04:05:00,55.0,,-,83,N/A,29.94,60.1,9:05 PM,,10.0,Calm,Calm,0,Los Angeles,California,90001
22,Overcast,2016-04-08 04:47:00,55.0,,-,83,N/A,29.93,60.1,9:47 PM,,10.0,Calm,Calm,0,Los Angeles,California,90001
23,Overcast,2016-04-08 05:47:00,55.0,,-,83,N/A,29.93,60.1,10:47 PM,,10.0,Calm,Calm,0,Los Angeles,California,90001
24,Mostly Cloudy,2016-04-08 06:47:00,55.0,,-,83,N/A,29.92,60.1,11:47 PM,,9.0,Calm,Calm,0,Los Angeles,California,90001
0,Overcast,2016-04-08 07:47:00,55.9,,-,86,0.01,29.91,60.1,12:47 AM,,9.0,Calm,Calm,0,Los Angeles,California,90001
1,Light Rain,2016-04-08 08:47:00,55.9,Rain,-,90,0.00,29.90,59.0,1:47 AM,,7.0,Calm,Calm,0,Los Angeles,California,90001
2,Overcast,2016-04-08 09:47:00,57.0,,-,93,0.00,29.90,59.0,2:47 AM,,6.0,Calm,Calm,0,Los Angeles,California,90001
3,Overcast,2016-04-08 10:47:00,55.9,,-,90,N/A,29.89,59.0,3:47 AM,,7.0,Calm,Calm,0,Los Angeles,California,90001
4,Overcast,2016-04-08 11:47:00,55.9,,-,90,N/A,29.90,59.0,4:47 AM,,9.0,Calm,Calm,0,Los Angeles,California,90001
5,Overcast,2016-04-08 12:25:00,55.9,,-,90,N/A,29.90,59.0,5:25 AM,,8.0,Calm,Calm,0,Los Angeles,California,90001
6,Overcast,2016-04-08 12:42:00,55.9,,-,90,N/A,29.90,59.0,5:42 AM,,7.0,Calm,Calm,0,Los Angeles,California,90001
7,Overcast,2016-04-08 12:47:00,55.9,,-,90,N/A,29.90,59.0,5:47 AM,,6.0,Calm,Calm,0,Los Angeles,California,90001
8,Overcast,2016-04-08 12:57:00,57.0,,-,93,N/A,29.90,59.0,5:57 AM,,6.0,Calm,Calm,0,Los Angeles,California,90001
9,Overcast,2016-04-08 13:39:00,57.0,,-,93,N/A,29.91,59.0,6:39 AM,,7.0,Calm,Calm,0,Los Angeles,California,90001
10,Overcast,2016-04-08 13:47:00,57.0,,-,90,N/A,29.91,60.1,6:47 AM,,7.0,Calm,Calm,0,Los Angeles,California,90001
11,Overcast,2016-04-08 13:52:00,57.0,,-,93,N/A,29.91,59.0,6:52 AM,,7.0,Calm,Calm,0,Los Angeles,California,90001
12,Overcast,2016-04-08 14:47:00,55.9,,-,86,N/A,29.92,60.1,7:47 AM,,10.0,Calm,Calm,0,Los Angeles,California,90001
13,Overcast,2016-04-08 15:02:00,55.9,,-,86,N/A,29.92,60.1,8:02 AM,,10.0,Calm,Calm,0,Los Angeles,California,90001
14,Overcast,2016-04-08 15:47:00,55.9,,-,83,N/A,29.93,61.0,8:47 AM,,8.0,Calm,Calm,0,Los Angeles,California,90001
15,Overcast,2016-04-08 16:47:00,57.0,,-,90,0.00,29.94,60.1,9:47 AM,,3.0,Calm,Calm,0,Los Angeles,California,90001
16,Light Rain,2016-04-08 16:52:00,57.0,Rain,-,90,0.00,29.95,60.1,9:52 AM,,2.5,Calm,Calm,0,Los Angeles,California,90001
17,Light Rain,2016-04-08 16:57:00,57.0,Rain,-,90,0.00,29.95,60.1,9:57 AM,,2.0,Calm,Calm,0,Los Angeles,California,90001
18,Light Rain,2016-04-08 17:05:00,57.0,Rain,-,90,0.01,29.95,60.1,10:05 AM,,2.5,Calm,Calm,0,Los Angeles,California,90001
19,Overcast,2016-04-08 17:20:00,57.9,,-,93,0.01,29.96,60.1,10:20 AM,,3.0,Calm,Calm,0,Los Angeles,California,90001
20,Overcast,2016-04-08 17:27:00,57.9,,-,93,0.01,29.96,60.1,10:27 AM,,3.0,Calm,Calm,0,Los Angeles,California,90001
21,Overcast,2016-04-08 17:30:00,57.9,,-,93,0.01,29.96,60.1,10:30 AM,,2.5,Calm,Calm,0,Los Angeles,California,90001
22,Overcast,2016-04-08 17:34:00,57.9,,-,93,0.01,29.96,60.1,10:34 AM,,3.0,Calm,Calm,0,Los Angeles,California,90001
23,Overcast,2016-04-08 17:41:00,57.9,,-,93,0.01,29.96,60.1,10:41 AM,,2.5,Calm,Calm,0,Los Angeles,California,90001
24,Overcast,2016-04-08 17:47:00,57.0,,-,90,0.01,29.96,60.1,10:47 AM,,2.5,Variable,3.5,0,Los Angeles,California,90001
25,Overcast,2016-04-08 17:50:00,57.9,,-,93,N/A,29.97,60.1,10:50 AM,,3.0,Calm,Calm,0,Los Angeles,California,90001
26,Light Rain,2016-04-08 18:12:00,57.9,Rain,-,93,0.00,29.97,60.1,11:12 AM,,2.5,Variable,3.5,0,Los Angeles,California,90001
27,Light Rain,2016-04-08 18:22:00,57.9,Rain,-,93,0.00,29.97,60.1,11:22 AM,,3.0,West,4.6,270,Los Angeles,California,90001
28,Light Rain,2016-04-08 18:27:00,57.0,Rain,-,90,0.01,29.97,60.1,11:27 AM,,2.5,West,3.5,260,Los Angeles,California,90001
29,Overcast,2016-04-08 18:39:00,57.9,,-,93,0.01,29.96,60.1,11:39 AM,,3.0,Calm,Calm,0,Los Angeles,California,90001
30,Light Rain,2016-04-08 18:44:00,57.9,Rain,-,93,0.01,29.96,60.1,11:44 AM,,2.5,Calm,Calm,0,Los Angeles,California,90001
31,Light Rain,2016-04-08 18:47:00,57.9,Rain,-,90,0.01,29.96,61.0,11:47 AM,,2.5,West,3.5,280,Los Angeles,California,90001
32,Overcast,2016-04-08 19:11:00,57.0,,-,90,0.00,29.96,60.1,12:11 PM,,3.0,Calm,Calm,0,Los Angeles,California,90001
33,Light Rain,2016-04-08 19:14:00,57.9,Rain,-,93,0.00,29.96,60.1,12:14 PM,,2.5,Calm,Calm,0,Los Angeles,California,90001
34,Light Rain,2016-04-08 19:39:00,57.9,Rain,-,93,0.01,29.96,60.1,12:39 PM,,4.0,Calm,Calm,0,Los Angeles,California,90001
35,Overcast,2016-04-08 19:47:00,57.9,,-,93,0.01,29.95,60.1,12:47 PM,,5.0,Calm,Calm,0,Los Angeles,California,90001
36,Rain,2016-04-08 19:56:00,57.9,Rain,-,90,0.01,29.95,61.0,12:56 PM,,2.0,Calm,Calm,0,Los Angeles,California,90001
37,Light Rain,2016-04-08 20:09:00,57.9,Rain,-,90,0.03,29.95,61.0,1:09 PM,,3.0,Calm,Calm,0,Los Angeles,California,90001
38,Light Rain,2016-04-08 20:13:00,57.9,Rain,-,90,0.03,29.95,61.0,1:13 PM,,4.0,Calm,Calm,0,Los Angeles,California,90001
39,Light Rain,2016-04-08 20:19:00,57.9,Rain,-,90,0.03,29.95,61.0,1:19 PM,,4.0,Variable,3.5,0,Los Angeles,California,90001
40,Light Rain,2016-04-08 20:22:00,57.9,Rain,-,90,0.03,29.95,61.0,1:22 PM,,5.0,Calm,Calm,0,Los Angeles,California,90001
41,Rain,2016-04-08 20:33:00,57.9,Rain,-,93,0.04,29.94,60.1,1:33 PM,,2.5,Calm,Calm,0,Los Angeles,California,90001
42,Light Rain,2016-04-08 20:41:00,59.0,Rain,-,93,0.04,29.94,61.0,1:41 PM,,3.0,Calm,Calm,0,Los Angeles,California,90001
43,Light Rain,2016-04-08 20:47:00,57.9,Rain,-,93,0.05,29.94,60.1,1:47 PM,,3.0,West,3.5,280,Los Angeles,California,90001
44,Light Rain,2016-04-08 20:53:00,59.0,Rain,-,93,0.00,29.94,61.0,1:53 PM,,2.5,Calm,Calm,0,Los Angeles,California,90001
45,Light Rain,2016-04-08 20:56:00,59.0,Rain,-,93,0.00,29.94,61.0,1:56 PM,,2.0,Calm,Calm,0,Los Angeles,California,90001
46,Light Rain,2016-04-08 21:21:00,57.9,Rain,-,93,0.02,29.94,60.1,2:21 PM,,2.0,Calm,Calm,0,Los Angeles,California,90001
47,Overcast,2016-04-08 21:25:00,57.9,,-,93,0.02,29.94,60.1,2:25 PM,,2.5,Calm,Calm,0,Los Angeles,California,90001
48,Light Rain,2016-04-08 21:41:00,57.9,Rain,-,93,0.03,29.94,60.1,2:41 PM,,1.8,West,3.5,260,Los Angeles,California,90001
49,Light Rain,2016-04-08 21:47:00,59.0,Rain,-,96,0.04,29.94,60.1,2:47 PM,,1.2,Calm,Calm,0,Los Angeles,California,90001
50,Light Rain,2016-04-08 21:50:00,59.0,Rain,-,93,0.00,29.94,61.0,2:50 PM,,1.2,Calm,Calm,0,Los Angeles,California,90001
51,Light Rain,2016-04-08 21:53:00,59.0,Rain,-,96,0.01,29.94,60.1,2:53 PM,,1.2,West,4.6,270,Los Angeles,California,90001
52,Light Rain,2016-04-08 21:59:00,59.0,Rain,-,96,0.01,29.94,60.1,2:59 PM,,1.2,Variable,3.5,0,Los Angeles,California,90001
53,Light Rain,2016-04-08 22:08:00,57.9,Rain,-,93,0.02,29.93,60.1,3:08 PM,,2.5,Variable,3.5,0,Los Angeles,California,90001
54,Overcast,2016-04-08 22:11:00,59.0,,-,96,0.02,29.93,60.1,3:11 PM,,3.0,Variable,3.5,0,Los Angeles,California,90001
55,Overcast,2016-04-08 22:47:00,59.0,,-,93,0.02,29.94,61.0,3:47 PM,,4.0,Calm,Calm,0,Los Angeles,California,90001
56,Overcast,2016-04-08 23:47:00,57.9,,-,93,0.00,29.92,60.1,4:47 PM,,4.0,Calm,Calm,0,Los Angeles,California,90001
57,Overcast,2016-04-09 00:18:00,57.9,,-,90,N/A,29.92,61.0,5:18 PM,,8.0,Calm,Calm,0,Los Angeles,California,90001
58,Overcast,2016-04-09 00:23:00,57.9,,-,90,N/A,29.92,61.0,5:23 PM,,10.0,Calm,Calm,0,Los Angeles,California,90001
59,Overcast,2016-04-09 00:47:00,57.9,,-,90,N/A,29.92,61.0,5:47 PM,,10.0,Calm,Calm,0,Los Angeles,California,90001
60,Overcast,2016-04-09 01:03:00,57.9,,-,90,N/A,29.92,61.0,6:03 PM,,10.0,Variable,3.5,0,Los Angeles,California,90001
61,Overcast,2016-04-09 01:36:00,57.0,,-,87,N/A,29.93,61.0,6:36 PM,,6.0,Calm,Calm,0,Los Angeles,California,90001
62,Light Rain,2016-04-09 01:47:00,57.9,Rain,-,93,0.00,29.92,60.1,6:47 PM,,4.0,Calm,Calm,0,Los Angeles,California,90001
63,Overcast,2016-04-09 01:56:00,57.0,,-,90,0.00,29.92,60.1,6:56 PM,,2.5,Calm,Calm,0,Los Angeles,California,90001
64,Overcast,2016-04-09 02:04:00,57.0,,-,90,0.00,29.92,60.1,7:04 PM,,4.0,Calm,Calm,0,Los Angeles,California,90001
65,Overcast,2016-04-09 02:32:00,57.0,,-,90,0.00,29.93,60.1,7:32 PM,,7.0,Calm,Calm,0,Los Angeles,California,90001
66,Overcast,2016-04-09 02:47:00,55.9,,-,86,0.00,29.93,60.1,7:47 PM,,10.0,Calm,Calm,0,Los Angeles,California,90001
67,Overcast,2016-04-09 03:31:00,55.9,,-,86,N/A,29.95,60.1,8:31 PM,,10.0,Calm,Calm,0,Los Angeles,California,90001
68,Overcast,2016-04-09 03:47:00,55.0,,-,87,N/A,29.95,59.0,8:47 PM,,10.0,Calm,Calm,0,Los Angeles,California,90001
69,Overcast,2016-04-09 03:57:00,55.0,,-,87,N/A,29.95,59.0,8:57 PM,,10.0,Calm,Calm,0,Los Angeles,California,90001
70,Overcast,2016-04-09 04:47:00,55.0,,-,87,N/A,29.96,59.0,9:47 PM,,10.0,Calm,Calm,0,Los Angeles,California,90001
71,Overcast,2016-04-09 05:09:00,55.0,,-,87,N/A,29.96,59.0,10:09 PM,,10.0,Calm,Calm,0,Los Angeles,California,90001
72,Overcast,2016-04-09 05:15:00,55.9,,-,90,N/A,29.97,59.0,10:15 PM,,10.0,Calm,Calm,0,Los Angeles,California,90001
73,Overcast,2016-04-09 05:28:00,55.0,,-,87,N/A,29.97,59.0,10:28 PM,,10.0,Calm,Calm,0,Los Angeles,California,90001
74,Overcast,2016-04-09 05:34:00,55.0,,-,87,N/A,29.97,59.0,10:34 PM,,10.0,Calm,Calm,0,Los Angeles,California,90001
75,Overcast,2016-04-09 05:44:00,55.9,,-,90,N/A,29.97,59.0,10:44 PM,,10.0,Calm,Calm,0,Los Angeles,California,90001
76,Overcast,2016-04-09 05:47:00,55.9,,-,90,N/A,29.97,59.0,10:47 PM,,10.0,Calm,Calm,0,Los Angeles,California,90001
77,Overcast,2016-04-09 05:51:00,55.0,,-,87,N/A,29.97,59.0,10:51 PM,,10.0,Calm,Calm,0,Los Angeles,California,90001
78,Overcast,2016-04-09 06:47:00,55.9,,-,90,N/A,29.97,59.0,11:47 PM,,10.0,Calm,Calm,0,Los Angeles,California,90001
0,Overcast,2016-04-09 07:47:00,55.9,,-,86,N/A,29.97,60.1,12:47 AM,,10.0,Calm,Calm,0,Los Angeles,California,90001
1,Mostly Cloudy,2016-04-09 08:47:00,55.9,,-,86,N/A,29.96,60.1,1:47 AM,,10.0,Calm,Calm,0,Los Angeles,California,90001
2,Overcast,2016-04-09 08:52:00,55.9,,-,86,N/A,29.96,60.1,1:52 AM,,10.0,Calm,Calm,0,Los Angeles,California,90001
3,Overcast,2016-04-09 09:47:00,55.9,,-,86,N/A,29.96,60.1,2:47 AM,,8.0,Calm,Calm,0,Los Angeles,California,90001
4,Overcast,2016-04-09 10:47:00,55.9,,-,86,N/A,29.95,60.1,3:47 AM,,8.0,Calm,Calm,0,Los Angeles,California,90001
5,Overcast,2016-04-09 11:04:00,55.9,,-,86,N/A,29.95,60.1,4:04 AM,,8.0,East,4.6,100,Los Angeles,California,90001
6,Light Rain,2016-04-09 11:12:00,55.9,Rain,-,86,0.00,29.94,60.1,4:12 AM,,8.0,East,3.5,100,Los Angeles,California,90001
7,Light Rain,2016-04-09 11:20:00,55.9,Rain,-,86,0.01,29.94,60.1,4:20 AM,,6.0,Calm,Calm,0,Los Angeles,California,90001
8,Light Rain,2016-04-09 11:27:00,55.9,Rain,-,86,0.01,29.94,60.1,4:27 AM,,7.0,East,3.5,100,Los Angeles,California,90001
9,Light Rain,2016-04-09 11:43:00,55.9,Rain,-,86,0.01,29.94,60.1,4:43 AM,,9.0,East,3.5,90,Los Angeles,California,90001
10,Light Rain,2016-04-09 11:47:00,55.9,Rain,-,86,0.01,29.94,60.1,4:47 AM,,10.0,ESE,3.5,110,Los Angeles,California,90001
11,Overcast,2016-04-09 12:47:00,55.9,,-,86,0.00,29.93,60.1,5:47 AM,,9.0,East,3.5,80,Los Angeles,California,90001
12,Scattered Clouds,2016-04-09 13:47:00,55.9,,-,86,N/A,29.94,60.1,6:47 AM,,8.0,East,3.5,100,Los Angeles,California,90001
13,Overcast,2016-04-09 14:47:00,55.9,,-,83,N/A,29.95,61.0,7:47 AM,,10.0,East,3.5,90,Los Angeles,California,90001
14,Overcast,2016-04-09 15:21:00,55.0,,-,81,N/A,29.95,61.0,8:21 AM,,10.0,Variable,5.8,0,Los Angeles,California,90001
15,Overcast,2016-04-09 15:47:00,55.0,,-,81,N/A,29.96,61.0,8:47 AM,,10.0,SSE,4.6,150,Los Angeles,California,90001
16,Light Rain,2016-04-09 16:05:00,55.0,Rain,-,78,0.00,29.95,62.1,9:05 AM,,9.0,Variable,4.6,0,Los Angeles,California,90001
17,Overcast,2016-04-09 16:47:00,55.0,,-,78,0.00,29.95,62.1,9:47 AM,,10.0,SSE,5.8,150,Los Angeles,California,90001
18,Light Rain,2016-04-09 17:47:00,55.0,Rain,-,78,0.00,29.96,62.1,10:47 AM,,6.0,East,4.6,100,Los Angeles,California,90001
19,Overcast,2016-04-09 18:47:00,53.1,,-,67,0.00,29.95,64.0,11:47 AM,,10.0,Variable,3.5,0,Los Angeles,California,90001
20,Rain,2016-04-09 19:18:00,55.0,Rain,-,81,0.02,29.94,61.0,12:18 PM,,2.5,East,4.6,90,Los Angeles,California,90001
21,Light Rain,2016-04-09 19:21:00,55.0,Rain,-,81,0.02,29.93,61.0,12:21 PM,,3.0,Variable,3.5,0,Los Angeles,California,90001
22,Overcast,2016-04-09 19:26:00,55.0,,-,81,0.02,29.93,61.0,12:26 PM,,9.0,Variable,4.6,0,Los Angeles,California,90001
23,Overcast,2016-04-09 19:47:00,55.0,,-,75,0.02,29.93,63.0,12:47 PM,,10.0,Variable,4.6,0,Los Angeles,California,90001
24,Overcast,2016-04-09 19:57:00,54.0,,-,70,N/A,29.94,64.0,12:57 PM,,10.0,Variable,5.8,0,Los Angeles,California,90001
25,Light Rain,2016-04-09 20:47:00,55.0,Rain,-,75,0.00,29.92,63.0,1:47 PM,,10.0,Calm,Calm,0,Los Angeles,California,90001
26,Light Rain,2016-04-09 21:47:00,54.0,Rain,-,72,0.00,29.90,63.0,2:47 PM,,10.0,Variable,4.6,0,Los Angeles,California,90001
27,Overcast,2016-04-09 22:47:00,53.1,,-,67,0.00,29.89,64.0,3:47 PM,,10.0,Calm,Calm,0,Los Angeles,California,90001
28,Overcast,2016-04-09 23:47:00,53.1,,-,67,0.01,29.87,64.0,4:47 PM,,10.0,ESE,5.8,110,Los Angeles,California,90001
29,Overcast,2016-04-10 00:47:00,54.0,,-,75,0.00,29.86,62.1,5:47 PM,,10.0,Variable,3.5,0,Los Angeles,California,90001
30,Scattered Clouds,2016-04-10 01:47:00,53.1,,-,72,N/A,29.86,62.1,6:47 PM,,10.0,East,3.5,90,Los Angeles,California,90001
31,Mostly Cloudy,2016-04-10 02:47:00,52.0,,-,70,N/A,29.85,62.1,7:47 PM,,10.0,East,4.6,100,Los Angeles,California,90001
32,Mostly Cloudy,2016-04-10 03:47:00,52.0,,-,72,N/A,29.86,61.0,8:47 PM,,10.0,East,3.5,100,Los Angeles,California,90001
33,Overcast,2016-04-10 04:47:00,52.0,,-,72,N/A,29.87,61.0,9:47 PM,,10.0,Calm,Calm,0,Los Angeles,California,90001
34,Mostly Cloudy,2016-04-10 05:47:00,53.1,,-,78,N/A,29.86,60.1,10:47 PM,,10.0,Calm,Calm,0,Los Angeles,California,90001
35,Overcast,2016-04-10 06:47:00,53.1,,-,75,N/A,29.86,61.0,11:47 PM,,10.0,Calm,Calm,0,Los Angeles,California,90001
0,Overcast,2016-04-10 07:47:00,52.0,,-,72,N/A,29.85,61.0,12:47 AM,,10.0,Calm,Calm,0,Los Angeles,California,90001
1,Overcast,2016-04-10 08:47:00,51.1,,-,70,N/A,29.84,61.0,1:47 AM,,10.0,Calm,Calm,0,Los Angeles,California,90001
2,Overcast,2016-04-10 09:47:00,52.0,,-,75,N/A,29.83,60.1,2:47 AM,,10.0,Calm,Calm,0,Los Angeles,California,90001
3,Overcast,2016-04-10 10:47:00,51.1,,-,72,N/A,29.82,60.1,3:47 AM,,10.0,Calm,Calm,0,Los Angeles,California,90001
4,Overcast,2016-04-10 11:47:00,52.0,,-,75,N/A,29.83,60.1,4:47 AM,,10.0,Calm,Calm,0,Los Angeles,California,90001
5,Overcast,2016-04-10 12:47:00,52.0,,-,78,N/A,29.82,59.0,5:47 AM,,10.0,Calm,Calm,0,Los Angeles,California,90001
6,Overcast,2016-04-10 13:47:00,52.0,,-,78,N/A,29.84,59.0,6:47 AM,,10.0,Calm,Calm,0,Los Angeles,California,90001
7,Clear,2016-04-10 14:47:00,53.1,,-,78,N/A,29.86,60.1,7:47 AM,,10.0,Calm,Calm,0,Los Angeles,California,90001
8,Scattered Clouds,2016-04-10 15:47:00,52.0,,-,70,N/A,29.88,62.1,8:47 AM,,10.0,Calm,Calm,0,Los Angeles,California,90001
9,Mostly Cloudy,2016-04-10 16:47:00,53.1,,-,67,N/A,29.89,64.0,9:47 AM,,10.0,Variable,3.5,0,Los Angeles,California,90001
10,Mostly Cloudy,2016-04-10 16:58:00,53.1,,-,67,N/A,29.89,64.0,9:58 AM,,10.0,Calm,Calm,0,Los Angeles,California,90001
11,Partly Cloudy,2016-04-10 17:47:00,53.1,,-,61,N/A,29.89,66.9,10:47 AM,,10.0,Calm,Calm,0,Los Angeles,California,90001
12,Mostly Cloudy,2016-04-10 18:47:00,53.1,,-,59,N/A,29.89,68.0,11:47 AM,,10.0,North,-9999.0,0,Los Angeles,California,90001
13,Overcast,2016-04-10 19:47:00,52.0,,-,54,N/A,29.88,69.1,12:47 PM,,10.0,West,5.8,270,Los Angeles,California,90001
14,Mostly Cloudy,2016-04-10 20:47:00,51.1,,-,53,N/A,29.88,69.1,1:47 PM,,10.0,Variable,3.5,0,Los Angeles,California,90001
15,Mostly Cloudy,2016-04-10 21:47:00,53.1,,-,59,N/A,29.88,68.0,2:47 PM,,10.0,West,9.2,270,Los Angeles,California,90001
16,Overcast,2016-04-10 22:47:00,54.0,,-,63,N/A,29.89,66.9,3:47 PM,,10.0,Variable,6.9,0,Los Angeles,California,90001
17,Scattered Clouds,2016-04-10 23:47:00,52.0,,-,60,N/A,29.90,66.0,4:47 PM,,10.0,Calm,Calm,0,Los Angeles,California,90001
18,Mostly Cloudy,2016-04-11 00:47:00,52.0,,-,65,N/A,29.91,64.0,5:47 PM,,10.0,Variable,4.6,0,Los Angeles,California,90001
19,Mostly Cloudy,2016-04-11 01:47:00,52.0,,-,67,N/A,29.92,63.0,6:47 PM,,10.0,Calm,Calm,0,Los Angeles,California,90001
20,Mostly Cloudy,2016-04-11 02:47:00,51.1,,-,67,N/A,29.94,62.1,7:47 PM,,10.0,Calm,Calm,0,Los Angeles,California,90001
21,Clear,2016-04-11 03:47:00,54.0,,-,78,N/A,29.98,61.0,8:47 PM,,10.0,West,3.5,270,Los Angeles,California,90001
22,Overcast,2016-04-11 04:47:00,54.0,,-,80,N/A,29.99,60.1,9:47 PM,,10.0,Calm,Calm,0,Los Angeles,California,90001
23,Mostly Cloudy,2016-04-11 05:47:00,54.0,,-,78,N/A,29.99,61.0,10:47 PM,,10.0,Calm,Calm,0,Los Angeles,California,90001
24,Scattered Clouds,2016-04-11 06:47:00,55.0,,-,83,N/A,30.00,60.1,11:47 PM,,10.0,Calm,Calm,0,Los Angeles,California,90001
0,Overcast,2016-04-11 07:47:00,54.0,,-,80,N/A,30.01,60.1,12:47 AM,,10.0,Calm,Calm,0,Los Angeles,California,90001
1,Overcast,2016-04-11 08:47:00,54.0,,-,80,N/A,30.01,60.1,1:47 AM,,10.0,Calm,Calm,0,Los Angeles,California,90001
2,Overcast,2016-04-11 09:11:00,55.0,,-,83,N/A,30.01,60.1,2:11 AM,,10.0,Calm,Calm,0,Los Angeles,California,90001
3,Overcast,2016-04-11 09:47:00,55.0,,-,83,N/A,30.01,60.1,2:47 AM,,10.0,Calm,Calm,0,Los Angeles,California,90001
4,Mostly Cloudy,2016-04-11 10:32:00,54.0,,-,80,N/A,30.01,60.1,3:32 AM,,10.0,Variable,3.5,0,Los Angeles,California,90001
5,Partly Cloudy,2016-04-11 10:47:00,54.0,,-,80,N/A,30.01,60.1,3:47 AM,,10.0,Variable,3.5,0,Los Angeles,California,90001
6,Mostly Cloudy,2016-04-11 11:34:00,54.0,,-,80,N/A,30.02,60.1,4:34 AM,,10.0,East,3.5,100,Los Angeles,California,90001
7,Overcast,2016-04-11 11:47:00,54.0,,-,80,N/A,30.02,60.1,4:47 AM,,10.0,Calm,Calm,0,Los Angeles,California,90001
8,Overcast,2016-04-11 12:47:00,54.0,,-,80,N/A,30.03,60.1,5:47 AM,,10.0,Calm,Calm,0,Los Angeles,California,90001
9,Overcast,2016-04-11 12:53:00,54.0,,-,80,N/A,30.03,60.1,5:53 AM,,10.0,Calm,Calm,0,Los Angeles,California,90001
10,Overcast,2016-04-11 13:47:00,54.0,,-,80,N/A,30.04,60.1,6:47 AM,,10.0,Calm,Calm,0,Los Angeles,California,90001
11,Mostly Cloudy,2016-04-11 14:38:00,55.0,,-,78,N/A,30.05,62.1,7:38 AM,,10.0,Calm,Calm,0,Los Angeles,California,90001
12,Mostly Cloudy,2016-04-11 14:41:00,55.0,,-,78,N/A,30.05,62.1,7:41 AM,,10.0,Calm,Calm,0,Los Angeles,California,90001
13,Scattered Clouds,2016-04-11 14:44:00,54.0,,-,75,N/A,30.05,62.1,7:44 AM,,10.0,Calm,Calm,0,Los Angeles,California,90001
14,Scattered Clouds,2016-04-11 14:47:00,54.0,,-,78,N/A,30.05,61.0,7:47 AM,,10.0,Calm,Calm,0,Los Angeles,California,90001
15,Mostly Cloudy,2016-04-11 14:50:00,54.0,,-,78,N/A,30.06,61.0,7:50 AM,,10.0,Calm,Calm,0,Los Angeles,California,90001
16,Scattered Clouds,2016-04-11 14:58:00,54.0,,-,78,N/A,30.06,61.0,7:58 AM,,10.0,Calm,Calm,0,Los Angeles,California,90001
17,Scattered Clouds,2016-04-11 15:47:00,54.0,,-,72,N/A,30.06,63.0,8:47 AM,,10.0,Calm,Calm,0,Los Angeles,California,90001
18,Scattered Clouds,2016-04-11 16:47:00,52.0,,-,63,N/A,30.07,64.9,9:47 AM,,10.0,Calm,Calm,0,Los Angeles,California,90001
19,Mostly Cloudy,2016-04-11 16:58:00,53.1,,-,61,N/A,30.08,66.9,9:58 AM,,10.0,Calm,Calm,0,Los Angeles,California,90001
20,Scattered Clouds,2016-04-11 17:10:00,51.1,,-,57,N/A,30.08,66.9,10:10 AM,,10.0,Variable,3.5,0,Los Angeles,California,90001
21,Scattered Clouds,2016-04-11 17:47:00,52.0,,-,59,N/A,30.08,66.9,10:47 AM,,10.0,Calm,Calm,0,Los Angeles,California,90001
22,Mostly Cloudy,2016-04-11 18:47:00,52.0,,-,51,N/A,30.08,71.1,11:47 AM,,10.0,Variable,3.5,0,Los Angeles,California,90001
23,Overcast,2016-04-11 19:47:00,52.0,,-,51,N/A,30.07,71.1,12:47 PM,,10.0,Variable,3.5,0,Los Angeles,California,90001
24,Mostly Cloudy,2016-04-11 20:47:00,54.0,,-,55,N/A,30.05,71.1,1:47 PM,,10.0,West,6.9,270,Los Angeles,California,90001
25,Clear,2016-04-11 21:47:00,54.0,,-,55,N/A,30.05,71.1,2:47 PM,,10.0,Variable,5.8,0,Los Angeles,California,90001
26,Clear,2016-04-11 22:47:00,54.0,,-,57,N/A,30.04,70.0,3:47 PM,,10.0,Variable,3.5,0,Los Angeles,California,90001
27,Clear,2016-04-11 23:47:00,51.1,,-,51,N/A,30.04,70.0,4:47 PM,,10.0,West,5.8,280,Los Angeles,California,90001
28,Clear,2016-04-12 00:47:00,51.1,,-,55,N/A,30.04,68.0,5:47 PM,,10.0,West,6.9,270,Los Angeles,California,90001
29,Clear,2016-04-12 01:47:00,52.0,,-,63,N/A,30.05,64.9,6:47 PM,,10.0,Variable,4.6,0,Los Angeles,California,90001
30,Clear,2016-04-12 02:47:00,52.0,,-,67,N/A,30.06,63.0,7:47 PM,,10.0,West,6.9,270,Los Angeles,California,90001
31,Clear,2016-04-12 03:47:00,54.0,,-,75,N/A,30.08,62.1,8:47 PM,,10.0,Calm,Calm,0,Los Angeles,California,90001
32,Clear,2016-04-12 04:47:00,55.0,,-,81,N/A,30.09,61.0,9:47 PM,,10.0,Calm,Calm,0,Los Angeles,California,90001
33,Clear,2016-04-12 05:47:00,55.0,,-,81,N/A,30.10,61.0,10:47 PM,,10.0,Calm,Calm,0,Los Angeles,California,90001
34,Clear,2016-04-12 06:47:00,55.0,,-,81,N/A,30.10,61.0,11:47 PM,,10.0,Calm,Calm,0,Los Angeles,California,90001
0,Clear,2016-04-12 07:47:00,55.0,,-,83,N/A,30.11,60.1,12:47 AM,,10.0,Calm,Calm,0,Los Angeles,California,90001
1,Clear,2016-04-12 08:47:00,55.0,,-,87,N/A,30.10,59.0,1:47 AM,,10.0,Calm,Calm,0,Los Angeles,California,90001
2,Clear,2016-04-12 09:47:00,55.0,,-,90,N/A,30.10,57.9,2:47 AM,,10.0,Calm,Calm,0,Los Angeles,California,90001
3,Clear,2016-04-12 10:47:00,54.0,,-,83,N/A,30.09,59.0,3:47 AM,,10.0,Calm,Calm,0,Los Angeles,California,90001
4,Clear,2016-04-12 11:47:00,53.1,,-,81,N/A,30.09,59.0,4:47 AM,,10.0,Calm,Calm,0,Los Angeles,California,90001
5,Clear,2016-04-12 12:47:00,53.1,,-,87,N/A,30.09,57.0,5:47 AM,,10.0,Calm,Calm,0,Los Angeles,California,90001
6,Clear,2016-04-12 13:47:00,53.1,,-,90,N/A,30.12,55.9,6:47 AM,,10.0,Calm,Calm,0,Los Angeles,California,90001
7,Clear,2016-04-12 14:47:00,53.1,,-,75,N/A,30.14,61.0,7:47 AM,,10.0,Calm,Calm,0,Los Angeles,California,90001
8,Haze,2016-04-12 15:47:00,54.0,,-,70,N/A,30.14,64.0,8:47 AM,,6.0,Calm,Calm,0,Los Angeles,California,90001
9,Clear,2016-04-12 16:47:00,54.0,,-,63,N/A,30.14,66.9,9:47 AM,,9.0,Calm,Calm,0,Los Angeles,California,90001
10,Clear,2016-04-12 17:47:00,54.0,,-,57,N/A,30.14,70.0,10:47 AM,,10.0,Variable,3.5,0,Los Angeles,California,90001
11,Partly Cloudy,2016-04-12 18:47:00,54.0,,-,50,N/A,30.14,73.9,11:47 AM,,10.0,Calm,Calm,0,Los Angeles,California,90001
12,Clear,2016-04-12 19:47:00,55.0,,-,55,N/A,30.13,72.0,12:47 PM,,10.0,Variable,4.6,0,Los Angeles,California,90001
13,Clear,2016-04-12 20:47:00,52.0,,-,53,N/A,30.14,70.0,1:47 PM,,10.0,Variable,6.9,0,Los Angeles,California,90001
14,Clear,2016-04-12 21:47:00,53.1,,-,57,N/A,30.13,69.1,2:47 PM,,10.0,Variable,3.5,0,Los Angeles,California,90001
15,Clear,2016-04-12 22:47:00,52.0,,-,53,N/A,30.11,70.0,3:47 PM,,10.0,Variable,4.6,0,Los Angeles,California,90001
16,Clear,2016-04-12 23:47:00,51.1,,-,53,N/A,30.11,69.1,4:47 PM,,10.0,Variable,4.6,0,Los Angeles,California,90001
17,Clear,2016-04-13 00:47:00,51.1,,-,57,N/A,30.11,66.9,5:47 PM,,10.0,West,8.1,280,Los Angeles,California,90001
18,Clear,2016-04-13 01:47:00,52.0,,-,65,N/A,30.11,64.0,6:47 PM,,10.0,Variable,3.5,0,Los Angeles,California,90001
19,Clear,2016-04-13 02:47:00,52.0,,-,72,N/A,30.12,61.0,7:47 PM,,10.0,West,4.6,260,Los Angeles,California,90001
20,Clear,2016-04-13 03:47:00,54.0,,-,80,N/A,30.13,60.1,8:47 PM,,10.0,Calm,Calm,0,Los Angeles,California,90001
21,Clear,2016-04-13 04:47:00,54.0,,-,80,N/A,30.15,60.1,9:47 PM,,10.0,Calm,Calm,0,Los Angeles,California,90001
22,Clear,2016-04-13 05:47:00,54.0,,-,83,N/A,30.14,59.0,10:47 PM,,10.0,Calm,Calm,0,Los Angeles,California,90001
23,Clear,2016-04-13 06:47:00,54.0,,-,80,N/A,30.13,60.1,11:47 PM,,10.0,Calm,Calm,0,Los Angeles,California,90001
0,Clear,2016-04-13 07:47:00,55.0,,-,87,N/A,30.14,59.0,12:47 AM,,10.0,Calm,Calm,0,Los Angeles,California,90001
1,Clear,2016-04-13 08:47:00,55.0,,-,87,N/A,30.14,59.0,1:47 AM,,10.0,Calm,Calm,0,Los Angeles,California,90001
2,Clear,2016-04-13 09:47:00,54.0,,-,89,N/A,30.14,57.0,2:47 AM,,9.0,Calm,Calm,0,Los Angeles,California,90001
3,Mostly Cloudy,2016-04-13 10:05:00,55.0,,-,90,N/A,30.15,57.9,3:05 AM,,5.0,Calm,Calm,0,Los Angeles,California,90001
4,Scattered Clouds,2016-04-13 10:15:00,55.0,,-,90,N/A,30.15,57.9,3:15 AM,,9.0,Calm,Calm,0,Los Angeles,California,90001
5,Clear,2016-04-13 10:47:00,54.0,,-,89,N/A,30.14,57.0,3:47 AM,,9.0,Calm,Calm,0,Los Angeles,California,90001
6,Mostly Cloudy,2016-04-13 11:01:00,54.0,,-,87,N/A,30.15,57.9,4:01 AM,,8.0,Calm,Calm,0,Los Angeles,California,90001
7,Overcast,2016-04-13 11:47:00,55.0,,-,87,N/A,30.12,59.0,4:47 AM,,8.0,Calm,Calm,0,Los Angeles,California,90001
8,Overcast,2016-04-13 12:31:00,54.0,,-,83,N/A,30.12,59.0,5:31 AM,,8.0,Calm,Calm,0,Los Angeles,California,90001
9,Overcast,2016-04-13 12:47:00,53.1,,-,78,N/A,30.12,60.1,5:47 AM,,9.0,East,3.5,100,Los Angeles,California,90001
10,Overcast,2016-04-13 13:47:00,52.0,,-,78,N/A,30.12,59.0,6:47 AM,,10.0,Calm,Calm,0,Los Angeles,California,90001
11,Overcast,2016-04-13 14:47:00,52.0,,-,75,N/A,30.13,60.1,7:47 AM,,10.0,East,3.5,90,Los Angeles,California,90001
12,Overcast,2016-04-13 15:47:00,52.0,,-,70,N/A,30.13,62.1,8:47 AM,,10.0,Calm,Calm,0,Los Angeles,California,90001
13,Mostly Cloudy,2016-04-13 16:47:00,52.0,,-,65,N/A,30.12,64.0,9:47 AM,,10.0,Calm,Calm,0,Los Angeles,California,90001
14,Scattered Clouds,2016-04-13 17:35:00,53.1,,-,61,N/A,30.12,66.9,10:35 AM,,10.0,Calm,Calm,0,Los Angeles,California,90001
15,Partly Cloudy,2016-04-13 17:47:00,53.1,,-,61,N/A,30.13,66.9,10:47 AM,,10.0,Calm,Calm,0,Los Angeles,California,90001
16,Clear,2016-04-13 18:47:00,52.0,,-,53,N/A,30.10,70.0,11:47 AM,,10.0,Calm,Calm,0,Los Angeles,California,90001
17,Clear,2016-04-13 19:47:00,53.1,,-,55,N/A,30.08,70.0,12:47 PM,,10.0,Variable,3.5,0,Los Angeles,California,90001
18,Clear,2016-04-13 20:47:00,53.1,,-,55,N/A,30.07,70.0,1:47 PM,,10.0,West,9.2,280,Los Angeles,California,90001
19,Clear,2016-04-13 21:47:00,53.1,,-,61,N/A,30.05,66.9,2:47 PM,,10.0,Calm,Calm,0,Los Angeles,California,90001
20,Clear,2016-04-13 22:47:00,53.1,,-,59,N/A,30.02,68.0,3:47 PM,,10.0,West,8.1,280,Los Angeles,California,90001
21,Clear,2016-04-13 23:47:00,54.0,,-,63,N/A,30.01,66.9,4:47 PM,,10.0,Variable,4.6,0,Los Angeles,California,90001
22,Clear,2016-04-14 00:47:00,54.0,,-,68,N/A,30.01,64.9,5:47 PM,,10.0,West,8.1,280,Los Angeles,California,90001
23,Partly Cloudy,2016-04-14 01:47:00,54.0,,-,75,N/A,30.00,62.1,6:47 PM,,10.0,West,4.6,260,Los Angeles,California,90001
24,Scattered Clouds,2016-04-14 02:47:00,54.0,,-,80,N/A,30.01,60.1,7:47 PM,,10.0,Variable,3.5,0,Los Angeles,California,90001
25,Mostly Cloudy,2016-04-14 02:52:00,54.0,,-,78,N/A,30.01,61.0,7:52 PM,,10.0,Variable,3.5,0,Los Angeles,California,90001
26,Overcast,2016-04-14 03:47:00,54.0,,-,78,N/A,30.01,61.0,8:47 PM,,10.0,Calm,Calm,0,Los Angeles,California,90001
27,Scattered Clouds,2016-04-14 04:47:00,54.0,,-,80,N/A,30.02,60.1,9:47 PM,,10.0,WNW,3.5,290,Los Angeles,California,90001
28,Clear,2016-04-14 05:47:00,54.0,,-,83,N/A,30.01,59.0,10:47 PM,,10.0,Calm,Calm,0,Los Angeles,California,90001
29,Clear,2016-04-14 06:47:00,53.1,,-,81,N/A,30.00,59.0,11:47 PM,,10.0,Calm,Calm,0,Los Angeles,California,90001
0,Clear,2016-04-14 07:47:00,53.1,,-,81,N/A,29.99,59.0,12:47 AM,,10.0,Calm,Calm,0,Los Angeles,California,90001
1,Clear,2016-04-14 08:47:00,53.1,,-,84,N/A,30.00,57.9,1:47 AM,,10.0,Calm,Calm,0,Los Angeles,California,90001
2,Clear,2016-04-14 09:47:00,53.1,,-,84,N/A,29.99,57.9,2:47 AM,,10.0,Calm,Calm,0,Los Angeles,California,90001
3,Mostly Cloudy,2016-04-14 10:43:00,52.0,,-,83,N/A,29.99,57.0,3:43 AM,,10.0,Calm,Calm,0,Los Angeles,California,90001
4,Mostly Cloudy,2016-04-14 10:47:00,52.0,,-,83,N/A,29.98,57.0,3:47 AM,,10.0,Calm,Calm,0,Los Angeles,California,90001
5,Overcast,2016-04-14 11:47:00,53.1,,-,84,N/A,29.98,57.9,4:47 AM,,10.0,Calm,Calm,0,Los Angeles,California,90001
6,Scattered Clouds,2016-04-14 12:47:00,52.0,,-,83,N/A,29.99,57.0,5:47 AM,,9.0,Calm,Calm,0,Los Angeles,California,90001
7,Clear,2016-04-14 13:47:00,53.1,,-,87,N/A,29.99,57.0,6:47 AM,,9.0,Calm,Calm,0,Los Angeles,California,90001
8,Haze,2016-04-14 14:47:00,53.1,,-,78,N/A,30.00,60.1,7:47 AM,,6.0,Calm,Calm,0,Los Angeles,California,90001
9,Haze,2016-04-14 14:59:00,54.0,,-,78,N/A,30.00,61.0,7:59 AM,,6.0,Calm,Calm,0,Los Angeles,California,90001
10,Haze,2016-04-14 15:06:00,53.1,,-,75,N/A,30.01,61.0,8:06 AM,,6.0,ESE,3.5,120,Los Angeles,California,90001
11,Haze,2016-04-14 15:10:00,53.1,,-,75,N/A,30.01,61.0,8:10 AM,,6.0,Calm,Calm,0,Los Angeles,California,90001
12,Haze,2016-04-14 15:47:00,53.1,,-,75,N/A,30.01,61.0,8:47 AM,,6.0,Calm,Calm,0,Los Angeles,California,90001
13,Haze,2016-04-14 16:37:00,53.1,,-,67,N/A,30.00,64.0,9:37 AM,,6.0,Calm,Calm,0,Los Angeles,California,90001
14,Partly Cloudy,2016-04-14 16:47:00,54.0,,-,65,N/A,30.00,66.0,9:47 AM,,7.0,Calm,Calm,0,Los Angeles,California,90001
15,Clear,2016-04-14 17:47:00,52.0,,-,56,N/A,29.98,68.0,10:47 AM,,9.0,Calm,Calm,0,Los Angeles,California,90001
16,Partly Cloudy,2016-04-14 18:47:00,55.0,,-,57,N/A,29.98,71.1,11:47 AM,,10.0,Variable,4.6,0,Los Angeles,California,90001
17,Clear,2016-04-14 19:47:00,54.0,,-,58,N/A,29.94,69.1,12:47 PM,,10.0,Calm,Calm,0,Los Angeles,California,90001
18,Clear,2016-04-14 20:47:00,53.1,,-,53,N/A,29.92,71.1,1:47 PM,,10.0,Variable,3.5,0,Los Angeles,California,90001
19,Clear,2016-04-14 21:47:00,48.9,,-,50,N/A,29.91,68.0,2:47 PM,,10.0,Variable,3.5,0,Los Angeles,California,90001
20,Clear,2016-04-14 22:47:00,52.0,,17.3,56,N/A,29.89,68.0,3:47 PM,,10.0,Variable,6.9,0,Los Angeles,California,90001
21,Clear,2016-04-14 23:47:00,54.0,,-,65,N/A,29.87,66.0,4:47 PM,,10.0,Variable,3.5,0,Los Angeles,California,90001
22,Clear,2016-04-15 00:47:00,52.0,,-,60,N/A,29.86,66.0,5:47 PM,,10.0,North,-9999.0,0,Los Angeles,California,90001
23,Clear,2016-04-15 01:47:00,51.1,,-,63,N/A,29.85,64.0,6:47 PM,,10.0,Calm,Calm,0,Los Angeles,California,90001
24,Clear,2016-04-15 02:47:00,51.1,,-,67,N/A,29.85,62.1,7:47 PM,,10.0,SSE,4.6,160,Los Angeles,California,90001
25,Clear,2016-04-15 03:47:00,51.1,,-,67,N/A,29.86,62.1,8:47 PM,,9.0,Variable,3.5,0,Los Angeles,California,90001
26,Clear,2016-04-15 04:47:00,52.0,,-,70,N/A,29.88,62.1,9:47 PM,,10.0,Calm,Calm,0,Los Angeles,California,90001
27,Clear,2016-04-15 05:47:00,19.9,,-,17,N/A,29.87,66.9,10:47 PM,,10.0,Variable,5.8,0,Los Angeles,California,90001
28,Clear,2016-04-15 06:47:00,28.0,,27.6,25,N/A,29.86,64.9,11:47 PM,,10.0,NNW,15.0,330,Los Angeles,California,90001
0,Clear,2016-04-15 07:47:00,35.1,,24.2,34,N/A,29.85,64.0,12:47 AM,,10.0,NNW,13.8,340,Los Angeles,California,90001
1,Clear,2016-04-15 08:47:00,34.0,,23.0,34,N/A,29.84,63.0,1:47 AM,,10.0,NNW,10.4,340,Los Angeles,California,90001
2,Clear,2016-04-15 09:47:00,35.1,,16.1,37,N/A,29.84,62.1,2:47 AM,,10.0,NNW,9.2,330,Los Angeles,California,90001
3,Clear,2016-04-15 10:47:00,35.1,,-,38,N/A,29.83,61.0,3:47 AM,,10.0,Calm,Calm,0,Los Angeles,California,90001
4,Clear,2016-04-15 11:47:00,34.0,,20.7,36,N/A,29.82,61.0,4:47 AM,,10.0,NNW,11.5,330,Los Angeles,California,90001
5,Clear,2016-04-15 12:47:00,35.1,,17.3,41,N/A,29.83,59.0,5:47 AM,,10.0,NW,9.2,320,Los Angeles,California,90001
6,Clear,2016-04-15 13:47:00,35.1,,17.3,41,N/A,29.84,59.0,6:47 AM,,10.0,NW,8.1,310,Los Angeles,California,90001
7,Clear,2016-04-15 14:47:00,37.0,,23.0,41,N/A,29.85,61.0,7:47 AM,,10.0,NNW,8.1,340,Los Angeles,California,90001
8,Clear,2016-04-15 15:47:00,36.0,,-,34,N/A,29.86,64.9,8:47 AM,,10.0,NNW,9.2,330,Los Angeles,California,90001
9,Clear,2016-04-15 16:47:00,36.0,,-,33,N/A,29.87,66.0,9:47 AM,,10.0,North,-9999.0,0,Los Angeles,California,90001
10,Clear,2016-04-15 17:47:00,36.0,,24.2,30,N/A,29.86,69.1,10:47 AM,,10.0,NNW,13.8,330,Los Angeles,California,90001
11,Clear,2016-04-15 18:47:00,34.0,,27.6,25,N/A,29.85,72.0,11:47 AM,,10.0,NNW,15.0,330,Los Angeles,California,90001
12,Clear,2016-04-15 19:47:00,30.0,,-,20,N/A,29.84,73.9,12:47 PM,,10.0,NW,6.9,310,Los Angeles,California,90001
13,Clear,2016-04-15 20:47:00,27.0,,-,16,N/A,29.82,77.0,1:47 PM,,10.0,Calm,Calm,0,Los Angeles,California,90001
14,Clear,2016-04-15 21:47:00,25.0,,-,14,N/A,29.81,79.0,2:47 PM,,10.0,Variable,6.9,0,Los Angeles,California,90001
15,Clear,2016-04-15 22:47:00,23.0,,-,12,N/A,29.79,81.0,3:47 PM,,10.0,NNE,8.1,30,Los Angeles,California,90001
16,Clear,2016-04-15 23:47:00,37.0,,-,24,N/A,29.79,77.0,4:47 PM,,10.0,SE,6.9,140,Los Angeles,California,90001
17,Clear,2016-04-16 00:47:00,28.9,,-,17,N/A,29.80,78.1,5:47 PM,,10.0,Variable,5.8,0,Los Angeles,California,90001
18,Clear,2016-04-16 01:47:00,30.0,,-,19,N/A,29.81,75.0,6:47 PM,,10.0,North,-9999.0,0,Los Angeles,California,90001
19,Clear,2016-04-16 02:47:00,28.9,,-,20,N/A,29.85,72.0,7:47 PM,,10.0,NW,4.6,320,Los Angeles,California,90001
20,Clear,2016-04-16 03:47:00,26.1,,-,19,N/A,29.87,71.1,8:47 PM,,10.0,Variable,3.5,0,Los Angeles,California,90001
21,Clear,2016-04-16 04:47:00,10.0,,-,9,N/A,29.90,73.9,9:47 PM,,10.0,Variable,3.5,0,Los Angeles,California,90001
22,Clear,2016-04-16 05:47:00,7.0,,-,7,N/A,29.91,75.0,10:47 PM,,10.0,NNE,4.6,20,Los Angeles,California,90001
23,Clear,2016-04-16 06:47:00,33.1,,-,28,N/A,29.92,66.9,11:47 PM,,10.0,Calm,Calm,0,Los Angeles,California,90001
0,Clear,2016-04-16 07:47:00,39.0,,-,40,N/A,29.94,64.0,12:47 AM,,10.0,Calm,Calm,0,Los Angeles,California,90001
1,Clear,2016-04-16 08:47:00,37.0,,-,36,N/A,29.94,64.9,1:47 AM,,10.0,Calm,Calm,0,Los Angeles,California,90001
2,Clear,2016-04-16 09:47:00,30.0,,-,29,N/A,29.94,63.0,2:47 AM,,10.0,Calm,Calm,0,Los Angeles,California,90001
3,Clear,2016-04-16 10:47:00,17.1,,-,15,N/A,29.95,66.9,3:47 AM,,10.0,Calm,Calm,0,Los Angeles,California,90001
4,Clear,2016-04-16 11:47:00,21.0,,-,19,N/A,29.94,64.0,4:47 AM,,10.0,NNE,3.5,30,Los Angeles,California,90001
5,Clear,2016-04-16 12:47:00,30.9,,-,33,N/A,29.96,60.1,5:47 AM,,10.0,Calm,Calm,0,Los Angeles,California,90001
6,Clear,2016-04-16 13:47:00,34.0,,-,39,N/A,29.98,59.0,6:47 AM,,10.0,Calm,Calm,0,Los Angeles,California,90001
7,Clear,2016-04-16 14:47:00,28.9,,-,25,N/A,29.99,66.0,7:47 AM,,8.0,Variable,3.5,0,Los Angeles,California,90001
8,Clear,2016-04-16 15:47:00,24.1,,-,17,N/A,30.00,71.1,8:47 AM,,10.0,Calm,Calm,0,Los Angeles,California,90001
9,Clear,2016-04-16 16:47:00,24.1,,-,15,N/A,30.00,75.0,9:47 AM,,10.0,Calm,Calm,0,Los Angeles,California,90001
10,Clear,2016-04-16 17:47:00,25.0,,-,15,N/A,29.99,77.0,10:47 AM,,10.0,Calm,Calm,0,Los Angeles,California,90001
11,Clear,2016-04-16 18:47:00,23.0,,-,12,N/A,29.99,80.1,11:47 AM,,10.0,Calm,Calm,0,Los Angeles,California,90001
12,Clear,2016-04-16 19:47:00,23.0,,-,12,N/A,29.96,81.0,12:47 PM,,10.0,Calm,Calm,0,Los Angeles,California,90001
13,Clear,2016-04-16 20:47:00,26.1,,-,14,N/A,29.96,80.1,1:47 PM,,10.0,Variable,3.5,0,Los Angeles,California,90001
14,Clear,2016-04-16 21:47:00,26.1,,-,14,N/A,29.95,79.0,2:47 PM,,10.0,Variable,4.6,0,Los Angeles,California,90001
15,Clear,2016-04-16 22:47:00,36.0,,-,21,N/A,29.94,79.0,3:47 PM,,10.0,Variable,3.5,0,Los Angeles,California,90001
16,Clear,2016-04-16 23:47:00,37.0,,-,23,N/A,29.92,78.1,4:47 PM,,10.0,Variable,3.5,0,Los Angeles,California,90001
17,Clear,2016-04-17 00:47:00,39.9,,-,25,N/A,29.91,78.1,5:47 PM,,10.0,Calm,Calm,0,Los Angeles,California,90001
18,Clear,2016-04-17 01:47:00,37.9,,-,25,N/A,29.92,75.9,6:47 PM,,10.0,Calm,Calm,0,Los Angeles,California,90001
19,Clear,2016-04-17 02:47:00,39.9,,-,29,N/A,29.93,73.9,7:47 PM,,10.0,Calm,Calm,0,Los Angeles,California,90001
20,Clear,2016-04-17 03:47:00,41.0,,-,33,N/A,29.95,72.0,8:47 PM,,10.0,Calm,Calm,0,Los Angeles,California,90001
21,Clear,2016-04-17 04:47:00,42.1,,-,38,N/A,29.97,69.1,9:47 PM,,10.0,Calm,Calm,0,Los Angeles,California,90001
22,Clear,2016-04-17 05:47:00,45.0,,-,45,N/A,29.98,66.9,10:47 PM,,10.0,Calm,Calm,0,Los Angeles,California,90001
23,Clear,2016-04-17 06:47:00,45.0,,-,47,N/A,29.98,66.0,11:47 PM,,10.0,Calm,Calm,0,Los Angeles,California,90001
0,Clear,2016-04-17 07:47:00,46.0,,-,52,N/A,29.97,64.0,12:47 AM,,10.0,Calm,Calm,0,Los Angeles,California,90001
1,Clear,2016-04-17 08:47:00,46.0,,-,54,N/A,29.98,63.0,1:47 AM,,10.0,Calm,Calm,0,Los Angeles,California,90001
2,Clear,2016-04-17 09:47:00,46.0,,-,58,N/A,29.97,61.0,2:47 AM,,10.0,Calm,Calm,0,Los Angeles,California,90001
3,Clear,2016-04-17 10:47:00,37.0,,-,38,N/A,29.97,63.0,3:47 AM,,10.0,Calm,Calm,0,Los Angeles,California,90001
4,Clear,2016-04-17 11:47:00,37.0,,-,42,N/A,29.97,60.1,4:47 AM,,10.0,Calm,Calm,0,Los Angeles,California,90001
5,Clear,2016-04-17 12:47:00,37.0,,-,42,N/A,29.98,60.1,5:47 AM,,10.0,ESE,3.5,110,Los Angeles,California,90001
6,Clear,2016-04-17 13:47:00,37.0,,-,44,N/A,29.99,59.0,6:47 AM,,10.0,Calm,Calm,0,Los Angeles,California,90001
7,Clear,2016-04-17 14:47:00,37.9,,-,34,N/A,29.99,66.9,7:47 AM,,10.0,Calm,Calm,0,Los Angeles,California,90001
8,Clear,2016-04-17 15:47:00,34.0,,-,23,N/A,29.99,73.9,8:47 AM,,10.0,Variable,3.5,0,Los Angeles,California,90001
9,Clear,2016-04-17 16:47:00,34.0,,-,20,N/A,29.99,79.0,9:47 AM,,10.0,Calm,Calm,0,Los Angeles,California,90001
10,Clear,2016-04-17 17:47:00,28.9,,-,14,N/A,29.99,84.0,10:47 AM,,10.0,Calm,Calm,0,Los Angeles,California,90001
11,Clear,2016-04-17 18:47:00,28.9,,-,12,N/A,29.97,87.1,11:47 AM,,10.0,Variable,3.5,0,Los Angeles,California,90001
12,Clear,2016-04-17 19:47:00,37.9,,-,18,N/A,29.96,86.0,12:47 PM,,10.0,Variable,3.5,0,Los Angeles,California,90001
13,Clear,2016-04-17 20:47:00,37.9,,-,19,N/A,29.95,84.9,1:47 PM,,10.0,Variable,5.8,0,Los Angeles,California,90001
14,Clear,2016-04-17 21:47:00,36.0,,-,19,N/A,29.94,82.0,2:47 PM,,10.0,Variable,6.9,0,Los Angeles,California,90001
15,Clear,2016-04-17 22:47:00,32.0,,-,16,N/A,29.94,82.0,3:47 PM,,10.0,West,9.2,280,Los Angeles,California,90001
16,Clear,2016-04-17 23:47:00,30.9,,-,17,N/A,29.94,80.1,4:47 PM,,10.0,Variable,5.8,0,Los Angeles,California,90001
17,Clear,2016-04-18 00:47:00,33.1,,-,19,N/A,29.94,78.1,5:47 PM,,10.0,West,6.9,270,Los Angeles,California,90001
18,Clear,2016-04-18 01:47:00,33.1,,-,21,N/A,29.95,75.9,6:47 PM,,10.0,Variable,4.6,0,Los Angeles,California,90001
19,Clear,2016-04-18 02:47:00,30.0,,-,20,N/A,29.96,73.9,7:47 PM,,10.0,West,3.5,280,Los Angeles,California,90001
20,Clear,2016-04-18 03:47:00,37.0,,-,29,N/A,29.98,71.1,8:47 PM,,10.0,WNW,3.5,290,Los Angeles,California,90001
21,Clear,2016-04-18 04:47:00,42.1,,-,39,N/A,29.99,68.0,9:47 PM,,10.0,Calm,Calm,0,Los Angeles,California,90001
22,Clear,2016-04-18 05:47:00,44.1,,-,44,N/A,29.99,66.9,10:47 PM,,10.0,Calm,Calm,0,Los Angeles,California,90001
23,Clear,2016-04-18 06:47:00,46.0,,-,48,N/A,29.99,66.0,11:47 PM,,10.0,Calm,Calm,0,Los Angeles,California,90001
0,Clear,2016-04-18 07:47:00,37.9,,-,33,N/A,29.99,68.0,12:47 AM,,10.0,East,3.5,100,Los Angeles,California,90001
1,Clear,2016-04-18 08:47:00,43.0,,-,46,N/A,29.99,64.0,1:47 AM,,10.0,Calm,Calm,0,Los Angeles,California,90001
2,Clear,2016-04-18 09:47:00,45.0,,-,53,N/A,29.98,62.1,2:47 AM,,10.0,Calm,Calm,0,Los Angeles,California,90001
3,Clear,2016-04-18 10:47:00,33.1,,-,28,N/A,29.98,66.9,3:47 AM,,10.0,Calm,Calm,0,Los Angeles,California,90001
4,Clear,2016-04-18 11:47:00,36.0,,-,37,N/A,29.99,63.0,4:47 AM,,10.0,Calm,Calm,0,Los Angeles,California,90001
5,Clear,2016-04-18 12:47:00,37.0,,-,39,N/A,29.99,62.1,5:47 AM,,10.0,Calm,Calm,0,Los Angeles,California,90001
6,Clear,2016-04-18 13:47:00,41.0,,-,49,N/A,30.01,60.1,6:47 AM,,10.0,Calm,Calm,0,Los Angeles,California,90001
7,Clear,2016-04-18 14:47:00,36.0,,-,31,N/A,30.04,68.0,7:47 AM,,10.0,Calm,Calm,0,Los Angeles,California,90001
8,Clear,2016-04-18 15:47:00,36.0,,-,25,N/A,30.04,73.9,8:47 AM,,10.0,NNE,3.5,20,Los Angeles,California,90001
9,Clear,2016-04-18 16:47:00,30.0,,-,17,N/A,30.04,79.0,9:47 AM,,10.0,Variable,3.5,0,Los Angeles,California,90001
10,Clear,2016-04-18 17:47:00,35.1,,-,18,N/A,30.05,82.9,10:47 AM,,10.0,Calm,Calm,0,Los Angeles,California,90001
11,Clear,2016-04-18 18:47:00,28.9,,-,13,N/A,30.04,84.9,11:47 AM,,10.0,Calm,Calm,0,Los Angeles,California,90001
12,Clear,2016-04-18 19:47:00,32.0,,-,14,N/A,30.03,88.0,12:47 PM,,10.0,Calm,Calm,0,Los Angeles,California,90001
13,Clear,2016-04-18 20:47:00,41.0,,-,21,N/A,30.02,84.9,1:47 PM,,10.0,Variable,3.5,0,Los Angeles,California,90001
14,Clear,2016-04-18 21:47:00,37.9,,-,19,N/A,30.01,84.0,2:47 PM,,10.0,Variable,3.5,0,Los Angeles,California,90001
15,Clear,2016-04-18 22:47:00,30.9,,-,16,N/A,30.00,81.0,3:47 PM,,10.0,West,6.9,280,Los Angeles,California,90001
16,Clear,2016-04-18 23:47:00,30.0,,-,16,N/A,29.99,80.1,4:47 PM,,10.0,Variable,5.8,0,Los Angeles,California,90001
17,Clear,2016-04-19 00:47:00,33.1,,-,19,N/A,29.98,79.0,5:47 PM,,10.0,West,5.8,270,Los Angeles,California,90001
18,Clear,2016-04-19 01:47:00,37.9,,-,24,N/A,29.98,77.0,6:47 PM,,10.0,Variable,3.5,0,Los Angeles,California,90001
19,Clear,2016-04-19 02:47:00,39.9,,-,30,N/A,29.99,73.0,7:47 PM,,10.0,West,3.5,260,Los Angeles,California,90001
20,Clear,2016-04-19 03:47:00,42.1,,-,35,N/A,29.99,71.1,8:47 PM,,10.0,West,3.5,270,Los Angeles,California,90001
21,Clear,2016-04-19 04:47:00,46.0,,-,44,N/A,29.99,69.1,9:47 PM,,10.0,Calm,Calm,0,Los Angeles,California,90001
22,Clear,2016-04-19 05:47:00,48.9,,-,50,N/A,29.99,68.0,10:47 PM,,10.0,Calm,Calm,0,Los Angeles,California,90001
23,Clear,2016-04-19 06:47:00,46.9,,-,47,N/A,29.99,68.0,11:47 PM,,10.0,Calm,Calm,0,Los Angeles,California,90001
0,Clear,2016-04-19 07:47:00,46.0,,-,47,N/A,29.98,66.9,12:47 AM,,10.0,Calm,Calm,0,Los Angeles,California,90001
1,Clear,2016-04-19 08:47:00,45.0,,-,47,N/A,29.96,66.0,1:47 AM,,10.0,Calm,Calm,0,Los Angeles,California,90001
2,Clear,2016-04-19 09:47:00,43.0,,-,45,N/A,29.95,64.9,2:47 AM,,10.0,Calm,Calm,0,Los Angeles,California,90001
3,Clear,2016-04-19 10:47:00,41.0,,-,45,N/A,29.95,63.0,3:47 AM,,10.0,Calm,Calm,0,Los Angeles,California,90001
4,Clear,2016-04-19 11:47:00,37.0,,-,38,N/A,29.94,63.0,4:47 AM,,9.0,Calm,Calm,0,Los Angeles,California,90001
5,Clear,2016-04-19 12:47:00,37.0,,-,38,N/A,29.94,63.0,5:47 AM,,10.0,Calm,Calm,0,Los Angeles,California,90001
6,Clear,2016-04-19 13:47:00,37.0,,-,36,N/A,29.95,64.9,6:47 AM,,10.0,Calm,Calm,0,Los Angeles,California,90001
7,Clear,2016-04-19 14:47:00,43.0,,-,42,N/A,29.96,66.9,7:47 AM,,10.0,Calm,Calm,0,Los Angeles,California,90001
8,Clear,2016-04-19 15:47:00,41.0,,-,31,N/A,29.97,73.0,8:47 AM,,10.0,Calm,Calm,0,Los Angeles,California,90001
9,Clear,2016-04-19 16:47:00,41.0,,-,27,N/A,29.97,78.1,9:47 AM,,10.0,Calm,Calm,0,Los Angeles,California,90001
10,Clear,2016-04-19 17:47:00,37.0,,-,19,N/A,29.96,84.0,10:47 AM,,10.0,Calm,Calm,0,Los Angeles,California,90001
11,Clear,2016-04-19 18:47:00,35.1,,-,16,N/A,29.95,87.1,11:47 AM,,10.0,Calm,Calm,0,Los Angeles,California,90001
12,Clear,2016-04-19 19:47:00,28.9,,-,12,N/A,29.94,87.1,12:47 PM,,10.0,Variable,4.6,0,Los Angeles,California,90001
13,Clear,2016-04-19 20:47:00,36.0,,-,17,N/A,29.94,84.9,1:47 PM,,10.0,Variable,3.5,0,Los Angeles,California,90001
14,Clear,2016-04-19 21:47:00,30.9,,-,14,N/A,29.93,84.9,2:47 PM,,10.0,North,-9999.0,0,Los Angeles,California,90001
15,Clear,2016-04-19 22:47:00,35.1,,-,17,N/A,29.92,84.0,3:47 PM,,10.0,North,-9999.0,0,Los Angeles,California,90001
16,Clear,2016-04-19 23:47:00,33.1,,-,16,N/A,29.90,84.0,4:47 PM,,10.0,West,3.5,280,Los Angeles,California,90001
17,Clear,2016-04-20 00:47:00,33.1,,-,17,N/A,29.89,82.0,5:47 PM,,10.0,West,3.5,270,Los Angeles,California,90001
18,Clear,2016-04-20 01:47:00,39.9,,-,25,N/A,29.89,78.1,6:47 PM,,10.0,West,3.5,270,Los Angeles,California,90001
19,Clear,2016-04-20 02:47:00,46.0,,-,38,N/A,29.89,73.0,7:47 PM,,10.0,West,4.6,270,Los Angeles,California,90001
20,Clear,2016-04-20 03:47:00,55.0,,-,59,N/A,29.90,70.0,8:47 PM,,10.0,WNW,3.5,290,Los Angeles,California,90001
21,Clear,2016-04-20 04:47:00,57.9,,-,70,N/A,29.90,68.0,9:47 PM,,10.0,Calm,Calm,0,Los Angeles,California,90001
22,Clear,2016-04-20 05:47:00,59.0,,-,76,N/A,29.90,66.9,10:47 PM,,10.0,Calm,Calm,0,Los Angeles,California,90001
23,Clear,2016-04-20 06:47:00,57.9,,-,73,N/A,29.89,66.9,11:47 PM,,10.0,Calm,Calm,0,Los Angeles,California,90001
0,Clear,2016-04-20 07:47:00,55.9,,-,73,N/A,29.90,64.9,12:47 AM,,10.0,Calm,Calm,0,Los Angeles,California,90001
1,Clear,2016-04-20 08:47:00,55.9,,-,75,N/A,29.90,64.0,1:47 AM,,10.0,Calm,Calm,0,Los Angeles,California,90001
2,Clear,2016-04-20 09:47:00,55.0,,-,78,N/A,29.89,62.1,2:47 AM,,10.0,Calm,Calm,0,Los Angeles,California,90001
3,Clear,2016-04-20 10:47:00,52.0,,-,70,N/A,29.89,62.1,3:47 AM,,10.0,Calm,Calm,0,Los Angeles,California,90001
4,Clear,2016-04-20 11:47:00,45.0,,-,56,N/A,29.89,61.0,4:47 AM,,10.0,Calm,Calm,0,Los Angeles,California,90001
5,Clear,2016-04-20 12:47:00,39.9,,-,47,N/A,29.89,60.1,5:47 AM,,10.0,Calm,Calm,0,Los Angeles,California,90001
6,Clear,2016-04-20 13:47:00,42.1,,-,51,N/A,29.91,60.1,6:47 AM,,10.0,Calm,Calm,0,Los Angeles,California,90001
7,Clear,2016-04-20 14:47:00,34.0,,-,27,N/A,29.92,69.1,7:47 AM,,10.0,Calm,Calm,0,Los Angeles,California,90001
8,Clear,2016-04-20 15:47:00,28.9,,-,18,N/A,29.92,75.0,8:47 AM,,10.0,Calm,Calm,0,Los Angeles,California,90001
9,Clear,2016-04-20 16:47:00,33.1,,-,19,N/A,29.92,79.0,9:47 AM,,10.0,Calm,Calm,0,Los Angeles,California,90001
10,Clear,2016-04-20 17:47:00,28.9,,-,14,N/A,29.93,82.9,10:47 AM,,10.0,Calm,Calm,0,Los Angeles,California,90001
11,Clear,2016-04-20 18:47:00,26.1,,-,12,N/A,29.92,84.9,11:47 AM,,10.0,Calm,Calm,0,Los Angeles,California,90001
12,Clear,2016-04-20 19:47:00,30.9,,-,14,N/A,29.91,84.9,12:47 PM,,10.0,Variable,4.6,0,Los Angeles,California,90001
13,Clear,2016-04-20 20:47:00,28.0,,-,14,N/A,29.91,82.9,1:47 PM,,10.0,North,-9999.0,0,Los Angeles,California,90001
14,Clear,2016-04-20 21:47:00,28.9,,-,14,N/A,29.90,82.9,2:47 PM,,10.0,Variable,5.8,0,Los Angeles,California,90001
15,Clear,2016-04-20 22:47:00,30.0,,-,16,N/A,29.88,80.1,3:47 PM,,10.0,West,5.8,260,Los Angeles,California,90001
16,Clear,2016-04-20 23:47:00,30.9,,-,17,N/A,29.88,79.0,4:47 PM,,10.0,Variable,6.9,0,Los Angeles,California,90001
17,Clear,2016-04-21 00:47:00,35.1,,-,21,N/A,29.87,78.1,5:47 PM,,10.0,West,4.6,260,Los Angeles,California,90001
18,Clear,2016-04-21 01:47:00,35.1,,-,23,N/A,29.87,75.0,6:47 PM,,10.0,West,3.5,280,Los Angeles,California,90001
19,Clear,2016-04-21 02:47:00,39.9,,-,32,N/A,29.86,71.1,7:47 PM,,10.0,Calm,Calm,0,Los Angeles,California,90001
20,Clear,2016-04-21 03:47:00,44.1,,-,40,N/A,29.87,69.1,8:47 PM,,10.0,Calm,Calm,0,Los Angeles,California,90001
21,Clear,2016-04-21 04:47:00,46.9,,-,47,N/A,29.89,68.0,9:47 PM,,10.0,Calm,Calm,0,Los Angeles,California,90001
22,Clear,2016-04-21 05:47:00,48.0,,-,51,N/A,29.89,66.9,10:47 PM,,10.0,Calm,Calm,0,Los Angeles,California,90001
23,Clear,2016-04-21 06:47:00,46.0,,-,47,N/A,29.89,66.9,11:47 PM,,10.0,Calm,Calm,0,Los Angeles,California,90001
0,Clear,2016-04-21 07:47:00,45.0,,-,47,N/A,29.89,66.0,12:47 AM,,10.0,Calm,Calm,0,Los Angeles,California,90001
1,Clear,2016-04-21 08:47:00,46.0,,-,52,N/A,29.88,64.0,1:47 AM,,10.0,Calm,Calm,0,Los Angeles,California,90001
2,Clear,2016-04-21 09:47:00,48.0,,-,60,N/A,29.87,62.1,2:47 AM,,10.0,Calm,Calm,0,Los Angeles,California,90001
3,Clear,2016-04-21 10:47:00,44.1,,-,54,N/A,29.88,61.0,3:47 AM,,10.0,Calm,Calm,0,Los Angeles,California,90001
4,Clear,2016-04-21 11:47:00,41.0,,-,48,N/A,29.87,61.0,4:47 AM,,10.0,Calm,Calm,0,Los Angeles,California,90001
5,Clear,2016-04-21 12:47:00,44.1,,-,58,N/A,29.87,59.0,5:47 AM,,10.0,Calm,Calm,0,Los Angeles,California,90001
6,Clear,2016-04-21 13:47:00,44.1,,-,55,N/A,29.87,60.1,6:47 AM,,9.0,Calm,Calm,0,Los Angeles,California,90001
7,Clear,2016-04-21 14:47:00,34.0,,-,30,N/A,29.87,66.0,7:47 AM,,10.0,Calm,Calm,0,Los Angeles,California,90001
8,Clear,2016-04-21 15:47:00,39.9,,-,32,N/A,29.88,71.1,8:47 AM,,10.0,West,3.5,280,Los Angeles,California,90001
9,Clear,2016-04-21 16:47:00,37.9,,-,27,N/A,29.88,73.9,9:47 AM,,10.0,Calm,Calm,0,Los Angeles,California,90001
10,Clear,2016-04-21 17:47:00,39.9,,-,27,N/A,29.88,75.9,10:47 AM,,10.0,Calm,Calm,0,Los Angeles,California,90001
11,Clear,2016-04-21 18:47:00,41.0,,-,28,N/A,29.89,77.0,11:47 AM,,10.0,Calm,Calm,0,Los Angeles,California,90001
12,Clear,2016-04-21 19:47:00,46.0,,-,33,N/A,29.88,77.0,12:47 PM,,10.0,Variable,3.5,0,Los Angeles,California,90001
13,Clear,2016-04-21 20:47:00,42.1,,-,30,N/A,29.87,75.9,1:47 PM,,10.0,Calm,Calm,0,Los Angeles,California,90001
14,Clear,2016-04-21 21:47:00,41.0,,-,29,N/A,29.87,75.9,2:47 PM,,10.0,Variable,6.9,0,Los Angeles,California,90001
15,Clear,2016-04-21 22:47:00,48.0,,-,41,N/A,29.86,73.0,3:47 PM,,10.0,West,8.1,270,Los Angeles,California,90001
16,Clear,2016-04-21 23:47:00,51.1,,-,49,N/A,29.86,71.1,4:47 PM,,10.0,North,-9999.0,0,Los Angeles,California,90001
17,Clear,2016-04-22 00:47:00,51.1,,-,49,N/A,29.85,71.1,5:47 PM,,10.0,Variable,3.5,0,Los Angeles,California,90001
18,Clear,2016-04-22 01:47:00,51.1,,-,53,N/A,29.85,69.1,6:47 PM,,10.0,Calm,Calm,0,Los Angeles,California,90001
19,Clear,2016-04-22 02:47:00,53.1,,-,63,N/A,29.86,66.0,7:47 PM,,10.0,Calm,Calm,0,Los Angeles,California,90001
20,Clear,2016-04-22 03:47:00,54.0,,-,70,N/A,29.88,64.0,8:47 PM,,10.0,Calm,Calm,0,Los Angeles,California,90001
21,Clear,2016-04-22 04:47:00,55.0,,-,73,N/A,29.89,64.0,9:47 PM,,10.0,Calm,Calm,0,Los Angeles,California,90001
22,Clear,2016-04-22 05:47:00,55.0,,-,73,N/A,29.90,64.0,10:47 PM,,10.0,ESE,3.5,110,Los Angeles,California,90001
23,Clear,2016-04-22 06:47:00,55.0,,-,78,N/A,29.90,62.1,11:47 PM,,10.0,Calm,Calm,0,Los Angeles,California,90001
0,Clear,2016-04-22 07:47:00,54.0,,-,72,N/A,29.90,63.0,12:47 AM,,10.0,East,3.5,100,Los Angeles,California,90001
1,Clear,2016-04-22 08:47:00,55.0,,-,78,N/A,29.90,62.1,1:47 AM,,10.0,East,3.5,100,Los Angeles,California,90001
2,Clear,2016-04-22 09:47:00,55.0,,-,83,N/A,29.89,60.1,2:47 AM,,8.0,Calm,Calm,0,Los Angeles,California,90001
3,Clear,2016-04-22 10:47:00,55.9,,-,83,N/A,29.90,61.0,3:47 AM,,10.0,Calm,Calm,0,Los Angeles,California,90001
4,Mostly Cloudy,2016-04-22 11:35:00,55.0,,-,81,N/A,29.90,61.0,4:35 AM,,10.0,Calm,Calm,0,Los Angeles,California,90001
5,Overcast,2016-04-22 11:47:00,55.0,,-,81,N/A,29.90,61.0,4:47 AM,,10.0,ESE,3.5,110,Los Angeles,California,90001
6,Overcast,2016-04-22 12:47:00,55.0,,-,81,N/A,29.90,61.0,5:47 AM,,9.0,East,3.5,90,Los Angeles,California,90001
7,Mostly Cloudy,2016-04-22 13:47:00,55.0,,-,81,N/A,29.91,61.0,6:47 AM,,10.0,Calm,Calm,0,Los Angeles,California,90001
8,Scattered Clouds,2016-04-22 14:08:00,55.0,,-,78,N/A,29.93,62.1,7:08 AM,,10.0,Calm,Calm,0,Los Angeles,California,90001
9,Mostly Cloudy,2016-04-22 14:15:00,55.0,,-,78,N/A,29.93,62.1,7:15 AM,,10.0,Calm,Calm,0,Los Angeles,California,90001
10,Mostly Cloudy,2016-04-22 14:47:00,55.9,,-,78,N/A,29.93,63.0,7:47 AM,,10.0,Calm,Calm,0,Los Angeles,California,90001
11,Scattered Clouds,2016-04-22 15:22:00,55.0,,-,75,N/A,29.94,63.0,8:22 AM,,8.0,Calm,Calm,0,Los Angeles,California,90001
12,Mostly Cloudy,2016-04-22 15:34:00,55.0,,-,75,N/A,29.95,63.0,8:34 AM,,8.0,Calm,Calm,0,Los Angeles,California,90001
13,Mostly Cloudy,2016-04-22 15:47:00,55.0,,-,73,N/A,29.95,64.0,8:47 AM,,9.0,Variable,3.5,0,Los Angeles,California,90001
14,Scattered Clouds,2016-04-22 16:22:00,55.0,,-,70,N/A,29.95,64.9,9:22 AM,,9.0,Calm,Calm,0,Los Angeles,California,90001
15,Clear,2016-04-22 16:47:00,55.9,,-,68,N/A,29.95,66.9,9:47 AM,,8.0,Variable,3.5,0,Los Angeles,California,90001
16,Clear,2016-04-22 17:47:00,55.0,,-,59,N/A,29.96,70.0,10:47 AM,,9.0,Calm,Calm,0,Los Angeles,California,90001
17,Clear,2016-04-22 18:47:00,53.1,,-,51,N/A,29.96,72.0,11:47 AM,,10.0,Variable,3.5,0,Los Angeles,California,90001
18,Clear,2016-04-22 19:47:00,54.0,,-,55,N/A,29.97,71.1,12:47 PM,,10.0,Variable,4.6,0,Los Angeles,California,90001
19,Clear,2016-04-22 20:47:00,54.0,,-,58,N/A,29.97,69.1,1:47 PM,,10.0,Calm,Calm,0,Los Angeles,California,90001
20,Clear,2016-04-22 21:47:00,51.1,,-,51,N/A,29.97,70.0,2:47 PM,,10.0,Variable,5.8,0,Los Angeles,California,90001
21,Clear,2016-04-22 22:47:00,52.0,,-,54,N/A,29.97,69.1,3:47 PM,,10.0,Variable,5.8,0,Los Angeles,California,90001
22,Clear,2016-04-22 23:47:00,54.0,,-,61,N/A,29.96,68.0,4:47 PM,,10.0,Variable,6.9,0,Los Angeles,California,90001
23,Clear,2016-04-23 00:47:00,52.0,,-,53,N/A,29.95,70.0,5:47 PM,,10.0,West,4.6,280,Los Angeles,California,90001
24,Clear,2016-04-23 01:47:00,52.0,,18.4,59,N/A,29.96,66.9,6:47 PM,,10.0,West,10.4,280,Los Angeles,California,90001
25,Clear,2016-04-23 02:47:00,54.0,,-,70,N/A,29.96,64.0,7:47 PM,,10.0,Variable,3.5,0,Los Angeles,California,90001
26,Clear,2016-04-23 03:47:00,54.0,,-,70,N/A,29.98,64.0,8:47 PM,,10.0,Calm,Calm,0,Los Angeles,California,90001
27,Clear,2016-04-23 04:47:00,52.0,,-,67,N/A,29.99,63.0,9:47 PM,,10.0,Calm,Calm,0,Los Angeles,California,90001
28,Clear,2016-04-23 05:47:00,52.0,,-,67,N/A,29.99,63.0,10:47 PM,,10.0,Calm,Calm,0,Los Angeles,California,90001
29,Clear,2016-04-23 06:47:00,51.1,,-,67,N/A,29.99,62.1,11:47 PM,,10.0,Calm,Calm,0,Los Angeles,California,90001
0,Clear,2016-04-23 07:47:00,53.1,,-,78,N/A,29.99,60.1,12:47 AM,,10.0,Calm,Calm,0,Los Angeles,California,90001
1,Clear,2016-04-23 08:47:00,52.0,,-,78,N/A,29.98,59.0,1:47 AM,,10.0,Calm,Calm,0,Los Angeles,California,90001
2,Clear,2016-04-23 09:47:00,51.1,,-,78,N/A,29.97,57.9,2:47 AM,,10.0,Calm,Calm,0,Los Angeles,California,90001
3,Clear,2016-04-23 10:47:00,51.1,,-,81,N/A,29.98,57.0,3:47 AM,,10.0,Calm,Calm,0,Los Angeles,California,90001
4,Clear,2016-04-23 11:47:00,51.1,,-,78,N/A,29.99,57.9,4:47 AM,,10.0,Calm,Calm,0,Los Angeles,California,90001
5,Clear,2016-04-23 12:47:00,51.1,,-,75,N/A,29.99,59.0,5:47 AM,,10.0,Calm,Calm,0,Los Angeles,California,90001
6,Clear,2016-04-23 13:47:00,51.1,,-,75,N/A,30.01,59.0,6:47 AM,,10.0,Calm,Calm,0,Los Angeles,California,90001
7,Clear,2016-04-23 14:47:00,51.1,,-,67,N/A,30.02,62.1,7:47 AM,,10.0,Calm,Calm,0,Los Angeles,California,90001
8,Partly Cloudy,2016-04-23 15:47:00,52.0,,-,63,N/A,30.03,64.9,8:47 AM,,10.0,Calm,Calm,0,Los Angeles,California,90001
9,Clear,2016-04-23 16:47:00,46.9,,-,47,N/A,30.03,68.0,9:47 AM,,10.0,Calm,Calm,0,Los Angeles,California,90001
10,Clear,2016-04-23 17:47:00,39.9,,-,31,N/A,30.03,72.0,10:47 AM,,10.0,NNW,3.5,340,Los Angeles,California,90001
11,Clear,2016-04-23 18:47:00,36.0,,-,24,N/A,30.00,75.0,11:47 AM,,10.0,West,6.9,280,Los Angeles,California,90001
12,Clear,2016-04-23 19:47:00,43.0,,-,38,N/A,30.01,70.0,12:47 PM,,10.0,Variable,4.6,0,Los Angeles,California,90001
13,Clear,2016-04-23 20:47:00,39.9,,17.3,31,N/A,29.98,72.0,1:47 PM,,10.0,West,9.2,270,Los Angeles,California,90001
14,Clear,2016-04-23 21:47:00,41.0,,18.4,34,N/A,29.97,71.1,2:47 PM,,10.0,West,9.2,280,Los Angeles,California,90001
15,Clear,2016-04-23 22:47:00,42.1,,16.1,35,N/A,29.96,71.1,3:47 PM,,10.0,Variable,4.6,0,Los Angeles,California,90001
16,Clear,2016-04-23 23:47:00,44.1,,-,37,N/A,29.94,72.0,4:47 PM,,10.0,Calm,Calm,0,Los Angeles,California,90001
17,Clear,2016-04-24 00:47:00,46.0,,-,37,N/A,29.92,73.9,5:47 PM,,10.0,West,4.6,280,Los Angeles,California,90001
18,Clear,2016-04-24 01:47:00,46.0,,-,40,N/A,29.91,72.0,6:47 PM,,10.0,West,5.8,280,Los Angeles,California,90001
19,Clear,2016-04-24 02:47:00,48.0,,-,46,N/A,29.92,70.0,7:47 PM,,10.0,Calm,Calm,0,Los Angeles,California,90001
20,Clear,2016-04-24 03:47:00,32.0,,-,23,N/A,29.92,72.0,8:47 PM,,10.0,NW,4.6,310,Los Angeles,California,90001
21,Clear,2016-04-24 04:47:00,30.9,,-,23,N/A,29.93,71.1,9:47 PM,,10.0,North,3.5,10,Los Angeles,California,90001
22,Clear,2016-04-24 05:47:00,51.1,,-,61,N/A,29.94,64.9,10:47 PM,,10.0,Variable,3.5,0,Los Angeles,California,90001
23,Clear,2016-04-24 06:47:00,52.0,,-,65,N/A,29.94,64.0,11:47 PM,,10.0,East,3.5,100,Los Angeles,California,90001
0,Clear,2016-04-24 07:47:00,52.0,,-,67,N/A,29.94,63.0,12:47 AM,,10.0,East,4.6,90,Los Angeles,California,90001
1,Clear,2016-04-24 08:47:00,52.0,,-,70,N/A,29.94,62.1,1:47 AM,,10.0,ENE,3.5,60,Los Angeles,California,90001
2,Clear,2016-04-24 09:47:00,53.1,,-,75,N/A,29.91,61.0,2:47 AM,,10.0,ESE,3.5,110,Los Angeles,California,90001
3,Clear,2016-04-24 10:47:00,54.0,,-,80,N/A,29.90,60.1,3:47 AM,,10.0,East,3.5,100,Los Angeles,California,90001
4,Clear,2016-04-24 11:47:00,54.0,,-,80,N/A,29.91,60.1,4:47 AM,,10.0,Calm,Calm,0,Los Angeles,California,90001
5,Clear,2016-04-24 12:47:00,54.0,,-,80,N/A,29.90,60.1,5:47 AM,,10.0,ESE,3.5,120,Los Angeles,California,90001
6,Clear,2016-04-24 13:47:00,53.1,,-,78,N/A,29.91,60.1,6:47 AM,,10.0,Variable,3.5,0,Los Angeles,California,90001
7,Clear,2016-04-24 14:47:00,54.0,,-,75,N/A,29.92,62.1,7:47 AM,,10.0,Variable,3.5,0,Los Angeles,California,90001
8,Clear,2016-04-24 15:47:00,53.1,,-,65,N/A,29.92,64.9,8:47 AM,,10.0,East,3.5,90,Los Angeles,California,90001
9,Clear,2016-04-24 16:47:00,51.1,,-,55,N/A,29.91,68.0,9:47 AM,,10.0,East,4.6,100,Los Angeles,California,90001
10,Clear,2016-04-24 17:47:00,51.1,,-,46,N/A,29.91,73.0,10:47 AM,,10.0,Variable,3.5,0,Los Angeles,California,90001
11,Clear,2016-04-24 18:47:00,51.1,,-,45,N/A,29.91,73.9,11:47 AM,,10.0,Calm,Calm,0,Los Angeles,California,90001
12,Clear,2016-04-24 19:47:00,55.9,,-,63,N/A,29.91,69.1,12:47 PM,,10.0,Variable,4.6,0,Los Angeles,California,90001
13,Clear,2016-04-24 20:47:00,55.0,,-,57,N/A,29.88,71.1,1:47 PM,,10.0,Calm,Calm,0,Los Angeles,California,90001
14,Clear,2016-04-24 21:47:00,55.9,,-,61,N/A,29.87,70.0,2:47 PM,,10.0,Variable,5.8,0,Los Angeles,California,90001
15,Clear,2016-04-24 22:47:00,54.0,,-,58,N/A,29.86,69.1,3:47 PM,,10.0,Variable,4.6,0,Los Angeles,California,90001
16,Clear,2016-04-24 23:47:00,51.1,,-,55,N/A,29.85,68.0,4:47 PM,,10.0,West,4.6,260,Los Angeles,California,90001
17,Clear,2016-04-25 00:47:00,48.0,,-,49,N/A,29.85,68.0,5:47 PM,,10.0,Variable,5.8,0,Los Angeles,California,90001
18,Clear,2016-04-25 01:47:00,52.0,,-,65,N/A,29.85,64.0,6:47 PM,,10.0,Variable,3.5,0,Los Angeles,California,90001
19,Clear,2016-04-25 02:47:00,52.0,,-,72,N/A,29.85,61.0,7:47 PM,,10.0,Calm,Calm,0,Los Angeles,California,90001
20,Clear,2016-04-25 03:47:00,51.1,,-,72,N/A,29.86,60.1,8:47 PM,,10.0,Calm,Calm,0,Los Angeles,California,90001
21,Scattered Clouds,2016-04-25 04:47:00,50.0,,-,69,N/A,29.87,60.1,9:47 PM,,10.0,Calm,Calm,0,Los Angeles,California,90001
22,Mostly Cloudy,2016-04-25 04:51:00,50.0,,-,69,N/A,29.87,60.1,9:51 PM,,10.0,Calm,Calm,0,Los Angeles,California,90001
23,Scattered Clouds,2016-04-25 05:20:00,50.0,,-,69,N/A,29.87,60.1,10:20 PM,,10.0,Calm,Calm,0,Los Angeles,California,90001
24,Scattered Clouds,2016-04-25 05:47:00,50.0,,-,69,N/A,29.86,60.1,10:47 PM,,10.0,Variable,5.8,0,Los Angeles,California,90001
25,Mostly Cloudy,2016-04-25 05:52:00,50.0,,-,72,N/A,29.86,59.0,10:52 PM,,10.0,Variable,3.5,0,Los Angeles,California,90001
0,Scattered Clouds,2016-04-25 07:09:00,50.0,,-,72,N/A,29.85,59.0,12:09 AM,,10.0,SE,4.6,140,Los Angeles,California,90001
1,Clear,2016-04-25 07:47:00,48.9,,-,69,N/A,29.86,59.0,12:47 AM,,10.0,Variable,3.5,0,Los Angeles,California,90001
2,Mostly Cloudy,2016-04-25 08:40:00,48.0,,-,70,N/A,29.85,57.9,1:40 AM,,10.0,Calm,Calm,0,Los Angeles,California,90001
3,Mostly Cloudy,2016-04-25 08:47:00,48.0,,-,70,N/A,29.85,57.9,1:47 AM,,10.0,Calm,Calm,0,Los Angeles,California,90001
4,Overcast,2016-04-25 08:54:00,48.9,,-,72,N/A,29.85,57.9,1:54 AM,,10.0,Calm,Calm,0,Los Angeles,California,90001
5,Mostly Cloudy,2016-04-25 09:39:00,50.0,,-,77,N/A,29.84,57.0,2:39 AM,,10.0,Calm,Calm,0,Los Angeles,California,90001
6,Mostly Cloudy,2016-04-25 09:47:00,50.0,,-,77,N/A,29.83,57.0,2:47 AM,,10.0,Calm,Calm,0,Los Angeles,California,90001
7,Scattered Clouds,2016-04-25 10:11:00,50.0,,-,77,N/A,29.84,57.0,3:11 AM,,7.0,Calm,Calm,0,Los Angeles,California,90001
8,Scattered Clouds,2016-04-25 10:47:00,50.0,,-,80,N/A,29.84,55.9,3:47 AM,,9.0,Calm,Calm,0,Los Angeles,California,90001
9,Mostly Cloudy,2016-04-25 10:50:00,48.9,,-,77,N/A,29.85,55.9,3:50 AM,,9.0,Calm,Calm,0,Los Angeles,California,90001
10,Scattered Clouds,2016-04-25 11:03:00,48.9,,-,77,N/A,29.84,55.9,4:03 AM,,9.0,Calm,Calm,0,Los Angeles,California,90001
11,Mostly Cloudy,2016-04-25 11:17:00,50.0,,-,83,N/A,29.85,55.0,4:17 AM,,9.0,Calm,Calm,0,Los Angeles,California,90001
12,Scattered Clouds,2016-04-25 11:26:00,48.9,,-,77,N/A,29.85,55.9,4:26 AM,,9.0,Calm,Calm,0,Los Angeles,California,90001
13,Mostly Cloudy,2016-04-25 11:29:00,48.9,,-,77,N/A,29.85,55.9,4:29 AM,,9.0,Calm,Calm,0,Los Angeles,California,90001
14,Overcast,2016-04-25 11:47:00,48.9,,-,77,N/A,29.84,55.9,4:47 AM,,9.0,Calm,Calm,0,Los Angeles,California,90001
15,Mostly Cloudy,2016-04-25 12:47:00,50.0,,-,80,N/A,29.86,55.9,5:47 AM,,9.0,Calm,Calm,0,Los Angeles,California,90001
16,Scattered Clouds,2016-04-25 12:56:00,50.0,,-,80,N/A,29.86,55.9,5:56 AM,,9.0,Calm,Calm,0,Los Angeles,California,90001
17,Clear,2016-04-25 13:47:00,50.0,,-,80,N/A,29.88,55.9,6:47 AM,,8.0,Calm,Calm,0,Los Angeles,California,90001
18,Clear,2016-04-25 14:47:00,41.0,,-,48,N/A,29.89,61.0,7:47 AM,,10.0,Variable,3.5,0,Los Angeles,California,90001
19,Clear,2016-04-25 15:47:00,37.9,,-,37,N/A,29.89,64.9,8:47 AM,,10.0,NW,3.5,310,Los Angeles,California,90001
20,Clear,2016-04-25 16:47:00,32.0,,-,27,N/A,29.89,66.9,9:47 AM,,10.0,Variable,3.5,0,Los Angeles,California,90001
21,Clear,2016-04-25 17:47:00,44.1,,-,44,N/A,29.90,66.9,10:47 AM,,10.0,Variable,4.6,0,Los Angeles,California,90001
22,Clear,2016-04-25 18:47:00,44.1,,-,44,N/A,29.89,66.9,11:47 AM,,10.0,Variable,5.8,0,Los Angeles,California,90001
23,Clear,2016-04-25 19:47:00,41.0,,-,40,N/A,29.88,66.0,12:47 PM,,10.0,Variable,3.5,0,Los Angeles,California,90001
24,Clear,2016-04-25 20:47:00,39.9,,20.7,38,N/A,29.86,66.0,1:47 PM,,10.0,West,10.4,260,Los Angeles,California,90001
25,Clear,2016-04-25 21:47:00,46.0,,21.9,52,N/A,29.85,64.0,2:47 PM,,10.0,West,9.2,270,Los Angeles,California,90001
26,Clear,2016-04-25 22:47:00,46.0,,-,52,N/A,29.82,64.0,3:47 PM,,10.0,West,8.1,260,Los Angeles,California,90001
27,Clear,2016-04-25 23:47:00,45.0,,23.0,52,N/A,29.80,63.0,4:47 PM,,10.0,West,10.4,270,Los Angeles,California,90001
28,Mostly Cloudy,2016-04-26 00:47:00,44.1,,23.0,50,N/A,29.83,63.0,5:47 PM,,10.0,NNW,8.1,330,Los Angeles,California,90001
29,Scattered Clouds,2016-04-26 01:47:00,33.1,,16.1,33,N/A,29.83,63.0,6:47 PM,,10.0,NNW,9.2,330,Los Angeles,California,90001
30,Clear,2016-04-26 02:47:00,27.0,,-,26,N/A,29.85,62.1,7:47 PM,,10.0,NNW,9.2,330,Los Angeles,California,90001
31,Clear,2016-04-26 03:47:00,27.0,,-,27,N/A,29.88,61.0,8:47 PM,,10.0,Calm,Calm,0,Los Angeles,California,90001
32,Clear,2016-04-26 04:47:00,45.0,,-,60,N/A,29.90,59.0,9:47 PM,,10.0,East,4.6,80,Los Angeles,California,90001
33,Clear,2016-04-26 05:47:00,45.0,,-,64,N/A,29.93,57.0,10:47 PM,,10.0,East,5.8,80,Los Angeles,California,90001
34,Clear,2016-04-26 06:47:00,45.0,,-,64,N/A,29.94,57.0,11:47 PM,,10.0,Calm,Calm,0,Los Angeles,California,90001
0,Clear,2016-04-26 07:47:00,44.1,,-,64,N/A,29.94,55.9,12:47 AM,,10.0,Variable,3.5,0,Los Angeles,California,90001
1,Clear,2016-04-26 08:47:00,43.0,,-,62,N/A,29.95,55.9,1:47 AM,,10.0,Variable,3.5,0,Los Angeles,California,90001
2,Clear,2016-04-26 09:47:00,42.1,,-,62,N/A,29.95,55.0,2:47 AM,,10.0,Calm,Calm,0,Los Angeles,California,90001
3,Clear,2016-04-26 10:47:00,41.0,,-,62,N/A,29.95,54.0,3:47 AM,,10.0,Variable,6.9,0,Los Angeles,California,90001
4,Clear,2016-04-26 11:47:00,42.1,,-,64,N/A,29.95,54.0,4:47 AM,,10.0,East,5.8,90,Los Angeles,California,90001
5,Clear,2016-04-26 12:47:00,42.1,,-,64,N/A,29.96,54.0,5:47 AM,,10.0,Calm,Calm,0,Los Angeles,California,90001
6,Clear,2016-04-26 13:47:00,42.1,,-,64,N/A,29.98,54.0,6:47 AM,,10.0,Calm,Calm,0,Los Angeles,California,90001
7,Clear,2016-04-26 14:47:00,42.1,,-,57,N/A,29.99,57.0,7:47 AM,,10.0,East,4.6,90,Los Angeles,California,90001
8,Clear,2016-04-26 15:47:00,44.1,,-,54,N/A,29.99,61.0,8:47 AM,,10.0,Calm,Calm,0,Los Angeles,California,90001
9,Clear,2016-04-26 16:47:00,44.1,,-,50,N/A,29.99,63.0,9:47 AM,,10.0,ENE,3.5,70,Los Angeles,California,90001
10,Clear,2016-04-26 17:47:00,43.0,,-,45,N/A,30.00,64.9,10:47 AM,,10.0,North,-9999.0,0,Los Angeles,California,90001
11,Clear,2016-04-26 18:47:00,44.1,,-,42,N/A,29.99,68.0,11:47 AM,,10.0,Calm,Calm,0,Los Angeles,California,90001
12,Clear,2016-04-26 19:47:00,46.9,,-,45,N/A,29.98,69.1,12:47 PM,,10.0,Calm,Calm,0,Los Angeles,California,90001
13,Clear,2016-04-26 20:47:00,48.9,,-,50,N/A,29.97,68.0,1:47 PM,,10.0,Variable,3.5,0,Los Angeles,California,90001
14,Clear,2016-04-26 21:47:00,48.9,,-,52,N/A,29.97,66.9,2:47 PM,,10.0,Variable,3.5,0,Los Angeles,California,90001
15,Clear,2016-04-26 22:47:00,48.9,,-,52,N/A,29.96,66.9,3:47 PM,,10.0,WSW,3.5,250,Los Angeles,California,90001
16,Clear,2016-04-26 23:47:00,39.9,,-,36,N/A,29.95,68.0,4:47 PM,,10.0,West,6.9,270,Los Angeles,California,90001
17,Clear,2016-04-27 00:47:00,37.0,,-,33,N/A,29.95,66.9,5:47 PM,,10.0,West,9.2,280,Los Angeles,California,90001
18,Clear,2016-04-27 01:47:00,36.0,,-,34,N/A,29.95,64.9,6:47 PM,,10.0,Variable,3.5,0,Los Angeles,California,90001
19,Clear,2016-04-27 02:47:00,37.9,,-,41,N/A,29.94,62.1,7:47 PM,,10.0,Variable,3.5,0,Los Angeles,California,90001
20,Clear,2016-04-27 03:47:00,48.0,,-,64,N/A,29.95,60.1,8:47 PM,,10.0,Calm,Calm,0,Los Angeles,California,90001
21,Clear,2016-04-27 04:47:00,46.9,,-,64,N/A,29.95,59.0,9:47 PM,,10.0,Calm,Calm,0,Los Angeles,California,90001
22,Clear,2016-04-27 05:47:00,48.0,,-,70,N/A,29.94,57.9,10:47 PM,,10.0,Calm,Calm,0,Los Angeles,California,90001
23,Clear,2016-04-27 06:47:00,48.9,,-,72,N/A,29.94,57.9,11:47 PM,,10.0,Calm,Calm,0,Los Angeles,California,90001
0,Clear,2016-04-27 07:47:00,48.9,,-,74,N/A,29.94,57.0,12:47 AM,,10.0,Calm,Calm,0,Los Angeles,California,90001
1,Clear,2016-04-27 08:47:00,50.0,,-,75,N/A,29.92,57.9,1:47 AM,,10.0,Calm,Calm,0,Los Angeles,California,90001
2,Clear,2016-04-27 09:47:00,48.9,,-,72,N/A,29.91,57.9,2:47 AM,,9.0,Calm,Calm,0,Los Angeles,California,90001
3,Clear,2016-04-27 10:47:00,48.9,,-,74,N/A,29.90,57.0,3:47 AM,,8.0,Calm,Calm,0,Los Angeles,California,90001
4,Clear,2016-04-27 11:47:00,48.9,,-,77,N/A,29.89,55.9,4:47 AM,,10.0,Calm,Calm,0,Los Angeles,California,90001
5,Clear,2016-04-27 12:47:00,48.9,,-,80,N/A,29.89,55.0,5:47 AM,,10.0,Calm,Calm,0,Los Angeles,California,90001
6,Clear,2016-04-27 13:47:00,48.0,,-,72,N/A,29.90,57.0,6:47 AM,,10.0,Calm,Calm,0,Los Angeles,California,90001
7,Clear,2016-04-27 14:47:00,46.9,,-,64,N/A,29.90,59.0,7:47 AM,,10.0,East,4.6,90,Los Angeles,California,90001
8,Clear,2016-04-27 15:47:00,46.9,,-,58,N/A,29.89,62.1,8:47 AM,,10.0,Calm,Calm,0,Los Angeles,California,90001
9,Clear,2016-04-27 16:47:00,48.0,,-,52,N/A,29.89,66.0,9:47 AM,,10.0,Calm,Calm,0,Los Angeles,California,90001
10,Clear,2016-04-27 17:47:00,46.0,,-,44,N/A,29.88,69.1,10:47 AM,,10.0,Variable,3.5,0,Los Angeles,California,90001
11,Clear,2016-04-27 18:47:00,50.0,,-,51,N/A,29.86,69.1,11:47 AM,,10.0,Variable,5.8,0,Los Angeles,California,90001
12,Clear,2016-04-27 19:47:00,51.1,,-,53,N/A,29.85,69.1,12:47 PM,,10.0,Variable,3.5,0,Los Angeles,California,90001
13,Clear,2016-04-27 20:47:00,48.9,,17.3,50,N/A,29.84,68.0,1:47 PM,,10.0,West,9.2,260,Los Angeles,California,90001
14,Clear,2016-04-27 21:47:00,43.0,,-,42,N/A,29.82,66.9,2:47 PM,,10.0,Variable,4.6,0,Los Angeles,California,90001
15,Clear,2016-04-27 22:47:00,45.0,,-,45,N/A,29.80,66.9,3:47 PM,,10.0,West,6.9,280,Los Angeles,California,90001
16,Clear,2016-04-27 23:47:00,45.0,,18.4,47,N/A,29.78,66.0,4:47 PM,,10.0,West,8.1,260,Los Angeles,California,90001
17,Clear,2016-04-28 00:47:00,51.1,,-,61,N/A,29.75,64.9,5:47 PM,,10.0,Variable,4.6,0,Los Angeles,California,90001
18,Partly Cloudy,2016-04-28 01:47:00,52.0,,-,67,N/A,29.74,63.0,6:47 PM,,10.0,Variable,4.6,0,Los Angeles,California,90001
19,Partly Cloudy,2016-04-28 02:47:00,52.0,,-,75,N/A,29.74,60.1,7:47 PM,,10.0,Calm,Calm,0,Los Angeles,California,90001
20,Clear,2016-04-28 03:47:00,51.1,,-,75,N/A,29.72,59.0,8:47 PM,,10.0,Calm,Calm,0,Los Angeles,California,90001
21,Clear,2016-04-28 04:47:00,50.0,,-,69,N/A,29.73,60.1,9:47 PM,,10.0,East,4.6,90,Los Angeles,California,90001
22,Clear,2016-04-28 05:47:00,48.0,,-,64,N/A,29.73,60.1,10:47 PM,,10.0,ESE,4.6,110,Los Angeles,California,90001
23,Clear,2016-04-28 06:47:00,46.9,,-,64,N/A,29.73,59.0,11:47 PM,,10.0,Calm,Calm,0,Los Angeles,California,90001
0,Mostly Cloudy,2016-04-28 07:47:00,45.0,,-,60,N/A,29.74,59.0,12:47 AM,,10.0,Variable,4.6,0,Los Angeles,California,90001
1,Partly Cloudy,2016-04-28 08:47:00,44.1,,-,60,N/A,29.75,57.9,1:47 AM,,10.0,Calm,Calm,0,Los Angeles,California,90001
2,Clear,2016-04-28 09:47:00,44.1,,-,62,N/A,29.75,57.0,2:47 AM,,10.0,ESE,3.5,110,Los Angeles,California,90001
3,Clear,2016-04-28 10:47:00,46.0,,-,69,N/A,29.76,55.9,3:47 AM,,10.0,Calm,Calm,0,Los Angeles,California,90001
4,Clear,2016-04-28 11:47:00,46.9,,-,72,N/A,29.77,55.9,4:47 AM,,10.0,Variable,4.6,0,Los Angeles,California,90001
5,Mostly Cloudy,2016-04-28 12:03:00,46.9,,-,72,N/A,29.77,55.9,5:03 AM,,10.0,East,5.8,100,Los Angeles,California,90001
6,Scattered Clouds,2016-04-28 12:32:00,46.9,,-,74,N/A,29.78,55.0,5:32 AM,,10.0,East,4.6,100,Los Angeles,California,90001
7,Mostly Cloudy,2016-04-28 12:47:00,46.9,,-,74,N/A,29.78,55.0,5:47 AM,,10.0,East,4.6,90,Los Angeles,California,90001
8,Scattered Clouds,2016-04-28 12:55:00,46.9,,-,74,N/A,29.78,55.0,5:55 AM,,10.0,East,4.6,100,Los Angeles,California,90001
9,Mostly Cloudy,2016-04-28 12:58:00,46.9,,-,74,N/A,29.79,55.0,5:58 AM,,10.0,East,4.6,100,Los Angeles,California,90001
10,Mostly Cloudy,2016-04-28 13:47:00,48.0,,-,75,N/A,29.81,55.9,6:47 AM,,9.0,East,3.5,100,Los Angeles,California,90001
11,Scattered Clouds,2016-04-28 13:50:00,48.0,,-,75,N/A,29.81,55.9,6:50 AM,,9.0,ESE,3.5,110,Los Angeles,California,90001
12,Clear,2016-04-28 14:47:00,48.0,,-,70,N/A,29.83,57.9,7:47 AM,,10.0,East,4.6,100,Los Angeles,California,90001
13,Clear,2016-04-28 15:47:00,46.9,,-,62,N/A,29.83,60.1,8:47 AM,,10.0,Calm,Calm,0,Los Angeles,California,90001
14,Clear,2016-04-28 16:47:00,46.0,,-,54,N/A,29.83,63.0,9:47 AM,,10.0,SSE,3.5,160,Los Angeles,California,90001
15,Clear,2016-04-28 17:47:00,46.9,,-,47,N/A,29.83,68.0,10:47 AM,,10.0,Calm,Calm,0,Los Angeles,California,90001
16,Partly Cloudy,2016-04-28 18:47:00,48.0,,-,47,N/A,29.84,69.1,11:47 AM,,10.0,North,-9999.0,0,Los Angeles,California,90001
17,Clear,2016-04-28 19:47:00,46.0,,-,45,N/A,29.84,68.0,12:47 PM,,10.0,North,-9999.0,0,Los Angeles,California,90001
18,Clear,2016-04-28 20:47:00,43.0,,-,40,N/A,29.84,68.0,1:47 PM,,10.0,Variable,3.5,0,Los Angeles,California,90001
19,Clear,2016-04-28 21:47:00,39.9,,-,37,N/A,29.84,66.9,2:47 PM,,10.0,Variable,3.5,0,Los Angeles,California,90001
20,Clear,2016-04-28 22:47:00,46.9,,-,50,N/A,29.84,66.0,3:47 PM,,10.0,North,-9999.0,0,Los Angeles,California,90001
21,Clear,2016-04-28 23:47:00,48.9,,-,58,N/A,29.85,64.0,4:47 PM,,10.0,Variable,5.8,0,Los Angeles,California,90001
22,Clear,2016-04-29 00:47:00,48.9,,-,58,N/A,29.86,64.0,5:47 PM,,10.0,Variable,3.5,0,Los Angeles,California,90001
23,Clear,2016-04-29 01:47:00,50.0,,-,65,N/A,29.87,62.1,6:47 PM,,10.0,Variable,3.5,0,Los Angeles,California,90001
24,Clear,2016-04-29 02:47:00,50.0,,-,72,N/A,29.88,59.0,7:47 PM,,10.0,WSW,3.5,250,Los Angeles,California,90001
25,Clear,2016-04-29 03:47:00,50.0,,-,75,N/A,29.91,57.9,8:47 PM,,10.0,West,4.6,280,Los Angeles,California,90001
26,Clear,2016-04-29 04:47:00,50.0,,-,75,N/A,29.94,57.9,9:47 PM,,10.0,Calm,Calm,0,Los Angeles,California,90001
27,Clear,2016-04-29 05:47:00,50.0,,-,77,N/A,29.95,57.0,10:47 PM,,10.0,Calm,Calm,0,Los Angeles,California,90001
28,Clear,2016-04-29 06:47:00,50.0,,-,75,N/A,29.96,57.9,11:47 PM,,10.0,Calm,Calm,0,Los Angeles,California,90001
0,Partly Cloudy,2016-04-29 07:47:00,50.0,,-,77,N/A,29.96,57.0,12:47 AM,,10.0,Calm,Calm,0,Los Angeles,California,90001
1,Partly Cloudy,2016-04-29 08:47:00,51.1,,-,78,N/A,29.98,57.9,1:47 AM,,10.0,Calm,Calm,0,Los Angeles,California,90001
2,Mostly Cloudy,2016-04-29 08:57:00,51.1,,-,78,N/A,29.98,57.9,1:57 AM,,10.0,Calm,Calm,0,Los Angeles,California,90001
3,Mostly Cloudy,2016-04-29 09:47:00,51.1,,-,78,N/A,29.97,57.9,2:47 AM,,10.0,Variable,3.5,0,Los Angeles,California,90001
4,Scattered Clouds,2016-04-29 09:56:00,51.1,,-,78,N/A,29.97,57.9,2:56 AM,,10.0,Variable,3.5,0,Los Angeles,California,90001
5,Scattered Clouds,2016-04-29 10:47:00,50.0,,-,75,N/A,29.97,57.9,3:47 AM,,10.0,ESE,3.5,110,Los Angeles,California,90001
6,Mostly Cloudy,2016-04-29 10:59:00,50.0,,-,75,N/A,29.97,57.9,3:59 AM,,10.0,ESE,3.5,110,Los Angeles,California,90001
7,Overcast,2016-04-29 11:47:00,50.0,,-,75,N/A,29.98,57.9,4:47 AM,,10.0,Variable,3.5,0,Los Angeles,California,90001
8,Mostly Cloudy,2016-04-29 12:47:00,48.9,,-,72,N/A,29.98,57.9,5:47 AM,,10.0,Variable,3.5,0,Los Angeles,California,90001
9,Overcast,2016-04-29 13:47:00,48.9,,-,69,N/A,29.99,59.0,6:47 AM,,10.0,ESE,3.5,120,Los Angeles,California,90001
10,Overcast,2016-04-29 14:47:00,48.9,,-,67,N/A,30.01,60.1,7:47 AM,,10.0,Calm,Calm,0,Los Angeles,California,90001
11,Overcast,2016-04-29 15:47:00,48.0,,-,64,N/A,30.03,60.1,8:47 AM,,10.0,Variable,3.5,0,Los Angeles,California,90001
12,Mostly Cloudy,2016-04-29 16:47:00,48.0,,-,58,N/A,30.03,63.0,9:47 AM,,10.0,Calm,Calm,0,Los Angeles,California,90001
13,Mostly Cloudy,2016-04-29 17:47:00,48.9,,-,54,N/A,30.02,66.0,10:47 AM,,10.0,Variable,3.5,0,Los Angeles,California,90001
14,Scattered Clouds,2016-04-29 18:47:00,51.1,,-,55,N/A,30.02,68.0,11:47 AM,,10.0,West,4.6,260,Los Angeles,California,90001
15,Mostly Cloudy,2016-04-29 19:47:00,51.1,,-,57,N/A,30.00,66.9,12:47 PM,,10.0,Calm,Calm,0,Los Angeles,California,90001
16,Clear,2016-04-29 20:47:00,50.0,,-,54,N/A,29.98,66.9,1:47 PM,,10.0,WSW,5.8,250,Los Angeles,California,90001
17,Clear,2016-04-29 21:47:00,51.1,,-,57,N/A,29.97,66.9,2:47 PM,,10.0,WSW,5.8,250,Los Angeles,California,90001
18,Partly Cloudy,2016-04-29 22:47:00,53.1,,-,63,N/A,29.95,66.0,3:47 PM,,10.0,Variable,3.5,0,Los Angeles,California,90001
19,Partly Cloudy,2016-04-29 23:47:00,51.1,,-,63,N/A,29.94,64.0,4:47 PM,,10.0,WSW,4.6,250,Los Angeles,California,90001
20,Clear,2016-04-30 00:47:00,51.1,,-,65,N/A,29.92,63.0,5:47 PM,,10.0,Variable,4.6,0,Los Angeles,California,90001
21,Clear,2016-04-30 01:47:00,51.1,,-,67,N/A,29.91,62.1,6:47 PM,,10.0,Variable,3.5,0,Los Angeles,California,90001
22,Clear,2016-04-30 02:47:00,51.1,,-,75,N/A,29.91,59.0,7:47 PM,,10.0,Calm,Calm,0,Los Angeles,California,90001
23,Clear,2016-04-30 03:47:00,50.0,,-,75,N/A,29.91,57.9,8:47 PM,,10.0,Calm,Calm,0,Los Angeles,California,90001
24,Clear,2016-04-30 04:47:00,50.0,,-,75,N/A,29.91,57.9,9:47 PM,,10.0,SSE,3.5,160,Los Angeles,California,90001
25,Clear,2016-04-30 05:47:00,50.0,,-,75,N/A,29.89,57.9,10:47 PM,,10.0,Variable,3.5,0,Los Angeles,California,90001
26,Clear,2016-04-30 06:47:00,51.1,,-,81,N/A,29.89,57.0,11:47 PM,,10.0,Variable,3.5,0,Los Angeles,California,90001
27,Mostly Cloudy,2016-04-30 06:59:00,51.1,,-,81,N/A,29.89,57.0,11:59 PM,,10.0,Calm,Calm,0,Los Angeles,California,90001
0,Scattered Clouds,2016-04-30 07:26:00,50.0,,-,80,N/A,29.88,55.9,12:26 AM,,10.0,Variable,3.5,0,Los Angeles,California,90001
1,Clear,2016-04-30 07:47:00,50.0,,-,80,N/A,29.87,55.9,12:47 AM,,10.0,Calm,Calm,0,Los Angeles,California,90001
2,Mostly Cloudy,2016-04-30 08:24:00,50.0,,-,80,N/A,29.87,55.9,1:24 AM,,10.0,Calm,Calm,0,Los Angeles,California,90001
3,Overcast,2016-04-30 08:47:00,50.0,,-,80,N/A,29.86,55.9,1:47 AM,,10.0,Calm,Calm,0,Los Angeles,California,90001
4,Overcast,2016-04-30 09:47:00,51.1,,-,81,N/A,29.84,57.0,2:47 AM,,10.0,Calm,Calm,0,Los Angeles,California,90001
5,Overcast,2016-04-30 10:15:00,51.1,,-,81,N/A,29.83,57.0,3:15 AM,,10.0,Calm,Calm,0,Los Angeles,California,90001
6,Overcast,2016-04-30 10:33:00,51.1,,-,81,N/A,29.84,57.0,3:33 AM,,10.0,Calm,Calm,0,Los Angeles,California,90001
7,Overcast,2016-04-30 10:47:00,51.1,,-,81,N/A,29.83,57.0,3:47 AM,,10.0,Calm,Calm,0,Los Angeles,California,90001
8,Overcast,2016-04-30 11:47:00,50.0,,-,77,N/A,29.82,57.0,4:47 AM,,8.0,Calm,Calm,0,Los Angeles,California,90001
9,Overcast,2016-04-30 12:42:00,50.0,,-,77,N/A,29.82,57.0,5:42 AM,,10.0,Calm,Calm,0,Los Angeles,California,90001
10,Overcast,2016-04-30 12:47:00,50.0,,-,77,N/A,29.81,57.0,5:47 AM,,10.0,Calm,Calm,0,Los Angeles,California,90001
11,Overcast,2016-04-30 13:37:00,50.0,,-,75,N/A,29.83,57.9,6:37 AM,,10.0,Calm,Calm,0,Los Angeles,California,90001
12,Overcast,2016-04-30 13:44:00,50.0,,-,75,N/A,29.83,57.9,6:44 AM,,10.0,Calm,Calm,0,Los Angeles,California,90001
13,Overcast,2016-04-30 13:47:00,50.0,,-,75,N/A,29.83,57.9,6:47 AM,,10.0,Calm,Calm,0,Los Angeles,California,90001
14,Mostly Cloudy,2016-04-30 14:32:00,48.9,,-,72,N/A,29.84,57.9,7:32 AM,,10.0,Calm,Calm,0,Los Angeles,California,90001
15,Mostly Cloudy,2016-04-30 14:47:00,50.0,,-,72,N/A,29.83,59.0,7:47 AM,,10.0,Calm,Calm,0,Los Angeles,California,90001
16,Scattered Clouds,2016-04-30 14:54:00,50.0,,-,72,N/A,29.84,59.0,7:54 AM,,10.0,Calm,Calm,0,Los Angeles,California,90001
17,Mostly Cloudy,2016-04-30 15:39:00,50.0,,-,67,N/A,29.84,61.0,8:39 AM,,10.0,Calm,Calm,0,Los Angeles,California,90001
18,Mostly Cloudy,2016-04-30 15:47:00,48.9,,-,67,N/A,29.84,60.1,8:47 AM,,10.0,Calm,Calm,0,Los Angeles,California,90001
19,Mostly Cloudy,2016-04-30 16:31:00,50.0,,-,63,N/A,29.84,63.0,9:31 AM,,10.0,Calm,Calm,0,Los Angeles,California,90001
20,Partly Cloudy,2016-04-30 16:47:00,50.0,,-,56,N/A,29.82,66.0,9:47 AM,,10.0,Calm,Calm,0,Los Angeles,California,90001
21,Mostly Cloudy,2016-04-30 17:47:00,48.9,,-,52,N/A,29.82,66.9,10:47 AM,,10.0,Calm,Calm,0,Los Angeles,California,90001
22,Mostly Cloudy,2016-04-30 18:47:00,50.0,,-,54,N/A,29.81,66.9,11:47 AM,,10.0,Variable,4.6,0,Los Angeles,California,90001
23,Clear,2016-04-30 19:47:00,50.0,,-,54,N/A,29.81,66.9,12:47 PM,,10.0,Variable,3.5,0,Los Angeles,California,90001
24,Clear,2016-04-30 20:47:00,48.9,,-,54,N/A,29.80,66.0,1:47 PM,,10.0,Variable,4.6,0,Los Angeles,California,90001
25,Clear,2016-04-30 21:47:00,48.9,,-,54,N/A,29.79,66.0,2:47 PM,,10.0,Variable,3.5,0,Los Angeles,California,90001
26,Clear,2016-04-30 22:47:00,48.0,,-,52,N/A,29.79,66.0,3:47 PM,,10.0,West,4.6,270,Los Angeles,California,90001
27,Clear,2016-04-30 23:47:00,48.0,,-,54,N/A,29.78,64.9,4:47 PM,,10.0,Variable,6.9,0,Los Angeles,California,90001
28,Clear,2016-05-01 00:47:00,50.0,,-,58,N/A,29.78,64.9,5:47 PM,,10.0,Variable,3.5,0,Los Angeles,California,90001
29,Partly Cloudy,2016-05-01 01:47:00,46.9,,-,56,N/A,29.80,63.0,6:47 PM,,10.0,Calm,Calm,0,Los Angeles,California,90001
30,Clear,2016-05-01 02:47:00,46.9,,-,58,N/A,29.79,62.1,7:47 PM,,10.0,Variable,4.6,0,Los Angeles,California,90001
31,Clear,2016-05-01 03:47:00,48.0,,-,62,N/A,29.81,61.0,8:47 PM,,10.0,West,5.8,270,Los Angeles,California,90001
32,Clear,2016-05-01 04:47:00,48.9,,-,67,N/A,29.83,60.1,9:47 PM,,10.0,Calm,Calm,0,Los Angeles,California,90001
33,Clear,2016-05-01 05:47:00,51.1,,-,75,N/A,29.84,59.0,10:47 PM,,10.0,Calm,Calm,0,Los Angeles,California,90001
34,Clear,2016-05-01 06:47:00,51.1,,-,75,N/A,29.84,59.0,11:47 PM,,10.0,Calm,Calm,0,Los Angeles,California,90001
0,Clear,2016-05-01 07:47:00,51.1,,-,75,N/A,29.85,59.0,12:47 AM,,10.0,Calm,Calm,0,Los Angeles,California,90001
1,Clear,2016-05-01 08:47:00,51.1,,-,78,N/A,29.84,57.9,1:47 AM,,10.0,Calm,Calm,0,Los Angeles,California,90001
2,Clear,2016-05-01 09:47:00,51.1,,-,75,N/A,29.84,59.0,2:47 AM,,10.0,East,3.5,100,Los Angeles,California,90001
3,Mostly Cloudy,2016-05-01 10:47:00,52.0,,-,78,N/A,29.84,59.0,3:47 AM,,10.0,East,3.5,100,Los Angeles,California,90001
4,Scattered Clouds,2016-05-01 11:15:00,53.1,,-,81,N/A,29.85,59.0,4:15 AM,,10.0,Calm,Calm,0,Los Angeles,California,90001
5,Mostly Cloudy,2016-05-01 11:47:00,52.0,,-,78,N/A,29.85,59.0,4:47 AM,,10.0,Calm,Calm,0,Los Angeles,California,90001
6,Scattered Clouds,2016-05-01 12:04:00,52.0,,-,78,N/A,29.85,59.0,5:04 AM,,10.0,East,3.5,100,Los Angeles,California,90001
7,Clear,2016-05-01 12:47:00,51.1,,-,78,N/A,29.86,57.9,5:47 AM,,10.0,East,3.5,90,Los Angeles,California,90001
8,Scattered Clouds,2016-05-01 13:47:00,51.1,,-,78,N/A,29.88,57.9,6:47 AM,,10.0,East,3.5,100,Los Angeles,California,90001
9,Mostly Cloudy,2016-05-01 13:51:00,51.1,,-,78,N/A,29.89,57.9,6:51 AM,,10.0,Calm,Calm,0,Los Angeles,California,90001
10,Scattered Clouds,2016-05-01 14:01:00,51.1,,-,75,N/A,29.89,59.0,7:01 AM,,10.0,Calm,Calm,0,Los Angeles,California,90001
11,Mostly Cloudy,2016-05-01 14:08:00,51.1,,-,75,N/A,29.89,59.0,7:08 AM,,10.0,East,3.5,100,Los Angeles,California,90001
12,Mostly Cloudy,2016-05-01 14:47:00,51.1,,-,70,N/A,29.90,61.0,7:47 AM,,10.0,Calm,Calm,0,Los Angeles,California,90001
13,Scattered Clouds,2016-05-01 14:55:00,51.1,,-,67,N/A,29.91,62.1,7:55 AM,,10.0,Calm,Calm,0,Los Angeles,California,90001
14,Scattered Clouds,2016-05-01 15:47:00,51.1,,-,65,N/A,29.91,63.0,8:47 AM,,10.0,Calm,Calm,0,Los Angeles,California,90001
15,Mostly Cloudy,2016-05-01 15:50:00,51.1,,-,65,N/A,29.91,63.0,8:50 AM,,10.0,Variable,4.6,0,Los Angeles,California,90001
16,Scattered Clouds,2016-05-01 16:44:00,51.1,,-,61,N/A,29.92,64.9,9:44 AM,,10.0,Variable,3.5,0,Los Angeles,California,90001
17,Scattered Clouds,2016-05-01 16:47:00,51.1,,-,59,N/A,29.92,66.0,9:47 AM,,10.0,Variable,4.6,0,Los Angeles,California,90001
18,Mostly Cloudy,2016-05-01 17:11:00,51.1,,-,59,N/A,29.92,66.0,10:11 AM,,10.0,Calm,Calm,0,Los Angeles,California,90001
19,Scattered Clouds,2016-05-01 17:16:00,51.1,,-,59,N/A,29.92,66.0,10:16 AM,,10.0,Variable,3.5,0,Los Angeles,California,90001
20,Mostly Cloudy,2016-05-01 17:29:00,50.0,,-,54,N/A,29.92,66.9,10:29 AM,,10.0,Variable,3.5,0,Los Angeles,California,90001
21,Mostly Cloudy,2016-05-01 17:33:00,51.1,,-,57,N/A,29.92,66.9,10:33 AM,,10.0,Calm,Calm,0,Los Angeles,California,90001
22,Mostly Cloudy,2016-05-01 17:47:00,51.1,,-,57,N/A,29.92,66.9,10:47 AM,,10.0,South,3.5,190,Los Angeles,California,90001
23,Clear,2016-05-01 18:47:00,51.1,,-,51,N/A,29.91,70.0,11:47 AM,,10.0,Calm,Calm,0,Los Angeles,California,90001
24,Scattered Clouds,2016-05-01 19:47:00,54.0,,-,55,N/A,29.91,71.1,12:47 PM,,10.0,Calm,Calm,0,Los Angeles,California,90001
25,Scattered Clouds,2016-05-01 20:47:00,54.0,,-,53,N/A,29.91,72.0,1:47 PM,,10.0,Variable,3.5,0,Los Angeles,California,90001
26,Clear,2016-05-01 21:47:00,53.1,,-,55,N/A,29.91,70.0,2:47 PM,,10.0,North,-9999.0,0,Los Angeles,California,90001
27,Clear,2016-05-01 22:47:00,53.1,,-,57,N/A,29.89,69.1,3:47 PM,,10.0,Variable,5.8,0,Los Angeles,California,90001
28,Clear,2016-05-01 23:47:00,54.0,,-,63,N/A,29.91,66.9,4:47 PM,,10.0,Variable,5.8,0,Los Angeles,California,90001
29,Clear,2016-05-02 00:47:00,53.1,,-,65,N/A,29.91,64.9,5:47 PM,,10.0,Variable,4.6,0,Los Angeles,California,90001
30,Clear,2016-05-02 01:47:00,53.1,,-,70,N/A,29.92,63.0,6:47 PM,,10.0,Variable,3.5,0,Los Angeles,California,90001
31,Clear,2016-05-02 02:47:00,53.1,,-,78,N/A,29.94,60.1,7:47 PM,,10.0,West,6.9,270,Los Angeles,California,90001
32,Clear,2016-05-02 03:47:00,53.1,,-,81,N/A,29.97,59.0,8:47 PM,,10.0,West,4.6,280,Los Angeles,California,90001
33,Partly Cloudy,2016-05-02 04:47:00,53.1,,-,81,N/A,30.00,59.0,9:47 PM,,10.0,Calm,Calm,0,Los Angeles,California,90001
34,Partly Cloudy,2016-05-02 05:47:00,53.1,,-,81,N/A,30.01,59.0,10:47 PM,,10.0,Calm,Calm,0,Los Angeles,California,90001
35,Scattered Clouds,2016-05-02 06:47:00,53.1,,-,84,N/A,30.01,57.9,11:47 PM,,9.0,Calm,Calm,0,Los Angeles,California,90001
0,Clear,2016-05-02 07:47:00,53.1,,-,84,N/A,30.00,57.9,12:47 AM,,9.0,Calm,Calm,0,Los Angeles,California,90001
1,Clear,2016-05-02 08:47:00,53.1,,-,84,N/A,30.00,57.9,1:47 AM,,9.0,Calm,Calm,0,Los Angeles,California,90001
2,Partly Cloudy,2016-05-02 09:47:00,53.1,,-,87,N/A,30.00,57.0,2:47 AM,,8.0,Calm,Calm,0,Los Angeles,California,90001
3,Clear,2016-05-02 10:47:00,53.1,,-,87,N/A,29.99,57.0,3:47 AM,,7.0,Calm,Calm,0,Los Angeles,California,90001
4,Partly Cloudy,2016-05-02 11:47:00,53.1,,-,90,N/A,29.99,55.9,4:47 AM,,8.0,Calm,Calm,0,Los Angeles,California,90001
5,Mostly Cloudy,2016-05-02 12:01:00,53.1,,-,90,N/A,30.00,55.9,5:01 AM,,8.0,Calm,Calm,0,Los Angeles,California,90001
6,Overcast,2016-05-02 12:47:00,53.1,,-,90,N/A,30.00,55.9,5:47 AM,,8.0,Calm,Calm,0,Los Angeles,California,90001
7,Scattered Clouds,2016-05-02 13:30:00,53.1,,-,90,N/A,30.01,55.9,6:30 AM,,7.0,Calm,Calm,0,Los Angeles,California,90001
8,Clear,2016-05-02 13:47:00,53.1,,-,87,N/A,30.01,57.0,6:47 AM,,7.0,Calm,Calm,0,Los Angeles,California,90001
9,Partly Cloudy,2016-05-02 14:47:00,53.1,,-,75,N/A,30.02,61.0,7:47 AM,,7.0,Calm,Calm,0,Los Angeles,California,90001
10,Partly Cloudy,2016-05-02 15:47:00,54.0,,-,72,N/A,30.03,63.0,8:47 AM,,8.0,Calm,Calm,0,Los Angeles,California,90001
11,Mostly Cloudy,2016-05-02 16:09:00,54.0,,-,68,N/A,30.04,64.9,9:09 AM,,8.0,Calm,Calm,0,Los Angeles,California,90001
12,Scattered Clouds,2016-05-02 16:16:00,55.0,,-,70,N/A,30.04,64.9,9:16 AM,,8.0,Calm,Calm,0,Los Angeles,California,90001
13,Clear,2016-05-02 16:47:00,55.0,,-,63,N/A,30.03,68.0,9:47 AM,,8.0,Calm,Calm,0,Los Angeles,California,90001
14,Clear,2016-05-02 17:47:00,54.0,,-,57,N/A,30.02,70.0,10:47 AM,,9.0,Calm,Calm,0,Los Angeles,California,90001
15,Clear,2016-05-02 18:47:00,55.0,,-,55,N/A,30.01,72.0,11:47 AM,,10.0,Variable,4.6,0,Los Angeles,California,90001
16,Clear,2016-05-02 19:47:00,54.0,,-,55,N/A,30.00,71.1,12:47 PM,,10.0,North,-9999.0,0,Los Angeles,California,90001
17,Clear,2016-05-02 20:47:00,54.0,,-,57,N/A,29.98,70.0,1:47 PM,,10.0,Variable,5.8,0,Los Angeles,California,90001
18,Clear,2016-05-02 21:47:00,53.1,,-,57,N/A,29.96,69.1,2:47 PM,,10.0,West,9.2,270,Los Angeles,California,90001
19,Clear,2016-05-02 22:47:00,54.0,,-,57,N/A,29.95,70.0,3:47 PM,,10.0,West,9.2,280,Los Angeles,California,90001
20,Clear,2016-05-02 23:47:00,54.0,,-,58,N/A,29.94,69.1,4:47 PM,,10.0,Variable,5.8,0,Los Angeles,California,90001
21,Clear,2016-05-03 00:47:00,54.0,,-,61,N/A,29.93,68.0,5:47 PM,,10.0,North,-9999.0,0,Los Angeles,California,90001
22,Clear,2016-05-03 01:47:00,54.0,,-,68,N/A,29.94,64.9,6:47 PM,,10.0,West,3.5,270,Los Angeles,California,90001
23,Clear,2016-05-03 02:47:00,54.0,,-,75,N/A,29.95,62.1,7:47 PM,,10.0,Calm,Calm,0,Los Angeles,California,90001
24,Clear,2016-05-03 03:47:00,53.1,,-,78,N/A,29.96,60.1,8:47 PM,,10.0,Calm,Calm,0,Los Angeles,California,90001
25,Clear,2016-05-03 04:47:00,53.1,,-,78,N/A,29.98,60.1,9:47 PM,,10.0,Calm,Calm,0,Los Angeles,California,90001
26,Clear,2016-05-03 05:47:00,53.1,,-,78,N/A,29.99,60.1,10:47 PM,,10.0,Calm,Calm,0,Los Angeles,California,90001
27,Clear,2016-05-03 06:47:00,53.1,,-,78,N/A,29.99,60.1,11:47 PM,,10.0,Calm,Calm,0,Los Angeles,California,90001
0,Clear,2016-05-03 07:47:00,53.1,,-,81,N/A,29.98,59.0,12:47 AM,,10.0,Calm,Calm,0,Los Angeles,California,90001
1,Clear,2016-05-03 08:47:00,53.1,,-,81,N/A,29.97,59.0,1:47 AM,,10.0,Calm,Calm,0,Los Angeles,California,90001
2,Clear,2016-05-03 09:47:00,53.1,,-,81,N/A,29.95,59.0,2:47 AM,,10.0,Calm,Calm,0,Los Angeles,California,90001
3,Clear,2016-05-03 10:47:00,53.1,,-,81,N/A,29.94,59.0,3:47 AM,,10.0,Calm,Calm,0,Los Angeles,California,90001
4,Clear,2016-05-03 11:47:00,53.1,,-,84,N/A,29.94,57.9,4:47 AM,,10.0,Calm,Calm,0,Los Angeles,California,90001
5,Clear,2016-05-03 12:47:00,53.1,,-,84,N/A,29.95,57.9,5:47 AM,,10.0,Calm,Calm,0,Los Angeles,California,90001
6,Clear,2016-05-03 13:47:00,55.0,,-,87,N/A,29.96,59.0,6:47 AM,,7.0,Calm,Calm,0,Los Angeles,California,90001
7,Clear,2016-05-03 14:47:00,55.9,,-,78,N/A,29.97,63.0,7:47 AM,,8.0,Calm,Calm,0,Los Angeles,California,90001
8,Clear,2016-05-03 15:47:00,55.9,,-,65,N/A,29.97,68.0,8:47 AM,,8.0,Calm,Calm,0,Los Angeles,California,90001
9,Clear,2016-05-03 16:47:00,55.0,,-,55,N/A,29.96,72.0,9:47 AM,,10.0,Calm,Calm,0,Los Angeles,California,90001
10,Clear,2016-05-03 17:47:00,57.0,,-,53,N/A,29.96,75.0,10:47 AM,,10.0,Variable,4.6,0,Los Angeles,California,90001
11,Clear,2016-05-03 18:47:00,55.9,,-,53,N/A,29.95,73.9,11:47 AM,,10.0,Variable,3.5,0,Los Angeles,California,90001
12,Clear,2016-05-03 19:47:00,55.9,,-,51,N/A,29.94,75.0,12:47 PM,,10.0,Variable,4.6,0,Los Angeles,California,90001
13,Clear,2016-05-03 20:47:00,54.0,,-,46,N/A,29.93,75.9,1:47 PM,,10.0,West,6.9,270,Los Angeles,California,90001
14,Clear,2016-05-03 21:47:00,55.0,,-,55,N/A,29.92,72.0,2:47 PM,,10.0,Variable,5.8,0,Los Angeles,California,90001
15,Clear,2016-05-03 22:47:00,53.1,,-,46,N/A,29.89,75.0,3:47 PM,,10.0,Variable,4.6,0,Los Angeles,California,90001
16,Clear,2016-05-03 23:47:00,55.9,,-,63,N/A,29.90,69.1,4:47 PM,,10.0,Variable,4.6,0,Los Angeles,California,90001
17,Clear,2016-05-04 00:47:00,55.9,,-,70,N/A,29.89,66.0,5:47 PM,,10.0,Variable,5.8,0,Los Angeles,California,90001
18,Clear,2016-05-04 01:47:00,55.0,,-,75,N/A,29.90,63.0,6:47 PM,,10.0,West,6.9,270,Los Angeles,California,90001
19,Scattered Clouds,2016-05-04 02:16:00,55.0,,-,81,N/A,29.91,61.0,7:16 PM,,9.0,West,4.6,270,Los Angeles,California,90001
20,Mostly Cloudy,2016-05-04 02:24:00,55.0,,-,81,N/A,29.91,61.0,7:24 PM,,9.0,North,-9999.0,0,Los Angeles,California,90001
21,Overcast,2016-05-04 02:47:00,54.0,,-,80,N/A,29.92,60.1,7:47 PM,,10.0,West,6.9,280,Los Angeles,California,90001
22,Overcast,2016-05-04 03:47:00,54.0,,-,80,N/A,29.94,60.1,8:47 PM,,10.0,WNW,4.6,290,Los Angeles,California,90001
23,Scattered Clouds,2016-05-04 04:53:00,54.0,,-,87,N/A,29.96,57.9,9:53 PM,,10.0,Calm,Calm,0,Los Angeles,California,90001
24,Clear,2016-05-04 05:47:00,54.0,,-,87,N/A,29.96,57.9,10:47 PM,,9.0,Calm,Calm,0,Los Angeles,California,90001
25,Clear,2016-05-04 06:47:00,54.0,,-,87,N/A,29.95,57.9,11:47 PM,,10.0,Calm,Calm,0,Los Angeles,California,90001
0,Clear,2016-05-04 07:47:00,54.0,,-,87,N/A,29.96,57.9,12:47 AM,,10.0,Calm,Calm,0,Los Angeles,California,90001
1,Clear,2016-05-04 08:47:00,53.1,,-,87,N/A,29.96,57.0,1:47 AM,,9.0,Calm,Calm,0,Los Angeles,California,90001
2,Clear,2016-05-04 09:47:00,54.0,,-,89,N/A,29.94,57.0,2:47 AM,,7.0,Calm,Calm,0,Los Angeles,California,90001
3,Mostly Cloudy,2016-05-04 10:03:00,54.0,,-,89,N/A,29.94,57.0,3:03 AM,,6.0,Calm,Calm,0,Los Angeles,California,90001
4,Overcast,2016-05-04 10:16:00,54.0,,-,93,N/A,29.94,55.9,3:16 AM,,5.0,Calm,Calm,0,Los Angeles,California,90001
5,Overcast,2016-05-04 10:47:00,54.0,,-,89,N/A,29.92,57.0,3:47 AM,,7.0,Calm,Calm,0,Los Angeles,California,90001
6,Overcast,2016-05-04 11:47:00,54.0,,-,89,N/A,29.92,57.0,4:47 AM,,8.0,Calm,Calm,0,Los Angeles,California,90001
7,Overcast,2016-05-04 11:59:00,54.0,,-,89,N/A,29.93,57.0,4:59 AM,,8.0,Calm,Calm,0,Los Angeles,California,90001
8,Overcast,2016-05-04 12:47:00,55.0,,-,90,N/A,29.93,57.9,5:47 AM,,4.0,Calm,Calm,0,Los Angeles,California,90001
9,Haze,2016-05-04 13:47:00,54.0,,-,83,N/A,29.94,59.0,6:47 AM,,5.0,Calm,Calm,0,Los Angeles,California,90001
10,Haze,2016-05-04 14:07:00,54.0,,-,83,N/A,29.94,59.0,7:07 AM,,4.0,SE,3.5,140,Los Angeles,California,90001
11,Haze,2016-05-04 14:41:00,55.0,,-,83,N/A,29.95,60.1,7:41 AM,,2.5,Calm,Calm,0,Los Angeles,California,90001
12,Haze,2016-05-04 14:47:00,55.0,,-,83,N/A,29.95,60.1,7:47 AM,,3.0,Calm,Calm,0,Los Angeles,California,90001
13,Haze,2016-05-04 15:47:00,55.0,,-,83,N/A,29.97,60.1,8:47 AM,,3.0,Calm,Calm,0,Los Angeles,California,90001
14,Haze,2016-05-04 16:41:00,55.0,,-,83,N/A,29.96,60.1,9:41 AM,,5.0,Variable,3.5,0,Los Angeles,California,90001
15,Overcast,2016-05-04 16:47:00,55.0,,-,87,N/A,29.96,59.0,9:47 AM,,5.0,WNW,3.5,290,Los Angeles,California,90001
16,Haze,2016-05-04 17:22:00,55.0,,-,81,N/A,29.96,61.0,10:22 AM,,6.0,Calm,Calm,0,Los Angeles,California,90001
17,Haze,2016-05-04 17:47:00,55.0,,-,81,N/A,29.96,61.0,10:47 AM,,6.0,Calm,Calm,0,Los Angeles,California,90001
18,Haze,2016-05-04 18:27:00,55.0,,-,75,N/A,29.95,63.0,11:27 AM,,6.0,Calm,Calm,0,Los Angeles,California,90001
19,Haze,2016-05-04 18:47:00,55.0,,-,70,N/A,29.94,64.9,11:47 AM,,6.0,Calm,Calm,0,Los Angeles,California,90001
20,Mostly Cloudy,2016-05-04 19:47:00,55.9,,-,63,N/A,29.92,69.1,12:47 PM,,8.0,Calm,Calm,0,Los Angeles,California,90001
21,Scattered Clouds,2016-05-04 20:02:00,55.9,,-,63,N/A,29.92,69.1,1:02 PM,,9.0,Variable,3.5,0,Los Angeles,California,90001
22,Scattered Clouds,2016-05-04 20:47:00,54.0,,-,63,N/A,29.92,66.9,1:47 PM,,10.0,West,8.1,260,Los Angeles,California,90001
23,Mostly Cloudy,2016-05-04 21:09:00,54.0,,-,65,N/A,29.92,66.0,2:09 PM,,10.0,Variable,5.8,0,Los Angeles,California,90001
24,Scattered Clouds,2016-05-04 21:15:00,54.0,,-,65,N/A,29.92,66.0,2:15 PM,,10.0,Variable,4.6,0,Los Angeles,California,90001
25,Mostly Cloudy,2016-05-04 21:22:00,54.0,,-,63,N/A,29.92,66.9,2:22 PM,,10.0,North,-9999.0,0,Los Angeles,California,90001
26,Overcast,2016-05-04 21:47:00,54.0,,-,65,N/A,29.92,66.0,2:47 PM,,10.0,Variable,5.8,0,Los Angeles,California,90001
27,Mostly Cloudy,2016-05-04 22:47:00,54.0,,-,68,N/A,29.90,64.9,3:47 PM,,10.0,Variable,4.6,0,Los Angeles,California,90001
28,Scattered Clouds,2016-05-04 22:57:00,54.0,,-,65,N/A,29.90,66.0,3:57 PM,,10.0,Variable,4.6,0,Los Angeles,California,90001
29,Clear,2016-05-04 23:47:00,54.0,,-,63,N/A,29.88,66.9,4:47 PM,,10.0,Variable,4.6,0,Los Angeles,California,90001
30,Clear,2016-05-05 00:47:00,52.0,,-,65,N/A,29.89,64.0,5:47 PM,,10.0,Variable,3.5,0,Los Angeles,California,90001
31,Clear,2016-05-05 01:47:00,52.0,,-,70,N/A,29.89,62.1,6:47 PM,,10.0,Variable,3.5,0,Los Angeles,California,90001
32,Partly Cloudy,2016-05-05 02:47:00,52.0,,-,72,N/A,29.91,61.0,7:47 PM,,10.0,West,6.9,270,Los Angeles,California,90001
33,Mostly Cloudy,2016-05-05 02:58:00,52.0,,-,72,N/A,29.92,61.0,7:58 PM,,10.0,Variable,4.6,0,Los Angeles,California,90001
34,Scattered Clouds,2016-05-05 03:28:00,52.0,,-,75,N/A,29.92,60.1,8:28 PM,,10.0,West,4.6,270,Los Angeles,California,90001
35,Scattered Clouds,2016-05-05 03:47:00,52.0,,-,75,N/A,29.93,60.1,8:47 PM,,10.0,West,4.6,270,Los Angeles,California,90001
36,Mostly Cloudy,2016-05-05 04:23:00,52.0,,-,75,N/A,29.94,60.1,9:23 PM,,10.0,Calm,Calm,0,Los Angeles,California,90001
37,Overcast,2016-05-05 04:47:00,52.0,,-,75,N/A,29.94,60.1,9:47 PM,,10.0,Variable,3.5,0,Los Angeles,California,90001
38,Overcast,2016-05-05 05:04:00,52.0,,-,72,N/A,29.94,61.0,10:04 PM,,10.0,Variable,4.6,0,Los Angeles,California,90001
39,Overcast,2016-05-05 05:47:00,52.0,,-,72,N/A,29.94,61.0,10:47 PM,,10.0,Calm,Calm,0,Los Angeles,California,90001
40,Overcast,2016-05-05 06:47:00,52.0,,-,72,N/A,29.94,61.0,11:47 PM,,10.0,Variable,3.5,0,Los Angeles,California,90001
0,Overcast,2016-05-05 07:47:00,52.0,,-,75,N/A,29.92,60.1,12:47 AM,,10.0,Variable,3.5,0,Los Angeles,California,90001
1,Overcast,2016-05-05 08:47:00,52.0,,-,75,N/A,29.91,60.1,1:47 AM,,10.0,West,3.5,270,Los Angeles,California,90001
2,Overcast,2016-05-05 09:47:00,53.1,,-,81,N/A,29.90,59.0,2:47 AM,,10.0,Calm,Calm,0,Los Angeles,California,90001
3,Overcast,2016-05-05 10:47:00,52.0,,-,78,N/A,29.91,59.0,3:47 AM,,10.0,Calm,Calm,0,Los Angeles,California,90001
4,Overcast,2016-05-05 11:47:00,52.0,,-,75,N/A,29.90,60.1,4:47 AM,,10.0,Calm,Calm,0,Los Angeles,California,90001
5,Overcast,2016-05-05 12:47:00,52.0,,-,75,N/A,29.89,60.1,5:47 AM,,10.0,Calm,Calm,0,Los Angeles,California,90001
6,Overcast,2016-05-05 13:47:00,52.0,,-,75,N/A,29.90,60.1,6:47 AM,,10.0,West,3.5,270,Los Angeles,California,90001
7,Overcast,2016-05-05 14:21:00,52.0,,-,72,N/A,29.91,61.0,7:21 AM,,10.0,Calm,Calm,0,Los Angeles,California,90001
8,Overcast,2016-05-05 14:35:00,53.1,,-,75,N/A,29.91,61.0,7:35 AM,,10.0,Calm,Calm,0,Los Angeles,California,90001
9,Overcast,2016-05-05 14:42:00,53.1,,-,75,N/A,29.91,61.0,7:42 AM,,10.0,Calm,Calm,0,Los Angeles,California,90001
10,Overcast,2016-05-05 14:47:00,53.1,,-,75,N/A,29.91,61.0,7:47 AM,,10.0,Calm,Calm,0,Los Angeles,California,90001
11,Overcast,2016-05-05 15:26:00,52.0,,-,70,N/A,29.91,62.1,8:26 AM,,10.0,Calm,Calm,0,Los Angeles,California,90001
12,Overcast,2016-05-05 15:47:00,52.0,,-,70,N/A,29.91,62.1,8:47 AM,,10.0,Calm,Calm,0,Los Angeles,California,90001
13,Overcast,2016-05-05 16:43:00,52.0,,-,67,N/A,29.91,63.0,9:43 AM,,10.0,Variable,3.5,0,Los Angeles,California,90001
14,Overcast,2016-05-05 16:47:00,53.1,,-,67,N/A,29.91,64.0,9:47 AM,,10.0,Calm,Calm,0,Los Angeles,California,90001
15,Overcast,2016-05-05 17:03:00,52.0,,-,65,N/A,29.90,64.0,10:03 AM,,10.0,WSW,3.5,240,Los Angeles,California,90001
16,Overcast,2016-05-05 17:47:00,53.1,,-,65,N/A,29.90,64.9,10:47 AM,,10.0,Calm,Calm,0,Los Angeles,California,90001
17,Overcast,2016-05-05 18:08:00,52.0,,-,63,N/A,29.91,64.9,11:08 AM,,10.0,Calm,Calm,0,Los Angeles,California,90001
18,Overcast,2016-05-05 18:47:00,51.1,,-,61,N/A,29.91,64.9,11:47 AM,,10.0,WSW,4.6,250,Los Angeles,California,90001
19,Overcast,2016-05-05 19:47:00,51.1,,-,61,N/A,29.91,64.9,12:47 PM,,10.0,Variable,4.6,0,Los Angeles,California,90001
20,Overcast,2016-05-05 20:47:00,48.9,,-,54,N/A,29.91,66.0,1:47 PM,,10.0,Calm,Calm,0,Los Angeles,California,90001
21,Overcast,2016-05-05 21:47:00,46.9,,-,47,N/A,29.90,68.0,2:47 PM,,10.0,Variable,3.5,0,Los Angeles,California,90001
22,Overcast,2016-05-05 22:47:00,46.9,,-,47,N/A,29.88,68.0,3:47 PM,,10.0,Calm,Calm,0,Los Angeles,California,90001
23,Overcast,2016-05-05 23:47:00,48.0,,-,52,N/A,29.87,66.0,4:47 PM,,10.0,West,4.6,260,Los Angeles,California,90001
24,Overcast,2016-05-06 00:47:00,46.0,,-,50,N/A,29.86,64.9,5:47 PM,,10.0,Variable,4.6,0,Los Angeles,California,90001
25,Overcast,2016-05-06 01:47:00,46.0,,-,52,N/A,29.85,64.0,6:47 PM,,10.0,Calm,Calm,0,Los Angeles,California,90001
26,Overcast,2016-05-06 02:47:00,48.0,,-,58,N/A,29.85,63.0,7:47 PM,,10.0,Variable,4.6,0,Los Angeles,California,90001
27,Overcast,2016-05-06 03:47:00,48.9,,-,62,N/A,29.86,62.1,8:47 PM,,10.0,Variable,5.8,0,Los Angeles,California,90001
28,Overcast,2016-05-06 04:47:00,50.0,,-,65,N/A,29.88,62.1,9:47 PM,,10.0,Calm,Calm,0,Los Angeles,California,90001
29,Overcast,2016-05-06 05:47:00,51.1,,-,70,N/A,29.88,61.0,10:47 PM,,10.0,Calm,Calm,0,Los Angeles,California,90001
30,Rain,2016-05-06 06:47:00,53.1,Rain,-,81,0.01,29.88,59.0,11:47 PM,,6.0,Calm,Calm,0,Los Angeles,California,90001
0,Light Rain,2016-05-06 07:47:00,52.0,Rain,-,81,0.04,29.86,57.9,12:47 AM,,10.0,Calm,Calm,0,Los Angeles,California,90001
1,Overcast,2016-05-06 08:47:00,54.0,,-,87,0.00,29.86,57.9,1:47 AM,,10.0,Calm,Calm,0,Los Angeles,California,90001
2,Overcast,2016-05-06 09:47:00,54.0,,-,89,N/A,29.83,57.0,2:47 AM,,10.0,Calm,Calm,0,Los Angeles,California,90001
3,Overcast,2016-05-06 10:47:00,54.0,,-,87,N/A,29.82,57.9,3:47 AM,,10.0,Calm,Calm,0,Los Angeles,California,90001
4,Overcast,2016-05-06 11:47:00,54.0,,-,87,N/A,29.82,57.9,4:47 AM,,10.0,Calm,Calm,0,Los Angeles,California,90001
5,Overcast,2016-05-06 12:47:00,54.0,,-,87,N/A,29.83,57.9,5:47 AM,,10.0,Calm,Calm,0,Los Angeles,California,90001
6,Overcast,2016-05-06 13:47:00,54.0,,-,83,N/A,29.85,59.0,6:47 AM,,10.0,Calm,Calm,0,Los Angeles,California,90001
7,Overcast,2016-05-06 14:47:00,54.0,,-,80,N/A,29.86,60.1,7:47 AM,,10.0,Calm,Calm,0,Los Angeles,California,90001
8,Overcast,2016-05-06 15:38:00,53.1,,-,75,N/A,29.87,61.0,8:38 AM,,10.0,Calm,Calm,0,Los Angeles,California,90001
9,Overcast,2016-05-06 15:47:00,53.1,,-,75,N/A,29.87,61.0,8:47 AM,,10.0,Calm,Calm,0,Los Angeles,California,90001
10,Overcast,2016-05-06 16:16:00,53.1,,-,72,N/A,29.87,62.1,9:16 AM,,10.0,Calm,Calm,0,Los Angeles,California,90001
11,Overcast,2016-05-06 16:47:00,53.1,,-,67,N/A,29.88,64.0,9:47 AM,,10.0,Calm,Calm,0,Los Angeles,California,90001
12,Light Rain,2016-05-06 17:13:00,52.0,Rain,-,67,0.00,29.88,63.0,10:13 AM,,10.0,Calm,Calm,0,Los Angeles,California,90001
13,Overcast,2016-05-06 17:47:00,51.1,,-,63,0.00,29.88,64.0,10:47 AM,,10.0,Calm,Calm,0,Los Angeles,California,90001
14,Mostly Cloudy,2016-05-06 18:47:00,53.1,,-,70,N/A,29.90,63.0,11:47 AM,,10.0,North,-9999.0,0,Los Angeles,California,90001
15,Overcast,2016-05-06 19:47:00,53.1,,-,70,N/A,29.89,63.0,12:47 PM,,10.0,Variable,4.6,0,Los Angeles,California,90001
16,Overcast,2016-05-06 20:47:00,53.1,,-,67,0.00,29.88,64.0,1:47 PM,,10.0,North,-9999.0,0,Los Angeles,California,90001
17,Overcast,2016-05-06 21:47:00,51.1,,-,61,N/A,29.88,64.9,2:47 PM,,10.0,Variable,3.5,0,Los Angeles,California,90001
18,Overcast,2016-05-06 22:47:00,51.1,,-,61,N/A,29.87,64.9,3:47 PM,,10.0,North,-9999.0,0,Los Angeles,California,90001
19,Overcast,2016-05-06 23:47:00,52.0,,-,63,N/A,29.87,64.9,4:47 PM,,10.0,Variable,5.8,0,Los Angeles,California,90001
20,Overcast,2016-05-07 00:14:00,52.0,,-,63,N/A,29.88,64.9,5:14 PM,,10.0,Variable,3.5,0,Los Angeles,California,90001
21,Overcast,2016-05-07 00:25:00,52.0,,-,63,N/A,29.88,64.9,5:25 PM,,10.0,Variable,4.6,0,Los Angeles,California,90001
22,Overcast,2016-05-07 00:47:00,52.0,,-,65,N/A,29.88,64.0,5:47 PM,,10.0,Variable,3.5,0,Los Angeles,California,90001
23,Mostly Cloudy,2016-05-07 01:32:00,52.0,,-,65,N/A,29.88,64.0,6:32 PM,,10.0,Calm,Calm,0,Los Angeles,California,90001
24,Mostly Cloudy,2016-05-07 01:41:00,52.0,,-,65,N/A,29.88,64.0,6:41 PM,,10.0,Calm,Calm,0,Los Angeles,California,90001
25,Scattered Clouds,2016-05-07 01:47:00,51.1,,-,65,N/A,29.88,63.0,6:47 PM,,10.0,Variable,4.6,0,Los Angeles,California,90001
26,Clear,2016-05-07 02:47:00,52.0,,-,72,N/A,29.89,61.0,7:47 PM,,10.0,Calm,Calm,0,Los Angeles,California,90001
27,Mostly Cloudy,2016-05-07 03:47:00,52.0,,-,75,N/A,29.91,60.1,8:47 PM,,10.0,West,3.5,270,Los Angeles,California,90001
28,Mostly Cloudy,2016-05-07 04:47:00,52.0,,-,75,N/A,29.91,60.1,9:47 PM,,10.0,Calm,Calm,0,Los Angeles,California,90001
29,Scattered Clouds,2016-05-07 05:47:00,52.0,,-,78,N/A,29.92,59.0,10:47 PM,,10.0,Calm,Calm,0,Los Angeles,California,90001
30,Clear,2016-05-07 06:47:00,53.1,,-,84,N/A,29.92,57.9,11:47 PM,,10.0,Calm,Calm,0,Los Angeles,California,90001
0,Clear,2016-05-07 07:47:00,53.1,,-,84,N/A,29.92,57.9,12:47 AM,,10.0,Calm,Calm,0,Los Angeles,California,90001
1,Partly Cloudy,2016-05-07 08:47:00,53.1,,-,87,N/A,29.92,57.0,1:47 AM,,10.0,Calm,Calm,0,Los Angeles,California,90001
2,Mostly Cloudy,2016-05-07 08:58:00,53.1,,-,84,N/A,29.92,57.9,1:58 AM,,10.0,Calm,Calm,0,Los Angeles,California,90001
3,Overcast,2016-05-07 09:47:00,53.1,,-,81,N/A,29.92,59.0,2:47 AM,,10.0,Calm,Calm,0,Los Angeles,California,90001
4,Overcast,2016-05-07 09:56:00,53.1,,-,81,N/A,29.92,59.0,2:56 AM,,10.0,Calm,Calm,0,Los Angeles,California,90001
5,Overcast,2016-05-07 10:47:00,53.1,,-,81,N/A,29.92,59.0,3:47 AM,,10.0,Calm,Calm,0,Los Angeles,California,90001
6,Overcast,2016-05-07 11:47:00,53.1,,-,81,N/A,29.93,59.0,4:47 AM,,10.0,Calm,Calm,0,Los Angeles,California,90001
7,Overcast,2016-05-07 12:47:00,53.1,,-,81,N/A,29.94,59.0,5:47 AM,,10.0,Calm,Calm,0,Los Angeles,California,90001
8,Overcast,2016-05-07 12:50:00,53.1,,-,81,N/A,29.94,59.0,5:50 AM,,10.0,Calm,Calm,0,Los Angeles,California,90001
9,Overcast,2016-05-07 12:59:00,53.1,,-,81,N/A,29.94,59.0,5:59 AM,,10.0,Variable,3.5,0,Los Angeles,California,90001
10,Overcast,2016-05-07 13:47:00,53.1,,-,81,N/A,29.96,59.0,6:47 AM,,10.0,East,3.5,100,Los Angeles,California,90001
11,Overcast,2016-05-07 14:02:00,53.1,,-,81,N/A,29.96,59.0,7:02 AM,,10.0,East,3.5,90,Los Angeles,California,90001
12,Overcast,2016-05-07 14:09:00,53.1,,-,81,N/A,29.96,59.0,7:09 AM,,10.0,East,4.6,100,Los Angeles,California,90001
13,Overcast,2016-05-07 14:47:00,53.1,,-,81,N/A,29.97,59.0,7:47 AM,,10.0,SE,3.5,130,Los Angeles,California,90001
14,Overcast,2016-05-07 15:47:00,53.1,,-,78,N/A,29.98,60.1,8:47 AM,,10.0,Calm,Calm,0,Los Angeles,California,90001
15,Overcast,2016-05-07 16:47:00,51.1,,-,67,N/A,29.98,62.1,9:47 AM,,10.0,East,3.5,100,Los Angeles,California,90001
16,Overcast,2016-05-07 17:14:00,52.0,,-,67,N/A,29.98,63.0,10:14 AM,,10.0,Calm,Calm,0,Los Angeles,California,90001
17,Overcast,2016-05-07 17:47:00,51.1,,-,65,N/A,29.98,63.0,10:47 AM,,10.0,Calm,Calm,0,Los Angeles,California,90001
18,Overcast,2016-05-07 18:02:00,51.1,,-,63,N/A,29.98,64.0,11:02 AM,,10.0,Calm,Calm,0,Los Angeles,California,90001
19,Overcast,2016-05-07 18:47:00,50.0,,-,58,N/A,29.98,64.9,11:47 AM,,10.0,Calm,Calm,0,Los Angeles,California,90001
20,Mostly Cloudy,2016-05-07 19:47:00,48.9,,-,50,N/A,29.96,68.0,12:47 PM,,10.0,Variable,3.5,0,Los Angeles,California,90001
21,Overcast,2016-05-07 20:47:00,48.9,,-,52,N/A,29.95,66.9,1:47 PM,,10.0,Variable,3.5,0,Los Angeles,California,90001
22,Mostly Cloudy,2016-05-07 21:47:00,50.0,,-,54,N/A,29.94,66.9,2:47 PM,,10.0,Calm,Calm,0,Los Angeles,California,90001
23,Overcast,2016-05-07 22:47:00,51.1,,-,57,N/A,29.94,66.9,3:47 PM,,10.0,Variable,5.8,0,Los Angeles,California,90001
24,Overcast,2016-05-07 23:47:00,50.0,,-,54,N/A,29.94,66.9,4:47 PM,,10.0,Variable,4.6,0,Los Angeles,California,90001
25,Clear,2016-05-08 00:47:00,50.0,,-,54,N/A,29.94,66.9,5:47 PM,,10.0,West,4.6,260,Los Angeles,California,90001
26,Clear,2016-05-08 01:47:00,48.9,,-,58,N/A,29.94,64.0,6:47 PM,,10.0,West,8.1,270,Los Angeles,California,90001
27,Clear,2016-05-08 02:47:00,48.9,,-,62,N/A,29.94,62.1,7:47 PM,,10.0,West,5.8,270,Los Angeles,California,90001
28,Clear,2016-05-08 03:47:00,48.9,,-,64,N/A,29.94,61.0,8:47 PM,,10.0,Calm,Calm,0,Los Angeles,California,90001
29,Clear,2016-05-08 04:47:00,51.1,,-,72,N/A,29.96,60.1,9:47 PM,,10.0,West,3.5,280,Los Angeles,California,90001
30,Mostly Cloudy,2016-05-08 05:47:00,52.0,,-,78,N/A,29.96,59.0,10:47 PM,,10.0,Calm,Calm,0,Los Angeles,California,90001
31,Overcast,2016-05-08 06:47:00,53.1,,-,78,N/A,29.96,60.1,11:47 PM,,10.0,Calm,Calm,0,Los Angeles,California,90001
0,Overcast,2016-05-08 07:47:00,53.1,,-,78,N/A,29.96,60.1,12:47 AM,,10.0,Calm,Calm,0,Los Angeles,California,90001
1,Clear,2016-05-08 08:47:00,54.0,,-,83,N/A,29.94,59.0,1:47 AM,,10.0,Calm,Calm,0,Los Angeles,California,90001
2,Clear,2016-05-08 09:47:00,53.1,,-,84,N/A,29.93,57.9,2:47 AM,,10.0,Calm,Calm,0,Los Angeles,California,90001
3,Clear,2016-05-08 10:47:00,53.1,,-,87,N/A,29.92,57.0,3:47 AM,,10.0,Calm,Calm,0,Los Angeles,California,90001
4,Scattered Clouds,2016-05-08 11:47:00,53.1,,-,87,N/A,29.92,57.0,4:47 AM,,10.0,Calm,Calm,0,Los Angeles,California,90001
5,Overcast,2016-05-08 12:47:00,50.0,,-,77,N/A,29.94,57.0,5:47 AM,,10.0,East,4.6,90,Los Angeles,California,90001
6,Overcast,2016-05-08 13:30:00,51.1,,-,78,N/A,29.94,57.9,6:30 AM,,10.0,Calm,Calm,0,Los Angeles,California,90001
7,Overcast,2016-05-08 13:35:00,51.1,,-,78,N/A,29.94,57.9,6:35 AM,,10.0,East,3.5,90,Los Angeles,California,90001
8,Overcast,2016-05-08 13:47:00,51.1,,-,78,N/A,29.94,57.9,6:47 AM,,10.0,ESE,4.6,110,Los Angeles,California,90001
9,Overcast,2016-05-08 14:47:00,51.1,,-,75,N/A,29.95,59.0,7:47 AM,,10.0,Calm,Calm,0,Los Angeles,California,90001
10,Mostly Cloudy,2016-05-08 15:47:00,53.1,,-,72,N/A,29.95,62.1,8:47 AM,,10.0,Calm,Calm,0,Los Angeles,California,90001
11,Scattered Clouds,2016-05-08 16:47:00,52.0,,-,60,N/A,29.94,66.0,9:47 AM,,10.0,Calm,Calm,0,Los Angeles,California,90001
12,Mostly Cloudy,2016-05-08 17:17:00,52.0,,-,63,N/A,29.95,64.9,10:17 AM,,10.0,Variable,4.6,0,Los Angeles,California,90001
13,Mostly Cloudy,2016-05-08 17:21:00,51.1,,-,61,N/A,29.95,64.9,10:21 AM,,10.0,Variable,5.8,0,Los Angeles,California,90001
14,Mostly Cloudy,2016-05-08 17:38:00,51.1,,-,57,N/A,29.96,66.9,10:38 AM,,10.0,Variable,3.5,0,Los Angeles,California,90001
15,Mostly Cloudy,2016-05-08 17:41:00,51.1,,-,57,N/A,29.95,66.9,10:41 AM,,10.0,Calm,Calm,0,Los Angeles,California,90001
16,Mostly Cloudy,2016-05-08 17:47:00,52.0,,-,54,N/A,29.95,69.1,10:47 AM,,10.0,Calm,Calm,0,Los Angeles,California,90001
17,Clear,2016-05-08 18:47:00,50.0,,-,47,N/A,29.95,71.1,11:47 AM,,10.0,North,-9999.0,0,Los Angeles,California,90001
18,Partly Cloudy,2016-05-08 19:47:00,50.0,,-,47,N/A,29.94,71.1,12:47 PM,,10.0,Variable,3.5,0,Los Angeles,California,90001
19,Partly Cloudy,2016-05-08 20:47:00,51.1,,-,53,N/A,29.94,69.1,1:47 PM,,10.0,WSW,5.8,250,Los Angeles,California,90001
20,Partly Cloudy,2016-05-08 21:47:00,51.1,,-,57,N/A,29.95,66.9,2:47 PM,,10.0,Variable,5.8,0,Los Angeles,California,90001
21,Overcast,2016-05-08 22:47:00,51.1,,-,59,N/A,29.95,66.0,3:47 PM,,10.0,Variable,4.6,0,Los Angeles,California,90001
22,Overcast,2016-05-08 23:47:00,52.0,,-,60,N/A,29.94,66.0,4:47 PM,,10.0,WNW,4.6,290,Los Angeles,California,90001
23,Overcast,2016-05-09 00:47:00,53.1,,-,65,N/A,29.94,64.9,5:47 PM,,10.0,Variable,4.6,0,Los Angeles,California,90001
24,Overcast,2016-05-09 01:47:00,53.1,,-,70,N/A,29.94,63.0,6:47 PM,,10.0,Variable,5.8,0,Los Angeles,California,90001
25,Overcast,2016-05-09 02:47:00,53.1,,-,72,N/A,29.94,62.1,7:47 PM,,10.0,West,5.8,280,Los Angeles,California,90001
26,Partly Cloudy,2016-05-09 03:47:00,54.0,,-,78,N/A,29.96,61.0,8:47 PM,,10.0,West,3.5,280,Los Angeles,California,90001
27,Mostly Cloudy,2016-05-09 04:08:00,54.0,,-,78,N/A,29.96,61.0,9:08 PM,,10.0,Variable,3.5,0,Los Angeles,California,90001
28,Scattered Clouds,2016-05-09 04:28:00,54.0,,-,78,N/A,29.96,61.0,9:28 PM,,10.0,Calm,Calm,0,Los Angeles,California,90001
29,Clear,2016-05-09 04:47:00,54.0,,-,78,N/A,29.96,61.0,9:47 PM,,10.0,Calm,Calm,0,Los Angeles,California,90001
30,Clear,2016-05-09 05:47:00,54.0,,-,80,N/A,29.98,60.1,10:47 PM,,10.0,Calm,Calm,0,Los Angeles,California,90001
31,Clear,2016-05-09 06:47:00,54.0,,-,80,N/A,29.97,60.1,11:47 PM,,10.0,Calm,Calm,0,Los Angeles,California,90001
0,Partly Cloudy,2016-05-09 07:47:00,54.0,,-,83,N/A,29.96,59.0,12:47 AM,,10.0,Calm,Calm,0,Los Angeles,California,90001
1,Clear,2016-05-09 08:47:00,54.0,,-,83,N/A,29.95,59.0,1:47 AM,,10.0,Calm,Calm,0,Los Angeles,California,90001
2,Clear,2016-05-09 09:47:00,54.0,,-,83,N/A,29.95,59.0,2:47 AM,,10.0,Calm,Calm,0,Los Angeles,California,90001
3,Mostly Cloudy,2016-05-09 10:47:00,54.0,,-,83,N/A,29.95,59.0,3:47 AM,,10.0,Calm,Calm,0,Los Angeles,California,90001
4,Overcast,2016-05-09 11:47:00,54.0,,-,83,N/A,29.94,59.0,4:47 AM,,10.0,Calm,Calm,0,Los Angeles,California,90001
5,Overcast,2016-05-09 12:47:00,53.1,,-,81,N/A,29.95,59.0,5:47 AM,,10.0,ESE,4.6,110,Los Angeles,California,90001
6,Overcast,2016-05-09 13:47:00,53.1,,-,78,N/A,29.96,60.1,6:47 AM,,10.0,Calm,Calm,0,Los Angeles,California,90001
7,Overcast,2016-05-09 14:05:00,53.1,,-,78,N/A,29.97,60.1,7:05 AM,,10.0,Calm,Calm,0,Los Angeles,California,90001
8,Overcast,2016-05-09 14:47:00,53.1,,-,75,N/A,29.98,61.0,7:47 AM,,10.0,Calm,Calm,0,Los Angeles,California,90001
9,Overcast,2016-05-09 15:47:00,54.0,,-,75,N/A,29.99,62.1,8:47 AM,,10.0,Calm,Calm,0,Los Angeles,California,90001
10,Overcast,2016-05-09 16:47:00,53.1,,-,72,N/A,29.99,62.1,9:47 AM,,10.0,Calm,Calm,0,Los Angeles,California,90001
11,Overcast,2016-05-09 17:47:00,53.1,,-,67,N/A,29.99,64.0,10:47 AM,,10.0,Calm,Calm,0,Los Angeles,California,90001
12,Overcast,2016-05-09 18:44:00,53.1,,-,63,N/A,29.99,66.0,11:44 AM,,10.0,West,4.6,270,Los Angeles,California,90001
13,Overcast,2016-05-09 18:47:00,53.1,,-,65,N/A,29.99,64.9,11:47 AM,,10.0,Variable,5.8,0,Los Angeles,California,90001
14,Overcast,2016-05-09 19:14:00,54.0,,-,68,N/A,29.99,64.9,12:14 PM,,10.0,Calm,Calm,0,Los Angeles,California,90001
15,Overcast,2016-05-09 19:47:00,53.1,,-,65,N/A,29.99,64.9,12:47 PM,,10.0,Calm,Calm,0,Los Angeles,California,90001
16,Mostly Cloudy,2016-05-09 20:16:00,54.0,,-,63,N/A,29.98,66.9,1:16 PM,,10.0,North,-9999.0,0,Los Angeles,California,90001
17,Overcast,2016-05-09 20:47:00,53.1,,-,63,N/A,29.97,66.0,1:47 PM,,10.0,Variable,3.5,0,Los Angeles,California,90001
18,Overcast,2016-05-09 20:59:00,53.1,,-,61,N/A,29.97,66.9,1:59 PM,,10.0,North,-9999.0,0,Los Angeles,California,90001
19,Overcast,2016-05-09 21:07:00,53.1,,-,59,N/A,29.97,68.0,2:07 PM,,10.0,Calm,Calm,0,Los Angeles,California,90001
20,Overcast,2016-05-09 21:13:00,52.0,,-,59,N/A,29.97,66.9,2:13 PM,,10.0,Calm,Calm,0,Los Angeles,California,90001
21,Partly Cloudy,2016-05-09 21:47:00,52.0,,-,59,N/A,29.96,66.9,2:47 PM,,10.0,Calm,Calm,0,Los Angeles,California,90001
22,Partly Cloudy,2016-05-09 22:47:00,53.1,,-,61,N/A,29.94,66.9,3:47 PM,,10.0,Variable,6.9,0,Los Angeles,California,90001
23,Clear,2016-05-09 23:47:00,52.0,,-,60,N/A,29.93,66.0,4:47 PM,,10.0,Variable,3.5,0,Los Angeles,California,90001
24,Clear,2016-05-10 00:47:00,51.1,,-,61,N/A,29.93,64.9,5:47 PM,,10.0,Variable,3.5,0,Los Angeles,California,90001
25,Clear,2016-05-10 01:47:00,52.0,,-,65,N/A,29.93,64.0,6:47 PM,,10.0,Variable,3.5,0,Los Angeles,California,90001
26,Clear,2016-05-10 02:47:00,52.0,,-,72,N/A,29.93,61.0,7:47 PM,,10.0,Variable,3.5,0,Los Angeles,California,90001
27,Clear,2016-05-10 03:47:00,52.0,,-,75,N/A,29.94,60.1,8:47 PM,,10.0,Calm,Calm,0,Los Angeles,California,90001
28,Clear,2016-05-10 04:47:00,52.0,,-,75,N/A,29.96,60.1,9:47 PM,,10.0,West,3.5,260,Los Angeles,California,90001
29,Clear,2016-05-10 05:47:00,52.0,,-,78,N/A,29.96,59.0,10:47 PM,,10.0,Calm,Calm,0,Los Angeles,California,90001
30,Clear,2016-05-10 06:47:00,53.1,,-,84,N/A,29.95,57.9,11:47 PM,,10.0,Calm,Calm,0,Los Angeles,California,90001
0,Clear,2016-05-10 07:47:00,53.1,,-,84,N/A,29.96,57.9,12:47 AM,,10.0,Calm,Calm,0,Los Angeles,California,90001
1,Clear,2016-05-10 08:47:00,53.1,,-,84,N/A,29.96,57.9,1:47 AM,,10.0,Calm,Calm,0,Los Angeles,California,90001
2,Clear,2016-05-10 09:47:00,53.1,,-,84,N/A,29.95,57.9,2:47 AM,,10.0,Calm,Calm,0,Los Angeles,California,90001
3,Scattered Clouds,2016-05-10 10:47:00,52.0,,-,83,N/A,29.95,57.0,3:47 AM,,10.0,Calm,Calm,0,Los Angeles,California,90001
4,Mostly Cloudy,2016-05-10 10:52:00,52.0,,-,83,N/A,29.95,57.0,3:52 AM,,10.0,Calm,Calm,0,Los Angeles,California,90001
5,Overcast,2016-05-10 11:47:00,53.1,,-,84,N/A,29.95,57.9,4:47 AM,,10.0,Calm,Calm,0,Los Angeles,California,90001
6,Overcast,2016-05-10 12:47:00,53.1,,-,81,N/A,29.96,59.0,5:47 AM,,10.0,East,3.5,100,Los Angeles,California,90001
7,Overcast,2016-05-10 13:47:00,52.0,,-,75,N/A,29.98,60.1,6:47 AM,,10.0,Calm,Calm,0,Los Angeles,California,90001
8,Overcast,2016-05-10 14:47:00,53.1,,-,78,N/A,29.99,60.1,7:47 AM,,7.0,Calm,Calm,0,Los Angeles,California,90001
9,Overcast,2016-05-10 15:47:00,53.1,,-,75,N/A,30.00,61.0,8:47 AM,,7.0,Variable,4.6,0,Los Angeles,California,90001
10,Overcast,2016-05-10 16:47:00,53.1,,-,72,N/A,30.00,62.1,9:47 AM,,7.0,Calm,Calm,0,Los Angeles,California,90001
11,Overcast,2016-05-10 17:47:00,53.1,,-,67,N/A,30.00,64.0,10:47 AM,,9.0,Calm,Calm,0,Los Angeles,California,90001
12,Overcast,2016-05-10 18:47:00,53.1,,-,65,N/A,29.99,64.9,11:47 AM,,10.0,Calm,Calm,0,Los Angeles,California,90001
13,Overcast,2016-05-10 19:47:00,53.1,,-,61,N/A,29.98,66.9,12:47 PM,,10.0,Calm,Calm,0,Los Angeles,California,90001
14,Overcast,2016-05-10 20:14:00,54.0,,-,61,N/A,29.98,68.0,1:14 PM,,10.0,Calm,Calm,0,Los Angeles,California,90001
15,Overcast,2016-05-10 20:47:00,53.1,,-,57,N/A,29.96,69.1,1:47 PM,,10.0,Calm,Calm,0,Los Angeles,California,90001
16,Partly Cloudy,2016-05-10 21:47:00,53.1,,-,57,N/A,29.96,69.1,2:47 PM,,10.0,Variable,3.5,0,Los Angeles,California,90001
17,Clear,2016-05-10 22:47:00,53.1,,-,57,N/A,29.94,69.1,3:47 PM,,10.0,Calm,Calm,0,Los Angeles,California,90001
18,Clear,2016-05-10 23:47:00,55.0,,-,63,N/A,29.94,68.0,4:47 PM,,10.0,Variable,4.6,0,Los Angeles,California,90001
19,Partly Cloudy,2016-05-11 00:47:00,55.0,,-,68,N/A,29.94,66.0,5:47 PM,,10.0,Calm,Calm,0,Los Angeles,California,90001
20,Partly Cloudy,2016-05-11 01:47:00,55.0,,-,73,N/A,29.95,64.0,6:47 PM,,10.0,Variable,3.5,0,Los Angeles,California,90001
21,Scattered Clouds,2016-05-11 02:47:00,55.0,,-,78,N/A,29.96,62.1,7:47 PM,,10.0,Calm,Calm,0,Los Angeles,California,90001
22,Mostly Cloudy,2016-05-11 03:03:00,55.0,,-,81,N/A,29.97,61.0,8:03 PM,,10.0,West,5.8,270,Los Angeles,California,90001
23,Scattered Clouds,2016-05-11 03:20:00,55.0,,-,81,N/A,29.97,61.0,8:20 PM,,10.0,Variable,5.8,0,Los Angeles,California,90001
24,Partly Cloudy,2016-05-11 03:47:00,54.0,,-,80,N/A,29.98,60.1,8:47 PM,,10.0,Variable,4.6,0,Los Angeles,California,90001
25,Mostly Cloudy,2016-05-11 04:10:00,55.0,,-,81,N/A,29.99,61.0,9:10 PM,,10.0,Calm,Calm,0,Los Angeles,California,90001
26,Overcast,2016-05-11 04:47:00,54.0,,-,80,N/A,30.00,60.1,9:47 PM,,10.0,West,5.8,280,Los Angeles,California,90001
27,Overcast,2016-05-11 05:47:00,54.0,,-,80,N/A,30.01,60.1,10:47 PM,,10.0,West,5.8,270,Los Angeles,California,90001
28,Overcast,2016-05-11 06:47:00,54.0,,-,80,N/A,30.01,60.1,11:47 PM,,10.0,Calm,Calm,0,Los Angeles,California,90001
0,Overcast,2016-05-11 07:47:00,54.0,,-,80,N/A,30.02,60.1,12:47 AM,,10.0,Calm,Calm,0,Los Angeles,California,90001
1,Overcast,2016-05-11 08:47:00,54.0,,-,80,N/A,30.01,60.1,1:47 AM,,10.0,Calm,Calm,0,Los Angeles,California,90001
2,Overcast,2016-05-11 09:47:00,54.0,,-,80,N/A,30.00,60.1,2:47 AM,,9.0,Calm,Calm,0,Los Angeles,California,90001
3,Overcast,2016-05-11 10:47:00,54.0,,-,80,N/A,30.00,60.1,3:47 AM,,8.0,Calm,Calm,0,Los Angeles,California,90001
4,Overcast,2016-05-11 11:47:00,54.0,,-,80,N/A,30.00,60.1,4:47 AM,,9.0,Calm,Calm,0,Los Angeles,California,90001
5,Overcast,2016-05-11 12:47:00,54.0,,-,80,N/A,30.00,60.1,5:47 AM,,8.0,Calm,Calm,0,Los Angeles,California,90001
6,Haze,2016-05-11 13:47:00,54.0,,-,78,N/A,30.01,61.0,6:47 AM,,6.0,Calm,Calm,0,Los Angeles,California,90001
7,Haze,2016-05-11 14:47:00,54.0,,-,78,N/A,30.03,61.0,7:47 AM,,6.0,Calm,Calm,0,Los Angeles,California,90001
8,Overcast,2016-05-11 15:47:00,54.0,,-,78,N/A,30.03,61.0,8:47 AM,,7.0,Calm,Calm,0,Los Angeles,California,90001
9,Overcast,2016-05-11 16:47:00,54.0,,-,72,N/A,30.03,63.0,9:47 AM,,7.0,Calm,Calm,0,Los Angeles,California,90001
10,Overcast,2016-05-11 17:47:00,55.0,,-,70,N/A,30.03,64.9,10:47 AM,,7.0,Calm,Calm,0,Los Angeles,California,90001
11,Scattered Clouds,2016-05-11 18:39:00,55.0,,-,63,N/A,30.02,68.0,11:39 AM,,8.0,Variable,3.5,0,Los Angeles,California,90001
12,Partly Cloudy,2016-05-11 18:47:00,55.9,,-,61,N/A,30.02,70.0,11:47 AM,,8.0,Calm,Calm,0,Los Angeles,California,90001
13,Clear,2016-05-11 19:47:00,55.9,,-,57,N/A,30.00,72.0,12:47 PM,,9.0,Calm,Calm,0,Los Angeles,California,90001
14,Clear,2016-05-11 20:47:00,55.0,,-,57,N/A,29.99,71.1,1:47 PM,,10.0,Variable,3.5,0,Los Angeles,California,90001
15,Clear,2016-05-11 21:47:00,55.9,,-,61,N/A,29.98,70.0,2:47 PM,,10.0,WSW,4.6,250,Los Angeles,California,90001
16,Clear,2016-05-11 22:47:00,55.9,,-,65,N/A,29.97,68.0,3:47 PM,,10.0,West,9.2,280,Los Angeles,California,90001
17,Clear,2016-05-11 23:47:00,55.9,,-,70,N/A,29.96,66.0,4:47 PM,,10.0,West,8.1,260,Los Angeles,California,90001
18,Clear,2016-05-12 00:47:00,55.9,,-,70,N/A,29.96,66.0,5:47 PM,,10.0,West,5.8,260,Los Angeles,California,90001
19,Mostly Cloudy,2016-05-12 01:47:00,55.0,,-,75,N/A,29.97,63.0,6:47 PM,,10.0,West,9.2,280,Los Angeles,California,90001
20,Scattered Clouds,2016-05-12 01:54:00,55.0,,-,75,N/A,29.97,63.0,6:54 PM,,10.0,Variable,4.6,0,Los Angeles,California,90001
21,Mostly Cloudy,2016-05-12 02:30:00,55.0,,-,78,N/A,29.98,62.1,7:30 PM,,10.0,West,4.6,280,Los Angeles,California,90001
22,Mostly Cloudy,2016-05-12 02:47:00,55.0,,-,81,N/A,29.98,61.0,7:47 PM,,10.0,Variable,3.5,0,Los Angeles,California,90001
23,Overcast,2016-05-12 03:47:00,55.0,,-,81,N/A,29.99,61.0,8:47 PM,,10.0,Variable,3.5,0,Los Angeles,California,90001
24,Overcast,2016-05-12 04:47:00,55.0,,-,81,N/A,30.01,61.0,9:47 PM,,10.0,Calm,Calm,0,Los Angeles,California,90001
25,Overcast,2016-05-12 05:17:00,55.0,,-,81,N/A,30.02,61.0,10:17 PM,,10.0,Variable,3.5,0,Los Angeles,California,90001
26,Overcast,2016-05-12 05:47:00,55.0,,-,83,N/A,30.02,60.1,10:47 PM,,10.0,Calm,Calm,0,Los Angeles,California,90001
27,Overcast,2016-05-12 06:47:00,55.0,,-,83,N/A,30.02,60.1,11:47 PM,,10.0,Variable,3.5,0,Los Angeles,California,90001
0,Overcast,2016-05-12 07:47:00,55.0,,-,87,N/A,30.02,59.0,12:47 AM,,10.0,Calm,Calm,0,Los Angeles,California,90001
1,Overcast,2016-05-12 08:47:00,55.0,,-,87,N/A,30.01,59.0,1:47 AM,,10.0,Calm,Calm,0,Los Angeles,California,90001
2,Overcast,2016-05-12 09:47:00,55.0,,-,87,N/A,30.00,59.0,2:47 AM,,9.0,Calm,Calm,0,Los Angeles,California,90001
3,Overcast,2016-05-12 10:47:00,55.0,,-,87,N/A,30.00,59.0,3:47 AM,,8.0,Calm,Calm,0,Los Angeles,California,90001
4,Overcast,2016-05-12 11:47:00,55.0,,-,90,N/A,30.00,57.9,4:47 AM,,7.0,Calm,Calm,0,Los Angeles,California,90001
5,Overcast,2016-05-12 12:47:00,55.0,,-,90,N/A,30.00,57.9,5:47 AM,,7.0,West,3.5,270,Los Angeles,California,90001
6,Overcast,2016-05-12 13:47:00,55.0,,-,90,N/A,30.01,57.9,6:47 AM,,5.0,Calm,Calm,0,Los Angeles,California,90001
7,Overcast,2016-05-12 14:47:00,55.0,,-,87,N/A,30.01,59.0,7:47 AM,,4.0,Calm,Calm,0,Los Angeles,California,90001
8,Haze,2016-05-12 15:47:00,55.9,,-,75,N/A,30.00,64.0,8:47 AM,,5.0,Calm,Calm,0,Los Angeles,California,90001
9,Haze,2016-05-12 15:52:00,55.9,,-,73,N/A,30.00,64.9,8:52 AM,,5.0,Calm,Calm,0,Los Angeles,California,90001
10,Haze,2016-05-12 16:47:00,57.0,,-,68,N/A,30.00,68.0,9:47 AM,,6.0,Calm,Calm,0,Los Angeles,California,90001
11,Haze,2016-05-12 17:47:00,57.0,,-,59,N/A,30.00,72.0,10:47 AM,,6.0,SSE,3.5,160,Los Angeles,California,90001
12,Clear,2016-05-12 18:47:00,57.9,,-,59,N/A,30.00,73.0,11:47 AM,,7.0,Variable,3.5,0,Los Angeles,California,90001
13,Clear,2016-05-12 19:47:00,57.9,,-,59,N/A,29.99,73.0,12:47 PM,,9.0,Variable,4.6,0,Los Angeles,California,90001
14,Clear,2016-05-12 20:47:00,57.0,,-,61,N/A,29.99,71.1,1:47 PM,,9.0,Calm,Calm,0,Los Angeles,California,90001
15,Clear,2016-05-12 21:47:00,55.9,,-,63,N/A,29.98,69.1,2:47 PM,,10.0,Variable,6.9,0,Los Angeles,California,90001
16,Clear,2016-05-12 22:47:00,57.0,,-,65,N/A,29.96,69.1,3:47 PM,,10.0,Variable,5.8,0,Los Angeles,California,90001
17,Clear,2016-05-12 23:47:00,57.0,,-,65,N/A,29.95,69.1,4:47 PM,,10.0,Variable,3.5,0,Los Angeles,California,90001
18,Clear,2016-05-13 00:47:00,55.9,,-,70,N/A,29.96,66.0,5:47 PM,,10.0,West,4.6,260,Los Angeles,California,90001
19,Clear,2016-05-13 01:47:00,57.0,,-,75,N/A,29.96,64.9,6:47 PM,,10.0,Variable,3.5,0,Los Angeles,California,90001
20,Clear,2016-05-13 02:47:00,55.9,,-,78,N/A,29.96,63.0,7:47 PM,,10.0,West,4.6,260,Los Angeles,California,90001
21,Clear,2016-05-13 03:47:00,55.9,,-,83,N/A,29.99,61.0,8:47 PM,,10.0,Calm,Calm,0,Los Angeles,California,90001
22,Clear,2016-05-13 04:47:00,55.9,,-,83,N/A,30.00,61.0,9:47 PM,,10.0,Calm,Calm,0,Los Angeles,California,90001
23,Clear,2016-05-13 05:47:00,55.9,,-,83,N/A,30.00,61.0,10:47 PM,,8.0,Calm,Calm,0,Los Angeles,California,90001
24,Clear,2016-05-13 06:47:00,55.9,,-,83,N/A,30.00,61.0,11:47 PM,,10.0,Calm,Calm,0,Los Angeles,California,90001
0,Clear,2016-05-13 07:47:00,55.9,,-,86,N/A,30.00,60.1,12:47 AM,,10.0,Calm,Calm,0,Los Angeles,California,90001
1,Partly Cloudy,2016-05-13 08:47:00,55.9,,-,86,N/A,29.99,60.1,1:47 AM,,9.0,Calm,Calm,0,Los Angeles,California,90001
2,Mostly Cloudy,2016-05-13 08:55:00,55.9,,-,86,N/A,30.00,60.1,1:55 AM,,8.0,Calm,Calm,0,Los Angeles,California,90001
3,Mostly Cloudy,2016-05-13 09:01:00,55.9,,-,86,N/A,29.99,60.1,2:01 AM,,8.0,Calm,Calm,0,Los Angeles,California,90001
4,Overcast,2016-05-13 09:09:00,55.9,,-,86,N/A,29.99,60.1,2:09 AM,,8.0,Calm,Calm,0,Los Angeles,California,90001
5,Overcast,2016-05-13 09:47:00,55.9,,-,83,N/A,29.98,61.0,2:47 AM,,7.0,West,3.5,260,Los Angeles,California,90001
6,Overcast,2016-05-13 10:47:00,55.9,,-,86,N/A,29.98,60.1,3:47 AM,,5.0,Calm,Calm,0,Los Angeles,California,90001
7,Haze,2016-05-13 11:47:00,55.9,,-,83,N/A,29.97,61.0,4:47 AM,,5.0,Calm,Calm,0,Los Angeles,California,90001
8,Haze,2016-05-13 12:35:00,55.9,,-,83,N/A,29.97,61.0,5:35 AM,,4.0,ESE,4.6,120,Los Angeles,California,90001
9,Haze,2016-05-13 12:47:00,55.9,,-,83,N/A,29.96,61.0,5:47 AM,,4.0,Calm,Calm,0,Los Angeles,California,90001
10,Haze,2016-05-13 13:47:00,55.9,,-,80,N/A,29.98,62.1,6:47 AM,,3.0,Calm,Calm,0,Los Angeles,California,90001
11,Haze,2016-05-13 14:47:00,55.9,,-,80,N/A,29.99,62.1,7:47 AM,,3.0,Calm,Calm,0,Los Angeles,California,90001
12,Haze,2016-05-13 15:47:00,55.9,,-,73,N/A,29.99,64.9,8:47 AM,,3.0,Calm,Calm,0,Los Angeles,California,90001
13,Haze,2016-05-13 16:08:00,57.0,,-,70,N/A,29.99,66.9,9:08 AM,,4.0,Variable,3.5,0,Los Angeles,California,90001
14,Haze,2016-05-13 16:47:00,57.9,,-,68,N/A,29.99,69.1,9:47 AM,,4.0,Calm,Calm,0,Los Angeles,California,90001
15,Haze,2016-05-13 17:00:00,57.9,,-,68,N/A,29.99,69.1,10:00 AM,,5.0,Variable,3.5,0,Los Angeles,California,90001
16,Haze,2016-05-13 17:31:00,57.0,,-,63,N/A,30.00,70.0,10:31 AM,,5.0,Calm,Calm,0,Los Angeles,California,90001
17,Haze,2016-05-13 17:47:00,59.0,,-,68,N/A,30.00,70.0,10:47 AM,,4.0,Calm,Calm,0,Los Angeles,California,90001
18,Haze,2016-05-13 18:27:00,57.9,,-,65,N/A,30.01,70.0,11:27 AM,,4.0,Calm,Calm,0,Los Angeles,California,90001
19,Haze,2016-05-13 18:47:00,57.9,,-,65,N/A,30.00,70.0,11:47 AM,,5.0,Calm,Calm,0,Los Angeles,California,90001
20,Haze,2016-05-13 19:47:00,57.0,,-,57,N/A,29.98,73.0,12:47 PM,,5.0,Calm,Calm,0,Los Angeles,California,90001
21,Clear,2016-05-13 20:47:00,57.0,,-,52,N/A,29.96,75.9,1:47 PM,,7.0,West,3.5,280,Los Angeles,California,90001
22,Clear,2016-05-13 21:47:00,57.9,,-,55,N/A,29.94,75.0,2:47 PM,,8.0,West,5.8,270,Los Angeles,California,90001
23,Clear,2016-05-13 22:47:00,57.9,,-,61,N/A,29.94,72.0,3:47 PM,,9.0,West,8.1,270,Los Angeles,California,90001
24,Clear,2016-05-13 23:47:00,57.9,,-,63,N/A,29.94,71.1,4:47 PM,,9.0,Variable,4.6,0,Los Angeles,California,90001
25,Clear,2016-05-14 00:47:00,57.9,,-,68,N/A,29.95,69.1,5:47 PM,,9.0,West,4.6,260,Los Angeles,California,90001
26,Mostly Cloudy,2016-05-14 01:34:00,57.0,,-,75,N/A,29.96,64.9,6:34 PM,,7.0,WNW,5.8,290,Los Angeles,California,90001
27,Mostly Cloudy,2016-05-14 01:47:00,57.0,,-,75,N/A,29.96,64.9,6:47 PM,,7.0,Variable,4.6,0,Los Angeles,California,90001
28,Overcast,2016-05-14 02:47:00,57.0,,-,78,N/A,29.96,64.0,7:47 PM,,7.0,Variable,3.5,0,Los Angeles,California,90001
29,Overcast,2016-05-14 03:47:00,55.9,,-,78,N/A,29.99,63.0,8:47 PM,,9.0,West,5.8,270,Los Angeles,California,90001
30,Overcast,2016-05-14 04:47:00,55.9,,-,78,N/A,30.00,63.0,9:47 PM,,10.0,West,4.6,280,Los Angeles,California,90001
31,Overcast,2016-05-14 05:47:00,55.9,,-,78,N/A,30.00,63.0,10:47 PM,,10.0,Calm,Calm,0,Los Angeles,California,90001
32,Overcast,2016-05-14 06:47:00,55.9,,-,78,N/A,30.00,63.0,11:47 PM,,9.0,Calm,Calm,0,Los Angeles,California,90001
0,Overcast,2016-05-14 07:39:00,55.9,,-,78,N/A,30.00,63.0,12:39 AM,,8.0,Calm,Calm,0,Los Angeles,California,90001
1,Overcast,2016-05-14 07:47:00,55.9,,-,78,N/A,29.99,63.0,12:47 AM,,8.0,Calm,Calm,0,Los Angeles,California,90001
2,Overcast,2016-05-14 08:47:00,55.9,,-,75,N/A,29.98,64.0,1:47 AM,,8.0,Calm,Calm,0,Los Angeles,California,90001
3,Overcast,2016-05-14 09:47:00,55.9,,-,78,N/A,29.97,63.0,2:47 AM,,7.0,Calm,Calm,0,Los Angeles,California,90001
4,Overcast,2016-05-14 10:47:00,55.9,,-,78,N/A,29.98,63.0,3:47 AM,,8.0,Calm,Calm,0,Los Angeles,California,90001
5,Overcast,2016-05-14 12:47:00,55.9,,-,78,N/A,29.97,63.0,5:47 AM,,8.0,Calm,Calm,0,Los Angeles,California,90001
6,Overcast,2016-05-14 13:47:00,55.9,,-,78,N/A,29.98,63.0,6:47 AM,,8.0,Calm,Calm,0,Los Angeles,California,90001
7,Overcast,2016-05-14 14:47:00,55.0,,-,75,N/A,29.99,63.0,7:47 AM,,10.0,Calm,Calm,0,Los Angeles,California,90001
8,Overcast,2016-05-14 15:47:00,55.9,,-,75,N/A,29.99,64.0,8:47 AM,,10.0,Calm,Calm,0,Los Angeles,California,90001
9,Overcast,2016-05-14 16:47:00,55.0,,-,70,N/A,29.98,64.9,9:47 AM,,9.0,Calm,Calm,0,Los Angeles,California,90001
10,Overcast,2016-05-14 17:47:00,55.0,,-,63,N/A,29.98,68.0,10:47 AM,,10.0,SSE,4.6,160,Los Angeles,California,90001
11,Overcast,2016-05-14 18:47:00,55.9,,-,65,N/A,29.97,68.0,11:47 AM,,10.0,Calm,Calm,0,Los Angeles,California,90001
12,Mostly Cloudy,2016-05-14 19:47:00,57.0,,-,61,N/A,29.96,71.1,12:47 PM,,10.0,Variable,3.5,0,Los Angeles,California,90001
13,Scattered Clouds,2016-05-14 19:54:00,55.9,,-,61,N/A,29.96,70.0,12:54 PM,,10.0,Calm,Calm,0,Los Angeles,California,90001
14,Mostly Cloudy,2016-05-14 20:47:00,55.9,,-,63,N/A,29.94,69.1,1:47 PM,,10.0,Variable,4.6,0,Los Angeles,California,90001
15,Scattered Clouds,2016-05-14 20:57:00,55.9,,-,61,N/A,29.95,70.0,1:57 PM,,10.0,Variable,3.5,0,Los Angeles,California,90001
16,Partly Cloudy,2016-05-14 21:47:00,55.9,,-,63,N/A,29.94,69.1,2:47 PM,,10.0,Variable,3.5,0,Los Angeles,California,90001
17,Mostly Cloudy,2016-05-14 22:17:00,55.9,,-,63,N/A,29.94,69.1,3:17 PM,,10.0,WSW,4.6,250,Los Angeles,California,90001
18,Scattered Clouds,2016-05-14 22:22:00,55.9,,-,63,N/A,29.93,69.1,3:22 PM,,10.0,Variable,3.5,0,Los Angeles,California,90001
19,Scattered Clouds,2016-05-14 22:47:00,55.9,,-,65,N/A,29.93,68.0,3:47 PM,,10.0,Variable,5.8,0,Los Angeles,California,90001
20,Mostly Cloudy,2016-05-14 23:23:00,55.9,,-,65,N/A,29.93,68.0,4:23 PM,,10.0,West,5.8,270,Los Angeles,California,90001
21,Overcast,2016-05-14 23:47:00,55.0,,-,66,N/A,29.92,66.9,4:47 PM,,10.0,Variable,3.5,0,Los Angeles,California,90001
22,Scattered Clouds,2016-05-15 00:20:00,55.0,,-,66,N/A,29.92,66.9,5:20 PM,,10.0,Calm,Calm,0,Los Angeles,California,90001
23,Mostly Cloudy,2016-05-15 00:32:00,55.0,,-,66,N/A,29.92,66.9,5:32 PM,,10.0,Calm,Calm,0,Los Angeles,California,90001
24,Mostly Cloudy,2016-05-15 00:47:00,55.0,,-,68,N/A,29.92,66.0,5:47 PM,,10.0,Variable,4.6,0,Los Angeles,California,90001
25,Overcast,2016-05-15 01:47:00,55.0,,-,73,N/A,29.91,64.0,6:47 PM,,10.0,West,6.9,280,Los Angeles,California,90001
26,Overcast,2016-05-15 02:47:00,54.0,,-,72,N/A,29.91,63.0,7:47 PM,,10.0,Calm,Calm,0,Los Angeles,California,90001
27,Overcast,2016-05-15 03:47:00,54.0,,-,72,N/A,29.92,63.0,8:47 PM,,10.0,Variable,3.5,0,Los Angeles,California,90001
28,Overcast,2016-05-15 04:47:00,54.0,,-,72,N/A,29.92,63.0,9:47 PM,,10.0,Calm,Calm,0,Los Angeles,California,90001
29,Overcast,2016-05-15 05:47:00,54.0,,-,72,N/A,29.92,63.0,10:47 PM,,10.0,Calm,Calm,0,Los Angeles,California,90001
30,Overcast,2016-05-15 06:47:00,54.0,,-,70,N/A,29.91,64.0,11:47 PM,,10.0,ESE,4.6,110,Los Angeles,California,90001
0,Overcast,2016-05-15 07:47:00,53.1,,-,70,N/A,29.91,63.0,12:47 AM,,10.0,Variable,3.5,0,Los Angeles,California,90001
1,Overcast,2016-05-15 08:25:00,53.1,,-,70,N/A,29.91,63.0,1:25 AM,,10.0,SE,4.6,130,Los Angeles,California,90001
2,Overcast,2016-05-15 08:47:00,53.1,,-,70,N/A,29.91,63.0,1:47 AM,,10.0,SE,3.5,130,Los Angeles,California,90001
3,Overcast,2016-05-15 09:47:00,54.0,,-,75,N/A,29.89,62.1,2:47 AM,,10.0,Calm,Calm,0,Los Angeles,California,90001
4,Overcast,2016-05-15 10:47:00,53.1,,-,70,N/A,29.88,63.0,3:47 AM,,10.0,Calm,Calm,0,Los Angeles,California,90001
5,Overcast,2016-05-15 11:47:00,53.1,,-,70,N/A,29.88,63.0,4:47 AM,,10.0,SSE,4.6,160,Los Angeles,California,90001
6,Overcast,2016-05-15 12:47:00,54.0,,-,75,N/A,29.89,62.1,5:47 AM,,10.0,Calm,Calm,0,Los Angeles,California,90001
7,Overcast,2016-05-15 13:06:00,54.0,,-,75,N/A,29.89,62.1,6:06 AM,,10.0,Calm,Calm,0,Los Angeles,California,90001
8,Overcast,2016-05-15 13:47:00,55.0,,-,78,N/A,29.90,62.1,6:47 AM,,10.0,Calm,Calm,0,Los Angeles,California,90001
9,Overcast,2016-05-15 14:47:00,55.0,,-,75,N/A,29.91,63.0,7:47 AM,,10.0,Calm,Calm,0,Los Angeles,California,90001
10,Overcast,2016-05-15 15:47:00,55.0,,-,75,N/A,29.92,63.0,8:47 AM,,10.0,West,3.5,280,Los Angeles,California,90001
11,Overcast,2016-05-15 16:47:00,55.0,,-,70,N/A,29.93,64.9,9:47 AM,,10.0,Variable,3.5,0,Los Angeles,California,90001
12,Overcast,2016-05-15 17:28:00,55.0,,-,70,N/A,29.93,64.9,10:28 AM,,10.0,Calm,Calm,0,Los Angeles,California,90001
13,Overcast,2016-05-15 17:33:00,55.0,,-,70,N/A,29.93,64.9,10:33 AM,,10.0,Calm,Calm,0,Los Angeles,California,90001
14,Overcast,2016-05-15 17:47:00,54.0,,-,65,N/A,29.93,66.0,10:47 AM,,10.0,Variable,3.5,0,Los Angeles,California,90001
15,Overcast,2016-05-15 17:53:00,54.0,,-,65,N/A,29.93,66.0,10:53 AM,,10.0,WSW,3.5,250,Los Angeles,California,90001
16,Mostly Cloudy,2016-05-15 18:47:00,54.0,,-,58,N/A,29.92,69.1,11:47 AM,,10.0,Calm,Calm,0,Los Angeles,California,90001
17,Mostly Cloudy,2016-05-15 19:47:00,54.0,,-,55,N/A,29.91,71.1,12:47 PM,,10.0,Variable,4.6,0,Los Angeles,California,90001
18,Overcast,2016-05-15 20:47:00,55.0,,-,57,N/A,29.90,71.1,1:47 PM,,10.0,North,-9999.0,0,Los Angeles,California,90001
19,Scattered Clouds,2016-05-15 21:47:00,55.0,,-,57,N/A,29.89,71.1,2:47 PM,,10.0,Calm,Calm,0,Los Angeles,California,90001
20,Partly Cloudy,2016-05-15 22:47:00,55.9,,-,63,N/A,29.89,69.1,3:47 PM,,10.0,West,9.2,260,Los Angeles,California,90001
21,Partly Cloudy,2016-05-15 23:47:00,55.9,,-,63,N/A,29.88,69.1,4:47 PM,,10.0,Variable,4.6,0,Los Angeles,California,90001
22,Mostly Cloudy,2016-05-16 00:47:00,54.0,,-,61,N/A,29.88,68.0,5:47 PM,,10.0,Calm,Calm,0,Los Angeles,California,90001
23,Mostly Cloudy,2016-05-16 01:47:00,55.9,,-,70,N/A,29.88,66.0,6:47 PM,,10.0,Variable,3.5,0,Los Angeles,California,90001
24,Overcast,2016-05-16 02:47:00,55.0,,-,73,N/A,29.89,64.0,7:47 PM,,10.0,Variable,3.5,0,Los Angeles,California,90001
25,Overcast,2016-05-16 03:47:00,55.0,,-,73,N/A,29.90,64.0,8:47 PM,,10.0,Calm,Calm,0,Los Angeles,California,90001
26,Mostly Cloudy,2016-05-16 04:47:00,55.0,,-,75,N/A,29.92,63.0,9:47 PM,,10.0,Calm,Calm,0,Los Angeles,California,90001
27,Overcast,2016-05-16 05:47:00,55.9,,-,78,N/A,29.92,63.0,10:47 PM,,10.0,Calm,Calm,0,Los Angeles,California,90001
28,Partly Cloudy,2016-05-16 06:47:00,55.0,,-,78,N/A,29.92,62.1,11:47 PM,,10.0,Calm,Calm,0,Los Angeles,California,90001
0,Mostly Cloudy,2016-05-16 07:34:00,55.0,,-,78,N/A,29.92,62.1,12:34 AM,,10.0,Calm,Calm,0,Los Angeles,California,90001
1,Mostly Cloudy,2016-05-16 07:47:00,54.0,,-,75,N/A,29.92,62.1,12:47 AM,,10.0,Calm,Calm,0,Los Angeles,California,90001
2,Overcast,2016-05-16 08:47:00,55.0,,-,75,N/A,29.91,63.0,1:47 AM,,10.0,SSE,3.5,160,Los Angeles,California,90001
3,Mostly Cloudy,2016-05-16 09:47:00,55.0,,-,81,N/A,29.90,61.0,2:47 AM,,10.0,Calm,Calm,0,Los Angeles,California,90001
4,Overcast,2016-05-16 10:47:00,55.0,,-,78,N/A,29.89,62.1,3:47 AM,,10.0,Calm,Calm,0,Los Angeles,California,90001
5,Overcast,2016-05-16 11:47:00,54.0,,-,75,N/A,29.88,62.1,4:47 AM,,10.0,Calm,Calm,0,Los Angeles,California,90001
6,Overcast,2016-05-16 12:47:00,54.0,,-,75,N/A,29.89,62.1,5:47 AM,,10.0,Calm,Calm,0,Los Angeles,California,90001
7,Overcast,2016-05-16 13:47:00,55.0,,-,75,N/A,29.90,63.0,6:47 AM,,10.0,Calm,Calm,0,Los Angeles,California,90001
8,Overcast,2016-05-16 14:47:00,55.0,,-,75,N/A,29.90,63.0,7:47 AM,,10.0,Calm,Calm,0,Los Angeles,California,90001
9,Overcast,2016-05-16 15:47:00,54.0,,-,70,N/A,29.92,64.0,8:47 AM,,10.0,Calm,Calm,0,Los Angeles,California,90001
10,Overcast,2016-05-16 16:47:00,54.0,,-,70,N/A,29.92,64.0,9:47 AM,,10.0,Calm,Calm,0,Los Angeles,California,90001
11,Overcast,2016-05-16 17:47:00,54.0,,-,68,N/A,29.93,64.9,10:47 AM,,10.0,Variable,3.5,0,Los Angeles,California,90001
12,Overcast,2016-05-16 18:47:00,54.0,,-,63,N/A,29.92,66.9,11:47 AM,,10.0,Calm,Calm,0,Los Angeles,California,90001
13,Overcast,2016-05-16 19:47:00,55.0,,-,66,N/A,29.91,66.9,12:47 PM,,10.0,WSW,3.5,250,Los Angeles,California,90001
14,Overcast,2016-05-16 20:47:00,55.0,,-,61,N/A,29.89,69.1,1:47 PM,,10.0,Calm,Calm,0,Los Angeles,California,90001
15,Overcast,2016-05-16 21:47:00,55.9,,-,59,N/A,29.88,71.1,2:47 PM,,10.0,Variable,3.5,0,Los Angeles,California,90001
16,Scattered Clouds,2016-05-16 22:47:00,55.9,,-,59,N/A,29.87,71.1,3:47 PM,,10.0,Variable,3.5,0,Los Angeles,California,90001
17,Mostly Cloudy,2016-05-16 23:44:00,55.0,,-,59,N/A,29.86,70.0,4:44 PM,,10.0,WSW,3.5,240,Los Angeles,California,90001
18,Mostly Cloudy,2016-05-16 23:47:00,55.0,,-,61,N/A,29.86,69.1,4:47 PM,,10.0,Calm,Calm,0,Los Angeles,California,90001
19,Scattered Clouds,2016-05-17 00:10:00,55.0,,-,61,N/A,29.86,69.1,5:10 PM,,10.0,Variable,4.6,0,Los Angeles,California,90001
20,Scattered Clouds,2016-05-17 00:47:00,55.9,,-,63,N/A,29.86,69.1,5:47 PM,,10.0,North,-9999.0,0,Los Angeles,California,90001
21,Mostly Cloudy,2016-05-17 00:59:00,55.9,,-,65,N/A,29.85,68.0,5:59 PM,,10.0,Variable,3.5,0,Los Angeles,California,90001
22,Scattered Clouds,2016-05-17 01:08:00,55.9,,-,65,N/A,29.86,68.0,6:08 PM,,10.0,Calm,Calm,0,Los Angeles,California,90001
23,Partly Cloudy,2016-05-17 01:47:00,55.9,,-,68,N/A,29.86,66.9,6:47 PM,,10.0,Calm,Calm,0,Los Angeles,California,90001
24,Scattered Clouds,2016-05-17 02:47:00,55.9,,-,75,N/A,29.87,64.0,7:47 PM,,10.0,Variable,3.5,0,Los Angeles,California,90001
25,Overcast,2016-05-17 03:47:00,55.0,,-,73,N/A,29.89,64.0,8:47 PM,,10.0,Calm,Calm,0,Los Angeles,California,90001
26,Overcast,2016-05-17 04:47:00,55.0,,-,75,N/A,29.90,63.0,9:47 PM,,10.0,Calm,Calm,0,Los Angeles,California,90001
27,Overcast,2016-05-17 05:00:00,55.0,,-,73,N/A,29.91,64.0,10:00 PM,,10.0,Calm,Calm,0,Los Angeles,California,90001
28,Overcast,2016-05-17 05:47:00,55.0,,-,75,N/A,29.90,63.0,10:47 PM,,10.0,Calm,Calm,0,Los Angeles,California,90001
29,Overcast,2016-05-17 06:47:00,55.0,,-,75,N/A,29.90,63.0,11:47 PM,,10.0,Calm,Calm,0,Los Angeles,California,90001
0,Overcast,2016-05-17 07:47:00,55.0,,-,75,N/A,29.89,63.0,12:47 AM,,10.0,Calm,Calm,0,Los Angeles,California,90001
1,Overcast,2016-05-17 07:56:00,55.0,,-,78,N/A,29.89,62.1,12:56 AM,,10.0,West,4.6,270,Los Angeles,California,90001
2,Overcast,2016-05-17 08:47:00,55.0,,-,78,N/A,29.88,62.1,1:47 AM,,10.0,Variable,4.6,0,Los Angeles,California,90001
3,Overcast,2016-05-17 09:31:00,55.0,,-,78,N/A,29.88,62.1,2:31 AM,,10.0,West,3.5,270,Los Angeles,California,90001
4,Overcast,2016-05-17 09:47:00,55.0,,-,78,N/A,29.88,62.1,2:47 AM,,10.0,West,3.5,260,Los Angeles,California,90001
5,Overcast,2016-05-17 09:50:00,55.0,,-,78,N/A,29.88,62.1,2:50 AM,,10.0,West,4.6,280,Los Angeles,California,90001
6,Overcast,2016-05-17 10:20:00,55.0,,-,78,N/A,29.88,62.1,3:20 AM,,10.0,West,4.6,280,Los Angeles,California,90001
7,Overcast,2016-05-17 10:35:00,55.0,,-,78,N/A,29.87,62.1,3:35 AM,,10.0,West,4.6,270,Los Angeles,California,90001
8,Overcast,2016-05-17 10:47:00,55.0,,-,78,N/A,29.87,62.1,3:47 AM,,10.0,Calm,Calm,0,Los Angeles,California,90001
9,Overcast,2016-05-17 11:47:00,55.0,,-,78,N/A,29.88,62.1,4:47 AM,,10.0,Variable,3.5,0,Los Angeles,California,90001
10,Overcast,2016-05-17 12:47:00,55.0,,-,78,N/A,29.88,62.1,5:47 AM,,10.0,Calm,Calm,0,Los Angeles,California,90001
11,Overcast,2016-05-17 12:55:00,55.0,,-,78,N/A,29.88,62.1,5:55 AM,,10.0,West,3.5,270,Los Angeles,California,90001
12,Overcast,2016-05-17 13:09:00,55.0,,-,78,N/A,29.89,62.1,6:09 AM,,10.0,Calm,Calm,0,Los Angeles,California,90001
13,Overcast,2016-05-17 13:15:00,55.0,,-,78,N/A,29.89,62.1,6:15 AM,,10.0,West,3.5,270,Los Angeles,California,90001
14,Overcast,2016-05-17 13:47:00,55.0,,-,78,N/A,29.89,62.1,6:47 AM,,10.0,Calm,Calm,0,Los Angeles,California,90001
15,Overcast,2016-05-17 14:47:00,55.0,,-,75,N/A,29.90,63.0,7:47 AM,,10.0,Variable,3.5,0,Los Angeles,California,90001
16,Overcast,2016-05-17 14:52:00,55.0,,-,75,N/A,29.91,63.0,7:52 AM,,10.0,West,4.6,260,Los Angeles,California,90001
17,Overcast,2016-05-17 15:23:00,55.0,,-,73,N/A,29.91,64.0,8:23 AM,,10.0,Variable,4.6,0,Los Angeles,California,90001
18,Overcast,2016-05-17 15:47:00,55.0,,-,73,N/A,29.92,64.0,8:47 AM,,10.0,Variable,3.5,0,Los Angeles,California,90001
19,Overcast,2016-05-17 16:47:00,55.0,,-,68,N/A,29.92,66.0,9:47 AM,,10.0,West,8.1,270,Los Angeles,California,90001
20,Overcast,2016-05-17 17:06:00,55.0,,-,68,N/A,29.93,66.0,10:06 AM,,10.0,Variable,3.5,0,Los Angeles,California,90001
21,Overcast,2016-05-17 17:10:00,55.0,,-,68,N/A,29.93,66.0,10:10 AM,,10.0,Calm,Calm,0,Los Angeles,California,90001
22,Overcast,2016-05-17 17:14:00,55.0,,-,66,N/A,29.93,66.9,10:14 AM,,10.0,West,3.5,270,Los Angeles,California,90001
23,Overcast,2016-05-17 17:47:00,55.0,,-,66,N/A,29.93,66.9,10:47 AM,,10.0,Calm,Calm,0,Los Angeles,California,90001
24,Overcast,2016-05-17 18:47:00,55.0,,-,63,N/A,29.93,68.0,11:47 AM,,10.0,Calm,Calm,0,Los Angeles,California,90001
25,Mostly Cloudy,2016-05-17 19:37:00,55.9,,-,59,N/A,29.93,71.1,12:37 PM,,10.0,Calm,Calm,0,Los Angeles,California,90001
26,Scattered Clouds,2016-05-17 19:47:00,55.9,,-,59,N/A,29.92,71.1,12:47 PM,,10.0,Variable,4.6,0,Los Angeles,California,90001
27,Mostly Cloudy,2016-05-17 20:14:00,55.9,,-,61,N/A,29.92,70.0,1:14 PM,,10.0,Calm,Calm,0,Los Angeles,California,90001
28,Overcast,2016-05-17 20:47:00,55.9,,-,59,N/A,29.91,71.1,1:47 PM,,10.0,Variable,3.5,0,Los Angeles,California,90001
29,Scattered Clouds,2016-05-17 21:25:00,55.9,,-,59,N/A,29.91,71.1,2:25 PM,,10.0,North,-9999.0,0,Los Angeles,California,90001
30,Partly Cloudy,2016-05-17 21:47:00,55.9,,-,61,N/A,29.91,70.0,2:47 PM,,10.0,Variable,4.6,0,Los Angeles,California,90001
31,Clear,2016-05-17 22:47:00,55.9,,-,61,N/A,29.89,70.0,3:47 PM,,10.0,Variable,3.5,0,Los Angeles,California,90001
32,Clear,2016-05-17 23:47:00,54.0,,-,57,N/A,29.88,70.0,4:47 PM,,10.0,West,8.1,270,Los Angeles,California,90001
33,Clear,2016-05-18 00:47:00,55.0,,-,59,N/A,29.89,70.0,5:47 PM,,10.0,West,8.1,270,Los Angeles,California,90001
34,Clear,2016-05-18 01:47:00,55.9,,-,65,N/A,29.90,68.0,6:47 PM,,10.0,Calm,Calm,0,Los Angeles,California,90001
35,Clear,2016-05-18 02:47:00,55.9,,-,73,N/A,29.93,64.9,7:47 PM,,10.0,West,4.6,270,Los Angeles,California,90001
36,Clear,2016-05-18 03:47:00,55.0,,-,75,N/A,29.95,63.0,8:47 PM,,10.0,Calm,Calm,0,Los Angeles,California,90001
37,Clear,2016-05-18 04:47:00,55.0,,-,75,N/A,29.96,63.0,9:47 PM,,10.0,Calm,Calm,0,Los Angeles,California,90001
38,Clear,2016-05-18 05:47:00,55.0,,-,78,N/A,29.97,62.1,10:47 PM,,10.0,Calm,Calm,0,Los Angeles,California,90001
39,Clear,2016-05-18 06:47:00,55.0,,-,78,N/A,29.98,62.1,11:47 PM,,10.0,Calm,Calm,0,Los Angeles,California,90001
0,Clear,2016-05-18 07:47:00,55.9,,-,83,N/A,29.98,61.0,12:47 AM,,10.0,Calm,Calm,0,Los Angeles,California,90001
1,Mostly Cloudy,2016-05-18 08:12:00,55.9,,-,83,N/A,29.98,61.0,1:12 AM,,10.0,Calm,Calm,0,Los Angeles,California,90001
2,Overcast,2016-05-18 08:47:00,55.9,,-,80,N/A,29.96,62.1,1:47 AM,,10.0,Calm,Calm,0,Los Angeles,California,90001
3,Overcast,2016-05-18 09:01:00,55.9,,-,80,N/A,29.97,62.1,2:01 AM,,10.0,Calm,Calm,0,Los Angeles,California,90001
4,Overcast,2016-05-18 09:47:00,55.9,,-,80,N/A,29.95,62.1,2:47 AM,,9.0,Variable,3.5,0,Los Angeles,California,90001
5,Overcast,2016-05-18 10:47:00,55.9,,-,80,N/A,29.95,62.1,3:47 AM,,10.0,Calm,Calm,0,Los Angeles,California,90001
6,Overcast,2016-05-18 11:47:00,55.0,,-,81,N/A,29.95,61.0,4:47 AM,,10.0,West,3.5,280,Los Angeles,California,90001
7,Overcast,2016-05-18 12:47:00,55.0,,-,78,N/A,29.96,62.1,5:47 AM,,10.0,Calm,Calm,0,Los Angeles,California,90001
8,Overcast,2016-05-18 13:47:00,55.0,,-,78,N/A,29.97,62.1,6:47 AM,,10.0,Calm,Calm,0,Los Angeles,California,90001
9,Overcast,2016-05-18 14:06:00,55.0,,-,78,N/A,29.98,62.1,7:06 AM,,10.0,Calm,Calm,0,Los Angeles,California,90001
10,Overcast,2016-05-18 14:47:00,55.0,,-,75,N/A,29.99,63.0,7:47 AM,,10.0,Calm,Calm,0,Los Angeles,California,90001
11,Overcast,2016-05-18 15:47:00,55.0,,-,75,N/A,30.00,63.0,8:47 AM,,9.0,Calm,Calm,0,Los Angeles,California,90001
12,Overcast,2016-05-18 16:47:00,55.0,,-,70,N/A,29.99,64.9,9:47 AM,,10.0,Calm,Calm,0,Los Angeles,California,90001
13,Mostly Cloudy,2016-05-18 17:47:00,55.9,,-,63,N/A,29.98,69.1,10:47 AM,,10.0,Variable,3.5,0,Los Angeles,California,90001
14,Scattered Clouds,2016-05-18 18:47:00,55.9,,-,63,N/A,29.97,69.1,11:47 AM,,8.0,Variable,3.5,0,Los Angeles,California,90001
15,Mostly Cloudy,2016-05-18 19:31:00,55.9,,-,63,N/A,29.97,69.1,12:31 PM,,10.0,Variable,6.9,0,Los Angeles,California,90001
16,Scattered Clouds,2016-05-18 19:47:00,57.0,,-,65,N/A,29.96,69.1,12:47 PM,,10.0,Variable,5.8,0,Los Angeles,California,90001
17,Mostly Cloudy,2016-05-18 20:17:00,55.9,,-,61,N/A,29.96,70.0,1:17 PM,,10.0,Variable,5.8,0,Los Angeles,California,90001
18,Scattered Clouds,2016-05-18 20:28:00,55.9,,-,63,N/A,29.96,69.1,1:28 PM,,10.0,Variable,6.9,0,Los Angeles,California,90001
19,Partly Cloudy,2016-05-18 20:47:00,55.9,,-,63,N/A,29.95,69.1,1:47 PM,,10.0,West,8.1,280,Los Angeles,California,90001
20,Mostly Cloudy,2016-05-18 21:09:00,57.0,,-,65,N/A,29.95,69.1,2:09 PM,,10.0,West,3.5,260,Los Angeles,California,90001
21,Mostly Cloudy,2016-05-18 21:47:00,55.9,,-,65,N/A,29.94,68.0,2:47 PM,,10.0,West,6.9,270,Los Angeles,California,90001
22,Scattered Clouds,2016-05-18 21:55:00,57.0,,-,65,N/A,29.94,69.1,2:55 PM,,10.0,Variable,4.6,0,Los Angeles,California,90001
23,Partly Cloudy,2016-05-18 22:47:00,57.0,,-,70,N/A,29.92,66.9,3:47 PM,,10.0,Variable,4.6,0,Los Angeles,California,90001
24,Mostly Cloudy,2016-05-18 23:39:00,55.9,,-,73,N/A,29.92,64.9,4:39 PM,,10.0,Variable,5.8,0,Los Angeles,California,90001
25,Mostly Cloudy,2016-05-18 23:47:00,55.9,,-,70,N/A,29.92,66.0,4:47 PM,,10.0,West,4.6,260,Los Angeles,California,90001
26,Overcast,2016-05-19 00:47:00,55.9,,-,75,N/A,29.91,64.0,5:47 PM,,10.0,Variable,5.8,0,Los Angeles,California,90001
27,Overcast,2016-05-19 01:47:00,55.9,,-,78,N/A,29.91,63.0,6:47 PM,,10.0,Variable,4.6,0,Los Angeles,California,90001
28,Overcast,2016-05-19 02:47:00,57.0,,-,81,N/A,29.92,63.0,7:47 PM,,10.0,Calm,Calm,0,Los Angeles,California,90001
29,Overcast,2016-05-19 03:47:00,57.9,,-,86,N/A,29.94,62.1,8:47 PM,,8.0,Calm,Calm,0,Los Angeles,California,90001
30,Overcast,2016-05-19 04:47:00,57.0,,-,84,N/A,29.96,62.1,9:47 PM,,9.0,Calm,Calm,0,Los Angeles,California,90001
31,Overcast,2016-05-19 05:47:00,57.0,,-,81,N/A,29.96,63.0,10:47 PM,,9.0,West,3.5,270,Los Angeles,California,90001
32,Overcast,2016-05-19 06:47:00,57.0,,-,81,N/A,29.97,63.0,11:47 PM,,10.0,Calm,Calm,0,Los Angeles,California,90001
0,Overcast,2016-05-19 07:23:00,55.9,,-,78,N/A,29.96,63.0,12:23 AM,,10.0,Calm,Calm,0,Los Angeles,California,90001
1,Overcast,2016-05-19 07:47:00,55.9,,-,78,N/A,29.96,63.0,12:47 AM,,10.0,Calm,Calm,0,Los Angeles,California,90001
2,Overcast,2016-05-19 08:47:00,55.9,,-,75,N/A,29.95,64.0,1:47 AM,,9.0,Variable,4.6,0,Los Angeles,California,90001
3,Overcast,2016-05-19 09:47:00,55.9,,-,78,N/A,29.94,63.0,2:47 AM,,9.0,SE,3.5,140,Los Angeles,California,90001
4,Overcast,2016-05-19 10:15:00,55.9,,-,78,N/A,29.94,63.0,3:15 AM,,10.0,Calm,Calm,0,Los Angeles,California,90001
5,Overcast,2016-05-19 10:47:00,55.9,,-,78,N/A,29.93,63.0,3:47 AM,,10.0,Calm,Calm,0,Los Angeles,California,90001
6,Overcast,2016-05-19 11:47:00,55.9,,-,80,N/A,29.93,62.1,4:47 AM,,10.0,Variable,3.5,0,Los Angeles,California,90001
7,Overcast,2016-05-19 12:47:00,55.9,,-,80,N/A,29.93,62.1,5:47 AM,,10.0,Calm,Calm,0,Los Angeles,California,90001
8,Overcast,2016-05-19 13:47:00,55.9,,-,78,N/A,29.93,63.0,6:47 AM,,8.0,Calm,Calm,0,Los Angeles,California,90001
9,Overcast,2016-05-19 14:47:00,55.9,,-,75,N/A,29.94,64.0,7:47 AM,,8.0,Calm,Calm,0,Los Angeles,California,90001
10,Overcast,2016-05-19 15:47:00,55.9,,-,75,N/A,29.94,64.0,8:47 AM,,7.0,Calm,Calm,0,Los Angeles,California,90001
11,Overcast,2016-05-19 16:47:00,57.0,,-,78,N/A,29.93,64.0,9:47 AM,,9.0,Calm,Calm,0,Los Angeles,California,90001
12,Overcast,2016-05-19 17:47:00,57.0,,-,75,N/A,29.93,64.9,10:47 AM,,8.0,Variable,3.5,0,Los Angeles,California,90001
13,Overcast,2016-05-19 18:47:00,55.9,,-,70,N/A,29.93,66.0,11:47 AM,,9.0,SSE,3.5,150,Los Angeles,California,90001
14,Overcast,2016-05-19 19:47:00,57.0,,-,68,N/A,29.91,68.0,12:47 PM,,10.0,Variable,3.5,0,Los Angeles,California,90001
15,Overcast,2016-05-19 20:47:00,57.0,,-,65,N/A,29.89,69.1,1:47 PM,,10.0,Variable,3.5,0,Los Angeles,California,90001
16,Scattered Clouds,2016-05-19 21:37:00,57.0,,-,61,N/A,29.87,71.1,2:37 PM,,10.0,West,4.6,280,Los Angeles,California,90001
17,Partly Cloudy,2016-05-19 21:47:00,57.0,,-,63,N/A,29.86,70.0,2:47 PM,,10.0,Variable,3.5,0,Los Angeles,California,90001
18,Clear,2016-05-19 22:47:00,57.9,,-,63,N/A,29.84,71.1,3:47 PM,,10.0,Calm,Calm,0,Los Angeles,California,90001
19,Scattered Clouds,2016-05-19 23:47:00,57.9,,-,68,N/A,29.82,69.1,4:47 PM,,10.0,Variable,3.5,0,Los Angeles,California,90001
20,Mostly Cloudy,2016-05-20 00:05:00,57.0,,-,68,N/A,29.82,68.0,5:05 PM,,10.0,Calm,Calm,0,Los Angeles,California,90001
21,Overcast,2016-05-20 00:47:00,57.0,,-,70,N/A,29.82,66.9,5:47 PM,,10.0,Calm,Calm,0,Los Angeles,California,90001
22,Overcast,2016-05-20 01:47:00,55.9,,-,73,N/A,29.82,64.9,6:47 PM,,9.0,West,4.6,280,Los Angeles,California,90001
23,Overcast,2016-05-20 02:47:00,55.9,,-,75,N/A,29.83,64.0,7:47 PM,,10.0,West,5.8,260,Los Angeles,California,90001
24,Overcast,2016-05-20 03:47:00,55.0,,-,75,N/A,29.83,63.0,8:47 PM,,10.0,Calm,Calm,0,Los Angeles,California,90001
25,Overcast,2016-05-20 04:47:00,55.0,,-,78,N/A,29.85,62.1,9:47 PM,,10.0,Calm,Calm,0,Los Angeles,California,90001
26,Overcast,2016-05-20 05:12:00,55.0,,-,78,N/A,29.85,62.1,10:12 PM,,10.0,Calm,Calm,0,Los Angeles,California,90001
27,Overcast,2016-05-20 05:47:00,55.0,,-,75,N/A,29.85,63.0,10:47 PM,,10.0,Calm,Calm,0,Los Angeles,California,90001
28,Overcast,2016-05-20 05:50:00,55.0,,-,78,N/A,29.85,62.1,10:50 PM,,10.0,Calm,Calm,0,Los Angeles,California,90001
29,Overcast,2016-05-20 06:47:00,55.0,,-,78,N/A,29.85,62.1,11:47 PM,,10.0,Calm,Calm,0,Los Angeles,California,90001
0,Overcast,2016-05-20 07:10:00,55.0,,-,78,N/A,29.84,62.1,12:10 AM,,10.0,Calm,Calm,0,Los Angeles,California,90001
1,Overcast,2016-05-20 07:15:00,55.0,,-,78,N/A,29.84,62.1,12:15 AM,,10.0,Calm,Calm,0,Los Angeles,California,90001
2,Overcast,2016-05-20 07:47:00,55.0,,-,78,N/A,29.83,62.1,12:47 AM,,10.0,Calm,Calm,0,Los Angeles,California,90001
3,Overcast,2016-05-20 08:00:00,55.0,,-,78,N/A,29.83,62.1,1:00 AM,,10.0,Calm,Calm,0,Los Angeles,California,90001
4,Overcast,2016-05-20 08:42:00,54.0,,-,78,N/A,29.83,61.0,1:42 AM,,10.0,Calm,Calm,0,Los Angeles,California,90001
5,Overcast,2016-05-20 08:47:00,54.0,,-,78,N/A,29.83,61.0,1:47 AM,,10.0,Calm,Calm,0,Los Angeles,California,90001
6,Mostly Cloudy,2016-05-20 09:31:00,54.0,,-,80,N/A,29.83,60.1,2:31 AM,,8.0,Calm,Calm,0,Los Angeles,California,90001
7,Partly Cloudy,2016-05-20 09:47:00,54.0,,-,80,N/A,29.83,60.1,2:47 AM,,10.0,Calm,Calm,0,Los Angeles,California,90001
8,Clear,2016-05-20 10:47:00,54.0,,-,80,N/A,29.82,60.1,3:47 AM,,10.0,Calm,Calm,0,Los Angeles,California,90001
9,Mostly Cloudy,2016-05-20 11:31:00,53.1,,-,81,N/A,29.83,59.0,4:31 AM,,10.0,Calm,Calm,0,Los Angeles,California,90001
10,Overcast,2016-05-20 11:47:00,53.1,,-,81,N/A,29.82,59.0,4:47 AM,,10.0,Calm,Calm,0,Los Angeles,California,90001
11,Scattered Clouds,2016-05-20 12:06:00,53.1,,-,81,N/A,29.83,59.0,5:06 AM,,10.0,Calm,Calm,0,Los Angeles,California,90001
12,Mostly Cloudy,2016-05-20 12:16:00,53.1,,-,84,N/A,29.83,57.9,5:16 AM,,10.0,Calm,Calm,0,Los Angeles,California,90001
13,Overcast,2016-05-20 12:47:00,52.0,,-,78,N/A,29.83,59.0,5:47 AM,,10.0,Calm,Calm,0,Los Angeles,California,90001
14,Overcast,2016-05-20 13:41:00,52.0,,-,75,N/A,29.84,60.1,6:41 AM,,10.0,Calm,Calm,0,Los Angeles,California,90001
15,Overcast,2016-05-20 13:47:00,52.0,,-,75,N/A,29.84,60.1,6:47 AM,,10.0,Calm,Calm,0,Los Angeles,California,90001
16,Overcast,2016-05-20 14:47:00,53.1,,-,75,N/A,29.86,61.0,7:47 AM,,10.0,Calm,Calm,0,Los Angeles,California,90001
17,Overcast,2016-05-20 15:28:00,52.0,,-,70,N/A,29.87,62.1,8:28 AM,,10.0,Calm,Calm,0,Los Angeles,California,90001
18,Overcast,2016-05-20 15:38:00,52.0,,-,70,N/A,29.87,62.1,8:38 AM,,10.0,Calm,Calm,0,Los Angeles,California,90001
19,Overcast,2016-05-20 15:43:00,52.0,,-,67,N/A,29.87,63.0,8:43 AM,,10.0,Variable,4.6,0,Los Angeles,California,90001
20,Overcast,2016-05-20 15:47:00,50.0,,-,63,N/A,29.87,63.0,8:47 AM,,10.0,SE,4.6,130,Los Angeles,California,90001
21,Overcast,2016-05-20 16:47:00,50.0,,-,58,N/A,29.86,64.9,9:47 AM,,10.0,Variable,4.6,0,Los Angeles,California,90001
22,Overcast,2016-05-20 17:47:00,48.0,,-,52,N/A,29.88,66.0,10:47 AM,,10.0,Variable,6.9,0,Los Angeles,California,90001
23,Scattered Clouds,2016-05-20 18:47:00,48.0,,-,47,N/A,29.86,69.1,11:47 AM,,10.0,South,9.2,180,Los Angeles,California,90001
24,Mostly Cloudy,2016-05-20 19:47:00,48.0,,-,49,N/A,29.86,68.0,12:47 PM,,10.0,South,9.2,170,Los Angeles,California,90001
25,Scattered Clouds,2016-05-20 20:47:00,51.1,,-,57,N/A,29.86,66.9,1:47 PM,,10.0,Variable,4.6,0,Los Angeles,California,90001
26,Partly Cloudy,2016-05-20 21:47:00,50.0,,-,54,N/A,29.86,66.9,2:47 PM,,10.0,Variable,3.5,0,Los Angeles,California,90001
27,Clear,2016-05-20 22:47:00,48.9,,-,56,N/A,29.86,64.9,3:47 PM,,10.0,Variable,3.5,0,Los Angeles,California,90001
28,Clear,2016-05-20 23:47:00,48.9,,-,56,N/A,29.86,64.9,4:47 PM,,10.0,Variable,5.8,0,Los Angeles,California,90001
29,Partly Cloudy,2016-05-21 00:47:00,48.9,,-,60,N/A,29.86,63.0,5:47 PM,,10.0,Variable,3.5,0,Los Angeles,California,90001
30,Partly Cloudy,2016-05-21 01:47:00,48.0,,-,58,N/A,29.87,63.0,6:47 PM,,10.0,North,-9999.0,0,Los Angeles,California,90001
31,Clear,2016-05-21 02:47:00,48.0,,-,62,N/A,29.89,61.0,7:47 PM,,10.0,Variable,3.5,0,Los Angeles,California,90001
32,Clear,2016-05-21 03:47:00,50.0,,-,69,N/A,29.90,60.1,8:47 PM,,10.0,Calm,Calm,0,Los Angeles,California,90001
33,Clear,2016-05-21 04:47:00,50.0,,-,72,N/A,29.92,59.0,9:47 PM,,10.0,Calm,Calm,0,Los Angeles,California,90001
34,Clear,2016-05-21 05:47:00,50.0,,-,72,N/A,29.94,59.0,10:47 PM,,10.0,Calm,Calm,0,Los Angeles,California,90001
35,Mostly Cloudy,2016-05-21 06:47:00,50.0,,-,72,N/A,29.94,59.0,11:47 PM,,10.0,Calm,Calm,0,Los Angeles,California,90001
0,Overcast,2016-05-21 07:47:00,48.9,,-,72,N/A,29.94,57.9,12:47 AM,,10.0,Calm,Calm,0,Los Angeles,California,90001
1,Mostly Cloudy,2016-05-21 08:47:00,48.9,,-,72,N/A,29.94,57.9,1:47 AM,,10.0,Calm,Calm,0,Los Angeles,California,90001
2,Mostly Cloudy,2016-05-21 09:47:00,48.9,,-,74,N/A,29.93,57.0,2:47 AM,,10.0,Calm,Calm,0,Los Angeles,California,90001
3,Scattered Clouds,2016-05-21 10:47:00,48.9,,-,77,N/A,29.93,55.9,3:47 AM,,10.0,Calm,Calm,0,Los Angeles,California,90001
4,Mostly Cloudy,2016-05-21 11:47:00,48.9,,-,77,N/A,29.93,55.9,4:47 AM,,10.0,Calm,Calm,0,Los Angeles,California,90001
5,Mostly Cloudy,2016-05-21 12:23:00,48.9,,-,74,N/A,29.94,57.0,5:23 AM,,10.0,Calm,Calm,0,Los Angeles,California,90001
6,Mostly Cloudy,2016-05-21 12:27:00,48.9,,-,74,N/A,29.94,57.0,5:27 AM,,10.0,Calm,Calm,0,Los Angeles,California,90001
7,Mostly Cloudy,2016-05-21 12:37:00,48.9,,-,74,N/A,29.94,57.0,5:37 AM,,10.0,Calm,Calm,0,Los Angeles,California,90001
8,Overcast,2016-05-21 12:47:00,48.9,,-,74,N/A,29.94,57.0,5:47 AM,,10.0,Calm,Calm,0,Los Angeles,California,90001
9,Mostly Cloudy,2016-05-21 12:54:00,48.9,,-,77,N/A,29.94,55.9,5:54 AM,,10.0,Calm,Calm,0,Los Angeles,California,90001
10,Mostly Cloudy,2016-05-21 13:02:00,48.9,,-,74,N/A,29.94,57.0,6:02 AM,,10.0,Calm,Calm,0,Los Angeles,California,90001
11,Partly Cloudy,2016-05-21 13:47:00,50.0,,-,77,N/A,29.95,57.0,6:47 AM,,10.0,Calm,Calm,0,Los Angeles,California,90001
12,Clear,2016-05-21 14:47:00,48.9,,-,69,N/A,29.97,59.0,7:47 AM,,10.0,Calm,Calm,0,Los Angeles,California,90001
13,Clear,2016-05-21 15:47:00,48.0,,-,64,N/A,29.98,60.1,8:47 AM,,10.0,Calm,Calm,0,Los Angeles,California,90001
14,Clear,2016-05-21 16:47:00,46.0,,-,45,N/A,29.98,68.0,9:47 AM,,10.0,Calm,Calm,0,Los Angeles,California,90001
15,Mostly Cloudy,2016-05-21 17:47:00,44.1,,-,45,N/A,29.98,66.0,10:47 AM,,10.0,Variable,3.5,0,Los Angeles,California,90001
16,Mostly Cloudy,2016-05-21 18:47:00,45.0,,-,41,N/A,29.99,70.0,11:47 AM,,10.0,Calm,Calm,0,Los Angeles,California,90001
17,Overcast,2016-05-21 19:47:00,46.9,,-,50,N/A,29.99,66.0,12:47 PM,,10.0,Variable,4.6,0,Los Angeles,California,90001
18,Scattered Clouds,2016-05-21 20:47:00,48.9,,-,50,N/A,29.99,68.0,1:47 PM,,10.0,Variable,4.6,0,Los Angeles,California,90001
19,Scattered Clouds,2016-05-21 21:47:00,48.0,,-,51,N/A,29.99,66.9,2:47 PM,,10.0,West,5.8,260,Los Angeles,California,90001
20,Clear,2016-05-21 22:47:00,48.0,,-,52,N/A,29.99,66.0,3:47 PM,,10.0,Variable,6.9,0,Los Angeles,California,90001
21,Clear,2016-05-21 23:47:00,48.0,,-,52,N/A,29.99,66.0,4:47 PM,,10.0,Variable,4.6,0,Los Angeles,California,90001
22,Clear,2016-05-22 00:47:00,46.0,,-,48,N/A,29.99,66.0,5:47 PM,,10.0,West,6.9,270,Los Angeles,California,90001
23,Clear,2016-05-22 01:47:00,46.9,,-,56,N/A,30.00,63.0,6:47 PM,,10.0,Variable,5.8,0,Los Angeles,California,90001
24,Clear,2016-05-22 02:47:00,45.0,,-,53,N/A,30.00,62.1,7:47 PM,,10.0,Variable,3.5,0,Los Angeles,California,90001
25,Clear,2016-05-22 03:47:00,50.0,,-,67,N/A,30.01,61.0,8:47 PM,,10.0,Variable,3.5,0,Los Angeles,California,90001
26,Clear,2016-05-22 04:47:00,50.0,,-,67,N/A,30.02,61.0,9:47 PM,,10.0,Calm,Calm,0,Los Angeles,California,90001
27,Clear,2016-05-22 05:47:00,50.0,,-,69,N/A,30.03,60.1,10:47 PM,,10.0,Calm,Calm,0,Los Angeles,California,90001
28,Clear,2016-05-22 06:47:00,50.0,,-,72,N/A,30.03,59.0,11:47 PM,,10.0,Calm,Calm,0,Los Angeles,California,90001
0,Clear,2016-05-22 07:47:00,48.9,,-,69,N/A,30.02,59.0,12:47 AM,,10.0,Calm,Calm,0,Los Angeles,California,90001
1,Clear,2016-05-22 08:47:00,50.0,,-,75,N/A,30.03,57.9,1:47 AM,,10.0,Calm,Calm,0,Los Angeles,California,90001
2,Clear,2016-05-22 09:47:00,50.0,,-,75,N/A,30.02,57.9,2:47 AM,,10.0,Calm,Calm,0,Los Angeles,California,90001
3,Clear,2016-05-22 10:47:00,50.0,,-,75,N/A,30.03,57.9,3:47 AM,,10.0,East,3.5,90,Los Angeles,California,90001
4,Clear,2016-05-22 11:47:00,46.9,,-,69,N/A,30.03,57.0,4:47 AM,,10.0,ESE,3.5,110,Los Angeles,California,90001
5,Clear,2016-05-22 12:47:00,46.0,,-,67,N/A,30.04,57.0,5:47 AM,,10.0,Calm,Calm,0,Los Angeles,California,90001
6,Clear,2016-05-22 13:47:00,46.9,,-,67,N/A,30.04,57.9,6:47 AM,,10.0,East,3.5,100,Los Angeles,California,90001
7,Clear,2016-05-22 14:47:00,48.0,,-,62,N/A,30.05,61.0,7:47 AM,,10.0,Calm,Calm,0,Los Angeles,California,90001
8,Clear,2016-05-22 15:47:00,48.9,,-,60,N/A,30.05,63.0,8:47 AM,,10.0,Calm,Calm,0,Los Angeles,California,90001
9,Clear,2016-05-22 16:47:00,48.0,,-,51,N/A,30.05,66.9,9:47 AM,,10.0,Variable,3.5,0,Los Angeles,California,90001
10,Partly Cloudy,2016-05-22 17:47:00,46.9,,-,45,N/A,30.03,69.1,10:47 AM,,10.0,Calm,Calm,0,Los Angeles,California,90001
11,Mostly Cloudy,2016-05-22 18:47:00,46.9,,-,44,N/A,30.02,70.0,11:47 AM,,10.0,Calm,Calm,0,Los Angeles,California,90001
12,Clear,2016-05-22 19:47:00,46.0,,-,41,N/A,30.01,71.1,12:47 PM,,10.0,Variable,3.5,0,Los Angeles,California,90001
13,Clear,2016-05-22 20:47:00,48.0,,-,47,N/A,30.00,69.1,1:47 PM,,10.0,North,-9999.0,0,Los Angeles,California,90001
14,Clear,2016-05-22 21:47:00,48.0,,-,47,N/A,29.99,69.1,2:47 PM,,10.0,Variable,6.9,0,Los Angeles,California,90001
15,Clear,2016-05-22 22:47:00,45.0,,-,43,N/A,29.96,68.0,3:47 PM,,10.0,West,8.1,260,Los Angeles,California,90001
16,Clear,2016-05-22 23:47:00,46.0,,-,44,N/A,29.95,69.1,4:47 PM,,10.0,Variable,5.8,0,Los Angeles,California,90001
17,Clear,2016-05-23 00:47:00,46.9,,-,49,N/A,29.94,66.9,5:47 PM,,10.0,West,9.2,270,Los Angeles,California,90001
18,Clear,2016-05-23 01:47:00,45.0,,-,47,N/A,29.94,66.0,6:47 PM,,10.0,West,8.1,270,Los Angeles,California,90001
19,Clear,2016-05-23 02:47:00,48.9,,-,60,N/A,29.94,63.0,7:47 PM,,10.0,Variable,4.6,0,Los Angeles,California,90001
20,Clear,2016-05-23 03:47:00,51.1,,-,67,N/A,29.95,62.1,8:47 PM,,10.0,West,3.5,280,Los Angeles,California,90001
21,Clear,2016-05-23 04:47:00,51.1,,-,70,N/A,29.96,61.0,9:47 PM,,10.0,Calm,Calm,0,Los Angeles,California,90001
22,Clear,2016-05-23 05:47:00,52.0,,-,75,N/A,29.96,60.1,10:47 PM,,10.0,Calm,Calm,0,Los Angeles,California,90001
23,Clear,2016-05-23 06:47:00,51.1,,-,72,N/A,29.96,60.1,11:47 PM,,10.0,Calm,Calm,0,Los Angeles,California,90001
0,Clear,2016-05-23 07:47:00,52.0,,-,78,N/A,29.95,59.0,12:47 AM,,10.0,Calm,Calm,0,Los Angeles,California,90001
1,Clear,2016-05-23 08:47:00,51.1,,-,75,N/A,29.93,59.0,1:47 AM,,10.0,Calm,Calm,0,Los Angeles,California,90001
2,Clear,2016-05-23 09:47:00,51.1,,-,78,N/A,29.91,57.9,2:47 AM,,10.0,Calm,Calm,0,Los Angeles,California,90001
3,Clear,2016-05-23 10:47:00,50.0,,-,75,N/A,29.91,57.9,3:47 AM,,10.0,Calm,Calm,0,Los Angeles,California,90001
4,Clear,2016-05-23 11:47:00,50.0,,-,75,N/A,29.91,57.9,4:47 AM,,10.0,Calm,Calm,0,Los Angeles,California,90001
5,Clear,2016-05-23 12:47:00,50.0,,-,75,N/A,29.91,57.9,5:47 AM,,8.0,Calm,Calm,0,Los Angeles,California,90001
6,Partly Cloudy,2016-05-23 13:47:00,50.0,,-,72,N/A,29.93,59.0,6:47 AM,,10.0,East,3.5,90,Los Angeles,California,90001
7,Scattered Clouds,2016-05-23 14:47:00,52.0,,-,72,N/A,29.94,61.0,7:47 AM,,10.0,East,5.8,100,Los Angeles,California,90001
8,Mostly Cloudy,2016-05-23 14:51:00,52.0,,-,70,N/A,29.94,62.1,7:51 AM,,10.0,East,4.6,90,Los Angeles,California,90001
9,Scattered Clouds,2016-05-23 15:04:00,52.0,,-,72,N/A,29.95,61.0,8:04 AM,,9.0,ESE,5.8,110,Los Angeles,California,90001
10,Mostly Cloudy,2016-05-23 15:08:00,51.1,,-,67,N/A,29.95,62.1,8:08 AM,,10.0,East,4.6,100,Los Angeles,California,90001
11,Scattered Clouds,2016-05-23 15:23:00,51.1,,-,67,N/A,29.95,62.1,8:23 AM,,10.0,Variable,4.6,0,Los Angeles,California,90001
12,Mostly Cloudy,2016-05-23 15:33:00,51.1,,-,63,N/A,29.94,64.0,8:33 AM,,10.0,Variable,4.6,0,Los Angeles,California,90001
13,Scattered Clouds,2016-05-23 15:38:00,50.0,,-,60,N/A,29.94,64.0,8:38 AM,,10.0,East,4.6,80,Los Angeles,California,90001
14,Mostly Cloudy,2016-05-23 15:47:00,50.0,,-,60,N/A,29.94,64.0,8:47 AM,,10.0,Variable,4.6,0,Los Angeles,California,90001
15,Mostly Cloudy,2016-05-23 15:50:00,50.0,,-,60,N/A,29.95,64.0,8:50 AM,,10.0,Variable,3.5,0,Los Angeles,California,90001
16,Scattered Clouds,2016-05-23 16:04:00,50.0,,-,63,N/A,29.94,63.0,9:04 AM,,10.0,Variable,3.5,0,Los Angeles,California,90001
17,Mostly Cloudy,2016-05-23 16:07:00,50.0,,-,60,N/A,29.94,64.0,9:07 AM,,10.0,Variable,3.5,0,Los Angeles,California,90001
18,Mostly Cloudy,2016-05-23 16:16:00,50.0,,-,56,N/A,29.94,66.0,9:16 AM,,10.0,Variable,3.5,0,Los Angeles,California,90001
19,Mostly Cloudy,2016-05-23 16:47:00,48.9,,-,56,N/A,29.93,64.9,9:47 AM,,10.0,Calm,Calm,0,Los Angeles,California,90001
20,Scattered Clouds,2016-05-23 17:47:00,48.9,,-,47,N/A,29.93,70.0,10:47 AM,,10.0,Variable,5.8,0,Los Angeles,California,90001
21,Mostly Cloudy,2016-05-23 18:47:00,50.0,,-,46,N/A,29.93,72.0,11:47 AM,,10.0,Variable,3.5,0,Los Angeles,California,90001
22,Partly Cloudy,2016-05-23 19:47:00,50.0,,-,46,N/A,29.92,72.0,12:47 PM,,10.0,Variable,3.5,0,Los Angeles,California,90001
23,Partly Cloudy,2016-05-23 20:47:00,48.9,,-,42,N/A,29.90,73.0,1:47 PM,,10.0,Calm,Calm,0,Los Angeles,California,90001
24,Clear,2016-05-23 21:47:00,48.0,,-,43,N/A,29.89,72.0,2:47 PM,,10.0,Variable,4.6,0,Los Angeles,California,90001
25,Partly Cloudy,2016-05-23 22:47:00,51.1,,-,51,N/A,29.88,70.0,3:47 PM,,10.0,Variable,4.6,0,Los Angeles,California,90001
26,Clear,2016-05-23 23:47:00,52.0,,-,56,N/A,29.87,68.0,4:47 PM,,10.0,Variable,3.5,0,Los Angeles,California,90001
27,Clear,2016-05-24 00:47:00,53.1,,-,59,N/A,29.86,68.0,5:47 PM,,10.0,Variable,6.9,0,Los Angeles,California,90001
28,Clear,2016-05-24 01:47:00,51.1,,-,61,N/A,29.87,64.9,6:47 PM,,10.0,Variable,4.6,0,Los Angeles,California,90001
29,Clear,2016-05-24 02:47:00,51.1,,-,65,N/A,29.88,63.0,7:47 PM,,10.0,Variable,3.5,0,Los Angeles,California,90001
30,Clear,2016-05-24 03:47:00,50.0,,-,65,N/A,29.89,62.1,8:47 PM,,10.0,Calm,Calm,0,Los Angeles,California,90001
31,Overcast,2016-05-24 04:22:00,50.0,,-,65,N/A,29.90,62.1,9:22 PM,,10.0,Calm,Calm,0,Los Angeles,California,90001
32,Overcast,2016-05-24 04:26:00,50.0,,-,65,N/A,29.91,62.1,9:26 PM,,10.0,Calm,Calm,0,Los Angeles,California,90001
33,Mostly Cloudy,2016-05-24 04:47:00,48.9,,-,62,N/A,29.91,62.1,9:47 PM,,10.0,Calm,Calm,0,Los Angeles,California,90001
34,Partly Cloudy,2016-05-24 05:47:00,53.1,,-,75,N/A,29.93,61.0,10:47 PM,,10.0,Calm,Calm,0,Los Angeles,California,90001
35,Clear,2016-05-24 06:47:00,53.1,,-,81,N/A,29.92,59.0,11:47 PM,,10.0,Calm,Calm,0,Los Angeles,California,90001
0,Partly Cloudy,2016-05-24 07:47:00,52.0,,-,78,N/A,29.92,59.0,12:47 AM,,10.0,Calm,Calm,0,Los Angeles,California,90001
1,Clear,2016-05-24 08:47:00,51.1,,-,78,N/A,29.92,57.9,1:47 AM,,10.0,Calm,Calm,0,Los Angeles,California,90001
2,Scattered Clouds,2016-05-24 09:47:00,51.1,,-,78,N/A,29.92,57.9,2:47 AM,,10.0,Calm,Calm,0,Los Angeles,California,90001
3,Mostly Cloudy,2016-05-24 09:51:00,51.1,,-,78,N/A,29.92,57.9,2:51 AM,,10.0,Calm,Calm,0,Los Angeles,California,90001
4,Mostly Cloudy,2016-05-24 09:54:00,51.1,,-,78,N/A,29.92,57.9,2:54 AM,,10.0,Calm,Calm,0,Los Angeles,California,90001
5,Scattered Clouds,2016-05-24 10:01:00,52.0,,-,81,N/A,29.92,57.9,3:01 AM,,10.0,Calm,Calm,0,Los Angeles,California,90001
6,Partly Cloudy,2016-05-24 10:47:00,52.0,,-,81,N/A,29.92,57.9,3:47 AM,,10.0,Calm,Calm,0,Los Angeles,California,90001
7,Mostly Cloudy,2016-05-24 11:47:00,52.0,,-,78,N/A,29.92,59.0,4:47 AM,,10.0,Calm,Calm,0,Los Angeles,California,90001
8,Overcast,2016-05-24 12:06:00,52.0,,-,78,N/A,29.92,59.0,5:06 AM,,10.0,Calm,Calm,0,Los Angeles,California,90001
9,Overcast,2016-05-24 12:47:00,52.0,,-,78,N/A,29.92,59.0,5:47 AM,,10.0,Calm,Calm,0,Los Angeles,California,90001
10,Overcast,2016-05-24 13:47:00,52.0,,-,72,N/A,29.94,61.0,6:47 AM,,10.0,Calm,Calm,0,Los Angeles,California,90001
11,Scattered Clouds,2016-05-24 14:05:00,52.0,,-,72,N/A,29.95,61.0,7:05 AM,,10.0,Calm,Calm,0,Los Angeles,California,90001
12,Scattered Clouds,2016-05-24 14:47:00,52.0,,-,67,N/A,29.95,63.0,7:47 AM,,10.0,Calm,Calm,0,Los Angeles,California,90001
13,Mostly Cloudy,2016-05-24 14:56:00,51.1,,-,65,N/A,29.96,63.0,7:56 AM,,10.0,Calm,Calm,0,Los Angeles,California,90001
14,Scattered Clouds,2016-05-24 14:59:00,51.1,,-,65,N/A,29.96,63.0,7:59 AM,,10.0,Calm,Calm,0,Los Angeles,California,90001
15,Mostly Cloudy,2016-05-24 15:02:00,51.1,,-,65,N/A,29.96,63.0,8:02 AM,,10.0,Calm,Calm,0,Los Angeles,California,90001
16,Mostly Cloudy,2016-05-24 15:26:00,50.0,,-,63,N/A,29.97,63.0,8:26 AM,,10.0,Variable,3.5,0,Los Angeles,California,90001
17,Mostly Cloudy,2016-05-24 15:47:00,51.1,,-,61,N/A,29.97,64.9,8:47 AM,,10.0,ESE,3.5,120,Los Angeles,California,90001
18,Mostly Cloudy,2016-05-24 16:31:00,51.1,,-,55,N/A,29.98,68.0,9:31 AM,,10.0,Variable,5.8,0,Los Angeles,California,90001
19,Mostly Cloudy,2016-05-24 16:35:00,51.1,,-,55,N/A,29.98,68.0,9:35 AM,,10.0,Variable,4.6,0,Los Angeles,California,90001
20,Scattered Clouds,2016-05-24 16:47:00,52.0,,-,54,N/A,29.98,69.1,9:47 AM,,10.0,Variable,4.6,0,Los Angeles,California,90001
21,Overcast,2016-05-24 17:47:00,50.0,,-,56,N/A,29.99,66.0,10:47 AM,,10.0,Calm,Calm,0,Los Angeles,California,90001
22,Mostly Cloudy,2016-05-24 18:47:00,52.0,,-,56,N/A,30.00,68.0,11:47 AM,,10.0,Variable,3.5,0,Los Angeles,California,90001
23,Overcast,2016-05-24 19:47:00,51.1,,-,55,N/A,30.00,68.0,12:47 PM,,10.0,Variable,3.5,0,Los Angeles,California,90001
24,Partly Cloudy,2016-05-24 20:47:00,51.1,,-,51,N/A,30.00,70.0,1:47 PM,,10.0,Variable,3.5,0,Los Angeles,California,90001
25,Partly Cloudy,2016-05-24 21:47:00,52.0,,-,54,N/A,30.00,69.1,2:47 PM,,10.0,Variable,5.8,0,Los Angeles,California,90001
26,Clear,2016-05-24 22:47:00,52.0,,-,59,N/A,29.99,66.9,3:47 PM,,10.0,West,6.9,280,Los Angeles,California,90001
27,Clear,2016-05-24 23:47:00,52.0,,-,60,N/A,29.99,66.0,4:47 PM,,10.0,Variable,5.8,0,Los Angeles,California,90001
28,Clear,2016-05-25 00:47:00,53.1,,-,63,N/A,30.00,66.0,5:47 PM,,10.0,Variable,5.8,0,Los Angeles,California,90001
29,Partly Cloudy,2016-05-25 01:47:00,51.1,,-,63,N/A,30.01,64.0,6:47 PM,,10.0,Variable,3.5,0,Los Angeles,California,90001
30,Scattered Clouds,2016-05-25 02:47:00,51.1,,-,67,N/A,30.02,62.1,7:47 PM,,10.0,West,6.9,280,Los Angeles,California,90001
31,Mostly Cloudy,2016-05-25 03:11:00,52.0,,-,70,N/A,30.03,62.1,8:11 PM,,10.0,Variable,3.5,0,Los Angeles,California,90001
32,Overcast,2016-05-25 03:47:00,52.0,,-,70,N/A,30.04,62.1,8:47 PM,,10.0,WSW,3.5,250,Los Angeles,California,90001
33,Mostly Cloudy,2016-05-25 04:47:00,52.0,,-,75,N/A,30.05,60.1,9:47 PM,,10.0,West,4.6,280,Los Angeles,California,90001
34,Scattered Clouds,2016-05-25 04:59:00,52.0,,-,75,N/A,30.05,60.1,9:59 PM,,10.0,Variable,3.5,0,Los Angeles,California,90001
35,Clear,2016-05-25 05:47:00,51.1,,-,72,N/A,30.05,60.1,10:47 PM,,10.0,Calm,Calm,0,Los Angeles,California,90001
36,Mostly Cloudy,2016-05-25 06:47:00,51.1,,-,72,N/A,30.05,60.1,11:47 PM,,10.0,Calm,Calm,0,Los Angeles,California,90001
0,Mostly Cloudy,2016-05-25 07:47:00,53.1,,-,78,N/A,30.05,60.1,12:47 AM,,10.0,Calm,Calm,0,Los Angeles,California,90001
1,Scattered Clouds,2016-05-25 08:47:00,52.0,,-,78,N/A,30.04,59.0,1:47 AM,,10.0,Calm,Calm,0,Los Angeles,California,90001
2,Partly Cloudy,2016-05-25 09:47:00,53.1,,-,84,N/A,30.03,57.9,2:47 AM,,10.0,Calm,Calm,0,Los Angeles,California,90001
3,Clear,2016-05-25 10:47:00,52.0,,-,81,N/A,30.03,57.9,3:47 AM,,10.0,Calm,Calm,0,Los Angeles,California,90001
4,Scattered Clouds,2016-05-25 11:47:00,52.0,,-,83,N/A,30.03,57.0,4:47 AM,,10.0,Calm,Calm,0,Los Angeles,California,90001
5,Mostly Cloudy,2016-05-25 12:47:00,51.1,,-,78,N/A,30.04,57.9,5:47 AM,,10.0,Calm,Calm,0,Los Angeles,California,90001
6,Scattered Clouds,2016-05-25 13:47:00,52.0,,-,78,N/A,30.05,59.0,6:47 AM,,10.0,Calm,Calm,0,Los Angeles,California,90001
7,Mostly Cloudy,2016-05-25 14:47:00,52.0,,-,75,N/A,30.06,60.1,7:47 AM,,10.0,Variable,3.5,0,Los Angeles,California,90001
8,Overcast,2016-05-25 15:47:00,52.0,,-,70,N/A,30.07,62.1,8:47 AM,,10.0,Calm,Calm,0,Los Angeles,California,90001
9,Overcast,2016-05-25 16:47:00,52.0,,-,63,N/A,30.08,64.9,9:47 AM,,10.0,Variable,3.5,0,Los Angeles,California,90001
10,Overcast,2016-05-25 17:47:00,50.0,,-,58,N/A,30.09,64.9,10:47 AM,,10.0,Variable,4.6,0,Los Angeles,California,90001
11,Overcast,2016-05-25 18:47:00,48.9,,-,56,N/A,30.09,64.9,11:47 AM,,10.0,Variable,4.6,0,Los Angeles,California,90001
12,Overcast,2016-05-25 19:47:00,50.0,,-,54,N/A,30.09,66.9,12:47 PM,,10.0,Variable,3.5,0,Los Angeles,California,90001
13,Overcast,2016-05-25 20:47:00,51.1,,-,57,N/A,30.08,66.9,1:47 PM,,10.0,West,4.6,260,Los Angeles,California,90001
14,Overcast,2016-05-25 21:47:00,48.0,,-,51,N/A,30.08,66.9,2:47 PM,,10.0,Variable,5.8,0,Los Angeles,California,90001
15,Scattered Clouds,2016-05-25 22:47:00,48.0,,-,49,N/A,30.06,68.0,3:47 PM,,10.0,Calm,Calm,0,Los Angeles,California,90001
16,Clear,2016-05-25 23:47:00,44.1,,-,44,N/A,30.05,66.9,4:47 PM,,10.0,Variable,6.9,0,Los Angeles,California,90001
17,Clear,2016-05-26 00:47:00,48.9,,-,52,N/A,30.05,66.9,5:47 PM,,10.0,Variable,5.8,0,Los Angeles,California,90001
18,Clear,2016-05-26 01:47:00,50.0,,-,56,N/A,30.05,66.0,6:47 PM,,10.0,Variable,4.6,0,Los Angeles,California,90001
19,Scattered Clouds,2016-05-26 02:47:00,50.0,,-,63,N/A,30.06,63.0,7:47 PM,,10.0,West,5.8,270,Los Angeles,California,90001
20,Clear,2016-05-26 03:47:00,53.1,,-,75,N/A,30.07,61.0,8:47 PM,,10.0,Calm,Calm,0,Los Angeles,California,90001
21,Clear,2016-05-26 04:47:00,52.0,,-,72,N/A,30.07,61.0,9:47 PM,,10.0,Calm,Calm,0,Los Angeles,California,90001
22,Clear,2016-05-26 05:47:00,53.1,,-,78,N/A,30.08,60.1,10:47 PM,,10.0,Calm,Calm,0,Los Angeles,California,90001
23,Clear,2016-05-26 06:47:00,53.1,,-,81,N/A,30.07,59.0,11:47 PM,,10.0,Calm,Calm,0,Los Angeles,California,90001
0,Clear,2016-05-26 07:47:00,53.1,,-,81,N/A,30.06,59.0,12:47 AM,,10.0,Calm,Calm,0,Los Angeles,California,90001
1,Clear,2016-05-26 08:47:00,52.0,,-,78,N/A,30.05,59.0,1:47 AM,,10.0,East,3.5,100,Los Angeles,California,90001
2,Clear,2016-05-26 09:47:00,53.1,,-,84,N/A,30.05,57.9,2:47 AM,,10.0,Calm,Calm,0,Los Angeles,California,90001
3,Clear,2016-05-26 10:47:00,52.0,,-,78,N/A,30.04,59.0,3:47 AM,,10.0,Calm,Calm,0,Los Angeles,California,90001
4,Scattered Clouds,2016-05-26 11:47:00,52.0,,-,81,N/A,30.03,57.9,4:47 AM,,10.0,Calm,Calm,0,Los Angeles,California,90001
5,Clear,2016-05-26 12:47:00,51.1,,-,78,N/A,30.05,57.9,5:47 AM,,9.0,Calm,Calm,0,Los Angeles,California,90001
6,Mostly Cloudy,2016-05-26 13:31:00,50.0,,-,72,N/A,30.07,59.0,6:31 AM,,10.0,Calm,Calm,0,Los Angeles,California,90001
7,Mostly Cloudy,2016-05-26 13:47:00,50.0,,-,72,N/A,30.06,59.0,6:47 AM,,10.0,ENE,3.5,70,Los Angeles,California,90001
8,Scattered Clouds,2016-05-26 14:11:00,51.1,,-,70,N/A,30.07,61.0,7:11 AM,,10.0,East,3.5,80,Los Angeles,California,90001
9,Mostly Cloudy,2016-05-26 14:32:00,52.0,,-,70,N/A,30.07,62.1,7:32 AM,,10.0,East,4.6,90,Los Angeles,California,90001
10,Scattered Clouds,2016-05-26 14:44:00,51.1,,-,67,N/A,30.07,62.1,7:44 AM,,10.0,East,4.6,80,Los Angeles,California,90001
11,Scattered Clouds,2016-05-26 14:47:00,51.1,,-,65,N/A,30.07,63.0,7:47 AM,,10.0,Variable,3.5,0,Los Angeles,California,90001
12,Mostly Cloudy,2016-05-26 15:47:00,51.1,,-,63,N/A,30.06,64.0,8:47 AM,,10.0,Calm,Calm,0,Los Angeles,California,90001
13,Scattered Clouds,2016-05-26 15:51:00,51.1,,-,63,N/A,30.07,64.0,8:51 AM,,10.0,Calm,Calm,0,Los Angeles,California,90001
14,Mostly Cloudy,2016-05-26 16:30:00,51.1,,-,61,N/A,30.06,64.9,9:30 AM,,10.0,Variable,3.5,0,Los Angeles,California,90001
15,Mostly Cloudy,2016-05-26 16:38:00,51.1,,-,59,N/A,30.06,66.0,9:38 AM,,10.0,Calm,Calm,0,Los Angeles,California,90001
16,Mostly Cloudy,2016-05-26 16:47:00,51.1,,-,55,N/A,30.06,68.0,9:47 AM,,10.0,Calm,Calm,0,Los Angeles,California,90001
17,Scattered Clouds,2016-05-26 16:55:00,51.1,,-,55,N/A,30.06,68.0,9:55 AM,,10.0,Calm,Calm,0,Los Angeles,California,90001
18,Partly Cloudy,2016-05-26 17:47:00,51.1,,-,51,N/A,30.05,70.0,10:47 AM,,10.0,Variable,3.5,0,Los Angeles,California,90001
19,Mostly Cloudy,2016-05-26 18:47:00,53.1,,-,57,N/A,30.04,69.1,11:47 AM,,10.0,Variable,3.5,0,Los Angeles,California,90001
20,Mostly Cloudy,2016-05-26 19:47:00,53.1,,-,55,N/A,30.04,70.0,12:47 PM,,10.0,Calm,Calm,0,Los Angeles,California,90001
21,Clear,2016-05-26 20:47:00,53.1,,-,53,N/A,30.01,71.1,1:47 PM,,10.0,Variable,3.5,0,Los Angeles,California,90001
22,Clear,2016-05-26 21:47:00,52.0,,-,53,N/A,30.00,70.0,2:47 PM,,10.0,Variable,5.8,0,Los Angeles,California,90001
23,Clear,2016-05-26 22:47:00,54.0,,-,58,N/A,29.99,69.1,3:47 PM,,10.0,West,8.1,280,Los Angeles,California,90001
24,Clear,2016-05-26 23:47:00,54.0,,-,61,N/A,29.97,68.0,4:47 PM,,10.0,Variable,3.5,0,Los Angeles,California,90001
25,Clear,2016-05-27 00:47:00,53.1,,-,59,N/A,29.96,68.0,5:47 PM,,10.0,Variable,4.6,0,Los Angeles,California,90001
26,Clear,2016-05-27 01:47:00,53.1,,-,65,N/A,29.96,64.9,6:47 PM,,10.0,West,3.5,270,Los Angeles,California,90001
27,Clear,2016-05-27 02:47:00,50.0,,-,63,N/A,29.96,63.0,7:47 PM,,10.0,West,4.6,270,Los Angeles,California,90001
28,Clear,2016-05-27 03:47:00,52.0,,-,70,N/A,29.96,62.1,8:47 PM,,10.0,Calm,Calm,0,Los Angeles,California,90001
29,Clear,2016-05-27 04:47:00,52.0,,-,72,N/A,29.97,61.0,9:47 PM,,10.0,Calm,Calm,0,Los Angeles,California,90001
30,Clear,2016-05-27 05:47:00,54.0,,-,78,N/A,29.98,61.0,10:47 PM,,10.0,Calm,Calm,0,Los Angeles,California,90001
31,Clear,2016-05-27 06:47:00,54.0,,-,80,N/A,29.97,60.1,11:47 PM,,10.0,Calm,Calm,0,Los Angeles,California,90001
0,Clear,2016-05-27 07:47:00,54.0,,-,80,N/A,29.97,60.1,12:47 AM,,10.0,Calm,Calm,0,Los Angeles,California,90001
1,Clear,2016-05-27 08:47:00,54.0,,-,83,N/A,29.97,59.0,1:47 AM,,10.0,Calm,Calm,0,Los Angeles,California,90001
2,Clear,2016-05-27 09:47:00,53.1,,-,81,N/A,29.95,59.0,2:47 AM,,10.0,Calm,Calm,0,Los Angeles,California,90001
3,Clear,2016-05-27 10:47:00,53.1,,-,81,N/A,29.94,59.0,3:47 AM,,10.0,Calm,Calm,0,Los Angeles,California,90001
4,Scattered Clouds,2016-05-27 11:47:00,53.1,,-,81,N/A,29.94,59.0,4:47 AM,,10.0,Calm,Calm,0,Los Angeles,California,90001
5,Mostly Cloudy,2016-05-27 11:54:00,53.1,,-,81,N/A,29.94,59.0,4:54 AM,,10.0,Calm,Calm,0,Los Angeles,California,90001
6,Overcast,2016-05-27 12:36:00,55.0,,-,83,N/A,29.95,60.1,5:36 AM,,10.0,SE,4.6,130,Los Angeles,California,90001
7,Overcast,2016-05-27 12:47:00,54.0,,-,80,N/A,29.94,60.1,5:47 AM,,10.0,Calm,Calm,0,Los Angeles,California,90001
8,Overcast,2016-05-27 13:47:00,54.0,,-,78,N/A,29.94,61.0,6:47 AM,,10.0,East,4.6,90,Los Angeles,California,90001
9,Overcast,2016-05-27 14:47:00,54.0,,-,75,N/A,29.94,62.1,7:47 AM,,10.0,Calm,Calm,0,Los Angeles,California,90001
10,Overcast,2016-05-27 15:47:00,55.0,,-,75,N/A,29.95,63.0,8:47 AM,,9.0,Calm,Calm,0,Los Angeles,California,90001
11,Overcast,2016-05-27 16:47:00,55.0,,-,70,N/A,29.94,64.9,9:47 AM,,10.0,West,3.5,260,Los Angeles,California,90001
12,Scattered Clouds,2016-05-27 17:44:00,55.0,,-,63,N/A,29.92,68.0,10:44 AM,,10.0,Calm,Calm,0,Los Angeles,California,90001
13,Scattered Clouds,2016-05-27 17:47:00,55.0,,-,63,N/A,29.92,68.0,10:47 AM,,10.0,Calm,Calm,0,Los Angeles,California,90001
14,Clear,2016-05-27 18:47:00,55.0,,-,55,N/A,29.90,72.0,11:47 AM,,10.0,Calm,Calm,0,Los Angeles,California,90001
15,Clear,2016-05-27 19:47:00,55.9,,-,55,N/A,29.89,73.0,12:47 PM,,10.0,Variable,3.5,0,Los Angeles,California,90001
16,Clear,2016-05-27 20:47:00,55.9,,-,57,N/A,29.87,72.0,1:47 PM,,10.0,Variable,4.6,0,Los Angeles,California,90001
17,Clear,2016-05-27 21:47:00,55.0,,-,59,N/A,29.85,70.0,2:47 PM,,10.0,West,8.1,280,Los Angeles,California,90001
18,Clear,2016-05-27 22:47:00,55.9,,-,59,N/A,29.84,71.1,3:47 PM,,10.0,West,9.2,270,Los Angeles,California,90001
19,Clear,2016-05-27 23:47:00,55.9,,-,63,N/A,29.83,69.1,4:47 PM,,10.0,Variable,3.5,0,Los Angeles,California,90001
20,Clear,2016-05-28 00:47:00,57.0,,-,68,N/A,29.83,68.0,5:47 PM,,10.0,West,5.8,260,Los Angeles,California,90001
21,Clear,2016-05-28 01:47:00,55.9,,-,70,N/A,29.84,66.0,6:47 PM,,10.0,West,5.8,260,Los Angeles,California,90001
22,Mostly Cloudy,2016-05-28 02:30:00,55.9,,-,78,N/A,29.86,63.0,7:30 PM,,10.0,West,8.1,280,Los Angeles,California,90001
23,Overcast,2016-05-28 02:47:00,55.9,,-,78,N/A,29.87,63.0,7:47 PM,,10.0,Calm,Calm,0,Los Angeles,California,90001
24,Overcast,2016-05-28 03:47:00,55.0,,-,78,N/A,29.88,62.1,8:47 PM,,10.0,Calm,Calm,0,Los Angeles,California,90001
25,Scattered Clouds,2016-05-28 04:47:00,53.1,,-,75,N/A,29.89,61.0,9:47 PM,,10.0,West,4.6,280,Los Angeles,California,90001
26,Clear,2016-05-28 05:47:00,54.0,,-,80,N/A,29.88,60.1,10:47 PM,,10.0,Calm,Calm,0,Los Angeles,California,90001
27,Clear,2016-05-28 06:47:00,54.0,,-,80,N/A,29.87,60.1,11:47 PM,,10.0,Calm,Calm,0,Los Angeles,California,90001
0,Mostly Cloudy,2016-05-28 07:07:00,54.0,,-,78,N/A,29.88,61.0,12:07 AM,,10.0,Calm,Calm,0,Los Angeles,California,90001
1,Overcast,2016-05-28 07:38:00,54.0,,-,78,N/A,29.88,61.0,12:38 AM,,10.0,Calm,Calm,0,Los Angeles,California,90001
2,Overcast,2016-05-28 07:47:00,54.0,,-,78,N/A,29.87,61.0,12:47 AM,,10.0,Calm,Calm,0,Los Angeles,California,90001
3,Overcast,2016-05-28 08:39:00,54.0,,-,75,N/A,29.86,62.1,1:39 AM,,9.0,Calm,Calm,0,Los Angeles,California,90001
4,Overcast,2016-05-28 08:47:00,55.0,,-,78,N/A,29.85,62.1,1:47 AM,,9.0,Calm,Calm,0,Los Angeles,California,90001
5,Overcast,2016-05-28 09:47:00,55.0,,-,78,N/A,29.83,62.1,2:47 AM,,8.0,Variable,3.5,0,Los Angeles,California,90001
6,Overcast,2016-05-28 10:47:00,54.0,,-,75,N/A,29.83,62.1,3:47 AM,,7.0,Calm,Calm,0,Los Angeles,California,90001
7,Overcast,2016-05-28 11:47:00,54.0,,-,75,N/A,29.83,62.1,4:47 AM,,7.0,Calm,Calm,0,Los Angeles,California,90001
8,Overcast,2016-05-28 12:47:00,55.0,,-,78,N/A,29.84,62.1,5:47 AM,,8.0,Calm,Calm,0,Los Angeles,California,90001
9,Haze,2016-05-28 13:47:00,55.0,,-,75,N/A,29.85,63.0,6:47 AM,,6.0,Calm,Calm,0,Los Angeles,California,90001
10,Haze,2016-05-28 14:47:00,54.0,,-,72,N/A,29.88,63.0,7:47 AM,,6.0,Calm,Calm,0,Los Angeles,California,90001
11,Overcast,2016-05-28 15:47:00,54.0,,-,70,N/A,29.89,64.0,8:47 AM,,7.0,Calm,Calm,0,Los Angeles,California,90001
12,Overcast,2016-05-28 16:47:00,54.0,,-,68,N/A,29.89,64.9,9:47 AM,,8.0,Variable,3.5,0,Los Angeles,California,90001
13,Overcast,2016-05-28 17:47:00,54.0,,-,63,N/A,29.90,66.9,10:47 AM,,9.0,East,4.6,80,Los Angeles,California,90001
14,Overcast,2016-05-28 18:47:00,55.0,,-,63,N/A,29.89,68.0,11:47 AM,,10.0,Variable,3.5,0,Los Angeles,California,90001
15,Mostly Cloudy,2016-05-28 19:47:00,57.0,,-,63,N/A,29.88,70.0,12:47 PM,,9.0,Variable,3.5,0,Los Angeles,California,90001
16,Scattered Clouds,2016-05-28 19:59:00,55.9,,-,59,N/A,29.88,71.1,12:59 PM,,9.0,Calm,Calm,0,Los Angeles,California,90001
17,Clear,2016-05-28 20:47:00,57.0,,-,59,N/A,29.87,72.0,1:47 PM,,10.0,Calm,Calm,0,Los Angeles,California,90001
18,Clear,2016-05-28 21:47:00,55.9,,-,61,N/A,29.86,70.0,2:47 PM,,10.0,Variable,3.5,0,Los Angeles,California,90001
19,Partly Cloudy,2016-05-28 22:47:00,55.9,,-,65,N/A,29.86,68.0,3:47 PM,,10.0,Variable,5.8,0,Los Angeles,California,90001
20,Partly Cloudy,2016-05-28 23:47:00,55.0,,-,66,N/A,29.86,66.9,4:47 PM,,10.0,Variable,4.6,0,Los Angeles,California,90001
21,Mostly Cloudy,2016-05-29 00:47:00,55.0,,-,73,N/A,29.87,64.0,5:47 PM,,10.0,West,8.1,270,Los Angeles,California,90001
22,Overcast,2016-05-29 01:15:00,55.0,,-,73,N/A,29.88,64.0,6:15 PM,,10.0,West,6.9,270,Los Angeles,California,90001
23,Overcast,2016-05-29 01:47:00,55.0,,-,75,N/A,29.89,63.0,6:47 PM,,10.0,West,5.8,270,Los Angeles,California,90001
24,Overcast,2016-05-29 02:47:00,54.0,,-,75,N/A,29.91,62.1,7:47 PM,,10.0,West,8.1,270,Los Angeles,California,90001
25,Overcast,2016-05-29 03:47:00,54.0,,-,75,N/A,29.94,62.1,8:47 PM,,10.0,Variable,4.6,0,Los Angeles,California,90001
26,Overcast,2016-05-29 03:56:00,54.0,,-,78,N/A,29.94,61.0,8:56 PM,,10.0,Calm,Calm,0,Los Angeles,California,90001
27,Overcast,2016-05-29 04:47:00,53.1,,-,72,N/A,29.96,62.1,9:47 PM,,10.0,Variable,3.5,0,Los Angeles,California,90001
28,Overcast,2016-05-29 05:47:00,53.1,,-,75,N/A,29.96,61.0,10:47 PM,,10.0,West,5.8,270,Los Angeles,California,90001
29,Overcast,2016-05-29 06:47:00,53.1,,-,75,N/A,29.96,61.0,11:47 PM,,10.0,WNW,3.5,290,Los Angeles,California,90001
0,Overcast,2016-05-29 07:47:00,53.1,,-,75,N/A,29.96,61.0,12:47 AM,,10.0,Calm,Calm,0,Los Angeles,California,90001
1,Overcast,2016-05-29 08:47:00,53.1,,-,75,N/A,29.96,61.0,1:47 AM,,10.0,Calm,Calm,0,Los Angeles,California,90001
2,Overcast,2016-05-29 09:47:00,53.1,,-,75,N/A,29.95,61.0,2:47 AM,,10.0,Calm,Calm,0,Los Angeles,California,90001
3,Overcast,2016-05-29 10:47:00,54.0,,-,78,N/A,29.95,61.0,3:47 AM,,10.0,Calm,Calm,0,Los Angeles,California,90001
4,Overcast,2016-05-29 11:47:00,54.0,,-,78,N/A,29.96,61.0,4:47 AM,,10.0,Calm,Calm,0,Los Angeles,California,90001
5,Overcast,2016-05-29 12:47:00,54.0,,-,78,N/A,29.97,61.0,5:47 AM,,10.0,Calm,Calm,0,Los Angeles,California,90001
6,Overcast,2016-05-29 13:47:00,54.0,,-,78,N/A,29.99,61.0,6:47 AM,,10.0,Calm,Calm,0,Los Angeles,California,90001
7,Overcast,2016-05-29 14:47:00,55.0,,-,78,N/A,30.00,62.1,7:47 AM,,10.0,Calm,Calm,0,Los Angeles,California,90001
8,Overcast,2016-05-29 15:47:00,54.0,,-,72,N/A,30.01,63.0,8:47 AM,,10.0,Calm,Calm,0,Los Angeles,California,90001
9,Overcast,2016-05-29 16:47:00,54.0,,-,70,N/A,30.01,64.0,9:47 AM,,10.0,Calm,Calm,0,Los Angeles,California,90001
10,Overcast,2016-05-29 17:47:00,53.1,,-,65,N/A,30.01,64.9,10:47 AM,,10.0,Calm,Calm,0,Los Angeles,California,90001
11,Overcast,2016-05-29 18:01:00,53.1,,-,63,N/A,30.01,66.0,11:01 AM,,10.0,Calm,Calm,0,Los Angeles,California,90001
12,Overcast,2016-05-29 18:32:00,53.1,,-,63,N/A,30.01,66.0,11:32 AM,,10.0,Calm,Calm,0,Los Angeles,California,90001
13,Overcast,2016-05-29 18:47:00,53.1,,-,63,N/A,30.01,66.0,11:47 AM,,10.0,Calm,Calm,0,Los Angeles,California,90001
14,Overcast,2016-05-29 19:19:00,53.1,,-,61,N/A,30.01,66.9,12:19 PM,,10.0,Calm,Calm,0,Los Angeles,California,90001
15,Overcast,2016-05-29 19:47:00,53.1,,-,59,N/A,30.00,68.0,12:47 PM,,10.0,Calm,Calm,0,Los Angeles,California,90001
16,Overcast,2016-05-29 20:47:00,54.0,,-,57,N/A,29.99,70.0,1:47 PM,,10.0,Variable,3.5,0,Los Angeles,California,90001
17,Mostly Cloudy,2016-05-29 21:47:00,54.0,,-,57,N/A,29.97,70.0,2:47 PM,,10.0,North,-9999.0,0,Los Angeles,California,90001
18,Clear,2016-05-29 22:47:00,54.0,,-,58,N/A,29.96,69.1,3:47 PM,,10.0,Variable,3.5,0,Los Angeles,California,90001
19,Clear,2016-05-29 23:47:00,54.0,,-,61,N/A,29.96,68.0,4:47 PM,,10.0,Variable,3.5,0,Los Angeles,California,90001
20,Clear,2016-05-30 00:47:00,54.0,,-,63,N/A,29.96,66.9,5:47 PM,,10.0,West,4.6,260,Los Angeles,California,90001
21,Clear,2016-05-30 01:47:00,53.1,,-,65,N/A,29.97,64.9,6:47 PM,,10.0,Variable,3.5,0,Los Angeles,California,90001
22,Clear,2016-05-30 02:47:00,53.1,,-,70,N/A,29.98,63.0,7:47 PM,,10.0,WSW,4.6,250,Los Angeles,California,90001
23,Clear,2016-05-30 03:47:00,53.1,,-,72,N/A,29.99,62.1,8:47 PM,,10.0,West,4.6,260,Los Angeles,California,90001
24,Clear,2016-05-30 04:47:00,52.0,,-,70,N/A,30.00,62.1,9:47 PM,,10.0,Calm,Calm,0,Los Angeles,California,90001
25,Clear,2016-05-30 05:47:00,52.0,,-,72,N/A,30.01,61.0,10:47 PM,,10.0,Calm,Calm,0,Los Angeles,California,90001
26,Clear,2016-05-30 06:47:00,54.0,,-,80,N/A,30.00,60.1,11:47 PM,,10.0,West,3.5,270,Los Angeles,California,90001
0,Clear,2016-05-30 07:47:00,54.0,,-,80,N/A,30.00,60.1,12:47 AM,,10.0,West,4.6,270,Los Angeles,California,90001
1,Clear,2016-05-30 08:47:00,54.0,,-,83,N/A,29.99,59.0,1:47 AM,,10.0,Calm,Calm,0,Los Angeles,California,90001
2,Clear,2016-05-30 09:47:00,54.0,,-,83,N/A,29.99,59.0,2:47 AM,,9.0,Calm,Calm,0,Los Angeles,California,90001
3,Partly Cloudy,2016-05-30 10:47:00,54.0,,-,87,N/A,29.99,57.9,3:47 AM,,9.0,Calm,Calm,0,Los Angeles,California,90001
4,Mostly Cloudy,2016-05-30 10:56:00,54.0,,-,87,N/A,29.99,57.9,3:56 AM,,10.0,Calm,Calm,0,Los Angeles,California,90001
5,Mostly Cloudy,2016-05-30 11:38:00,54.0,,-,87,N/A,29.99,57.9,4:38 AM,,10.0,Calm,Calm,0,Los Angeles,California,90001
6,Mostly Cloudy,2016-05-30 11:47:00,54.0,,-,87,N/A,29.99,57.9,4:47 AM,,10.0,Calm,Calm,0,Los Angeles,California,90001
7,Overcast,2016-05-30 12:47:00,54.0,,-,83,N/A,30.00,59.0,5:47 AM,,10.0,Calm,Calm,0,Los Angeles,California,90001
8,Overcast,2016-05-30 13:47:00,55.0,,-,83,N/A,30.01,60.1,6:47 AM,,10.0,Calm,Calm,0,Los Angeles,California,90001
9,Overcast,2016-05-30 13:53:00,54.0,,-,80,N/A,30.01,60.1,6:53 AM,,10.0,Calm,Calm,0,Los Angeles,California,90001
10,Overcast,2016-05-30 14:47:00,55.0,,-,81,N/A,30.01,61.0,7:47 AM,,10.0,Calm,Calm,0,Los Angeles,California,90001
11,Overcast,2016-05-30 15:47:00,54.0,,-,72,N/A,30.01,63.0,8:47 AM,,10.0,Calm,Calm,0,Los Angeles,California,90001
12,Overcast,2016-05-30 16:47:00,55.0,,-,68,N/A,30.01,66.0,9:47 AM,,10.0,Calm,Calm,0,Los Angeles,California,90001
13,Overcast,2016-05-30 17:03:00,55.0,,-,66,N/A,30.00,66.9,10:03 AM,,10.0,Calm,Calm,0,Los Angeles,California,90001
14,Overcast,2016-05-30 17:39:00,54.0,,-,65,N/A,30.00,66.0,10:39 AM,,10.0,Calm,Calm,0,Los Angeles,California,90001
15,Overcast,2016-05-30 17:47:00,54.0,,-,65,N/A,30.00,66.0,10:47 AM,,10.0,Calm,Calm,0,Los Angeles,California,90001
16,Overcast,2016-05-30 18:47:00,55.0,,-,66,N/A,29.99,66.9,11:47 AM,,10.0,West,4.6,260,Los Angeles,California,90001
17,Overcast,2016-05-30 19:47:00,55.0,,-,61,N/A,29.98,69.1,12:47 PM,,10.0,Calm,Calm,0,Los Angeles,California,90001
18,Scattered Clouds,2016-05-30 20:07:00,55.0,,-,59,N/A,29.97,70.0,1:07 PM,,10.0,Variable,3.5,0,Los Angeles,California,90001
19,Scattered Clouds,2016-05-30 20:47:00,55.0,,-,55,N/A,29.95,72.0,1:47 PM,,10.0,Variable,3.5,0,Los Angeles,California,90001
20,Partly Cloudy,2016-05-30 21:47:00,55.9,,-,61,N/A,29.94,70.0,2:47 PM,,10.0,Calm,Calm,0,Los Angeles,California,90001
21,Clear,2016-05-30 22:47:00,55.9,,-,61,N/A,29.92,70.0,3:47 PM,,10.0,Variable,4.6,0,Los Angeles,California,90001
22,Clear,2016-05-30 23:47:00,55.9,,-,61,N/A,29.91,70.0,4:47 PM,,10.0,West,5.8,260,Los Angeles,California,90001
23,Clear,2016-05-31 00:47:00,55.0,,-,63,N/A,29.90,68.0,5:47 PM,,10.0,Variable,5.8,0,Los Angeles,California,90001
24,Clear,2016-05-31 01:47:00,55.0,,-,68,N/A,29.91,66.0,6:47 PM,,10.0,Variable,4.6,0,Los Angeles,California,90001
25,Clear,2016-05-31 02:47:00,55.0,,-,75,N/A,29.91,63.0,7:47 PM,,10.0,Variable,3.5,0,Los Angeles,California,90001
26,Clear,2016-05-31 03:47:00,55.0,,-,78,N/A,29.91,62.1,8:47 PM,,10.0,Variable,5.8,0,Los Angeles,California,90001
27,Mostly Cloudy,2016-05-31 04:41:00,55.0,,-,78,N/A,29.92,62.1,9:41 PM,,10.0,Variable,3.5,0,Los Angeles,California,90001
28,Mostly Cloudy,2016-05-31 04:47:00,55.0,,-,78,N/A,29.92,62.1,9:47 PM,,10.0,Calm,Calm,0,Los Angeles,California,90001
29,Overcast,2016-05-31 05:47:00,55.9,,-,83,N/A,29.91,61.0,10:47 PM,,10.0,West,3.5,270,Los Angeles,California,90001
30,Overcast,2016-05-31 06:47:00,55.9,,-,83,N/A,29.90,61.0,11:47 PM,,10.0,Calm,Calm,0,Los Angeles,California,90001
0,Overcast,2016-05-31 07:07:00,55.9,,-,83,N/A,29.90,61.0,12:07 AM,,10.0,West,3.5,280,Los Angeles,California,90001
1,Overcast,2016-05-31 07:47:00,55.9,,-,86,N/A,29.88,60.1,12:47 AM,,10.0,West,3.5,270,Los Angeles,California,90001
2,Overcast,2016-05-31 08:47:00,55.0,,-,83,N/A,29.88,60.1,1:47 AM,,10.0,West,3.5,280,Los Angeles,California,90001
3,Overcast,2016-05-31 09:47:00,55.0,,-,83,N/A,29.88,60.1,2:47 AM,,9.0,Calm,Calm,0,Los Angeles,California,90001
4,Overcast,2016-05-31 10:47:00,55.9,,-,86,N/A,29.87,60.1,3:47 AM,,7.0,Calm,Calm,0,Los Angeles,California,90001
5,Haze,2016-05-31 11:47:00,55.9,,-,83,N/A,29.86,61.0,4:47 AM,,6.0,Calm,Calm,0,Los Angeles,California,90001
6,Haze,2016-05-31 12:23:00,55.9,,-,83,N/A,29.87,61.0,5:23 AM,,6.0,Calm,Calm,0,Los Angeles,California,90001
7,Haze,2016-05-31 12:47:00,55.9,,-,83,N/A,29.87,61.0,5:47 AM,,5.0,Calm,Calm,0,Los Angeles,California,90001
8,Haze,2016-05-31 13:47:00,55.9,,-,83,N/A,29.88,61.0,6:47 AM,,4.0,Calm,Calm,0,Los Angeles,California,90001
9,Haze,2016-05-31 14:47:00,55.9,,-,80,N/A,29.89,62.1,7:47 AM,,4.0,Calm,Calm,0,Los Angeles,California,90001
10,Haze,2016-05-31 15:47:00,55.9,,-,80,N/A,29.89,62.1,8:47 AM,,4.0,Calm,Calm,0,Los Angeles,California,90001
11,Haze,2016-05-31 16:47:00,55.9,,-,78,N/A,29.89,63.0,9:47 AM,,4.0,Calm,Calm,0,Los Angeles,California,90001
12,Haze,2016-05-31 17:34:00,55.9,,-,75,N/A,29.89,64.0,10:34 AM,,4.0,Calm,Calm,0,Los Angeles,California,90001
13,Haze,2016-05-31 17:47:00,55.9,,-,73,N/A,29.88,64.9,10:47 AM,,4.0,Variable,4.6,0,Los Angeles,California,90001
14,Haze,2016-05-31 18:47:00,57.0,,-,68,N/A,29.88,68.0,11:47 AM,,4.0,Calm,Calm,0,Los Angeles,California,90001
15,Haze,2016-05-31 19:33:00,57.9,,-,61,N/A,29.87,72.0,12:33 PM,,5.0,Variable,3.5,0,Los Angeles,California,90001
16,Haze,2016-05-31 19:47:00,57.9,,-,61,N/A,29.87,72.0,12:47 PM,,5.0,Variable,3.5,0,Los Angeles,California,90001
17,Clear,2016-05-31 20:47:00,57.0,,-,55,N/A,29.85,73.9,1:47 PM,,7.0,Variable,3.5,0,Los Angeles,California,90001
18,Clear,2016-05-31 21:47:00,57.9,,-,61,N/A,29.84,72.0,2:47 PM,,10.0,Variable,3.5,0,Los Angeles,California,90001
19,Clear,2016-05-31 22:47:00,57.9,,-,63,N/A,29.83,71.1,3:47 PM,,10.0,Variable,3.5,0,Los Angeles,California,90001
20,Partly Cloudy,2016-05-31 23:47:00,57.9,,-,68,N/A,29.83,69.1,4:47 PM,,10.0,Variable,3.5,0,Los Angeles,California,90001
21,Mostly Cloudy,2016-06-01 00:06:00,57.9,,-,68,N/A,29.83,69.1,5:06 PM,,10.0,Variable,5.8,0,Los Angeles,California,90001
22,Scattered Clouds,2016-06-01 00:15:00,57.9,,-,70,N/A,29.83,68.0,5:15 PM,,10.0,Variable,6.9,0,Los Angeles,California,90001
23,Mostly Cloudy,2016-06-01 00:24:00,57.9,,-,70,N/A,29.83,68.0,5:24 PM,,10.0,West,4.6,270,Los Angeles,California,90001
24,Scattered Clouds,2016-06-01 00:30:00,57.9,,-,70,N/A,29.83,68.0,5:30 PM,,10.0,Variable,4.6,0,Los Angeles,California,90001
25,Scattered Clouds,2016-06-01 00:47:00,57.9,,-,68,N/A,29.83,69.1,5:47 PM,,10.0,Variable,5.8,0,Los Angeles,California,90001
26,Mostly Cloudy,2016-06-01 01:02:00,57.9,,-,70,N/A,29.83,68.0,6:02 PM,,10.0,Calm,Calm,0,Los Angeles,California,90001
27,Scattered Clouds,2016-06-01 01:16:00,57.0,,-,70,N/A,29.83,66.9,6:16 PM,,10.0,Variable,3.5,0,Los Angeles,California,90001
28,Mostly Cloudy,2016-06-01 01:24:00,57.0,,-,70,N/A,29.83,66.9,6:24 PM,,10.0,West,5.8,260,Los Angeles,California,90001
29,Mostly Cloudy,2016-06-01 01:47:00,57.0,,-,73,N/A,29.84,66.0,6:47 PM,,10.0,Variable,3.5,0,Los Angeles,California,90001
30,Overcast,2016-06-01 02:36:00,57.0,,-,75,N/A,29.86,64.9,7:36 PM,,10.0,Variable,3.5,0,Los Angeles,California,90001
31,Overcast,2016-06-01 02:47:00,57.0,,-,75,N/A,29.86,64.9,7:47 PM,,10.0,Variable,3.5,0,Los Angeles,California,90001
32,Overcast,2016-06-01 03:47:00,57.0,,-,78,N/A,29.88,64.0,8:47 PM,,10.0,West,5.8,270,Los Angeles,California,90001
33,Overcast,2016-06-01 04:47:00,57.0,,-,78,N/A,29.88,64.0,9:47 PM,,9.0,Calm,Calm,0,Los Angeles,California,90001
34,Overcast,2016-06-01 05:47:00,57.0,,-,78,N/A,29.89,64.0,10:47 PM,,8.0,Calm,Calm,0,Los Angeles,California,90001
35,Overcast,2016-06-01 06:06:00,57.0,,-,78,N/A,29.89,64.0,11:06 PM,,8.0,West,3.5,260,Los Angeles,California,90001
36,Overcast,2016-06-01 06:47:00,57.0,,-,75,N/A,29.88,64.9,11:47 PM,,8.0,Variable,3.5,0,Los Angeles,California,90001
0,Overcast,2016-06-01 07:47:00,57.0,,-,75,N/A,29.88,64.9,12:47 AM,,7.0,Calm,Calm,0,Los Angeles,California,90001
1,Overcast,2016-06-01 08:33:00,57.0,,-,78,N/A,29.89,64.0,1:33 AM,,8.0,SE,3.5,130,Los Angeles,California,90001
2,Overcast,2016-06-01 08:47:00,57.0,,-,78,N/A,29.88,64.0,1:47 AM,,8.0,Calm,Calm,0,Los Angeles,California,90001
3,Haze,2016-06-01 09:47:00,57.0,,-,81,N/A,29.88,63.0,2:47 AM,,6.0,Calm,Calm,0,Los Angeles,California,90001
4,Overcast,2016-06-01 10:47:00,57.0,,-,81,N/A,29.86,63.0,3:47 AM,,7.0,Calm,Calm,0,Los Angeles,California,90001
5,Overcast,2016-06-01 11:47:00,57.0,,-,78,N/A,29.86,64.0,4:47 AM,,7.0,SE,3.5,140,Los Angeles,California,90001
6,Overcast,2016-06-01 12:47:00,57.0,,-,81,N/A,29.88,63.0,5:47 AM,,8.0,Variable,3.5,0,Los Angeles,California,90001
7,Haze,2016-06-01 13:47:00,57.0,,-,78,N/A,29.89,64.0,6:47 AM,,6.0,Calm,Calm,0,Los Angeles,California,90001
8,Haze,2016-06-01 14:47:00,57.0,,-,78,N/A,29.90,64.0,7:47 AM,,6.0,Calm,Calm,0,Los Angeles,California,90001
9,Haze,2016-06-01 15:47:00,57.0,,-,75,N/A,29.91,64.9,8:47 AM,,5.0,Calm,Calm,0,Los Angeles,California,90001
10,Haze,2016-06-01 16:47:00,57.0,,-,75,N/A,29.91,64.9,9:47 AM,,5.0,Calm,Calm,0,Los Angeles,California,90001
11,Haze,2016-06-01 17:02:00,57.9,,-,75,N/A,29.91,66.0,10:02 AM,,6.0,Calm,Calm,0,Los Angeles,California,90001
12,Haze,2016-06-01 17:47:00,57.9,,-,75,N/A,29.92,66.0,10:47 AM,,5.0,Calm,Calm,0,Los Angeles,California,90001
13,Haze,2016-06-01 18:47:00,57.9,,-,70,N/A,29.91,68.0,11:47 AM,,6.0,Calm,Calm,0,Los Angeles,California,90001
14,Scattered Clouds,2016-06-01 19:09:00,59.0,,-,64,N/A,29.91,72.0,12:09 PM,,7.0,Calm,Calm,0,Los Angeles,California,90001
15,Clear,2016-06-01 19:47:00,59.0,,-,61,N/A,29.90,73.0,12:47 PM,,8.0,Calm,Calm,0,Los Angeles,California,90001
16,Clear,2016-06-01 20:47:00,57.9,,-,57,N/A,29.90,73.9,1:47 PM,,10.0,Calm,Calm,0,Los Angeles,California,90001
17,Clear,2016-06-01 21:47:00,59.0,,-,61,N/A,29.90,73.0,2:47 PM,,10.0,Variable,3.5,0,Los Angeles,California,90001
18,Clear,2016-06-01 22:47:00,59.0,,-,64,N/A,29.89,72.0,3:47 PM,,10.0,Calm,Calm,0,Los Angeles,California,90001
19,Clear,2016-06-01 23:47:00,57.9,,-,65,N/A,29.89,70.0,4:47 PM,,10.0,West,6.9,270,Los Angeles,California,90001
20,Clear,2016-06-02 00:47:00,59.0,,-,68,N/A,29.88,70.0,5:47 PM,,10.0,West,5.8,270,Los Angeles,California,90001
21,Overcast,2016-06-02 03:47:00,57.9,,-,80,N/A,29.92,64.0,8:47 PM,,10.0,Variable,3.5,0,Los Angeles,California,90001
22,Overcast,2016-06-02 04:47:00,57.9,,-,80,N/A,29.95,64.0,9:47 PM,,9.0,Calm,Calm,0,Los Angeles,California,90001
23,Overcast,2016-06-02 05:47:00,57.9,,-,84,N/A,29.96,63.0,10:47 PM,,8.0,Calm,Calm,0,Los Angeles,California,90001
24,Overcast,2016-06-02 06:32:00,57.9,,-,84,N/A,29.96,63.0,11:32 PM,,9.0,West,4.6,270,Los Angeles,California,90001
25,Overcast,2016-06-02 06:47:00,57.9,,-,84,N/A,29.96,63.0,11:47 PM,,8.0,Variable,3.5,0,Los Angeles,California,90001
0,Overcast,2016-06-02 07:27:00,57.9,,-,84,N/A,29.95,63.0,12:27 AM,,8.0,West,3.5,280,Los Angeles,California,90001
1,Overcast,2016-06-02 07:47:00,57.9,,-,84,N/A,29.95,63.0,12:47 AM,,8.0,West,3.5,260,Los Angeles,California,90001
2,Overcast,2016-06-02 08:47:00,57.9,,-,80,N/A,29.94,64.0,1:47 AM,,7.0,Calm,Calm,0,Los Angeles,California,90001
3,Haze,2016-06-02 09:47:00,57.9,,-,80,N/A,29.93,64.0,2:47 AM,,5.0,Calm,Calm,0,Los Angeles,California,90001
4,Haze,2016-06-02 10:47:00,57.9,,-,80,N/A,29.93,64.0,3:47 AM,,5.0,Calm,Calm,0,Los Angeles,California,90001
5,Haze,2016-06-02 11:47:00,57.9,,-,78,N/A,29.92,64.9,4:47 AM,,5.0,Calm,Calm,0,Los Angeles,California,90001
6,Haze,2016-06-02 12:47:00,57.9,,-,78,N/A,29.93,64.9,5:47 AM,,5.0,West,4.6,270,Los Angeles,California,90001
7,Haze,2016-06-02 13:47:00,59.0,,-,81,N/A,29.94,64.9,6:47 AM,,3.0,West,3.5,260,Los Angeles,California,90001
8,Haze,2016-06-02 14:37:00,59.0,,-,76,N/A,29.94,66.9,7:37 AM,,4.0,Calm,Calm,0,Los Angeles,California,90001
9,Haze,2016-06-02 14:47:00,59.0,,-,73,N/A,29.94,68.0,7:47 AM,,4.0,Calm,Calm,0,Los Angeles,California,90001
10,Haze,2016-06-02 15:47:00,59.0,,-,66,N/A,29.94,71.1,8:47 AM,,4.0,Variable,3.5,0,Los Angeles,California,90001
11,Haze,2016-06-02 16:47:00,60.1,,-,62,N/A,29.95,73.9,9:47 AM,,2.5,Calm,Calm,0,Los Angeles,California,90001
12,Haze,2016-06-02 16:50:00,60.1,,-,62,N/A,29.95,73.9,9:50 AM,,4.0,Calm,Calm,0,Los Angeles,California,90001
13,Haze,2016-06-02 17:47:00,61.0,,-,62,N/A,29.95,75.0,10:47 AM,,6.0,Variable,3.5,0,Los Angeles,California,90001
14,Clear,2016-06-02 18:47:00,61.0,,-,58,N/A,29.95,77.0,11:47 AM,,8.0,Calm,Calm,0,Los Angeles,California,90001
15,Clear,2016-06-02 19:47:00,60.1,,-,56,N/A,29.94,77.0,12:47 PM,,9.0,Variable,3.5,0,Los Angeles,California,90001
16,Clear,2016-06-02 20:47:00,60.1,,-,56,N/A,29.93,77.0,1:47 PM,,10.0,West,5.8,260,Los Angeles,California,90001
17,Clear,2016-06-02 21:47:00,59.0,,-,59,N/A,29.92,73.9,2:47 PM,,10.0,Variable,4.6,0,Los Angeles,California,90001
18,Clear,2016-06-02 22:47:00,59.0,,-,59,N/A,29.91,73.9,3:47 PM,,10.0,Variable,4.6,0,Los Angeles,California,90001
19,Clear,2016-06-02 23:47:00,57.9,,-,57,N/A,29.89,73.9,4:47 PM,,10.0,Variable,3.5,0,Los Angeles,California,90001
20,Clear,2016-06-03 00:47:00,57.9,,-,61,N/A,29.89,72.0,5:47 PM,,10.0,West,3.5,260,Los Angeles,California,90001
21,Clear,2016-06-03 01:47:00,57.9,,-,65,N/A,29.90,70.0,6:47 PM,,10.0,West,3.5,270,Los Angeles,California,90001
22,Clear,2016-06-03 02:47:00,57.0,,-,75,N/A,29.91,64.9,7:47 PM,,10.0,Calm,Calm,0,Los Angeles,California,90001
23,Clear,2016-06-03 03:47:00,57.0,,-,84,N/A,29.92,62.1,8:47 PM,,9.0,Calm,Calm,0,Los Angeles,California,90001
24,Clear,2016-06-03 04:47:00,57.0,,-,84,N/A,29.94,62.1,9:47 PM,,9.0,Calm,Calm,0,Los Angeles,California,90001
25,Clear,2016-06-03 05:47:00,57.0,,-,87,N/A,29.95,61.0,10:47 PM,,8.0,Calm,Calm,0,Los Angeles,California,90001
26,Clear,2016-06-03 06:47:00,57.0,,-,87,N/A,29.95,61.0,11:47 PM,,8.0,Calm,Calm,0,Los Angeles,California,90001
0,Clear,2016-06-03 07:47:00,57.0,,-,90,N/A,29.96,60.1,12:47 AM,,6.0,Calm,Calm,0,Los Angeles,California,90001
1,Clear,2016-06-03 08:47:00,57.0,,-,90,N/A,29.95,60.1,1:47 AM,,5.0,Calm,Calm,0,Los Angeles,California,90001
2,Clear,2016-06-03 09:47:00,55.9,,-,90,N/A,29.95,59.0,2:47 AM,,4.0,Calm,Calm,0,Los Angeles,California,90001
3,Partly Cloudy,2016-06-03 09:56:00,57.0,,-,93,N/A,29.95,59.0,2:56 AM,,4.0,Calm,Calm,0,Los Angeles,California,90001
4,Mostly Cloudy,2016-06-03 10:47:00,57.0,,-,90,N/A,29.95,60.1,3:47 AM,,4.0,Calm,Calm,0,Los Angeles,California,90001
5,Overcast,2016-06-03 11:31:00,57.0,,-,90,N/A,29.95,60.1,4:31 AM,,2.5,Calm,Calm,0,Los Angeles,California,90001
6,Overcast,2016-06-03 11:47:00,57.9,,-,93,N/A,29.95,60.1,4:47 AM,,2.5,Calm,Calm,0,Los Angeles,California,90001
7,Overcast,2016-06-03 11:55:00,57.9,,-,93,N/A,29.95,60.1,4:55 AM,,2.0,Calm,Calm,0,Los Angeles,California,90001
8,Overcast,2016-06-03 12:47:00,57.9,,-,93,N/A,29.96,60.1,5:47 AM,,2.5,Calm,Calm,0,Los Angeles,California,90001
9,Overcast,2016-06-03 13:16:00,57.9,,-,93,N/A,29.97,60.1,6:16 AM,,1.8,Calm,Calm,0,Los Angeles,California,90001
10,Overcast,2016-06-03 13:44:00,57.9,,-,90,N/A,29.98,61.0,6:44 AM,,2.0,Calm,Calm,0,Los Angeles,California,90001
11,Overcast,2016-06-03 13:47:00,57.9,,-,90,N/A,29.98,61.0,6:47 AM,,1.8,Calm,Calm,0,Los Angeles,California,90001
12,Overcast,2016-06-03 13:50:00,57.9,,-,90,N/A,29.98,61.0,6:50 AM,,1.8,Calm,Calm,0,Los Angeles,California,90001
13,Overcast,2016-06-03 14:15:00,57.9,,-,90,N/A,29.98,61.0,7:15 AM,,2.0,Calm,Calm,0,Los Angeles,California,90001
14,Overcast,2016-06-03 14:47:00,57.9,,-,86,N/A,29.99,62.1,7:47 AM,,2.5,Calm,Calm,0,Los Angeles,California,90001
15,Haze,2016-06-03 15:18:00,57.9,,-,80,N/A,29.99,64.0,8:18 AM,,2.5,Calm,Calm,0,Los Angeles,California,90001
16,Haze,2016-06-03 15:37:00,59.0,,-,78,N/A,29.99,66.0,8:37 AM,,3.0,Calm,Calm,0,Los Angeles,California,90001
17,Haze,2016-06-03 15:47:00,59.0,,-,76,N/A,29.99,66.9,8:47 AM,,3.0,Calm,Calm,0,Los Angeles,California,90001
18,Haze,2016-06-03 16:47:00,60.1,,-,66,N/A,29.99,72.0,9:47 AM,,4.0,Calm,Calm,0,Los Angeles,California,90001
19,Haze,2016-06-03 17:47:00,60.1,,-,58,N/A,29.97,75.9,10:47 AM,,5.0,Variable,3.5,0,Los Angeles,California,90001
20,Haze,2016-06-03 18:47:00,60.1,,-,47,N/A,29.96,82.0,11:47 AM,,6.0,Calm,Calm,0,Los Angeles,California,90001
21,Haze,2016-06-03 19:47:00,61.0,,-,50,N/A,29.95,81.0,12:47 PM,,5.0,Variable,3.5,0,Los Angeles,California,90001
22,Haze,2016-06-03 20:47:00,61.0,,-,49,N/A,29.93,82.0,1:47 PM,,5.0,Variable,3.5,0,Los Angeles,California,90001
23,Clear,2016-06-03 21:47:00,61.0,,-,49,N/A,29.91,82.0,2:47 PM,,7.0,Variable,4.6,0,Los Angeles,California,90001
24,Clear,2016-06-03 22:47:00,61.0,,-,47,N/A,29.90,82.9,3:47 PM,,10.0,Calm,Calm,0,Los Angeles,California,90001
25,Clear,2016-06-03 23:47:00,60.1,,-,40,N/A,29.88,87.1,4:47 PM,,10.0,Calm,Calm,0,Los Angeles,California,90001
26,Clear,2016-06-04 00:47:00,59.0,,-,43,N/A,29.87,84.0,5:47 PM,,10.0,Variable,3.5,0,Los Angeles,California,90001
27,Haze,2016-06-04 01:47:00,60.1,,-,68,N/A,29.91,71.1,6:47 PM,,6.0,West,6.9,270,Los Angeles,California,90001
28,Haze,2016-06-04 02:47:00,60.1,,-,84,N/A,29.91,64.9,7:47 PM,,4.0,Calm,Calm,0,Los Angeles,California,90001
29,Partly Cloudy,2016-06-04 03:15:00,60.1,,-,87,N/A,29.92,64.0,8:15 PM,,4.0,West,5.8,270,Los Angeles,California,90001
30,Mostly Cloudy,2016-06-04 03:28:00,60.1,,-,87,N/A,29.93,64.0,8:28 PM,,4.0,Variable,4.6,0,Los Angeles,California,90001
31,Overcast,2016-06-04 03:41:00,60.1,,-,93,N/A,29.93,62.1,8:41 PM,,4.0,Variable,5.8,0,Los Angeles,California,90001
32,Overcast,2016-06-04 03:47:00,60.1,,-,93,N/A,29.93,62.1,8:47 PM,,4.0,WNW,4.6,290,Los Angeles,California,90001
33,Overcast,2016-06-04 04:20:00,60.1,,-,90,N/A,29.94,63.0,9:20 PM,,5.0,Variable,3.5,0,Los Angeles,California,90001
34,Overcast,2016-06-04 04:47:00,60.1,,-,90,N/A,29.95,63.0,9:47 PM,,5.0,West,3.5,260,Los Angeles,California,90001
35,Overcast,2016-06-04 05:08:00,60.1,,-,93,N/A,29.96,62.1,10:08 PM,,5.0,Calm,Calm,0,Los Angeles,California,90001
36,Overcast,2016-06-04 05:47:00,59.0,,-,90,N/A,29.95,62.1,10:47 PM,,5.0,West,3.5,280,Los Angeles,California,90001
37,Overcast,2016-06-04 06:47:00,59.0,,-,93,N/A,29.94,61.0,11:47 PM,,4.0,Calm,Calm,0,Los Angeles,California,90001
0,Overcast,2016-06-04 07:19:00,59.0,,-,90,N/A,29.94,62.1,12:19 AM,,5.0,Calm,Calm,0,Los Angeles,California,90001
1,Overcast,2016-06-04 07:47:00,59.0,,-,90,N/A,29.93,62.1,12:47 AM,,5.0,Calm,Calm,0,Los Angeles,California,90001
2,Scattered Clouds,2016-06-04 08:04:00,59.0,,-,90,N/A,29.93,62.1,1:04 AM,,5.0,Calm,Calm,0,Los Angeles,California,90001
3,Clear,2016-06-04 08:47:00,59.0,,-,90,N/A,29.91,62.1,1:47 AM,,5.0,Calm,Calm,0,Los Angeles,California,90001
4,Clear,2016-06-04 09:47:00,59.0,,-,90,N/A,29.91,62.1,2:47 AM,,5.0,Calm,Calm,0,Los Angeles,California,90001
5,Clear,2016-06-04 10:47:00,57.9,,-,90,N/A,29.91,61.0,3:47 AM,,5.0,Calm,Calm,0,Los Angeles,California,90001
6,Partly Cloudy,2016-06-04 11:22:00,57.9,,-,93,N/A,29.92,60.1,4:22 AM,,4.0,Calm,Calm,0,Los Angeles,California,90001
7,Mostly Cloudy,2016-06-04 11:29:00,57.9,,-,93,N/A,29.92,60.1,4:29 AM,,2.0,Calm,Calm,0,Los Angeles,California,90001
8,Mostly Cloudy,2016-06-04 11:32:00,57.9,,-,93,N/A,29.92,60.1,4:32 AM,,1.5,Calm,Calm,0,Los Angeles,California,90001
9,Overcast,2016-06-04 11:47:00,59.0,,-,96,N/A,29.92,60.1,4:47 AM,,1.2,Calm,Calm,0,Los Angeles,California,90001
10,Overcast,2016-06-04 12:33:00,59.0,,-,96,N/A,29.92,60.1,5:33 AM,,0.8,Calm,Calm,0,Los Angeles,California,90001
11,Fog,2016-06-04 12:47:00,59.0,Fog,-,100,N/A,29.91,59.0,5:47 AM,,0.2,Calm,Calm,0,Los Angeles,California,90001
12,Overcast,2016-06-04 13:18:00,59.0,,-,93,N/A,29.93,61.0,6:18 AM,,1.2,Calm,Calm,0,Los Angeles,California,90001
13,Overcast,2016-06-04 13:47:00,59.0,,-,90,N/A,29.93,62.1,6:47 AM,,1.5,Calm,Calm,0,Los Angeles,California,90001
14,Overcast,2016-06-04 14:47:00,59.0,,-,87,N/A,29.95,63.0,7:47 AM,,1.8,Calm,Calm,0,Los Angeles,California,90001
15,Overcast,2016-06-04 15:39:00,60.1,,-,87,N/A,29.96,64.0,8:39 AM,,1.8,Calm,Calm,0,Los Angeles,California,90001
16,Haze,2016-06-04 15:47:00,61.0,,-,84,N/A,29.96,66.0,8:47 AM,,1.8,Calm,Calm,0,Los Angeles,California,90001
17,Haze,2016-06-04 15:53:00,60.1,,-,79,N/A,29.96,66.9,8:53 AM,,2.0,Calm,Calm,0,Los Angeles,California,90001
18,Haze,2016-06-04 16:05:00,60.1,,-,79,N/A,29.96,66.9,9:05 AM,,2.0,Calm,Calm,0,Los Angeles,California,90001
19,Haze,2016-06-04 16:47:00,60.1,,-,66,N/A,29.95,72.0,9:47 AM,,3.0,Calm,Calm,0,Los Angeles,California,90001
20,Haze,2016-06-04 17:47:00,61.0,,-,62,N/A,29.94,75.0,10:47 AM,,4.0,Variable,5.8,0,Los Angeles,California,90001
21,Clear,2016-06-04 18:47:00,59.0,,-,64,N/A,29.95,72.0,11:47 AM,,7.0,WSW,4.6,250,Los Angeles,California,90001
22,Clear,2016-06-04 19:47:00,59.0,,-,59,N/A,29.94,73.9,12:47 PM,,10.0,Variable,3.5,0,Los Angeles,California,90001
23,Clear,2016-06-04 20:47:00,59.0,,-,59,N/A,29.94,73.9,1:47 PM,,10.0,Variable,4.6,0,Los Angeles,California,90001
24,Clear,2016-06-04 21:47:00,59.0,,-,57,N/A,29.92,75.0,2:47 PM,,10.0,West,6.9,280,Los Angeles,California,90001
25,Clear,2016-06-04 22:47:00,59.0,,-,56,N/A,29.90,75.9,3:47 PM,,10.0,Variable,3.5,0,Los Angeles,California,90001
26,Clear,2016-06-04 23:47:00,59.0,,-,57,N/A,29.89,75.0,4:47 PM,,10.0,Calm,Calm,0,Los Angeles,California,90001
27,Clear,2016-06-05 00:47:00,57.9,,-,55,N/A,29.89,75.0,5:47 PM,,10.0,Variable,4.6,0,Los Angeles,California,90001
28,Clear,2016-06-05 01:47:00,57.0,,-,73,N/A,29.91,66.0,6:47 PM,,10.0,West,8.1,280,Los Angeles,California,90001
29,Clear,2016-06-05 02:47:00,57.9,,-,80,N/A,29.91,64.0,7:47 PM,,10.0,Variable,3.5,0,Los Angeles,California,90001
30,Partly Cloudy,2016-06-05 03:43:00,57.0,,-,84,N/A,29.91,62.1,8:43 PM,,10.0,Variable,3.5,0,Los Angeles,California,90001
31,Scattered Clouds,2016-06-05 03:47:00,57.0,,-,84,N/A,29.91,62.1,8:47 PM,,10.0,Calm,Calm,0,Los Angeles,California,90001
32,Mostly Cloudy,2016-06-05 04:19:00,57.0,,-,87,N/A,29.92,61.0,9:19 PM,,9.0,West,4.6,280,Los Angeles,California,90001
33,Overcast,2016-06-05 04:47:00,57.0,,-,87,N/A,29.92,61.0,9:47 PM,,10.0,Calm,Calm,0,Los Angeles,California,90001
34,Overcast,2016-06-05 05:47:00,57.0,,-,90,N/A,29.92,60.1,10:47 PM,,9.0,Calm,Calm,0,Los Angeles,California,90001
35,Overcast,2016-06-05 06:10:00,57.0,,-,90,N/A,29.92,60.1,11:10 PM,,8.0,Calm,Calm,0,Los Angeles,California,90001
36,Overcast,2016-06-05 06:47:00,57.0,,-,93,N/A,29.92,59.0,11:47 PM,,9.0,Variable,3.5,0,Los Angeles,California,90001
0,Overcast,2016-06-05 07:47:00,57.0,,-,93,N/A,29.91,59.0,12:47 AM,,6.0,Calm,Calm,0,Los Angeles,California,90001
1,Overcast,2016-06-05 08:30:00,57.0,,-,93,N/A,29.91,59.0,1:30 AM,,5.0,Calm,Calm,0,Los Angeles,California,90001
2,Overcast,2016-06-05 08:43:00,57.0,,-,93,N/A,29.91,59.0,1:43 AM,,5.0,Calm,Calm,0,Los Angeles,California,90001
3,Overcast,2016-06-05 08:47:00,57.0,,-,90,N/A,29.91,60.1,1:47 AM,,5.0,Calm,Calm,0,Los Angeles,California,90001
4,Overcast,2016-06-05 09:21:00,57.0,,-,90,N/A,29.90,60.1,2:21 AM,,4.0,Calm,Calm,0,Los Angeles,California,90001
5,Overcast,2016-06-05 09:47:00,57.0,,-,90,N/A,29.89,60.1,2:47 AM,,4.0,Calm,Calm,0,Los Angeles,California,90001
6,Overcast,2016-06-05 10:47:00,55.9,,-,90,N/A,29.89,59.0,3:47 AM,,4.0,Calm,Calm,0,Los Angeles,California,90001
7,Overcast,2016-06-05 11:47:00,55.9,,-,90,N/A,29.89,59.0,4:47 AM,,5.0,Calm,Calm,0,Los Angeles,California,90001
8,Overcast,2016-06-05 12:16:00,55.9,,-,93,N/A,29.89,57.9,5:16 AM,,5.0,Calm,Calm,0,Los Angeles,California,90001
9,Overcast,2016-06-05 12:47:00,55.9,,-,93,N/A,29.89,57.9,5:47 AM,,5.0,Calm,Calm,0,Los Angeles,California,90001
10,Overcast,2016-06-05 13:47:00,55.9,,-,93,N/A,29.91,57.9,6:47 AM,,4.0,Calm,Calm,0,Los Angeles,California,90001
11,Overcast,2016-06-05 14:20:00,55.9,,-,90,N/A,29.91,59.0,7:20 AM,,4.0,Calm,Calm,0,Los Angeles,California,90001
12,Overcast,2016-06-05 14:47:00,55.9,,-,86,N/A,29.91,60.1,7:47 AM,,5.0,Calm,Calm,0,Los Angeles,California,90001
13,Haze,2016-06-05 15:47:00,55.0,,-,83,N/A,29.92,60.1,8:47 AM,,6.0,Calm,Calm,0,Los Angeles,California,90001
14,Overcast,2016-06-05 16:47:00,55.0,,-,81,N/A,29.92,61.0,9:47 AM,,7.0,Calm,Calm,0,Los Angeles,California,90001
15,Overcast,2016-06-05 17:02:00,55.9,,-,80,N/A,29.92,62.1,10:02 AM,,8.0,Calm,Calm,0,Los Angeles,California,90001
16,Overcast,2016-06-05 17:47:00,55.9,,-,75,N/A,29.92,64.0,10:47 AM,,10.0,Variable,3.5,0,Los Angeles,California,90001
17,Scattered Clouds,2016-06-05 18:30:00,57.0,,-,70,N/A,29.91,66.9,11:30 AM,,10.0,Calm,Calm,0,Los Angeles,California,90001
18,Clear,2016-06-05 18:47:00,57.0,,-,68,N/A,29.91,68.0,11:47 AM,,10.0,Variable,3.5,0,Los Angeles,California,90001
19,Clear,2016-06-05 19:47:00,57.0,,-,68,N/A,29.90,68.0,12:47 PM,,9.0,Variable,5.8,0,Los Angeles,California,90001
20,Clear,2016-06-05 20:47:00,55.9,,-,65,N/A,29.88,68.0,1:47 PM,,10.0,Calm,Calm,0,Los Angeles,California,90001
21,Clear,2016-06-05 21:47:00,55.0,,-,66,N/A,29.87,66.9,2:47 PM,,10.0,WSW,5.8,250,Los Angeles,California,90001
22,Clear,2016-06-05 22:47:00,55.0,,-,66,N/A,29.86,66.9,3:47 PM,,10.0,Variable,3.5,0,Los Angeles,California,90001
23,Clear,2016-06-05 23:47:00,55.9,,-,68,N/A,29.85,66.9,4:47 PM,,10.0,Variable,3.5,0,Los Angeles,California,90001
24,Clear,2016-06-06 00:47:00,55.0,,-,68,N/A,29.84,66.0,5:47 PM,,10.0,Variable,5.8,0,Los Angeles,California,90001
25,Clear,2016-06-06 01:47:00,55.0,,-,73,N/A,29.84,64.0,6:47 PM,,10.0,Variable,4.6,0,Los Angeles,California,90001
26,Mostly Cloudy,2016-06-06 02:47:00,55.0,,-,81,N/A,29.85,61.0,7:47 PM,,10.0,Calm,Calm,0,Los Angeles,California,90001
27,Overcast,2016-06-06 03:47:00,55.0,,-,83,N/A,29.85,60.1,8:47 PM,,10.0,Variable,3.5,0,Los Angeles,California,90001
28,Overcast,2016-06-06 04:06:00,55.0,,-,83,N/A,29.85,60.1,9:06 PM,,10.0,Calm,Calm,0,Los Angeles,California,90001
29,Overcast,2016-06-06 04:47:00,55.9,,-,86,N/A,29.85,60.1,9:47 PM,,10.0,Variable,3.5,0,Los Angeles,California,90001
30,Overcast,2016-06-06 05:47:00,55.0,,-,83,N/A,29.85,60.1,10:47 PM,,10.0,West,4.6,270,Los Angeles,California,90001
31,Overcast,2016-06-06 06:47:00,55.0,,-,87,N/A,29.84,59.0,11:47 PM,,10.0,Calm,Calm,0,Los Angeles,California,90001
0,Overcast,2016-06-06 07:47:00,55.0,,-,87,N/A,29.83,59.0,12:47 AM,,9.0,Calm,Calm,0,Los Angeles,California,90001
1,Overcast,2016-06-06 08:47:00,55.0,,-,87,N/A,29.83,59.0,1:47 AM,,7.0,Calm,Calm,0,Los Angeles,California,90001
2,Overcast,2016-06-06 09:47:00,55.9,,-,93,N/A,29.83,57.9,2:47 AM,,5.0,Calm,Calm,0,Los Angeles,California,90001
3,Overcast,2016-06-06 10:47:00,55.0,,-,90,N/A,29.83,57.9,3:47 AM,,9.0,Calm,Calm,0,Los Angeles,California,90001
4,Overcast,2016-06-06 11:47:00,55.0,,-,87,N/A,29.83,59.0,4:47 AM,,8.0,Calm,Calm,0,Los Angeles,California,90001
5,Overcast,2016-06-06 12:47:00,55.0,,-,87,N/A,29.83,59.0,5:47 AM,,6.0,Calm,Calm,0,Los Angeles,California,90001
6,Overcast,2016-06-06 13:47:00,55.0,,-,87,N/A,29.83,59.0,6:47 AM,,6.0,Calm,Calm,0,Los Angeles,California,90001
7,Overcast,2016-06-06 14:08:00,55.0,,-,87,N/A,29.84,59.0,7:08 AM,,5.0,Calm,Calm,0,Los Angeles,California,90001
8,Haze,2016-06-06 14:47:00,55.0,,-,83,N/A,29.85,60.1,7:47 AM,,5.0,Calm,Calm,0,Los Angeles,California,90001
9,Haze,2016-06-06 15:47:00,55.0,,-,81,N/A,29.86,61.0,8:47 AM,,5.0,Calm,Calm,0,Los Angeles,California,90001
10,Haze,2016-06-06 16:06:00,55.0,,-,78,N/A,29.86,62.1,9:06 AM,,5.0,Calm,Calm,0,Los Angeles,California,90001
11,Haze,2016-06-06 16:47:00,55.0,,-,75,N/A,29.86,63.0,9:47 AM,,5.0,Calm,Calm,0,Los Angeles,California,90001
12,Haze,2016-06-06 17:47:00,55.0,,-,70,N/A,29.87,64.9,10:47 AM,,5.0,Calm,Calm,0,Los Angeles,California,90001
13,Haze,2016-06-06 18:47:00,55.9,,-,65,N/A,29.86,68.0,11:47 AM,,6.0,Calm,Calm,0,Los Angeles,California,90001
14,Scattered Clouds,2016-06-06 19:11:00,55.9,,-,63,N/A,29.86,69.1,12:11 PM,,7.0,Calm,Calm,0,Los Angeles,California,90001
15,Partly Cloudy,2016-06-06 19:47:00,55.0,,-,59,N/A,29.85,70.0,12:47 PM,,8.0,Variable,4.6,0,Los Angeles,California,90001
16,Clear,2016-06-06 20:47:00,55.0,,-,53,N/A,29.83,73.0,1:47 PM,,10.0,Variable,3.5,0,Los Angeles,California,90001
17,Clear,2016-06-06 21:47:00,55.9,,-,57,N/A,29.81,72.0,2:47 PM,,10.0,Calm,Calm,0,Los Angeles,California,90001
18,Clear,2016-06-06 22:47:00,55.9,,-,59,N/A,29.81,71.1,3:47 PM,,10.0,Variable,6.9,0,Los Angeles,California,90001
19,Clear,2016-06-06 23:47:00,55.9,,-,59,N/A,29.79,71.1,4:47 PM,,10.0,West,4.6,270,Los Angeles,California,90001
20,Clear,2016-06-07 00:47:00,55.0,,-,61,N/A,29.80,69.1,5:47 PM,,10.0,Variable,3.5,0,Los Angeles,California,90001
21,Clear,2016-06-07 01:47:00,55.0,,-,66,N/A,29.81,66.9,6:47 PM,,10.0,North,-9999.0,0,Los Angeles,California,90001
22,Clear,2016-06-07 02:47:00,55.0,,-,73,N/A,29.83,64.0,7:47 PM,,10.0,Variable,3.5,0,Los Angeles,California,90001
23,Partly Cloudy,2016-06-07 03:47:00,55.9,,-,80,N/A,29.85,62.1,8:47 PM,,10.0,West,6.9,280,Los Angeles,California,90001
24,Partly Cloudy,2016-06-07 04:47:00,55.9,,-,80,N/A,29.86,62.1,9:47 PM,,10.0,Calm,Calm,0,Los Angeles,California,90001
25,Mostly Cloudy,2016-06-07 05:05:00,55.9,,-,83,N/A,29.87,61.0,10:05 PM,,10.0,Calm,Calm,0,Los Angeles,California,90001
26,Scattered Clouds,2016-06-07 05:38:00,55.9,,-,83,N/A,29.87,61.0,10:38 PM,,10.0,Variable,3.5,0,Los Angeles,California,90001
27,Mostly Cloudy,2016-06-07 05:47:00,55.9,,-,83,N/A,29.86,61.0,10:47 PM,,10.0,Variable,3.5,0,Los Angeles,California,90001
28,Scattered Clouds,2016-06-07 05:54:00,55.9,,-,86,N/A,29.87,60.1,10:54 PM,,10.0,Calm,Calm,0,Los Angeles,California,90001
29,Partly Cloudy,2016-06-07 06:23:00,55.9,,-,86,N/A,29.86,60.1,11:23 PM,,10.0,Calm,Calm,0,Los Angeles,California,90001
30,Partly Cloudy,2016-06-07 06:47:00,55.9,,-,86,N/A,29.86,60.1,11:47 PM,,10.0,Calm,Calm,0,Los Angeles,California,90001
0,Mostly Cloudy,2016-06-07 07:26:00,55.9,,-,86,N/A,29.87,60.1,12:26 AM,,10.0,West,5.8,270,Los Angeles,California,90001
1,Overcast,2016-06-07 07:47:00,55.9,,-,86,N/A,29.86,60.1,12:47 AM,,10.0,Calm,Calm,0,Los Angeles,California,90001
2,Overcast,2016-06-07 08:47:00,55.9,,-,86,N/A,29.86,60.1,1:47 AM,,9.0,Calm,Calm,0,Los Angeles,California,90001
3,Overcast,2016-06-07 09:47:00,55.9,,-,83,N/A,29.85,61.0,2:47 AM,,8.0,Calm,Calm,0,Los Angeles,California,90001
4,Overcast,2016-06-07 10:47:00,55.9,,-,83,N/A,29.85,61.0,3:47 AM,,7.0,Calm,Calm,0,Los Angeles,California,90001
5,Overcast,2016-06-07 11:47:00,55.9,,-,83,N/A,29.86,61.0,4:47 AM,,7.0,Calm,Calm,0,Los Angeles,California,90001
6,Haze,2016-06-07 12:47:00,55.9,,-,80,N/A,29.86,62.1,5:47 AM,,6.0,Calm,Calm,0,Los Angeles,California,90001
7,Haze,2016-06-07 13:47:00,55.0,,-,78,N/A,29.88,62.1,6:47 AM,,5.0,Calm,Calm,0,Los Angeles,California,90001
8,Haze,2016-06-07 13:54:00,55.0,,-,75,N/A,29.88,63.0,6:54 AM,,6.0,Calm,Calm,0,Los Angeles,California,90001
9,Overcast,2016-06-07 14:47:00,55.9,,-,78,N/A,29.89,63.0,7:47 AM,,9.0,Calm,Calm,0,Los Angeles,California,90001
10,Overcast,2016-06-07 15:47:00,55.0,,-,73,N/A,29.90,64.0,8:47 AM,,10.0,Calm,Calm,0,Los Angeles,California,90001
11,Overcast,2016-06-07 16:47:00,55.9,,-,73,N/A,29.90,64.9,9:47 AM,,10.0,Calm,Calm,0,Los Angeles,California,90001
12,Overcast,2016-06-07 17:47:00,55.9,,-,65,N/A,29.90,68.0,10:47 AM,,10.0,Variable,4.6,0,Los Angeles,California,90001
13,Mostly Cloudy,2016-06-07 18:47:00,57.0,,-,61,N/A,29.89,71.1,11:47 AM,,8.0,Variable,4.6,0,Los Angeles,California,90001
14,Scattered Clouds,2016-06-07 18:53:00,55.9,,-,61,N/A,29.89,70.0,11:53 AM,,8.0,Calm,Calm,0,Los Angeles,California,90001
15,Clear,2016-06-07 19:47:00,57.0,,-,55,N/A,29.87,73.9,12:47 PM,,9.0,Calm,Calm,0,Los Angeles,California,90001
16,Clear,2016-06-07 20:47:00,57.0,,-,57,N/A,29.86,73.0,1:47 PM,,10.0,Variable,3.5,0,Los Angeles,California,90001
17,Clear,2016-06-07 21:47:00,57.0,,-,59,N/A,29.85,72.0,2:47 PM,,10.0,Variable,3.5,0,Los Angeles,California,90001
18,Clear,2016-06-07 22:47:00,55.9,,-,61,N/A,29.86,70.0,3:47 PM,,10.0,Variable,3.5,0,Los Angeles,California,90001
19,Clear,2016-06-07 23:47:00,55.9,,-,63,N/A,29.86,69.1,4:47 PM,,10.0,Variable,3.5,0,Los Angeles,California,90001
20,Clear,2016-06-08 00:47:00,55.9,,-,65,N/A,29.86,68.0,5:47 PM,,10.0,West,5.8,270,Los Angeles,California,90001
21,Clear,2016-06-08 01:47:00,55.9,,-,70,N/A,29.86,66.0,6:47 PM,,10.0,Variable,3.5,0,Los Angeles,California,90001
22,Clear,2016-06-08 02:47:00,55.9,,-,75,N/A,29.87,64.0,7:47 PM,,10.0,Variable,3.5,0,Los Angeles,California,90001
23,Clear,2016-06-08 03:47:00,55.9,,-,78,N/A,29.88,63.0,8:47 PM,,10.0,West,4.6,280,Los Angeles,California,90001
24,Partly Cloudy,2016-06-08 04:47:00,55.9,,-,83,N/A,29.90,61.0,9:47 PM,,10.0,Calm,Calm,0,Los Angeles,California,90001
25,Mostly Cloudy,2016-06-08 05:37:00,55.9,,-,83,N/A,29.90,61.0,10:37 PM,,9.0,West,4.6,280,Los Angeles,California,90001
26,Mostly Cloudy,2016-06-08 05:47:00,55.9,,-,83,N/A,29.90,61.0,10:47 PM,,9.0,West,4.6,280,Los Angeles,California,90001
27,Mostly Cloudy,2016-06-08 06:02:00,55.9,,-,83,N/A,29.90,61.0,11:02 PM,,8.0,Calm,Calm,0,Los Angeles,California,90001
28,Scattered Clouds,2016-06-08 06:19:00,55.9,,-,86,N/A,29.89,60.1,11:19 PM,,8.0,Calm,Calm,0,Los Angeles,California,90001
29,Clear,2016-06-08 06:47:00,55.9,,-,86,N/A,29.88,60.1,11:47 PM,,8.0,Calm,Calm,0,Los Angeles,California,90001
0,Clear,2016-06-08 07:47:00,55.9,,-,86,N/A,29.88,60.1,12:47 AM,,9.0,Calm,Calm,0,Los Angeles,California,90001
1,Mostly Cloudy,2016-06-08 08:32:00,55.9,,-,86,N/A,29.88,60.1,1:32 AM,,8.0,Calm,Calm,0,Los Angeles,California,90001
2,Overcast,2016-06-08 08:47:00,55.9,,-,86,N/A,29.87,60.1,1:47 AM,,8.0,Calm,Calm,0,Los Angeles,California,90001
3,Haze,2016-06-08 09:47:00,55.9,,-,83,N/A,29.86,61.0,2:47 AM,,6.0,Calm,Calm,0,Los Angeles,California,90001
4,Haze,2016-06-08 10:47:00,55.9,,-,83,N/A,29.85,61.0,3:47 AM,,6.0,Calm,Calm,0,Los Angeles,California,90001
5,Haze,2016-06-08 11:47:00,55.9,,-,80,N/A,29.85,62.1,4:47 AM,,5.0,ESE,3.5,110,Los Angeles,California,90001
6,Haze,2016-06-08 12:47:00,55.9,,-,80,N/A,29.85,62.1,5:47 AM,,5.0,Calm,Calm,0,Los Angeles,California,90001
7,Haze,2016-06-08 13:47:00,57.0,,-,81,N/A,29.87,63.0,6:47 AM,,5.0,Calm,Calm,0,Los Angeles,California,90001
8,Haze,2016-06-08 14:44:00,57.0,,-,78,N/A,29.88,64.0,7:44 AM,,6.0,Calm,Calm,0,Los Angeles,California,90001
9,Haze,2016-06-08 14:47:00,57.0,,-,78,N/A,29.88,64.0,7:47 AM,,6.0,Calm,Calm,0,Los Angeles,California,90001
10,Overcast,2016-06-08 15:47:00,57.9,,-,75,N/A,29.88,66.0,8:47 AM,,7.0,Calm,Calm,0,Los Angeles,California,90001
11,Overcast,2016-06-08 16:47:00,57.9,,-,70,N/A,29.88,68.0,9:47 AM,,7.0,Calm,Calm,0,Los Angeles,California,90001
12,Mostly Cloudy,2016-06-08 17:47:00,59.0,,-,64,N/A,29.88,72.0,10:47 AM,,7.0,Calm,Calm,0,Los Angeles,California,90001
13,Scattered Clouds,2016-06-08 17:50:00,57.9,,-,61,N/A,29.88,72.0,10:50 AM,,7.0,Variable,3.5,0,Los Angeles,California,90001
14,Clear,2016-06-08 18:47:00,59.0,,-,64,N/A,29.88,72.0,11:47 AM,,8.0,Variable,4.6,0,Los Angeles,California,90001
15,Clear,2016-06-08 19:47:00,59.0,,-,59,N/A,29.87,73.9,12:47 PM,,7.0,Calm,Calm,0,Los Angeles,California,90001
16,Clear,2016-06-08 20:47:00,59.0,,-,54,N/A,29.85,77.0,1:47 PM,,9.0,Calm,Calm,0,Los Angeles,California,90001
17,Clear,2016-06-08 21:47:00,59.0,,-,59,N/A,29.84,73.9,2:47 PM,,10.0,Variable,4.6,0,Los Angeles,California,90001
18,Clear,2016-06-08 22:47:00,59.0,,-,64,N/A,29.84,72.0,3:47 PM,,10.0,Variable,3.5,0,Los Angeles,California,90001
19,Clear,2016-06-08 23:47:00,59.0,,-,61,N/A,29.83,73.0,4:47 PM,,10.0,West,8.1,280,Los Angeles,California,90001
20,Clear,2016-06-09 00:47:00,59.0,,-,66,N/A,29.82,71.1,5:47 PM,,10.0,Variable,5.8,0,Los Angeles,California,90001
21,Clear,2016-06-09 01:47:00,57.9,,-,73,N/A,29.83,66.9,6:47 PM,,10.0,Variable,3.5,0,Los Angeles,California,90001
22,Partly Cloudy,2016-06-09 02:47:00,57.0,,-,81,N/A,29.84,63.0,7:47 PM,,8.0,Calm,Calm,0,Los Angeles,California,90001
23,Clear,2016-06-09 03:47:00,55.9,,-,80,N/A,29.85,62.1,8:47 PM,,10.0,West,3.5,260,Los Angeles,California,90001
24,Clear,2016-06-09 04:47:00,55.9,,-,83,N/A,29.86,61.0,9:47 PM,,10.0,Calm,Calm,0,Los Angeles,California,90001
25,Clear,2016-06-09 05:47:00,55.9,,-,83,N/A,29.86,61.0,10:47 PM,,10.0,Calm,Calm,0,Los Angeles,California,90001
26,Clear,2016-06-09 06:47:00,55.9,,-,83,N/A,29.86,61.0,11:47 PM,,10.0,Calm,Calm,0,Los Angeles,California,90001
0,Clear,2016-06-09 07:47:00,55.9,,-,83,N/A,29.86,61.0,12:47 AM,,10.0,Calm,Calm,0,Los Angeles,California,90001
1,Clear,2016-06-09 08:47:00,55.9,,-,80,N/A,29.85,62.1,1:47 AM,,9.0,Calm,Calm,0,Los Angeles,California,90001
2,Mostly Cloudy,2016-06-09 09:10:00,55.9,,-,80,N/A,29.85,62.1,2:10 AM,,8.0,Calm,Calm,0,Los Angeles,California,90001
3,Haze,2016-06-09 09:47:00,57.0,,-,84,N/A,29.85,62.1,2:47 AM,,6.0,Calm,Calm,0,Los Angeles,California,90001
4,Haze,2016-06-09 10:35:00,57.9,,-,84,N/A,29.85,63.0,3:35 AM,,5.0,Variable,3.5,0,Los Angeles,California,90001
5,Haze,2016-06-09 10:47:00,57.9,,-,84,N/A,29.86,63.0,3:47 AM,,6.0,Calm,Calm,0,Los Angeles,California,90001
6,Overcast,2016-06-09 11:47:00,57.9,,-,84,N/A,29.87,63.0,4:47 AM,,8.0,Calm,Calm,0,Los Angeles,California,90001
7,Overcast,2016-06-09 12:47:00,57.9,,-,84,N/A,29.88,63.0,5:47 AM,,8.0,Calm,Calm,0,Los Angeles,California,90001
8,Haze,2016-06-09 13:47:00,57.9,,-,84,N/A,29.89,63.0,6:47 AM,,5.0,Variable,3.5,0,Los Angeles,California,90001
9,Haze,2016-06-09 14:03:00,59.0,,-,84,N/A,29.90,64.0,7:03 AM,,4.0,South,3.5,170,Los Angeles,California,90001
10,Haze,2016-06-09 14:47:00,57.9,,-,80,N/A,29.90,64.0,7:47 AM,,5.0,Variable,3.5,0,Los Angeles,California,90001
11,Overcast,2016-06-09 15:47:00,59.0,,-,84,N/A,29.91,64.0,8:47 AM,,7.0,Calm,Calm,0,Los Angeles,California,90001
12,Overcast,2016-06-09 16:47:00,59.0,,-,81,N/A,29.92,64.9,9:47 AM,,7.0,Calm,Calm,0,Los Angeles,California,90001
13,Overcast,2016-06-09 17:47:00,60.1,,-,79,N/A,29.91,66.9,10:47 AM,,7.0,Calm,Calm,0,Los Angeles,California,90001
14,Overcast,2016-06-09 18:06:00,59.0,,-,76,N/A,29.92,66.9,11:06 AM,,7.0,Calm,Calm,0,Los Angeles,California,90001
15,Overcast,2016-06-09 18:22:00,60.1,,-,79,N/A,29.91,66.9,11:22 AM,,7.0,Calm,Calm,0,Los Angeles,California,90001
16,Overcast,2016-06-09 18:47:00,60.1,,-,76,N/A,29.91,68.0,11:47 AM,,7.0,Calm,Calm,0,Los Angeles,California,90001
17,Haze,2016-06-09 19:00:00,60.1,,-,76,N/A,29.92,68.0,12:00 PM,,6.0,Calm,Calm,0,Los Angeles,California,90001
18,Overcast,2016-06-09 19:47:00,60.1,,-,68,N/A,29.91,71.1,12:47 PM,,8.0,Variable,3.5,0,Los Angeles,California,90001
19,Overcast,2016-06-09 20:47:00,60.1,,-,66,N/A,29.89,72.0,1:47 PM,,8.0,Calm,Calm,0,Los Angeles,California,90001
20,Overcast,2016-06-09 21:47:00,60.1,,-,66,N/A,29.89,72.0,2:47 PM,,10.0,Variable,4.6,0,Los Angeles,California,90001
21,Mostly Cloudy,2016-06-09 22:47:00,60.1,,-,68,N/A,29.88,71.1,3:47 PM,,10.0,Variable,3.5,0,Los Angeles,California,90001
22,Overcast,2016-06-09 23:47:00,60.1,,-,73,N/A,29.88,69.1,4:47 PM,,10.0,North,-9999.0,0,Los Angeles,California,90001
23,Overcast,2016-06-10 00:47:00,60.1,,-,76,N/A,29.87,68.0,5:47 PM,,10.0,West,4.6,280,Los Angeles,California,90001
24,Overcast,2016-06-10 01:31:00,60.1,,-,76,N/A,29.87,68.0,6:31 PM,,10.0,Variable,3.5,0,Los Angeles,California,90001
25,Overcast,2016-06-10 01:47:00,59.0,,-,76,N/A,29.88,66.9,6:47 PM,,9.0,Variable,3.5,0,Los Angeles,California,90001
26,Scattered Clouds,2016-06-10 02:17:00,59.0,,-,78,N/A,29.88,66.0,7:17 PM,,9.0,WNW,3.5,290,Los Angeles,California,90001
27,Partly Cloudy,2016-06-10 02:47:00,59.0,,-,78,N/A,29.88,66.0,7:47 PM,,9.0,Variable,3.5,0,Los Angeles,California,90001
28,Mostly Cloudy,2016-06-10 02:57:00,59.0,,-,81,N/A,29.89,64.9,7:57 PM,,9.0,Variable,4.6,0,Los Angeles,California,90001
29,Mostly Cloudy,2016-06-10 03:47:00,59.0,,-,84,N/A,29.89,64.0,8:47 PM,,9.0,Calm,Calm,0,Los Angeles,California,90001
30,Scattered Clouds,2016-06-10 03:55:00,57.9,,-,80,N/A,29.89,64.0,8:55 PM,,9.0,Variable,3.5,0,Los Angeles,California,90001
31,Mostly Cloudy,2016-06-10 04:36:00,59.0,,-,87,N/A,29.90,63.0,9:36 PM,,8.0,Calm,Calm,0,Los Angeles,California,90001
32,Scattered Clouds,2016-06-10 04:47:00,57.9,,-,84,N/A,29.90,63.0,9:47 PM,,8.0,Calm,Calm,0,Los Angeles,California,90001
33,Mostly Cloudy,2016-06-10 04:53:00,57.9,,-,84,N/A,29.90,63.0,9:53 PM,,8.0,West,3.5,270,Los Angeles,California,90001
34,Overcast,2016-06-10 05:47:00,59.0,,-,84,N/A,29.91,64.0,10:47 PM,,7.0,Calm,Calm,0,Los Angeles,California,90001
35,Overcast,2016-06-10 06:47:00,59.0,,-,87,N/A,29.91,63.0,11:47 PM,,6.0,Calm,Calm,0,Los Angeles,California,90001
0,Haze,2016-06-10 07:47:00,59.0,,-,84,N/A,29.90,64.0,12:47 AM,,6.0,Calm,Calm,0,Los Angeles,California,90001
1,Haze,2016-06-10 08:47:00,59.0,,-,84,N/A,29.90,64.0,1:47 AM,,6.0,Calm,Calm,0,Los Angeles,California,90001
2,Overcast,2016-06-10 09:47:00,59.0,,-,87,N/A,29.90,63.0,2:47 AM,,6.0,Calm,Calm,0,Los Angeles,California,90001
3,Overcast,2016-06-10 10:47:00,59.0,,-,87,N/A,29.91,63.0,3:47 AM,,6.0,Calm,Calm,0,Los Angeles,California,90001
4,Overcast,2016-06-10 10:51:00,59.0,,-,87,N/A,29.91,63.0,3:51 AM,,6.0,Calm,Calm,0,Los Angeles,California,90001
5,Overcast,2016-06-10 11:41:00,59.0,,-,90,N/A,29.91,62.1,4:41 AM,,8.0,Calm,Calm,0,Los Angeles,California,90001
6,Overcast,2016-06-10 11:47:00,57.9,,-,86,N/A,29.91,62.1,4:47 AM,,8.0,West,3.5,280,Los Angeles,California,90001
7,Overcast,2016-06-10 11:50:00,57.9,,-,86,N/A,29.91,62.1,4:50 AM,,8.0,Calm,Calm,0,Los Angeles,California,90001
8,Overcast,2016-06-10 12:47:00,57.9,,-,86,N/A,29.92,62.1,5:47 AM,,9.0,Calm,Calm,0,Los Angeles,California,90001
9,Overcast,2016-06-10 13:47:00,57.9,,-,80,N/A,29.94,64.0,6:47 AM,,7.0,Calm,Calm,0,Los Angeles,California,90001
10,Overcast,2016-06-10 14:47:00,57.9,,-,80,N/A,29.96,64.0,7:47 AM,,10.0,Variable,4.6,0,Los Angeles,California,90001
11,Overcast,2016-06-10 15:47:00,57.9,,-,78,N/A,29.97,64.9,8:47 AM,,10.0,Variable,3.5,0,Los Angeles,California,90001
12,Overcast,2016-06-10 16:47:00,57.9,,-,80,N/A,29.98,64.0,9:47 AM,,9.0,Calm,Calm,0,Los Angeles,California,90001
13,Overcast,2016-06-10 17:28:00,59.0,,-,78,N/A,29.97,66.0,10:28 AM,,9.0,Calm,Calm,0,Los Angeles,California,90001
14,Overcast,2016-06-10 17:47:00,59.0,,-,76,N/A,29.96,66.9,10:47 AM,,8.0,Calm,Calm,0,Los Angeles,California,90001
15,Overcast,2016-06-10 18:47:00,59.0,,-,66,N/A,29.96,71.1,11:47 AM,,8.0,Calm,Calm,0,Los Angeles,California,90001
16,Scattered Clouds,2016-06-10 19:01:00,59.0,,-,64,N/A,29.95,72.0,12:01 PM,,8.0,Calm,Calm,0,Los Angeles,California,90001
17,Clear,2016-06-10 19:47:00,59.0,,-,57,N/A,29.93,75.0,12:47 PM,,9.0,Calm,Calm,0,Los Angeles,California,90001
18,Clear,2016-06-10 20:47:00,60.1,,-,58,N/A,29.92,75.9,1:47 PM,,10.0,Calm,Calm,0,Los Angeles,California,90001
19,Clear,2016-06-10 21:47:00,60.1,,-,58,N/A,29.89,75.9,2:47 PM,,10.0,North,-9999.0,0,Los Angeles,California,90001
20,Clear,2016-06-10 22:47:00,60.1,,-,62,N/A,29.88,73.9,3:47 PM,,10.0,WSW,3.5,250,Los Angeles,California,90001
21,Clear,2016-06-10 23:47:00,59.0,,-,61,N/A,29.87,73.0,4:47 PM,,10.0,Variable,3.5,0,Los Angeles,California,90001
22,Clear,2016-06-11 00:47:00,59.0,,-,64,N/A,29.87,72.0,5:47 PM,,10.0,Calm,Calm,0,Los Angeles,California,90001
23,Clear,2016-06-11 01:47:00,59.0,,-,68,N/A,29.88,70.0,6:47 PM,,10.0,West,4.6,270,Los Angeles,California,90001
24,Clear,2016-06-11 02:47:00,59.0,,-,76,N/A,29.88,66.9,7:47 PM,,10.0,Calm,Calm,0,Los Angeles,California,90001
25,Clear,2016-06-11 03:47:00,59.0,,-,81,N/A,29.89,64.9,8:47 PM,,10.0,Calm,Calm,0,Los Angeles,California,90001
26,Mostly Cloudy,2016-06-11 04:37:00,57.9,,-,78,N/A,29.91,64.9,9:37 PM,,10.0,Calm,Calm,0,Los Angeles,California,90001
27,Mostly Cloudy,2016-06-11 04:47:00,57.9,,-,75,N/A,29.92,66.0,9:47 PM,,10.0,Variable,4.6,0,Los Angeles,California,90001
28,Overcast,2016-06-11 05:47:00,57.0,,-,75,N/A,29.93,64.9,10:47 PM,,10.0,Variable,3.5,0,Los Angeles,California,90001
29,Scattered Clouds,2016-06-11 06:17:00,55.9,,-,78,N/A,29.93,63.0,11:17 PM,,10.0,Calm,Calm,0,Los Angeles,California,90001
30,Mostly Cloudy,2016-06-11 06:35:00,55.9,,-,78,N/A,29.93,63.0,11:35 PM,,10.0,Calm,Calm,0,Los Angeles,California,90001
31,Mostly Cloudy,2016-06-11 06:47:00,55.9,,-,78,N/A,29.93,63.0,11:47 PM,,10.0,Variable,4.6,0,Los Angeles,California,90001
32,Scattered Clouds,2016-06-11 06:57:00,55.9,,-,78,N/A,29.93,63.0,11:57 PM,,10.0,Calm,Calm,0,Los Angeles,California,90001
0,Mostly Cloudy,2016-06-11 07:27:00,55.9,,-,78,N/A,29.93,63.0,12:27 AM,,10.0,Variable,3.5,0,Los Angeles,California,90001
1,Mostly Cloudy,2016-06-11 07:47:00,55.9,,-,78,N/A,29.92,63.0,12:47 AM,,10.0,ESE,5.8,120,Los Angeles,California,90001
2,Overcast,2016-06-11 08:47:00,55.9,,-,75,N/A,29.92,64.0,1:47 AM,,10.0,Calm,Calm,0,Los Angeles,California,90001
3,Overcast,2016-06-11 09:47:00,57.0,,-,81,N/A,29.91,63.0,2:47 AM,,9.0,Calm,Calm,0,Los Angeles,California,90001
4,Overcast,2016-06-11 10:47:00,57.0,,-,81,N/A,29.91,63.0,3:47 AM,,10.0,Calm,Calm,0,Los Angeles,California,90001
5,Overcast,2016-06-11 11:47:00,57.0,,-,78,N/A,29.91,64.0,4:47 AM,,10.0,Calm,Calm,0,Los Angeles,California,90001
6,Overcast,2016-06-11 12:47:00,57.0,,-,78,N/A,29.92,64.0,5:47 AM,,10.0,Calm,Calm,0,Los Angeles,California,90001
7,Overcast,2016-06-11 13:30:00,57.9,,-,84,N/A,29.93,63.0,6:30 AM,,9.0,Calm,Calm,0,Los Angeles,California,90001
8,Overcast,2016-06-11 13:47:00,59.0,,-,90,N/A,29.94,62.1,6:47 AM,,5.0,Calm,Calm,0,Los Angeles,California,90001
9,Overcast,2016-06-11 14:08:00,59.0,,-,87,N/A,29.94,63.0,7:08 AM,,5.0,Calm,Calm,0,Los Angeles,California,90001
10,Overcast,2016-06-11 14:47:00,59.0,,-,87,N/A,29.95,63.0,7:47 AM,,5.0,Calm,Calm,0,Los Angeles,California,90001
11,Overcast,2016-06-11 14:50:00,59.0,,-,87,N/A,29.95,63.0,7:50 AM,,6.0,Variable,3.5,0,Los Angeles,California,90001
12,Overcast,2016-06-11 15:13:00,59.0,,-,84,N/A,29.96,64.0,8:13 AM,,9.0,Variable,3.5,0,Los Angeles,California,90001
13,Overcast,2016-06-11 15:28:00,59.0,,-,87,N/A,29.96,63.0,8:28 AM,,8.0,Variable,3.5,0,Los Angeles,California,90001
14,Haze,2016-06-11 15:47:00,59.0,,-,84,N/A,29.96,64.0,8:47 AM,,6.0,Variable,3.5,0,Los Angeles,California,90001
15,Overcast,2016-06-11 16:28:00,59.0,,-,81,N/A,29.96,64.9,9:28 AM,,10.0,Calm,Calm,0,Los Angeles,California,90001
16,Overcast,2016-06-11 16:47:00,59.0,,-,87,N/A,29.96,63.0,9:47 AM,,9.0,Calm,Calm,0,Los Angeles,California,90001
17,Overcast,2016-06-11 16:51:00,59.0,,-,87,N/A,29.97,63.0,9:51 AM,,10.0,Calm,Calm,0,Los Angeles,California,90001
18,Overcast,2016-06-11 16:54:00,59.0,,-,84,N/A,29.97,64.0,9:54 AM,,10.0,Calm,Calm,0,Los Angeles,California,90001
19,Overcast,2016-06-11 16:57:00,59.0,,-,87,N/A,29.97,63.0,9:57 AM,,9.0,Calm,Calm,0,Los Angeles,California,90001
20,Overcast,2016-06-11 17:04:00,59.0,,-,87,N/A,29.97,63.0,10:04 AM,,6.0,Calm,Calm,0,Los Angeles,California,90001
21,Overcast,2016-06-11 17:15:00,59.0,,-,87,N/A,29.97,63.0,10:15 AM,,8.0,Calm,Calm,0,Los Angeles,California,90001
22,Overcast,2016-06-11 17:20:00,60.1,,-,87,N/A,29.98,64.0,10:20 AM,,5.0,Calm,Calm,0,Los Angeles,California,90001
23,Overcast,2016-06-11 17:27:00,60.1,,-,90,N/A,29.98,63.0,10:27 AM,,2.5,Calm,Calm,0,Los Angeles,California,90001
24,Overcast,2016-06-11 17:34:00,60.1,,-,90,N/A,29.98,63.0,10:34 AM,,3.0,Calm,Calm,0,Los Angeles,California,90001
25,Overcast,2016-06-11 17:47:00,60.1,,-,90,N/A,29.98,63.0,10:47 AM,,4.0,Calm,Calm,0,Los Angeles,California,90001
26,Overcast,2016-06-11 18:47:00,57.9,,-,70,N/A,29.98,68.0,11:47 AM,,10.0,Variable,3.5,0,Los Angeles,California,90001
27,Overcast,2016-06-11 19:47:00,57.0,,-,68,N/A,29.97,68.0,12:47 PM,,10.0,Variable,3.5,0,Los Angeles,California,90001
28,Overcast,2016-06-11 20:47:00,57.0,,-,68,N/A,29.97,68.0,1:47 PM,,10.0,Variable,4.6,0,Los Angeles,California,90001
29,Overcast,2016-06-11 21:27:00,57.9,,-,68,N/A,29.97,69.1,2:27 PM,,10.0,Variable,4.6,0,Los Angeles,California,90001
30,Overcast,2016-06-11 21:30:00,57.0,,-,65,N/A,29.97,69.1,2:30 PM,,10.0,Variable,3.5,0,Los Angeles,California,90001
31,Overcast,2016-06-11 21:44:00,57.0,,-,65,N/A,29.97,69.1,2:44 PM,,10.0,Variable,5.8,0,Los Angeles,California,90001
32,Overcast,2016-06-11 21:47:00,57.0,,-,65,N/A,29.96,69.1,2:47 PM,,10.0,Variable,4.6,0,Los Angeles,California,90001
33,Overcast,2016-06-11 21:56:00,57.0,,-,65,N/A,29.97,69.1,2:56 PM,,10.0,Calm,Calm,0,Los Angeles,California,90001
34,Overcast,2016-06-11 22:47:00,55.9,,-,65,N/A,29.96,68.0,3:47 PM,,10.0,Variable,4.6,0,Los Angeles,California,90001
35,Overcast,2016-06-11 23:47:00,55.9,,-,68,N/A,29.95,66.9,4:47 PM,,10.0,Variable,4.6,0,Los Angeles,California,90001
36,Overcast,2016-06-11 23:55:00,55.9,,-,68,N/A,29.95,66.9,4:55 PM,,10.0,Calm,Calm,0,Los Angeles,California,90001
37,Overcast,2016-06-12 00:43:00,55.0,,-,66,N/A,29.95,66.9,5:43 PM,,10.0,Calm,Calm,0,Los Angeles,California,90001
38,Overcast,2016-06-12 00:47:00,55.0,,-,66,N/A,29.95,66.9,5:47 PM,,10.0,Variable,3.5,0,Los Angeles,California,90001
39,Overcast,2016-06-12 00:59:00,54.0,,-,63,N/A,29.95,66.9,5:59 PM,,10.0,Calm,Calm,0,Los Angeles,California,90001
40,Overcast,2016-06-12 01:47:00,53.1,,-,61,N/A,29.95,66.9,6:47 PM,,10.0,Variable,3.5,0,Los Angeles,California,90001
41,Overcast,2016-06-12 02:47:00,55.0,,-,66,N/A,29.95,66.9,7:47 PM,,10.0,Variable,3.5,0,Los Angeles,California,90001
42,Overcast,2016-06-12 03:07:00,55.0,,-,68,N/A,29.96,66.0,8:07 PM,,10.0,Variable,3.5,0,Los Angeles,California,90001
43,Overcast,2016-06-12 03:28:00,54.0,,-,65,N/A,29.97,66.0,8:28 PM,,10.0,Calm,Calm,0,Los Angeles,California,90001
44,Overcast,2016-06-12 03:47:00,54.0,,-,65,N/A,29.97,66.0,8:47 PM,,10.0,Variable,3.5,0,Los Angeles,California,90001
45,Overcast,2016-06-12 04:36:00,55.0,,-,70,N/A,29.98,64.9,9:36 PM,,10.0,Variable,3.5,0,Los Angeles,California,90001
46,Overcast,2016-06-12 04:47:00,55.0,,-,70,N/A,29.99,64.9,9:47 PM,,10.0,Variable,3.5,0,Los Angeles,California,90001
47,Overcast,2016-06-12 05:19:00,55.0,,-,70,N/A,29.99,64.9,10:19 PM,,10.0,Calm,Calm,0,Los Angeles,California,90001
48,Overcast,2016-06-12 05:47:00,55.0,,-,70,N/A,29.99,64.9,10:47 PM,,10.0,Variable,3.5,0,Los Angeles,California,90001
49,Overcast,2016-06-12 06:35:00,55.0,,-,70,N/A,30.00,64.9,11:35 PM,,10.0,SSE,3.5,150,Los Angeles,California,90001
50,Overcast,2016-06-12 06:47:00,55.0,,-,73,N/A,30.00,64.0,11:47 PM,,10.0,North,-9999.0,0,Los Angeles,California,90001
51,Overcast,2016-06-12 06:56:00,55.0,,-,73,N/A,30.00,64.0,11:56 PM,,10.0,Calm,Calm,0,Los Angeles,California,90001
0,Overcast,2016-06-12 07:47:00,55.0,,-,73,N/A,29.99,64.0,12:47 AM,,10.0,Variable,4.6,0,Los Angeles,California,90001
1,Overcast,2016-06-12 07:58:00,55.0,,-,73,N/A,29.99,64.0,12:58 AM,,10.0,Variable,3.5,0,Los Angeles,California,90001
2,Overcast,2016-06-12 08:47:00,55.0,,-,73,N/A,29.98,64.0,1:47 AM,,10.0,Variable,3.5,0,Los Angeles,California,90001
3,Overcast,2016-06-12 09:47:00,54.0,,-,70,N/A,29.98,64.0,2:47 AM,,10.0,Calm,Calm,0,Los Angeles,California,90001
4,Overcast,2016-06-12 10:47:00,55.0,,-,73,N/A,29.98,64.0,3:47 AM,,10.0,SE,4.6,130,Los Angeles,California,90001
5,Overcast,2016-06-12 11:04:00,55.0,,-,73,N/A,29.98,64.0,4:04 AM,,10.0,ESE,3.5,120,Los Angeles,California,90001
6,Overcast,2016-06-12 11:47:00,55.0,,-,73,N/A,30.00,64.0,4:47 AM,,10.0,Calm,Calm,0,Los Angeles,California,90001
7,Overcast,2016-06-12 12:02:00,55.0,,-,73,N/A,30.00,64.0,5:02 AM,,10.0,Calm,Calm,0,Los Angeles,California,90001
8,Overcast,2016-06-12 12:47:00,55.9,,-,75,N/A,30.01,64.0,5:47 AM,,10.0,Calm,Calm,0,Los Angeles,California,90001
9,Overcast,2016-06-12 13:07:00,55.9,,-,75,N/A,30.02,64.0,6:07 AM,,10.0,Calm,Calm,0,Los Angeles,California,90001
10,Overcast,2016-06-12 13:30:00,55.9,,-,75,N/A,30.03,64.0,6:30 AM,,10.0,SE,3.5,130,Los Angeles,California,90001
11,Overcast,2016-06-12 13:47:00,55.9,,-,78,N/A,30.03,63.0,6:47 AM,,10.0,Calm,Calm,0,Los Angeles,California,90001
12,Overcast,2016-06-12 14:18:00,55.9,,-,75,N/A,30.05,64.0,7:18 AM,,10.0,Variable,3.5,0,Los Angeles,California,90001
13,Overcast,2016-06-12 14:47:00,55.0,,-,73,N/A,30.05,64.0,7:47 AM,,10.0,Calm,Calm,0,Los Angeles,California,90001
14,Overcast,2016-06-12 15:06:00,55.9,,-,75,N/A,30.05,64.0,8:06 AM,,10.0,Calm,Calm,0,Los Angeles,California,90001
15,Overcast,2016-06-12 15:27:00,55.9,,-,75,N/A,30.06,64.0,8:27 AM,,10.0,Calm,Calm,0,Los Angeles,California,90001
16,Overcast,2016-06-12 15:47:00,55.9,,-,75,N/A,30.06,64.0,8:47 AM,,10.0,Calm,Calm,0,Los Angeles,California,90001
17,Overcast,2016-06-12 16:47:00,55.0,,-,73,N/A,30.06,64.0,9:47 AM,,10.0,Calm,Calm,0,Los Angeles,California,90001
18,Overcast,2016-06-12 17:38:00,54.0,,-,65,N/A,30.08,66.0,10:38 AM,,10.0,Calm,Calm,0,Los Angeles,California,90001
19,Overcast,2016-06-12 17:42:00,54.0,,-,68,N/A,30.08,64.9,10:42 AM,,10.0,Calm,Calm,0,Los Angeles,California,90001
20,Overcast,2016-06-12 17:47:00,54.0,,-,65,N/A,30.08,66.0,10:47 AM,,10.0,Calm,Calm,0,Los Angeles,California,90001
21,Overcast,2016-06-12 18:47:00,54.0,,-,63,N/A,30.08,66.9,11:47 AM,,10.0,Calm,Calm,0,Los Angeles,California,90001
22,Overcast,2016-06-12 19:16:00,55.0,,-,63,N/A,30.08,68.0,12:16 PM,,10.0,Calm,Calm,0,Los Angeles,California,90001
23,Overcast,2016-06-12 19:47:00,55.0,,-,59,N/A,30.08,70.0,12:47 PM,,10.0,Calm,Calm,0,Los Angeles,California,90001
24,Overcast,2016-06-12 20:47:00,54.0,,-,58,N/A,30.07,69.1,1:47 PM,,10.0,Calm,Calm,0,Los Angeles,California,90001
25,Overcast,2016-06-12 21:47:00,55.0,,-,57,N/A,30.06,71.1,2:47 PM,,10.0,Variable,3.5,0,Los Angeles,California,90001
26,Mostly Cloudy,2016-06-12 22:47:00,55.0,,-,59,N/A,30.06,70.0,3:47 PM,,10.0,Variable,3.5,0,Los Angeles,California,90001
27,Mostly Cloudy,2016-06-12 23:47:00,55.0,,-,59,N/A,30.06,70.0,4:47 PM,,10.0,Calm,Calm,0,Los Angeles,California,90001
28,Mostly Cloudy,2016-06-13 00:19:00,55.9,,-,63,N/A,30.06,69.1,5:19 PM,,10.0,Variable,3.5,0,Los Angeles,California,90001
29,Scattered Clouds,2016-06-13 00:22:00,55.9,,-,63,N/A,30.05,69.1,5:22 PM,,10.0,Variable,3.5,0,Los Angeles,California,90001
30,Clear,2016-06-13 00:47:00,55.9,,-,61,N/A,30.05,70.0,5:47 PM,,10.0,Variable,3.5,0,Los Angeles,California,90001
31,Clear,2016-06-13 01:47:00,55.0,,-,66,N/A,30.06,66.9,6:47 PM,,10.0,Variable,4.6,0,Los Angeles,California,90001
32,Clear,2016-06-13 02:47:00,54.0,,-,68,N/A,30.06,64.9,7:47 PM,,10.0,Variable,4.6,0,Los Angeles,California,90001
33,Clear,2016-06-13 03:47:00,55.0,,-,75,N/A,30.07,63.0,8:47 PM,,10.0,West,3.5,270,Los Angeles,California,90001
34,Clear,2016-06-13 04:47:00,55.0,,-,78,N/A,30.08,62.1,9:47 PM,,10.0,Calm,Calm,0,Los Angeles,California,90001
35,Clear,2016-06-13 05:47:00,55.0,,-,78,N/A,30.09,62.1,10:47 PM,,10.0,Calm,Calm,0,Los Angeles,California,90001
36,Clear,2016-06-13 06:47:00,55.0,,-,81,N/A,30.09,61.0,11:47 PM,,10.0,Calm,Calm,0,Los Angeles,California,90001
0,Overcast,2016-06-13 07:47:00,54.0,,-,78,N/A,30.09,61.0,12:47 AM,,10.0,Calm,Calm,0,Los Angeles,California,90001
1,Overcast,2016-06-13 08:47:00,54.0,,-,78,N/A,30.08,61.0,1:47 AM,,10.0,Calm,Calm,0,Los Angeles,California,90001
2,Mostly Cloudy,2016-06-13 09:47:00,55.0,,-,83,N/A,30.08,60.1,2:47 AM,,10.0,Calm,Calm,0,Los Angeles,California,90001
3,Overcast,2016-06-13 10:47:00,55.0,,-,83,N/A,30.08,60.1,3:47 AM,,10.0,Calm,Calm,0,Los Angeles,California,90001
4,Overcast,2016-06-13 11:47:00,55.9,,-,83,N/A,30.09,61.0,4:47 AM,,10.0,Calm,Calm,0,Los Angeles,California,90001
5,Overcast,2016-06-13 12:47:00,55.9,,-,80,N/A,30.09,62.1,5:47 AM,,10.0,Calm,Calm,0,Los Angeles,California,90001
6,Overcast,2016-06-13 13:30:00,55.9,,-,80,N/A,30.10,62.1,6:30 AM,,10.0,Calm,Calm,0,Los Angeles,California,90001
7,Overcast,2016-06-13 13:39:00,57.0,,-,84,N/A,30.10,62.1,6:39 AM,,10.0,Calm,Calm,0,Los Angeles,California,90001
8,Overcast,2016-06-13 13:47:00,57.0,,-,84,N/A,30.10,62.1,6:47 AM,,10.0,Calm,Calm,0,Los Angeles,California,90001
9,Overcast,2016-06-13 14:47:00,55.9,,-,78,N/A,30.11,63.0,7:47 AM,,10.0,Variable,3.5,0,Los Angeles,California,90001
10,Overcast,2016-06-13 15:47:00,55.9,,-,75,N/A,30.12,64.0,8:47 AM,,10.0,Calm,Calm,0,Los Angeles,California,90001
11,Overcast,2016-06-13 16:29:00,55.0,,-,70,N/A,30.12,64.9,9:29 AM,,10.0,Calm,Calm,0,Los Angeles,California,90001
12,Overcast,2016-06-13 16:43:00,55.0,,-,68,N/A,30.12,66.0,9:43 AM,,10.0,Calm,Calm,0,Los Angeles,California,90001
13,Overcast,2016-06-13 16:47:00,55.0,,-,70,N/A,30.12,64.9,9:47 AM,,10.0,Calm,Calm,0,Los Angeles,California,90001
14,Overcast,2016-06-13 17:47:00,55.0,,-,68,N/A,30.11,66.0,10:47 AM,,10.0,Variable,3.5,0,Los Angeles,California,90001
15,Overcast,2016-06-13 18:23:00,55.0,,-,63,N/A,30.11,68.0,11:23 AM,,10.0,Calm,Calm,0,Los Angeles,California,90001
16,Overcast,2016-06-13 18:44:00,55.9,,-,63,N/A,30.11,69.1,11:44 AM,,10.0,Calm,Calm,0,Los Angeles,California,90001
17,Overcast,2016-06-13 18:47:00,55.9,,-,63,N/A,30.10,69.1,11:47 AM,,10.0,Variable,3.5,0,Los Angeles,California,90001
18,Overcast,2016-06-13 19:43:00,55.9,,-,61,N/A,30.09,70.0,12:43 PM,,10.0,Calm,Calm,0,Los Angeles,California,90001
19,Overcast,2016-06-13 19:47:00,55.9,,-,61,N/A,30.09,70.0,12:47 PM,,10.0,Calm,Calm,0,Los Angeles,California,90001
20,Overcast,2016-06-13 19:55:00,55.9,,-,61,N/A,30.09,70.0,12:55 PM,,10.0,Variable,3.5,0,Los Angeles,California,90001
21,Mostly Cloudy,2016-06-13 20:40:00,57.0,,-,63,N/A,30.08,70.0,1:40 PM,,10.0,North,-9999.0,0,Los Angeles,California,90001
22,Mostly Cloudy,2016-06-13 20:47:00,57.0,,-,63,N/A,30.07,70.0,1:47 PM,,10.0,Variable,4.6,0,Los Angeles,California,90001
23,Mostly Cloudy,2016-06-13 21:01:00,55.9,,-,63,N/A,30.07,69.1,2:01 PM,,10.0,Variable,3.5,0,Los Angeles,California,90001
24,Scattered Clouds,2016-06-13 21:32:00,55.9,,-,63,N/A,30.06,69.1,2:32 PM,,10.0,WSW,4.6,250,Los Angeles,California,90001
25,Scattered Clouds,2016-06-13 21:47:00,55.0,,-,63,N/A,30.06,68.0,2:47 PM,,10.0,Variable,3.5,0,Los Angeles,California,90001
26,Partly Cloudy,2016-06-13 22:47:00,55.9,,-,63,N/A,30.04,69.1,3:47 PM,,10.0,WSW,5.8,250,Los Angeles,California,90001
27,Clear,2016-06-13 23:47:00,55.0,,18.4,63,N/A,30.04,68.0,4:47 PM,,10.0,West,8.1,270,Los Angeles,California,90001
28,Clear,2016-06-14 00:47:00,55.0,,-,68,N/A,30.03,66.0,5:47 PM,,10.0,Variable,6.9,0,Los Angeles,California,90001
29,Mostly Cloudy,2016-06-14 01:27:00,55.0,,-,75,N/A,30.03,63.0,6:27 PM,,10.0,Variable,6.9,0,Los Angeles,California,90001
30,Scattered Clouds,2016-06-14 01:47:00,55.0,,-,78,N/A,30.03,62.1,6:47 PM,,10.0,Variable,3.5,0,Los Angeles,California,90001
31,Mostly Cloudy,2016-06-14 02:22:00,55.0,,-,78,N/A,30.03,62.1,7:22 PM,,10.0,Calm,Calm,0,Los Angeles,California,90001
32,Overcast,2016-06-14 02:47:00,55.0,,-,78,N/A,30.03,62.1,7:47 PM,,10.0,Variable,4.6,0,Los Angeles,California,90001
33,Overcast,2016-06-14 03:47:00,55.0,,-,81,N/A,30.02,61.0,8:47 PM,,10.0,West,3.5,280,Los Angeles,California,90001
34,Overcast,2016-06-14 04:47:00,55.0,,-,81,N/A,30.03,61.0,9:47 PM,,10.0,Variable,3.5,0,Los Angeles,California,90001
35,Overcast,2016-06-14 05:47:00,55.0,,-,81,N/A,30.02,61.0,10:47 PM,,10.0,Variable,3.5,0,Los Angeles,California,90001
36,Overcast,2016-06-14 06:47:00,55.0,,-,83,N/A,30.01,60.1,11:47 PM,,10.0,Calm,Calm,0,Los Angeles,California,90001
0,Overcast,2016-06-14 07:47:00,55.0,,-,83,N/A,30.00,60.1,12:47 AM,,10.0,Calm,Calm,0,Los Angeles,California,90001
1,Overcast,2016-06-14 08:47:00,55.0,,-,83,N/A,29.99,60.1,1:47 AM,,10.0,Calm,Calm,0,Los Angeles,California,90001
2,Overcast,2016-06-14 09:47:00,54.0,,-,80,N/A,29.97,60.1,2:47 AM,,10.0,Calm,Calm,0,Los Angeles,California,90001
3,Overcast,2016-06-14 10:47:00,54.0,,-,80,N/A,29.97,60.1,3:47 AM,,9.0,Calm,Calm,0,Los Angeles,California,90001
4,Haze,2016-06-14 11:11:00,54.0,,-,80,N/A,29.97,60.1,4:11 AM,,2.5,Calm,Calm,0,Los Angeles,California,90001
5,Haze,2016-06-14 11:25:00,54.0,,-,78,N/A,29.96,61.0,4:25 AM,,3.0,Calm,Calm,0,Los Angeles,California,90001
6,Haze,2016-06-14 11:47:00,55.0,,-,81,N/A,29.96,61.0,4:47 AM,,4.0,Variable,4.6,0,Los Angeles,California,90001
7,Haze,2016-06-14 12:24:00,55.0,,-,81,N/A,29.96,61.0,5:24 AM,,2.5,Calm,Calm,0,Los Angeles,California,90001
8,Haze,2016-06-14 12:39:00,55.0,,-,81,N/A,29.97,61.0,5:39 AM,,3.0,Calm,Calm,0,Los Angeles,California,90001
9,Haze,2016-06-14 12:47:00,55.0,,-,81,N/A,29.97,61.0,5:47 AM,,4.0,Calm,Calm,0,Los Angeles,California,90001
10,Haze,2016-06-14 13:20:00,55.0,,-,81,N/A,29.98,61.0,6:20 AM,,2.5,Calm,Calm,0,Los Angeles,California,90001
11,Haze,2016-06-14 13:47:00,55.0,,-,78,N/A,29.97,62.1,6:47 AM,,1.5,SE,4.6,140,Los Angeles,California,90001
12,Haze,2016-06-14 14:30:00,55.0,,-,78,N/A,29.99,62.1,7:30 AM,,2.0,Variable,3.5,0,Los Angeles,California,90001
13,Haze,2016-06-14 14:47:00,55.0,,-,81,N/A,29.98,61.0,7:47 AM,,2.0,East,3.5,100,Los Angeles,California,90001
14,Haze,2016-06-14 15:20:00,55.0,,-,81,N/A,29.99,61.0,8:20 AM,,3.0,Variable,3.5,0,Los Angeles,California,90001
15,Haze,2016-06-14 15:47:00,55.0,,-,78,N/A,29.99,62.1,8:47 AM,,4.0,Calm,Calm,0,Los Angeles,California,90001
16,Haze,2016-06-14 16:15:00,55.0,,-,78,N/A,29.99,62.1,9:15 AM,,4.0,Calm,Calm,0,Los Angeles,California,90001
17,Haze,2016-06-14 16:47:00,55.0,,-,75,N/A,29.99,63.0,9:47 AM,,4.0,ESE,3.5,120,Los Angeles,California,90001
18,Haze,2016-06-14 17:47:00,55.0,,-,73,N/A,29.99,64.0,10:47 AM,,4.0,Calm,Calm,0,Los Angeles,California,90001
19,Haze,2016-06-14 18:47:00,55.9,,-,70,N/A,29.99,66.0,11:47 AM,,5.0,Calm,Calm,0,Los Angeles,California,90001
20,Overcast,2016-06-14 19:47:00,55.9,,-,63,N/A,29.97,69.1,12:47 PM,,7.0,ENE,3.5,70,Los Angeles,California,90001
21,Overcast,2016-06-14 20:47:00,57.0,,-,63,N/A,29.95,70.0,1:47 PM,,7.0,West,6.9,280,Los Angeles,California,90001
22,Mostly Cloudy,2016-06-14 21:16:00,55.9,,-,61,N/A,29.94,70.0,2:16 PM,,8.0,Calm,Calm,0,Los Angeles,California,90001
23,Scattered Clouds,2016-06-14 21:47:00,57.0,,-,61,N/A,29.93,71.1,2:47 PM,,10.0,Calm,Calm,0,Los Angeles,California,90001
24,Mostly Cloudy,2016-06-14 22:16:00,57.0,,-,63,N/A,29.93,70.0,3:16 PM,,10.0,Variable,3.5,0,Los Angeles,California,90001
25,Scattered Clouds,2016-06-14 22:27:00,57.0,,-,63,N/A,29.93,70.0,3:27 PM,,10.0,West,6.9,280,Los Angeles,California,90001
26,Mostly Cloudy,2016-06-14 22:35:00,57.0,,-,63,N/A,29.92,70.0,3:35 PM,,10.0,West,8.1,270,Los Angeles,California,90001
27,Scattered Clouds,2016-06-14 22:40:00,57.0,,-,63,N/A,29.92,70.0,3:40 PM,,10.0,Variable,3.5,0,Los Angeles,California,90001
28,Partly Cloudy,2016-06-14 22:47:00,57.0,,-,65,N/A,29.92,69.1,3:47 PM,,10.0,North,-9999.0,0,Los Angeles,California,90001
29,Mostly Cloudy,2016-06-14 23:42:00,57.0,,-,68,N/A,29.90,68.0,4:42 PM,,10.0,West,5.8,260,Los Angeles,California,90001
30,Mostly Cloudy,2016-06-14 23:47:00,57.0,,-,68,N/A,29.90,68.0,4:47 PM,,10.0,Variable,5.8,0,Los Angeles,California,90001
31,Mostly Cloudy,2016-06-15 00:47:00,57.0,,-,70,N/A,29.89,66.9,5:47 PM,,10.0,Variable,4.6,0,Los Angeles,California,90001
32,Scattered Clouds,2016-06-15 01:05:00,55.9,,-,68,N/A,29.90,66.9,6:05 PM,,10.0,Variable,3.5,0,Los Angeles,California,90001
33,Partly Cloudy,2016-06-15 01:47:00,55.9,,-,70,N/A,29.89,66.0,6:47 PM,,10.0,Calm,Calm,0,Los Angeles,California,90001
34,Partly Cloudy,2016-06-15 02:47:00,55.0,,-,73,N/A,29.90,64.0,7:47 PM,,10.0,Variable,3.5,0,Los Angeles,California,90001
35,Mostly Cloudy,2016-06-15 03:38:00,55.9,,-,78,N/A,29.91,63.0,8:38 PM,,10.0,Calm,Calm,0,Los Angeles,California,90001
36,Mostly Cloudy,2016-06-15 03:47:00,55.9,,-,78,N/A,29.91,63.0,8:47 PM,,10.0,Calm,Calm,0,Los Angeles,California,90001
37,Overcast,2016-06-15 04:47:00,55.9,,-,78,N/A,29.91,63.0,9:47 PM,,10.0,Calm,Calm,0,Los Angeles,California,90001
38,Scattered Clouds,2016-06-15 05:32:00,55.9,,-,78,N/A,29.91,63.0,10:32 PM,,10.0,Calm,Calm,0,Los Angeles,California,90001
39,Mostly Cloudy,2016-06-15 05:47:00,55.9,,-,78,N/A,29.91,63.0,10:47 PM,,9.0,Calm,Calm,0,Los Angeles,California,90001
40,Overcast,2016-06-15 06:47:00,55.9,,-,78,N/A,29.91,63.0,11:47 PM,,10.0,Calm,Calm,0,Los Angeles,California,90001
0,Overcast,2016-06-15 07:47:00,55.9,,-,75,N/A,29.90,64.0,12:47 AM,,10.0,Calm,Calm,0,Los Angeles,California,90001
1,Overcast,2016-06-15 08:47:00,55.9,,-,78,N/A,29.89,63.0,1:47 AM,,10.0,ESE,3.5,110,Los Angeles,California,90001
2,Overcast,2016-06-15 09:47:00,54.0,,-,72,N/A,29.88,63.0,2:47 AM,,9.0,Calm,Calm,0,Los Angeles,California,90001
3,Overcast,2016-06-15 10:47:00,55.0,,-,78,N/A,29.88,62.1,3:47 AM,,10.0,Calm,Calm,0,Los Angeles,California,90001
4,Overcast,2016-06-15 11:47:00,55.0,,-,75,N/A,29.88,63.0,4:47 AM,,10.0,Calm,Calm,0,Los Angeles,California,90001
5,Overcast,2016-06-15 12:47:00,55.0,,-,75,N/A,29.90,63.0,5:47 AM,,10.0,Calm,Calm,0,Los Angeles,California,90001
6,Overcast,2016-06-15 13:47:00,54.0,,-,72,N/A,29.92,63.0,6:47 AM,,10.0,Calm,Calm,0,Los Angeles,California,90001
7,Overcast,2016-06-15 14:47:00,54.0,,-,70,N/A,29.94,64.0,7:47 AM,,10.0,Variable,3.5,0,Los Angeles,California,90001
8,Overcast,2016-06-15 15:47:00,54.0,,-,68,N/A,29.96,64.9,8:47 AM,,10.0,Calm,Calm,0,Los Angeles,California,90001
9,Overcast,2016-06-15 16:47:00,55.9,,-,75,N/A,29.97,64.0,9:47 AM,,10.0,Variable,4.6,0,Los Angeles,California,90001
10,Overcast,2016-06-15 17:15:00,55.0,,-,68,N/A,29.97,66.0,10:15 AM,,10.0,Variable,4.6,0,Los Angeles,California,90001
11,Overcast,2016-06-15 17:43:00,55.9,,-,65,N/A,29.98,68.0,10:43 AM,,10.0,Calm,Calm,0,Los Angeles,California,90001
12,Overcast,2016-06-15 17:47:00,55.0,,-,66,N/A,29.98,66.9,10:47 AM,,10.0,Variable,3.5,0,Los Angeles,California,90001
13,Overcast,2016-06-15 18:35:00,55.9,,-,63,N/A,29.98,69.1,11:35 AM,,10.0,Calm,Calm,0,Los Angeles,California,90001
14,Overcast,2016-06-15 18:40:00,55.9,,-,61,N/A,29.98,70.0,11:40 AM,,10.0,Calm,Calm,0,Los Angeles,California,90001
15,Overcast,2016-06-15 18:47:00,55.0,,-,57,N/A,29.98,71.1,11:47 AM,,10.0,Variable,4.6,0,Los Angeles,California,90001
16,Overcast,2016-06-15 19:47:00,55.9,,-,61,N/A,29.99,70.0,12:47 PM,,10.0,Calm,Calm,0,Los Angeles,California,90001
17,Mostly Cloudy,2016-06-15 20:47:00,55.9,,-,59,N/A,29.99,71.1,1:47 PM,,10.0,Variable,4.6,0,Los Angeles,California,90001
18,Mostly Cloudy,2016-06-15 21:02:00,55.9,,-,59,N/A,29.99,71.1,2:02 PM,,10.0,West,8.1,260,Los Angeles,California,90001
19,Mostly Cloudy,2016-06-15 21:10:00,55.9,,16.1,61,N/A,29.99,70.0,2:10 PM,,10.0,Variable,6.9,0,Los Angeles,California,90001
20,Mostly Cloudy,2016-06-15 21:47:00,55.9,,-,61,N/A,29.98,70.0,2:47 PM,,10.0,Calm,Calm,0,Los Angeles,California,90001
21,Partly Cloudy,2016-06-15 22:47:00,57.0,,-,61,N/A,29.97,71.1,3:47 PM,,10.0,West,5.8,270,Los Angeles,California,90001
22,Clear,2016-06-15 23:47:00,55.9,,-,61,N/A,29.97,70.0,4:47 PM,,10.0,Variable,3.5,0,Los Angeles,California,90001
23,Clear,2016-06-16 00:47:00,54.0,,-,58,N/A,29.96,69.1,5:47 PM,,10.0,West,5.8,260,Los Angeles,California,90001
24,Clear,2016-06-16 01:47:00,52.0,,-,56,N/A,29.98,68.0,6:47 PM,,10.0,West,5.8,270,Los Angeles,California,90001
25,Clear,2016-06-16 02:47:00,50.0,,-,56,N/A,29.98,66.0,7:47 PM,,10.0,Variable,3.5,0,Los Angeles,California,90001
26,Clear,2016-06-16 03:47:00,51.1,,-,63,N/A,29.98,64.0,8:47 PM,,10.0,Calm,Calm,0,Los Angeles,California,90001
27,Clear,2016-06-16 04:47:00,53.1,,-,70,N/A,29.99,63.0,9:47 PM,,10.0,Calm,Calm,0,Los Angeles,California,90001
28,Clear,2016-06-16 05:47:00,53.1,,-,70,N/A,29.99,63.0,10:47 PM,,10.0,Calm,Calm,0,Los Angeles,California,90001
29,Clear,2016-06-16 06:47:00,53.1,,-,70,N/A,29.99,63.0,11:47 PM,,10.0,Calm,Calm,0,Los Angeles,California,90001
0,Clear,2016-06-16 07:47:00,53.1,,-,72,N/A,29.98,62.1,12:47 AM,,10.0,Calm,Calm,0,Los Angeles,California,90001
1,Clear,2016-06-16 08:47:00,53.1,,-,72,N/A,29.96,62.1,1:47 AM,,10.0,Calm,Calm,0,Los Angeles,California,90001
2,Clear,2016-06-16 09:47:00,54.0,,-,78,N/A,29.96,61.0,2:47 AM,,10.0,Calm,Calm,0,Los Angeles,California,90001
3,Clear,2016-06-16 10:47:00,54.0,,-,80,N/A,29.96,60.1,3:47 AM,,10.0,Calm,Calm,0,Los Angeles,California,90001
4,Clear,2016-06-16 11:47:00,53.1,,-,81,N/A,29.96,59.0,4:47 AM,,10.0,Calm,Calm,0,Los Angeles,California,90001
5,Clear,2016-06-16 12:47:00,53.1,,-,78,N/A,29.98,60.1,5:47 AM,,10.0,East,3.5,100,Los Angeles,California,90001
6,Clear,2016-06-16 13:47:00,53.1,,-,72,N/A,29.99,62.1,6:47 AM,,10.0,East,4.6,90,Los Angeles,California,90001
7,Clear,2016-06-16 14:47:00,51.1,,-,63,N/A,30.01,64.0,7:47 AM,,10.0,East,4.6,100,Los Angeles,California,90001
8,Clear,2016-06-16 15:47:00,52.0,,-,56,N/A,30.02,68.0,8:47 AM,,10.0,Calm,Calm,0,Los Angeles,California,90001
9,Clear,2016-06-16 16:47:00,52.0,,-,53,N/A,30.02,70.0,9:47 AM,,10.0,Calm,Calm,0,Los Angeles,California,90001
10,Clear,2016-06-16 17:47:00,52.0,,-,51,N/A,30.03,71.1,10:47 AM,,10.0,Calm,Calm,0,Los Angeles,California,90001
11,Clear,2016-06-16 18:47:00,54.0,,-,48,N/A,30.02,75.0,11:47 AM,,10.0,Variable,4.6,0,Los Angeles,California,90001
12,Clear,2016-06-16 19:47:00,54.0,,-,50,N/A,30.02,73.9,12:47 PM,,10.0,West,4.6,280,Los Angeles,California,90001
13,Clear,2016-06-16 20:47:00,54.0,,-,48,N/A,30.02,75.0,1:47 PM,,10.0,North,-9999.0,0,Los Angeles,California,90001
14,Clear,2016-06-16 21:47:00,52.0,,-,48,N/A,30.01,73.0,2:47 PM,,10.0,Variable,4.6,0,Los Angeles,California,90001
15,Clear,2016-06-16 22:47:00,50.0,,-,43,N/A,30.00,73.9,3:47 PM,,10.0,Variable,6.9,0,Los Angeles,California,90001
16,Clear,2016-06-16 23:47:00,48.9,,-,41,N/A,29.98,73.9,4:47 PM,,10.0,West,4.6,260,Los Angeles,California,90001
17,Clear,2016-06-17 00:47:00,50.0,,-,44,N/A,29.97,73.0,5:47 PM,,10.0,West,9.2,280,Los Angeles,California,90001
18,Clear,2016-06-17 01:47:00,51.1,,-,49,N/A,29.98,71.1,6:47 PM,,10.0,Variable,4.6,0,Los Angeles,California,90001
19,Clear,2016-06-17 02:47:00,48.9,,-,50,N/A,29.98,68.0,7:47 PM,,10.0,Variable,4.6,0,Los Angeles,California,90001
20,Clear,2016-06-17 03:47:00,51.1,,-,57,N/A,29.98,66.9,8:47 PM,,10.0,Calm,Calm,0,Los Angeles,California,90001
21,Clear,2016-06-17 04:47:00,54.0,,-,68,N/A,29.99,64.9,9:47 PM,,10.0,Calm,Calm,0,Los Angeles,California,90001
22,Clear,2016-06-17 05:47:00,55.0,,-,75,N/A,29.99,63.0,10:47 PM,,10.0,Calm,Calm,0,Los Angeles,California,90001
23,Clear,2016-06-17 06:47:00,55.0,,-,73,N/A,29.99,64.0,11:47 PM,,10.0,Calm,Calm,0,Los Angeles,California,90001
0,Clear,2016-06-17 07:47:00,55.0,,-,73,N/A,29.99,64.0,12:47 AM,,10.0,Calm,Calm,0,Los Angeles,California,90001
1,Clear,2016-06-17 08:47:00,55.0,,-,75,N/A,29.97,63.0,1:47 AM,,10.0,Calm,Calm,0,Los Angeles,California,90001
2,Clear,2016-06-17 09:47:00,55.0,,-,75,N/A,29.98,63.0,2:47 AM,,10.0,Calm,Calm,0,Los Angeles,California,90001
3,Clear,2016-06-17 10:47:00,54.0,,-,75,N/A,29.98,62.1,3:47 AM,,10.0,Calm,Calm,0,Los Angeles,California,90001
4,Clear,2016-06-17 11:47:00,55.0,,-,81,N/A,29.99,61.0,4:47 AM,,10.0,Calm,Calm,0,Los Angeles,California,90001
5,Clear,2016-06-17 12:47:00,54.0,,-,78,N/A,30.01,61.0,5:47 AM,,10.0,Calm,Calm,0,Los Angeles,California,90001
6,Clear,2016-06-17 13:47:00,55.9,,-,78,N/A,30.02,63.0,6:47 AM,,10.0,Calm,Calm,0,Los Angeles,California,90001
7,Clear,2016-06-17 14:47:00,53.1,,-,59,N/A,30.03,68.0,7:47 AM,,8.0,Calm,Calm,0,Los Angeles,California,90001
8,Clear,2016-06-17 15:47:00,51.1,,-,46,N/A,30.02,73.0,8:47 AM,,8.0,Calm,Calm,0,Los Angeles,California,90001
9,Clear,2016-06-17 16:47:00,50.0,,-,39,N/A,30.02,77.0,9:47 AM,,8.0,Calm,Calm,0,Los Angeles,California,90001
10,Mostly Cloudy,2016-06-17 17:47:00,48.9,,-,33,N/A,30.01,81.0,10:47 AM,,9.0,West,3.5,260,Los Angeles,California,90001
11,Overcast,2016-06-17 18:47:00,48.9,,-,31,N/A,30.02,82.9,11:47 AM,,7.0,Calm,Calm,0,Los Angeles,California,90001
12,Haze,2016-06-17 19:47:00,52.0,,-,34,N/A,30.01,82.9,12:47 PM,,5.0,Calm,Calm,0,Los Angeles,California,90001
13,Haze,2016-06-17 20:47:00,52.0,,-,35,N/A,30.00,82.0,1:47 PM,,6.0,Variable,3.5,0,Los Angeles,California,90001
14,Haze,2016-06-17 21:47:00,48.9,,-,34,N/A,29.99,80.1,2:47 PM,,4.0,Variable,5.8,0,Los Angeles,California,90001
15,Clear,2016-06-17 22:47:00,48.9,,-,33,N/A,29.97,81.0,3:47 PM,,8.0,West,8.1,280,Los Angeles,California,90001
16,Clear,2016-06-17 23:47:00,51.1,,-,38,N/A,29.96,79.0,4:47 PM,,10.0,Variable,6.9,0,Los Angeles,California,90001
17,Clear,2016-06-18 00:47:00,50.0,,-,36,N/A,29.96,79.0,5:47 PM,,10.0,Variable,6.9,0,Los Angeles,California,90001
18,Clear,2016-06-18 01:47:00,51.1,,-,42,N/A,29.96,75.9,6:47 PM,,10.0,West,4.6,270,Los Angeles,California,90001
19,Clear,2016-06-18 02:47:00,52.0,,-,46,N/A,29.96,73.9,7:47 PM,,10.0,Calm,Calm,0,Los Angeles,California,90001
20,Clear,2016-06-18 03:47:00,54.0,,-,55,N/A,29.97,71.1,8:47 PM,,10.0,Calm,Calm,0,Los Angeles,California,90001
21,Clear,2016-06-18 04:47:00,55.9,,-,63,N/A,29.98,69.1,9:47 PM,,10.0,Calm,Calm,0,Los Angeles,California,90001
22,Clear,2016-06-18 05:47:00,57.9,,-,73,N/A,29.99,66.9,10:47 PM,,10.0,Calm,Calm,0,Los Angeles,California,90001
23,Clear,2016-06-18 06:47:00,59.0,,-,76,N/A,30.01,66.9,11:47 PM,,10.0,Calm,Calm,0,Los Angeles,California,90001
0,Clear,2016-06-18 07:47:00,59.0,,-,81,N/A,30.01,64.9,12:47 AM,,10.0,Calm,Calm,0,Los Angeles,California,90001
1,Clear,2016-06-18 08:47:00,57.9,,-,75,N/A,29.99,66.0,1:47 AM,,10.0,Calm,Calm,0,Los Angeles,California,90001
2,Clear,2016-06-18 09:47:00,57.9,,-,78,N/A,29.98,64.9,2:47 AM,,10.0,Calm,Calm,0,Los Angeles,California,90001
3,Clear,2016-06-18 10:47:00,57.9,,-,80,N/A,29.97,64.0,3:47 AM,,10.0,Calm,Calm,0,Los Angeles,California,90001
4,Clear,2016-06-18 11:47:00,57.9,,-,84,N/A,29.98,63.0,4:47 AM,,10.0,Calm,Calm,0,Los Angeles,California,90001
5,Clear,2016-06-18 12:47:00,57.0,,-,81,N/A,29.99,63.0,5:47 AM,,10.0,Calm,Calm,0,Los Angeles,California,90001
6,Clear,2016-06-18 13:47:00,57.9,,-,75,N/A,30.00,66.0,6:47 AM,,10.0,Calm,Calm,0,Los Angeles,California,90001
7,Clear,2016-06-18 14:47:00,57.0,,-,59,N/A,30.01,72.0,7:47 AM,,10.0,Calm,Calm,0,Los Angeles,California,90001
8,Clear,2016-06-18 15:47:00,55.0,,-,47,N/A,30.01,77.0,8:47 AM,,10.0,Calm,Calm,0,Los Angeles,California,90001
9,Clear,2016-06-18 16:47:00,54.0,,-,38,N/A,30.01,82.0,9:47 AM,,10.0,SSE,3.5,150,Los Angeles,California,90001
10,Clear,2016-06-18 17:47:00,53.1,,-,32,N/A,30.00,86.0,10:47 AM,,10.0,Calm,Calm,0,Los Angeles,California,90001
11,Clear,2016-06-18 18:47:00,55.9,,-,35,N/A,29.99,87.1,11:47 AM,,10.0,West,5.8,280,Los Angeles,California,90001
12,Clear,2016-06-18 19:47:00,52.0,,-,30,N/A,29.98,87.1,12:47 PM,,7.0,Variable,3.5,0,Los Angeles,California,90001
13,Haze,2016-06-18 20:47:00,53.1,,-,32,N/A,29.98,86.0,1:47 PM,,5.0,North,-9999.0,0,Los Angeles,California,90001
14,Haze,2016-06-18 21:47:00,52.0,,-,34,N/A,29.97,82.9,2:47 PM,,5.0,Variable,5.8,0,Los Angeles,California,90001
15,Clear,2016-06-18 22:47:00,52.0,,-,35,N/A,29.96,82.0,3:47 PM,,8.0,West,3.5,260,Los Angeles,California,90001
16,Clear,2016-06-18 23:47:00,53.1,,-,36,N/A,29.96,82.9,4:47 PM,,10.0,West,4.6,270,Los Angeles,California,90001
17,Clear,2016-06-19 00:47:00,48.9,,-,29,N/A,29.94,84.0,5:47 PM,,10.0,West,6.9,280,Los Angeles,California,90001
18,Clear,2016-06-19 01:47:00,52.0,,-,35,N/A,29.96,82.0,6:47 PM,,10.0,West,4.6,260,Los Angeles,California,90001
19,Clear,2016-06-19 02:47:00,52.0,,-,39,N/A,29.95,79.0,7:47 PM,,10.0,West,3.5,260,Los Angeles,California,90001
20,Clear,2016-06-19 03:47:00,54.0,,-,46,N/A,29.95,75.9,8:47 PM,,10.0,Calm,Calm,0,Los Angeles,California,90001
21,Clear,2016-06-19 04:47:00,55.9,,-,51,N/A,29.94,75.0,9:47 PM,,10.0,Calm,Calm,0,Los Angeles,California,90001
22,Clear,2016-06-19 05:47:00,55.9,,-,53,N/A,29.93,73.9,10:47 PM,,10.0,Calm,Calm,0,Los Angeles,California,90001
23,Clear,2016-06-19 06:47:00,55.9,,-,55,N/A,29.93,73.0,11:47 PM,,10.0,Calm,Calm,0,Los Angeles,California,90001
0,Clear,2016-06-19 07:47:00,55.0,,-,53,N/A,29.93,73.0,12:47 AM,,10.0,Calm,Calm,0,Los Angeles,California,90001
1,Clear,2016-06-19 08:47:00,55.0,,-,57,N/A,29.92,71.1,1:47 AM,,10.0,Calm,Calm,0,Los Angeles,California,90001
2,Clear,2016-06-19 09:47:00,55.9,,-,61,N/A,29.91,70.0,2:47 AM,,10.0,Calm,Calm,0,Los Angeles,California,90001
3,Clear,2016-06-19 10:47:00,55.9,,-,63,N/A,29.91,69.1,3:47 AM,,10.0,Calm,Calm,0,Los Angeles,California,90001
4,Clear,2016-06-19 11:47:00,55.9,,-,65,N/A,29.90,68.0,4:47 AM,,10.0,Calm,Calm,0,Los Angeles,California,90001
5,Clear,2016-06-19 12:47:00,55.9,,-,68,N/A,29.90,66.9,5:47 AM,,10.0,Calm,Calm,0,Los Angeles,California,90001
6,Clear,2016-06-19 13:47:00,57.0,,-,65,N/A,29.91,69.1,6:47 AM,,10.0,Calm,Calm,0,Los Angeles,California,90001
7,Clear,2016-06-19 14:47:00,54.0,,-,45,N/A,29.91,77.0,7:47 AM,,10.0,Calm,Calm,0,Los Angeles,California,90001
8,Clear,2016-06-19 15:47:00,54.0,,-,37,N/A,29.91,82.9,8:47 AM,,10.0,Calm,Calm,0,Los Angeles,California,90001
9,Clear,2016-06-19 16:47:00,48.9,,-,24,N/A,29.89,90.0,9:47 AM,,10.0,Calm,Calm,0,Los Angeles,California,90001
10,Clear,2016-06-19 17:47:00,48.9,,-,21,N/A,29.88,93.9,10:47 AM,,10.0,Variable,4.6,0,Los Angeles,California,90001
11,Clear,2016-06-19 18:47:00,48.0,,-,20,N/A,29.87,95.0,11:47 AM,,10.0,Calm,Calm,0,Los Angeles,California,90001
12,Clear,2016-06-19 19:47:00,46.0,,-,19,N/A,29.86,95.0,12:47 PM,,10.0,West,9.2,270,Los Angeles,California,90001
13,Clear,2016-06-19 20:47:00,44.1,,-,17,N/A,29.84,96.1,1:47 PM,,10.0,Variable,3.5,0,Los Angeles,California,90001
14,Clear,2016-06-19 21:47:00,44.1,,-,18,N/A,29.83,93.0,2:47 PM,,10.0,Variable,5.8,0,Los Angeles,California,90001
15,Clear,2016-06-19 22:47:00,42.1,,-,17,N/A,29.82,93.9,3:47 PM,,10.0,Variable,4.6,0,Los Angeles,California,90001
16,Clear,2016-06-19 23:47:00,39.9,,-,15,N/A,29.81,93.9,4:47 PM,,10.0,West,8.1,270,Los Angeles,California,90001
17,Clear,2016-06-20 00:47:00,39.9,,-,15,N/A,29.79,95.0,5:47 PM,,10.0,Variable,4.6,0,Los Angeles,California,90001
18,Clear,2016-06-20 01:47:00,48.0,,-,23,N/A,29.80,91.0,6:47 PM,,10.0,Calm,Calm,0,Los Angeles,California,90001
19,Clear,2016-06-20 02:47:00,50.0,,-,28,N/A,29.81,87.1,7:47 PM,,10.0,Calm,Calm,0,Los Angeles,California,90001
20,Clear,2016-06-20 03:47:00,53.1,,-,37,N/A,29.82,82.0,8:47 PM,,10.0,Calm,Calm,0,Los Angeles,California,90001
21,Clear,2016-06-20 04:47:00,54.0,,-,42,N/A,29.83,79.0,9:47 PM,,10.0,Calm,Calm,0,Los Angeles,California,90001
22,Clear,2016-06-20 05:47:00,55.0,,-,47,N/A,29.84,77.0,10:47 PM,,10.0,Calm,Calm,0,Los Angeles,California,90001
23,Clear,2016-06-20 06:47:00,55.0,,-,50,N/A,29.85,75.0,11:47 PM,,10.0,Calm,Calm,0,Los Angeles,California,90001
0,Clear,2016-06-20 07:47:00,55.9,,-,55,N/A,29.86,73.0,12:47 AM,,10.0,Calm,Calm,0,Los Angeles,California,90001
1,Clear,2016-06-20 08:47:00,55.9,,-,53,N/A,29.83,73.9,1:47 AM,,10.0,Calm,Calm,0,Los Angeles,California,90001
2,Clear,2016-06-20 09:47:00,53.1,,-,42,N/A,29.83,78.1,2:47 AM,,10.0,Calm,Calm,0,Los Angeles,California,90001
3,Clear,2016-06-20 10:47:00,57.0,,-,59,N/A,29.83,72.0,3:47 AM,,10.0,Calm,Calm,0,Los Angeles,California,90001
4,Clear,2016-06-20 11:47:00,57.0,,-,59,N/A,29.83,72.0,4:47 AM,,10.0,Calm,Calm,0,Los Angeles,California,90001
5,Clear,2016-06-20 12:47:00,55.9,,-,57,N/A,29.83,72.0,5:47 AM,,10.0,Calm,Calm,0,Los Angeles,California,90001
6,Clear,2016-06-20 13:47:00,57.9,,-,55,N/A,29.84,75.0,6:47 AM,,10.0,Calm,Calm,0,Los Angeles,California,90001
7,Clear,2016-06-20 14:47:00,55.9,,-,39,N/A,29.84,82.9,7:47 AM,,10.0,Calm,Calm,0,Los Angeles,California,90001
8,Clear,2016-06-20 15:47:00,42.1,,-,17,N/A,29.82,93.9,8:47 AM,,10.0,Calm,Calm,0,Los Angeles,California,90001
9,Clear,2016-06-20 16:47:00,46.9,,-,18,N/A,29.82,98.1,9:47 AM,,10.0,Calm,Calm,0,Los Angeles,California,90001
10,Clear,2016-06-20 17:47:00,55.0,,-,26,N/A,29.83,95.0,10:47 AM,,10.0,Variable,4.6,0,Los Angeles,California,90001
11,Clear,2016-06-20 18:47:00,48.9,,-,21,N/A,29.85,95.0,11:47 AM,,10.0,Variable,3.5,0,Los Angeles,California,90001
12,Clear,2016-06-20 19:47:00,48.0,,-,21,N/A,29.85,93.9,12:47 PM,,10.0,West,5.8,280,Los Angeles,California,90001
13,Clear,2016-06-20 20:47:00,43.0,,-,17,N/A,29.84,95.0,1:47 PM,,10.0,Variable,4.6,0,Los Angeles,California,90001
14,Clear,2016-06-20 21:47:00,43.0,,-,16,N/A,29.83,97.0,2:47 PM,,10.0,Variable,3.5,0,Los Angeles,California,90001
15,Clear,2016-06-20 22:47:00,42.1,,-,15,N/A,29.81,98.1,3:47 PM,,10.0,West,5.8,260,Los Angeles,California,90001
16,Clear,2016-06-20 23:47:00,37.9,,-,12,N/A,29.79,98.1,4:47 PM,,10.0,Variable,3.5,0,Los Angeles,California,90001
17,Clear,2016-06-21 00:47:00,43.0,,-,16,N/A,29.78,97.0,5:47 PM,,10.0,Calm,Calm,0,Los Angeles,California,90001
18,Clear,2016-06-21 01:47:00,50.0,,-,21,N/A,29.79,96.1,6:47 PM,,10.0,Calm,Calm,0,Los Angeles,California,90001
19,Clear,2016-06-21 02:47:00,53.1,,-,31,N/A,29.81,87.1,7:47 PM,,10.0,Calm,Calm,0,Los Angeles,California,90001
20,Clear,2016-06-21 03:47:00,54.0,,-,37,N/A,29.84,82.9,8:47 PM,,10.0,SE,4.6,140,Los Angeles,California,90001
21,Clear,2016-06-21 04:47:00,61.0,,-,60,N/A,29.87,75.9,9:47 PM,,10.0,Variable,4.6,0,Los Angeles,California,90001
22,Clear,2016-06-21 05:47:00,61.0,,-,62,N/A,29.89,75.0,10:47 PM,,10.0,Variable,5.8,0,Los Angeles,California,90001
23,Clear,2016-06-21 06:47:00,61.0,,-,66,N/A,29.90,73.0,11:47 PM,,10.0,Calm,Calm,0,Los Angeles,California,90001
0,Clear,2016-06-21 07:47:00,63.0,,-,73,N/A,29.88,72.0,12:47 AM,,10.0,Calm,Calm,0,Los Angeles,California,90001
1,Clear,2016-06-21 08:47:00,62.1,,-,71,N/A,29.86,72.0,1:47 AM,,10.0,Calm,Calm,0,Los Angeles,California,90001
2,Clear,2016-06-21 09:47:00,63.0,,-,73,N/A,29.86,72.0,2:47 AM,,10.0,Calm,Calm,0,Los Angeles,California,90001
3,Clear,2016-06-21 10:47:00,63.0,,-,78,N/A,29.88,70.0,3:47 AM,,10.0,East,4.6,90,Los Angeles,California,90001
4,Clear,2016-06-21 11:47:00,63.0,,-,75,N/A,29.88,71.1,4:47 AM,,10.0,Calm,Calm,0,Los Angeles,California,90001
5,Clear,2016-06-21 12:47:00,63.0,,-,78,N/A,29.88,70.0,5:47 AM,,9.0,Calm,Calm,0,Los Angeles,California,90001
6,Haze,2016-06-21 13:47:00,63.0,,-,73,N/A,29.91,72.0,6:47 AM,,4.0,Calm,Calm,0,Los Angeles,California,90001
7,Clear,2016-06-21 14:47:00,60.1,,-,60,N/A,29.94,75.0,7:47 AM,,10.0,Variable,4.6,0,Los Angeles,California,90001
8,Clear,2016-06-21 15:47:00,60.1,,-,56,N/A,29.95,77.0,8:47 AM,,10.0,Variable,5.8,0,Los Angeles,California,90001
9,Clear,2016-06-21 16:47:00,60.1,,-,50,N/A,29.96,80.1,9:47 AM,,10.0,Variable,5.8,0,Los Angeles,California,90001
10,Clear,2016-06-21 17:47:00,61.0,,-,47,N/A,29.95,82.9,10:47 AM,,10.0,Variable,4.6,0,Los Angeles,California,90001
11,Clear,2016-06-21 18:47:00,61.0,,-,40,N/A,29.94,88.0,11:47 AM,,10.0,Calm,Calm,0,Los Angeles,California,90001
12,Clear,2016-06-21 19:47:00,63.0,,-,49,N/A,29.94,84.0,12:47 PM,,10.0,Variable,3.5,0,Los Angeles,California,90001
13,Clear,2016-06-21 20:47:00,62.1,,-,47,N/A,29.94,84.0,1:47 PM,,10.0,SSE,6.9,150,Los Angeles,California,90001
14,Clear,2016-06-21 21:47:00,61.0,,-,47,N/A,29.94,82.9,2:47 PM,,10.0,Variable,5.8,0,Los Angeles,California,90001
15,Clear,2016-06-21 22:47:00,60.1,,-,47,N/A,29.93,82.0,3:47 PM,,10.0,Variable,5.8,0,Los Angeles,California,90001
16,Clear,2016-06-21 23:47:00,59.0,,-,43,N/A,29.91,84.0,4:47 PM,,10.0,Variable,4.6,0,Los Angeles,California,90001
17,Clear,2016-06-22 00:47:00,63.0,,-,60,N/A,29.91,78.1,5:47 PM,,10.0,Variable,3.5,0,Los Angeles,California,90001
18,Clear,2016-06-22 01:47:00,63.0,,-,64,N/A,29.93,75.9,6:47 PM,,10.0,West,5.8,280,Los Angeles,California,90001
19,Clear,2016-06-22 02:47:00,63.0,,-,71,N/A,29.93,73.0,7:47 PM,,10.0,West,4.6,270,Los Angeles,California,90001
20,Clear,2016-06-22 03:47:00,63.0,,-,73,N/A,29.94,72.0,8:47 PM,,10.0,Calm,Calm,0,Los Angeles,California,90001
21,Clear,2016-06-22 04:47:00,63.0,,-,75,N/A,29.95,71.1,9:47 PM,,10.0,Calm,Calm,0,Los Angeles,California,90001
22,Clear,2016-06-22 05:47:00,63.0,,-,78,N/A,29.94,70.0,10:47 PM,,10.0,Calm,Calm,0,Los Angeles,California,90001
23,Clear,2016-06-22 06:47:00,63.0,,-,81,N/A,29.92,69.1,11:47 PM,,9.0,Calm,Calm,0,Los Angeles,California,90001
0,Clear,2016-06-22 07:47:00,63.0,,-,84,N/A,29.92,68.0,12:47 AM,,8.0,Calm,Calm,0,Los Angeles,California,90001
1,Clear,2016-06-22 08:47:00,63.0,,-,90,N/A,29.91,66.0,1:47 AM,,6.0,Calm,Calm,0,Los Angeles,California,90001
2,Clear,2016-06-22 09:47:00,63.0,,-,93,N/A,29.91,64.9,2:47 AM,,4.0,Calm,Calm,0,Los Angeles,California,90001
3,Partly Cloudy,2016-06-22 09:54:00,63.0,,-,93,N/A,29.91,64.9,2:54 AM,,4.0,Calm,Calm,0,Los Angeles,California,90001
4,Mostly Cloudy,2016-06-22 10:05:00,63.0,,-,93,N/A,29.91,64.9,3:05 AM,,5.0,Calm,Calm,0,Los Angeles,California,90001
5,Overcast,2016-06-22 10:47:00,63.0,,-,96,N/A,29.91,64.0,3:47 AM,,3.0,Calm,Calm,0,Los Angeles,California,90001
6,Overcast,2016-06-22 11:47:00,63.0,,-,93,N/A,29.91,64.9,4:47 AM,,5.0,Calm,Calm,0,Los Angeles,California,90001
7,Overcast,2016-06-22 12:47:00,63.0,,-,93,N/A,29.92,64.9,5:47 AM,,5.0,Calm,Calm,0,Los Angeles,California,90001
8,Overcast,2016-06-22 13:02:00,63.0,,-,93,N/A,29.93,64.9,6:02 AM,,4.0,Calm,Calm,0,Los Angeles,California,90001
9,Overcast,2016-06-22 13:47:00,62.1,,-,90,N/A,29.93,64.9,6:47 AM,,3.0,Calm,Calm,0,Los Angeles,California,90001
10,Haze,2016-06-22 14:47:00,62.1,,-,84,N/A,29.94,66.9,7:47 AM,,4.0,Calm,Calm,0,Los Angeles,California,90001
11,Haze,2016-06-22 15:15:00,63.0,,-,78,N/A,29.96,70.0,8:15 AM,,5.0,Calm,Calm,0,Los Angeles,California,90001
12,Haze,2016-06-22 15:24:00,63.0,,-,75,N/A,29.95,71.1,8:24 AM,,5.0,Calm,Calm,0,Los Angeles,California,90001
13,Haze,2016-06-22 15:47:00,63.0,,-,71,N/A,29.95,73.0,8:47 AM,,4.0,Calm,Calm,0,Los Angeles,California,90001
14,Haze,2016-06-22 16:47:00,61.0,,-,62,N/A,29.94,75.0,9:47 AM,,5.0,Calm,Calm,0,Los Angeles,California,90001
15,Clear,2016-06-22 17:47:00,60.1,,-,50,N/A,29.93,80.1,10:47 AM,,9.0,Calm,Calm,0,Los Angeles,California,90001
16,Clear,2016-06-22 18:47:00,61.0,,-,47,N/A,29.92,82.9,11:47 AM,,9.0,Variable,3.5,0,Los Angeles,California,90001
17,Clear,2016-06-22 19:47:00,62.1,,-,52,N/A,29.92,81.0,12:47 PM,,8.0,Variable,3.5,0,Los Angeles,California,90001
18,Clear,2016-06-22 20:47:00,61.0,,-,52,N/A,29.92,80.1,1:47 PM,,10.0,Variable,3.5,0,Los Angeles,California,90001
19,Clear,2016-06-22 21:47:00,60.1,,-,47,N/A,29.91,82.0,2:47 PM,,10.0,Variable,5.8,0,Los Angeles,California,90001
20,Clear,2016-06-22 22:47:00,60.1,,-,50,N/A,29.90,80.1,3:47 PM,,10.0,Variable,3.5,0,Los Angeles,California,90001
21,Clear,2016-06-22 23:47:00,61.0,,-,58,N/A,29.90,77.0,4:47 PM,,10.0,Variable,3.5,0,Los Angeles,California,90001
22,Clear,2016-06-23 00:47:00,61.0,,-,60,N/A,29.90,75.9,5:47 PM,,10.0,West,5.8,280,Los Angeles,California,90001
23,Clear,2016-06-23 01:47:00,61.0,,-,68,N/A,29.91,72.0,6:47 PM,,10.0,Variable,4.6,0,Los Angeles,California,90001
24,Clear,2016-06-23 02:47:00,61.0,,-,78,N/A,29.91,68.0,7:47 PM,,10.0,Variable,3.5,0,Los Angeles,California,90001
25,Partly Cloudy,2016-06-23 03:43:00,60.1,,-,81,N/A,29.93,66.0,8:43 PM,,10.0,Calm,Calm,0,Los Angeles,California,90001
26,Partly Cloudy,2016-06-23 03:47:00,60.1,,-,81,N/A,29.92,66.0,8:47 PM,,10.0,Calm,Calm,0,Los Angeles,California,90001
27,Mostly Cloudy,2016-06-23 03:58:00,60.1,,-,84,N/A,29.93,64.9,8:58 PM,,10.0,West,3.5,280,Los Angeles,California,90001
28,Overcast,2016-06-23 04:47:00,60.1,,-,87,N/A,29.93,64.0,9:47 PM,,9.0,Variable,3.5,0,Los Angeles,California,90001
29,Scattered Clouds,2016-06-23 05:47:00,59.0,,-,84,N/A,29.94,64.0,10:47 PM,,10.0,Calm,Calm,0,Los Angeles,California,90001
30,Mostly Cloudy,2016-06-23 06:23:00,60.1,,-,90,N/A,29.95,63.0,11:23 PM,,8.0,Calm,Calm,0,Los Angeles,California,90001
31,Overcast,2016-06-23 06:47:00,60.1,,-,87,N/A,29.94,64.0,11:47 PM,,7.0,Calm,Calm,0,Los Angeles,California,90001
0,Overcast,2016-06-23 07:47:00,60.1,,-,84,N/A,29.94,64.9,12:47 AM,,7.0,Calm,Calm,0,Los Angeles,California,90001
1,Haze,2016-06-23 08:27:00,61.0,,-,84,N/A,29.94,66.0,1:27 AM,,6.0,Calm,Calm,0,Los Angeles,California,90001
2,Haze,2016-06-23 08:47:00,61.0,,-,84,N/A,29.94,66.0,1:47 AM,,6.0,Variable,3.5,0,Los Angeles,California,90001
3,Haze,2016-06-23 09:47:00,61.0,,-,84,N/A,29.93,66.0,2:47 AM,,6.0,Calm,Calm,0,Los Angeles,California,90001
4,Overcast,2016-06-23 10:47:00,61.0,,-,81,N/A,29.93,66.9,3:47 AM,,7.0,Calm,Calm,0,Los Angeles,California,90001
5,Overcast,2016-06-23 11:47:00,61.0,,-,84,N/A,29.92,66.0,4:47 AM,,7.0,Calm,Calm,0,Los Angeles,California,90001
6,Overcast,2016-06-23 12:47:00,61.0,,-,81,N/A,29.94,66.9,5:47 AM,,8.0,Calm,Calm,0,Los Angeles,California,90001
7,Haze,2016-06-23 13:47:00,61.0,,-,81,N/A,29.95,66.9,6:47 AM,,6.0,Calm,Calm,0,Los Angeles,California,90001
8,Overcast,2016-06-23 14:08:00,61.0,,-,78,N/A,29.95,68.0,7:08 AM,,7.0,Calm,Calm,0,Los Angeles,California,90001
9,Haze,2016-06-23 14:47:00,61.0,,-,75,N/A,29.96,69.1,7:47 AM,,6.0,Calm,Calm,0,Los Angeles,California,90001
10,Scattered Clouds,2016-06-23 15:26:00,60.1,,-,68,N/A,29.96,71.1,8:26 AM,,8.0,Calm,Calm,0,Los Angeles,California,90001
11,Clear,2016-06-23 15:47:00,61.0,,-,66,N/A,29.96,73.0,8:47 AM,,9.0,Calm,Calm,0,Los Angeles,California,90001
12,Clear,2016-06-23 16:47:00,61.0,,-,62,N/A,29.95,75.0,9:47 AM,,10.0,Variable,3.5,0,Los Angeles,California,90001
13,Clear,2016-06-23 17:47:00,61.0,,-,54,N/A,29.95,79.0,10:47 AM,,10.0,Calm,Calm,0,Los Angeles,California,90001
14,Clear,2016-06-23 18:47:00,61.0,,-,58,N/A,29.96,77.0,11:47 AM,,10.0,Calm,Calm,0,Los Angeles,California,90001
15,Clear,2016-06-23 19:47:00,61.0,,-,54,N/A,29.94,79.0,12:47 PM,,10.0,Variable,3.5,0,Los Angeles,California,90001
16,Clear,2016-06-23 20:47:00,61.0,,-,58,N/A,29.94,77.0,1:47 PM,,10.0,Variable,4.6,0,Los Angeles,California,90001
17,Clear,2016-06-23 21:47:00,61.0,,-,58,N/A,29.92,77.0,2:47 PM,,10.0,Variable,5.8,0,Los Angeles,California,90001
18,Clear,2016-06-23 22:47:00,61.0,,-,58,N/A,29.91,77.0,3:47 PM,,10.0,Variable,3.5,0,Los Angeles,California,90001
19,Clear,2016-06-23 23:47:00,61.0,,-,62,N/A,29.90,75.0,4:47 PM,,10.0,West,4.6,270,Los Angeles,California,90001
20,Clear,2016-06-24 00:47:00,61.0,,-,64,N/A,29.89,73.9,5:47 PM,,10.0,WSW,6.9,250,Los Angeles,California,90001
21,Clear,2016-06-24 01:47:00,61.0,,-,70,N/A,29.90,71.1,6:47 PM,,10.0,WSW,4.6,250,Los Angeles,California,90001
22,Clear,2016-06-24 02:47:00,60.1,,-,73,N/A,29.90,69.1,7:47 PM,,9.0,Variable,3.5,0,Los Angeles,California,90001
23,Clear,2016-06-24 03:47:00,60.1,,-,81,N/A,29.91,66.0,8:47 PM,,9.0,Calm,Calm,0,Los Angeles,California,90001
24,Clear,2016-06-24 04:47:00,60.1,,-,81,N/A,29.92,66.0,9:47 PM,,9.0,Calm,Calm,0,Los Angeles,California,90001
25,Clear,2016-06-24 05:47:00,60.1,,-,84,N/A,29.93,64.9,10:47 PM,,8.0,West,3.5,270,Los Angeles,California,90001
26,Clear,2016-06-24 06:47:00,60.1,,-,84,N/A,29.94,64.9,11:47 PM,,8.0,West,3.5,270,Los Angeles,California,90001
0,Clear,2016-06-24 07:47:00,61.0,,-,90,N/A,29.93,64.0,12:47 AM,,6.0,Calm,Calm,0,Los Angeles,California,90001
1,Clear,2016-06-24 08:47:00,60.1,,-,87,N/A,29.94,64.0,1:47 AM,,6.0,Calm,Calm,0,Los Angeles,California,90001
2,Mostly Cloudy,2016-06-24 09:12:00,61.0,,-,90,N/A,29.94,64.0,2:12 AM,,5.0,Calm,Calm,0,Los Angeles,California,90001
3,Overcast,2016-06-24 09:47:00,61.0,,-,87,N/A,29.93,64.9,2:47 AM,,6.0,Calm,Calm,0,Los Angeles,California,90001
4,Overcast,2016-06-24 10:33:00,61.0,,-,87,N/A,29.93,64.9,3:33 AM,,5.0,Calm,Calm,0,Los Angeles,California,90001
5,Haze,2016-06-24 10:47:00,60.1,,-,84,N/A,29.92,64.9,3:47 AM,,5.0,Calm,Calm,0,Los Angeles,California,90001
6,Haze,2016-06-24 11:05:00,60.1,,-,84,N/A,29.93,64.9,4:05 AM,,5.0,Calm,Calm,0,Los Angeles,California,90001
7,Overcast,2016-06-24 11:43:00,61.0,,-,87,N/A,29.92,64.9,4:43 AM,,5.0,Calm,Calm,0,Los Angeles,California,90001
8,Haze,2016-06-24 11:47:00,60.1,,-,84,N/A,29.92,64.9,4:47 AM,,5.0,Calm,Calm,0,Los Angeles,California,90001
9,Overcast,2016-06-24 12:47:00,61.0,,-,87,N/A,29.93,64.9,5:47 AM,,5.0,Calm,Calm,0,Los Angeles,California,90001
10,Haze,2016-06-24 13:47:00,61.0,,-,84,N/A,29.93,66.0,6:47 AM,,4.0,Calm,Calm,0,Los Angeles,California,90001
11,Haze,2016-06-24 13:53:00,61.0,,-,84,N/A,29.93,66.0,6:53 AM,,4.0,Calm,Calm,0,Los Angeles,California,90001
12,Haze,2016-06-24 14:47:00,61.0,,-,84,N/A,29.94,66.0,7:47 AM,,4.0,Variable,3.5,0,Los Angeles,California,90001
13,Haze,2016-06-24 15:47:00,61.0,,-,81,N/A,29.95,66.9,8:47 AM,,4.0,Calm,Calm,0,Los Angeles,California,90001
14,Haze,2016-06-24 16:47:00,61.0,,-,75,N/A,29.95,69.1,9:47 AM,,4.0,WNW,3.5,290,Los Angeles,California,90001
15,Haze,2016-06-24 17:47:00,62.1,,-,71,N/A,29.94,72.0,10:47 AM,,4.0,WSW,4.6,250,Los Angeles,California,90001
16,Haze,2016-06-24 18:13:00,62.1,,-,71,N/A,29.94,72.0,11:13 AM,,4.0,Variable,4.6,0,Los Angeles,California,90001
17,Haze,2016-06-24 18:47:00,62.1,,-,64,N/A,29.93,75.0,11:47 AM,,4.0,Calm,Calm,0,Los Angeles,California,90001
18,Clear,2016-06-24 19:47:00,61.0,,-,56,N/A,29.92,78.1,12:47 PM,,7.0,WNW,3.5,300,Los Angeles,California,90001
19,Clear,2016-06-24 20:47:00,61.0,,-,58,N/A,29.91,77.0,1:47 PM,,10.0,Variable,4.6,0,Los Angeles,California,90001
20,Clear,2016-06-24 21:47:00,61.0,,-,58,N/A,29.89,77.0,2:47 PM,,10.0,Variable,4.6,0,Los Angeles,California,90001
21,Clear,2016-06-24 22:47:00,61.0,,-,64,N/A,29.88,73.9,3:47 PM,,10.0,West,9.2,270,Los Angeles,California,90001
22,Clear,2016-06-24 23:47:00,61.0,,-,66,N/A,29.88,73.0,4:47 PM,,10.0,Variable,4.6,0,Los Angeles,California,90001
23,Clear,2016-06-25 00:47:00,60.1,,-,62,N/A,29.86,73.9,5:47 PM,,10.0,Variable,4.6,0,Los Angeles,California,90001
24,Clear,2016-06-25 01:47:00,60.1,,-,66,N/A,29.86,72.0,6:47 PM,,10.0,West,5.8,270,Los Angeles,California,90001
25,Clear,2016-06-25 02:47:00,60.1,,-,71,N/A,29.86,70.0,7:47 PM,,10.0,Calm,Calm,0,Los Angeles,California,90001
26,Clear,2016-06-25 03:47:00,59.0,,-,73,N/A,29.87,68.0,8:47 PM,,10.0,Calm,Calm,0,Los Angeles,California,90001
27,Clear,2016-06-25 04:47:00,60.1,,-,76,N/A,29.88,68.0,9:47 PM,,10.0,Calm,Calm,0,Los Angeles,California,90001
28,Mostly Cloudy,2016-06-25 05:19:00,60.1,,-,79,N/A,29.89,66.9,10:19 PM,,10.0,Calm,Calm,0,Los Angeles,California,90001
29,Mostly Cloudy,2016-06-25 05:47:00,60.1,,-,79,N/A,29.88,66.9,10:47 PM,,10.0,West,3.5,270,Los Angeles,California,90001
30,Scattered Clouds,2016-06-25 05:58:00,60.1,,-,79,N/A,29.89,66.9,10:58 PM,,10.0,Calm,Calm,0,Los Angeles,California,90001
31,Mostly Cloudy,2016-06-25 06:05:00,60.1,,-,81,N/A,29.89,66.0,11:05 PM,,10.0,Calm,Calm,0,Los Angeles,California,90001
32,Overcast,2016-06-25 06:47:00,60.1,,-,81,N/A,29.88,66.0,11:47 PM,,10.0,Calm,Calm,0,Los Angeles,California,90001
0,Overcast,2016-06-25 07:47:00,60.1,,-,79,N/A,29.87,66.9,12:47 AM,,9.0,Calm,Calm,0,Los Angeles,California,90001
1,Overcast,2016-06-25 08:47:00,60.1,,-,81,N/A,29.86,66.0,1:47 AM,,8.0,Calm,Calm,0,Los Angeles,California,90001
2,Overcast,2016-06-25 09:47:00,60.1,,-,81,N/A,29.86,66.0,2:47 AM,,8.0,West,3.5,270,Los Angeles,California,90001
3,Overcast,2016-06-25 10:47:00,59.0,,-,81,N/A,29.86,64.9,3:47 AM,,7.0,Calm,Calm,0,Los Angeles,California,90001
4,Overcast,2016-06-25 11:47:00,59.0,,-,78,N/A,29.85,66.0,4:47 AM,,7.0,Calm,Calm,0,Los Angeles,California,90001
5,Overcast,2016-06-25 12:47:00,59.0,,-,78,N/A,29.85,66.0,5:47 AM,,8.0,Calm,Calm,0,Los Angeles,California,90001
6,Haze,2016-06-25 13:12:00,59.0,,-,76,N/A,29.86,66.9,6:12 AM,,6.0,Calm,Calm,0,Los Angeles,California,90001
7,Haze,2016-06-25 13:47:00,59.0,,-,78,N/A,29.86,66.0,6:47 AM,,6.0,Calm,Calm,0,Los Angeles,California,90001
8,Haze,2016-06-25 14:47:00,59.0,,-,76,N/A,29.86,66.9,7:47 AM,,5.0,Calm,Calm,0,Los Angeles,California,90001
9,Haze,2016-06-25 15:24:00,60.1,,-,71,N/A,29.87,70.0,8:24 AM,,5.0,Calm,Calm,0,Los Angeles,California,90001
10,Haze,2016-06-25 15:47:00,60.1,,-,71,N/A,29.87,70.0,8:47 AM,,5.0,Calm,Calm,0,Los Angeles,California,90001
11,Clear,2016-06-25 16:47:00,60.1,,-,62,N/A,29.86,73.9,9:47 AM,,7.0,Calm,Calm,0,Los Angeles,California,90001
12,Clear,2016-06-25 17:47:00,61.0,,-,56,N/A,29.86,78.1,10:47 AM,,8.0,Calm,Calm,0,Los Angeles,California,90001
13,Clear,2016-06-25 18:47:00,61.0,,-,54,N/A,29.85,79.0,11:47 AM,,7.0,Variable,4.6,0,Los Angeles,California,90001
14,Clear,2016-06-25 19:47:00,61.0,,-,54,N/A,29.84,79.0,12:47 PM,,7.0,Variable,3.5,0,Los Angeles,California,90001
15,Clear,2016-06-25 20:47:00,61.0,,-,58,N/A,29.84,77.0,1:47 PM,,7.0,Variable,4.6,0,Los Angeles,California,90001
16,Clear,2016-06-25 21:47:00,61.0,,-,56,N/A,29.83,78.1,2:47 PM,,9.0,Variable,3.5,0,Los Angeles,California,90001
17,Clear,2016-06-25 22:47:00,61.0,,-,58,N/A,29.82,77.0,3:47 PM,,10.0,North,-9999.0,0,Los Angeles,California,90001
18,Clear,2016-06-25 23:47:00,61.0,,-,60,N/A,29.81,75.9,4:47 PM,,10.0,Variable,3.5,0,Los Angeles,California,90001
19,Clear,2016-06-26 00:47:00,61.0,,-,60,N/A,29.81,75.9,5:47 PM,,10.0,Variable,3.5,0,Los Angeles,California,90001
20,Clear,2016-06-26 01:47:00,61.0,,-,64,N/A,29.82,73.9,6:47 PM,,10.0,West,5.8,270,Los Angeles,California,90001
21,Clear,2016-06-26 02:47:00,61.0,,-,70,N/A,29.82,71.1,7:47 PM,,10.0,West,3.5,260,Los Angeles,California,90001
22,Clear,2016-06-26 03:47:00,61.0,,-,73,N/A,29.83,70.0,8:47 PM,,10.0,Variable,3.5,0,Los Angeles,California,90001
23,Clear,2016-06-26 04:47:00,61.0,,-,78,N/A,29.85,68.0,9:47 PM,,10.0,Calm,Calm,0,Los Angeles,California,90001
24,Clear,2016-06-26 05:47:00,61.0,,-,78,N/A,29.86,68.0,10:47 PM,,9.0,Calm,Calm,0,Los Angeles,California,90001
25,Clear,2016-06-26 06:47:00,61.0,,-,78,N/A,29.87,68.0,11:47 PM,,9.0,Calm,Calm,0,Los Angeles,California,90001
0,Clear,2016-06-26 07:47:00,61.0,,-,81,N/A,29.86,66.9,12:47 AM,,9.0,Calm,Calm,0,Los Angeles,California,90001
1,Clear,2016-06-26 08:47:00,61.0,,-,81,N/A,29.86,66.9,1:47 AM,,9.0,Calm,Calm,0,Los Angeles,California,90001
2,Clear,2016-06-26 09:47:00,61.0,,-,84,N/A,29.85,66.0,2:47 AM,,7.0,Calm,Calm,0,Los Angeles,California,90001
3,Clear,2016-06-26 10:47:00,61.0,,-,84,N/A,29.85,66.0,3:47 AM,,7.0,Calm,Calm,0,Los Angeles,California,90001
4,Clear,2016-06-26 11:47:00,61.0,,-,87,N/A,29.83,64.9,4:47 AM,,8.0,Calm,Calm,0,Los Angeles,California,90001
5,Clear,2016-06-26 12:47:00,61.0,,-,87,N/A,29.85,64.9,5:47 AM,,7.0,Calm,Calm,0,Los Angeles,California,90001
6,Haze,2016-06-26 13:47:00,61.0,,-,81,N/A,29.87,66.9,6:47 AM,,6.0,West,3.5,270,Los Angeles,California,90001
7,Haze,2016-06-26 14:47:00,62.1,,-,76,N/A,29.87,70.0,7:47 AM,,6.0,Calm,Calm,0,Los Angeles,California,90001
8,Clear,2016-06-26 15:47:00,63.0,,-,66,N/A,29.87,75.0,8:47 AM,,7.0,Calm,Calm,0,Los Angeles,California,90001
9,Clear,2016-06-26 16:47:00,62.1,,-,58,N/A,29.87,78.1,9:47 AM,,7.0,Variable,4.6,0,Los Angeles,California,90001
10,Clear,2016-06-26 17:47:00,64.0,,-,60,N/A,29.88,79.0,10:47 AM,,9.0,Variable,3.5,0,Los Angeles,California,90001
11,Clear,2016-06-26 18:47:00,64.9,,-,56,N/A,29.88,82.0,11:47 AM,,7.0,Calm,Calm,0,Los Angeles,California,90001
12,Clear,2016-06-26 19:47:00,64.0,,-,58,N/A,29.88,80.1,12:47 PM,,7.0,Variable,3.5,0,Los Angeles,California,90001
13,Clear,2016-06-26 20:47:00,63.0,,-,56,N/A,29.87,80.1,1:47 PM,,7.0,Variable,4.6,0,Los Angeles,California,90001
14,Clear,2016-06-26 21:47:00,63.0,,-,58,N/A,29.87,79.0,2:47 PM,,9.0,Variable,3.5,0,Los Angeles,California,90001
15,Clear,2016-06-26 22:47:00,63.0,,-,62,N/A,29.85,77.0,3:47 PM,,9.0,Variable,4.6,0,Los Angeles,California,90001
16,Clear,2016-06-26 23:47:00,63.0,,-,64,N/A,29.86,75.9,4:47 PM,,10.0,Variable,3.5,0,Los Angeles,California,90001
17,Clear,2016-06-27 00:47:00,63.0,,-,68,N/A,29.86,73.9,5:47 PM,,10.0,Variable,3.5,0,Los Angeles,California,90001
18,Clear,2016-06-27 01:47:00,63.0,,-,73,N/A,29.87,72.0,6:47 PM,,9.0,North,-9999.0,0,Los Angeles,California,90001
19,Clear,2016-06-27 02:47:00,62.1,,-,81,N/A,29.88,68.0,7:47 PM,,9.0,Variable,3.5,0,Los Angeles,California,90001
20,Clear,2016-06-27 03:47:00,62.1,,-,81,N/A,29.89,68.0,8:47 PM,,10.0,Variable,4.6,0,Los Angeles,California,90001
21,Clear,2016-06-27 04:47:00,62.1,,-,84,N/A,29.90,66.9,9:47 PM,,8.0,Calm,Calm,0,Los Angeles,California,90001
22,Clear,2016-06-27 05:47:00,62.1,,-,84,N/A,29.90,66.9,10:47 PM,,8.0,Calm,Calm,0,Los Angeles,California,90001
23,Clear,2016-06-27 06:47:00,62.1,,-,84,N/A,29.90,66.9,11:47 PM,,8.0,Calm,Calm,0,Los Angeles,California,90001
0,Clear,2016-06-27 07:47:00,62.1,,-,84,N/A,29.89,66.9,12:47 AM,,7.0,Calm,Calm,0,Los Angeles,California,90001
1,Clear,2016-06-27 10:47:00,62.1,,-,84,N/A,29.87,66.9,3:47 AM,,8.0,Calm,Calm,0,Los Angeles,California,90001
2,Clear,2016-06-27 11:47:00,62.1,,-,84,N/A,29.89,66.9,4:47 AM,,7.0,Calm,Calm,0,Los Angeles,California,90001
3,Clear,2016-06-27 12:47:00,62.1,,-,87,N/A,29.89,66.0,5:47 AM,,6.0,Calm,Calm,0,Los Angeles,California,90001
4,Clear,2016-06-27 13:47:00,63.0,,-,87,N/A,29.91,66.9,6:47 AM,,4.0,Calm,Calm,0,Los Angeles,California,90001
5,Clear,2016-06-27 14:47:00,64.0,,-,87,N/A,29.94,68.0,7:47 AM,,3.0,Calm,Calm,0,Los Angeles,California,90001
6,Partly Cloudy,2016-06-27 14:50:00,64.0,,-,87,N/A,29.94,68.0,7:50 AM,,3.0,Calm,Calm,0,Los Angeles,California,90001
7,Mostly Cloudy,2016-06-27 15:06:00,64.0,,-,87,N/A,29.94,68.0,8:06 AM,,2.5,Calm,Calm,0,Los Angeles,California,90001
8,Haze,2016-06-27 15:38:00,64.0,,-,81,N/A,29.93,70.0,8:38 AM,,3.0,Calm,Calm,0,Los Angeles,California,90001
9,Haze,2016-06-27 15:47:00,64.0,,-,76,N/A,29.92,72.0,8:47 AM,,3.0,Calm,Calm,0,Los Angeles,California,90001
10,Haze,2016-06-27 16:47:00,64.0,,-,69,N/A,29.92,75.0,9:47 AM,,4.0,Calm,Calm,0,Los Angeles,California,90001
11,Haze,2016-06-27 17:47:00,64.9,,-,60,N/A,29.91,80.1,10:47 AM,,4.0,Calm,Calm,0,Los Angeles,California,90001
12,Haze,2016-06-27 18:47:00,64.9,,-,51,N/A,29.91,84.9,11:47 AM,,6.0,Calm,Calm,0,Los Angeles,California,90001
13,Clear,2016-06-27 19:47:00,64.9,,-,48,N/A,29.91,87.1,12:47 PM,,7.0,Calm,Calm,0,Los Angeles,California,90001
14,Haze,2016-06-27 20:47:00,66.0,,-,53,N/A,29.90,84.9,1:47 PM,,5.0,North,-9999.0,0,Los Angeles,California,90001
15,Haze,2016-06-27 21:47:00,66.0,,-,49,N/A,29.88,87.1,2:47 PM,,6.0,Calm,Calm,0,Los Angeles,California,90001
16,Clear,2016-06-27 22:47:00,66.0,,-,55,N/A,29.88,84.0,3:47 PM,,7.0,North,-9999.0,0,Los Angeles,California,90001
17,Clear,2016-06-27 23:47:00,66.0,,-,56,N/A,29.88,82.9,4:47 PM,,8.0,North,-9999.0,0,Los Angeles,California,90001
18,Clear,2016-06-28 00:47:00,64.9,,-,62,N/A,29.88,79.0,5:47 PM,,8.0,WSW,3.5,250,Los Angeles,California,90001
19,Clear,2016-06-28 01:47:00,64.9,,-,66,N/A,29.88,77.0,6:47 PM,,8.0,West,3.5,260,Los Angeles,California,90001
20,Haze,2016-06-28 02:47:00,64.9,,-,73,N/A,29.89,73.9,7:47 PM,,6.0,Calm,Calm,0,Los Angeles,California,90001
21,Clear,2016-06-28 03:47:00,64.9,,-,81,N/A,29.90,71.1,8:47 PM,,7.0,Calm,Calm,0,Los Angeles,California,90001
22,Clear,2016-06-28 04:47:00,64.9,,-,84,N/A,29.91,70.0,9:47 PM,,8.0,Calm,Calm,0,Los Angeles,California,90001
23,Clear,2016-06-28 05:47:00,64.9,,-,84,N/A,29.92,70.0,10:47 PM,,9.0,Calm,Calm,0,Los Angeles,California,90001
24,Clear,2016-06-28 06:47:00,64.9,,-,87,N/A,29.92,69.1,11:47 PM,,9.0,Calm,Calm,0,Los Angeles,California,90001
0,Clear,2016-06-28 07:47:00,64.0,,-,84,N/A,29.91,69.1,12:47 AM,,9.0,Calm,Calm,0,Los Angeles,California,90001
1,Clear,2016-06-28 08:47:00,64.0,,-,87,N/A,29.91,68.0,1:47 AM,,8.0,Calm,Calm,0,Los Angeles,California,90001
2,Clear,2016-06-28 09:47:00,64.0,,-,87,N/A,29.91,68.0,2:47 AM,,8.0,Calm,Calm,0,Los Angeles,California,90001
3,Clear,2016-06-28 10:47:00,64.0,,-,87,N/A,29.91,68.0,3:47 AM,,7.0,Calm,Calm,0,Los Angeles,California,90001
4,Clear,2016-06-28 11:47:00,64.0,,-,90,N/A,29.92,66.9,4:47 AM,,6.0,Calm,Calm,0,Los Angeles,California,90001
5,Clear,2016-06-28 12:47:00,64.0,,-,90,N/A,29.94,66.9,5:47 AM,,5.0,Calm,Calm,0,Los Angeles,California,90001
6,Clear,2016-06-28 13:47:00,64.0,,-,87,N/A,29.94,68.0,6:47 AM,,3.0,WNW,3.5,290,Los Angeles,California,90001
7,Partly Cloudy,2016-06-28 14:02:00,64.0,,-,87,N/A,29.95,68.0,7:02 AM,,3.0,West,3.5,280,Los Angeles,California,90001
8,Scattered Clouds,2016-06-28 14:07:00,64.0,,-,87,N/A,29.95,68.0,7:07 AM,,2.5,Calm,Calm,0,Los Angeles,California,90001
9,Mostly Cloudy,2016-06-28 14:14:00,64.9,,-,90,N/A,29.95,68.0,7:14 AM,,2.5,Calm,Calm,0,Los Angeles,California,90001
10,Mostly Cloudy,2016-06-28 14:28:00,64.9,,-,87,N/A,29.94,69.1,7:28 AM,,3.0,Variable,4.6,0,Los Angeles,California,90001
11,Haze,2016-06-28 14:38:00,64.9,,-,84,N/A,29.94,70.0,7:38 AM,,3.0,Calm,Calm,0,Los Angeles,California,90001
12,Haze,2016-06-28 14:47:00,64.9,,-,84,N/A,29.94,70.0,7:47 AM,,3.0,WSW,3.5,240,Los Angeles,California,90001
13,Haze,2016-06-28 15:47:00,64.9,,-,71,N/A,29.94,75.0,8:47 AM,,4.0,Calm,Calm,0,Los Angeles,California,90001
14,Haze,2016-06-28 16:47:00,66.0,,-,62,N/A,29.94,80.1,9:47 AM,,5.0,West,3.5,270,Los Angeles,California,90001
15,Haze,2016-06-28 17:47:00,66.0,,-,55,N/A,29.93,84.0,10:47 AM,,6.0,Variable,4.6,0,Los Angeles,California,90001
16,Haze,2016-06-28 18:47:00,66.9,,-,56,N/A,29.94,84.0,11:47 AM,,6.0,Variable,4.6,0,Los Angeles,California,90001
17,Clear,2016-06-28 19:47:00,64.9,,-,60,N/A,29.95,80.1,12:47 PM,,7.0,Variable,3.5,0,Los Angeles,California,90001
18,Clear,2016-06-28 20:47:00,64.9,,-,60,N/A,29.93,80.1,1:47 PM,,8.0,West,6.9,270,Los Angeles,California,90001
19,Clear,2016-06-28 21:47:00,64.9,,-,60,N/A,29.91,80.1,2:47 PM,,10.0,West,3.5,270,Los Angeles,California,90001
20,Clear,2016-06-28 22:47:00,64.0,,-,60,N/A,29.89,79.0,3:47 PM,,10.0,Variable,3.5,0,Los Angeles,California,90001
21,Clear,2016-06-28 23:47:00,64.0,,-,60,N/A,29.88,79.0,4:47 PM,,10.0,Variable,5.8,0,Los Angeles,California,90001
22,Clear,2016-06-29 00:47:00,64.0,,-,73,N/A,29.88,73.0,5:47 PM,,10.0,Variable,4.6,0,Los Angeles,California,90001
23,Clear,2016-06-29 01:47:00,63.0,,-,75,N/A,29.88,71.1,6:47 PM,,10.0,West,3.5,260,Los Angeles,California,90001
24,Clear,2016-06-29 02:47:00,63.0,,-,78,N/A,29.88,70.0,7:47 PM,,10.0,Calm,Calm,0,Los Angeles,California,90001
25,Clear,2016-06-29 03:47:00,63.0,,-,84,N/A,29.88,68.0,8:47 PM,,9.0,Calm,Calm,0,Los Angeles,California,90001
26,Partly Cloudy,2016-06-29 04:09:00,64.0,,-,87,N/A,29.90,68.0,9:09 PM,,9.0,Calm,Calm,0,Los Angeles,California,90001
27,Mostly Cloudy,2016-06-29 04:18:00,64.0,,-,87,N/A,29.90,68.0,9:18 PM,,9.0,Calm,Calm,0,Los Angeles,California,90001
28,Scattered Clouds,2016-06-29 04:44:00,63.0,,-,87,N/A,29.91,66.9,9:44 PM,,9.0,Calm,Calm,0,Los Angeles,California,90001
29,Scattered Clouds,2016-06-29 04:47:00,63.0,,-,87,N/A,29.91,66.9,9:47 PM,,9.0,Calm,Calm,0,Los Angeles,California,90001
30,Clear,2016-06-29 05:47:00,63.0,,-,87,N/A,29.91,66.9,10:47 PM,,8.0,Calm,Calm,0,Los Angeles,California,90001
31,Clear,2016-06-29 06:47:00,63.0,,-,87,N/A,29.90,66.9,11:47 PM,,6.0,Calm,Calm,0,Los Angeles,California,90001
0,Partly Cloudy,2016-06-29 07:44:00,63.0,,-,87,N/A,29.91,66.9,12:44 AM,,4.0,Calm,Calm,0,Los Angeles,California,90001
1,Partly Cloudy,2016-06-29 07:47:00,64.0,,-,90,N/A,29.91,66.9,12:47 AM,,4.0,Calm,Calm,0,Los Angeles,California,90001
2,Clear,2016-06-29 08:47:00,63.0,,-,90,N/A,29.90,66.0,1:47 AM,,4.0,Calm,Calm,0,Los Angeles,California,90001
3,Partly Cloudy,2016-06-29 08:54:00,63.0,,-,90,N/A,29.90,66.0,1:54 AM,,4.0,Calm,Calm,0,Los Angeles,California,90001
4,Clear,2016-06-29 09:47:00,63.0,,-,90,N/A,29.89,66.0,2:47 AM,,4.0,Calm,Calm,0,Los Angeles,California,90001
5,Partly Cloudy,2016-06-29 10:39:00,63.0,,-,90,N/A,29.90,66.0,3:39 AM,,4.0,Calm,Calm,0,Los Angeles,California,90001
6,Mostly Cloudy,2016-06-29 10:47:00,63.0,,-,87,N/A,29.89,66.9,3:47 AM,,4.0,Calm,Calm,0,Los Angeles,California,90001
7,Overcast,2016-06-29 11:47:00,63.0,,-,87,N/A,29.90,66.9,4:47 AM,,4.0,Calm,Calm,0,Los Angeles,California,90001
8,Haze,2016-06-29 12:47:00,63.0,,-,84,N/A,29.90,68.0,5:47 AM,,4.0,Calm,Calm,0,Los Angeles,California,90001
9,Overcast,2016-06-29 13:32:00,64.0,,-,87,N/A,29.90,68.0,6:32 AM,,2.5,Calm,Calm,0,Los Angeles,California,90001
10,Haze,2016-06-29 13:47:00,64.0,,-,84,N/A,29.90,69.1,6:47 AM,,3.0,Calm,Calm,0,Los Angeles,California,90001
11,Haze,2016-06-29 13:59:00,64.0,,-,84,N/A,29.91,69.1,6:59 AM,,2.5,Calm,Calm,0,Los Angeles,California,90001
12,Haze,2016-06-29 14:12:00,64.0,,-,81,N/A,29.91,70.0,7:12 AM,,3.0,Calm,Calm,0,Los Angeles,California,90001
13,Haze,2016-06-29 14:47:00,64.0,,-,78,N/A,29.90,71.1,7:47 AM,,3.0,Calm,Calm,0,Los Angeles,California,90001
14,Haze,2016-06-29 15:47:00,64.0,,-,71,N/A,29.91,73.9,8:47 AM,,3.0,Variable,3.5,0,Los Angeles,California,90001
15,Haze,2016-06-29 16:47:00,64.9,,-,64,N/A,29.90,78.1,9:47 AM,,5.0,Calm,Calm,0,Los Angeles,California,90001
16,Haze,2016-06-29 17:47:00,63.0,,-,52,N/A,29.89,82.0,10:47 AM,,6.0,Calm,Calm,0,Los Angeles,California,90001
17,Clear,2016-06-29 18:47:00,66.0,,-,51,N/A,29.88,86.0,11:47 AM,,7.0,Variable,5.8,0,Los Angeles,California,90001
18,Clear,2016-06-29 19:47:00,64.9,,-,56,N/A,29.88,82.0,12:47 PM,,7.0,Variable,3.5,0,Los Angeles,California,90001
19,Clear,2016-06-29 20:47:00,64.0,,-,56,N/A,29.88,81.0,1:47 PM,,10.0,Variable,4.6,0,Los Angeles,California,90001
20,Clear,2016-06-29 21:47:00,64.0,,-,60,N/A,29.86,79.0,2:47 PM,,10.0,Variable,4.6,0,Los Angeles,California,90001
21,Clear,2016-06-29 22:47:00,63.0,,-,60,N/A,29.85,78.1,3:47 PM,,10.0,West,6.9,270,Los Angeles,California,90001
22,Clear,2016-06-29 23:47:00,63.0,,-,62,N/A,29.83,77.0,4:47 PM,,10.0,North,-9999.0,0,Los Angeles,California,90001
23,Clear,2016-06-30 00:47:00,63.0,,-,66,N/A,29.83,75.0,5:47 PM,,10.0,Variable,4.6,0,Los Angeles,California,90001
24,Clear,2016-06-30 01:47:00,63.0,,-,68,N/A,29.83,73.9,6:47 PM,,10.0,West,5.8,280,Los Angeles,California,90001
25,Clear,2016-06-30 02:47:00,61.0,,-,70,N/A,29.83,71.1,7:47 PM,,10.0,Calm,Calm,0,Los Angeles,California,90001
26,Clear,2016-06-30 03:47:00,62.1,,-,78,N/A,29.84,69.1,8:47 PM,,10.0,Calm,Calm,0,Los Angeles,California,90001
27,Clear,2016-06-30 04:47:00,62.1,,-,81,N/A,29.86,68.0,9:47 PM,,10.0,West,3.5,280,Los Angeles,California,90001
28,Clear,2016-06-30 05:47:00,61.0,,-,81,N/A,29.87,66.9,10:47 PM,,10.0,Calm,Calm,0,Los Angeles,California,90001
29,Clear,2016-06-30 06:47:00,61.0,,-,81,N/A,29.86,66.9,11:47 PM,,9.0,Calm,Calm,0,Los Angeles,California,90001
0,Clear,2016-06-30 07:47:00,61.0,,-,84,N/A,29.86,66.0,12:47 AM,,9.0,Calm,Calm,0,Los Angeles,California,90001
1,Clear,2016-06-30 08:47:00,61.0,,-,84,N/A,29.85,66.0,1:47 AM,,9.0,Calm,Calm,0,Los Angeles,California,90001
2,Clear,2016-06-30 09:47:00,61.0,,-,84,N/A,29.84,66.0,2:47 AM,,9.0,Calm,Calm,0,Los Angeles,California,90001
3,Mostly Cloudy,2016-06-30 10:47:00,62.1,,-,84,N/A,29.84,66.9,3:47 AM,,7.0,Calm,Calm,0,Los Angeles,California,90001
4,Overcast,2016-06-30 11:47:00,62.1,,-,81,N/A,29.84,68.0,4:47 AM,,8.0,Calm,Calm,0,Los Angeles,California,90001
5,Overcast,2016-06-30 12:47:00,62.1,,-,81,N/A,29.85,68.0,5:47 AM,,9.0,Calm,Calm,0,Los Angeles,California,90001
6,Overcast,2016-06-30 13:47:00,62.1,,-,78,N/A,29.86,69.1,6:47 AM,,7.0,Calm,Calm,0,Los Angeles,California,90001
7,Overcast,2016-06-30 14:47:00,62.1,,-,73,N/A,29.86,71.1,7:47 AM,,7.0,Calm,Calm,0,Los Angeles,California,90001
8,Scattered Clouds,2016-06-30 15:00:00,63.0,,-,73,N/A,29.87,72.0,8:00 AM,,8.0,Calm,Calm,0,Los Angeles,California,90001
9,Clear,2016-06-30 15:47:00,63.0,,-,68,N/A,29.87,73.9,8:47 AM,,7.0,Calm,Calm,0,Los Angeles,California,90001
10,Clear,2016-06-30 16:47:00,63.0,,-,64,N/A,29.87,75.9,9:47 AM,,7.0,Calm,Calm,0,Los Angeles,California,90001
11,Clear,2016-06-30 17:47:00,64.0,,-,58,N/A,29.87,80.1,10:47 AM,,8.0,Variable,3.5,0,Los Angeles,California,90001
12,Clear,2016-06-30 18:47:00,64.0,,-,56,N/A,29.86,81.0,11:47 AM,,9.0,Calm,Calm,0,Los Angeles,California,90001
13,Clear,2016-06-30 19:47:00,63.0,,-,56,N/A,29.86,80.1,12:47 PM,,9.0,Variable,4.6,0,Los Angeles,California,90001
14,Clear,2016-06-30 20:47:00,63.0,,-,58,N/A,29.86,79.0,1:47 PM,,9.0,Variable,5.8,0,Los Angeles,California,90001
15,Clear,2016-06-30 21:47:00,62.1,,-,56,N/A,29.84,79.0,2:47 PM,,10.0,West,4.6,280,Los Angeles,California,90001
16,Clear,2016-06-30 22:47:00,64.0,,-,60,N/A,29.82,79.0,3:47 PM,,9.0,Variable,3.5,0,Los Angeles,California,90001
17,Clear,2016-06-30 23:47:00,63.0,,-,62,N/A,29.81,77.0,4:47 PM,,9.0,Calm,Calm,0,Los Angeles,California,90001
18,Clear,2016-07-01 00:47:00,63.0,,-,64,N/A,29.80,75.9,5:47 PM,,9.0,North,-9999.0,0,Los Angeles,California,90001
19,Clear,2016-07-01 01:47:00,62.1,,-,71,N/A,29.80,72.0,6:47 PM,,10.0,Calm,Calm,0,Los Angeles,California,90001
20,Clear,2016-07-01 02:47:00,60.1,,-,73,N/A,29.82,69.1,7:47 PM,,10.0,Calm,Calm,0,Los Angeles,California,90001
21,Clear,2016-07-01 03:47:00,59.0,,-,76,N/A,29.84,66.9,8:47 PM,,10.0,West,3.5,280,Los Angeles,California,90001
22,Clear,2016-07-01 04:47:00,59.0,,-,76,N/A,29.87,66.9,9:47 PM,,10.0,Variable,3.5,0,Los Angeles,California,90001
23,Mostly Cloudy,2016-07-01 05:22:00,59.0,,-,78,N/A,29.88,66.0,10:22 PM,,10.0,Calm,Calm,0,Los Angeles,California,90001
24,Overcast,2016-07-01 05:47:00,59.0,,-,78,N/A,29.88,66.0,10:47 PM,,10.0,WNW,3.5,290,Los Angeles,California,90001
25,Overcast,2016-07-01 05:50:00,59.0,,-,78,N/A,29.88,66.0,10:50 PM,,10.0,Calm,Calm,0,Los Angeles,California,90001
26,Overcast,2016-07-01 06:19:00,59.0,,-,78,N/A,29.89,66.0,11:19 PM,,10.0,Calm,Calm,0,Los Angeles,California,90001
27,Scattered Clouds,2016-07-01 06:32:00,59.0,,-,78,N/A,29.88,66.0,11:32 PM,,10.0,Calm,Calm,0,Los Angeles,California,90001
28,Clear,2016-07-01 06:47:00,59.0,,-,78,N/A,29.88,66.0,11:47 PM,,10.0,Calm,Calm,0,Los Angeles,California,90001
0,Mostly Cloudy,2016-07-01 07:01:00,60.1,,-,79,N/A,29.88,66.9,12:01 AM,,10.0,Calm,Calm,0,Los Angeles,California,90001
1,Overcast,2016-07-01 07:24:00,60.1,,-,81,N/A,29.88,66.0,12:24 AM,,8.0,Calm,Calm,0,Los Angeles,California,90001
2,Overcast,2016-07-01 07:47:00,61.0,,-,81,N/A,29.87,66.9,12:47 AM,,8.0,Calm,Calm,0,Los Angeles,California,90001
3,Overcast,2016-07-01 08:29:00,61.0,,-,78,N/A,29.88,68.0,1:29 AM,,8.0,East,4.6,100,Los Angeles,California,90001
4,Overcast,2016-07-01 08:47:00,61.0,,-,78,N/A,29.86,68.0,1:47 AM,,7.0,Calm,Calm,0,Los Angeles,California,90001
5,Overcast,2016-07-01 09:34:00,62.1,,-,78,N/A,29.87,69.1,2:34 AM,,8.0,ESE,3.5,120,Los Angeles,California,90001
6,Overcast,2016-07-01 09:47:00,62.1,,-,78,N/A,29.86,69.1,2:47 AM,,9.0,Variable,3.5,0,Los Angeles,California,90001
7,Overcast,2016-07-01 10:47:00,62.1,,-,81,N/A,29.86,68.0,3:47 AM,,9.0,Calm,Calm,0,Los Angeles,California,90001
8,Overcast,2016-07-01 11:47:00,62.1,,-,81,N/A,29.87,68.0,4:47 AM,,9.0,Calm,Calm,0,Los Angeles,California,90001
9,Overcast,2016-07-01 12:47:00,62.1,,-,81,N/A,29.87,68.0,5:47 AM,,8.0,Calm,Calm,0,Los Angeles,California,90001
10,Overcast,2016-07-01 13:14:00,62.1,,-,81,N/A,29.88,68.0,6:14 AM,,8.0,Calm,Calm,0,Los Angeles,California,90001
11,Overcast,2016-07-01 13:47:00,62.1,,-,78,N/A,29.88,69.1,6:47 AM,,8.0,Calm,Calm,0,Los Angeles,California,90001
12,Overcast,2016-07-01 14:47:00,62.1,,-,76,N/A,29.90,70.0,7:47 AM,,7.0,Calm,Calm,0,Los Angeles,California,90001
13,Haze,2016-07-01 15:47:00,62.1,,-,73,N/A,29.90,71.1,8:47 AM,,5.0,ESE,4.6,120,Los Angeles,California,90001
14,Overcast,2016-07-01 16:47:00,63.0,,-,66,N/A,29.90,75.0,9:47 AM,,8.0,Calm,Calm,0,Los Angeles,California,90001
15,Scattered Clouds,2016-07-01 17:05:00,62.1,,-,62,N/A,29.91,75.9,10:05 AM,,9.0,Variable,3.5,0,Los Angeles,California,90001
16,Clear,2016-07-01 17:47:00,63.0,,-,58,N/A,29.91,79.0,10:47 AM,,10.0,Variable,3.5,0,Los Angeles,California,90001
17,Clear,2016-07-01 18:47:00,63.0,,-,60,N/A,29.91,78.1,11:47 AM,,10.0,Variable,4.6,0,Los Angeles,California,90001
18,Clear,2016-07-01 19:47:00,63.0,,-,60,N/A,29.91,78.1,12:47 PM,,10.0,Variable,6.9,0,Los Angeles,California,90001
19,Clear,2016-07-01 20:47:00,62.1,,-,62,N/A,29.90,75.9,1:47 PM,,10.0,Calm,Calm,0,Los Angeles,California,90001
20,Clear,2016-07-01 21:47:00,63.0,,-,58,N/A,29.88,79.0,2:47 PM,,10.0,Variable,6.9,0,Los Angeles,California,90001
21,Clear,2016-07-01 22:47:00,62.1,,-,62,N/A,29.88,75.9,3:47 PM,,10.0,West,6.9,260,Los Angeles,California,90001
22,Clear,2016-07-01 23:47:00,62.1,,-,60,N/A,29.87,77.0,4:47 PM,,10.0,Variable,5.8,0,Los Angeles,California,90001
23,Clear,2016-07-02 00:47:00,62.1,,-,64,N/A,29.85,75.0,5:47 PM,,10.0,Variable,3.5,0,Los Angeles,California,90001
24,Clear,2016-07-02 01:47:00,61.0,,-,62,N/A,29.88,75.0,6:47 PM,,10.0,Calm,Calm,0,Los Angeles,California,90001
25,Clear,2016-07-02 02:47:00,61.0,,-,70,N/A,29.89,71.1,7:47 PM,,10.0,Variable,3.5,0,Los Angeles,California,90001
26,Scattered Clouds,2016-07-02 03:47:00,61.0,,-,75,N/A,29.91,69.1,8:47 PM,,10.0,West,3.5,280,Los Angeles,California,90001
27,Mostly Cloudy,2016-07-02 03:50:00,61.0,,-,75,N/A,29.91,69.1,8:50 PM,,10.0,West,4.6,280,Los Angeles,California,90001
28,Overcast,2016-07-02 04:47:00,61.0,,-,78,N/A,29.93,68.0,9:47 PM,,10.0,Calm,Calm,0,Los Angeles,California,90001
29,Mostly Cloudy,2016-07-02 05:47:00,59.0,,-,76,N/A,29.94,66.9,10:47 PM,,10.0,Calm,Calm,0,Los Angeles,California,90001
30,Scattered Clouds,2016-07-02 05:56:00,59.0,,-,76,N/A,29.95,66.9,10:56 PM,,10.0,Calm,Calm,0,Los Angeles,California,90001
31,Mostly Cloudy,2016-07-02 06:42:00,59.0,,-,76,N/A,29.95,66.9,11:42 PM,,10.0,Calm,Calm,0,Los Angeles,California,90001
32,Mostly Cloudy,2016-07-02 06:47:00,59.0,,-,76,N/A,29.95,66.9,11:47 PM,,10.0,Variable,3.5,0,Los Angeles,California,90001
0,Overcast,2016-07-02 07:47:00,59.0,,-,76,N/A,29.96,66.9,12:47 AM,,10.0,SE,4.6,130,Los Angeles,California,90001
1,Overcast,2016-07-02 08:47:00,57.9,,-,75,N/A,29.96,66.0,1:47 AM,,10.0,Variable,3.5,0,Los Angeles,California,90001
2,Overcast,2016-07-02 09:47:00,57.9,,-,75,N/A,29.95,66.0,2:47 AM,,10.0,Variable,3.5,0,Los Angeles,California,90001
3,Overcast,2016-07-02 10:47:00,57.9,,-,75,N/A,29.94,66.0,3:47 AM,,10.0,Calm,Calm,0,Los Angeles,California,90001
4,Overcast,2016-07-02 11:47:00,57.9,,-,75,N/A,29.94,66.0,4:47 AM,,10.0,Calm,Calm,0,Los Angeles,California,90001
5,Overcast,2016-07-02 12:47:00,57.9,,-,78,N/A,29.95,64.9,5:47 AM,,10.0,Calm,Calm,0,Los Angeles,California,90001
6,Overcast,2016-07-02 13:47:00,57.9,,-,78,N/A,29.97,64.9,6:47 AM,,10.0,Calm,Calm,0,Los Angeles,California,90001
7,Overcast,2016-07-02 14:47:00,57.9,,-,75,N/A,29.98,66.0,7:47 AM,,10.0,Calm,Calm,0,Los Angeles,California,90001
8,Haze,2016-07-02 14:54:00,57.9,,-,75,N/A,29.99,66.0,7:54 AM,,2.5,Calm,Calm,0,Los Angeles,California,90001
9,Overcast,2016-07-02 15:03:00,59.0,,-,78,N/A,29.99,66.0,8:03 AM,,9.0,Calm,Calm,0,Los Angeles,California,90001
10,Overcast,2016-07-02 15:47:00,59.0,,-,76,N/A,29.99,66.9,8:47 AM,,10.0,Calm,Calm,0,Los Angeles,California,90001
11,Overcast,2016-07-02 16:47:00,59.0,,-,70,N/A,30.00,69.1,9:47 AM,,10.0,Calm,Calm,0,Los Angeles,California,90001
12,Scattered Clouds,2016-07-02 17:14:00,59.0,,-,68,N/A,30.00,70.0,10:14 AM,,10.0,Calm,Calm,0,Los Angeles,California,90001
13,Clear,2016-07-02 17:47:00,60.1,,-,62,N/A,29.99,73.9,10:47 AM,,10.0,Calm,Calm,0,Los Angeles,California,90001
14,Clear,2016-07-02 18:47:00,59.0,,-,52,N/A,29.98,78.1,11:47 AM,,10.0,West,3.5,280,Los Angeles,California,90001
15,Clear,2016-07-02 19:47:00,60.1,,-,50,N/A,29.97,80.1,12:47 PM,,10.0,Calm,Calm,0,Los Angeles,California,90001
16,Clear,2016-07-02 20:47:00,59.0,,-,52,N/A,29.97,78.1,1:47 PM,,10.0,Variable,5.8,0,Los Angeles,California,90001
17,Clear,2016-07-02 21:47:00,59.0,,-,54,N/A,29.97,77.0,2:47 PM,,10.0,West,4.6,270,Los Angeles,California,90001
18,Clear,2016-07-02 22:47:00,59.0,,-,57,N/A,29.97,75.0,3:47 PM,,10.0,Variable,4.6,0,Los Angeles,California,90001
19,Clear,2016-07-02 23:47:00,59.0,,-,59,N/A,29.96,73.9,4:47 PM,,10.0,Variable,5.8,0,Los Angeles,California,90001
20,Clear,2016-07-03 00:47:00,59.0,,-,59,N/A,29.96,73.9,5:47 PM,,10.0,West,5.8,260,Los Angeles,California,90001
21,Clear,2016-07-03 01:47:00,59.0,,-,64,N/A,29.97,72.0,6:47 PM,,10.0,North,-9999.0,0,Los Angeles,California,90001
22,Clear,2016-07-03 02:47:00,57.9,,-,68,N/A,29.98,69.1,7:47 PM,,10.0,Calm,Calm,0,Los Angeles,California,90001
23,Clear,2016-07-03 03:47:00,57.9,,-,73,N/A,30.00,66.9,8:47 PM,,10.0,Variable,4.6,0,Los Angeles,California,90001
24,Clear,2016-07-03 04:47:00,59.0,,-,78,N/A,30.02,66.0,9:47 PM,,10.0,West,3.5,260,Los Angeles,California,90001
25,Clear,2016-07-03 05:47:00,59.0,,-,78,N/A,30.03,66.0,10:47 PM,,10.0,Calm,Calm,0,Los Angeles,California,90001
26,Clear,2016-07-03 06:47:00,59.0,,-,81,N/A,30.03,64.9,11:47 PM,,10.0,West,3.5,280,Los Angeles,California,90001
0,Clear,2016-07-03 07:47:00,59.0,,-,84,N/A,30.02,64.0,12:47 AM,,10.0,Calm,Calm,0,Los Angeles,California,90001
1,Mostly Cloudy,2016-07-03 08:47:00,59.0,,-,84,N/A,30.02,64.0,1:47 AM,,10.0,Calm,Calm,0,Los Angeles,California,90001
2,Overcast,2016-07-03 09:47:00,57.9,,-,78,N/A,30.00,64.9,2:47 AM,,10.0,West,3.5,270,Los Angeles,California,90001
3,Overcast,2016-07-03 10:47:00,57.9,,-,78,N/A,29.99,64.9,3:47 AM,,10.0,Variable,3.5,0,Los Angeles,California,90001
4,Overcast,2016-07-03 11:47:00,57.0,,-,78,N/A,30.00,64.0,4:47 AM,,9.0,Calm,Calm,0,Los Angeles,California,90001
5,Overcast,2016-07-03 11:59:00,57.0,,-,78,N/A,30.01,64.0,4:59 AM,,9.0,Calm,Calm,0,Los Angeles,California,90001
6,Overcast,2016-07-03 12:47:00,57.0,,-,78,N/A,30.01,64.0,5:47 AM,,9.0,Calm,Calm,0,Los Angeles,California,90001
7,Overcast,2016-07-03 13:47:00,57.0,,-,75,N/A,30.02,64.9,6:47 AM,,8.0,Calm,Calm,0,Los Angeles,California,90001
8,Overcast,2016-07-03 14:47:00,57.0,,-,73,N/A,30.04,66.0,7:47 AM,,8.0,West,4.6,270,Los Angeles,California,90001
9,Overcast,2016-07-03 15:47:00,57.9,,-,65,N/A,30.04,70.0,8:47 AM,,10.0,Calm,Calm,0,Los Angeles,California,90001
10,Scattered Clouds,2016-07-03 16:24:00,57.9,,-,61,N/A,30.05,72.0,9:24 AM,,10.0,Variable,3.5,0,Los Angeles,California,90001
11,Clear,2016-07-03 16:47:00,57.9,,-,61,N/A,30.05,72.0,9:47 AM,,10.0,Calm,Calm,0,Los Angeles,California,90001
12,Clear,2016-07-03 17:47:00,59.0,,-,56,N/A,30.05,75.9,10:47 AM,,10.0,Calm,Calm,0,Los Angeles,California,90001
13,Clear,2016-07-03 18:47:00,59.0,,-,56,N/A,30.05,75.9,11:47 AM,,10.0,Calm,Calm,0,Los Angeles,California,90001
14,Clear,2016-07-03 19:47:00,59.0,,-,57,N/A,30.04,75.0,12:47 PM,,10.0,Variable,3.5,0,Los Angeles,California,90001
15,Clear,2016-07-03 20:47:00,59.0,,-,59,N/A,30.04,73.9,1:47 PM,,10.0,Calm,Calm,0,Los Angeles,California,90001
16,Clear,2016-07-03 21:47:00,59.0,,-,61,N/A,30.03,73.0,2:47 PM,,10.0,Variable,3.5,0,Los Angeles,California,90001
17,Clear,2016-07-03 22:47:00,57.9,,-,59,N/A,30.02,73.0,3:47 PM,,10.0,WSW,4.6,250,Los Angeles,California,90001
18,Clear,2016-07-03 23:47:00,57.9,,-,61,N/A,30.01,72.0,4:47 PM,,10.0,North,-9999.0,0,Los Angeles,California,90001
19,Clear,2016-07-04 00:47:00,57.9,,-,63,N/A,30.00,71.1,5:47 PM,,10.0,Variable,5.8,0,Los Angeles,California,90001
20,Clear,2016-07-04 01:47:00,57.0,,-,63,N/A,30.00,70.0,6:47 PM,,10.0,Variable,6.9,0,Los Angeles,California,90001
21,Clear,2016-07-04 02:47:00,57.0,,-,70,N/A,30.00,66.9,7:47 PM,,10.0,West,5.8,270,Los Angeles,California,90001
22,Clear,2016-07-04 03:47:00,57.0,,-,75,N/A,30.01,64.9,8:47 PM,,10.0,West,6.9,270,Los Angeles,California,90001
23,Partly Cloudy,2016-07-04 04:47:00,57.0,,-,78,N/A,30.03,64.0,9:47 PM,,10.0,Variable,4.6,0,Los Angeles,California,90001
24,Mostly Cloudy,2016-07-04 05:26:00,57.0,,-,78,N/A,30.03,64.0,10:26 PM,,10.0,West,4.6,280,Los Angeles,California,90001
25,Scattered Clouds,2016-07-04 05:35:00,57.0,,-,78,N/A,30.03,64.0,10:35 PM,,10.0,West,3.5,280,Los Angeles,California,90001
26,Partly Cloudy,2016-07-04 05:47:00,57.0,,-,78,N/A,30.03,64.0,10:47 PM,,10.0,Variable,3.5,0,Los Angeles,California,90001
27,Scattered Clouds,2016-07-04 06:47:00,57.0,,-,78,N/A,30.03,64.0,11:47 PM,,10.0,Calm,Calm,0,Los Angeles,California,90001
0,Mostly Cloudy,2016-07-04 07:04:00,57.0,,-,78,N/A,30.04,64.0,12:04 AM,,10.0,West,4.6,280,Los Angeles,California,90001
1,Overcast,2016-07-04 07:47:00,57.9,,-,80,N/A,30.03,64.0,12:47 AM,,10.0,Calm,Calm,0,Los Angeles,California,90001
2,Overcast,2016-07-04 08:47:00,57.9,,-,80,N/A,30.03,64.0,1:47 AM,,10.0,Variable,3.5,0,Los Angeles,California,90001
3,Overcast,2016-07-04 09:44:00,57.9,,-,80,N/A,30.02,64.0,2:44 AM,,10.0,Calm,Calm,0,Los Angeles,California,90001
4,Overcast,2016-07-04 09:47:00,57.9,,-,80,N/A,30.01,64.0,2:47 AM,,10.0,Calm,Calm,0,Los Angeles,California,90001
5,Overcast,2016-07-04 10:47:00,57.9,,-,80,N/A,30.01,64.0,3:47 AM,,10.0,Calm,Calm,0,Los Angeles,California,90001
6,Overcast,2016-07-04 11:47:00,57.9,,-,80,N/A,30.01,64.0,4:47 AM,,10.0,Calm,Calm,0,Los Angeles,California,90001
7,Overcast,2016-07-04 12:47:00,57.9,,-,80,N/A,30.02,64.0,5:47 AM,,10.0,Calm,Calm,0,Los Angeles,California,90001
8,Overcast,2016-07-04 13:47:00,57.9,,-,78,N/A,30.03,64.9,6:47 AM,,10.0,Calm,Calm,0,Los Angeles,California,90001
9,Overcast,2016-07-04 14:47:00,57.9,,-,75,N/A,30.04,66.0,7:47 AM,,10.0,Calm,Calm,0,Los Angeles,California,90001
10,Overcast,2016-07-04 15:47:00,57.9,,-,73,N/A,30.04,66.9,8:47 AM,,10.0,Calm,Calm,0,Los Angeles,California,90001
11,Overcast,2016-07-04 16:47:00,59.0,,-,73,N/A,30.05,68.0,9:47 AM,,10.0,Calm,Calm,0,Los Angeles,California,90001
12,Overcast,2016-07-04 17:47:00,59.0,,-,68,N/A,30.04,70.0,10:47 AM,,10.0,Variable,4.6,0,Los Angeles,California,90001
13,Overcast,2016-07-04 18:47:00,59.0,,-,66,N/A,30.04,71.1,11:47 AM,,10.0,Variable,4.6,0,Los Angeles,California,90001
14,Scattered Clouds,2016-07-04 19:14:00,59.0,,-,64,N/A,30.04,72.0,12:14 PM,,10.0,West,9.2,280,Los Angeles,California,90001
15,Mostly Cloudy,2016-07-04 19:26:00,59.0,,-,64,N/A,30.04,72.0,12:26 PM,,10.0,West,9.2,270,Los Angeles,California,90001
16,Scattered Clouds,2016-07-04 19:39:00,59.0,,-,61,N/A,30.04,73.0,12:39 PM,,10.0,Variable,6.9,0,Los Angeles,California,90001
17,Scattered Clouds,2016-07-04 19:47:00,59.0,,-,61,N/A,30.03,73.0,12:47 PM,,10.0,Variable,5.8,0,Los Angeles,California,90001
18,Clear,2016-07-04 20:47:00,59.0,,-,61,N/A,30.02,73.0,1:47 PM,,10.0,North,-9999.0,0,Los Angeles,California,90001
19,Clear,2016-07-04 21:47:00,57.9,,-,61,N/A,30.01,72.0,2:47 PM,,10.0,North,-9999.0,0,Los Angeles,California,90001
20,Clear,2016-07-04 22:47:00,57.9,,-,61,N/A,29.99,72.0,3:47 PM,,10.0,Variable,5.8,0,Los Angeles,California,90001
21,Clear,2016-07-04 23:47:00,59.0,,-,64,N/A,29.98,72.0,4:47 PM,,10.0,West,9.2,270,Los Angeles,California,90001
22,Clear,2016-07-05 00:47:00,59.0,,-,64,N/A,29.96,72.0,5:47 PM,,10.0,Variable,3.5,0,Los Angeles,California,90001
23,Clear,2016-07-05 01:47:00,59.0,,-,66,N/A,29.96,71.1,6:47 PM,,10.0,Variable,3.5,0,Los Angeles,California,90001
24,Clear,2016-07-05 02:47:00,59.0,,-,73,N/A,29.96,68.0,7:47 PM,,10.0,Variable,4.6,0,Los Angeles,California,90001
25,Clear,2016-07-05 03:47:00,59.0,,-,76,N/A,29.98,66.9,8:47 PM,,9.0,West,3.5,260,Los Angeles,California,90001
26,Haze,2016-07-05 04:47:00,59.0,,-,78,N/A,30.00,66.0,9:47 PM,,5.0,Calm,Calm,0,Los Angeles,California,90001
27,Haze,2016-07-05 05:47:00,59.0,,-,81,N/A,30.01,64.9,10:47 PM,,4.0,Variable,3.5,0,Los Angeles,California,90001
28,Mostly Cloudy,2016-07-05 06:03:00,59.0,,-,81,N/A,30.01,64.9,11:03 PM,,8.0,Variable,5.8,0,Los Angeles,California,90001
29,Overcast,2016-07-05 06:47:00,59.0,,-,81,N/A,30.01,64.9,11:47 PM,,10.0,Calm,Calm,0,Los Angeles,California,90001
0,Overcast,2016-07-05 07:47:00,59.0,,-,81,N/A,30.00,64.9,12:47 AM,,10.0,Calm,Calm,0,Los Angeles,California,90001
1,Overcast,2016-07-05 08:47:00,59.0,,-,81,N/A,30.00,64.9,1:47 AM,,10.0,Calm,Calm,0,Los Angeles,California,90001
2,Overcast,2016-07-05 09:00:00,59.0,,-,81,N/A,30.00,64.9,2:00 AM,,10.0,Variable,3.5,0,Los Angeles,California,90001
3,Overcast,2016-07-05 09:47:00,57.9,,-,78,N/A,29.99,64.9,2:47 AM,,10.0,Calm,Calm,0,Los Angeles,California,90001
4,Overcast,2016-07-05 10:47:00,57.9,,-,78,N/A,29.98,64.9,3:47 AM,,10.0,Calm,Calm,0,Los Angeles,California,90001
5,Overcast,2016-07-05 11:47:00,55.9,,-,70,N/A,29.98,66.0,4:47 AM,,10.0,Calm,Calm,0,Los Angeles,California,90001
6,Overcast,2016-07-05 12:47:00,55.9,,-,68,N/A,29.99,66.9,5:47 AM,,9.0,Calm,Calm,0,Los Angeles,California,90001
7,Overcast,2016-07-05 13:47:00,57.0,,-,70,N/A,29.99,66.9,6:47 AM,,8.0,Calm,Calm,0,Los Angeles,California,90001
8,Overcast,2016-07-05 14:47:00,57.0,,-,68,N/A,30.00,68.0,7:47 AM,,7.0,Calm,Calm,0,Los Angeles,California,90001
9,Overcast,2016-07-05 15:47:00,57.0,,-,63,N/A,30.00,70.0,8:47 AM,,7.0,Calm,Calm,0,Los Angeles,California,90001
10,Overcast,2016-07-05 16:47:00,57.9,,-,61,N/A,30.01,72.0,9:47 AM,,8.0,Calm,Calm,0,Los Angeles,California,90001
11,Mostly Cloudy,2016-07-05 17:16:00,57.9,,-,57,N/A,30.01,73.9,10:16 AM,,10.0,Calm,Calm,0,Los Angeles,California,90001
12,Mostly Cloudy,2016-07-05 17:37:00,57.9,,-,55,N/A,30.01,75.0,10:37 AM,,10.0,Variable,3.5,0,Los Angeles,California,90001
13,Scattered Clouds,2016-07-05 17:47:00,57.9,,-,57,N/A,30.00,73.9,10:47 AM,,9.0,Calm,Calm,0,Los Angeles,California,90001
14,Clear,2016-07-05 18:47:00,57.0,,-,53,N/A,30.00,75.0,11:47 AM,,10.0,Variable,3.5,0,Los Angeles,California,90001
15,Clear,2016-07-05 19:47:00,57.0,,-,52,N/A,29.98,75.9,12:47 PM,,10.0,Variable,3.5,0,Los Angeles,California,90001
16,Clear,2016-07-05 20:47:00,57.9,,-,54,N/A,29.96,75.9,1:47 PM,,10.0,WSW,3.5,250,Los Angeles,California,90001
17,Clear,2016-07-05 21:47:00,57.9,,-,55,N/A,29.96,75.0,2:47 PM,,10.0,Variable,5.8,0,Los Angeles,California,90001
18,Clear,2016-07-05 22:47:00,57.9,,-,57,N/A,29.95,73.9,3:47 PM,,10.0,Variable,5.8,0,Los Angeles,California,90001
19,Clear,2016-07-05 23:47:00,59.0,,-,61,N/A,29.94,73.0,4:47 PM,,10.0,West,9.2,270,Los Angeles,California,90001
20,Clear,2016-07-06 00:47:00,59.0,,17.3,64,N/A,29.94,72.0,5:47 PM,,10.0,West,5.8,270,Los Angeles,California,90001
21,Clear,2016-07-06 01:47:00,59.0,,-,68,N/A,29.94,70.0,6:47 PM,,10.0,Variable,3.5,0,Los Angeles,California,90001
22,Clear,2016-07-06 02:47:00,59.0,,-,70,N/A,29.94,69.1,7:47 PM,,10.0,Calm,Calm,0,Los Angeles,California,90001
23,Clear,2016-07-06 03:47:00,59.0,,-,78,N/A,29.96,66.0,8:47 PM,,10.0,Variable,4.6,0,Los Angeles,California,90001
24,Mostly Cloudy,2016-07-06 04:09:00,59.0,,-,78,N/A,29.96,66.0,9:09 PM,,10.0,North,-9999.0,0,Los Angeles,California,90001
25,Scattered Clouds,2016-07-06 04:43:00,59.0,,-,78,N/A,29.97,66.0,9:43 PM,,10.0,Variable,3.5,0,Los Angeles,California,90001
26,Scattered Clouds,2016-07-06 04:47:00,59.0,,-,78,N/A,29.96,66.0,9:47 PM,,10.0,Calm,Calm,0,Los Angeles,California,90001
27,Mostly Cloudy,2016-07-06 05:37:00,59.0,,-,81,N/A,29.97,64.9,10:37 PM,,10.0,Variable,3.5,0,Los Angeles,California,90001
28,Mostly Cloudy,2016-07-06 05:47:00,59.0,,-,81,N/A,29.97,64.9,10:47 PM,,10.0,Calm,Calm,0,Los Angeles,California,90001
29,Scattered Clouds,2016-07-06 06:08:00,59.0,,-,81,N/A,29.98,64.9,11:08 PM,,10.0,West,3.5,260,Los Angeles,California,90001
30,Clear,2016-07-06 06:47:00,59.0,,-,84,N/A,29.98,64.0,11:47 PM,,10.0,Variable,3.5,0,Los Angeles,California,90001
0,Partly Cloudy,2016-07-06 07:47:00,59.0,,-,87,N/A,29.97,63.0,12:47 AM,,9.0,Variable,3.5,0,Los Angeles,California,90001
1,Mostly Cloudy,2016-07-06 08:37:00,59.0,,-,87,N/A,29.97,63.0,1:37 AM,,9.0,Calm,Calm,0,Los Angeles,California,90001
2,Mostly Cloudy,2016-07-06 08:47:00,59.0,,-,87,N/A,29.97,63.0,1:47 AM,,9.0,Calm,Calm,0,Los Angeles,California,90001
3,Overcast,2016-07-06 09:47:00,59.0,,-,84,N/A,29.97,64.0,2:47 AM,,10.0,Calm,Calm,0,Los Angeles,California,90001
4,Overcast,2016-07-06 10:47:00,59.0,,-,84,N/A,29.96,64.0,3:47 AM,,10.0,Calm,Calm,0,Los Angeles,California,90001
5,Overcast,2016-07-06 11:04:00,59.0,,-,84,N/A,29.97,64.0,4:04 AM,,10.0,Calm,Calm,0,Los Angeles,California,90001
6,Overcast,2016-07-06 11:47:00,59.0,,-,81,N/A,29.97,64.9,4:47 AM,,10.0,Calm,Calm,0,Los Angeles,California,90001
7,Overcast,2016-07-06 12:10:00,57.9,,-,78,N/A,29.98,64.9,5:10 AM,,10.0,Calm,Calm,0,Los Angeles,California,90001
8,Overcast,2016-07-06 12:27:00,59.0,,-,81,N/A,29.98,64.9,5:27 AM,,10.0,Calm,Calm,0,Los Angeles,California,90001
9,Overcast,2016-07-06 12:47:00,59.0,,-,81,N/A,29.99,64.9,5:47 AM,,10.0,Calm,Calm,0,Los Angeles,California,90001
10,Overcast,2016-07-06 13:47:00,59.0,,-,78,N/A,29.99,66.0,6:47 AM,,9.0,Calm,Calm,0,Los Angeles,California,90001
11,Overcast,2016-07-06 14:47:00,57.9,,-,73,N/A,30.00,66.9,7:47 AM,,9.0,Calm,Calm,0,Los Angeles,California,90001
12,Overcast,2016-07-06 15:47:00,57.9,,-,68,N/A,30.00,69.1,8:47 AM,,7.0,Calm,Calm,0,Los Angeles,California,90001
13,Overcast,2016-07-06 16:47:00,59.0,,-,68,N/A,29.99,70.0,9:47 AM,,8.0,Calm,Calm,0,Los Angeles,California,90001
14,Overcast,2016-07-06 17:47:00,59.0,,-,59,N/A,29.98,73.9,10:47 AM,,7.0,Variable,3.5,0,Los Angeles,California,90001
15,Scattered Clouds,2016-07-06 18:20:00,59.0,,-,56,N/A,29.98,75.9,11:20 AM,,7.0,Calm,Calm,0,Los Angeles,California,90001
16,Partly Cloudy,2016-07-06 18:47:00,59.0,,-,59,N/A,29.97,73.9,11:47 AM,,7.0,Calm,Calm,0,Los Angeles,California,90001
17,Clear,2016-07-06 19:47:00,60.1,,-,58,N/A,29.97,75.9,12:47 PM,,10.0,North,-9999.0,0,Los Angeles,California,90001
18,Clear,2016-07-06 20:47:00,59.0,,-,54,N/A,29.96,77.0,1:47 PM,,10.0,Variable,3.5,0,Los Angeles,California,90001
19,Clear,2016-07-06 21:47:00,59.0,,-,57,N/A,29.95,75.0,2:47 PM,,10.0,Variable,3.5,0,Los Angeles,California,90001
20,Clear,2016-07-06 22:47:00,59.0,,-,57,N/A,29.95,75.0,3:47 PM,,10.0,Variable,3.5,0,Los Angeles,California,90001
21,Clear,2016-07-06 23:47:00,59.0,,-,61,N/A,29.94,73.0,4:47 PM,,10.0,Variable,3.5,0,Los Angeles,California,90001
22,Clear,2016-07-07 00:47:00,60.1,,-,66,N/A,29.93,72.0,5:47 PM,,10.0,West,4.6,270,Los Angeles,California,90001
23,Clear,2016-07-07 01:47:00,59.0,,-,68,N/A,29.93,70.0,6:47 PM,,10.0,Variable,4.6,0,Los Angeles,California,90001
24,Clear,2016-07-07 02:47:00,59.0,,-,73,N/A,29.93,68.0,7:47 PM,,10.0,Variable,3.5,0,Los Angeles,California,90001
25,Clear,2016-07-07 03:47:00,59.0,,-,78,N/A,29.94,66.0,8:47 PM,,10.0,Variable,3.5,0,Los Angeles,California,90001
26,Clear,2016-07-07 04:47:00,59.0,,-,81,N/A,29.95,64.9,9:47 PM,,10.0,West,4.6,260,Los Angeles,California,90001
27,Clear,2016-07-07 05:47:00,59.0,,-,81,N/A,29.96,64.9,10:47 PM,,10.0,West,3.5,280,Los Angeles,California,90001
28,Clear,2016-07-07 06:47:00,59.0,,-,84,N/A,29.95,64.0,11:47 PM,,10.0,Calm,Calm,0,Los Angeles,California,90001
0,Mostly Cloudy,2016-07-07 07:30:00,59.0,,-,84,N/A,29.95,64.0,12:30 AM,,10.0,Calm,Calm,0,Los Angeles,California,90001
1,Overcast,2016-07-07 07:47:00,59.0,,-,84,N/A,29.94,64.0,12:47 AM,,10.0,Calm,Calm,0,Los Angeles,California,90001
2,Overcast,2016-07-07 08:47:00,59.0,,-,84,N/A,29.94,64.0,1:47 AM,,10.0,Calm,Calm,0,Los Angeles,California,90001
3,Overcast,2016-07-07 09:47:00,59.0,,-,81,N/A,29.93,64.9,2:47 AM,,10.0,Calm,Calm,0,Los Angeles,California,90001
4,Overcast,2016-07-07 10:47:00,59.0,,-,81,N/A,29.93,64.9,3:47 AM,,9.0,Calm,Calm,0,Los Angeles,California,90001
5,Overcast,2016-07-07 11:27:00,59.0,,-,78,N/A,29.93,66.0,4:27 AM,,9.0,Calm,Calm,0,Los Angeles,California,90001
6,Overcast,2016-07-07 11:47:00,59.0,,-,78,N/A,29.93,66.0,4:47 AM,,8.0,Calm,Calm,0,Los Angeles,California,90001
7,Overcast,2016-07-07 12:47:00,59.0,,-,76,N/A,29.93,66.9,5:47 AM,,8.0,Calm,Calm,0,Los Angeles,California,90001
8,Overcast,2016-07-07 13:47:00,59.0,,-,76,N/A,29.94,66.9,6:47 AM,,7.0,Calm,Calm,0,Los Angeles,California,90001
9,Overcast,2016-07-07 14:47:00,59.0,,-,76,N/A,29.96,66.9,7:47 AM,,7.0,Calm,Calm,0,Los Angeles,California,90001
10,Overcast,2016-07-07 15:47:00,57.9,,-,68,N/A,29.98,69.1,8:47 AM,,8.0,Calm,Calm,0,Los Angeles,California,90001
11,Mostly Cloudy,2016-07-07 16:47:00,59.0,,-,64,N/A,29.97,72.0,9:47 AM,,9.0,Calm,Calm,0,Los Angeles,California,90001
12,Scattered Clouds,2016-07-07 17:09:00,59.0,,-,59,N/A,29.97,73.9,10:09 AM,,9.0,Calm,Calm,0,Los Angeles,California,90001
13,Clear,2016-07-07 17:47:00,57.9,,-,55,N/A,29.96,75.0,10:47 AM,,9.0,Calm,Calm,0,Los Angeles,California,90001
14,Clear,2016-07-07 18:47:00,59.0,,-,50,N/A,29.95,79.0,11:47 AM,,10.0,Calm,Calm,0,Los Angeles,California,90001
15,Clear,2016-07-07 19:47:00,60.1,,-,52,N/A,29.94,79.0,12:47 PM,,10.0,Calm,Calm,0,Los Angeles,California,90001
16,Clear,2016-07-07 20:47:00,60.1,,-,52,N/A,29.93,79.0,1:47 PM,,10.0,WSW,5.8,250,Los Angeles,California,90001
17,Clear,2016-07-07 21:47:00,60.1,,-,58,N/A,29.93,75.9,2:47 PM,,10.0,Variable,4.6,0,Los Angeles,California,90001
18,Clear,2016-07-07 22:47:00,60.1,,-,60,N/A,29.92,75.0,3:47 PM,,10.0,Variable,5.8,0,Los Angeles,California,90001
19,Clear,2016-07-07 23:47:00,61.0,,-,62,N/A,29.91,75.0,4:47 PM,,10.0,Variable,3.5,0,Los Angeles,California,90001
20,Clear,2016-07-08 00:47:00,61.0,,-,62,N/A,29.91,75.0,5:47 PM,,10.0,West,5.8,270,Los Angeles,California,90001
21,Clear,2016-07-08 01:47:00,61.0,,-,68,N/A,29.90,72.0,6:47 PM,,10.0,Variable,3.5,0,Los Angeles,California,90001
22,Clear,2016-07-08 02:47:00,60.1,,-,73,N/A,29.91,69.1,7:47 PM,,10.0,West,3.5,260,Los Angeles,California,90001
23,Clear,2016-07-08 03:47:00,60.1,,-,81,N/A,29.93,66.0,8:47 PM,,10.0,Variable,3.5,0,Los Angeles,California,90001
24,Clear,2016-07-08 04:47:00,60.1,,-,81,N/A,29.94,66.0,9:47 PM,,10.0,Variable,4.6,0,Los Angeles,California,90001
25,Clear,2016-07-08 05:47:00,59.0,,-,81,N/A,29.96,64.9,10:47 PM,,10.0,West,3.5,270,Los Angeles,California,90001
26,Clear,2016-07-08 06:47:00,59.0,,-,81,N/A,29.95,64.9,11:47 PM,,10.0,Calm,Calm,0,Los Angeles,California,90001
0,Clear,2016-07-08 07:47:00,60.1,,-,87,N/A,29.95,64.0,12:47 AM,,9.0,Calm,Calm,0,Los Angeles,California,90001
1,Clear,2016-07-08 08:47:00,59.0,,-,87,N/A,29.95,63.0,1:47 AM,,8.0,Calm,Calm,0,Los Angeles,California,90001
2,Mostly Cloudy,2016-07-08 09:33:00,59.0,,-,87,N/A,29.96,63.0,2:33 AM,,10.0,Calm,Calm,0,Los Angeles,California,90001
3,Overcast,2016-07-08 09:47:00,59.0,,-,87,N/A,29.95,63.0,2:47 AM,,10.0,Calm,Calm,0,Los Angeles,California,90001
4,Overcast,2016-07-08 10:43:00,60.1,,-,87,N/A,29.95,64.0,3:43 AM,,8.0,Calm,Calm,0,Los Angeles,California,90001
5,Overcast,2016-07-08 10:47:00,60.1,,-,87,N/A,29.95,64.0,3:47 AM,,8.0,Calm,Calm,0,Los Angeles,California,90001
6,Overcast,2016-07-08 11:15:00,60.1,,-,87,N/A,29.96,64.0,4:15 AM,,8.0,Calm,Calm,0,Los Angeles,California,90001
7,Overcast,2016-07-08 11:47:00,60.1,,-,84,N/A,29.95,64.9,4:47 AM,,8.0,Calm,Calm,0,Los Angeles,California,90001
8,Overcast,2016-07-08 12:47:00,60.1,,-,84,N/A,29.96,64.9,5:47 AM,,7.0,Calm,Calm,0,Los Angeles,California,90001
9,Haze,2016-07-08 13:47:00,60.1,,-,81,N/A,29.97,66.0,6:47 AM,,5.0,Calm,Calm,0,Los Angeles,California,90001
10,Haze,2016-07-08 14:39:00,60.1,,-,79,N/A,29.98,66.9,7:39 AM,,5.0,Calm,Calm,0,Los Angeles,California,90001
11,Haze,2016-07-08 14:47:00,60.1,,-,79,N/A,29.98,66.9,7:47 AM,,5.0,Calm,Calm,0,Los Angeles,California,90001
12,Haze,2016-07-08 15:47:00,60.1,,-,73,N/A,29.99,69.1,8:47 AM,,5.0,East,3.5,100,Los Angeles,California,90001
13,Haze,2016-07-08 16:47:00,60.1,,-,71,N/A,29.99,70.0,9:47 AM,,6.0,Variable,3.5,0,Los Angeles,California,90001
14,Scattered Clouds,2016-07-08 17:25:00,62.1,,-,62,N/A,29.99,75.9,10:25 AM,,7.0,Calm,Calm,0,Los Angeles,California,90001
15,Partly Cloudy,2016-07-08 17:47:00,60.1,,-,60,N/A,29.99,75.0,10:47 AM,,8.0,Calm,Calm,0,Los Angeles,California,90001
16,Clear,2016-07-08 18:47:00,61.0,,-,54,N/A,29.97,79.0,11:47 AM,,10.0,Calm,Calm,0,Los Angeles,California,90001
17,Clear,2016-07-08 19:47:00,61.0,,-,49,N/A,29.96,82.0,12:47 PM,,10.0,North,-9999.0,0,Los Angeles,California,90001
18,Clear,2016-07-08 20:47:00,62.1,,-,58,N/A,29.95,78.1,1:47 PM,,10.0,Variable,3.5,0,Los Angeles,California,90001
19,Clear,2016-07-08 21:47:00,61.0,,-,58,N/A,29.94,77.0,2:47 PM,,10.0,Variable,5.8,0,Los Angeles,California,90001
20,Clear,2016-07-08 22:47:00,62.1,,-,62,N/A,29.94,75.9,3:47 PM,,10.0,Variable,3.5,0,Los Angeles,California,90001
21,Clear,2016-07-08 23:47:00,62.1,,-,66,N/A,29.93,73.9,4:47 PM,,10.0,West,6.9,270,Los Angeles,California,90001
22,Clear,2016-07-09 00:47:00,62.1,,-,64,N/A,29.92,75.0,5:47 PM,,10.0,Variable,4.6,0,Los Angeles,California,90001
23,Clear,2016-07-09 01:47:00,61.0,,-,66,N/A,29.93,73.0,6:47 PM,,10.0,West,8.1,270,Los Angeles,California,90001
24,Clear,2016-07-09 02:47:00,60.1,,-,71,N/A,29.93,70.0,7:47 PM,,10.0,West,5.8,280,Los Angeles,California,90001
25,Clear,2016-07-09 03:47:00,61.0,,-,81,N/A,29.94,66.9,8:47 PM,,10.0,Calm,Calm,0,Los Angeles,California,90001
26,Clear,2016-07-09 04:47:00,60.1,,-,84,N/A,29.97,64.9,9:47 PM,,10.0,Calm,Calm,0,Los Angeles,California,90001
27,Clear,2016-07-09 05:47:00,61.0,,-,87,N/A,29.97,64.9,10:47 PM,,10.0,Calm,Calm,0,Los Angeles,California,90001
28,Clear,2016-07-09 06:47:00,61.0,,-,87,N/A,29.98,64.9,11:47 PM,,10.0,Calm,Calm,0,Los Angeles,California,90001
0,Clear,2016-07-09 07:47:00,60.1,,-,84,N/A,29.98,64.9,12:47 AM,,10.0,Calm,Calm,0,Los Angeles,California,90001
1,Clear,2016-07-09 08:47:00,60.1,,-,87,N/A,29.98,64.0,1:47 AM,,10.0,Calm,Calm,0,Los Angeles,California,90001
2,Clear,2016-07-09 09:47:00,60.1,,-,87,N/A,29.97,64.0,2:47 AM,,10.0,Calm,Calm,0,Los Angeles,California,90001
3,Clear,2016-07-09 10:47:00,60.1,,-,87,N/A,29.97,64.0,3:47 AM,,10.0,Calm,Calm,0,Los Angeles,California,90001
4,Clear,2016-07-09 11:47:00,60.1,,-,90,N/A,29.98,63.0,4:47 AM,,10.0,Calm,Calm,0,Los Angeles,California,90001
5,Clear,2016-07-09 12:47:00,60.1,,-,90,N/A,29.99,63.0,5:47 AM,,9.0,Calm,Calm,0,Los Angeles,California,90001
6,Partly Cloudy,2016-07-09 13:47:00,60.1,,-,84,N/A,30.01,64.9,6:47 AM,,9.0,Calm,Calm,0,Los Angeles,California,90001
7,Mostly Cloudy,2016-07-09 13:57:00,60.1,,-,81,N/A,30.01,66.0,6:57 AM,,9.0,Calm,Calm,0,Los Angeles,California,90001
8,Scattered Clouds,2016-07-09 14:02:00,60.1,,-,81,N/A,30.01,66.0,7:02 AM,,9.0,Calm,Calm,0,Los Angeles,California,90001
9,Mostly Cloudy,2016-07-09 14:47:00,61.0,,-,81,N/A,30.01,66.9,7:47 AM,,7.0,Calm,Calm,0,Los Angeles,California,90001
10,Haze,2016-07-09 15:47:00,61.0,,-,78,N/A,30.03,68.0,8:47 AM,,6.0,Calm,Calm,0,Los Angeles,California,90001
11,Haze,2016-07-09 16:13:00,62.1,,-,71,N/A,30.02,72.0,9:13 AM,,6.0,Calm,Calm,0,Los Angeles,California,90001
12,Haze,2016-07-09 16:16:00,62.1,,-,71,N/A,30.02,72.0,9:16 AM,,6.0,Calm,Calm,0,Los Angeles,California,90001
13,Haze,2016-07-09 16:19:00,62.1,,-,71,N/A,30.02,72.0,9:19 AM,,6.0,Calm,Calm,0,Los Angeles,California,90001
14,Haze,2016-07-09 16:47:00,61.0,,-,66,N/A,30.02,73.0,9:47 AM,,6.0,Calm,Calm,0,Los Angeles,California,90001
15,Clear,2016-07-09 17:47:00,63.0,,-,60,N/A,30.02,78.1,10:47 AM,,7.0,Calm,Calm,0,Los Angeles,California,90001
16,Clear,2016-07-09 18:47:00,61.0,,-,50,N/A,30.01,81.0,11:47 AM,,8.0,SSE,5.8,150,Los Angeles,California,90001
17,Clear,2016-07-09 19:47:00,62.1,,-,47,N/A,29.99,84.0,12:47 PM,,10.0,Variable,3.5,0,Los Angeles,California,90001
18,Clear,2016-07-09 20:47:00,63.0,,-,62,N/A,30.00,77.0,1:47 PM,,10.0,Variable,3.5,0,Los Angeles,California,90001
19,Clear,2016-07-09 21:47:00,63.0,,-,60,N/A,29.99,78.1,2:47 PM,,10.0,Variable,3.5,0,Los Angeles,California,90001
20,Clear,2016-07-09 22:47:00,62.1,,-,58,N/A,29.97,78.1,3:47 PM,,10.0,Variable,3.5,0,Los Angeles,California,90001
21,Clear,2016-07-09 23:47:00,62.1,,-,60,N/A,29.96,77.0,4:47 PM,,10.0,West,8.1,270,Los Angeles,California,90001
22,Clear,2016-07-10 00:47:00,62.1,,-,60,N/A,29.94,77.0,5:47 PM,,10.0,Variable,5.8,0,Los Angeles,California,90001
23,Clear,2016-07-10 01:47:00,62.1,,-,64,N/A,29.94,75.0,6:47 PM,,10.0,Variable,6.9,0,Los Angeles,California,90001
24,Clear,2016-07-10 02:47:00,62.1,,-,73,N/A,29.94,71.1,7:47 PM,,10.0,West,4.6,280,Los Angeles,California,90001
25,Clear,2016-07-10 03:47:00,61.0,,-,75,N/A,29.95,69.1,8:47 PM,,10.0,Calm,Calm,0,Los Angeles,California,90001
26,Clear,2016-07-10 04:47:00,61.0,,-,78,N/A,29.96,68.0,9:47 PM,,10.0,Calm,Calm,0,Los Angeles,California,90001
27,Clear,2016-07-10 05:47:00,62.1,,-,84,N/A,29.97,66.9,10:47 PM,,10.0,Calm,Calm,0,Los Angeles,California,90001
28,Clear,2016-07-10 06:47:00,62.1,,-,84,N/A,29.97,66.9,11:47 PM,,10.0,Calm,Calm,0,Los Angeles,California,90001
0,Clear,2016-07-10 07:47:00,62.1,,-,84,N/A,29.96,66.9,12:47 AM,,10.0,Calm,Calm,0,Los Angeles,California,90001
1,Clear,2016-07-10 08:47:00,62.1,,-,84,N/A,29.96,66.9,1:47 AM,,10.0,Calm,Calm,0,Los Angeles,California,90001
2,Clear,2016-07-10 09:47:00,62.1,,-,87,N/A,29.96,66.0,2:47 AM,,10.0,West,3.5,270,Los Angeles,California,90001
3,Mostly Cloudy,2016-07-10 10:22:00,62.1,,-,87,N/A,29.97,66.0,3:22 AM,,10.0,Calm,Calm,0,Los Angeles,California,90001
4,Overcast,2016-07-10 10:47:00,62.1,,-,87,N/A,29.96,66.0,3:47 AM,,10.0,Calm,Calm,0,Los Angeles,California,90001
5,Overcast,2016-07-10 11:47:00,62.1,,-,84,N/A,29.96,66.9,4:47 AM,,10.0,Calm,Calm,0,Los Angeles,California,90001
6,Overcast,2016-07-10 12:47:00,62.1,,-,84,N/A,29.96,66.9,5:47 AM,,7.0,SSE,4.6,150,Los Angeles,California,90001
7,Haze,2016-07-10 13:47:00,61.0,,-,81,N/A,29.97,66.9,6:47 AM,,6.0,Calm,Calm,0,Los Angeles,California,90001
8,Overcast,2016-07-10 14:47:00,62.1,,-,81,N/A,29.97,68.0,7:47 AM,,7.0,Calm,Calm,0,Los Angeles,California,90001
9,Overcast,2016-07-10 15:47:00,62.1,,-,68,N/A,29.97,73.0,8:47 AM,,9.0,Calm,Calm,0,Los Angeles,California,90001
10,Overcast,2016-07-10 15:51:00,63.0,,-,71,N/A,29.98,73.0,8:51 AM,,9.0,Calm,Calm,0,Los Angeles,California,90001
11,Scattered Clouds,2016-07-10 16:19:00,62.1,,-,68,N/A,29.97,73.0,9:19 AM,,9.0,Calm,Calm,0,Los Angeles,California,90001
12,Clear,2016-07-10 16:47:00,63.0,,-,68,N/A,29.96,73.9,9:47 AM,,9.0,Calm,Calm,0,Los Angeles,California,90001
13,Clear,2016-07-10 17:47:00,63.0,,-,58,N/A,29.95,79.0,10:47 AM,,10.0,Variable,3.5,0,Los Angeles,California,90001
14,Clear,2016-07-10 18:47:00,63.0,,-,54,N/A,29.93,81.0,11:47 AM,,10.0,Variable,3.5,0,Los Angeles,California,90001
15,Clear,2016-07-10 19:47:00,62.1,,-,56,N/A,29.91,79.0,12:47 PM,,10.0,Calm,Calm,0,Los Angeles,California,90001
16,Clear,2016-07-10 20:47:00,62.1,,-,56,N/A,29.89,79.0,1:47 PM,,10.0,North,-9999.0,0,Los Angeles,California,90001
17,Clear,2016-07-10 21:47:00,62.1,,-,58,N/A,29.87,78.1,2:47 PM,,10.0,Variable,4.6,0,Los Angeles,California,90001
18,Clear,2016-07-10 22:47:00,62.1,,-,60,N/A,29.85,77.0,3:47 PM,,10.0,Variable,6.9,0,Los Angeles,California,90001
19,Clear,2016-07-10 23:47:00,60.1,,-,58,N/A,29.84,75.9,4:47 PM,,10.0,West,6.9,260,Los Angeles,California,90001
20,Clear,2016-07-11 00:47:00,57.9,,-,54,N/A,29.84,75.9,5:47 PM,,10.0,West,4.6,280,Los Angeles,California,90001
21,Clear,2016-07-11 01:47:00,57.9,,-,57,N/A,29.84,73.9,6:47 PM,,10.0,Calm,Calm,0,Los Angeles,California,90001
22,Clear,2016-07-11 02:47:00,57.9,,-,61,N/A,29.84,72.0,7:47 PM,,10.0,WNW,3.5,290,Los Angeles,California,90001
23,Clear,2016-07-11 03:47:00,59.0,,-,68,N/A,29.84,70.0,8:47 PM,,10.0,Calm,Calm,0,Los Angeles,California,90001
24,Clear,2016-07-11 04:47:00,60.1,,-,68,N/A,29.86,71.1,9:47 PM,,10.0,Calm,Calm,0,Los Angeles,California,90001
25,Clear,2016-07-11 05:47:00,59.0,,-,73,N/A,29.86,68.0,10:47 PM,,10.0,Calm,Calm,0,Los Angeles,California,90001
26,Clear,2016-07-11 06:47:00,59.0,,-,76,N/A,29.86,66.9,11:47 PM,,10.0,Calm,Calm,0,Los Angeles,California,90001
0,Clear,2016-07-11 07:47:00,60.1,,-,81,N/A,29.85,66.0,12:47 AM,,9.0,Calm,Calm,0,Los Angeles,California,90001
1,Clear,2016-07-11 08:47:00,60.1,,-,81,N/A,29.85,66.0,1:47 AM,,10.0,Calm,Calm,0,Los Angeles,California,90001
2,Clear,2016-07-11 09:47:00,60.1,,-,84,N/A,29.85,64.9,2:47 AM,,9.0,Calm,Calm,0,Los Angeles,California,90001
3,Clear,2016-07-11 10:47:00,60.1,,-,81,N/A,29.85,66.0,3:47 AM,,10.0,SE,3.5,140,Los Angeles,California,90001
4,Clear,2016-07-11 11:47:00,61.0,,-,84,N/A,29.86,66.0,4:47 AM,,10.0,Calm,Calm,0,Los Angeles,California,90001
5,Mostly Cloudy,2016-07-11 12:20:00,61.0,,-,84,N/A,29.87,66.0,5:20 AM,,10.0,Calm,Calm,0,Los Angeles,California,90001
6,Overcast,2016-07-11 12:47:00,61.0,,-,81,N/A,29.87,66.9,5:47 AM,,10.0,Calm,Calm,0,Los Angeles,California,90001
7,Overcast,2016-07-11 13:09:00,60.1,,-,79,N/A,29.88,66.9,6:09 AM,,10.0,Variable,4.6,0,Los Angeles,California,90001
8,Overcast,2016-07-11 13:47:00,60.1,,-,79,N/A,29.88,66.9,6:47 AM,,10.0,Calm,Calm,0,Los Angeles,California,90001
9,Overcast,2016-07-11 14:47:00,60.1,,-,76,N/A,29.89,68.0,7:47 AM,,10.0,East,3.5,80,Los Angeles,California,90001
10,Overcast,2016-07-11 15:47:00,60.1,,-,71,N/A,29.90,70.0,8:47 AM,,10.0,Calm,Calm,0,Los Angeles,California,90001
11,Mostly Cloudy,2016-07-11 16:47:00,60.1,,-,66,N/A,29.89,72.0,9:47 AM,,10.0,Calm,Calm,0,Los Angeles,California,90001
12,Scattered Clouds,2016-07-11 17:01:00,60.1,,-,60,N/A,29.89,75.0,10:01 AM,,10.0,Calm,Calm,0,Los Angeles,California,90001
13,Clear,2016-07-11 17:47:00,61.0,,-,58,N/A,29.88,77.0,10:47 AM,,10.0,Variable,4.6,0,Los Angeles,California,90001
14,Clear,2016-07-11 18:47:00,60.1,,-,50,N/A,29.87,80.1,11:47 AM,,10.0,SE,4.6,130,Los Angeles,California,90001
15,Clear,2016-07-11 19:47:00,61.0,,-,50,N/A,29.86,81.0,12:47 PM,,10.0,Variable,3.5,0,Los Angeles,California,90001
16,Clear,2016-07-11 20:47:00,61.0,,-,52,N/A,29.85,80.1,1:47 PM,,10.0,Variable,5.8,0,Los Angeles,California,90001
17,Clear,2016-07-11 21:47:00,60.1,,-,56,N/A,29.84,77.0,2:47 PM,,10.0,Variable,4.6,0,Los Angeles,California,90001
18,Clear,2016-07-11 22:47:00,60.1,,-,54,N/A,29.83,78.1,3:47 PM,,10.0,North,-9999.0,0,Los Angeles,California,90001
19,Clear,2016-07-11 23:47:00,60.1,,-,56,N/A,29.82,77.0,4:47 PM,,10.0,Calm,Calm,0,Los Angeles,California,90001
20,Clear,2016-07-12 00:47:00,62.1,,-,58,N/A,29.81,78.1,5:47 PM,,10.0,West,4.6,260,Los Angeles,California,90001
21,Clear,2016-07-12 01:47:00,61.0,,-,62,N/A,29.82,75.0,6:47 PM,,10.0,Variable,3.5,0,Los Angeles,California,90001
22,Clear,2016-07-12 02:47:00,60.1,,-,64,N/A,29.83,73.0,7:47 PM,,10.0,West,5.8,280,Los Angeles,California,90001
23,Clear,2016-07-12 03:47:00,60.1,,-,68,N/A,29.85,71.1,8:47 PM,,10.0,Calm,Calm,0,Los Angeles,California,90001
24,Clear,2016-07-12 04:47:00,60.1,,-,73,N/A,29.87,69.1,9:47 PM,,10.0,Calm,Calm,0,Los Angeles,California,90001
25,Clear,2016-07-12 05:47:00,59.0,,-,73,N/A,29.88,68.0,10:47 PM,,10.0,Calm,Calm,0,Los Angeles,California,90001
26,Clear,2016-07-12 06:47:00,57.0,,-,70,N/A,29.88,66.9,11:47 PM,,10.0,Calm,Calm,0,Los Angeles,California,90001
0,Clear,2016-07-12 07:47:00,57.9,,-,75,N/A,29.89,66.0,12:47 AM,,10.0,Calm,Calm,0,Los Angeles,California,90001
1,Mostly Cloudy,2016-07-12 08:29:00,59.0,,-,78,N/A,29.90,66.0,1:29 AM,,10.0,Calm,Calm,0,Los Angeles,California,90001
2,Overcast,2016-07-12 08:47:00,60.1,,-,81,N/A,29.89,66.0,1:47 AM,,10.0,Calm,Calm,0,Los Angeles,California,90001
3,Overcast,2016-07-12 08:52:00,60.1,,-,81,N/A,29.89,66.0,1:52 AM,,10.0,Calm,Calm,0,Los Angeles,California,90001
4,Overcast,2016-07-12 09:47:00,61.0,,-,81,N/A,29.89,66.9,2:47 AM,,9.0,Calm,Calm,0,Los Angeles,California,90001
5,Overcast,2016-07-12 10:47:00,61.0,,-,81,N/A,29.88,66.9,3:47 AM,,9.0,Calm,Calm,0,Los Angeles,California,90001
6,Overcast,2016-07-12 11:47:00,60.1,,-,76,N/A,29.88,68.0,4:47 AM,,10.0,Variable,3.5,0,Los Angeles,California,90001
7,Overcast,2016-07-12 12:47:00,60.1,,-,73,N/A,29.90,69.1,5:47 AM,,10.0,SE,4.6,130,Los Angeles,California,90001
8,Overcast,2016-07-12 13:47:00,59.0,,-,73,N/A,29.92,68.0,6:47 AM,,10.0,Variable,3.5,0,Los Angeles,California,90001
9,Overcast,2016-07-12 14:47:00,57.9,,-,68,N/A,29.92,69.1,7:47 AM,,10.0,SE,3.5,140,Los Angeles,California,90001
10,Overcast,2016-07-12 15:47:00,59.0,,-,66,N/A,29.94,71.1,8:47 AM,,10.0,Variable,3.5,0,Los Angeles,California,90001
11,Scattered Clouds,2016-07-12 16:40:00,57.9,,-,57,N/A,29.93,73.9,9:40 AM,,10.0,ESE,5.8,120,Los Angeles,California,90001
12,Partly Cloudy,2016-07-12 16:47:00,57.9,,-,59,N/A,29.93,73.0,9:47 AM,,9.0,Calm,Calm,0,Los Angeles,California,90001
13,Haze,2016-07-12 17:47:00,59.0,,-,54,N/A,29.93,77.0,10:47 AM,,5.0,Calm,Calm,0,Los Angeles,California,90001
14,Mostly Cloudy,2016-07-12 18:22:00,61.0,,-,64,N/A,29.93,73.9,11:22 AM,,10.0,Calm,Calm,0,Los Angeles,California,90001
15,Scattered Clouds,2016-07-12 18:27:00,62.1,,-,62,N/A,29.94,75.9,11:27 AM,,10.0,North,-9999.0,0,Los Angeles,California,90001
16,Mostly Cloudy,2016-07-12 18:36:00,62.1,,-,64,N/A,29.93,75.0,11:36 AM,,10.0,Calm,Calm,0,Los Angeles,California,90001
17,Scattered Clouds,2016-07-12 18:47:00,62.1,,-,62,N/A,29.93,75.9,11:47 AM,,10.0,Variable,3.5,0,Los Angeles,California,90001
18,Clear,2016-07-12 19:47:00,62.1,,-,56,N/A,29.91,79.0,12:47 PM,,10.0,Calm,Calm,0,Los Angeles,California,90001
19,Clear,2016-07-12 20:47:00,62.1,,-,60,N/A,29.90,77.0,1:47 PM,,10.0,Variable,6.9,0,Los Angeles,California,90001
20,Clear,2016-07-12 21:47:00,61.0,,-,62,N/A,29.89,75.0,2:47 PM,,10.0,Variable,3.5,0,Los Angeles,California,90001
21,Clear,2016-07-12 22:47:00,61.0,,-,60,N/A,29.88,75.9,3:47 PM,,10.0,Variable,4.6,0,Los Angeles,California,90001
22,Clear,2016-07-12 23:47:00,61.0,,-,62,N/A,29.88,75.0,4:47 PM,,10.0,Variable,3.5,0,Los Angeles,California,90001
23,Clear,2016-07-13 00:47:00,60.1,,-,62,N/A,29.86,73.9,5:47 PM,,10.0,Variable,3.5,0,Los Angeles,California,90001
24,Clear,2016-07-13 01:47:00,60.1,,-,62,N/A,29.86,73.9,6:47 PM,,10.0,West,5.8,260,Los Angeles,California,90001
25,Clear,2016-07-13 02:47:00,60.1,,-,71,N/A,29.87,70.0,7:47 PM,,10.0,Calm,Calm,0,Los Angeles,California,90001
26,Clear,2016-07-13 03:47:00,60.1,,-,76,N/A,29.89,68.0,8:47 PM,,10.0,Variable,3.5,0,Los Angeles,California,90001
27,Clear,2016-07-13 04:47:00,61.0,,-,81,N/A,29.91,66.9,9:47 PM,,10.0,Variable,4.6,0,Los Angeles,California,90001
28,Clear,2016-07-13 05:47:00,61.0,,-,84,N/A,29.91,66.0,10:47 PM,,10.0,Calm,Calm,0,Los Angeles,California,90001
29,Clear,2016-07-13 06:47:00,61.0,,-,84,N/A,29.91,66.0,11:47 PM,,10.0,Calm,Calm,0,Los Angeles,California,90001
0,Clear,2016-07-13 07:47:00,61.0,,-,87,N/A,29.91,64.9,12:47 AM,,8.0,Calm,Calm,0,Los Angeles,California,90001
1,Clear,2016-07-13 08:47:00,61.0,,-,90,N/A,29.91,64.0,1:47 AM,,7.0,Calm,Calm,0,Los Angeles,California,90001
2,Clear,2016-07-13 09:47:00,61.0,,-,87,N/A,29.92,64.9,2:47 AM,,9.0,Calm,Calm,0,Los Angeles,California,90001
3,Mostly Cloudy,2016-07-13 10:30:00,61.0,,-,90,N/A,29.93,64.0,3:30 AM,,9.0,Calm,Calm,0,Los Angeles,California,90001
4,Scattered Clouds,2016-07-13 10:33:00,61.0,,-,90,N/A,29.93,64.0,3:33 AM,,9.0,Calm,Calm,0,Los Angeles,California,90001
5,Mostly Cloudy,2016-07-13 10:37:00,61.0,,-,90,N/A,29.93,64.0,3:37 AM,,9.0,Calm,Calm,0,Los Angeles,California,90001
6,Mostly Cloudy,2016-07-13 10:47:00,61.0,,-,90,N/A,29.92,64.0,3:47 AM,,9.0,Calm,Calm,0,Los Angeles,California,90001
7,Overcast,2016-07-13 11:47:00,61.0,,-,87,N/A,29.92,64.9,4:47 AM,,8.0,Calm,Calm,0,Los Angeles,California,90001
8,Overcast,2016-07-13 12:47:00,61.0,,-,84,N/A,29.94,66.0,5:47 AM,,7.0,Calm,Calm,0,Los Angeles,California,90001
9,Haze,2016-07-13 13:47:00,61.0,,-,81,N/A,29.96,66.9,6:47 AM,,5.0,Calm,Calm,0,Los Angeles,California,90001
10,Haze,2016-07-13 14:22:00,61.0,,-,78,N/A,29.96,68.0,7:22 AM,,5.0,SSE,3.5,150,Los Angeles,California,90001
11,Haze,2016-07-13 15:40:00,61.0,,-,70,N/A,29.97,71.1,8:40 AM,,6.0,Calm,Calm,0,Los Angeles,California,90001
12,Clear,2016-07-13 16:47:00,61.0,,-,62,N/A,29.97,75.0,9:47 AM,,7.0,Variable,3.5,0,Los Angeles,California,90001
13,Clear,2016-07-13 18:47:00,62.1,,-,52,N/A,29.95,81.0,11:47 AM,,9.0,North,-9999.0,0,Los Angeles,California,90001
14,Clear,2016-07-13 19:47:00,63.0,,-,52,N/A,29.94,82.0,12:47 PM,,8.0,Variable,4.6,0,Los Angeles,California,90001
15,Clear,2016-07-13 20:47:00,62.1,,-,52,N/A,29.93,81.0,1:47 PM,,9.0,WSW,4.6,250,Los Angeles,California,90001
16,Clear,2016-07-13 21:47:00,62.1,,-,56,N/A,29.93,79.0,2:47 PM,,10.0,Variable,4.6,0,Los Angeles,California,90001
17,Clear,2016-07-13 22:47:00,62.1,,-,58,N/A,29.93,78.1,3:47 PM,,10.0,West,9.2,270,Los Angeles,California,90001
18,Clear,2016-07-13 23:47:00,63.0,,-,62,N/A,29.92,77.0,4:47 PM,,9.0,Variable,3.5,0,Los Angeles,California,90001
19,Clear,2016-07-14 00:47:00,63.0,,-,64,N/A,29.91,75.9,5:47 PM,,10.0,Variable,3.5,0,Los Angeles,California,90001
20,Clear,2016-07-14 01:47:00,62.1,,-,68,N/A,29.91,73.0,6:47 PM,,10.0,West,6.9,260,Los Angeles,California,90001
21,Clear,2016-07-14 02:47:00,62.1,,-,73,N/A,29.92,71.1,7:47 PM,,10.0,Calm,Calm,0,Los Angeles,California,90001
22,Clear,2016-07-14 03:47:00,62.1,,-,81,N/A,29.93,68.0,8:47 PM,,10.0,West,3.5,260,Los Angeles,California,90001
23,Clear,2016-07-14 04:47:00,62.1,,-,84,N/A,29.96,66.9,9:47 PM,,10.0,Calm,Calm,0,Los Angeles,California,90001
24,Clear,2016-07-14 05:47:00,61.0,,-,84,N/A,29.96,66.0,10:47 PM,,10.0,Variable,3.5,0,Los Angeles,California,90001
25,Clear,2016-07-14 06:47:00,61.0,,-,84,N/A,29.96,66.0,11:47 PM,,10.0,Calm,Calm,0,Los Angeles,California,90001
0,Clear,2016-07-14 07:47:00,61.0,,-,87,N/A,29.96,64.9,12:47 AM,,10.0,Calm,Calm,0,Los Angeles,California,90001
1,Clear,2016-07-14 08:47:00,61.0,,-,87,N/A,29.95,64.9,1:47 AM,,9.0,Calm,Calm,0,Los Angeles,California,90001
2,Clear,2016-07-14 09:47:00,61.0,,-,90,N/A,29.95,64.0,2:47 AM,,9.0,Calm,Calm,0,Los Angeles,California,90001
3,Clear,2016-07-14 10:47:00,60.1,,-,87,N/A,29.96,64.0,3:47 AM,,8.0,Calm,Calm,0,Los Angeles,California,90001
4,Partly Cloudy,2016-07-14 11:09:00,60.1,,-,87,N/A,29.97,64.0,4:09 AM,,8.0,Calm,Calm,0,Los Angeles,California,90001
5,Mostly Cloudy,2016-07-14 11:18:00,60.1,,-,87,N/A,29.97,64.0,4:18 AM,,8.0,Calm,Calm,0,Los Angeles,California,90001
6,Overcast,2016-07-14 11:47:00,61.0,,-,87,N/A,29.98,64.9,4:47 AM,,7.0,West,3.5,280,Los Angeles,California,90001
7,Overcast,2016-07-14 12:47:00,62.1,,-,90,N/A,29.99,64.9,5:47 AM,,5.0,Calm,Calm,0,Los Angeles,California,90001
8,Overcast,2016-07-14 13:47:00,62.1,,-,87,N/A,30.00,66.0,6:47 AM,,4.0,Calm,Calm,0,Los Angeles,California,90001
9,Haze,2016-07-14 14:47:00,62.1,,-,84,N/A,30.01,66.9,7:47 AM,,4.0,Calm,Calm,0,Los Angeles,California,90001
10,Haze,2016-07-14 15:03:00,62.1,,-,84,N/A,30.01,66.9,8:03 AM,,4.0,Calm,Calm,0,Los Angeles,California,90001
11,Haze,2016-07-14 15:47:00,63.0,,-,78,N/A,30.01,70.0,8:47 AM,,5.0,Calm,Calm,0,Los Angeles,California,90001
12,Haze,2016-07-14 15:56:00,63.0,,-,78,N/A,30.01,70.0,8:56 AM,,5.0,Calm,Calm,0,Los Angeles,California,90001
13,Haze,2016-07-14 16:05:00,63.0,,-,75,N/A,30.01,71.1,9:05 AM,,5.0,Calm,Calm,0,Los Angeles,California,90001
14,Haze,2016-07-14 16:31:00,62.1,,-,68,N/A,30.01,73.0,9:31 AM,,6.0,Variable,3.5,0,Los Angeles,California,90001
15,Haze,2016-07-14 16:47:00,62.1,,-,66,N/A,30.01,73.9,9:47 AM,,6.0,Calm,Calm,0,Los Angeles,California,90001
16,Clear,2016-07-14 17:47:00,62.1,,-,58,N/A,30.01,78.1,10:47 AM,,7.0,Calm,Calm,0,Los Angeles,California,90001
17,Clear,2016-07-14 18:47:00,63.0,,-,54,N/A,30.00,81.0,11:47 AM,,7.0,South,3.5,190,Los Angeles,California,90001
18,Clear,2016-07-14 19:47:00,63.0,,-,54,N/A,29.99,81.0,12:47 PM,,7.0,Calm,Calm,0,Los Angeles,California,90001
19,Clear,2016-07-14 20:47:00,62.1,,-,56,N/A,29.98,79.0,1:47 PM,,9.0,Variable,4.6,0,Los Angeles,California,90001
20,Clear,2016-07-14 21:47:00,61.0,,-,58,N/A,29.97,77.0,2:47 PM,,10.0,Variable,5.8,0,Los Angeles,California,90001
21,Clear,2016-07-14 22:47:00,62.1,,-,62,N/A,29.96,75.9,3:47 PM,,10.0,Variable,4.6,0,Los Angeles,California,90001
22,Clear,2016-07-14 23:47:00,62.1,,-,62,N/A,29.94,75.9,4:47 PM,,10.0,Variable,3.5,0,Los Angeles,California,90001
23,Clear,2016-07-15 00:47:00,61.0,,-,62,N/A,29.92,75.0,5:47 PM,,10.0,Variable,3.5,0,Los Angeles,California,90001
24,Clear,2016-07-15 01:47:00,60.1,,-,60,N/A,29.91,75.0,6:47 PM,,10.0,Variable,3.5,0,Los Angeles,California,90001
25,Clear,2016-07-15 02:47:00,61.0,,-,70,N/A,29.91,71.1,7:47 PM,,10.0,Variable,3.5,0,Los Angeles,California,90001
26,Clear,2016-07-15 03:47:00,61.0,,-,78,N/A,29.92,68.0,8:47 PM,,10.0,West,4.6,270,Los Angeles,California,90001
27,Clear,2016-07-15 04:47:00,62.1,,-,84,N/A,29.94,66.9,9:47 PM,,10.0,Variable,3.5,0,Los Angeles,California,90001
28,Partly Cloudy,2016-07-15 05:19:00,62.1,,-,84,N/A,29.95,66.9,10:19 PM,,10.0,Calm,Calm,0,Los Angeles,California,90001
29,Mostly Cloudy,2016-07-15 05:44:00,62.1,,-,84,N/A,29.95,66.9,10:44 PM,,8.0,Calm,Calm,0,Los Angeles,California,90001
30,Mostly Cloudy,2016-07-15 05:47:00,62.1,,-,84,N/A,29.94,66.9,10:47 PM,,8.0,Calm,Calm,0,Los Angeles,California,90001
31,Overcast,2016-07-15 06:47:00,62.1,,-,87,N/A,29.95,66.0,11:47 PM,,8.0,Calm,Calm,0,Los Angeles,California,90001
0,Overcast,2016-07-15 07:47:00,62.1,,-,90,N/A,29.95,64.9,12:47 AM,,5.0,Variable,3.5,0,Los Angeles,California,90001
1,Overcast,2016-07-15 08:47:00,61.0,,-,87,N/A,29.95,64.9,1:47 AM,,8.0,Calm,Calm,0,Los Angeles,California,90001
2,Overcast,2016-07-15 09:47:00,61.0,,-,90,N/A,29.94,64.0,2:47 AM,,9.0,Calm,Calm,0,Los Angeles,California,90001
3,Mostly Cloudy,2016-07-15 10:47:00,60.1,,-,87,N/A,29.95,64.0,3:47 AM,,8.0,Calm,Calm,0,Los Angeles,California,90001
4,Overcast,2016-07-15 11:47:00,60.1,,-,90,N/A,29.96,63.0,4:47 AM,,7.0,Calm,Calm,0,Los Angeles,California,90001
5,Scattered Clouds,2016-07-15 12:02:00,60.1,,-,90,N/A,29.97,63.0,5:02 AM,,6.0,Calm,Calm,0,Los Angeles,California,90001
6,Mostly Cloudy,2016-07-15 12:24:00,60.1,,-,90,N/A,29.97,63.0,5:24 AM,,6.0,Calm,Calm,0,Los Angeles,California,90001
7,Mostly Cloudy,2016-07-15 12:38:00,60.1,,-,90,N/A,29.97,63.0,5:38 AM,,6.0,Calm,Calm,0,Los Angeles,California,90001
8,Mostly Cloudy,2016-07-15 12:47:00,60.1,,-,90,N/A,29.97,63.0,5:47 AM,,6.0,Calm,Calm,0,Los Angeles,California,90001
9,Overcast,2016-07-15 13:08:00,60.1,,-,87,N/A,29.98,64.0,6:08 AM,,6.0,Calm,Calm,0,Los Angeles,California,90001
10,Haze,2016-07-15 13:47:00,60.1,,-,84,N/A,29.99,64.9,6:47 AM,,4.0,Calm,Calm,0,Los Angeles,California,90001
11,Haze,2016-07-15 14:47:00,60.1,,-,84,N/A,30.00,64.9,7:47 AM,,4.0,Calm,Calm,0,Los Angeles,California,90001
12,Haze,2016-07-15 15:47:00,60.1,,-,81,N/A,30.00,66.0,8:47 AM,,4.0,Calm,Calm,0,Los Angeles,California,90001
13,Haze,2016-07-15 16:30:00,60.1,,-,79,N/A,29.99,66.9,9:30 AM,,4.0,Calm,Calm,0,Los Angeles,California,90001
14,Haze,2016-07-15 16:47:00,61.0,,-,73,N/A,29.98,70.0,9:47 AM,,5.0,Calm,Calm,0,Los Angeles,California,90001
15,Haze,2016-07-15 17:10:00,61.0,,-,70,N/A,29.98,71.1,10:10 AM,,5.0,Calm,Calm,0,Los Angeles,California,90001
16,Haze,2016-07-15 17:47:00,60.1,,-,62,N/A,29.97,73.9,10:47 AM,,5.0,Variable,4.6,0,Los Angeles,California,90001
17,Haze,2016-07-15 18:47:00,61.0,,-,54,N/A,29.95,79.0,11:47 AM,,6.0,Calm,Calm,0,Los Angeles,California,90001
18,Clear,2016-07-15 19:47:00,61.0,,-,47,N/A,29.94,82.9,12:47 PM,,8.0,Variable,3.5,0,Los Angeles,California,90001
19,Clear,2016-07-15 20:47:00,62.1,,-,56,N/A,29.93,79.0,1:47 PM,,9.0,Variable,6.9,0,Los Angeles,California,90001
20,Clear,2016-07-15 21:47:00,61.0,,-,56,N/A,29.91,78.1,2:47 PM,,10.0,Variable,3.5,0,Los Angeles,California,90001
21,Clear,2016-07-15 22:47:00,61.0,,-,58,N/A,29.90,77.0,3:47 PM,,10.0,Variable,4.6,0,Los Angeles,California,90001
22,Clear,2016-07-15 23:47:00,61.0,,-,60,N/A,29.88,75.9,4:47 PM,,10.0,Variable,4.6,0,Los Angeles,California,90001
23,Clear,2016-07-16 00:47:00,60.1,,-,62,N/A,29.87,73.9,5:47 PM,,10.0,West,4.6,260,Los Angeles,California,90001
24,Clear,2016-07-16 01:47:00,60.1,,-,66,N/A,29.88,72.0,6:47 PM,,10.0,Variable,3.5,0,Los Angeles,California,90001
25,Clear,2016-07-16 02:47:00,60.1,,-,71,N/A,29.88,70.0,7:47 PM,,10.0,West,5.8,270,Los Angeles,California,90001
26,Clear,2016-07-16 03:47:00,61.0,,-,78,N/A,29.88,68.0,8:47 PM,,10.0,Variable,3.5,0,Los Angeles,California,90001
27,Mostly Cloudy,2016-07-16 04:39:00,62.1,,-,81,N/A,29.90,68.0,9:39 PM,,10.0,Calm,Calm,0,Los Angeles,California,90001
28,Mostly Cloudy,2016-07-16 04:47:00,62.1,,-,87,N/A,29.91,66.0,9:47 PM,,10.0,West,3.5,260,Los Angeles,California,90001
29,Overcast,2016-07-16 05:18:00,61.0,,-,84,N/A,29.92,66.0,10:18 PM,,10.0,Variable,3.5,0,Los Angeles,California,90001
30,Overcast,2016-07-16 05:47:00,61.0,,-,84,N/A,29.92,66.0,10:47 PM,,10.0,Variable,4.6,0,Los Angeles,California,90001
31,Overcast,2016-07-16 06:47:00,60.1,,-,84,N/A,29.92,64.9,11:47 PM,,10.0,Calm,Calm,0,Los Angeles,California,90001
0,Overcast,2016-07-16 07:47:00,60.1,,-,84,N/A,29.92,64.9,12:47 AM,,10.0,Calm,Calm,0,Los Angeles,California,90001
1,Overcast,2016-07-16 08:23:00,60.1,,-,84,N/A,29.93,64.9,1:23 AM,,10.0,Calm,Calm,0,Los Angeles,California,90001
2,Overcast,2016-07-16 08:47:00,59.0,,-,81,N/A,29.92,64.9,1:47 AM,,10.0,Calm,Calm,0,Los Angeles,California,90001
3,Scattered Clouds,2016-07-16 09:12:00,59.0,,-,84,N/A,29.92,64.0,2:12 AM,,10.0,Calm,Calm,0,Los Angeles,California,90001
4,Clear,2016-07-16 09:47:00,59.0,,-,84,N/A,29.92,64.0,2:47 AM,,9.0,Calm,Calm,0,Los Angeles,California,90001
5,Mostly Cloudy,2016-07-16 10:10:00,59.0,,-,84,N/A,29.93,64.0,3:10 AM,,9.0,Calm,Calm,0,Los Angeles,California,90001
6,Overcast,2016-07-16 10:38:00,59.0,,-,81,N/A,29.93,64.9,3:38 AM,,9.0,Calm,Calm,0,Los Angeles,California,90001
7,Overcast,2016-07-16 10:47:00,59.0,,-,81,N/A,29.92,64.9,3:47 AM,,8.0,Calm,Calm,0,Los Angeles,California,90001
8,Overcast,2016-07-16 11:47:00,60.1,,-,81,N/A,29.91,66.0,4:47 AM,,8.0,Calm,Calm,0,Los Angeles,California,90001
9,Overcast,2016-07-16 12:47:00,60.1,,-,81,N/A,29.92,66.0,5:47 AM,,7.0,Calm,Calm,0,Los Angeles,California,90001
10,Haze,2016-07-16 13:47:00,60.1,,-,79,N/A,29.93,66.9,6:47 AM,,5.0,Calm,Calm,0,Los Angeles,California,90001
11,Haze,2016-07-16 14:22:00,60.1,,-,79,N/A,29.94,66.9,7:22 AM,,5.0,Calm,Calm,0,Los Angeles,California,90001
12,Haze,2016-07-16 14:47:00,60.1,,-,79,N/A,29.93,66.9,7:47 AM,,5.0,Variable,3.5,0,Los Angeles,California,90001
13,Haze,2016-07-16 15:47:00,60.1,,-,71,N/A,29.94,70.0,8:47 AM,,5.0,Calm,Calm,0,Los Angeles,California,90001
14,Haze,2016-07-16 16:47:00,60.1,,-,71,N/A,29.96,70.0,9:47 AM,,5.0,Calm,Calm,0,Los Angeles,California,90001
15,Haze,2016-07-16 17:23:00,61.0,,-,66,N/A,29.96,73.0,10:23 AM,,6.0,Calm,Calm,0,Los Angeles,California,90001
16,Haze,2016-07-16 17:47:00,60.1,,-,62,N/A,29.95,73.9,10:47 AM,,6.0,Calm,Calm,0,Los Angeles,California,90001
17,Clear,2016-07-16 18:47:00,59.0,,-,52,N/A,29.93,78.1,11:47 AM,,7.0,Variable,3.5,0,Los Angeles,California,90001
18,Clear,2016-07-16 19:47:00,60.1,,-,50,N/A,29.91,80.1,12:47 PM,,9.0,Calm,Calm,0,Los Angeles,California,90001
19,Clear,2016-07-16 20:47:00,60.1,,-,50,N/A,29.90,80.1,1:47 PM,,10.0,Variable,5.8,0,Los Angeles,California,90001
20,Clear,2016-07-16 21:47:00,60.1,,-,56,N/A,29.88,77.0,2:47 PM,,10.0,Variable,4.6,0,Los Angeles,California,90001
21,Clear,2016-07-16 22:47:00,59.0,,-,57,N/A,29.88,75.0,3:47 PM,,10.0,Variable,5.8,0,Los Angeles,California,90001
22,Clear,2016-07-16 23:47:00,60.1,,-,60,N/A,29.87,75.0,4:47 PM,,10.0,Variable,4.6,0,Los Angeles,California,90001
23,Clear,2016-07-17 00:47:00,60.1,,-,62,N/A,29.86,73.9,5:47 PM,,10.0,West,9.2,270,Los Angeles,California,90001
24,Clear,2016-07-17 01:47:00,60.1,,-,66,N/A,29.86,72.0,6:47 PM,,10.0,Variable,3.5,0,Los Angeles,California,90001
25,Clear,2016-07-17 02:47:00,60.1,,-,73,N/A,29.87,69.1,7:47 PM,,10.0,West,5.8,270,Los Angeles,California,90001
26,Mostly Cloudy,2016-07-17 03:47:00,61.0,,-,81,N/A,29.88,66.9,8:47 PM,,10.0,Variable,4.6,0,Los Angeles,California,90001
27,Overcast,2016-07-17 04:47:00,61.0,,-,81,N/A,29.90,66.9,9:47 PM,,10.0,Calm,Calm,0,Los Angeles,California,90001
28,Scattered Clouds,2016-07-17 05:33:00,61.0,,-,81,N/A,29.91,66.9,10:33 PM,,10.0,Calm,Calm,0,Los Angeles,California,90001
29,Mostly Cloudy,2016-07-17 05:43:00,61.0,,-,81,N/A,29.91,66.9,10:43 PM,,10.0,Variable,3.5,0,Los Angeles,California,90001
30,Mostly Cloudy,2016-07-17 05:47:00,61.0,,-,81,N/A,29.91,66.9,10:47 PM,,10.0,West,3.5,270,Los Angeles,California,90001
31,Mostly Cloudy,2016-07-17 06:47:00,60.1,,-,84,N/A,29.91,64.9,11:47 PM,,10.0,WNW,3.5,290,Los Angeles,California,90001
0,Scattered Clouds,2016-07-17 07:17:00,60.1,,-,84,N/A,29.91,64.9,12:17 AM,,10.0,Calm,Calm,0,Los Angeles,California,90001
1,Partly Cloudy,2016-07-17 07:47:00,60.1,,-,84,N/A,29.91,64.9,12:47 AM,,10.0,Calm,Calm,0,Los Angeles,California,90001
2,Clear,2016-07-17 08:47:00,59.0,,-,84,N/A,29.90,64.0,1:47 AM,,10.0,Calm,Calm,0,Los Angeles,California,90001
3,Mostly Cloudy,2016-07-17 09:20:00,59.0,,-,84,N/A,29.91,64.0,2:20 AM,,10.0,Calm,Calm,0,Los Angeles,California,90001
4,Overcast,2016-07-17 09:47:00,60.1,,-,87,N/A,29.91,64.0,2:47 AM,,10.0,Calm,Calm,0,Los Angeles,California,90001
5,Overcast,2016-07-17 10:47:00,59.0,,-,84,N/A,29.90,64.0,3:47 AM,,10.0,Calm,Calm,0,Los Angeles,California,90001
6,Scattered Clouds,2016-07-17 11:39:00,59.0,,-,84,N/A,29.90,64.0,4:39 AM,,10.0,Calm,Calm,0,Los Angeles,California,90001
7,Partly Cloudy,2016-07-17 11:47:00,59.0,,-,84,N/A,29.90,64.0,4:47 AM,,10.0,Calm,Calm,0,Los Angeles,California,90001
8,Partly Cloudy,2016-07-17 12:47:00,59.0,,-,87,N/A,29.90,63.0,5:47 AM,,10.0,Calm,Calm,0,Los Angeles,California,90001
9,Mostly Cloudy,2016-07-17 12:55:00,59.0,,-,84,N/A,29.91,64.0,5:55 AM,,10.0,Calm,Calm,0,Los Angeles,California,90001
10,Overcast,2016-07-17 13:47:00,60.1,,-,84,N/A,29.91,64.9,6:47 AM,,9.0,Calm,Calm,0,Los Angeles,California,90001
11,Overcast,2016-07-17 14:47:00,60.1,,-,84,N/A,29.94,64.9,7:47 AM,,8.0,Calm,Calm,0,Los Angeles,California,90001
12,Overcast,2016-07-17 15:41:00,59.0,,-,76,N/A,29.95,66.9,8:41 AM,,9.0,Calm,Calm,0,Los Angeles,California,90001
13,Overcast,2016-07-17 15:47:00,59.0,,-,73,N/A,29.95,68.0,8:47 AM,,9.0,Calm,Calm,0,Los Angeles,California,90001
14,Scattered Clouds,2016-07-17 16:20:00,60.1,,-,66,N/A,29.95,72.0,9:20 AM,,10.0,Calm,Calm,0,Los Angeles,California,90001
15,Clear,2016-07-17 16:47:00,59.0,,-,66,N/A,29.94,71.1,9:47 AM,,10.0,Variable,3.5,0,Los Angeles,California,90001
16,Clear,2016-07-17 17:47:00,59.0,,-,57,N/A,29.95,75.0,10:47 AM,,10.0,Calm,Calm,0,Los Angeles,California,90001
17,Clear,2016-07-17 18:47:00,57.9,,-,48,N/A,29.95,79.0,11:47 AM,,10.0,Calm,Calm,0,Los Angeles,California,90001
18,Clear,2016-07-17 19:47:00,60.1,,-,50,N/A,29.94,80.1,12:47 PM,,10.0,West,5.8,270,Los Angeles,California,90001
19,Clear,2016-07-17 20:47:00,60.1,,-,52,N/A,29.94,79.0,1:47 PM,,10.0,Variable,3.5,0,Los Angeles,California,90001
20,Clear,2016-07-17 21:47:00,60.1,,-,56,N/A,29.94,77.0,2:47 PM,,10.0,Variable,3.5,0,Los Angeles,California,90001
21,Clear,2016-07-17 22:47:00,60.1,,-,56,N/A,29.92,77.0,3:47 PM,,10.0,WSW,4.6,250,Los Angeles,California,90001
22,Clear,2016-07-17 23:47:00,60.1,,-,58,N/A,29.92,75.9,4:47 PM,,10.0,West,5.8,260,Los Angeles,California,90001
23,Clear,2016-07-18 00:47:00,60.1,,-,62,N/A,29.92,73.9,5:47 PM,,10.0,Variable,3.5,0,Los Angeles,California,90001
24,Clear,2016-07-18 01:47:00,60.1,,-,68,N/A,29.93,71.1,6:47 PM,,10.0,West,3.5,280,Los Angeles,California,90001
25,Clear,2016-07-18 02:47:00,60.1,,-,73,N/A,29.94,69.1,7:47 PM,,10.0,Variable,3.5,0,Los Angeles,California,90001
26,Clear,2016-07-18 03:47:00,60.1,,-,79,N/A,29.96,66.9,8:47 PM,,10.0,Calm,Calm,0,Los Angeles,California,90001
27,Clear,2016-07-18 04:47:00,59.0,,-,73,N/A,29.98,68.0,9:47 PM,,10.0,West,4.6,280,Los Angeles,California,90001
28,Clear,2016-07-18 05:47:00,60.1,,-,81,N/A,30.00,66.0,10:47 PM,,10.0,Calm,Calm,0,Los Angeles,California,90001
29,Clear,2016-07-18 06:47:00,60.1,,-,84,N/A,30.01,64.9,11:47 PM,,10.0,Calm,Calm,0,Los Angeles,California,90001
0,Clear,2016-07-18 07:47:00,61.0,,-,87,N/A,30.00,64.9,12:47 AM,,10.0,Calm,Calm,0,Los Angeles,California,90001
1,Clear,2016-07-18 08:47:00,60.1,,-,84,N/A,29.99,64.9,1:47 AM,,7.0,Calm,Calm,0,Los Angeles,California,90001
2,Mostly Cloudy,2016-07-18 09:40:00,60.1,,-,84,N/A,29.99,64.9,2:40 AM,,7.0,Calm,Calm,0,Los Angeles,California,90001
3,Mostly Cloudy,2016-07-18 09:47:00,61.0,,-,87,N/A,29.99,64.9,2:47 AM,,6.0,Calm,Calm,0,Los Angeles,California,90001
4,Overcast,2016-07-18 10:03:00,60.1,,-,84,N/A,29.99,64.9,3:03 AM,,10.0,Calm,Calm,0,Los Angeles,California,90001
5,Overcast,2016-07-18 10:47:00,60.1,,-,81,N/A,29.99,66.0,3:47 AM,,9.0,Calm,Calm,0,Los Angeles,California,90001
6,Overcast,2016-07-18 11:47:00,60.1,,-,79,N/A,29.99,66.9,4:47 AM,,8.0,Calm,Calm,0,Los Angeles,California,90001
7,Overcast,2016-07-18 12:05:00,60.1,,-,79,N/A,30.00,66.9,5:05 AM,,8.0,Calm,Calm,0,Los Angeles,California,90001
8,Overcast,2016-07-18 12:47:00,60.1,,-,79,N/A,30.01,66.9,5:47 AM,,7.0,Calm,Calm,0,Los Angeles,California,90001
9,Overcast,2016-07-18 13:47:00,60.1,,-,79,N/A,30.01,66.9,6:47 AM,,9.0,Calm,Calm,0,Los Angeles,California,90001
10,Overcast,2016-07-18 14:47:00,59.0,,-,73,N/A,30.02,68.0,7:47 AM,,10.0,Variable,3.5,0,Los Angeles,California,90001
11,Scattered Clouds,2016-07-18 15:26:00,60.1,,-,71,N/A,30.02,70.0,8:26 AM,,9.0,Calm,Calm,0,Los Angeles,California,90001
12,Clear,2016-07-18 15:47:00,60.1,,-,66,N/A,30.02,72.0,8:47 AM,,10.0,West,3.5,270,Los Angeles,California,90001
13,Clear,2016-07-18 16:47:00,60.1,,-,62,N/A,30.01,73.9,9:47 AM,,10.0,Calm,Calm,0,Los Angeles,California,90001
14,Clear,2016-07-18 17:47:00,61.0,,-,52,N/A,30.01,80.1,10:47 AM,,10.0,Variable,3.5,0,Los Angeles,California,90001
15,Clear,2016-07-18 18:47:00,61.0,,-,52,N/A,30.01,80.1,11:47 AM,,10.0,Calm,Calm,0,Los Angeles,California,90001
16,Clear,2016-07-18 19:47:00,60.1,,-,50,N/A,30.01,80.1,12:47 PM,,10.0,Calm,Calm,0,Los Angeles,California,90001
17,Clear,2016-07-18 20:47:00,60.1,,-,49,N/A,30.00,81.0,1:47 PM,,10.0,North,-9999.0,0,Los Angeles,California,90001
18,Clear,2016-07-18 21:47:00,60.1,,-,52,N/A,29.98,79.0,2:47 PM,,10.0,Variable,3.5,0,Los Angeles,California,90001
19,Clear,2016-07-18 22:47:00,60.1,,-,52,N/A,29.97,79.0,3:47 PM,,10.0,Calm,Calm,0,Los Angeles,California,90001
20,Clear,2016-07-18 23:47:00,61.0,,-,58,N/A,29.96,77.0,4:47 PM,,10.0,Variable,4.6,0,Los Angeles,California,90001
21,Clear,2016-07-19 00:47:00,61.0,,-,60,N/A,29.95,75.9,5:47 PM,,10.0,Variable,3.5,0,Los Angeles,California,90001
22,Clear,2016-07-19 01:47:00,61.0,,-,66,N/A,29.96,73.0,6:47 PM,,10.0,West,4.6,260,Los Angeles,California,90001
23,Clear,2016-07-19 02:47:00,61.0,,-,70,N/A,29.97,71.1,7:47 PM,,10.0,Variable,4.6,0,Los Angeles,California,90001
24,Clear,2016-07-19 03:47:00,62.1,,-,81,N/A,29.99,68.0,8:47 PM,,10.0,Calm,Calm,0,Los Angeles,California,90001
25,Clear,2016-07-19 04:47:00,61.0,,-,78,N/A,30.01,68.0,9:47 PM,,10.0,WNW,3.5,290,Los Angeles,California,90001
26,Clear,2016-07-19 05:47:00,61.0,,-,81,N/A,30.01,66.9,10:47 PM,,10.0,WNW,3.5,290,Los Angeles,California,90001
27,Clear,2016-07-19 06:47:00,61.0,,-,84,N/A,30.01,66.0,11:47 PM,,10.0,Calm,Calm,0,Los Angeles,California,90001
0,Clear,2016-07-19 07:47:00,61.0,,-,84,N/A,30.01,66.0,12:47 AM,,10.0,Calm,Calm,0,Los Angeles,California,90001
1,Clear,2016-07-19 08:47:00,60.1,,-,84,N/A,30.01,64.9,1:47 AM,,10.0,Calm,Calm,0,Los Angeles,California,90001
2,Clear,2016-07-19 09:47:00,60.1,,-,84,N/A,30.00,64.9,2:47 AM,,10.0,Calm,Calm,0,Los Angeles,California,90001
3,Clear,2016-07-19 10:47:00,60.1,,-,84,N/A,30.00,64.9,3:47 AM,,10.0,Calm,Calm,0,Los Angeles,California,90001
4,Clear,2016-07-19 11:47:00,60.1,,-,84,N/A,30.00,64.9,4:47 AM,,10.0,Calm,Calm,0,Los Angeles,California,90001
5,Clear,2016-07-19 12:47:00,60.1,,-,87,N/A,30.00,64.0,5:47 AM,,10.0,Calm,Calm,0,Los Angeles,California,90001
6,Clear,2016-07-19 13:47:00,60.1,,-,81,N/A,30.01,66.0,6:47 AM,,10.0,Calm,Calm,0,Los Angeles,California,90001
7,Clear,2016-07-19 14:47:00,61.0,,-,73,N/A,30.00,70.0,7:47 AM,,10.0,Calm,Calm,0,Los Angeles,California,90001
8,Clear,2016-07-19 15:47:00,61.0,,-,64,N/A,30.00,73.9,8:47 AM,,9.0,Calm,Calm,0,Los Angeles,California,90001
9,Clear,2016-07-19 16:47:00,61.0,,-,54,N/A,29.99,79.0,9:47 AM,,10.0,Calm,Calm,0,Los Angeles,California,90001
10,Clear,2016-07-19 17:47:00,62.1,,-,52,N/A,29.99,81.0,10:47 AM,,10.0,Calm,Calm,0,Los Angeles,California,90001
11,Clear,2016-07-19 18:47:00,62.1,,-,52,N/A,29.99,81.0,11:47 AM,,10.0,West,4.6,260,Los Angeles,California,90001
12,Clear,2016-07-19 19:47:00,61.0,,-,50,N/A,29.99,81.0,12:47 PM,,10.0,Variable,5.8,0,Los Angeles,California,90001
13,Clear,2016-07-19 20:47:00,60.1,,-,49,N/A,29.97,81.0,1:47 PM,,10.0,Variable,3.5,0,Los Angeles,California,90001
14,Clear,2016-07-19 21:47:00,60.1,,-,49,N/A,29.96,81.0,2:47 PM,,10.0,West,6.9,280,Los Angeles,California,90001
15,Clear,2016-07-19 22:47:00,59.0,,-,47,N/A,29.94,81.0,3:47 PM,,10.0,Variable,4.6,0,Los Angeles,California,90001
16,Clear,2016-07-19 23:47:00,57.9,,-,47,N/A,29.93,80.1,4:47 PM,,10.0,West,8.1,270,Los Angeles,California,90001
17,Clear,2016-07-20 00:47:00,55.9,,-,45,N/A,29.91,79.0,5:47 PM,,10.0,West,4.6,270,Los Angeles,California,90001
18,Clear,2016-07-20 01:47:00,57.9,,-,55,N/A,29.90,75.0,6:47 PM,,10.0,Variable,3.5,0,Los Angeles,California,90001
19,Clear,2016-07-20 02:47:00,60.1,,-,66,N/A,29.91,72.0,7:47 PM,,10.0,West,3.5,280,Los Angeles,California,90001
20,Clear,2016-07-20 03:47:00,61.0,,-,73,N/A,29.93,70.0,8:47 PM,,10.0,Calm,Calm,0,Los Angeles,California,90001
21,Clear,2016-07-20 04:47:00,61.0,,-,73,N/A,29.94,70.0,9:47 PM,,10.0,Calm,Calm,0,Los Angeles,California,90001
22,Clear,2016-07-20 05:47:00,61.0,,-,73,N/A,29.96,70.0,10:47 PM,,10.0,Calm,Calm,0,Los Angeles,California,90001
23,Clear,2016-07-20 06:47:00,61.0,,-,75,N/A,29.98,69.1,11:47 PM,,10.0,Calm,Calm,0,Los Angeles,California,90001
0,Clear,2016-07-20 07:47:00,61.0,,-,75,N/A,29.96,69.1,12:47 AM,,10.0,Calm,Calm,0,Los Angeles,California,90001
1,Clear,2016-07-20 08:47:00,61.0,,-,81,N/A,29.96,66.9,1:47 AM,,10.0,Calm,Calm,0,Los Angeles,California,90001
2,Clear,2016-07-20 09:47:00,61.0,,-,78,N/A,29.95,68.0,2:47 AM,,10.0,Calm,Calm,0,Los Angeles,California,90001
3,Clear,2016-07-20 10:47:00,60.1,,-,79,N/A,29.95,66.9,3:47 AM,,10.0,Calm,Calm,0,Los Angeles,California,90001
4,Clear,2016-07-20 11:47:00,61.0,,-,81,N/A,29.95,66.9,4:47 AM,,10.0,Calm,Calm,0,Los Angeles,California,90001
5,Clear,2016-07-20 12:47:00,60.1,,-,79,N/A,29.95,66.9,5:47 AM,,10.0,Calm,Calm,0,Los Angeles,California,90001
6,Clear,2016-07-20 13:47:00,61.0,,-,78,N/A,29.95,68.0,6:47 AM,,10.0,Calm,Calm,0,Los Angeles,California,90001
7,Clear,2016-07-20 14:47:00,63.0,,-,73,N/A,29.96,72.0,7:47 AM,,9.0,Calm,Calm,0,Los Angeles,California,90001
8,Clear,2016-07-20 15:47:00,63.0,,-,66,N/A,29.96,75.0,8:47 AM,,8.0,Calm,Calm,0,Los Angeles,California,90001
9,Clear,2016-07-20 16:47:00,63.0,,-,54,N/A,29.95,81.0,9:47 AM,,10.0,Calm,Calm,0,Los Angeles,California,90001
10,Clear,2016-07-20 17:47:00,59.0,,-,41,N/A,29.94,84.9,10:47 AM,,10.0,Calm,Calm,0,Los Angeles,California,90001
11,Clear,2016-07-20 18:47:00,63.0,,-,44,N/A,29.94,87.1,11:47 AM,,10.0,Calm,Calm,0,Los Angeles,California,90001
12,Clear,2016-07-20 19:47:00,60.1,,-,41,N/A,29.93,86.0,12:47 PM,,10.0,Variable,3.5,0,Los Angeles,California,90001
13,Clear,2016-07-20 20:47:00,57.0,,-,36,N/A,29.92,87.1,1:47 PM,,10.0,Variable,4.6,0,Los Angeles,California,90001
14,Clear,2016-07-20 21:47:00,55.0,,17.3,37,N/A,29.92,84.0,2:47 PM,,10.0,West,10.4,280,Los Angeles,California,90001
15,Clear,2016-07-20 22:47:00,52.0,,-,33,N/A,29.91,84.0,3:47 PM,,10.0,Variable,4.6,0,Los Angeles,California,90001
16,Clear,2016-07-20 23:47:00,53.1,,-,34,N/A,29.90,84.0,4:47 PM,,10.0,Variable,4.6,0,Los Angeles,California,90001
17,Clear,2016-07-21 00:47:00,55.0,,-,39,N/A,29.88,82.0,5:47 PM,,10.0,West,4.6,260,Los Angeles,California,90001
18,Clear,2016-07-21 01:47:00,53.1,,-,39,N/A,29.89,80.1,6:47 PM,,10.0,West,3.5,260,Los Angeles,California,90001
19,Clear,2016-07-21 02:47:00,55.9,,-,48,N/A,29.89,77.0,7:47 PM,,10.0,Calm,Calm,0,Los Angeles,California,90001
20,Clear,2016-07-21 03:47:00,57.0,,-,55,N/A,29.89,73.9,8:47 PM,,10.0,Calm,Calm,0,Los Angeles,California,90001
21,Clear,2016-07-21 04:47:00,57.0,,-,57,N/A,29.91,73.0,9:47 PM,,10.0,Calm,Calm,0,Los Angeles,California,90001
22,Clear,2016-07-21 05:47:00,59.0,,-,66,N/A,29.92,71.1,10:47 PM,,10.0,Calm,Calm,0,Los Angeles,California,90001
23,Clear,2016-07-21 06:47:00,59.0,,-,64,N/A,29.92,72.0,11:47 PM,,10.0,Calm,Calm,0,Los Angeles,California,90001
0,Clear,2016-07-21 07:47:00,59.0,,-,66,N/A,29.93,71.1,12:47 AM,,10.0,Calm,Calm,0,Los Angeles,California,90001
1,Clear,2016-07-21 08:47:00,60.1,,-,71,N/A,29.92,70.0,1:47 AM,,10.0,Calm,Calm,0,Los Angeles,California,90001
2,Clear,2016-07-21 09:47:00,59.0,,-,70,N/A,29.91,69.1,2:47 AM,,10.0,Calm,Calm,0,Los Angeles,California,90001
3,Clear,2016-07-21 10:47:00,59.0,,-,73,N/A,29.91,68.0,3:47 AM,,10.0,Calm,Calm,0,Los Angeles,California,90001
4,Clear,2016-07-21 11:47:00,59.0,,-,73,N/A,29.92,68.0,4:47 AM,,10.0,Calm,Calm,0,Los Angeles,California,90001
5,Clear,2016-07-21 12:47:00,59.0,,-,73,N/A,29.92,68.0,5:47 AM,,10.0,Calm,Calm,0,Los Angeles,California,90001
6,Clear,2016-07-21 13:47:00,60.1,,-,73,N/A,29.93,69.1,6:47 AM,,10.0,Calm,Calm,0,Los Angeles,California,90001
7,Clear,2016-07-21 14:47:00,60.1,,-,60,N/A,29.94,75.0,7:47 AM,,10.0,Calm,Calm,0,Los Angeles,California,90001
8,Clear,2016-07-21 15:47:00,59.0,,-,50,N/A,29.94,79.0,8:47 AM,,9.0,Calm,Calm,0,Los Angeles,California,90001
9,Clear,2016-07-21 16:47:00,57.9,,-,41,N/A,29.94,84.0,9:47 AM,,10.0,Calm,Calm,0,Los Angeles,California,90001
10,Clear,2016-07-21 17:47:00,59.0,,-,36,N/A,29.94,89.1,10:47 AM,,10.0,Calm,Calm,0,Los Angeles,California,90001
11,Clear,2016-07-21 18:47:00,59.0,,-,35,N/A,29.95,90.0,11:47 AM,,10.0,Calm,Calm,0,Los Angeles,California,90001
12,Clear,2016-07-21 19:47:00,59.0,,-,35,N/A,29.94,90.0,12:47 PM,,10.0,Calm,Calm,0,Los Angeles,California,90001
13,Clear,2016-07-21 20:47:00,55.9,,-,30,N/A,29.93,91.0,1:47 PM,,10.0,West,3.5,260,Los Angeles,California,90001
14,Clear,2016-07-21 21:47:00,52.0,,-,30,N/A,29.91,87.1,2:47 PM,,10.0,West,5.8,280,Los Angeles,California,90001
15,Clear,2016-07-21 22:47:00,55.0,,-,36,N/A,29.90,84.9,3:47 PM,,10.0,Variable,5.8,0,Los Angeles,California,90001
16,Clear,2016-07-21 23:47:00,55.0,,-,36,N/A,29.90,84.9,4:47 PM,,10.0,West,5.8,270,Los Angeles,California,90001
17,Clear,2016-07-22 00:47:00,54.0,,-,37,N/A,29.89,82.9,5:47 PM,,10.0,Variable,3.5,0,Los Angeles,California,90001
18,Clear,2016-07-22 01:47:00,55.0,,-,42,N/A,29.89,80.1,6:47 PM,,10.0,Calm,Calm,0,Los Angeles,California,90001
19,Clear,2016-07-22 02:47:00,57.0,,-,52,N/A,29.89,75.9,7:47 PM,,10.0,Calm,Calm,0,Los Angeles,California,90001
20,Clear,2016-07-22 03:47:00,59.0,,-,59,N/A,29.90,73.9,8:47 PM,,10.0,Calm,Calm,0,Los Angeles,California,90001
21,Clear,2016-07-22 04:47:00,59.0,,-,61,N/A,29.91,73.0,9:47 PM,,10.0,Calm,Calm,0,Los Angeles,California,90001
22,Clear,2016-07-22 05:47:00,59.0,,-,59,N/A,29.91,73.9,10:47 PM,,10.0,Calm,Calm,0,Los Angeles,California,90001
23,Clear,2016-07-22 06:47:00,57.9,,-,57,N/A,29.92,73.9,11:47 PM,,10.0,Variable,3.5,0,Los Angeles,California,90001
0,Clear,2016-07-22 07:47:00,57.0,,-,61,N/A,29.91,71.1,12:47 AM,,10.0,Calm,Calm,0,Los Angeles,California,90001
1,Clear,2016-07-22 08:47:00,57.9,,-,65,N/A,29.90,70.0,1:47 AM,,10.0,Calm,Calm,0,Los Angeles,California,90001
2,Clear,2016-07-22 09:47:00,57.0,,-,63,N/A,29.89,70.0,2:47 AM,,10.0,Calm,Calm,0,Los Angeles,California,90001
3,Clear,2016-07-22 10:47:00,57.0,,-,63,N/A,29.89,70.0,3:47 AM,,10.0,Calm,Calm,0,Los Angeles,California,90001
4,Clear,2016-07-22 11:47:00,57.0,,-,65,N/A,29.89,69.1,4:47 AM,,10.0,Calm,Calm,0,Los Angeles,California,90001
5,Clear,2016-07-22 12:47:00,57.0,,-,68,N/A,29.90,68.0,5:47 AM,,10.0,Calm,Calm,0,Los Angeles,California,90001
6,Clear,2016-07-22 13:47:00,57.9,,-,65,N/A,29.91,70.0,6:47 AM,,10.0,Calm,Calm,0,Los Angeles,California,90001
7,Clear,2016-07-22 14:47:00,59.0,,-,56,N/A,29.94,75.9,7:47 AM,,10.0,Calm,Calm,0,Los Angeles,California,90001
8,Clear,2016-07-22 15:47:00,60.1,,-,52,N/A,29.94,79.0,8:47 AM,,10.0,Calm,Calm,0,Los Angeles,California,90001
9,Clear,2016-07-22 16:47:00,59.0,,-,41,N/A,29.93,84.9,9:47 AM,,10.0,Calm,Calm,0,Los Angeles,California,90001
10,Clear,2016-07-22 17:47:00,57.0,,-,33,N/A,29.92,90.0,10:47 AM,,10.0,Calm,Calm,0,Los Angeles,California,90001
11,Clear,2016-07-22 18:47:00,54.0,,-,25,N/A,29.91,95.0,11:47 AM,,10.0,Calm,Calm,0,Los Angeles,California,90001
12,Clear,2016-07-22 19:47:00,59.0,,-,31,N/A,29.90,93.9,12:47 PM,,10.0,Variable,3.5,0,Los Angeles,California,90001
13,Clear,2016-07-22 20:47:00,55.9,,-,30,N/A,29.88,91.9,1:47 PM,,10.0,West,5.8,260,Los Angeles,California,90001
14,Clear,2016-07-22 21:47:00,53.1,,-,27,N/A,29.86,91.9,2:47 PM,,10.0,Variable,3.5,0,Los Angeles,California,90001
15,Clear,2016-07-22 22:47:00,54.0,,-,31,N/A,29.84,88.0,3:47 PM,,10.0,WSW,4.6,250,Los Angeles,California,90001
16,Clear,2016-07-22 23:47:00,54.0,,-,32,N/A,29.82,87.1,4:47 PM,,10.0,Calm,Calm,0,Los Angeles,California,90001
17,Clear,2016-07-23 00:47:00,51.1,,-,27,N/A,29.80,89.1,5:47 PM,,10.0,West,4.6,280,Los Angeles,California,90001
18,Clear,2016-07-23 01:47:00,57.0,,-,41,N/A,29.80,82.9,6:47 PM,,10.0,Variable,3.5,0,Los Angeles,California,90001
19,Clear,2016-07-23 02:47:00,57.9,,-,48,N/A,29.81,79.0,7:47 PM,,10.0,Calm,Calm,0,Los Angeles,California,90001
20,Clear,2016-07-23 03:47:00,59.0,,-,54,N/A,29.81,77.0,8:47 PM,,10.0,Calm,Calm,0,Los Angeles,California,90001
21,Clear,2016-07-23 04:47:00,60.1,,-,56,N/A,29.81,77.0,9:47 PM,,10.0,Calm,Calm,0,Los Angeles,California,90001
22,Clear,2016-07-23 05:47:00,61.0,,-,58,N/A,29.81,77.0,10:47 PM,,10.0,Calm,Calm,0,Los Angeles,California,90001
23,Clear,2016-07-23 06:47:00,60.1,,-,60,N/A,29.81,75.0,11:47 PM,,10.0,Calm,Calm,0,Los Angeles,California,90001
0,Clear,2016-07-23 07:47:00,59.0,,-,59,N/A,29.80,73.9,12:47 AM,,10.0,Calm,Calm,0,Los Angeles,California,90001
1,Mostly Cloudy,2016-07-23 08:47:00,59.0,,-,59,N/A,29.79,73.9,1:47 AM,,10.0,Calm,Calm,0,Los Angeles,California,90001
2,Overcast,2016-07-23 09:47:00,61.0,,-,62,N/A,29.79,75.0,2:47 AM,,10.0,Calm,Calm,0,Los Angeles,California,90001
3,Overcast,2016-07-23 10:47:00,62.1,,-,68,N/A,29.78,73.0,3:47 AM,,10.0,Calm,Calm,0,Los Angeles,California,90001
4,Overcast,2016-07-23 11:47:00,63.0,,-,75,N/A,29.79,71.1,4:47 AM,,10.0,Calm,Calm,0,Los Angeles,California,90001
5,Overcast,2016-07-23 12:47:00,63.0,,-,73,N/A,29.80,72.0,5:47 AM,,10.0,Calm,Calm,0,Los Angeles,California,90001
6,Overcast,2016-07-23 13:47:00,62.1,,-,68,N/A,29.80,73.0,6:47 AM,,10.0,Calm,Calm,0,Los Angeles,California,90001
7,Overcast,2016-07-23 14:47:00,63.0,,-,66,N/A,29.80,75.0,7:47 AM,,10.0,Calm,Calm,0,Los Angeles,California,90001
8,Overcast,2016-07-23 15:47:00,63.0,,-,62,N/A,29.81,77.0,8:47 AM,,10.0,Calm,Calm,0,Los Angeles,California,90001
9,Clear,2016-07-23 16:47:00,61.0,,-,43,N/A,29.81,86.0,9:47 AM,,10.0,Calm,Calm,0,Los Angeles,California,90001
10,Clear,2016-07-23 17:47:00,60.1,,-,37,N/A,29.80,90.0,10:47 AM,,10.0,Variable,3.5,0,Los Angeles,California,90001
11,Clear,2016-07-23 18:47:00,60.1,,-,33,N/A,29.78,93.0,11:47 AM,,10.0,Calm,Calm,0,Los Angeles,California,90001
12,Clear,2016-07-23 19:47:00,63.0,,-,37,N/A,29.78,93.0,12:47 PM,,10.0,Variable,3.5,0,Los Angeles,California,90001
13,Clear,2016-07-23 20:47:00,64.9,,-,42,N/A,29.78,91.0,1:47 PM,,10.0,Variable,3.5,0,Los Angeles,California,90001
14,Clear,2016-07-23 21:47:00,63.0,,-,42,N/A,29.78,89.1,2:47 PM,,10.0,Calm,Calm,0,Los Angeles,California,90001
15,Clear,2016-07-23 22:47:00,64.0,,-,48,N/A,29.78,86.0,3:47 PM,,10.0,North,-9999.0,0,Los Angeles,California,90001
16,Clear,2016-07-23 23:47:00,66.9,,-,55,N/A,29.78,84.9,4:47 PM,,10.0,Variable,3.5,0,Los Angeles,California,90001
17,Clear,2016-07-24 00:47:00,66.9,,-,64,N/A,29.79,80.1,5:47 PM,,10.0,WNW,4.6,290,Los Angeles,California,90001
18,Clear,2016-07-24 01:47:00,66.0,,-,66,N/A,29.79,78.1,6:47 PM,,10.0,Calm,Calm,0,Los Angeles,California,90001
19,Clear,2016-07-24 02:47:00,63.0,,-,62,N/A,29.80,77.0,7:47 PM,,10.0,Variable,4.6,0,Los Angeles,California,90001
20,Clear,2016-07-24 03:47:00,64.0,,-,69,N/A,29.81,75.0,8:47 PM,,10.0,Variable,3.5,0,Los Angeles,California,90001
21,Clear,2016-07-24 04:47:00,64.9,,-,71,N/A,29.83,75.0,9:47 PM,,10.0,Calm,Calm,0,Los Angeles,California,90001
22,Clear,2016-07-24 05:47:00,64.9,,-,71,N/A,29.82,75.0,10:47 PM,,10.0,Calm,Calm,0,Los Angeles,California,90001
23,Clear,2016-07-24 06:47:00,64.9,,-,76,N/A,29.82,73.0,11:47 PM,,9.0,Calm,Calm,0,Los Angeles,California,90001
0,Clear,2016-07-24 07:47:00,64.9,,-,76,N/A,29.80,73.0,12:47 AM,,9.0,Calm,Calm,0,Los Angeles,California,90001
1,Clear,2016-07-24 08:47:00,64.9,,-,78,N/A,29.80,72.0,1:47 AM,,9.0,Calm,Calm,0,Los Angeles,California,90001
2,Clear,2016-07-24 09:47:00,64.9,,-,81,N/A,29.80,71.1,2:47 AM,,9.0,Calm,Calm,0,Los Angeles,California,90001
3,Clear,2016-07-24 10:47:00,64.0,,-,81,N/A,29.80,70.0,3:47 AM,,9.0,Calm,Calm,0,Los Angeles,California,90001
4,Clear,2016-07-24 11:47:00,64.0,,-,81,N/A,29.81,70.0,4:47 AM,,8.0,Calm,Calm,0,Los Angeles,California,90001
5,Clear,2016-07-24 12:47:00,64.0,,-,81,N/A,29.83,70.0,5:47 AM,,9.0,Calm,Calm,0,Los Angeles,California,90001
6,Clear,2016-07-24 13:47:00,64.9,,-,81,N/A,29.85,71.1,6:47 AM,,8.0,Calm,Calm,0,Los Angeles,California,90001
7,Clear,2016-07-24 14:47:00,66.0,,-,73,N/A,29.86,75.0,7:47 AM,,9.0,Calm,Calm,0,Los Angeles,California,90001
8,Clear,2016-07-24 15:47:00,64.0,,-,62,N/A,29.87,78.1,8:47 AM,,10.0,Calm,Calm,0,Los Angeles,California,90001
9,Clear,2016-07-24 16:47:00,64.9,,-,60,N/A,29.89,80.1,9:47 AM,,10.0,Variable,4.6,0,Los Angeles,California,90001
10,Clear,2016-07-24 17:47:00,66.0,,-,56,N/A,29.91,82.9,10:47 AM,,10.0,Variable,4.6,0,Los Angeles,California,90001
11,Clear,2016-07-24 18:47:00,64.0,,-,49,N/A,29.91,84.9,11:47 AM,,10.0,Variable,3.5,0,Los Angeles,California,90001
12,Clear,2016-07-24 19:47:00,63.0,,-,44,N/A,29.91,87.1,12:47 PM,,10.0,Calm,Calm,0,Los Angeles,California,90001
13,Clear,2016-07-24 20:47:00,59.0,,-,35,N/A,29.90,90.0,1:47 PM,,10.0,Variable,6.9,0,Los Angeles,California,90001
14,Clear,2016-07-24 21:47:00,55.0,,-,30,N/A,29.89,90.0,2:47 PM,,10.0,Variable,4.6,0,Los Angeles,California,90001
15,Clear,2016-07-24 22:47:00,48.9,,-,23,N/A,29.86,91.9,3:47 PM,,10.0,Variable,6.9,0,Los Angeles,California,90001
16,Clear,2016-07-24 23:47:00,64.0,,-,45,N/A,29.85,88.0,4:47 PM,,10.0,Variable,3.5,0,Los Angeles,California,90001
17,Clear,2016-07-25 00:47:00,64.9,,-,49,N/A,29.85,86.0,5:47 PM,,10.0,Variable,4.6,0,Los Angeles,California,90001
18,Clear,2016-07-25 01:47:00,66.0,,-,55,N/A,29.85,84.0,6:47 PM,,10.0,Calm,Calm,0,Los Angeles,California,90001
19,Clear,2016-07-25 02:47:00,66.0,,-,66,N/A,29.86,78.1,7:47 PM,,10.0,West,3.5,260,Los Angeles,California,90001
20,Clear,2016-07-25 03:47:00,66.0,,-,76,N/A,29.88,73.9,8:47 PM,,10.0,Variable,3.5,0,Los Angeles,California,90001
21,Clear,2016-07-25 04:47:00,66.0,,-,79,N/A,29.90,73.0,9:47 PM,,9.0,Calm,Calm,0,Los Angeles,California,90001
22,Clear,2016-07-25 05:47:00,66.0,,-,81,N/A,29.90,72.0,10:47 PM,,9.0,Calm,Calm,0,Los Angeles,California,90001
23,Clear,2016-07-25 06:47:00,66.0,,-,81,N/A,29.91,72.0,11:47 PM,,8.0,Calm,Calm,0,Los Angeles,California,90001
0,Mostly Cloudy,2016-07-25 07:03:00,66.0,,-,84,N/A,29.92,71.1,12:03 AM,,8.0,Calm,Calm,0,Los Angeles,California,90001
1,Mostly Cloudy,2016-07-25 07:47:00,66.0,,-,87,N/A,29.91,70.0,12:47 AM,,6.0,Calm,Calm,0,Los Angeles,California,90001
2,Scattered Clouds,2016-07-25 07:59:00,66.9,,-,90,N/A,29.92,70.0,12:59 AM,,6.0,Calm,Calm,0,Los Angeles,California,90001
3,Clear,2016-07-25 08:47:00,66.0,,-,87,N/A,29.91,70.0,1:47 AM,,7.0,Calm,Calm,0,Los Angeles,California,90001
4,Clear,2016-07-25 09:47:00,66.0,,-,87,N/A,29.91,70.0,2:47 AM,,7.0,Calm,Calm,0,Los Angeles,California,90001
5,Clear,2016-07-25 10:47:00,66.0,,-,84,N/A,29.90,71.1,3:47 AM,,8.0,Calm,Calm,0,Los Angeles,California,90001
6,Clear,2016-07-25 11:47:00,66.0,,-,90,N/A,29.90,69.1,4:47 AM,,7.0,Calm,Calm,0,Los Angeles,California,90001
7,Clear,2016-07-25 12:47:00,66.0,,-,90,N/A,29.91,69.1,5:47 AM,,7.0,Calm,Calm,0,Los Angeles,California,90001
8,Clear,2016-07-25 13:47:00,66.0,,-,87,N/A,29.92,70.0,6:47 AM,,6.0,Calm,Calm,0,Los Angeles,California,90001
9,Haze,2016-07-25 14:47:00,66.0,,-,81,N/A,29.95,72.0,7:47 AM,,6.0,Calm,Calm,0,Los Angeles,California,90001
10,Clear,2016-07-25 15:47:00,66.0,,-,69,N/A,29.96,77.0,8:47 AM,,7.0,Calm,Calm,0,Los Angeles,California,90001
11,Clear,2016-07-25 16:47:00,62.1,,-,49,N/A,29.96,82.9,9:47 AM,,10.0,Calm,Calm,0,Los Angeles,California,90001
12,Clear,2016-07-25 17:47:00,59.0,,-,40,N/A,29.95,86.0,10:47 AM,,10.0,Calm,Calm,0,Los Angeles,California,90001
13,Partly Cloudy,2016-07-25 18:03:00,57.9,,-,37,N/A,29.96,87.1,11:03 AM,,10.0,North,-9999.0,0,Los Angeles,California,90001
14,Clear,2016-07-25 18:47:00,57.9,,-,34,N/A,29.94,90.0,11:47 AM,,10.0,West,3.5,280,Los Angeles,California,90001
15,Clear,2016-07-25 19:47:00,63.0,,-,40,N/A,29.92,90.0,12:47 PM,,10.0,Variable,3.5,0,Los Angeles,California,90001
16,Clear,2016-07-25 20:47:00,64.0,,-,46,N/A,29.89,87.1,1:47 PM,,10.0,WSW,4.6,250,Los Angeles,California,90001
17,Clear,2016-07-25 21:47:00,64.0,,-,45,N/A,29.87,88.0,2:47 PM,,10.0,Variable,4.6,0,Los Angeles,California,90001
18,Clear,2016-07-25 22:47:00,64.0,,-,49,N/A,29.86,84.9,3:47 PM,,10.0,Variable,4.6,0,Los Angeles,California,90001
19,Clear,2016-07-25 23:47:00,64.9,,-,53,N/A,29.85,84.0,4:47 PM,,10.0,Variable,4.6,0,Los Angeles,California,90001
20,Clear,2016-07-26 00:47:00,63.0,,-,52,N/A,29.85,82.0,5:47 PM,,10.0,Variable,5.8,0,Los Angeles,California,90001
21,Clear,2016-07-26 01:47:00,62.1,,-,58,N/A,29.85,78.1,6:47 PM,,10.0,Variable,4.6,0,Los Angeles,California,90001
22,Clear,2016-07-26 02:47:00,60.1,,-,56,N/A,29.87,77.0,7:47 PM,,10.0,Variable,4.6,0,Los Angeles,California,90001
23,Clear,2016-07-26 03:47:00,64.9,,-,76,N/A,29.89,73.0,8:47 PM,,10.0,Variable,5.8,0,Los Angeles,California,90001
24,Clear,2016-07-26 04:47:00,64.9,,-,78,N/A,29.90,72.0,9:47 PM,,10.0,Calm,Calm,0,Los Angeles,California,90001
25,Clear,2016-07-26 05:47:00,64.9,,-,76,N/A,29.90,73.0,10:47 PM,,10.0,West,4.6,280,Los Angeles,California,90001
26,Clear,2016-07-26 06:47:00,64.9,,-,87,N/A,29.91,69.1,11:47 PM,,9.0,West,3.5,280,Los Angeles,California,90001
0,Clear,2016-07-26 07:47:00,64.0,,-,84,N/A,29.90,69.1,12:47 AM,,10.0,West,3.5,270,Los Angeles,California,90001
1,Clear,2016-07-26 08:47:00,64.0,,-,84,N/A,29.90,69.1,1:47 AM,,10.0,Calm,Calm,0,Los Angeles,California,90001
2,Clear,2016-07-26 09:47:00,64.0,,-,84,N/A,29.89,69.1,2:47 AM,,10.0,Calm,Calm,0,Los Angeles,California,90001
3,Clear,2016-07-26 10:47:00,64.0,,-,84,N/A,29.88,69.1,3:47 AM,,10.0,Calm,Calm,0,Los Angeles,California,90001
4,Clear,2016-07-26 11:47:00,64.0,,-,84,N/A,29.88,69.1,4:47 AM,,10.0,Calm,Calm,0,Los Angeles,California,90001
5,Clear,2016-07-26 12:47:00,64.0,,-,84,N/A,29.88,69.1,5:47 AM,,9.0,West,3.5,270,Los Angeles,California,90001
6,Clear,2016-07-26 13:47:00,64.9,,-,87,N/A,29.88,69.1,6:47 AM,,7.0,West,3.5,270,Los Angeles,California,90001
7,Clear,2016-07-26 14:47:00,64.9,,-,76,N/A,29.89,73.0,7:47 AM,,8.0,Calm,Calm,0,Los Angeles,California,90001
8,Clear,2016-07-26 15:47:00,64.0,,-,64,N/A,29.89,77.0,8:47 AM,,10.0,Calm,Calm,0,Los Angeles,California,90001
9,Clear,2016-07-26 16:47:00,64.0,,-,56,N/A,29.88,81.0,9:47 AM,,10.0,Variable,4.6,0,Los Angeles,California,90001
10,Clear,2016-07-26 17:47:00,64.0,,-,54,N/A,29.88,82.0,10:47 AM,,10.0,Calm,Calm,0,Los Angeles,California,90001
11,Clear,2016-07-26 18:47:00,63.0,,-,48,N/A,29.88,84.9,11:47 AM,,10.0,Variable,4.6,0,Los Angeles,California,90001
12,Clear,2016-07-26 19:47:00,61.0,,-,43,N/A,29.86,86.0,12:47 PM,,10.0,North,-9999.0,0,Los Angeles,California,90001
13,Clear,2016-07-26 20:47:00,60.1,,-,41,N/A,29.85,86.0,1:47 PM,,10.0,North,-9999.0,0,Los Angeles,California,90001
14,Clear,2016-07-26 21:47:00,57.9,,-,40,N/A,29.83,84.9,2:47 PM,,10.0,Variable,4.6,0,Los Angeles,California,90001
15,Clear,2016-07-26 22:47:00,60.1,,-,44,N/A,29.82,84.0,3:47 PM,,10.0,Variable,5.8,0,Los Angeles,California,90001
16,Clear,2016-07-26 23:47:00,57.9,,-,45,N/A,29.82,81.0,4:47 PM,,10.0,Variable,3.5,0,Los Angeles,California,90001
17,Clear,2016-07-27 00:47:00,54.0,,-,39,N/A,29.82,81.0,5:47 PM,,10.0,Variable,5.8,0,Los Angeles,California,90001
18,Clear,2016-07-27 01:47:00,54.0,,-,40,N/A,29.82,80.1,6:47 PM,,10.0,West,4.6,260,Los Angeles,California,90001
19,Clear,2016-07-27 02:47:00,63.0,,-,68,N/A,29.83,73.9,7:47 PM,,10.0,Calm,Calm,0,Los Angeles,California,90001
20,Clear,2016-07-27 03:47:00,64.0,,-,76,N/A,29.85,72.0,8:47 PM,,10.0,Calm,Calm,0,Los Angeles,California,90001
21,Clear,2016-07-27 04:47:00,64.0,,-,78,N/A,29.88,71.1,9:47 PM,,10.0,Variable,3.5,0,Los Angeles,California,90001
22,Clear,2016-07-27 05:47:00,64.0,,-,81,N/A,29.88,70.0,10:47 PM,,10.0,Calm,Calm,0,Los Angeles,California,90001
23,Clear,2016-07-27 06:47:00,64.0,,-,78,N/A,29.87,71.1,11:47 PM,,10.0,Calm,Calm,0,Los Angeles,California,90001
0,Clear,2016-07-27 07:47:00,64.0,,-,81,N/A,29.86,70.0,12:47 AM,,9.0,Calm,Calm,0,Los Angeles,California,90001
1,Clear,2016-07-27 08:47:00,64.0,,-,81,N/A,29.86,70.0,1:47 AM,,8.0,Calm,Calm,0,Los Angeles,California,90001
2,Clear,2016-07-27 09:47:00,64.0,,-,84,N/A,29.85,69.1,2:47 AM,,10.0,Calm,Calm,0,Los Angeles,California,90001
3,Clear,2016-07-27 10:47:00,63.0,,-,81,N/A,29.85,69.1,3:47 AM,,10.0,Calm,Calm,0,Los Angeles,California,90001
4,Clear,2016-07-27 11:47:00,64.0,,-,84,N/A,29.86,69.1,4:47 AM,,10.0,Calm,Calm,0,Los Angeles,California,90001
5,Clear,2016-07-27 12:47:00,64.0,,-,87,N/A,29.87,68.0,5:47 AM,,10.0,Calm,Calm,0,Los Angeles,California,90001
6,Clear,2016-07-27 13:47:00,64.0,,-,81,N/A,29.89,70.0,6:47 AM,,10.0,Calm,Calm,0,Los Angeles,California,90001
7,Clear,2016-07-27 14:47:00,64.0,,-,71,N/A,29.90,73.9,7:47 AM,,10.0,Calm,Calm,0,Los Angeles,California,90001
8,Clear,2016-07-27 15:47:00,63.0,,-,60,N/A,29.91,78.1,8:47 AM,,10.0,Calm,Calm,0,Los Angeles,California,90001
9,Clear,2016-07-27 16:47:00,62.1,,-,49,N/A,29.90,82.9,9:47 AM,,10.0,Calm,Calm,0,Los Angeles,California,90001
10,Clear,2016-07-27 17:47:00,62.1,,-,46,N/A,29.91,84.9,10:47 AM,,10.0,Variable,3.5,0,Los Angeles,California,90001
11,Clear,2016-07-27 18:47:00,59.0,,-,40,N/A,29.90,86.0,11:47 AM,,10.0,West,4.6,270,Los Angeles,California,90001
12,Clear,2016-07-27 19:47:00,55.0,,-,33,N/A,29.89,87.1,12:47 PM,,10.0,Calm,Calm,0,Los Angeles,California,90001
13,Clear,2016-07-27 20:47:00,55.0,,-,35,N/A,29.88,86.0,1:47 PM,,10.0,Variable,3.5,0,Los Angeles,California,90001
14,Clear,2016-07-27 21:47:00,57.9,,-,41,N/A,29.88,84.0,2:47 PM,,10.0,Variable,3.5,0,Los Angeles,California,90001
15,Clear,2016-07-27 22:47:00,55.0,,-,39,N/A,29.88,82.0,3:47 PM,,10.0,Variable,4.6,0,Los Angeles,California,90001
16,Clear,2016-07-27 23:47:00,54.0,,-,37,N/A,29.87,82.9,4:47 PM,,10.0,Variable,3.5,0,Los Angeles,California,90001
17,Clear,2016-07-28 00:47:00,60.1,,-,50,N/A,29.85,80.1,5:47 PM,,10.0,Variable,3.5,0,Los Angeles,California,90001
18,Clear,2016-07-28 01:47:00,61.0,,-,54,N/A,29.85,79.0,6:47 PM,,10.0,Variable,3.5,0,Los Angeles,California,90001
19,Clear,2016-07-28 02:47:00,64.0,,-,69,N/A,29.86,75.0,7:47 PM,,10.0,West,3.5,270,Los Angeles,California,90001
20,Clear,2016-07-28 03:47:00,64.9,,-,76,N/A,29.87,73.0,8:47 PM,,10.0,Calm,Calm,0,Los Angeles,California,90001
21,Clear,2016-07-28 04:47:00,64.0,,-,76,N/A,29.88,72.0,9:47 PM,,10.0,Variable,3.5,0,Los Angeles,California,90001
22,Clear,2016-07-28 05:47:00,64.9,,-,81,N/A,29.88,71.1,10:47 PM,,10.0,Calm,Calm,0,Los Angeles,California,90001
23,Clear,2016-07-28 06:47:00,63.0,,-,75,N/A,29.89,71.1,11:47 PM,,10.0,Calm,Calm,0,Los Angeles,California,90001
0,Clear,2016-07-28 07:47:00,64.0,,-,81,N/A,29.88,70.0,12:47 AM,,10.0,Calm,Calm,0,Los Angeles,California,90001
1,Clear,2016-07-28 08:47:00,64.0,,-,81,N/A,29.88,70.0,1:47 AM,,10.0,Calm,Calm,0,Los Angeles,California,90001
2,Clear,2016-07-28 09:47:00,64.0,,-,81,N/A,29.87,70.0,2:47 AM,,10.0,Calm,Calm,0,Los Angeles,California,90001
3,Clear,2016-07-28 10:47:00,63.0,,-,81,N/A,29.87,69.1,3:47 AM,,10.0,Calm,Calm,0,Los Angeles,California,90001
4,Clear,2016-07-28 11:47:00,63.0,,-,81,N/A,29.88,69.1,4:47 AM,,10.0,Calm,Calm,0,Los Angeles,California,90001
5,Clear,2016-07-28 12:47:00,63.0,,-,81,N/A,29.88,69.1,5:47 AM,,10.0,Calm,Calm,0,Los Angeles,California,90001
6,Clear,2016-07-28 13:47:00,64.0,,-,81,N/A,29.90,70.0,6:47 AM,,10.0,Calm,Calm,0,Los Angeles,California,90001
7,Clear,2016-07-28 14:47:00,64.0,,-,73,N/A,29.90,73.0,7:47 AM,,10.0,West,3.5,270,Los Angeles,California,90001
8,Clear,2016-07-28 15:47:00,64.0,,-,67,N/A,29.90,75.9,8:47 AM,,10.0,Calm,Calm,0,Los Angeles,California,90001
9,Clear,2016-07-28 16:47:00,62.1,,-,54,N/A,29.89,80.1,9:47 AM,,10.0,Calm,Calm,0,Los Angeles,California,90001
10,Clear,2016-07-28 21:47:00,64.0,,-,51,N/A,29.84,84.0,2:47 PM,,10.0,North,-9999.0,0,Los Angeles,California,90001
11,Clear,2016-07-28 22:47:00,62.1,,-,51,N/A,29.82,82.0,3:47 PM,,10.0,Variable,4.6,0,Los Angeles,California,90001
12,Clear,2016-07-28 23:47:00,62.1,,-,52,N/A,29.81,81.0,4:47 PM,,10.0,Variable,3.5,0,Los Angeles,California,90001
13,Clear,2016-07-29 00:47:00,62.1,,-,52,N/A,29.81,81.0,5:47 PM,,10.0,West,6.9,270,Los Angeles,California,90001
14,Clear,2016-07-29 01:47:00,63.0,,-,60,N/A,29.81,78.1,6:47 PM,,10.0,Variable,3.5,0,Los Angeles,California,90001
15,Clear,2016-07-29 02:47:00,64.0,,-,67,N/A,29.82,75.9,7:47 PM,,10.0,Variable,3.5,0,Los Angeles,California,90001
16,Clear,2016-07-29 03:47:00,63.0,,-,71,N/A,29.84,73.0,8:47 PM,,10.0,Variable,3.5,0,Los Angeles,California,90001
17,Clear,2016-07-29 04:47:00,60.1,,-,66,N/A,29.85,72.0,9:47 PM,,10.0,West,4.6,270,Los Angeles,California,90001
18,Clear,2016-07-29 05:47:00,61.0,,-,68,N/A,29.84,72.0,10:47 PM,,10.0,Calm,Calm,0,Los Angeles,California,90001
19,Clear,2016-07-29 06:47:00,63.0,,-,75,N/A,29.84,71.1,11:47 PM,,10.0,West,3.5,260,Los Angeles,California,90001
0,Clear,2016-07-29 07:47:00,62.1,,-,76,N/A,29.84,70.0,12:47 AM,,10.0,Calm,Calm,0,Los Angeles,California,90001
1,Clear,2016-07-29 08:47:00,62.1,,-,78,N/A,29.83,69.1,1:47 AM,,10.0,Calm,Calm,0,Los Angeles,California,90001
2,Clear,2016-07-29 09:47:00,61.0,,-,73,N/A,29.81,70.0,2:47 AM,,10.0,Calm,Calm,0,Los Angeles,California,90001
3,Clear,2016-07-29 10:47:00,61.0,,-,73,N/A,29.81,70.0,3:47 AM,,10.0,Calm,Calm,0,Los Angeles,California,90001
4,Clear,2016-07-29 11:47:00,61.0,,-,75,N/A,29.81,69.1,4:47 AM,,10.0,Calm,Calm,0,Los Angeles,California,90001
5,Clear,2016-07-29 12:47:00,62.1,,-,78,N/A,29.81,69.1,5:47 AM,,10.0,Calm,Calm,0,Los Angeles,California,90001
6,Clear,2016-07-29 13:47:00,63.0,,-,78,N/A,29.83,70.0,6:47 AM,,10.0,Calm,Calm,0,Los Angeles,California,90001
7,Clear,2016-07-29 14:47:00,64.0,,-,73,N/A,29.83,73.0,7:47 AM,,10.0,Calm,Calm,0,Los Angeles,California,90001
8,Clear,2016-07-29 15:47:00,63.0,,-,60,N/A,29.83,78.1,8:47 AM,,10.0,Calm,Calm,0,Los Angeles,California,90001
9,Clear,2016-07-29 16:47:00,63.0,,-,52,N/A,29.81,82.0,9:47 AM,,10.0,Calm,Calm,0,Los Angeles,California,90001
10,Clear,2016-07-29 17:47:00,63.0,,-,46,N/A,29.81,86.0,10:47 AM,,10.0,Calm,Calm,0,Los Angeles,California,90001
11,Clear,2016-07-29 18:47:00,64.9,,-,49,N/A,29.81,86.0,11:47 AM,,10.0,West,6.9,270,Los Angeles,California,90001
12,Clear,2016-07-29 19:47:00,64.9,,-,49,N/A,29.81,86.0,12:47 PM,,10.0,Calm,Calm,0,Los Angeles,California,90001
13,Clear,2016-07-29 20:47:00,66.0,,-,51,N/A,29.80,86.0,1:47 PM,,10.0,Variable,5.8,0,Los Angeles,California,90001
14,Clear,2016-07-29 21:47:00,64.0,,-,53,N/A,29.79,82.9,2:47 PM,,10.0,Variable,4.6,0,Los Angeles,California,90001
15,Clear,2016-07-29 22:47:00,63.0,,-,51,N/A,29.77,82.9,3:47 PM,,10.0,Calm,Calm,0,Los Angeles,California,90001
16,Clear,2016-07-29 23:47:00,63.0,,-,52,N/A,29.77,82.0,4:47 PM,,10.0,West,5.8,260,Los Angeles,California,90001
17,Clear,2016-07-30 00:47:00,62.1,,-,52,N/A,29.76,81.0,5:47 PM,,10.0,West,4.6,270,Los Angeles,California,90001
18,Clear,2016-07-30 01:47:00,61.0,,-,56,N/A,29.75,78.1,6:47 PM,,10.0,Variable,3.5,0,Los Angeles,California,90001
19,Clear,2016-07-30 02:47:00,62.1,,-,64,N/A,29.76,75.0,7:47 PM,,10.0,Calm,Calm,0,Los Angeles,California,90001
20,Clear,2016-07-30 03:47:00,61.0,,-,66,N/A,29.78,73.0,8:47 PM,,10.0,Calm,Calm,0,Los Angeles,California,90001
21,Clear,2016-07-30 04:47:00,61.0,,-,68,N/A,29.81,72.0,9:47 PM,,10.0,WNW,3.5,290,Los Angeles,California,90001
22,Clear,2016-07-30 05:47:00,62.1,,-,73,N/A,29.81,71.1,10:47 PM,,10.0,Calm,Calm,0,Los Angeles,California,90001
23,Clear,2016-07-30 06:47:00,62.1,,-,73,N/A,29.81,71.1,11:47 PM,,10.0,Calm,Calm,0,Los Angeles,California,90001
0,Clear,2016-07-30 07:47:00,60.1,,-,68,N/A,29.80,71.1,12:47 AM,,10.0,Calm,Calm,0,Los Angeles,California,90001
1,Clear,2016-07-30 08:47:00,60.1,,-,68,N/A,29.80,71.1,1:47 AM,,10.0,Calm,Calm,0,Los Angeles,California,90001
2,Clear,2016-07-30 09:47:00,57.0,,-,61,N/A,29.78,71.1,2:47 AM,,10.0,Calm,Calm,0,Los Angeles,California,90001
3,Clear,2016-07-30 10:47:00,59.0,,-,68,N/A,29.78,70.0,3:47 AM,,10.0,Calm,Calm,0,Los Angeles,California,90001
4,Clear,2016-07-30 11:47:00,61.0,,-,70,N/A,29.81,71.1,4:47 AM,,10.0,Calm,Calm,0,Los Angeles,California,90001
5,Clear,2016-07-30 12:47:00,61.0,,-,73,N/A,29.81,70.0,5:47 AM,,10.0,Variable,3.5,0,Los Angeles,California,90001
6,Clear,2016-07-30 13:47:00,61.0,,-,70,N/A,29.82,71.1,6:47 AM,,10.0,Calm,Calm,0,Los Angeles,California,90001
7,Mostly Cloudy,2016-07-30 14:29:00,62.1,,-,71,N/A,29.85,72.0,7:29 AM,,10.0,Calm,Calm,0,Los Angeles,California,90001
8,Overcast,2016-07-30 14:47:00,64.0,,-,73,N/A,29.85,73.0,7:47 AM,,10.0,Calm,Calm,0,Los Angeles,California,90001
9,Overcast,2016-07-30 15:47:00,64.9,,-,69,N/A,29.86,75.9,8:47 AM,,10.0,Calm,Calm,0,Los Angeles,California,90001
10,Overcast,2016-07-30 16:47:00,66.9,,-,62,N/A,29.86,81.0,9:47 AM,,10.0,Calm,Calm,0,Los Angeles,California,90001
11,Overcast,2016-07-30 17:47:00,66.0,,-,56,N/A,29.86,82.9,10:47 AM,,10.0,Variable,3.5,0,Los Angeles,California,90001
12,Overcast,2016-07-30 18:06:00,66.0,,-,55,N/A,29.87,84.0,11:06 AM,,10.0,Calm,Calm,0,Los Angeles,California,90001
13,Mostly Cloudy,2016-07-30 18:47:00,68.0,,-,60,N/A,29.87,82.9,11:47 AM,,10.0,Calm,Calm,0,Los Angeles,California,90001
14,Scattered Clouds,2016-07-30 19:47:00,66.9,,-,56,N/A,29.86,84.0,12:47 PM,,10.0,Calm,Calm,0,Los Angeles,California,90001
15,Clear,2016-07-30 20:47:00,66.9,,-,56,N/A,29.83,84.0,1:47 PM,,10.0,Variable,4.6,0,Los Angeles,California,90001
16,Clear,2016-07-30 21:47:00,66.0,,-,55,N/A,29.82,84.0,2:47 PM,,10.0,Variable,3.5,0,Los Angeles,California,90001
17,Clear,2016-07-30 22:47:00,66.0,,-,58,N/A,29.81,82.0,3:47 PM,,10.0,Variable,3.5,0,Los Angeles,California,90001
18,Clear,2016-07-30 23:47:00,66.0,,-,62,N/A,29.81,80.1,4:47 PM,,10.0,Variable,3.5,0,Los Angeles,California,90001
19,Clear,2016-07-31 00:47:00,66.0,,-,64,N/A,29.81,79.0,5:47 PM,,10.0,West,6.9,270,Los Angeles,California,90001
20,Clear,2016-07-31 01:47:00,66.0,,-,69,N/A,29.81,77.0,6:47 PM,,10.0,Calm,Calm,0,Los Angeles,California,90001
21,Clear,2016-07-31 02:47:00,64.9,,-,71,N/A,29.82,75.0,7:47 PM,,10.0,West,4.6,280,Los Angeles,California,90001
22,Clear,2016-07-31 03:47:00,64.9,,-,71,N/A,29.83,75.0,8:47 PM,,10.0,Calm,Calm,0,Los Angeles,California,90001
23,Clear,2016-07-31 04:47:00,64.9,,-,76,N/A,29.86,73.0,9:47 PM,,10.0,Calm,Calm,0,Los Angeles,California,90001
24,Clear,2016-07-31 05:47:00,64.9,,-,78,N/A,29.86,72.0,10:47 PM,,10.0,Calm,Calm,0,Los Angeles,California,90001
25,Clear,2016-07-31 06:47:00,64.9,,-,81,N/A,29.87,71.1,11:47 PM,,10.0,Calm,Calm,0,Los Angeles,California,90001
0,Clear,2016-07-31 07:47:00,64.9,,-,81,N/A,29.87,71.1,12:47 AM,,10.0,Calm,Calm,0,Los Angeles,California,90001
1,Clear,2016-07-31 08:47:00,64.9,,-,84,N/A,29.86,70.0,1:47 AM,,10.0,Calm,Calm,0,Los Angeles,California,90001
2,Clear,2016-07-31 09:47:00,64.9,,-,84,N/A,29.86,70.0,2:47 AM,,10.0,Calm,Calm,0,Los Angeles,California,90001
3,Partly Cloudy,2016-07-31 10:47:00,64.9,,-,84,N/A,29.86,70.0,3:47 AM,,10.0,Calm,Calm,0,Los Angeles,California,90001
4,Partly Cloudy,2016-07-31 11:47:00,64.9,,-,81,N/A,29.86,71.1,4:47 AM,,10.0,Calm,Calm,0,Los Angeles,California,90001
5,Clear,2016-07-31 12:47:00,64.9,,-,81,N/A,29.87,71.1,5:47 AM,,10.0,Calm,Calm,0,Los Angeles,California,90001
6,Mostly Cloudy,2016-07-31 13:47:00,64.9,,-,81,N/A,29.90,71.1,6:47 AM,,10.0,Calm,Calm,0,Los Angeles,California,90001
7,Overcast,2016-07-31 14:47:00,64.9,,-,78,N/A,29.91,72.0,7:47 AM,,10.0,Calm,Calm,0,Los Angeles,California,90001
8,Overcast,2016-07-31 15:01:00,64.9,,-,78,N/A,29.92,72.0,8:01 AM,,10.0,Calm,Calm,0,Los Angeles,California,90001
9,Mostly Cloudy,2016-07-31 15:47:00,64.0,,-,69,N/A,29.92,75.0,8:47 AM,,10.0,Variable,3.5,0,Los Angeles,California,90001
10,Scattered Clouds,2016-07-31 16:03:00,64.9,,-,66,N/A,29.92,77.0,9:03 AM,,10.0,Calm,Calm,0,Los Angeles,California,90001
11,Clear,2016-07-31 16:47:00,64.0,,-,62,N/A,29.92,78.1,9:47 AM,,10.0,Variable,4.6,0,Los Angeles,California,90001
12,Clear,2016-07-31 17:47:00,64.9,,-,56,N/A,29.90,82.0,10:47 AM,,10.0,Variable,3.5,0,Los Angeles,California,90001
13,Clear,2016-07-31 18:47:00,62.1,,-,44,N/A,29.89,86.0,11:47 AM,,10.0,Variable,4.6,0,Los Angeles,California,90001
14,Clear,2016-07-31 19:47:00,64.9,,-,51,N/A,29.88,84.9,12:47 PM,,10.0,Calm,Calm,0,Los Angeles,California,90001
15,Clear,2016-07-31 20:47:00,64.9,,-,53,N/A,29.88,84.0,1:47 PM,,10.0,Variable,3.5,0,Los Angeles,California,90001
16,Clear,2016-07-31 21:47:00,64.9,,-,54,N/A,29.88,82.9,2:47 PM,,10.0,Variable,5.8,0,Los Angeles,California,90001
17,Clear,2016-07-31 22:47:00,64.9,,-,60,N/A,29.87,80.1,3:47 PM,,10.0,Variable,3.5,0,Los Angeles,California,90001
18,Clear,2016-07-31 23:47:00,64.0,,-,60,N/A,29.86,79.0,4:47 PM,,10.0,West,8.1,270,Los Angeles,California,90001
19,Clear,2016-08-01 00:47:00,64.0,,-,64,N/A,29.86,77.0,5:47 PM,,10.0,Variable,3.5,0,Los Angeles,California,90001
20,Clear,2016-08-01 01:47:00,64.0,,-,67,N/A,29.86,75.9,6:47 PM,,10.0,West,3.5,260,Los Angeles,California,90001
21,Clear,2016-08-01 02:47:00,64.0,,-,73,N/A,29.87,73.0,7:47 PM,,10.0,Calm,Calm,0,Los Angeles,California,90001
22,Clear,2016-08-01 03:47:00,64.0,,-,76,N/A,29.89,72.0,8:47 PM,,10.0,Calm,Calm,0,Los Angeles,California,90001
23,Clear,2016-08-01 04:47:00,64.9,,-,81,N/A,29.91,71.1,9:47 PM,,10.0,Variable,3.5,0,Los Angeles,California,90001
24,Clear,2016-08-01 05:47:00,64.9,,-,81,N/A,29.91,71.1,10:47 PM,,10.0,Calm,Calm,0,Los Angeles,California,90001
25,Clear,2016-08-01 06:47:00,64.9,,-,81,N/A,29.91,71.1,11:47 PM,,10.0,Calm,Calm,0,Los Angeles,California,90001
0,Clear,2016-08-01 07:47:00,64.9,,-,84,N/A,29.91,70.0,12:47 AM,,7.0,Calm,Calm,0,Los Angeles,California,90001
1,Clear,2016-08-01 08:47:00,64.9,,-,87,N/A,29.90,69.1,1:47 AM,,9.0,Calm,Calm,0,Los Angeles,California,90001
2,Clear,2016-08-01 09:47:00,64.9,,-,87,N/A,29.89,69.1,2:47 AM,,7.0,Calm,Calm,0,Los Angeles,California,90001
3,Clear,2016-08-01 10:47:00,64.9,,-,90,N/A,29.90,68.0,3:47 AM,,10.0,Calm,Calm,0,Los Angeles,California,90001
4,Clear,2016-08-01 11:47:00,64.0,,-,87,N/A,29.91,68.0,4:47 AM,,10.0,Calm,Calm,0,Los Angeles,California,90001
5,Clear,2016-08-01 12:47:00,64.0,,-,87,N/A,29.92,68.0,5:47 AM,,9.0,Calm,Calm,0,Los Angeles,California,90001
6,Scattered Clouds,2016-08-01 13:47:00,64.9,,-,87,N/A,29.93,69.1,6:47 AM,,8.0,Calm,Calm,0,Los Angeles,California,90001
7,Mostly Cloudy,2016-08-01 13:52:00,64.9,,-,87,N/A,29.93,69.1,6:52 AM,,8.0,Calm,Calm,0,Los Angeles,California,90001
8,Scattered Clouds,2016-08-01 13:56:00,64.0,,-,84,N/A,29.94,69.1,6:56 AM,,8.0,Calm,Calm,0,Los Angeles,California,90001
9,Mostly Cloudy,2016-08-01 14:06:00,64.9,,-,84,N/A,29.94,70.0,7:06 AM,,8.0,Calm,Calm,0,Los Angeles,California,90001
10,Overcast,2016-08-01 14:47:00,64.9,,-,81,N/A,29.95,71.1,7:47 AM,,8.0,Calm,Calm,0,Los Angeles,California,90001
11,Mostly Cloudy,2016-08-01 15:47:00,66.0,,-,76,N/A,29.95,73.9,8:47 AM,,8.0,Calm,Calm,0,Los Angeles,California,90001
12,Scattered Clouds,2016-08-01 16:05:00,64.9,,-,71,N/A,29.96,75.0,9:05 AM,,9.0,Calm,Calm,0,Los Angeles,California,90001
13,Clear,2016-08-01 16:47:00,64.0,,-,62,N/A,29.96,78.1,9:47 AM,,10.0,Calm,Calm,0,Los Angeles,California,90001
14,Clear,2016-08-01 17:47:00,60.1,,-,47,N/A,29.95,82.0,10:47 AM,,10.0,Calm,Calm,0,Los Angeles,California,90001
15,Clear,2016-08-01 18:47:00,62.1,,-,47,N/A,29.94,84.0,11:47 AM,,10.0,Variable,4.6,0,Los Angeles,California,90001
16,Clear,2016-08-01 19:47:00,64.0,,-,54,N/A,29.93,82.0,12:47 PM,,10.0,Calm,Calm,0,Los Angeles,California,90001
17,Clear,2016-08-01 20:47:00,64.9,,-,54,N/A,29.93,82.9,1:47 PM,,10.0,Variable,6.9,0,Los Angeles,California,90001
18,Clear,2016-08-01 21:47:00,64.0,,-,54,N/A,29.91,82.0,2:47 PM,,10.0,Variable,4.6,0,Los Angeles,California,90001
19,Clear,2016-08-01 22:47:00,62.1,,-,54,N/A,29.90,80.1,3:47 PM,,10.0,West,9.2,270,Los Angeles,California,90001
20,Clear,2016-08-01 23:47:00,60.1,,16.1,54,N/A,29.91,78.1,4:47 PM,,10.0,Variable,5.8,0,Los Angeles,California,90001
21,Clear,2016-08-02 00:47:00,64.0,,-,64,N/A,29.91,77.0,5:47 PM,,10.0,Variable,5.8,0,Los Angeles,California,90001
22,Clear,2016-08-02 01:47:00,64.0,,-,71,N/A,29.91,73.9,6:47 PM,,10.0,Variable,4.6,0,Los Angeles,California,90001
23,Clear,2016-08-02 02:47:00,62.1,,-,73,N/A,29.93,71.1,7:47 PM,,10.0,Variable,3.5,0,Los Angeles,California,90001
24,Scattered Clouds,2016-08-02 03:47:00,63.0,,-,81,N/A,29.95,69.1,8:47 PM,,10.0,West,3.5,260,Los Angeles,California,90001
25,Mostly Cloudy,2016-08-02 03:50:00,63.0,,-,78,N/A,29.96,70.0,8:50 PM,,10.0,Variable,3.5,0,Los Angeles,California,90001
26,Overcast,2016-08-02 04:47:00,62.1,,-,78,N/A,29.98,69.1,9:47 PM,,10.0,Calm,Calm,0,Los Angeles,California,90001
27,Scattered Clouds,2016-08-02 05:00:00,62.1,,-,78,N/A,29.99,69.1,10:00 PM,,10.0,Calm,Calm,0,Los Angeles,California,90001
28,Mostly Cloudy,2016-08-02 05:22:00,62.1,,-,78,N/A,29.98,69.1,10:22 PM,,10.0,Calm,Calm,0,Los Angeles,California,90001
29,Scattered Clouds,2016-08-02 05:43:00,62.1,,-,81,N/A,29.98,68.0,10:43 PM,,10.0,Calm,Calm,0,Los Angeles,California,90001
30,Scattered Clouds,2016-08-02 05:47:00,62.1,,-,81,N/A,29.98,68.0,10:47 PM,,10.0,Variable,3.5,0,Los Angeles,California,90001
31,Clear,2016-08-02 06:47:00,62.1,,-,81,N/A,29.99,68.0,11:47 PM,,10.0,Calm,Calm,0,Los Angeles,California,90001
0,Clear,2016-08-02 07:47:00,62.1,,-,81,N/A,29.99,68.0,12:47 AM,,10.0,West,3.5,280,Los Angeles,California,90001
1,Clear,2016-08-02 08:47:00,61.0,,-,81,N/A,29.98,66.9,1:47 AM,,10.0,Calm,Calm,0,Los Angeles,California,90001
2,Clear,2016-08-02 09:47:00,61.0,,-,81,N/A,29.97,66.9,2:47 AM,,10.0,Calm,Calm,0,Los Angeles,California,90001
3,Clear,2016-08-02 10:47:00,61.0,,-,84,N/A,29.97,66.0,3:47 AM,,10.0,Calm,Calm,0,Los Angeles,California,90001
4,Clear,2016-08-02 11:47:00,61.0,,-,84,N/A,29.97,66.0,4:47 AM,,10.0,Calm,Calm,0,Los Angeles,California,90001
5,Mostly Cloudy,2016-08-02 12:23:00,61.0,,-,84,N/A,29.98,66.0,5:23 AM,,10.0,Calm,Calm,0,Los Angeles,California,90001
6,Overcast,2016-08-02 12:47:00,61.0,,-,81,N/A,29.99,66.9,5:47 AM,,10.0,Calm,Calm,0,Los Angeles,California,90001
7,Overcast,2016-08-02 13:36:00,61.0,,-,81,N/A,30.01,66.9,6:36 AM,,10.0,Calm,Calm,0,Los Angeles,California,90001
8,Overcast,2016-08-02 13:47:00,62.1,,-,84,N/A,30.00,66.9,6:47 AM,,10.0,Calm,Calm,0,Los Angeles,California,90001
9,Overcast,2016-08-02 14:47:00,62.1,,-,78,N/A,30.01,69.1,7:47 AM,,8.0,Calm,Calm,0,Los Angeles,California,90001
10,Overcast,2016-08-02 15:47:00,62.1,,-,76,N/A,30.01,70.0,8:47 AM,,7.0,Calm,Calm,0,Los Angeles,California,90001
11,Scattered Clouds,2016-08-02 16:47:00,63.0,,-,68,N/A,30.00,73.9,9:47 AM,,7.0,Calm,Calm,0,Los Angeles,California,90001
12,Clear,2016-08-02 17:47:00,62.1,,-,58,N/A,30.00,78.1,10:47 AM,,7.0,Calm,Calm,0,Los Angeles,California,90001
13,Clear,2016-08-02 18:47:00,61.0,,-,49,N/A,29.98,82.0,11:47 AM,,9.0,Variable,3.5,0,Los Angeles,California,90001
14,Clear,2016-08-02 19:47:00,62.1,,-,49,N/A,29.96,82.9,12:47 PM,,10.0,Calm,Calm,0,Los Angeles,California,90001
15,Clear,2016-08-02 20:47:00,63.0,,-,51,N/A,29.95,82.9,1:47 PM,,10.0,Variable,6.9,0,Los Angeles,California,90001
16,Clear,2016-08-02 21:47:00,62.1,,-,54,N/A,29.93,80.1,2:47 PM,,10.0,West,10.4,280,Los Angeles,California,90001
17,Clear,2016-08-02 22:47:00,63.0,,-,58,N/A,29.91,79.0,3:47 PM,,10.0,Variable,3.5,0,Los Angeles,California,90001
18,Clear,2016-08-02 23:47:00,62.1,,-,60,N/A,29.91,77.0,4:47 PM,,10.0,Variable,4.6,0,Los Angeles,California,90001
19,Clear,2016-08-03 00:47:00,61.0,,-,58,N/A,29.91,77.0,5:47 PM,,10.0,West,8.1,260,Los Angeles,California,90001
20,Clear,2016-08-03 01:47:00,62.1,,-,66,N/A,29.91,73.9,6:47 PM,,10.0,West,4.6,270,Los Angeles,California,90001
21,Clear,2016-08-03 02:47:00,63.0,,-,75,N/A,29.94,71.1,7:47 PM,,10.0,West,4.6,270,Los Angeles,California,90001
22,Clear,2016-08-03 03:47:00,63.0,,-,81,N/A,29.96,69.1,8:47 PM,,10.0,Calm,Calm,0,Los Angeles,California,90001
23,Mostly Cloudy,2016-08-03 04:10:00,63.0,,-,81,N/A,29.98,69.1,9:10 PM,,10.0,WNW,3.5,290,Los Angeles,California,90001
24,Mostly Cloudy,2016-08-03 04:47:00,62.1,,-,78,N/A,29.99,69.1,9:47 PM,,10.0,West,3.5,270,Los Angeles,California,90001
25,Scattered Clouds,2016-08-03 05:00:00,62.1,,-,81,N/A,29.99,68.0,10:00 PM,,10.0,West,4.6,270,Los Angeles,California,90001
26,Clear,2016-08-03 05:47:00,62.1,,-,81,N/A,29.99,68.0,10:47 PM,,10.0,Variable,3.5,0,Los Angeles,California,90001
27,Clear,2016-08-03 06:47:00,62.1,,-,81,N/A,29.99,68.0,11:47 PM,,10.0,Calm,Calm,0,Los Angeles,California,90001
0,Clear,2016-08-03 07:47:00,62.1,,-,84,N/A,29.99,66.9,12:47 AM,,10.0,Calm,Calm,0,Los Angeles,California,90001
1,Clear,2016-08-03 08:47:00,62.1,,-,84,N/A,29.98,66.9,1:47 AM,,10.0,Calm,Calm,0,Los Angeles,California,90001
2,Mostly Cloudy,2016-08-03 09:36:00,62.1,,-,84,N/A,29.98,66.9,2:36 AM,,10.0,Calm,Calm,0,Los Angeles,California,90001
3,Overcast,2016-08-03 09:47:00,62.1,,-,84,N/A,29.98,66.9,2:47 AM,,10.0,Calm,Calm,0,Los Angeles,California,90001
4,Overcast,2016-08-03 10:47:00,62.1,,-,81,N/A,29.97,68.0,3:47 AM,,10.0,Calm,Calm,0,Los Angeles,California,90001
5,Scattered Clouds,2016-08-03 11:47:00,62.1,,-,81,N/A,29.96,68.0,4:47 AM,,10.0,Calm,Calm,0,Los Angeles,California,90001
6,Mostly Cloudy,2016-08-03 12:16:00,62.1,,-,81,N/A,29.97,68.0,5:16 AM,,10.0,Calm,Calm,0,Los Angeles,California,90001
7,Scattered Clouds,2016-08-03 12:38:00,62.1,,-,81,N/A,29.97,68.0,5:38 AM,,10.0,Calm,Calm,0,Los Angeles,California,90001
8,Partly Cloudy,2016-08-03 12:47:00,62.1,,-,81,N/A,29.96,68.0,5:47 AM,,10.0,Calm,Calm,0,Los Angeles,California,90001
9,Clear,2016-08-03 13:47:00,62.1,,-,81,N/A,29.97,68.0,6:47 AM,,10.0,Calm,Calm,0,Los Angeles,California,90001
10,Mostly Cloudy,2016-08-03 14:15:00,62.1,,-,76,N/A,29.98,70.0,7:15 AM,,10.0,Calm,Calm,0,Los Angeles,California,90001
11,Overcast,2016-08-03 14:47:00,62.1,,-,76,N/A,29.99,70.0,7:47 AM,,10.0,Calm,Calm,0,Los Angeles,California,90001
12,Mostly Cloudy,2016-08-03 15:47:00,63.0,,-,71,N/A,29.98,73.0,8:47 AM,,10.0,Calm,Calm,0,Los Angeles,California,90001
13,Scattered Clouds,2016-08-03 15:56:00,63.0,,-,71,N/A,29.98,73.0,8:56 AM,,10.0,Calm,Calm,0,Los Angeles,California,90001
14,Clear,2016-08-03 16:47:00,62.1,,-,60,N/A,29.96,77.0,9:47 AM,,10.0,Calm,Calm,0,Los Angeles,California,90001
15,Clear,2016-08-03 17:47:00,63.0,,-,56,N/A,29.97,80.1,10:47 AM,,10.0,Variable,3.5,0,Los Angeles,California,90001
16,Clear,2016-08-03 18:47:00,60.1,,-,46,N/A,29.96,82.9,11:47 AM,,10.0,Calm,Calm,0,Los Angeles,California,90001
17,Clear,2016-08-03 19:47:00,63.0,,-,54,N/A,29.96,81.0,12:47 PM,,10.0,Variable,4.6,0,Los Angeles,California,90001
18,Clear,2016-08-03 20:47:00,63.0,,-,56,N/A,29.94,80.1,1:47 PM,,10.0,Variable,4.6,0,Los Angeles,California,90001
19,Clear,2016-08-03 21:47:00,63.0,,-,56,N/A,29.92,80.1,2:47 PM,,10.0,Variable,3.5,0,Los Angeles,California,90001
20,Clear,2016-08-03 22:47:00,63.0,,-,56,N/A,29.91,80.1,3:47 PM,,10.0,Variable,4.6,0,Los Angeles,California,90001
21,Clear,2016-08-03 23:47:00,64.0,,-,62,N/A,29.90,78.1,4:47 PM,,10.0,Variable,6.9,0,Los Angeles,California,90001
22,Clear,2016-08-04 00:47:00,64.0,,-,64,N/A,29.89,77.0,5:47 PM,,10.0,Variable,3.5,0,Los Angeles,California,90001
23,Clear,2016-08-04 01:47:00,64.0,,-,71,N/A,29.89,73.9,6:47 PM,,10.0,West,5.8,270,Los Angeles,California,90001
24,Clear,2016-08-04 02:47:00,63.0,,-,75,N/A,29.90,71.1,7:47 PM,,10.0,West,3.5,260,Los Angeles,California,90001
25,Clear,2016-08-04 03:47:00,64.0,,-,81,N/A,29.91,70.0,8:47 PM,,10.0,Variable,4.6,0,Los Angeles,California,90001
26,Clear,2016-08-04 04:47:00,63.0,,-,81,N/A,29.94,69.1,9:47 PM,,10.0,Calm,Calm,0,Los Angeles,California,90001
27,Clear,2016-08-04 05:47:00,63.0,,-,84,N/A,29.94,68.0,10:47 PM,,10.0,Calm,Calm,0,Los Angeles,California,90001
28,Clear,2016-08-04 06:47:00,63.0,,-,87,N/A,29.93,66.9,11:47 PM,,10.0,Calm,Calm,0,Los Angeles,California,90001
0,Mostly Cloudy,2016-08-04 07:17:00,63.0,,-,87,N/A,29.93,66.9,12:17 AM,,10.0,Calm,Calm,0,Los Angeles,California,90001
1,Mostly Cloudy,2016-08-04 07:47:00,63.0,,-,87,N/A,29.92,66.9,12:47 AM,,10.0,Calm,Calm,0,Los Angeles,California,90001
2,Scattered Clouds,2016-08-04 07:59:00,63.0,,-,87,N/A,29.92,66.9,12:59 AM,,10.0,Calm,Calm,0,Los Angeles,California,90001
3,Mostly Cloudy,2016-08-04 08:03:00,63.0,,-,87,N/A,29.92,66.9,1:03 AM,,10.0,Variable,3.5,0,Los Angeles,California,90001
4,Overcast,2016-08-04 08:47:00,63.0,,-,84,N/A,29.91,68.0,1:47 AM,,10.0,Calm,Calm,0,Los Angeles,California,90001
5,Scattered Clouds,2016-08-04 09:05:00,63.0,,-,84,N/A,29.91,68.0,2:05 AM,,10.0,West,3.5,280,Los Angeles,California,90001
6,Clear,2016-08-04 09:47:00,63.0,,-,84,N/A,29.90,68.0,2:47 AM,,9.0,Calm,Calm,0,Los Angeles,California,90001
7,Clear,2016-08-04 10:47:00,63.0,,-,87,N/A,29.89,66.9,3:47 AM,,9.0,Calm,Calm,0,Los Angeles,California,90001
8,Scattered Clouds,2016-08-04 11:47:00,62.1,,-,84,N/A,29.89,66.9,4:47 AM,,9.0,Calm,Calm,0,Los Angeles,California,90001
9,Clear,2016-08-04 12:47:00,62.1,,-,84,N/A,29.90,66.9,5:47 AM,,9.0,Calm,Calm,0,Los Angeles,California,90001
10,Clear,2016-08-04 13:47:00,62.1,,-,84,N/A,29.92,66.9,6:47 AM,,8.0,Calm,Calm,0,Los Angeles,California,90001
11,Mostly Cloudy,2016-08-04 14:29:00,61.0,,-,75,N/A,29.93,69.1,7:29 AM,,10.0,Calm,Calm,0,Los Angeles,California,90001
12,Scattered Clouds,2016-08-04 14:47:00,61.0,,-,73,N/A,29.92,70.0,7:47 AM,,10.0,Calm,Calm,0,Los Angeles,California,90001
13,Mostly Cloudy,2016-08-04 15:07:00,62.1,,-,71,N/A,29.93,72.0,8:07 AM,,10.0,Calm,Calm,0,Los Angeles,California,90001
14,Scattered Clouds,2016-08-04 15:44:00,62.1,,-,71,N/A,29.92,72.0,8:44 AM,,10.0,Calm,Calm,0,Los Angeles,California,90001
15,Scattered Clouds,2016-08-04 15:47:00,62.1,,-,71,N/A,29.92,72.0,8:47 AM,,10.0,Calm,Calm,0,Los Angeles,California,90001
16,Clear,2016-08-04 16:47:00,62.1,,-,62,N/A,29.91,75.9,9:47 AM,,10.0,WSW,3.5,250,Los Angeles,California,90001
17,Clear,2016-08-04 17:47:00,63.0,,-,58,N/A,29.90,79.0,10:47 AM,,10.0,Calm,Calm,0,Los Angeles,California,90001
18,Clear,2016-08-04 18:47:00,63.0,,-,49,N/A,29.88,84.0,11:47 AM,,10.0,Calm,Calm,0,Los Angeles,California,90001
19,Clear,2016-08-04 19:47:00,63.0,,-,54,N/A,29.87,81.0,12:47 PM,,10.0,Variable,4.6,0,Los Angeles,California,90001
20,Clear,2016-08-04 20:47:00,63.0,,-,58,N/A,29.86,79.0,1:47 PM,,10.0,Variable,4.6,0,Los Angeles,California,90001
21,Clear,2016-08-04 21:47:00,63.0,,-,58,N/A,29.84,79.0,2:47 PM,,10.0,Variable,4.6,0,Los Angeles,California,90001
22,Clear,2016-08-04 22:47:00,63.0,,-,62,N/A,29.83,77.0,3:47 PM,,10.0,Variable,5.8,0,Los Angeles,California,90001
23,Clear,2016-08-04 23:47:00,62.1,,-,60,N/A,29.82,77.0,4:47 PM,,10.0,Variable,5.8,0,Los Angeles,California,90001
24,Clear,2016-08-05 00:47:00,63.0,,-,64,N/A,29.81,75.9,5:47 PM,,10.0,Variable,4.6,0,Los Angeles,California,90001
25,Clear,2016-08-05 01:47:00,63.0,,-,71,N/A,29.82,73.0,6:47 PM,,10.0,Variable,4.6,0,Los Angeles,California,90001
26,Clear,2016-08-05 02:47:00,62.1,,-,78,N/A,29.84,69.1,7:47 PM,,10.0,West,5.8,270,Los Angeles,California,90001
27,Mostly Cloudy,2016-08-05 03:12:00,62.1,,-,81,N/A,29.85,68.0,8:12 PM,,10.0,Variable,3.5,0,Los Angeles,California,90001
28,Scattered Clouds,2016-08-05 03:15:00,62.1,,-,81,N/A,29.85,68.0,8:15 PM,,10.0,West,6.9,280,Los Angeles,California,90001
29,Clear,2016-08-05 03:47:00,61.0,,-,78,N/A,29.85,68.0,8:47 PM,,10.0,Variable,3.5,0,Los Angeles,California,90001
30,Clear,2016-08-05 04:47:00,61.0,,-,81,N/A,29.87,66.9,9:47 PM,,10.0,Calm,Calm,0,Los Angeles,California,90001
31,Clear,2016-08-05 05:47:00,62.1,,-,84,N/A,29.87,66.9,10:47 PM,,10.0,Calm,Calm,0,Los Angeles,California,90001
32,Clear,2016-08-05 06:47:00,62.1,,-,84,N/A,29.86,66.9,11:47 PM,,9.0,Calm,Calm,0,Los Angeles,California,90001
0,Clear,2016-08-05 07:47:00,62.1,,-,84,N/A,29.86,66.9,12:47 AM,,7.0,Calm,Calm,0,Los Angeles,California,90001
1,Clear,2016-08-05 08:47:00,62.1,,-,87,N/A,29.86,66.0,1:47 AM,,9.0,Calm,Calm,0,Los Angeles,California,90001
2,Scattered Clouds,2016-08-05 09:47:00,61.0,,-,84,N/A,29.86,66.0,2:47 AM,,9.0,Calm,Calm,0,Los Angeles,California,90001
3,Mostly Cloudy,2016-08-05 09:53:00,61.0,,-,84,N/A,29.86,66.0,2:53 AM,,9.0,Calm,Calm,0,Los Angeles,California,90001
4,Mostly Cloudy,2016-08-05 10:01:00,62.1,,-,87,N/A,29.86,66.0,3:01 AM,,9.0,Calm,Calm,0,Los Angeles,California,90001
5,Overcast,2016-08-05 10:27:00,62.1,,-,84,N/A,29.86,66.9,3:27 AM,,9.0,Calm,Calm,0,Los Angeles,California,90001
6,Overcast,2016-08-05 10:47:00,62.1,,-,84,N/A,29.85,66.9,3:47 AM,,8.0,Calm,Calm,0,Los Angeles,California,90001
7,Overcast,2016-08-05 11:47:00,62.1,,-,81,N/A,29.86,68.0,4:47 AM,,9.0,Calm,Calm,0,Los Angeles,California,90001
8,Overcast,2016-08-05 12:27:00,62.1,,-,81,N/A,29.87,68.0,5:27 AM,,9.0,Calm,Calm,0,Los Angeles,California,90001
9,Overcast,2016-08-05 12:47:00,62.1,,-,81,N/A,29.86,68.0,5:47 AM,,9.0,Calm,Calm,0,Los Angeles,California,90001
10,Overcast,2016-08-05 13:47:00,62.1,,-,78,N/A,29.87,69.1,6:47 AM,,7.0,Calm,Calm,0,Los Angeles,California,90001
11,Overcast,2016-08-05 14:47:00,62.1,,-,76,N/A,29.88,70.0,7:47 AM,,7.0,Calm,Calm,0,Los Angeles,California,90001
12,Overcast,2016-08-05 15:47:00,62.1,,-,71,N/A,29.88,72.0,8:47 AM,,7.0,Calm,Calm,0,Los Angeles,California,90001
13,Overcast,2016-08-05 16:47:00,63.0,,-,71,N/A,29.88,73.0,9:47 AM,,7.0,Calm,Calm,0,Los Angeles,California,90001
14,Overcast,2016-08-05 17:47:00,63.0,,-,60,N/A,29.88,78.1,10:47 AM,,8.0,Calm,Calm,0,Los Angeles,California,90001
15,Scattered Clouds,2016-08-05 18:17:00,64.0,,-,64,N/A,29.89,77.0,11:17 AM,,9.0,Calm,Calm,0,Los Angeles,California,90001
16,Scattered Clouds,2016-08-05 18:47:00,64.0,,-,64,N/A,29.88,77.0,11:47 AM,,9.0,Variable,4.6,0,Los Angeles,California,90001
17,Mostly Cloudy,2016-08-05 18:58:00,64.0,,-,62,N/A,29.88,78.1,11:58 AM,,10.0,Variable,3.5,0,Los Angeles,California,90001
18,Scattered Clouds,2016-08-05 19:26:00,64.0,,-,64,N/A,29.88,77.0,12:26 PM,,10.0,Calm,Calm,0,Los Angeles,California,90001
19,Clear,2016-08-05 19:47:00,64.0,,-,60,N/A,29.87,79.0,12:47 PM,,10.0,North,-9999.0,0,Los Angeles,California,90001
20,Clear,2016-08-05 20:47:00,64.0,,-,60,N/A,29.85,79.0,1:47 PM,,10.0,Variable,3.5,0,Los Angeles,California,90001
21,Clear,2016-08-05 21:47:00,64.0,,-,62,N/A,29.83,78.1,2:47 PM,,10.0,Variable,4.6,0,Los Angeles,California,90001
22,Clear,2016-08-05 22:47:00,63.0,,-,64,N/A,29.82,75.9,3:47 PM,,10.0,Variable,4.6,0,Los Angeles,California,90001
23,Clear,2016-08-05 23:47:00,63.0,,-,66,N/A,29.81,75.0,4:47 PM,,10.0,West,4.6,270,Los Angeles,California,90001
24,Clear,2016-08-06 00:47:00,62.1,,-,66,N/A,29.81,73.9,5:47 PM,,10.0,Variable,4.6,0,Los Angeles,California,90001
25,Clear,2016-08-06 01:47:00,61.0,,-,66,N/A,29.81,73.0,6:47 PM,,10.0,Variable,4.6,0,Los Angeles,California,90001
26,Clear,2016-08-06 02:47:00,60.1,,-,71,N/A,29.82,70.0,7:47 PM,,10.0,West,4.6,270,Los Angeles,California,90001
27,Clear,2016-08-06 03:47:00,60.1,,-,73,N/A,29.83,69.1,8:47 PM,,10.0,Variable,3.5,0,Los Angeles,California,90001
28,Clear,2016-08-06 04:47:00,60.1,,-,76,N/A,29.85,68.0,9:47 PM,,10.0,Calm,Calm,0,Los Angeles,California,90001
29,Clear,2016-08-06 05:47:00,61.0,,-,78,N/A,29.85,68.0,10:47 PM,,10.0,Calm,Calm,0,Los Angeles,California,90001
30,Clear,2016-08-06 06:47:00,62.1,,-,84,N/A,29.85,66.9,11:47 PM,,10.0,Calm,Calm,0,Los Angeles,California,90001
0,Clear,2016-08-06 07:47:00,60.1,,-,81,N/A,29.86,66.0,12:47 AM,,10.0,Calm,Calm,0,Los Angeles,California,90001
1,Clear,2016-08-06 08:47:00,60.1,,-,81,N/A,29.86,66.0,1:47 AM,,10.0,Calm,Calm,0,Los Angeles,California,90001
2,Mostly Cloudy,2016-08-06 09:35:00,60.1,,-,84,N/A,29.87,64.9,2:35 AM,,10.0,West,3.5,280,Los Angeles,California,90001
3,Mostly Cloudy,2016-08-06 09:47:00,60.1,,-,84,N/A,29.86,64.9,2:47 AM,,10.0,WNW,3.5,290,Los Angeles,California,90001
4,Scattered Clouds,2016-08-06 10:36:00,60.1,,-,84,N/A,29.86,64.9,3:36 AM,,10.0,Calm,Calm,0,Los Angeles,California,90001
5,Mostly Cloudy,2016-08-06 10:42:00,60.1,,-,84,N/A,29.86,64.9,3:42 AM,,10.0,Calm,Calm,0,Los Angeles,California,90001
6,Mostly Cloudy,2016-08-06 10:47:00,60.1,,-,84,N/A,29.86,64.9,3:47 AM,,10.0,Calm,Calm,0,Los Angeles,California,90001
7,Overcast,2016-08-06 11:47:00,60.1,,-,79,N/A,29.85,66.9,4:47 AM,,10.0,Calm,Calm,0,Los Angeles,California,90001
8,Overcast,2016-08-06 12:03:00,60.1,,-,79,N/A,29.86,66.9,5:03 AM,,10.0,Calm,Calm,0,Los Angeles,California,90001
9,Overcast,2016-08-06 12:47:00,61.0,,-,81,N/A,29.86,66.9,5:47 AM,,10.0,Calm,Calm,0,Los Angeles,California,90001
10,Overcast,2016-08-06 13:42:00,61.0,,-,81,N/A,29.87,66.9,6:42 AM,,9.0,Calm,Calm,0,Los Angeles,California,90001
11,Overcast,2016-08-06 13:47:00,60.1,,-,79,N/A,29.86,66.9,6:47 AM,,8.0,Calm,Calm,0,Los Angeles,California,90001
12,Overcast,2016-08-06 14:47:00,61.0,,-,78,N/A,29.87,68.0,7:47 AM,,8.0,Calm,Calm,0,Los Angeles,California,90001
13,Overcast,2016-08-06 15:47:00,61.0,,-,73,N/A,29.87,70.0,8:47 AM,,8.0,Calm,Calm,0,Los Angeles,California,90001
14,Overcast,2016-08-06 16:47:00,61.0,,-,70,N/A,29.87,71.1,9:47 AM,,8.0,Calm,Calm,0,Los Angeles,California,90001
15,Mostly Cloudy,2016-08-06 17:47:00,62.1,,-,62,N/A,29.86,75.9,10:47 AM,,7.0,Calm,Calm,0,Los Angeles,California,90001
16,Scattered Clouds,2016-08-06 18:00:00,62.1,,-,62,N/A,29.87,75.9,11:00 AM,,8.0,Variable,3.5,0,Los Angeles,California,90001
17,Clear,2016-08-06 18:47:00,62.1,,-,60,N/A,29.85,77.0,11:47 AM,,10.0,Calm,Calm,0,Los Angeles,California,90001
18,Clear,2016-08-06 19:47:00,63.0,,-,60,N/A,29.83,78.1,12:47 PM,,10.0,Calm,Calm,0,Los Angeles,California,90001
19,Clear,2016-08-06 20:47:00,62.1,,-,58,N/A,29.82,78.1,1:47 PM,,10.0,Variable,6.9,0,Los Angeles,California,90001
20,Clear,2016-08-06 21:47:00,62.1,,-,62,N/A,29.81,75.9,2:47 PM,,10.0,Variable,4.6,0,Los Angeles,California,90001
21,Clear,2016-08-06 22:47:00,62.1,,-,64,N/A,29.80,75.0,3:47 PM,,10.0,Variable,4.6,0,Los Angeles,California,90001
22,Clear,2016-08-06 23:47:00,61.0,,-,64,N/A,29.79,73.9,4:47 PM,,10.0,Variable,4.6,0,Los Angeles,California,90001
23,Clear,2016-08-07 00:47:00,61.0,,-,66,N/A,29.78,73.0,5:47 PM,,10.0,Variable,6.9,0,Los Angeles,California,90001
24,Clear,2016-08-07 01:47:00,61.0,,-,70,N/A,29.78,71.1,6:47 PM,,10.0,West,8.1,280,Los Angeles,California,90001
25,Clear,2016-08-07 02:47:00,61.0,,-,75,N/A,29.79,69.1,7:47 PM,,10.0,West,5.8,280,Los Angeles,California,90001
26,Scattered Clouds,2016-08-07 03:47:00,61.0,,-,78,N/A,29.80,68.0,8:47 PM,,10.0,Calm,Calm,0,Los Angeles,California,90001
27,Mostly Cloudy,2016-08-07 04:18:00,61.0,,-,78,N/A,29.82,68.0,9:18 PM,,10.0,Calm,Calm,0,Los Angeles,California,90001
28,Overcast,2016-08-07 04:47:00,61.0,,-,81,N/A,29.82,66.9,9:47 PM,,10.0,West,3.5,280,Los Angeles,California,90001
29,Overcast,2016-08-07 05:47:00,61.0,,-,81,N/A,29.83,66.9,10:47 PM,,10.0,Calm,Calm,0,Los Angeles,California,90001
30,Overcast,2016-08-07 06:47:00,61.0,,-,84,N/A,29.84,66.0,11:47 PM,,10.0,Variable,3.5,0,Los Angeles,California,90001
0,Overcast,2016-08-07 07:47:00,61.0,,-,84,N/A,29.84,66.0,12:47 AM,,10.0,Calm,Calm,0,Los Angeles,California,90001
1,Overcast,2016-08-07 08:47:00,61.0,,-,84,N/A,29.83,66.0,1:47 AM,,8.0,Calm,Calm,0,Los Angeles,California,90001
2,Overcast,2016-08-07 09:47:00,61.0,,-,84,N/A,29.82,66.0,2:47 AM,,7.0,Calm,Calm,0,Los Angeles,California,90001
3,Overcast,2016-08-07 10:47:00,61.0,,-,81,N/A,29.81,66.9,3:47 AM,,7.0,Calm,Calm,0,Los Angeles,California,90001
4,Haze,2016-08-07 11:47:00,61.0,,-,81,N/A,29.81,66.9,4:47 AM,,6.0,Calm,Calm,0,Los Angeles,California,90001
5,Haze,2016-08-07 12:47:00,61.0,,-,81,N/A,29.81,66.9,5:47 AM,,6.0,Calm,Calm,0,Los Angeles,California,90001
6,Haze,2016-08-07 13:47:00,61.0,,-,81,N/A,29.82,66.9,6:47 AM,,5.0,WSW,3.5,250,Los Angeles,California,90001
7,Haze,2016-08-07 14:47:00,61.0,,-,81,N/A,29.83,66.9,7:47 AM,,5.0,Calm,Calm,0,Los Angeles,California,90001
8,Haze,2016-08-07 15:47:00,61.0,,-,75,N/A,29.83,69.1,8:47 AM,,4.0,Calm,Calm,0,Los Angeles,California,90001
9,Haze,2016-08-07 16:47:00,62.1,,-,71,N/A,29.82,72.0,9:47 AM,,5.0,Variable,3.5,0,Los Angeles,California,90001
10,Haze,2016-08-07 17:09:00,62.1,,-,64,N/A,29.82,75.0,10:09 AM,,5.0,Calm,Calm,0,Los Angeles,California,90001
11,Haze,2016-08-07 17:47:00,62.1,,-,62,N/A,29.81,75.9,10:47 AM,,5.0,Variable,3.5,0,Los Angeles,California,90001
12,Clear,2016-08-07 18:47:00,61.0,,-,56,N/A,29.81,78.1,11:47 AM,,9.0,Calm,Calm,0,Los Angeles,California,90001
13,Clear,2016-08-07 19:47:00,62.1,,-,60,N/A,29.81,77.0,12:47 PM,,10.0,Variable,3.5,0,Los Angeles,California,90001
14,Clear,2016-08-07 20:47:00,62.1,,-,60,N/A,29.80,77.0,1:47 PM,,10.0,Variable,4.6,0,Los Angeles,California,90001
15,Clear,2016-08-07 21:47:00,62.1,,-,62,N/A,29.79,75.9,2:47 PM,,10.0,Variable,4.6,0,Los Angeles,California,90001
16,Clear,2016-08-07 22:47:00,63.0,,-,64,N/A,29.78,75.9,3:47 PM,,10.0,Variable,5.8,0,Los Angeles,California,90001
17,Clear,2016-08-07 23:47:00,63.0,,-,66,N/A,29.78,75.0,4:47 PM,,10.0,Variable,5.8,0,Los Angeles,California,90001
18,Clear,2016-08-08 00:47:00,62.1,,-,66,N/A,29.76,73.9,5:47 PM,,10.0,West,5.8,270,Los Angeles,California,90001
19,Scattered Clouds,2016-08-08 01:47:00,62.1,,-,73,N/A,29.77,71.1,6:47 PM,,10.0,Variable,3.5,0,Los Angeles,California,90001
20,Clear,2016-08-08 02:47:00,62.1,,-,78,N/A,29.78,69.1,7:47 PM,,10.0,Calm,Calm,0,Los Angeles,California,90001
21,Clear,2016-08-08 03:47:00,62.1,,-,78,N/A,29.78,69.1,8:47 PM,,10.0,Calm,Calm,0,Los Angeles,California,90001
22,Clear,2016-08-08 04:47:00,62.1,,-,81,N/A,29.80,68.0,9:47 PM,,10.0,West,3.5,280,Los Angeles,California,90001
23,Clear,2016-08-08 05:47:00,62.1,,-,84,N/A,29.80,66.9,10:47 PM,,10.0,Calm,Calm,0,Los Angeles,California,90001
24,Clear,2016-08-08 06:47:00,62.1,,-,84,N/A,29.81,66.9,11:47 PM,,9.0,Calm,Calm,0,Los Angeles,California,90001
0,Mostly Cloudy,2016-08-08 07:20:00,62.1,,-,87,N/A,29.82,66.0,12:20 AM,,6.0,Calm,Calm,0,Los Angeles,California,90001
1,Haze,2016-08-08 07:41:00,62.1,,-,84,N/A,29.82,66.9,12:41 AM,,6.0,Calm,Calm,0,Los Angeles,California,90001
2,Overcast,2016-08-08 07:47:00,63.0,,-,87,N/A,29.81,66.9,12:47 AM,,5.0,Calm,Calm,0,Los Angeles,California,90001
3,Haze,2016-08-08 08:47:00,62.1,,-,84,N/A,29.81,66.9,1:47 AM,,6.0,Calm,Calm,0,Los Angeles,California,90001
4,Overcast,2016-08-08 09:47:00,62.1,,-,84,N/A,29.80,66.9,2:47 AM,,8.0,Calm,Calm,0,Los Angeles,California,90001
5,Overcast,2016-08-08 10:47:00,62.1,,-,84,N/A,29.80,66.9,3:47 AM,,7.0,Calm,Calm,0,Los Angeles,California,90001
6,Overcast,2016-08-08 11:47:00,62.1,,-,84,N/A,29.80,66.9,4:47 AM,,7.0,Calm,Calm,0,Los Angeles,California,90001
7,Overcast,2016-08-08 12:47:00,61.0,,-,78,N/A,29.80,68.0,5:47 AM,,7.0,ESE,4.6,120,Los Angeles,California,90001
8,Overcast,2016-08-08 13:34:00,61.0,,-,78,N/A,29.81,68.0,6:34 AM,,7.0,Calm,Calm,0,Los Angeles,California,90001
9,Haze,2016-08-08 13:47:00,61.0,,-,78,N/A,29.81,68.0,6:47 AM,,5.0,East,3.5,100,Los Angeles,California,90001
10,Haze,2016-08-08 14:47:00,62.1,,-,78,N/A,29.81,69.1,7:47 AM,,5.0,Calm,Calm,0,Los Angeles,California,90001
11,Haze,2016-08-08 15:47:00,61.0,,-,73,N/A,29.82,70.0,8:47 AM,,5.0,Calm,Calm,0,Los Angeles,California,90001
12,Haze,2016-08-08 16:47:00,62.1,,-,71,N/A,29.83,72.0,9:47 AM,,6.0,SE,4.6,140,Los Angeles,California,90001
13,Scattered Clouds,2016-08-08 17:36:00,63.0,,-,64,N/A,29.83,75.9,10:36 AM,,7.0,Calm,Calm,0,Los Angeles,California,90001
14,Scattered Clouds,2016-08-08 17:47:00,62.1,,-,62,N/A,29.83,75.9,10:47 AM,,7.0,Calm,Calm,0,Los Angeles,California,90001
15,Clear,2016-08-08 18:47:00,63.0,,-,54,N/A,29.82,81.0,11:47 AM,,8.0,Calm,Calm,0,Los Angeles,California,90001
16,Clear,2016-08-08 19:47:00,63.0,,-,58,N/A,29.82,79.0,12:47 PM,,9.0,Variable,3.5,0,Los Angeles,California,90001
17,Clear,2016-08-08 20:47:00,62.1,,-,58,N/A,29.81,78.1,1:47 PM,,10.0,North,-9999.0,0,Los Angeles,California,90001
18,Clear,2016-08-08 21:47:00,62.1,,-,58,N/A,29.80,78.1,2:47 PM,,10.0,West,8.1,280,Los Angeles,California,90001
19,Clear,2016-08-08 22:47:00,62.1,,-,60,N/A,29.79,77.0,3:47 PM,,10.0,Calm,Calm,0,Los Angeles,California,90001
20,Clear,2016-08-08 23:47:00,62.1,,-,62,N/A,29.79,75.9,4:47 PM,,10.0,Calm,Calm,0,Los Angeles,California,90001
21,Clear,2016-08-09 00:47:00,62.1,,-,64,N/A,29.78,75.0,5:47 PM,,10.0,Variable,4.6,0,Los Angeles,California,90001
22,Clear,2016-08-09 01:47:00,63.0,,-,68,N/A,29.78,73.9,6:47 PM,,10.0,West,6.9,270,Los Angeles,California,90001
23,Partly Cloudy,2016-08-09 02:47:00,62.1,,-,73,N/A,29.80,71.1,7:47 PM,,10.0,Variable,3.5,0,Los Angeles,California,90001
24,Clear,2016-08-09 03:47:00,62.1,,-,76,N/A,29.81,70.0,8:47 PM,,10.0,Calm,Calm,0,Los Angeles,California,90001
25,Mostly Cloudy,2016-08-09 04:23:00,63.0,,-,78,N/A,29.82,70.0,9:23 PM,,10.0,Variable,3.5,0,Los Angeles,California,90001
26,Overcast,2016-08-09 04:47:00,63.0,,-,78,N/A,29.83,70.0,9:47 PM,,9.0,West,3.5,280,Los Angeles,California,90001
27,Overcast,2016-08-09 05:47:00,62.1,,-,76,N/A,29.83,70.0,10:47 PM,,10.0,Calm,Calm,0,Los Angeles,California,90001
28,Overcast,2016-08-09 06:47:00,61.0,,-,73,N/A,29.84,70.0,11:47 PM,,9.0,Calm,Calm,0,Los Angeles,California,90001
0,Overcast,2016-08-09 07:47:00,61.0,,-,73,N/A,29.84,70.0,12:47 AM,,9.0,Calm,Calm,0,Los Angeles,California,90001
1,Overcast,2016-08-09 08:47:00,61.0,,-,75,N/A,29.83,69.1,1:47 AM,,8.0,Calm,Calm,0,Los Angeles,California,90001
2,Overcast,2016-08-09 09:47:00,61.0,,-,75,N/A,29.83,69.1,2:47 AM,,8.0,Calm,Calm,0,Los Angeles,California,90001
3,Overcast,2016-08-09 10:47:00,60.1,,-,73,N/A,29.82,69.1,3:47 AM,,8.0,Calm,Calm,0,Los Angeles,California,90001
4,Overcast,2016-08-09 11:47:00,60.1,,-,73,N/A,29.82,69.1,4:47 AM,,8.0,Calm,Calm,0,Los Angeles,California,90001
5,Overcast,2016-08-09 12:47:00,61.0,,-,75,N/A,29.82,69.1,5:47 AM,,9.0,Calm,Calm,0,Los Angeles,California,90001
6,Overcast,2016-08-09 13:47:00,60.1,,-,73,N/A,29.84,69.1,6:47 AM,,8.0,Calm,Calm,0,Los Angeles,California,90001
7,Overcast,2016-08-09 14:47:00,60.1,,-,71,N/A,29.86,70.0,7:47 AM,,8.0,Variable,3.5,0,Los Angeles,California,90001
8,Overcast,2016-08-09 15:47:00,60.1,,-,68,N/A,29.87,71.1,8:47 AM,,8.0,Calm,Calm,0,Los Angeles,California,90001
9,Overcast,2016-08-09 16:47:00,60.1,,-,66,N/A,29.88,72.0,9:47 AM,,8.0,Calm,Calm,0,Los Angeles,California,90001
10,Scattered Clouds,2016-08-09 17:42:00,61.0,,-,62,N/A,29.88,75.0,10:42 AM,,7.0,Calm,Calm,0,Los Angeles,California,90001
11,Partly Cloudy,2016-08-09 17:47:00,60.1,,-,62,N/A,29.88,73.9,10:47 AM,,7.0,Calm,Calm,0,Los Angeles,California,90001
12,Clear,2016-08-09 18:47:00,60.1,,-,52,N/A,29.87,79.0,11:47 AM,,8.0,Calm,Calm,0,Los Angeles,California,90001
13,Clear,2016-08-09 19:47:00,61.0,,-,54,N/A,29.86,79.0,12:47 PM,,10.0,Variable,3.5,0,Los Angeles,California,90001
14,Clear,2016-08-09 20:47:00,61.0,,-,56,N/A,29.86,78.1,1:47 PM,,10.0,Variable,3.5,0,Los Angeles,California,90001
15,Clear,2016-08-09 21:47:00,60.1,,-,56,N/A,29.84,77.0,2:47 PM,,10.0,Calm,Calm,0,Los Angeles,California,90001
16,Clear,2016-08-09 22:47:00,60.1,,-,56,N/A,29.83,77.0,3:47 PM,,10.0,Variable,5.8,0,Los Angeles,California,90001
17,Clear,2016-08-09 23:47:00,61.0,,-,60,N/A,29.81,75.9,4:47 PM,,10.0,Variable,4.6,0,Los Angeles,California,90001
18,Clear,2016-08-10 00:47:00,62.1,,-,62,N/A,29.81,75.9,5:47 PM,,10.0,West,5.8,270,Los Angeles,California,90001
19,Clear,2016-08-10 01:47:00,62.1,,-,68,N/A,29.81,73.0,6:47 PM,,10.0,West,5.8,270,Los Angeles,California,90001
20,Clear,2016-08-10 02:47:00,62.1,,-,76,N/A,29.82,70.0,7:47 PM,,10.0,West,4.6,280,Los Angeles,California,90001
21,Clear,2016-08-10 03:47:00,62.1,,-,78,N/A,29.84,69.1,8:47 PM,,10.0,Variable,3.5,0,Los Angeles,California,90001
22,Clear,2016-08-10 04:47:00,62.1,,-,81,N/A,29.86,68.0,9:47 PM,,10.0,Calm,Calm,0,Los Angeles,California,90001
23,Partly Cloudy,2016-08-10 05:47:00,62.1,,-,84,N/A,29.87,66.9,10:47 PM,,10.0,Calm,Calm,0,Los Angeles,California,90001
24,Mostly Cloudy,2016-08-10 06:09:00,62.1,,-,84,N/A,29.88,66.9,11:09 PM,,10.0,West,3.5,280,Los Angeles,California,90001
25,Mostly Cloudy,2016-08-10 06:47:00,62.1,,-,84,N/A,29.88,66.9,11:47 PM,,10.0,West,3.5,280,Los Angeles,California,90001
26,Scattered Clouds,2016-08-10 06:52:00,62.1,,-,84,N/A,29.88,66.9,11:52 PM,,10.0,Calm,Calm,0,Los Angeles,California,90001
0,Mostly Cloudy,2016-08-10 07:02:00,62.1,,-,84,N/A,29.89,66.9,12:02 AM,,10.0,Calm,Calm,0,Los Angeles,California,90001
1,Overcast,2016-08-10 07:44:00,62.1,,-,84,N/A,29.88,66.9,12:44 AM,,10.0,Calm,Calm,0,Los Angeles,California,90001
2,Overcast,2016-08-10 07:47:00,62.1,,-,84,N/A,29.88,66.9,12:47 AM,,10.0,Calm,Calm,0,Los Angeles,California,90001
3,Overcast,2016-08-10 08:47:00,61.0,,-,81,N/A,29.87,66.9,1:47 AM,,8.0,Calm,Calm,0,Los Angeles,California,90001
4,Overcast,2016-08-10 09:47:00,61.0,,-,78,N/A,29.86,68.0,2:47 AM,,8.0,Calm,Calm,0,Los Angeles,California,90001
5,Overcast,2016-08-10 10:47:00,61.0,,-,78,N/A,29.86,68.0,3:47 AM,,7.0,Calm,Calm,0,Los Angeles,California,90001
6,Mostly Cloudy,2016-08-10 11:47:00,60.1,,-,79,N/A,29.86,66.9,4:47 AM,,7.0,Calm,Calm,0,Los Angeles,California,90001
7,Scattered Clouds,2016-08-10 12:06:00,60.1,,-,81,N/A,29.87,66.0,5:06 AM,,8.0,Calm,Calm,0,Los Angeles,California,90001
8,Mostly Cloudy,2016-08-10 12:20:00,60.1,,-,81,N/A,29.87,66.0,5:20 AM,,8.0,Calm,Calm,0,Los Angeles,California,90001
9,Overcast,2016-08-10 12:47:00,60.1,,-,79,N/A,29.87,66.9,5:47 AM,,8.0,West,3.5,270,Los Angeles,California,90001
10,Haze,2016-08-10 13:47:00,60.1,,-,79,N/A,29.90,66.9,6:47 AM,,6.0,Calm,Calm,0,Los Angeles,California,90001
11,Haze,2016-08-10 14:47:00,60.1,,-,73,N/A,29.91,69.1,7:47 AM,,6.0,Calm,Calm,0,Los Angeles,California,90001
12,Overcast,2016-08-10 15:47:00,60.1,,-,71,N/A,29.93,70.0,8:47 AM,,7.0,Calm,Calm,0,Los Angeles,California,90001
13,Overcast,2016-08-10 16:47:00,60.1,,-,64,N/A,29.93,73.0,9:47 AM,,7.0,Calm,Calm,0,Los Angeles,California,90001
14,Scattered Clouds,2016-08-10 16:59:00,61.0,,-,60,N/A,29.93,75.9,9:59 AM,,7.0,Calm,Calm,0,Los Angeles,California,90001
15,Clear,2016-08-10 17:47:00,59.0,,-,54,N/A,29.93,77.0,10:47 AM,,7.0,Variable,3.5,0,Los Angeles,California,90001
16,Clear,2016-08-10 18:47:00,59.0,,-,48,N/A,29.92,80.1,11:47 AM,,8.0,Calm,Calm,0,Los Angeles,California,90001
17,Clear,2016-08-10 19:47:00,60.1,,-,50,N/A,29.90,80.1,12:47 PM,,10.0,Variable,5.8,0,Los Angeles,California,90001
18,Clear,2016-08-10 20:47:00,61.0,,-,56,N/A,29.90,78.1,1:47 PM,,10.0,Variable,4.6,0,Los Angeles,California,90001
19,Clear,2016-08-10 21:47:00,60.1,,-,54,N/A,29.88,78.1,2:47 PM,,10.0,Variable,5.8,0,Los Angeles,California,90001
20,Clear,2016-08-10 22:47:00,60.1,,-,54,N/A,29.87,78.1,3:47 PM,,10.0,Variable,5.8,0,Los Angeles,California,90001
21,Clear,2016-08-10 23:47:00,60.1,,-,56,N/A,29.87,77.0,4:47 PM,,10.0,Variable,3.5,0,Los Angeles,California,90001
22,Clear,2016-08-11 00:47:00,61.0,,-,60,N/A,29.87,75.9,5:47 PM,,10.0,West,4.6,260,Los Angeles,California,90001
23,Clear,2016-08-11 01:47:00,61.0,,-,66,N/A,29.87,73.0,6:47 PM,,10.0,Variable,3.5,0,Los Angeles,California,90001
24,Clear,2016-08-11 02:47:00,61.0,,-,73,N/A,29.89,70.0,7:47 PM,,10.0,West,3.5,270,Los Angeles,California,90001
25,Clear,2016-08-11 03:47:00,62.1,,-,78,N/A,29.91,69.1,8:47 PM,,10.0,Variable,3.5,0,Los Angeles,California,90001
26,Mostly Cloudy,2016-08-11 04:42:00,62.1,,-,81,N/A,29.94,68.0,9:42 PM,,10.0,Variable,3.5,0,Los Angeles,California,90001
27,Mostly Cloudy,2016-08-11 04:47:00,62.1,,-,81,N/A,29.94,68.0,9:47 PM,,10.0,West,3.5,280,Los Angeles,California,90001
28,Scattered Clouds,2016-08-11 04:50:00,62.1,,-,81,N/A,29.94,68.0,9:50 PM,,10.0,West,5.8,270,Los Angeles,California,90001
29,Mostly Cloudy,2016-08-11 04:58:00,62.1,,-,81,N/A,29.94,68.0,9:58 PM,,10.0,West,5.8,270,Los Angeles,California,90001
30,Mostly Cloudy,2016-08-11 05:47:00,62.1,,-,84,N/A,29.95,66.9,10:47 PM,,10.0,Calm,Calm,0,Los Angeles,California,90001
31,Scattered Clouds,2016-08-11 06:47:00,61.0,,-,81,N/A,29.96,66.9,11:47 PM,,10.0,Calm,Calm,0,Los Angeles,California,90001
0,Partly Cloudy,2016-08-11 07:47:00,61.0,,-,84,N/A,29.95,66.0,12:47 AM,,10.0,Calm,Calm,0,Los Angeles,California,90001
1,Mostly Cloudy,2016-08-11 07:57:00,61.0,,-,84,N/A,29.96,66.0,12:57 AM,,10.0,Calm,Calm,0,Los Angeles,California,90001
2,Overcast,2016-08-11 08:47:00,61.0,,-,81,N/A,29.95,66.9,1:47 AM,,10.0,Calm,Calm,0,Los Angeles,California,90001
3,Overcast,2016-08-11 09:47:00,61.0,,-,81,N/A,29.96,66.9,2:47 AM,,10.0,Calm,Calm,0,Los Angeles,California,90001
4,Overcast,2016-08-11 10:47:00,60.1,,-,76,N/A,29.95,68.0,3:47 AM,,10.0,Calm,Calm,0,Los Angeles,California,90001
5,Overcast,2016-08-11 11:47:00,60.1,,-,76,N/A,29.95,68.0,4:47 AM,,10.0,West,3.5,280,Los Angeles,California,90001
6,Overcast,2016-08-11 12:47:00,59.0,,-,73,N/A,29.96,68.0,5:47 AM,,10.0,Calm,Calm,0,Los Angeles,California,90001
7,Overcast,2016-08-11 13:47:00,59.0,,-,73,N/A,29.98,68.0,6:47 AM,,10.0,Variable,3.5,0,Los Angeles,California,90001
8,Overcast,2016-08-11 14:47:00,59.0,,-,73,N/A,30.00,68.0,7:47 AM,,10.0,Calm,Calm,0,Los Angeles,California,90001
9,Overcast,2016-08-11 15:47:00,59.0,,-,68,N/A,30.01,70.0,8:47 AM,,10.0,Calm,Calm,0,Los Angeles,California,90001
10,Scattered Clouds,2016-08-11 16:40:00,60.1,,-,62,N/A,30.02,73.9,9:40 AM,,10.0,Calm,Calm,0,Los Angeles,California,90001
11,Partly Cloudy,2016-08-11 16:47:00,59.0,,-,59,N/A,30.01,73.9,9:47 AM,,10.0,Variable,3.5,0,Los Angeles,California,90001
12,Clear,2016-08-11 17:47:00,59.0,,-,56,N/A,30.01,75.9,10:47 AM,,10.0,Calm,Calm,0,Los Angeles,California,90001
13,Clear,2016-08-11 18:47:00,57.9,,-,47,N/A,30.00,80.1,11:47 AM,,10.0,North,-9999.0,0,Los Angeles,California,90001
14,Clear,2016-08-11 19:47:00,59.0,,-,50,N/A,30.00,79.0,12:47 PM,,10.0,Calm,Calm,0,Los Angeles,California,90001
15,Clear,2016-08-11 20:47:00,59.0,,-,50,N/A,29.99,79.0,1:47 PM,,10.0,Variable,3.5,0,Los Angeles,California,90001
16,Clear,2016-08-11 21:47:00,59.0,,-,54,N/A,29.98,77.0,2:47 PM,,10.0,Variable,3.5,0,Los Angeles,California,90001
17,Clear,2016-08-11 22:47:00,59.0,,-,54,N/A,29.96,77.0,3:47 PM,,10.0,West,8.1,270,Los Angeles,California,90001
18,Clear,2016-08-11 23:47:00,61.0,,-,60,N/A,29.95,75.9,4:47 PM,,10.0,Variable,6.9,0,Los Angeles,California,90001
19,Clear,2016-08-12 00:47:00,61.0,,-,62,N/A,29.94,75.0,5:47 PM,,10.0,West,5.8,270,Los Angeles,California,90001
20,Clear,2016-08-12 01:47:00,61.0,,-,68,N/A,29.94,72.0,6:47 PM,,10.0,Variable,4.6,0,Los Angeles,California,90001
21,Clear,2016-08-12 02:47:00,61.0,,-,73,N/A,29.96,70.0,7:47 PM,,10.0,West,5.8,270,Los Angeles,California,90001
22,Scattered Clouds,2016-08-12 03:47:00,62.1,,-,78,N/A,29.97,69.1,8:47 PM,,10.0,Variable,4.6,0,Los Angeles,California,90001
23,Mostly Cloudy,2016-08-12 03:57:00,63.0,,-,81,N/A,29.98,69.1,8:57 PM,,10.0,Calm,Calm,0,Los Angeles,California,90001
24,Mostly Cloudy,2016-08-12 04:47:00,62.1,,-,81,N/A,30.00,68.0,9:47 PM,,10.0,Variable,3.5,0,Los Angeles,California,90001
25,Overcast,2016-08-12 05:47:00,62.1,,-,81,N/A,30.01,68.0,10:47 PM,,10.0,West,3.5,280,Los Angeles,California,90001
26,Mostly Cloudy,2016-08-12 06:47:00,62.1,,-,84,N/A,30.01,66.9,11:47 PM,,10.0,Calm,Calm,0,Los Angeles,California,90001
0,Scattered Clouds,2016-08-12 07:02:00,62.1,,-,84,N/A,30.02,66.9,12:02 AM,,10.0,Calm,Calm,0,Los Angeles,California,90001
1,Clear,2016-08-12 07:47:00,62.1,,-,87,N/A,30.01,66.0,12:47 AM,,10.0,Calm,Calm,0,Los Angeles,California,90001
2,Clear,2016-08-12 08:47:00,61.0,,-,84,N/A,30.01,66.0,1:47 AM,,9.0,Calm,Calm,0,Los Angeles,California,90001
3,Clear,2016-08-12 09:47:00,61.0,,-,84,N/A,29.99,66.0,2:47 AM,,10.0,WNW,3.5,290,Los Angeles,California,90001
4,Clear,2016-08-12 10:47:00,61.0,,-,87,N/A,29.99,64.9,3:47 AM,,10.0,Calm,Calm,0,Los Angeles,California,90001
5,Clear,2016-08-12 11:47:00,61.0,,-,87,N/A,29.99,64.9,4:47 AM,,10.0,Calm,Calm,0,Los Angeles,California,90001
6,Clear,2016-08-12 12:47:00,61.0,,-,87,N/A,29.99,64.9,5:47 AM,,10.0,Calm,Calm,0,Los Angeles,California,90001
7,Clear,2016-08-12 13:47:00,61.0,,-,84,N/A,30.01,66.0,6:47 AM,,10.0,Calm,Calm,0,Los Angeles,California,90001
8,Partly Cloudy,2016-08-12 14:47:00,61.0,,-,78,N/A,30.02,68.0,7:47 AM,,10.0,Calm,Calm,0,Los Angeles,California,90001
9,Mostly Cloudy,2016-08-12 15:07:00,62.1,,-,78,N/A,30.03,69.1,8:07 AM,,10.0,Variable,3.5,0,Los Angeles,California,90001
10,Scattered Clouds,2016-08-12 15:20:00,61.0,,-,75,N/A,30.03,69.1,8:20 AM,,10.0,Calm,Calm,0,Los Angeles,California,90001
11,Mostly Cloudy,2016-08-12 15:26:00,61.0,,-,73,N/A,30.03,70.0,8:26 AM,,10.0,Calm,Calm,0,Los Angeles,California,90001
12,Scattered Clouds,2016-08-12 15:37:00,61.0,,-,73,N/A,30.03,70.0,8:37 AM,,10.0,Calm,Calm,0,Los Angeles,California,90001
13,Partly Cloudy,2016-08-12 15:47:00,62.1,,-,73,N/A,30.03,71.1,8:47 AM,,10.0,Calm,Calm,0,Los Angeles,California,90001
14,Mostly Cloudy,2016-08-12 16:13:00,61.0,,-,68,N/A,30.03,72.0,9:13 AM,,10.0,Calm,Calm,0,Los Angeles,California,90001
15,Scattered Clouds,2016-08-12 16:18:00,62.1,,-,68,N/A,30.03,73.0,9:18 AM,,10.0,West,4.6,280,Los Angeles,California,90001
16,Clear,2016-08-12 16:47:00,62.1,,-,66,N/A,30.03,73.9,9:47 AM,,10.0,Calm,Calm,0,Los Angeles,California,90001
17,Clear,2016-08-12 17:47:00,62.1,,-,64,N/A,30.03,75.0,10:47 AM,,10.0,Variable,3.5,0,Los Angeles,California,90001
18,Clear,2016-08-12 18:47:00,62.1,,-,58,N/A,30.01,78.1,11:47 AM,,10.0,Variable,5.8,0,Los Angeles,California,90001
19,Clear,2016-08-12 19:47:00,61.0,,-,56,N/A,30.00,78.1,12:47 PM,,10.0,Variable,4.6,0,Los Angeles,California,90001
20,Clear,2016-08-12 20:47:00,62.1,,-,60,N/A,29.97,77.0,1:47 PM,,10.0,Variable,4.6,0,Los Angeles,California,90001
21,Clear,2016-08-12 21:47:00,62.1,,-,60,N/A,29.95,77.0,2:47 PM,,10.0,Variable,6.9,0,Los Angeles,California,90001
22,Clear,2016-08-12 22:47:00,62.1,,-,60,N/A,29.92,77.0,3:47 PM,,10.0,Variable,5.8,0,Los Angeles,California,90001
23,Clear,2016-08-12 23:47:00,62.1,,17.3,64,N/A,29.91,75.0,4:47 PM,,10.0,Variable,4.6,0,Los Angeles,California,90001
24,Clear,2016-08-13 00:47:00,62.1,,-,66,N/A,29.89,73.9,5:47 PM,,10.0,West,6.9,270,Los Angeles,California,90001
25,Clear,2016-08-13 01:47:00,62.1,,-,68,N/A,29.90,73.0,6:47 PM,,10.0,Variable,5.8,0,Los Angeles,California,90001
26,Clear,2016-08-13 02:47:00,62.1,,-,76,N/A,29.91,70.0,7:47 PM,,10.0,Variable,4.6,0,Los Angeles,California,90001
27,Clear,2016-08-13 03:47:00,62.1,,-,81,N/A,29.93,68.0,8:47 PM,,10.0,Variable,3.5,0,Los Angeles,California,90001
28,Scattered Clouds,2016-08-13 04:47:00,62.1,,-,81,N/A,29.96,68.0,9:47 PM,,10.0,Calm,Calm,0,Los Angeles,California,90001
29,Clear,2016-08-13 05:47:00,62.1,,-,81,N/A,29.96,68.0,10:47 PM,,10.0,Calm,Calm,0,Los Angeles,California,90001
30,Clear,2016-08-13 06:47:00,62.1,,-,84,N/A,29.95,66.9,11:47 PM,,10.0,Calm,Calm,0,Los Angeles,California,90001
0,Clear,2016-08-13 07:47:00,62.1,,-,84,N/A,29.95,66.9,12:47 AM,,10.0,Calm,Calm,0,Los Angeles,California,90001
1,Clear,2016-08-13 08:47:00,61.0,,-,81,N/A,29.94,66.9,1:47 AM,,10.0,Calm,Calm,0,Los Angeles,California,90001
2,Clear,2016-08-13 09:47:00,62.1,,-,84,N/A,29.93,66.9,2:47 AM,,10.0,Calm,Calm,0,Los Angeles,California,90001
3,Clear,2016-08-13 10:47:00,62.1,,-,87,N/A,29.93,66.0,3:47 AM,,10.0,Calm,Calm,0,Los Angeles,California,90001
4,Clear,2016-08-13 11:47:00,62.1,,-,87,N/A,29.92,66.0,4:47 AM,,10.0,Calm,Calm,0,Los Angeles,California,90001
5,Clear,2016-08-13 12:47:00,62.1,,-,87,N/A,29.92,66.0,5:47 AM,,10.0,Calm,Calm,0,Los Angeles,California,90001
6,Clear,2016-08-13 13:47:00,62.1,,-,87,N/A,29.93,66.0,6:47 AM,,10.0,Calm,Calm,0,Los Angeles,California,90001
7,Clear,2016-08-13 14:47:00,63.0,,-,78,N/A,29.94,70.0,7:47 AM,,10.0,Calm,Calm,0,Los Angeles,California,90001
8,Clear,2016-08-13 15:47:00,63.0,,-,71,N/A,29.94,73.0,8:47 AM,,10.0,Calm,Calm,0,Los Angeles,California,90001
9,Clear,2016-08-13 16:47:00,64.0,,-,64,N/A,29.94,77.0,9:47 AM,,10.0,Calm,Calm,0,Los Angeles,California,90001
10,Clear,2016-08-13 17:47:00,63.0,,-,52,N/A,29.93,82.0,10:47 AM,,10.0,Calm,Calm,0,Los Angeles,California,90001
11,Clear,2016-08-13 18:47:00,63.0,,-,51,N/A,29.91,82.9,11:47 AM,,10.0,West,4.6,270,Los Angeles,California,90001
12,Clear,2016-08-13 19:47:00,62.1,,-,47,N/A,29.90,84.0,12:47 PM,,10.0,Variable,3.5,0,Los Angeles,California,90001
13,Clear,2016-08-13 20:47:00,61.0,,-,49,N/A,29.88,82.0,1:47 PM,,10.0,Variable,3.5,0,Los Angeles,California,90001
14,Clear,2016-08-13 21:47:00,62.1,,-,54,N/A,29.86,80.1,2:47 PM,,10.0,Variable,4.6,0,Los Angeles,California,90001
15,Clear,2016-08-13 22:47:00,61.0,,-,54,N/A,29.85,79.0,3:47 PM,,10.0,Variable,5.8,0,Los Angeles,California,90001
16,Clear,2016-08-13 23:47:00,60.1,,-,52,N/A,29.83,79.0,4:47 PM,,10.0,Variable,5.8,0,Los Angeles,California,90001
17,Clear,2016-08-14 00:47:00,62.1,,-,60,N/A,29.82,77.0,5:47 PM,,10.0,West,5.8,270,Los Angeles,California,90001
18,Clear,2016-08-14 01:47:00,60.1,,-,60,N/A,29.81,75.0,6:47 PM,,10.0,Calm,Calm,0,Los Angeles,California,90001
19,Clear,2016-08-14 02:47:00,62.1,,-,68,N/A,29.82,73.0,7:47 PM,,10.0,Calm,Calm,0,Los Angeles,California,90001
20,Clear,2016-08-14 03:47:00,63.0,,-,75,N/A,29.84,71.1,8:47 PM,,10.0,Calm,Calm,0,Los Angeles,California,90001
21,Clear,2016-08-14 04:47:00,63.0,,-,75,N/A,29.86,71.1,9:47 PM,,10.0,Calm,Calm,0,Los Angeles,California,90001
22,Clear,2016-08-14 05:47:00,63.0,,-,78,N/A,29.87,70.0,10:47 PM,,10.0,Calm,Calm,0,Los Angeles,California,90001
23,Clear,2016-08-14 06:47:00,63.0,,-,78,N/A,29.88,70.0,11:47 PM,,10.0,Calm,Calm,0,Los Angeles,California,90001
0,Clear,2016-08-14 18:47:00,66.0,,-,51,N/A,29.86,86.0,11:47 AM,,10.0,WSW,3.5,250,Los Angeles,California,90001
1,Clear,2016-08-14 19:47:00,66.0,,-,60,N/A,29.86,81.0,12:47 PM,,10.0,Variable,5.8,0,Los Angeles,California,90001
2,Clear,2016-08-14 20:47:00,66.0,,-,62,N/A,29.86,80.1,1:47 PM,,10.0,North,-9999.0,0,Los Angeles,California,90001
3,Clear,2016-08-14 21:47:00,63.0,,-,54,N/A,29.85,81.0,2:47 PM,,10.0,Variable,5.8,0,Los Angeles,California,90001
4,Clear,2016-08-14 22:47:00,63.0,,-,54,N/A,29.83,81.0,3:47 PM,,10.0,Variable,3.5,0,Los Angeles,California,90001
5,Clear,2016-08-14 23:47:00,64.0,,-,56,N/A,29.82,81.0,4:47 PM,,10.0,WNW,5.8,290,Los Angeles,California,90001
6,Clear,2016-08-15 00:47:00,61.0,,-,52,N/A,29.81,80.1,5:47 PM,,10.0,Variable,3.5,0,Los Angeles,California,90001
7,Clear,2016-08-15 01:47:00,62.1,,-,60,N/A,29.81,77.0,6:47 PM,,10.0,West,3.5,260,Los Angeles,California,90001
8,Clear,2016-08-15 02:47:00,62.1,,-,66,N/A,29.81,73.9,7:47 PM,,10.0,Variable,3.5,0,Los Angeles,California,90001
9,Clear,2016-08-15 03:47:00,62.1,,-,68,N/A,29.82,73.0,8:47 PM,,10.0,Calm,Calm,0,Los Angeles,California,90001
10,Clear,2016-08-15 04:47:00,63.0,,-,71,N/A,29.83,73.0,9:47 PM,,10.0,Calm,Calm,0,Los Angeles,California,90001
11,Clear,2016-08-15 05:47:00,63.0,,-,71,N/A,29.84,73.0,10:47 PM,,10.0,Calm,Calm,0,Los Angeles,California,90001
12,Clear,2016-08-15 06:47:00,63.0,,-,75,N/A,29.85,71.1,11:47 PM,,10.0,Calm,Calm,0,Los Angeles,California,90001
0,Clear,2016-08-15 07:47:00,64.0,,-,84,N/A,29.86,69.1,12:47 AM,,10.0,Calm,Calm,0,Los Angeles,California,90001
1,Clear,2016-08-15 08:47:00,64.0,,-,81,N/A,29.86,70.0,1:47 AM,,9.0,Calm,Calm,0,Los Angeles,California,90001
2,Clear,2016-08-15 09:47:00,64.0,,-,87,N/A,29.86,68.0,2:47 AM,,7.0,Calm,Calm,0,Los Angeles,California,90001
3,Clear,2016-08-15 10:47:00,63.0,,-,87,N/A,29.85,66.9,3:47 AM,,8.0,Calm,Calm,0,Los Angeles,California,90001
4,Clear,2016-08-15 11:47:00,63.0,,-,90,N/A,29.85,66.0,4:47 AM,,8.0,Calm,Calm,0,Los Angeles,California,90001
5,Clear,2016-08-15 12:47:00,62.1,,-,90,N/A,29.86,64.9,5:47 AM,,6.0,Calm,Calm,0,Los Angeles,California,90001
6,Clear,2016-08-15 13:47:00,62.1,,-,90,N/A,29.88,64.9,6:47 AM,,3.0,Calm,Calm,0,Los Angeles,California,90001
7,Clear,2016-08-15 14:47:00,63.0,,-,87,N/A,29.89,66.9,7:47 AM,,3.0,Calm,Calm,0,Los Angeles,California,90001
8,Haze,2016-08-15 15:47:00,64.0,,-,76,N/A,29.90,72.0,8:47 AM,,4.0,Calm,Calm,0,Los Angeles,California,90001
9,Haze,2016-08-15 16:47:00,64.9,,-,62,N/A,29.90,79.0,9:47 AM,,6.0,Calm,Calm,0,Los Angeles,California,90001
10,Clear,2016-08-15 17:47:00,63.0,,-,51,N/A,29.89,82.9,10:47 AM,,8.0,Calm,Calm,0,Los Angeles,California,90001
11,Clear,2016-08-15 18:47:00,62.1,,-,40,N/A,29.87,89.1,11:47 AM,,10.0,West,3.5,280,Los Angeles,California,90001
12,Clear,2016-08-15 19:47:00,61.0,,-,39,N/A,29.86,89.1,12:47 PM,,10.0,Variable,3.5,0,Los Angeles,California,90001
13,Clear,2016-08-15 20:47:00,62.1,,-,42,N/A,29.84,88.0,1:47 PM,,10.0,West,5.8,280,Los Angeles,California,90001
14,Clear,2016-08-15 21:47:00,59.0,,-,40,N/A,29.83,86.0,2:47 PM,,10.0,Variable,3.5,0,Los Angeles,California,90001
15,Clear,2016-08-15 22:47:00,57.9,,-,42,N/A,29.83,82.9,3:47 PM,,10.0,Variable,3.5,0,Los Angeles,California,90001
16,Clear,2016-08-15 23:47:00,53.1,,-,34,N/A,29.82,84.0,4:47 PM,,10.0,West,6.9,270,Los Angeles,California,90001
17,Clear,2016-08-16 00:47:00,55.9,,-,41,N/A,29.81,82.0,5:47 PM,,10.0,Variable,3.5,0,Los Angeles,California,90001
18,Clear,2016-08-16 01:47:00,60.1,,-,54,N/A,29.81,78.1,6:47 PM,,10.0,Variable,4.6,0,Los Angeles,California,90001
19,Clear,2016-08-16 02:47:00,61.0,,-,68,N/A,29.83,72.0,7:47 PM,,10.0,Calm,Calm,0,Los Angeles,California,90001
20,Clear,2016-08-16 03:47:00,61.0,,-,73,N/A,29.84,70.0,8:47 PM,,10.0,Calm,Calm,0,Los Angeles,California,90001
21,Clear,2016-08-16 04:47:00,61.0,,-,75,N/A,29.86,69.1,9:47 PM,,10.0,Variable,3.5,0,Los Angeles,California,90001
22,Clear,2016-08-16 05:47:00,59.0,,-,73,N/A,29.86,68.0,10:47 PM,,10.0,WNW,3.5,290,Los Angeles,California,90001
23,Clear,2016-08-16 06:47:00,60.1,,-,79,N/A,29.85,66.9,11:47 PM,,10.0,Variable,3.5,0,Los Angeles,California,90001
0,Clear,2016-08-16 07:47:00,61.0,,-,84,N/A,29.85,66.0,12:47 AM,,10.0,Calm,Calm,0,Los Angeles,California,90001
1,Clear,2016-08-16 08:47:00,61.0,,-,87,N/A,29.84,64.9,1:47 AM,,10.0,Calm,Calm,0,Los Angeles,California,90001
2,Clear,2016-08-16 09:47:00,60.1,,-,84,N/A,29.84,64.9,2:47 AM,,10.0,Calm,Calm,0,Los Angeles,California,90001
3,Clear,2016-08-16 10:47:00,60.1,,-,87,N/A,29.84,64.0,3:47 AM,,10.0,Calm,Calm,0,Los Angeles,California,90001
4,Clear,2016-08-16 11:47:00,60.1,,-,90,N/A,29.84,63.0,4:47 AM,,9.0,Calm,Calm,0,Los Angeles,California,90001
5,Clear,2016-08-16 12:47:00,60.1,,-,90,N/A,29.85,63.0,5:47 AM,,8.0,Calm,Calm,0,Los Angeles,California,90001
6,Partly Cloudy,2016-08-16 13:28:00,60.1,,-,90,N/A,29.87,63.0,6:28 AM,,7.0,Calm,Calm,0,Los Angeles,California,90001
7,Mostly Cloudy,2016-08-16 13:41:00,60.1,,-,90,N/A,29.87,63.0,6:41 AM,,7.0,Calm,Calm,0,Los Angeles,California,90001
8,Mostly Cloudy,2016-08-16 13:47:00,60.1,,-,90,N/A,29.87,63.0,6:47 AM,,6.0,Calm,Calm,0,Los Angeles,California,90001
9,Scattered Clouds,2016-08-16 14:21:00,60.1,,-,90,N/A,29.89,63.0,7:21 AM,,5.0,Calm,Calm,0,Los Angeles,California,90001
10,Haze,2016-08-16 14:47:00,60.1,,-,84,N/A,29.89,64.9,7:47 AM,,6.0,Calm,Calm,0,Los Angeles,California,90001
11,Clear,2016-08-16 15:47:00,61.0,,-,75,N/A,29.89,69.1,8:47 AM,,7.0,Calm,Calm,0,Los Angeles,California,90001
12,Clear,2016-08-16 16:47:00,62.1,,-,64,N/A,29.88,75.0,9:47 AM,,9.0,Calm,Calm,0,Los Angeles,California,90001
13,Clear,2016-08-16 17:47:00,59.0,,-,48,N/A,29.88,80.1,10:47 AM,,10.0,Calm,Calm,0,Los Angeles,California,90001
14,Clear,2016-08-16 18:47:00,61.0,,-,46,N/A,29.86,84.0,11:47 AM,,10.0,Calm,Calm,0,Los Angeles,California,90001
15,Clear,2016-08-16 19:47:00,59.0,,-,41,N/A,29.85,84.9,12:47 PM,,10.0,Variable,3.5,0,Los Angeles,California,90001
16,Clear,2016-08-16 20:47:00,57.9,,-,38,N/A,29.84,86.0,1:47 PM,,10.0,Variable,3.5,0,Los Angeles,California,90001
17,Clear,2016-08-16 21:47:00,57.0,,-,41,N/A,29.83,82.9,2:47 PM,,10.0,Variable,4.6,0,Los Angeles,California,90001
18,Clear,2016-08-16 22:47:00,55.0,,-,37,N/A,29.81,84.0,3:47 PM,,10.0,Variable,4.6,0,Los Angeles,California,90001
19,Clear,2016-08-16 23:47:00,55.0,,-,39,N/A,29.79,82.0,4:47 PM,,10.0,Variable,4.6,0,Los Angeles,California,90001
20,Clear,2016-08-17 00:47:00,53.1,,-,37,N/A,29.78,82.0,5:47 PM,,10.0,Calm,Calm,0,Los Angeles,California,90001
21,Clear,2016-08-17 01:47:00,57.0,,-,52,N/A,29.79,75.9,6:47 PM,,10.0,Variable,3.5,0,Los Angeles,California,90001
22,Clear,2016-08-17 02:47:00,61.0,,-,73,N/A,29.82,70.0,7:47 PM,,10.0,West,4.6,270,Los Angeles,California,90001
23,Clear,2016-08-17 03:47:00,61.0,,-,81,N/A,29.84,66.9,8:47 PM,,10.0,Calm,Calm,0,Los Angeles,California,90001
24,Clear,2016-08-17 04:47:00,61.0,,-,84,N/A,29.85,66.0,9:47 PM,,10.0,Calm,Calm,0,Los Angeles,California,90001
25,Clear,2016-08-17 05:47:00,60.1,,-,84,N/A,29.86,64.9,10:47 PM,,10.0,Calm,Calm,0,Los Angeles,California,90001
26,Clear,2016-08-17 06:47:00,60.1,,-,87,N/A,29.86,64.0,11:47 PM,,10.0,Calm,Calm,0,Los Angeles,California,90001
0,Partly Cloudy,2016-08-17 07:36:00,60.1,,-,87,N/A,29.87,64.0,12:36 AM,,9.0,West,3.5,270,Los Angeles,California,90001
1,Clear,2016-08-17 07:47:00,60.1,,-,87,N/A,29.86,64.0,12:47 AM,,7.0,Calm,Calm,0,Los Angeles,California,90001
2,Clear,2016-08-17 08:47:00,60.1,,-,90,N/A,29.85,63.0,1:47 AM,,5.0,Calm,Calm,0,Los Angeles,California,90001
3,Partly Cloudy,2016-08-17 09:25:00,60.1,,-,93,N/A,29.85,62.1,2:25 AM,,5.0,Calm,Calm,0,Los Angeles,California,90001
4,Partly Cloudy,2016-08-17 09:47:00,60.1,,-,93,N/A,29.84,62.1,2:47 AM,,6.0,Calm,Calm,0,Los Angeles,California,90001
5,Mostly Cloudy,2016-08-17 10:34:00,60.1,,-,93,N/A,29.85,62.1,3:34 AM,,5.0,Calm,Calm,0,Los Angeles,California,90001
6,Mostly Cloudy,2016-08-17 10:47:00,60.1,,-,97,N/A,29.84,61.0,3:47 AM,,5.0,Calm,Calm,0,Los Angeles,California,90001
7,Overcast,2016-08-17 11:47:00,59.0,,-,93,N/A,29.84,61.0,4:47 AM,,4.0,Calm,Calm,0,Los Angeles,California,90001
8,Overcast,2016-08-17 12:15:00,59.0,,-,96,N/A,29.85,60.1,5:15 AM,,1.5,Calm,Calm,0,Los Angeles,California,90001
9,Fog,2016-08-17 12:20:00,57.9,Fog,-,93,N/A,29.85,60.1,5:20 AM,,0.5,Calm,Calm,0,Los Angeles,California,90001
10,Overcast,2016-08-17 12:31:00,59.0,,-,96,N/A,29.85,60.1,5:31 AM,,1.0,Calm,Calm,0,Los Angeles,California,90001
11,Mist,2016-08-17 12:41:00,59.0,,-,96,N/A,29.85,60.1,5:41 AM,,0.8,Calm,Calm,0,Los Angeles,California,90001
12,Fog,2016-08-17 12:47:00,59.0,Fog,-,96,N/A,29.84,60.1,5:47 AM,,0.5,Calm,Calm,0,Los Angeles,California,90001
13,Mist,2016-08-17 13:21:00,60.1,,-,100,N/A,29.85,60.1,6:21 AM,,1.0,Calm,Calm,0,Los Angeles,California,90001
14,Overcast,2016-08-17 13:47:00,60.1,,-,97,N/A,29.86,61.0,6:47 AM,,1.0,Calm,Calm,0,Los Angeles,California,90001
15,Fog,2016-08-17 13:50:00,60.1,Fog,-,97,N/A,29.86,61.0,6:50 AM,,0.5,Calm,Calm,0,Los Angeles,California,90001
16,Mist,2016-08-17 14:11:00,60.1,,-,100,N/A,29.86,60.1,7:11 AM,,1.0,Calm,Calm,0,Los Angeles,California,90001
17,Fog,2016-08-17 14:14:00,59.0,Fog,-,96,N/A,29.86,60.1,7:14 AM,,0.5,Calm,Calm,0,Los Angeles,California,90001
18,Overcast,2016-08-17 14:26:00,60.1,,-,97,N/A,29.87,61.0,7:26 AM,,1.0,Variable,3.5,0,Los Angeles,California,90001
19,Overcast,2016-08-17 14:47:00,60.1,,-,93,N/A,29.87,62.1,7:47 AM,,2.0,Calm,Calm,0,Los Angeles,California,90001
20,Overcast,2016-08-17 14:55:00,60.1,,-,93,N/A,29.87,62.1,7:55 AM,,3.0,WNW,3.5,290,Los Angeles,California,90001
21,Haze,2016-08-17 15:14:00,60.1,,-,84,N/A,29.87,64.9,8:14 AM,,4.0,Variable,3.5,0,Los Angeles,California,90001
22,Haze,2016-08-17 15:47:00,60.1,,-,79,N/A,29.86,66.9,8:47 AM,,5.0,West,4.6,280,Los Angeles,California,90001
23,Clear,2016-08-17 16:47:00,60.1,,-,62,N/A,29.86,73.9,9:47 AM,,8.0,Calm,Calm,0,Los Angeles,California,90001
24,Clear,2016-08-17 17:47:00,57.9,,-,48,N/A,29.86,79.0,10:47 AM,,10.0,Calm,Calm,0,Los Angeles,California,90001
25,Clear,2016-08-17 18:47:00,57.9,,-,47,N/A,29.86,80.1,11:47 AM,,10.0,Variable,3.5,0,Los Angeles,California,90001
26,Clear,2016-08-17 19:47:00,57.9,,-,45,N/A,29.85,81.0,12:47 PM,,10.0,Variable,3.5,0,Los Angeles,California,90001
27,Clear,2016-08-17 20:47:00,55.9,,-,39,N/A,29.84,82.9,1:47 PM,,10.0,Variable,4.6,0,Los Angeles,California,90001
28,Clear,2016-08-17 21:47:00,53.1,,-,36,N/A,29.82,82.9,2:47 PM,,10.0,West,6.9,280,Los Angeles,California,90001
29,Clear,2016-08-17 22:47:00,54.0,,-,38,N/A,29.81,82.0,3:47 PM,,10.0,West,5.8,270,Los Angeles,California,90001
30,Clear,2016-08-17 23:47:00,55.9,,-,45,N/A,29.80,79.0,4:47 PM,,10.0,Variable,3.5,0,Los Angeles,California,90001
31,Clear,2016-08-18 00:47:00,55.9,,-,43,N/A,29.80,80.1,5:47 PM,,10.0,West,3.5,270,Los Angeles,California,90001
32,Clear,2016-08-18 01:47:00,57.9,,-,54,N/A,29.78,75.9,6:47 PM,,10.0,Variable,3.5,0,Los Angeles,California,90001
33,Clear,2016-08-18 02:47:00,57.9,,-,63,N/A,29.80,71.1,7:47 PM,,10.0,Calm,Calm,0,Los Angeles,California,90001
34,Clear,2016-08-18 03:47:00,59.0,,-,76,N/A,29.82,66.9,8:47 PM,,10.0,West,3.5,270,Los Angeles,California,90001
35,Clear,2016-08-18 04:47:00,59.0,,-,78,N/A,29.83,66.0,9:47 PM,,10.0,Calm,Calm,0,Los Angeles,California,90001
36,Clear,2016-08-18 05:47:00,59.0,,-,84,N/A,29.83,64.0,10:47 PM,,10.0,Calm,Calm,0,Los Angeles,California,90001
37,Clear,2016-08-18 06:47:00,60.1,,-,90,N/A,29.85,63.0,11:47 PM,,10.0,Calm,Calm,0,Los Angeles,California,90001
0,Clear,2016-08-18 07:47:00,59.0,,-,87,N/A,29.85,63.0,12:47 AM,,9.0,Calm,Calm,0,Los Angeles,California,90001
1,Clear,2016-08-18 08:47:00,59.0,,-,90,N/A,29.86,62.1,1:47 AM,,8.0,Calm,Calm,0,Los Angeles,California,90001
2,Partly Cloudy,2016-08-18 09:07:00,59.0,,-,90,N/A,29.86,62.1,2:07 AM,,8.0,Calm,Calm,0,Los Angeles,California,90001
3,Mostly Cloudy,2016-08-18 09:16:00,59.0,,-,90,N/A,29.86,62.1,2:16 AM,,8.0,Calm,Calm,0,Los Angeles,California,90001
4,Overcast,2016-08-18 09:47:00,59.0,,-,90,N/A,29.86,62.1,2:47 AM,,7.0,Calm,Calm,0,Los Angeles,California,90001
5,Overcast,2016-08-18 10:47:00,59.0,,-,90,N/A,29.86,62.1,3:47 AM,,6.0,Calm,Calm,0,Los Angeles,California,90001
6,Mostly Cloudy,2016-08-18 11:47:00,57.9,,-,90,N/A,29.86,61.0,4:47 AM,,6.0,Calm,Calm,0,Los Angeles,California,90001
7,Overcast,2016-08-18 12:47:00,57.9,,-,90,N/A,29.87,61.0,5:47 AM,,5.0,Calm,Calm,0,Los Angeles,California,90001
8,Overcast,2016-08-18 13:47:00,57.9,,-,90,N/A,29.88,61.0,6:47 AM,,4.0,Calm,Calm,0,Los Angeles,California,90001
9,Haze,2016-08-18 14:15:00,57.9,,-,84,N/A,29.89,63.0,7:15 AM,,5.0,Calm,Calm,0,Los Angeles,California,90001
10,Haze,2016-08-18 14:47:00,59.0,,-,84,N/A,29.89,64.0,7:47 AM,,5.0,Variable,3.5,0,Los Angeles,California,90001
11,Haze,2016-08-18 15:47:00,59.0,,-,73,N/A,29.90,68.0,8:47 AM,,5.0,Calm,Calm,0,Los Angeles,California,90001
12,Haze,2016-08-18 16:47:00,60.1,,-,68,N/A,29.90,71.1,9:47 AM,,5.0,Calm,Calm,0,Los Angeles,California,90001
13,Haze,2016-08-18 17:47:00,60.1,,-,62,N/A,29.90,73.9,10:47 AM,,6.0,Variable,3.5,0,Los Angeles,California,90001
14,Clear,2016-08-18 18:47:00,59.0,,-,48,N/A,29.89,80.1,11:47 AM,,8.0,Calm,Calm,0,Los Angeles,California,90001
15,Clear,2016-08-18 19:47:00,57.9,,-,44,N/A,29.87,82.0,12:47 PM,,9.0,Calm,Calm,0,Los Angeles,California,90001
16,Clear,2016-08-18 20:47:00,59.0,,-,45,N/A,29.86,82.0,1:47 PM,,10.0,Variable,3.5,0,Los Angeles,California,90001
17,Clear,2016-08-18 21:47:00,57.9,,-,44,N/A,29.84,82.0,2:47 PM,,10.0,Calm,Calm,0,Los Angeles,California,90001
18,Clear,2016-08-18 22:47:00,59.0,,-,48,N/A,29.83,80.1,3:47 PM,,10.0,Calm,Calm,0,Los Angeles,California,90001
19,Clear,2016-08-18 23:47:00,60.1,,-,54,N/A,29.82,78.1,4:47 PM,,10.0,Variable,3.5,0,Los Angeles,California,90001
20,Clear,2016-08-19 00:47:00,59.0,,-,56,N/A,29.82,75.9,5:47 PM,,10.0,West,6.9,270,Los Angeles,California,90001
21,Clear,2016-08-19 01:47:00,60.1,,-,66,N/A,29.82,72.0,6:47 PM,,10.0,Variable,4.6,0,Los Angeles,California,90001
22,Clear,2016-08-19 02:47:00,60.1,,-,73,N/A,29.84,69.1,7:47 PM,,10.0,Variable,5.8,0,Los Angeles,California,90001
23,Clear,2016-08-19 03:47:00,61.0,,-,81,N/A,29.87,66.9,8:47 PM,,10.0,West,5.8,270,Los Angeles,California,90001
24,Mostly Cloudy,2016-08-19 04:32:00,61.0,,-,84,N/A,29.89,66.0,9:32 PM,,10.0,Variable,3.5,0,Los Angeles,California,90001
25,Mostly Cloudy,2016-08-19 04:47:00,60.1,,-,81,N/A,29.89,66.0,9:47 PM,,10.0,Variable,3.5,0,Los Angeles,California,90001
26,Scattered Clouds,2016-08-19 05:08:00,60.1,,-,84,N/A,29.90,64.9,10:08 PM,,10.0,Calm,Calm,0,Los Angeles,California,90001
27,Mostly Cloudy,2016-08-19 05:11:00,60.1,,-,84,N/A,29.90,64.9,10:11 PM,,10.0,Calm,Calm,0,Los Angeles,California,90001
28,Scattered Clouds,2016-08-19 05:14:00,60.1,,-,84,N/A,29.90,64.9,10:14 PM,,10.0,West,3.5,260,Los Angeles,California,90001
29,Partly Cloudy,2016-08-19 05:47:00,60.1,,-,84,N/A,29.91,64.9,10:47 PM,,10.0,Calm,Calm,0,Los Angeles,California,90001
30,Clear,2016-08-19 06:47:00,59.0,,-,84,N/A,29.91,64.0,11:47 PM,,10.0,Calm,Calm,0,Los Angeles,California,90001
0,Clear,2016-08-19 07:47:00,60.1,,-,87,N/A,29.91,64.0,12:47 AM,,8.0,Calm,Calm,0,Los Angeles,California,90001
1,Clear,2016-08-19 08:47:00,59.0,,-,87,N/A,29.91,63.0,1:47 AM,,7.0,West,3.5,270,Los Angeles,California,90001
2,Clear,2016-08-19 09:47:00,59.0,,-,90,N/A,29.90,62.1,2:47 AM,,10.0,Calm,Calm,0,Los Angeles,California,90001
3,Clear,2016-08-19 10:47:00,59.0,,-,90,N/A,29.90,62.1,3:47 AM,,10.0,Calm,Calm,0,Los Angeles,California,90001
4,Clear,2016-08-19 11:47:00,57.9,,-,86,N/A,29.89,62.1,4:47 AM,,10.0,Calm,Calm,0,Los Angeles,California,90001
5,Clear,2016-08-19 12:47:00,57.9,,-,86,N/A,29.90,62.1,5:47 AM,,9.0,Calm,Calm,0,Los Angeles,California,90001
6,Clear,2016-08-19 13:47:00,57.9,,-,86,N/A,29.91,62.1,6:47 AM,,8.0,Calm,Calm,0,Los Angeles,California,90001
7,Clear,2016-08-19 14:47:00,57.9,,-,75,N/A,29.92,66.0,7:47 AM,,10.0,Calm,Calm,0,Los Angeles,California,90001
8,Clear,2016-08-19 15:47:00,59.0,,-,68,N/A,29.91,70.0,8:47 AM,,9.0,West,3.5,280,Los Angeles,California,90001
9,Clear,2016-08-19 16:47:00,60.1,,-,60,N/A,29.91,75.0,9:47 AM,,10.0,Calm,Calm,0,Los Angeles,California,90001
10,Clear,2016-08-19 17:47:00,60.1,,-,52,N/A,29.91,79.0,10:47 AM,,10.0,Calm,Calm,0,Los Angeles,California,90001
11,Clear,2016-08-19 18:47:00,60.1,,-,50,N/A,29.91,80.1,11:47 AM,,10.0,Variable,3.5,0,Los Angeles,California,90001
12,Clear,2016-08-19 19:47:00,59.0,,-,50,N/A,29.91,79.0,12:47 PM,,10.0,Calm,Calm,0,Los Angeles,California,90001
13,Clear,2016-08-19 20:47:00,59.0,,-,50,N/A,29.89,79.0,1:47 PM,,10.0,Variable,4.6,0,Los Angeles,California,90001
14,Clear,2016-08-19 21:47:00,59.0,,-,52,N/A,29.88,78.1,2:47 PM,,10.0,Variable,3.5,0,Los Angeles,California,90001
15,Clear,2016-08-19 22:47:00,59.0,,-,54,N/A,29.86,77.0,3:47 PM,,10.0,Variable,4.6,0,Los Angeles,California,90001
16,Clear,2016-08-19 23:47:00,60.1,,-,58,N/A,29.85,75.9,4:47 PM,,10.0,Variable,3.5,0,Los Angeles,California,90001
17,Clear,2016-08-20 00:47:00,60.1,,-,62,N/A,29.84,73.9,5:47 PM,,10.0,Variable,4.6,0,Los Angeles,California,90001
18,Clear,2016-08-20 01:47:00,59.0,,-,64,N/A,29.85,72.0,6:47 PM,,10.0,West,4.6,260,Los Angeles,California,90001
19,Clear,2016-08-20 02:47:00,60.1,,-,73,N/A,29.87,69.1,7:47 PM,,10.0,West,4.6,270,Los Angeles,California,90001
20,Clear,2016-08-20 03:47:00,60.1,,-,79,N/A,29.89,66.9,8:47 PM,,10.0,West,5.8,270,Los Angeles,California,90001
21,Partly Cloudy,2016-08-20 04:47:00,60.1,,-,81,N/A,29.91,66.0,9:47 PM,,10.0,Variable,3.5,0,Los Angeles,California,90001
22,Clear,2016-08-20 05:47:00,60.1,,-,84,N/A,29.93,64.9,10:47 PM,,10.0,Calm,Calm,0,Los Angeles,California,90001
23,Clear,2016-08-20 06:47:00,60.1,,-,84,N/A,29.94,64.9,11:47 PM,,10.0,Calm,Calm,0,Los Angeles,California,90001
0,Mostly Cloudy,2016-08-20 07:12:00,60.1,,-,84,N/A,29.95,64.9,12:12 AM,,10.0,Calm,Calm,0,Los Angeles,California,90001
1,Scattered Clouds,2016-08-20 07:47:00,60.1,,-,84,N/A,29.93,64.9,12:47 AM,,10.0,Calm,Calm,0,Los Angeles,California,90001
2,Scattered Clouds,2016-08-20 07:50:00,60.1,,-,84,N/A,29.94,64.9,12:50 AM,,10.0,West,3.5,280,Los Angeles,California,90001
3,Clear,2016-08-20 08:47:00,59.0,,-,84,N/A,29.93,64.0,1:47 AM,,10.0,Calm,Calm,0,Los Angeles,California,90001
4,Clear,2016-08-20 09:47:00,59.0,,-,84,N/A,29.92,64.0,2:47 AM,,10.0,Calm,Calm,0,Los Angeles,California,90001
5,Clear,2016-08-20 10:47:00,59.0,,-,87,N/A,29.91,63.0,3:47 AM,,10.0,Calm,Calm,0,Los Angeles,California,90001
6,Clear,2016-08-20 11:47:00,59.0,,-,87,N/A,29.91,63.0,4:47 AM,,10.0,Calm,Calm,0,Los Angeles,California,90001
7,Clear,2016-08-20 12:47:00,59.0,,-,87,N/A,29.91,63.0,5:47 AM,,10.0,Calm,Calm,0,Los Angeles,California,90001
8,Clear,2016-08-20 13:47:00,59.0,,-,87,N/A,29.93,63.0,6:47 AM,,10.0,Calm,Calm,0,Los Angeles,California,90001
9,Clear,2016-08-20 14:47:00,60.1,,-,81,N/A,29.94,66.0,7:47 AM,,10.0,Calm,Calm,0,Los Angeles,California,90001
10,Mostly Cloudy,2016-08-20 15:43:00,61.0,,-,78,N/A,29.94,68.0,8:43 AM,,10.0,West,3.5,280,Los Angeles,California,90001
11,Mostly Cloudy,2016-08-20 15:47:00,61.0,,-,75,N/A,29.94,69.1,8:47 AM,,10.0,West,4.6,270,Los Angeles,California,90001
12,Scattered Clouds,2016-08-20 16:29:00,60.1,,-,73,N/A,29.95,69.1,9:29 AM,,10.0,Variable,3.5,0,Los Angeles,California,90001
13,Clear,2016-08-20 16:47:00,60.1,,-,71,N/A,29.95,70.0,9:47 AM,,10.0,West,3.5,270,Los Angeles,California,90001
14,Clear,2016-08-20 17:47:00,60.1,,-,64,N/A,29.94,73.0,10:47 AM,,10.0,Calm,Calm,0,Los Angeles,California,90001
15,Clear,2016-08-20 18:47:00,59.0,,-,57,N/A,29.92,75.0,11:47 AM,,10.0,Variable,4.6,0,Los Angeles,California,90001
16,Clear,2016-08-20 19:47:00,59.0,,-,57,N/A,29.92,75.0,12:47 PM,,10.0,West,5.8,280,Los Angeles,California,90001
17,Clear,2016-08-20 20:47:00,57.9,,-,57,N/A,29.91,73.9,1:47 PM,,10.0,West,8.1,270,Los Angeles,California,90001
18,Clear,2016-08-20 21:47:00,57.0,,-,55,N/A,29.89,73.9,2:47 PM,,10.0,North,-9999.0,0,Los Angeles,California,90001
19,Clear,2016-08-20 22:47:00,57.9,,-,59,N/A,29.88,73.0,3:47 PM,,10.0,West,8.1,270,Los Angeles,California,90001
20,Clear,2016-08-20 23:47:00,57.9,,-,59,N/A,29.87,73.0,4:47 PM,,10.0,Variable,4.6,0,Los Angeles,California,90001
21,Clear,2016-08-21 00:47:00,59.0,,-,66,N/A,29.85,71.1,5:47 PM,,10.0,West,5.8,270,Los Angeles,California,90001
22,Clear,2016-08-21 01:47:00,57.9,,-,70,N/A,29.85,68.0,6:47 PM,,10.0,Variable,4.6,0,Los Angeles,California,90001
23,Clear,2016-08-21 02:47:00,57.9,,-,73,N/A,29.86,66.9,7:47 PM,,10.0,Variable,3.5,0,Los Angeles,California,90001
24,Clear,2016-08-21 03:47:00,57.9,,-,75,N/A,29.86,66.0,8:47 PM,,10.0,Calm,Calm,0,Los Angeles,California,90001
25,Clear,2016-08-21 04:47:00,59.0,,-,81,N/A,29.88,64.9,9:47 PM,,10.0,Calm,Calm,0,Los Angeles,California,90001
26,Clear,2016-08-21 05:47:00,59.0,,-,81,N/A,29.88,64.9,10:47 PM,,10.0,Calm,Calm,0,Los Angeles,California,90001
27,Clear,2016-08-21 06:47:00,59.0,,-,81,N/A,29.88,64.9,11:47 PM,,10.0,Calm,Calm,0,Los Angeles,California,90001
0,Clear,2016-08-21 07:47:00,59.0,,-,81,N/A,29.87,64.9,12:47 AM,,10.0,Calm,Calm,0,Los Angeles,California,90001
1,Clear,2016-08-21 08:47:00,59.0,,-,84,N/A,29.86,64.0,1:47 AM,,10.0,Calm,Calm,0,Los Angeles,California,90001
2,Clear,2016-08-21 09:47:00,59.0,,-,84,N/A,29.86,64.0,2:47 AM,,10.0,Calm,Calm,0,Los Angeles,California,90001
3,Clear,2016-08-21 10:47:00,59.0,,-,81,N/A,29.86,64.9,3:47 AM,,10.0,Calm,Calm,0,Los Angeles,California,90001
4,Clear,2016-08-21 11:47:00,59.0,,-,84,N/A,29.87,64.0,4:47 AM,,10.0,Calm,Calm,0,Los Angeles,California,90001
5,Clear,2016-08-21 12:47:00,59.0,,-,87,N/A,29.89,63.0,5:47 AM,,10.0,Calm,Calm,0,Los Angeles,California,90001
6,Clear,2016-08-21 13:47:00,59.0,,-,84,N/A,29.91,64.0,6:47 AM,,9.0,Calm,Calm,0,Los Angeles,California,90001
7,Clear,2016-08-21 14:47:00,61.0,,-,81,N/A,29.91,66.9,7:47 AM,,10.0,Calm,Calm,0,Los Angeles,California,90001
8,Clear,2016-08-21 15:47:00,62.1,,-,76,N/A,29.92,70.0,8:47 AM,,10.0,Calm,Calm,0,Los Angeles,California,90001
9,Clear,2016-08-21 16:47:00,63.0,,-,66,N/A,29.91,75.0,9:47 AM,,10.0,Calm,Calm,0,Los Angeles,California,90001
10,Clear,2016-08-21 17:47:00,60.1,,-,54,N/A,29.92,78.1,10:47 AM,,10.0,Calm,Calm,0,Los Angeles,California,90001
11,Clear,2016-08-21 18:47:00,60.1,,-,49,N/A,29.91,81.0,11:47 AM,,10.0,Variable,4.6,0,Los Angeles,California,90001
12,Clear,2016-08-21 19:47:00,62.1,,-,54,N/A,29.90,80.1,12:47 PM,,10.0,Variable,4.6,0,Los Angeles,California,90001
13,Clear,2016-08-21 20:47:00,61.0,,-,56,N/A,29.89,78.1,1:47 PM,,10.0,Variable,4.6,0,Los Angeles,California,90001
14,Clear,2016-08-21 21:47:00,59.0,,-,52,N/A,29.87,78.1,2:47 PM,,10.0,Calm,Calm,0,Los Angeles,California,90001
15,Clear,2016-08-21 22:47:00,57.9,,-,50,N/A,29.86,78.1,3:47 PM,,10.0,West,5.8,270,Los Angeles,California,90001
16,Clear,2016-08-21 23:47:00,57.9,,-,55,N/A,29.85,75.0,4:47 PM,,10.0,West,5.8,260,Los Angeles,California,90001
17,Clear,2016-08-22 00:47:00,59.0,,-,59,N/A,29.84,73.9,5:47 PM,,10.0,West,6.9,270,Los Angeles,California,90001
18,Clear,2016-08-22 01:47:00,57.9,,-,61,N/A,29.84,72.0,6:47 PM,,10.0,Variable,3.5,0,Los Angeles,California,90001
19,Clear,2016-08-22 02:47:00,57.9,,-,65,N/A,29.83,70.0,7:47 PM,,10.0,Calm,Calm,0,Los Angeles,California,90001
20,Clear,2016-08-22 03:47:00,59.0,,-,76,N/A,29.84,66.9,8:47 PM,,10.0,Calm,Calm,0,Los Angeles,California,90001
21,Clear,2016-08-22 04:47:00,59.0,,-,78,N/A,29.86,66.0,9:47 PM,,10.0,Calm,Calm,0,Los Angeles,California,90001
22,Clear,2016-08-22 05:47:00,59.0,,-,78,N/A,29.86,66.0,10:47 PM,,10.0,Calm,Calm,0,Los Angeles,California,90001
23,Clear,2016-08-22 06:47:00,59.0,,-,78,N/A,29.87,66.0,11:47 PM,,10.0,Calm,Calm,0,Los Angeles,California,90001
0,Clear,2016-08-22 07:47:00,60.1,,-,87,N/A,29.88,64.0,12:47 AM,,6.0,Calm,Calm,0,Los Angeles,California,90001
1,Clear,2016-08-22 08:47:00,60.1,,-,84,N/A,29.88,64.9,1:47 AM,,10.0,Calm,Calm,0,Los Angeles,California,90001
2,Clear,2016-08-22 09:47:00,60.1,,-,87,N/A,29.88,64.0,2:47 AM,,10.0,Calm,Calm,0,Los Angeles,California,90001
3,Clear,2016-08-22 10:47:00,60.1,,-,87,N/A,29.88,64.0,3:47 AM,,9.0,Calm,Calm,0,Los Angeles,California,90001
4,Clear,2016-08-22 11:47:00,60.1,,-,87,N/A,29.88,64.0,4:47 AM,,9.0,Calm,Calm,0,Los Angeles,California,90001
5,Clear,2016-08-22 12:47:00,60.1,,-,87,N/A,29.88,64.0,5:47 AM,,9.0,Calm,Calm,0,Los Angeles,California,90001
6,Clear,2016-08-22 13:47:00,60.1,,-,87,N/A,29.90,64.0,6:47 AM,,8.0,Calm,Calm,0,Los Angeles,California,90001
7,Clear,2016-08-22 14:47:00,61.0,,-,78,N/A,29.91,68.0,7:47 AM,,9.0,Calm,Calm,0,Los Angeles,California,90001
8,Clear,2016-08-22 15:47:00,61.0,,-,70,N/A,29.93,71.1,8:47 AM,,10.0,Calm,Calm,0,Los Angeles,California,90001
9,Clear,2016-08-22 16:47:00,61.0,,-,64,N/A,29.92,73.9,9:47 AM,,10.0,Calm,Calm,0,Los Angeles,California,90001
10,Clear,2016-08-22 17:47:00,59.0,,-,50,N/A,29.92,79.0,10:47 AM,,10.0,Calm,Calm,0,Los Angeles,California,90001
11,Clear,2016-08-22 18:47:00,59.0,,-,44,N/A,29.91,82.9,11:47 AM,,10.0,West,4.6,260,Los Angeles,California,90001
12,Clear,2016-08-22 19:47:00,63.0,,-,56,N/A,29.91,80.1,12:47 PM,,10.0,Variable,3.5,0,Los Angeles,California,90001
13,Clear,2016-08-22 20:47:00,62.1,,-,56,N/A,29.89,79.0,1:47 PM,,10.0,Variable,4.6,0,Los Angeles,California,90001
14,Clear,2016-08-22 21:47:00,62.1,,-,58,N/A,29.89,78.1,2:47 PM,,10.0,Variable,3.5,0,Los Angeles,California,90001
15,Clear,2016-08-22 22:47:00,62.1,,-,58,N/A,29.89,78.1,3:47 PM,,10.0,Variable,4.6,0,Los Angeles,California,90001
16,Clear,2016-08-22 23:47:00,61.0,,-,56,N/A,29.88,78.1,4:47 PM,,10.0,Variable,5.8,0,Los Angeles,California,90001
17,Clear,2016-08-23 00:47:00,62.1,,-,62,N/A,29.88,75.9,5:47 PM,,10.0,West,5.8,260,Los Angeles,California,90001
18,Clear,2016-08-23 01:47:00,59.0,,-,64,N/A,29.88,72.0,6:47 PM,,10.0,Variable,4.6,0,Los Angeles,California,90001
19,Clear,2016-08-23 02:47:00,59.0,,-,70,N/A,29.90,69.1,7:47 PM,,10.0,West,5.8,270,Los Angeles,California,90001
20,Clear,2016-08-23 03:47:00,61.0,,-,81,N/A,29.91,66.9,8:47 PM,,10.0,Calm,Calm,0,Los Angeles,California,90001
21,Clear,2016-08-23 04:47:00,59.0,,-,76,N/A,29.92,66.9,9:47 PM,,10.0,West,3.5,270,Los Angeles,California,90001
22,Clear,2016-08-23 05:47:00,60.1,,-,81,N/A,29.94,66.0,10:47 PM,,10.0,Calm,Calm,0,Los Angeles,California,90001
23,Clear,2016-08-23 06:47:00,59.0,,-,78,N/A,29.95,66.0,11:47 PM,,10.0,Calm,Calm,0,Los Angeles,California,90001
0,Clear,2016-08-23 07:47:00,59.0,,-,78,N/A,29.95,66.0,12:47 AM,,10.0,Calm,Calm,0,Los Angeles,California,90001
1,Clear,2016-08-23 08:47:00,59.0,,-,81,N/A,29.94,64.9,1:47 AM,,10.0,Calm,Calm,0,Los Angeles,California,90001
2,Clear,2016-08-23 09:47:00,59.0,,-,81,N/A,29.94,64.9,2:47 AM,,10.0,Calm,Calm,0,Los Angeles,California,90001
3,Clear,2016-08-23 10:47:00,59.0,,-,81,N/A,29.95,64.9,3:47 AM,,10.0,Calm,Calm,0,Los Angeles,California,90001
4,Clear,2016-08-23 11:47:00,59.0,,-,84,N/A,29.95,64.0,4:47 AM,,10.0,Calm,Calm,0,Los Angeles,California,90001
5,Clear,2016-08-23 12:47:00,59.0,,-,84,N/A,29.96,64.0,5:47 AM,,10.0,Calm,Calm,0,Los Angeles,California,90001
6,Clear,2016-08-23 13:47:00,60.1,,-,84,N/A,29.98,64.9,6:47 AM,,9.0,Calm,Calm,0,Los Angeles,California,90001
7,Clear,2016-08-23 14:47:00,60.1,,-,76,N/A,30.00,68.0,7:47 AM,,9.0,Calm,Calm,0,Los Angeles,California,90001
8,Clear,2016-08-23 15:47:00,59.0,,-,64,N/A,30.01,72.0,8:47 AM,,10.0,Calm,Calm,0,Los Angeles,California,90001
9,Clear,2016-08-23 16:47:00,61.0,,-,60,N/A,30.02,75.9,9:47 AM,,10.0,Variable,3.5,0,Los Angeles,California,90001
10,Clear,2016-08-23 17:47:00,61.0,,-,52,N/A,30.03,80.1,10:47 AM,,10.0,Calm,Calm,0,Los Angeles,California,90001
11,Clear,2016-08-23 18:47:00,60.1,,-,47,N/A,30.01,82.0,11:47 AM,,10.0,Calm,Calm,0,Los Angeles,California,90001
12,Clear,2016-08-23 19:47:00,61.0,,-,50,N/A,30.01,81.0,12:47 PM,,10.0,Variable,5.8,0,Los Angeles,California,90001
13,Clear,2016-08-23 20:47:00,62.1,,-,52,N/A,30.00,81.0,1:47 PM,,10.0,Variable,3.5,0,Los Angeles,California,90001
14,Clear,2016-08-23 21:47:00,63.0,,-,58,N/A,29.99,79.0,2:47 PM,,10.0,Variable,3.5,0,Los Angeles,California,90001
15,Clear,2016-08-23 22:47:00,62.1,,-,60,N/A,29.98,77.0,3:47 PM,,10.0,Calm,Calm,0,Los Angeles,California,90001
16,Clear,2016-08-23 23:47:00,61.0,,-,58,N/A,29.98,77.0,4:47 PM,,10.0,Variable,4.6,0,Los Angeles,California,90001
17,Clear,2016-08-24 00:47:00,59.0,,-,54,N/A,29.97,77.0,5:47 PM,,10.0,West,3.5,280,Los Angeles,California,90001
18,Clear,2016-08-24 01:47:00,57.9,,-,55,N/A,29.97,75.0,6:47 PM,,10.0,Variable,4.6,0,Los Angeles,California,90001
19,Clear,2016-08-24 02:47:00,57.9,,-,63,N/A,29.98,71.1,7:47 PM,,10.0,Calm,Calm,0,Los Angeles,California,90001
20,Clear,2016-08-24 03:47:00,59.0,,-,68,N/A,30.00,70.0,8:47 PM,,10.0,Calm,Calm,0,Los Angeles,California,90001
21,Clear,2016-08-24 04:47:00,59.0,,-,73,N/A,30.02,68.0,9:47 PM,,10.0,Calm,Calm,0,Los Angeles,California,90001
22,Clear,2016-08-24 05:47:00,60.1,,-,76,N/A,30.03,68.0,10:47 PM,,10.0,Calm,Calm,0,Los Angeles,California,90001
23,Clear,2016-08-24 06:47:00,60.1,,-,79,N/A,30.02,66.9,11:47 PM,,10.0,Calm,Calm,0,Los Angeles,California,90001
0,Clear,2016-08-24 07:47:00,60.1,,-,81,N/A,30.01,66.0,12:47 AM,,8.0,Calm,Calm,0,Los Angeles,California,90001
1,Clear,2016-08-24 08:47:00,59.0,,-,81,N/A,30.01,64.9,1:47 AM,,10.0,Calm,Calm,0,Los Angeles,California,90001
2,Clear,2016-08-24 09:47:00,57.9,,-,78,N/A,30.01,64.9,2:47 AM,,10.0,Calm,Calm,0,Los Angeles,California,90001
3,Clear,2016-08-24 10:47:00,57.9,,-,80,N/A,30.00,64.0,3:47 AM,,10.0,Calm,Calm,0,Los Angeles,California,90001
4,Clear,2016-08-24 11:47:00,59.0,,-,84,N/A,30.00,64.0,4:47 AM,,10.0,Calm,Calm,0,Los Angeles,California,90001
5,Clear,2016-08-24 12:47:00,57.9,,-,80,N/A,30.01,64.0,5:47 AM,,10.0,Calm,Calm,0,Los Angeles,California,90001
6,Clear,2016-08-24 13:47:00,57.9,,-,78,N/A,30.02,64.9,6:47 AM,,7.0,Calm,Calm,0,Los Angeles,California,90001
7,Clear,2016-08-24 14:47:00,59.0,,-,73,N/A,30.03,68.0,7:47 AM,,10.0,Calm,Calm,0,Los Angeles,California,90001
8,Clear,2016-08-24 15:47:00,60.1,,-,64,N/A,30.03,73.0,8:47 AM,,10.0,Calm,Calm,0,Los Angeles,California,90001
9,Clear,2016-08-24 16:47:00,60.1,,-,58,N/A,30.03,75.9,9:47 AM,,10.0,Calm,Calm,0,Los Angeles,California,90001
10,Clear,2016-08-24 17:47:00,60.1,,-,52,N/A,30.02,79.0,10:47 AM,,10.0,Calm,Calm,0,Los Angeles,California,90001
11,Clear,2016-08-24 18:47:00,62.1,,-,51,N/A,30.00,82.0,11:47 AM,,10.0,Calm,Calm,0,Los Angeles,California,90001
12,Clear,2016-08-24 19:47:00,60.1,,-,49,N/A,29.98,81.0,12:47 PM,,10.0,Variable,5.8,0,Los Angeles,California,90001
13,Clear,2016-08-24 20:47:00,61.0,,-,52,N/A,29.97,80.1,1:47 PM,,10.0,West,4.6,280,Los Angeles,California,90001
14,Clear,2016-08-24 21:47:00,60.1,,-,54,N/A,29.96,78.1,2:47 PM,,10.0,Variable,3.5,0,Los Angeles,California,90001
15,Clear,2016-08-24 22:47:00,57.9,,-,50,N/A,29.94,78.1,3:47 PM,,10.0,Variable,5.8,0,Los Angeles,California,90001
16,Clear,2016-08-24 23:47:00,57.0,,-,50,N/A,29.92,77.0,4:47 PM,,10.0,West,8.1,270,Los Angeles,California,90001
17,Clear,2016-08-25 00:47:00,59.0,,-,57,N/A,29.91,75.0,5:47 PM,,10.0,Variable,4.6,0,Los Angeles,California,90001
18,Clear,2016-08-25 01:47:00,57.0,,-,59,N/A,29.92,72.0,6:47 PM,,10.0,Variable,3.5,0,Los Angeles,California,90001
19,Clear,2016-08-25 02:47:00,60.1,,-,73,N/A,29.93,69.1,7:47 PM,,10.0,West,3.5,260,Los Angeles,California,90001
20,Clear,2016-08-25 03:47:00,60.1,,-,76,N/A,29.94,68.0,8:47 PM,,10.0,Calm,Calm,0,Los Angeles,California,90001
21,Clear,2016-08-25 04:47:00,57.9,,-,75,N/A,29.95,66.0,9:47 PM,,10.0,Calm,Calm,0,Los Angeles,California,90001
22,Clear,2016-08-25 05:47:00,55.9,,-,70,N/A,29.95,66.0,10:47 PM,,10.0,West,3.5,280,Los Angeles,California,90001
23,Clear,2016-08-25 06:47:00,57.9,,-,78,N/A,29.95,64.9,11:47 PM,,10.0,Calm,Calm,0,Los Angeles,California,90001
0,Clear,2016-08-25 07:47:00,57.9,,-,78,N/A,29.95,64.9,12:47 AM,,10.0,Calm,Calm,0,Los Angeles,California,90001
1,Clear,2016-08-25 08:47:00,57.9,,-,78,N/A,29.94,64.9,1:47 AM,,10.0,Calm,Calm,0,Los Angeles,California,90001
2,Clear,2016-08-25 09:47:00,57.9,,-,80,N/A,29.93,64.0,2:47 AM,,10.0,Calm,Calm,0,Los Angeles,California,90001
3,Clear,2016-08-25 10:47:00,57.9,,-,80,N/A,29.93,64.0,3:47 AM,,10.0,Calm,Calm,0,Los Angeles,California,90001
4,Clear,2016-08-25 11:47:00,57.9,,-,80,N/A,29.93,64.0,4:47 AM,,10.0,Calm,Calm,0,Los Angeles,California,90001
5,Clear,2016-08-25 12:47:00,57.9,,-,84,N/A,29.93,63.0,5:47 AM,,10.0,Calm,Calm,0,Los Angeles,California,90001
6,Clear,2016-08-25 13:47:00,57.9,,-,80,N/A,29.95,64.0,6:47 AM,,9.0,Calm,Calm,0,Los Angeles,California,90001
7,Clear,2016-08-25 14:47:00,57.0,,-,70,N/A,29.96,66.9,7:47 AM,,10.0,Calm,Calm,0,Los Angeles,California,90001
8,Mostly Cloudy,2016-08-25 15:47:00,60.1,,-,71,N/A,29.96,70.0,8:47 AM,,7.0,Calm,Calm,0,Los Angeles,California,90001
9,Mostly Cloudy,2016-08-25 16:47:00,61.0,,-,70,N/A,29.96,71.1,9:47 AM,,8.0,East,4.6,90,Los Angeles,California,90001
10,Scattered Clouds,2016-08-25 16:52:00,61.0,,-,68,N/A,29.96,72.0,9:52 AM,,8.0,Calm,Calm,0,Los Angeles,California,90001
11,Clear,2016-08-25 17:47:00,60.1,,-,60,N/A,29.95,75.0,10:47 AM,,9.0,Calm,Calm,0,Los Angeles,California,90001
12,Clear,2016-08-25 18:47:00,60.1,,-,54,N/A,29.92,78.1,11:47 AM,,10.0,Calm,Calm,0,Los Angeles,California,90001
13,Clear,2016-08-25 19:47:00,61.0,,-,52,N/A,29.91,80.1,12:47 PM,,10.0,Variable,3.5,0,Los Angeles,California,90001
14,Clear,2016-08-25 20:47:00,61.0,,-,58,N/A,29.90,77.0,1:47 PM,,10.0,Variable,5.8,0,Los Angeles,California,90001
15,Clear,2016-08-25 21:47:00,61.0,,-,62,N/A,29.89,75.0,2:47 PM,,10.0,West,4.6,260,Los Angeles,California,90001
16,Clear,2016-08-25 22:47:00,61.0,,-,62,N/A,29.88,75.0,3:47 PM,,10.0,Variable,3.5,0,Los Angeles,California,90001
17,Clear,2016-08-25 23:47:00,62.1,,-,64,N/A,29.87,75.0,4:47 PM,,10.0,Variable,3.5,0,Los Angeles,California,90001
18,Clear,2016-08-26 00:47:00,61.0,,-,64,N/A,29.87,73.9,5:47 PM,,10.0,North,-9999.0,0,Los Angeles,California,90001
19,Clear,2016-08-26 01:47:00,61.0,,-,73,N/A,29.88,70.0,6:47 PM,,10.0,Variable,3.5,0,Los Angeles,California,90001
20,Clear,2016-08-26 02:47:00,61.0,,-,78,N/A,29.88,68.0,7:47 PM,,10.0,Calm,Calm,0,Los Angeles,California,90001
21,Partly Cloudy,2016-08-26 03:47:00,61.0,,-,81,N/A,29.90,66.9,8:47 PM,,10.0,Variable,3.5,0,Los Angeles,California,90001
22,Clear,2016-08-26 04:47:00,60.1,,-,81,N/A,29.91,66.0,9:47 PM,,9.0,Calm,Calm,0,Los Angeles,California,90001
23,Mostly Cloudy,2016-08-26 05:12:00,61.0,,-,84,N/A,29.92,66.0,10:12 PM,,9.0,West,3.5,280,Los Angeles,California,90001
24,Overcast,2016-08-26 05:47:00,60.1,,-,81,N/A,29.91,66.0,10:47 PM,,9.0,Calm,Calm,0,Los Angeles,California,90001
25,Overcast,2016-08-26 06:47:00,60.1,,-,79,N/A,29.91,66.9,11:47 PM,,9.0,West,3.5,280,Los Angeles,California,90001
0,Overcast,2016-08-26 07:47:00,61.0,,-,84,N/A,29.91,66.0,12:47 AM,,8.0,Calm,Calm,0,Los Angeles,California,90001
1,Overcast,2016-08-26 08:47:00,61.0,,-,84,N/A,29.91,66.0,1:47 AM,,9.0,Calm,Calm,0,Los Angeles,California,90001
2,Overcast,2016-08-26 09:47:00,60.1,,-,79,N/A,29.90,66.9,2:47 AM,,10.0,Calm,Calm,0,Los Angeles,California,90001
3,Overcast,2016-08-26 10:47:00,57.9,,-,73,N/A,29.91,66.9,3:47 AM,,10.0,SE,3.5,130,Los Angeles,California,90001
4,Overcast,2016-08-26 11:47:00,57.0,,-,73,N/A,29.91,66.0,4:47 AM,,10.0,Calm,Calm,0,Los Angeles,California,90001
5,Overcast,2016-08-26 12:47:00,57.0,,-,73,N/A,29.92,66.0,5:47 AM,,10.0,Calm,Calm,0,Los Angeles,California,90001
6,Overcast,2016-08-26 13:47:00,57.0,,-,70,N/A,29.94,66.9,6:47 AM,,10.0,Calm,Calm,0,Los Angeles,California,90001
7,Overcast,2016-08-26 14:47:00,57.9,,-,70,N/A,29.95,68.0,7:47 AM,,10.0,Calm,Calm,0,Los Angeles,California,90001
8,Overcast,2016-08-26 15:47:00,57.0,,-,68,N/A,29.96,68.0,8:47 AM,,10.0,Calm,Calm,0,Los Angeles,California,90001
9,Overcast,2016-08-26 16:47:00,57.9,,-,70,N/A,29.98,68.0,9:47 AM,,10.0,Calm,Calm,0,Los Angeles,California,90001
10,Overcast,2016-08-26 17:47:00,57.0,,-,61,N/A,29.98,71.1,10:47 AM,,10.0,Calm,Calm,0,Los Angeles,California,90001
11,Scattered Clouds,2016-08-26 18:29:00,57.9,,-,57,N/A,29.98,73.9,11:29 AM,,10.0,Variable,3.5,0,Los Angeles,California,90001
12,Clear,2016-08-26 18:47:00,57.9,,-,59,N/A,29.97,73.0,11:47 AM,,10.0,Calm,Calm,0,Los Angeles,California,90001
13,Clear,2016-08-26 19:47:00,55.9,,-,48,N/A,29.95,77.0,12:47 PM,,10.0,Variable,3.5,0,Los Angeles,California,90001
14,Clear,2016-08-26 20:47:00,57.9,,-,54,N/A,29.94,75.9,1:47 PM,,10.0,Calm,Calm,0,Los Angeles,California,90001
15,Clear,2016-08-26 21:47:00,57.9,,-,57,N/A,29.93,73.9,2:47 PM,,10.0,Variable,6.9,0,Los Angeles,California,90001
16,Clear,2016-08-26 22:47:00,57.9,,-,57,N/A,29.92,73.9,3:47 PM,,10.0,Variable,4.6,0,Los Angeles,California,90001
17,Clear,2016-08-26 23:47:00,57.9,,-,61,N/A,29.91,72.0,4:47 PM,,10.0,Variable,6.9,0,Los Angeles,California,90001
18,Clear,2016-08-27 00:47:00,57.9,,-,63,N/A,29.92,71.1,5:47 PM,,10.0,West,4.6,260,Los Angeles,California,90001
19,Clear,2016-08-27 01:47:00,57.0,,-,68,N/A,29.92,68.0,6:47 PM,,10.0,West,5.8,280,Los Angeles,California,90001
20,Clear,2016-08-27 02:47:00,57.0,,-,73,N/A,29.93,66.0,7:47 PM,,10.0,West,5.8,270,Los Angeles,California,90001
21,Clear,2016-08-27 03:47:00,57.0,,-,75,N/A,29.95,64.9,8:47 PM,,10.0,Variable,4.6,0,Los Angeles,California,90001
22,Clear,2016-08-27 04:47:00,57.9,,-,78,N/A,29.96,64.9,9:47 PM,,10.0,West,4.6,280,Los Angeles,California,90001
23,Clear,2016-08-27 05:47:00,57.9,,-,80,N/A,29.96,64.0,10:47 PM,,10.0,Calm,Calm,0,Los Angeles,California,90001
24,Mostly Cloudy,2016-08-27 06:47:00,59.0,,-,84,N/A,29.96,64.0,11:47 PM,,10.0,Calm,Calm,0,Los Angeles,California,90001
0,Scattered Clouds,2016-08-27 07:23:00,59.0,,-,84,N/A,29.96,64.0,12:23 AM,,10.0,Calm,Calm,0,Los Angeles,California,90001
1,Partly Cloudy,2016-08-27 07:47:00,59.0,,-,84,N/A,29.95,64.0,12:47 AM,,10.0,Calm,Calm,0,Los Angeles,California,90001
2,Mostly Cloudy,2016-08-27 07:58:00,59.0,,-,84,N/A,29.96,64.0,12:58 AM,,10.0,Calm,Calm,0,Los Angeles,California,90001
3,Overcast,2016-08-27 08:47:00,59.0,,-,81,N/A,29.95,64.9,1:47 AM,,9.0,Calm,Calm,0,Los Angeles,California,90001
4,Overcast,2016-08-27 09:47:00,57.9,,-,75,N/A,29.95,66.0,2:47 AM,,9.0,Calm,Calm,0,Los Angeles,California,90001
5,Overcast,2016-08-27 10:47:00,57.9,,-,75,N/A,29.94,66.0,3:47 AM,,10.0,Calm,Calm,0,Los Angeles,California,90001
6,Overcast,2016-08-27 11:47:00,57.9,,-,75,N/A,29.94,66.0,4:47 AM,,9.0,Calm,Calm,0,Los Angeles,California,90001
7,Overcast,2016-08-27 12:47:00,57.9,,-,75,N/A,29.95,66.0,5:47 AM,,9.0,Calm,Calm,0,Los Angeles,California,90001
8,Overcast,2016-08-27 13:47:00,57.9,,-,75,N/A,29.96,66.0,6:47 AM,,8.0,Calm,Calm,0,Los Angeles,California,90001
9,Overcast,2016-08-27 14:47:00,57.9,,-,75,N/A,29.98,66.0,7:47 AM,,7.0,Calm,Calm,0,Los Angeles,California,90001
10,Overcast,2016-08-27 15:47:00,57.9,,-,73,N/A,29.99,66.9,8:47 AM,,7.0,Calm,Calm,0,Los Angeles,California,90001
11,Haze,2016-08-27 16:47:00,57.0,,-,68,N/A,30.00,68.0,9:47 AM,,6.0,Calm,Calm,0,Los Angeles,California,90001
12,Overcast,2016-08-27 17:47:00,57.9,,-,68,N/A,30.01,69.1,10:47 AM,,7.0,Calm,Calm,0,Los Angeles,California,90001
13,Overcast,2016-08-27 18:47:00,57.0,,-,59,N/A,29.99,72.0,11:47 AM,,7.0,Calm,Calm,0,Los Angeles,California,90001
14,Haze,2016-08-27 18:51:00,57.0,,-,59,N/A,29.99,72.0,11:51 AM,,6.0,Calm,Calm,0,Los Angeles,California,90001
15,Clear,2016-08-27 19:47:00,57.9,,-,52,N/A,29.97,77.0,12:47 PM,,7.0,Calm,Calm,0,Los Angeles,California,90001
16,Clear,2016-08-27 20:47:00,59.0,,-,54,N/A,29.96,77.0,1:47 PM,,10.0,Variable,5.8,0,Los Angeles,California,90001
17,Clear,2016-08-27 21:47:00,57.9,,-,57,N/A,29.94,73.9,2:47 PM,,10.0,West,8.1,270,Los Angeles,California,90001
18,Clear,2016-08-27 22:47:00,59.0,,-,59,N/A,29.94,73.9,3:47 PM,,10.0,West,8.1,270,Los Angeles,California,90001
19,Clear,2016-08-27 23:47:00,59.0,,-,61,N/A,29.92,73.0,4:47 PM,,10.0,West,6.9,270,Los Angeles,California,90001
20,Clear,2016-08-28 00:47:00,59.0,,-,64,N/A,29.92,72.0,5:47 PM,,10.0,Variable,5.8,0,Los Angeles,California,90001
21,Clear,2016-08-28 01:47:00,57.9,,-,65,N/A,29.92,70.0,6:47 PM,,10.0,West,4.6,270,Los Angeles,California,90001
22,Clear,2016-08-28 02:47:00,57.9,,-,73,N/A,29.94,66.9,7:47 PM,,10.0,West,5.8,270,Los Angeles,California,90001
23,Clear,2016-08-28 03:47:00,60.1,,-,81,N/A,29.96,66.0,8:47 PM,,10.0,Calm,Calm,0,Los Angeles,California,90001
24,Clear,2016-08-28 04:47:00,60.1,,-,81,N/A,29.97,66.0,9:47 PM,,10.0,Calm,Calm,0,Los Angeles,California,90001
25,Clear,2016-08-28 06:47:00,60.1,,-,84,N/A,29.98,64.9,11:47 PM,,10.0,Calm,Calm,0,Los Angeles,California,90001
0,Clear,2016-08-28 07:47:00,60.1,,-,84,N/A,29.99,64.9,12:47 AM,,10.0,Calm,Calm,0,Los Angeles,California,90001
1,Clear,2016-08-28 08:47:00,60.1,,-,84,N/A,29.98,64.9,1:47 AM,,10.0,Calm,Calm,0,Los Angeles,California,90001
2,Clear,2016-08-28 09:47:00,60.1,,-,87,N/A,29.98,64.0,2:47 AM,,10.0,Calm,Calm,0,Los Angeles,California,90001
3,Clear,2016-08-28 10:47:00,59.0,,-,87,N/A,29.97,63.0,3:47 AM,,10.0,Calm,Calm,0,Los Angeles,California,90001
4,Clear,2016-08-28 11:47:00,59.0,,-,84,N/A,29.98,64.0,4:47 AM,,10.0,Calm,Calm,0,Los Angeles,California,90001
5,Clear,2016-08-28 12:47:00,59.0,,-,87,N/A,29.99,63.0,5:47 AM,,9.0,Calm,Calm,0,Los Angeles,California,90001
6,Clear,2016-08-28 13:47:00,59.0,,-,87,N/A,30.00,63.0,6:47 AM,,8.0,Calm,Calm,0,Los Angeles,California,90001
7,Clear,2016-08-28 14:47:00,60.1,,-,79,N/A,30.01,66.9,7:47 AM,,9.0,Calm,Calm,0,Los Angeles,California,90001
8,Clear,2016-08-28 15:47:00,61.0,,-,75,N/A,30.01,69.1,8:47 AM,,10.0,Calm,Calm,0,Los Angeles,California,90001
9,Clear,2016-08-28 16:47:00,61.0,,-,64,N/A,30.01,73.9,9:47 AM,,10.0,Calm,Calm,0,Los Angeles,California,90001
10,Clear,2016-08-28 17:47:00,61.0,,-,56,N/A,30.00,78.1,10:47 AM,,10.0,Calm,Calm,0,Los Angeles,California,90001
11,Clear,2016-08-28 18:47:00,62.1,,-,52,N/A,29.99,81.0,11:47 AM,,10.0,Variable,3.5,0,Los Angeles,California,90001
12,Clear,2016-08-28 19:47:00,61.0,,-,54,N/A,29.98,79.0,12:47 PM,,10.0,West,5.8,280,Los Angeles,California,90001
13,Clear,2016-08-28 20:47:00,61.0,,-,54,N/A,29.96,79.0,1:47 PM,,10.0,West,5.8,260,Los Angeles,California,90001
14,Clear,2016-08-28 21:47:00,61.0,,-,56,N/A,29.95,78.1,2:47 PM,,10.0,West,8.1,260,Los Angeles,California,90001
15,Clear,2016-08-28 22:47:00,59.0,,-,56,N/A,29.94,75.9,3:47 PM,,10.0,West,8.1,270,Los Angeles,California,90001
16,Clear,2016-08-28 23:47:00,59.0,,-,56,N/A,29.92,75.9,4:47 PM,,10.0,West,5.8,270,Los Angeles,California,90001
17,Clear,2016-08-29 00:47:00,59.0,,-,57,N/A,29.92,75.0,5:47 PM,,10.0,West,4.6,260,Los Angeles,California,90001
18,Clear,2016-08-29 01:47:00,59.0,,-,64,N/A,29.92,72.0,6:47 PM,,10.0,Variable,5.8,0,Los Angeles,California,90001
19,Clear,2016-08-29 02:47:00,59.0,,-,68,N/A,29.93,70.0,7:47 PM,,10.0,Variable,3.5,0,Los Angeles,California,90001
20,Clear,2016-08-29 03:47:00,60.1,,-,73,N/A,29.94,69.1,8:47 PM,,10.0,Calm,Calm,0,Los Angeles,California,90001
21,Clear,2016-08-29 04:47:00,59.0,,-,68,N/A,29.96,70.0,9:47 PM,,10.0,Calm,Calm,0,Los Angeles,California,90001
22,Clear,2016-08-29 05:47:00,59.0,,-,70,N/A,29.97,69.1,10:47 PM,,10.0,Calm,Calm,0,Los Angeles,California,90001
23,Clear,2016-08-29 06:47:00,60.1,,-,73,N/A,29.97,69.1,11:47 PM,,10.0,Calm,Calm,0,Los Angeles,California,90001
0,Clear,2016-08-29 07:47:00,61.0,,-,81,N/A,29.96,66.9,12:47 AM,,10.0,Calm,Calm,0,Los Angeles,California,90001
1,Clear,2016-08-29 08:47:00,61.0,,-,81,N/A,29.96,66.9,1:47 AM,,10.0,Calm,Calm,0,Los Angeles,California,90001
2,Clear,2016-08-29 09:47:00,60.1,,-,81,N/A,29.96,66.0,2:47 AM,,10.0,Calm,Calm,0,Los Angeles,California,90001
3,Clear,2016-08-29 10:47:00,60.1,,-,81,N/A,29.94,66.0,3:47 AM,,10.0,Calm,Calm,0,Los Angeles,California,90001
4,Clear,2016-08-29 11:47:00,60.1,,-,84,N/A,29.93,64.9,4:47 AM,,10.0,Calm,Calm,0,Los Angeles,California,90001
5,Clear,2016-08-29 12:47:00,60.1,,-,84,N/A,29.94,64.9,5:47 AM,,10.0,Calm,Calm,0,Los Angeles,California,90001
6,Clear,2016-08-29 13:47:00,60.1,,-,81,N/A,29.96,66.0,6:47 AM,,10.0,Calm,Calm,0,Los Angeles,California,90001
7,Clear,2016-08-29 14:47:00,62.1,,-,78,N/A,29.96,69.1,7:47 AM,,8.0,Calm,Calm,0,Los Angeles,California,90001
8,Clear,2016-08-29 15:47:00,63.0,,-,71,N/A,29.96,73.0,8:47 AM,,7.0,Calm,Calm,0,Los Angeles,California,90001
9,Clear,2016-08-29 16:47:00,64.0,,-,62,N/A,29.95,78.1,9:47 AM,,8.0,Calm,Calm,0,Los Angeles,California,90001
10,Clear,2016-08-29 17:47:00,63.0,,-,54,N/A,29.94,81.0,10:47 AM,,9.0,Calm,Calm,0,Los Angeles,California,90001
11,Clear,2016-08-29 18:47:00,61.0,,-,46,N/A,29.92,84.0,11:47 AM,,10.0,Calm,Calm,0,Los Angeles,California,90001
12,Clear,2016-08-29 19:47:00,63.0,,-,52,N/A,29.91,82.0,12:47 PM,,10.0,Variable,5.8,0,Los Angeles,California,90001
13,Clear,2016-08-29 20:47:00,62.1,,-,49,N/A,29.89,82.9,1:47 PM,,10.0,Variable,4.6,0,Los Angeles,California,90001
14,Clear,2016-08-29 21:47:00,61.0,,-,49,N/A,29.87,82.0,2:47 PM,,10.0,Variable,4.6,0,Los Angeles,California,90001
15,Clear,2016-08-29 22:47:00,61.0,,-,47,N/A,29.84,82.9,3:47 PM,,10.0,Variable,4.6,0,Los Angeles,California,90001
16,Clear,2016-08-29 23:47:00,59.0,,-,45,N/A,29.83,82.0,4:47 PM,,10.0,Variable,4.6,0,Los Angeles,California,90001
17,Clear,2016-08-30 00:47:00,59.0,,-,50,N/A,29.83,79.0,5:47 PM,,10.0,West,5.8,270,Los Angeles,California,90001
18,Clear,2016-08-30 01:47:00,57.9,,-,57,N/A,29.82,73.9,6:47 PM,,10.0,Variable,3.5,0,Los Angeles,California,90001
19,Clear,2016-08-30 02:47:00,59.0,,-,66,N/A,29.83,71.1,7:47 PM,,10.0,Calm,Calm,0,Los Angeles,California,90001
20,Clear,2016-08-30 03:47:00,60.1,,-,71,N/A,29.85,70.0,8:47 PM,,10.0,Calm,Calm,0,Los Angeles,California,90001
21,Clear,2016-08-30 04:47:00,60.1,,-,68,N/A,29.86,71.1,9:47 PM,,10.0,Calm,Calm,0,Los Angeles,California,90001
22,Clear,2016-08-30 05:47:00,60.1,,-,68,N/A,29.87,71.1,10:47 PM,,10.0,Calm,Calm,0,Los Angeles,California,90001
23,Clear,2016-08-30 06:47:00,61.0,,-,73,N/A,29.87,70.0,11:47 PM,,10.0,Calm,Calm,0,Los Angeles,California,90001
0,Clear,2016-08-30 07:47:00,60.1,,-,73,N/A,29.86,69.1,12:47 AM,,10.0,Calm,Calm,0,Los Angeles,California,90001
1,Clear,2016-08-30 08:47:00,60.1,,-,73,N/A,29.86,69.1,1:47 AM,,10.0,Calm,Calm,0,Los Angeles,California,90001
2,Clear,2016-08-30 09:47:00,60.1,,-,76,N/A,29.85,68.0,2:47 AM,,10.0,Calm,Calm,0,Los Angeles,California,90001
3,Clear,2016-08-30 10:47:00,61.0,,-,75,N/A,29.85,69.1,3:47 AM,,10.0,Calm,Calm,0,Los Angeles,California,90001
4,Clear,2016-08-30 11:47:00,64.0,,-,87,N/A,29.86,68.0,4:47 AM,,8.0,Calm,Calm,0,Los Angeles,California,90001
5,Partly Cloudy,2016-08-30 12:06:00,64.0,,-,87,N/A,29.86,68.0,5:06 AM,,8.0,Calm,Calm,0,Los Angeles,California,90001
6,Mostly Cloudy,2016-08-30 12:35:00,64.0,,-,90,N/A,29.86,66.9,5:35 AM,,5.0,SE,4.6,140,Los Angeles,California,90001
7,Mostly Cloudy,2016-08-30 12:47:00,64.0,,-,90,N/A,29.86,66.9,5:47 AM,,5.0,Calm,Calm,0,Los Angeles,California,90001
8,Overcast,2016-08-30 13:47:00,64.0,,-,90,N/A,29.86,66.9,6:47 AM,,4.0,East,4.6,80,Los Angeles,California,90001
9,Overcast,2016-08-30 14:47:00,64.0,,-,87,N/A,29.87,68.0,7:47 AM,,4.0,Calm,Calm,0,Los Angeles,California,90001
10,Haze,2016-08-30 15:47:00,64.0,,-,81,N/A,29.88,70.0,8:47 AM,,4.0,Calm,Calm,0,Los Angeles,California,90001
11,Haze,2016-08-30 16:01:00,64.9,,-,81,N/A,29.88,71.1,9:01 AM,,4.0,Variable,3.5,0,Los Angeles,California,90001
12,Haze,2016-08-30 16:23:00,64.9,,-,76,N/A,29.88,73.0,9:23 AM,,4.0,Calm,Calm,0,Los Angeles,California,90001
13,Haze,2016-08-30 16:47:00,64.9,,-,71,N/A,29.87,75.0,9:47 AM,,5.0,Calm,Calm,0,Los Angeles,California,90001
14,Clear,2016-08-30 17:47:00,64.0,,-,56,N/A,29.85,81.0,10:47 AM,,8.0,Calm,Calm,0,Los Angeles,California,90001
15,Clear,2016-08-30 18:47:00,64.0,,-,48,N/A,29.83,86.0,11:47 AM,,10.0,West,4.6,280,Los Angeles,California,90001
16,Clear,2016-08-30 19:47:00,64.0,,-,48,N/A,29.81,86.0,12:47 PM,,9.0,Variable,5.8,0,Los Angeles,California,90001
17,Clear,2016-08-30 20:47:00,61.0,,-,44,N/A,29.80,84.9,1:47 PM,,10.0,West,5.8,260,Los Angeles,California,90001
18,Clear,2016-08-30 21:47:00,63.0,,-,49,N/A,29.79,84.0,2:47 PM,,10.0,Variable,6.9,0,Los Angeles,California,90001
19,Clear,2016-08-30 22:47:00,62.1,,-,51,N/A,29.78,82.0,3:47 PM,,10.0,Variable,5.8,0,Los Angeles,California,90001
20,Clear,2016-08-30 23:47:00,64.0,,-,58,N/A,29.77,80.1,4:47 PM,,10.0,Variable,5.8,0,Los Angeles,California,90001
21,Clear,2016-08-31 00:47:00,64.0,,-,62,N/A,29.77,78.1,5:47 PM,,10.0,West,5.8,270,Los Angeles,California,90001
22,Clear,2016-08-31 01:47:00,64.9,,-,71,N/A,29.77,75.0,6:47 PM,,10.0,Variable,3.5,0,Los Angeles,California,90001
23,Clear,2016-08-31 02:47:00,64.9,,-,76,N/A,29.78,73.0,7:47 PM,,10.0,Calm,Calm,0,Los Angeles,California,90001
24,Clear,2016-08-31 03:47:00,63.0,,-,71,N/A,29.80,73.0,8:47 PM,,10.0,Calm,Calm,0,Los Angeles,California,90001
25,Clear,2016-08-31 04:47:00,64.0,,-,76,N/A,29.82,72.0,9:47 PM,,10.0,Calm,Calm,0,Los Angeles,California,90001
26,Clear,2016-08-31 05:47:00,66.0,,-,79,N/A,29.82,73.0,10:47 PM,,9.0,Variable,4.6,0,Los Angeles,California,90001
27,Clear,2016-08-31 06:47:00,66.0,,-,81,N/A,29.82,72.0,11:47 PM,,8.0,Variable,3.5,0,Los Angeles,California,90001
0,Clear,2016-08-31 07:47:00,66.0,,-,84,N/A,29.82,71.1,12:47 AM,,9.0,Calm,Calm,0,Los Angeles,California,90001
1,Haze,2016-08-31 08:47:00,66.0,,-,84,N/A,29.81,71.1,1:47 AM,,6.0,Calm,Calm,0,Los Angeles,California,90001
2,Clear,2016-08-31 09:47:00,66.0,,-,87,N/A,29.81,70.0,2:47 AM,,8.0,Calm,Calm,0,Los Angeles,California,90001
3,Clear,2016-08-31 10:47:00,64.9,,-,87,N/A,29.82,69.1,3:47 AM,,8.0,Calm,Calm,0,Los Angeles,California,90001
4,Partly Cloudy,2016-08-31 11:30:00,66.0,,-,90,N/A,29.82,69.1,4:30 AM,,6.0,Calm,Calm,0,Los Angeles,California,90001
5,Mostly Cloudy,2016-08-31 11:43:00,66.0,,-,90,N/A,29.82,69.1,4:43 AM,,6.0,Calm,Calm,0,Los Angeles,California,90001
6,Mostly Cloudy,2016-08-31 11:47:00,66.0,,-,90,N/A,29.81,69.1,4:47 AM,,6.0,Calm,Calm,0,Los Angeles,California,90001
7,Overcast,2016-08-31 12:09:00,66.0,,-,93,N/A,29.82,68.0,5:09 AM,,5.0,Calm,Calm,0,Los Angeles,California,90001
8,Overcast,2016-08-31 12:47:00,66.0,,-,93,N/A,29.81,68.0,5:47 AM,,4.0,Calm,Calm,0,Los Angeles,California,90001
9,Overcast,2016-08-31 13:06:00,66.0,,-,93,N/A,29.82,68.0,6:06 AM,,4.0,Calm,Calm,0,Los Angeles,California,90001
10,Overcast,2016-08-31 13:17:00,66.0,,-,93,N/A,29.82,68.0,6:17 AM,,4.0,Calm,Calm,0,Los Angeles,California,90001
11,Overcast,2016-08-31 13:47:00,66.0,,-,93,N/A,29.83,68.0,6:47 AM,,3.0,Calm,Calm,0,Los Angeles,California,90001
12,Overcast,2016-08-31 13:52:00,66.0,,-,93,N/A,29.83,68.0,6:52 AM,,2.5,Calm,Calm,0,Los Angeles,California,90001
13,Overcast,2016-08-31 14:19:00,66.0,,-,90,N/A,29.84,69.1,7:19 AM,,3.0,Calm,Calm,0,Los Angeles,California,90001
14,Overcast,2016-08-31 14:47:00,66.0,,-,90,N/A,29.84,69.1,7:47 AM,,3.0,Calm,Calm,0,Los Angeles,California,90001
15,Haze,2016-08-31 15:33:00,66.0,,-,81,N/A,29.85,72.0,8:33 AM,,4.0,Calm,Calm,0,Los Angeles,California,90001
16,Haze,2016-08-31 15:47:00,66.9,,-,79,N/A,29.85,73.9,8:47 AM,,4.0,Calm,Calm,0,Los Angeles,California,90001
17,Haze,2016-08-31 16:47:00,66.9,,-,68,N/A,29.85,78.1,9:47 AM,,5.0,Calm,Calm,0,Los Angeles,California,90001
18,Haze,2016-08-31 17:47:00,66.9,,-,62,N/A,29.86,81.0,10:47 AM,,6.0,North,-9999.0,0,Los Angeles,California,90001
19,Haze,2016-08-31 18:47:00,66.0,,-,62,N/A,29.87,80.1,11:47 AM,,6.0,West,3.5,280,Los Angeles,California,90001
20,Clear,2016-08-31 19:47:00,66.0,,-,60,N/A,29.85,81.0,12:47 PM,,7.0,West,4.6,280,Los Angeles,California,90001
21,Clear,2016-08-31 20:47:00,66.0,,-,58,N/A,29.83,82.0,1:47 PM,,9.0,Calm,Calm,0,Los Angeles,California,90001
22,Clear,2016-08-31 21:47:00,63.0,,-,54,N/A,29.82,81.0,2:47 PM,,10.0,Variable,5.8,0,Los Angeles,California,90001
23,Clear,2016-08-31 22:47:00,62.1,,-,54,N/A,29.82,80.1,3:47 PM,,10.0,West,8.1,270,Los Angeles,California,90001
24,Clear,2016-08-31 23:47:00,61.0,,-,54,N/A,29.81,79.0,4:47 PM,,10.0,Variable,6.9,0,Los Angeles,California,90001
25,Clear,2016-09-01 00:47:00,62.1,,-,60,N/A,29.81,77.0,5:47 PM,,10.0,Variable,6.9,0,Los Angeles,California,90001
26,Clear,2016-09-01 01:47:00,60.1,,-,62,N/A,29.81,73.9,6:47 PM,,10.0,Calm,Calm,0,Los Angeles,California,90001
27,Clear,2016-09-01 02:47:00,59.0,,-,64,N/A,29.82,72.0,7:47 PM,,10.0,Calm,Calm,0,Los Angeles,California,90001
28,Clear,2016-09-01 03:47:00,59.0,,-,68,N/A,29.84,70.0,8:47 PM,,10.0,Calm,Calm,0,Los Angeles,California,90001
29,Clear,2016-09-01 04:47:00,60.1,,-,73,N/A,29.85,69.1,9:47 PM,,10.0,Calm,Calm,0,Los Angeles,California,90001
30,Clear,2016-09-01 05:47:00,61.0,,-,78,N/A,29.86,68.0,10:47 PM,,10.0,Calm,Calm,0,Los Angeles,California,90001
31,Clear,2016-09-01 06:47:00,61.0,,-,78,N/A,29.87,68.0,11:47 PM,,10.0,Calm,Calm,0,Los Angeles,California,90001
0,Clear,2016-09-01 07:47:00,61.0,,-,81,N/A,29.86,66.9,12:47 AM,,10.0,Calm,Calm,0,Los Angeles,California,90001
1,Clear,2016-09-01 08:47:00,61.0,,-,81,N/A,29.85,66.9,1:47 AM,,10.0,Calm,Calm,0,Los Angeles,California,90001
2,Clear,2016-09-01 09:47:00,61.0,,-,84,N/A,29.85,66.0,2:47 AM,,10.0,Calm,Calm,0,Los Angeles,California,90001
3,Clear,2016-09-01 10:47:00,61.0,,-,84,N/A,29.85,66.0,3:47 AM,,10.0,Calm,Calm,0,Los Angeles,California,90001
4,Clear,2016-09-01 11:47:00,61.0,,-,84,N/A,29.85,66.0,4:47 AM,,10.0,Calm,Calm,0,Los Angeles,California,90001
5,Clear,2016-09-01 12:47:00,62.1,,-,90,N/A,29.86,64.9,5:47 AM,,9.0,Calm,Calm,0,Los Angeles,California,90001
6,Clear,2016-09-01 13:47:00,61.0,,-,84,N/A,29.88,66.0,6:47 AM,,9.0,Calm,Calm,0,Los Angeles,California,90001
7,Clear,2016-09-01 14:47:00,62.1,,-,78,N/A,29.89,69.1,7:47 AM,,9.0,West,3.5,270,Los Angeles,California,90001
8,Clear,2016-09-01 15:47:00,63.0,,-,73,N/A,29.90,72.0,8:47 AM,,9.0,Calm,Calm,0,Los Angeles,California,90001
9,Clear,2016-09-01 16:47:00,63.0,,-,66,N/A,29.90,75.0,9:47 AM,,8.0,Calm,Calm,0,Los Angeles,California,90001
10,Clear,2016-09-01 17:47:00,64.0,,-,60,N/A,29.90,79.0,10:47 AM,,8.0,Variable,3.5,0,Los Angeles,California,90001
11,Clear,2016-09-01 18:47:00,64.0,,-,56,N/A,29.88,81.0,11:47 AM,,9.0,Variable,3.5,0,Los Angeles,California,90001
12,Clear,2016-09-01 19:47:00,64.9,,-,56,N/A,29.87,82.0,12:47 PM,,10.0,Variable,3.5,0,Los Angeles,California,90001
13,Clear,2016-09-01 20:47:00,64.9,,-,60,N/A,29.86,80.1,1:47 PM,,10.0,Variable,4.6,0,Los Angeles,California,90001
14,Clear,2016-09-01 21:47:00,64.9,,-,62,N/A,29.86,79.0,2:47 PM,,10.0,Variable,4.6,0,Los Angeles,California,90001
15,Clear,2016-09-01 22:47:00,64.9,,-,66,N/A,29.85,77.0,3:47 PM,,10.0,West,6.9,280,Los Angeles,California,90001
16,Clear,2016-09-01 23:47:00,64.9,,-,69,N/A,29.84,75.9,4:47 PM,,10.0,Variable,3.5,0,Los Angeles,California,90001
17,Clear,2016-09-02 00:47:00,64.0,,-,71,N/A,29.84,73.9,5:47 PM,,9.0,Variable,4.6,0,Los Angeles,California,90001
18,Clear,2016-09-02 01:47:00,62.1,,-,73,N/A,29.85,71.1,6:47 PM,,10.0,West,3.5,280,Los Angeles,California,90001
19,Clear,2016-09-02 02:47:00,62.1,,-,78,N/A,29.86,69.1,7:47 PM,,10.0,West,3.5,270,Los Angeles,California,90001
20,Clear,2016-09-02 03:47:00,63.0,,-,84,N/A,29.88,68.0,8:47 PM,,10.0,West,3.5,280,Los Angeles,California,90001
21,Clear,2016-09-02 04:47:00,62.1,,-,81,N/A,29.90,68.0,9:47 PM,,10.0,Calm,Calm,0,Los Angeles,California,90001
22,Clear,2016-09-02 05:47:00,62.1,,-,84,N/A,29.92,66.9,10:47 PM,,10.0,Calm,Calm,0,Los Angeles,California,90001
23,Mostly Cloudy,2016-09-02 06:03:00,62.1,,-,84,N/A,29.93,66.9,11:03 PM,,10.0,Calm,Calm,0,Los Angeles,California,90001
24,Scattered Clouds,2016-09-02 06:15:00,62.1,,-,84,N/A,29.93,66.9,11:15 PM,,10.0,Calm,Calm,0,Los Angeles,California,90001
25,Clear,2016-09-02 06:47:00,62.1,,-,84,N/A,29.93,66.9,11:47 PM,,10.0,Calm,Calm,0,Los Angeles,California,90001
0,Clear,2016-09-02 07:47:00,63.0,,-,90,N/A,29.92,66.0,12:47 AM,,10.0,Calm,Calm,0,Los Angeles,California,90001
1,Mostly Cloudy,2016-09-02 08:10:00,63.0,,-,90,N/A,29.92,66.0,1:10 AM,,8.0,Calm,Calm,0,Los Angeles,California,90001
2,Overcast,2016-09-02 08:41:00,63.0,,-,93,N/A,29.91,64.9,1:41 AM,,6.0,Calm,Calm,0,Los Angeles,California,90001
3,Overcast,2016-09-02 08:47:00,63.0,,-,90,N/A,29.90,66.0,1:47 AM,,10.0,Calm,Calm,0,Los Angeles,California,90001
4,Overcast,2016-09-02 09:47:00,63.0,,-,87,N/A,29.90,66.9,2:47 AM,,9.0,Calm,Calm,0,Los Angeles,California,90001
5,Overcast,2016-09-02 10:47:00,63.0,,-,87,N/A,29.89,66.9,3:47 AM,,8.0,Calm,Calm,0,Los Angeles,California,90001
6,Overcast,2016-09-02 11:06:00,63.0,,-,87,N/A,29.90,66.9,4:06 AM,,8.0,Calm,Calm,0,Los Angeles,California,90001
7,Overcast,2016-09-02 11:47:00,62.1,,-,84,N/A,29.89,66.9,4:47 AM,,8.0,Calm,Calm,0,Los Angeles,California,90001
8,Overcast,2016-09-02 12:47:00,62.1,,-,81,N/A,29.90,68.0,5:47 AM,,7.0,East,3.5,100,Los Angeles,California,90001
9,Overcast,2016-09-02 13:47:00,62.1,,-,81,N/A,29.90,68.0,6:47 AM,,7.0,Calm,Calm,0,Los Angeles,California,90001
10,Overcast,2016-09-02 14:47:00,61.0,,-,78,N/A,29.91,68.0,7:47 AM,,7.0,Calm,Calm,0,Los Angeles,California,90001
11,Overcast,2016-09-02 15:47:00,61.0,,-,73,N/A,29.91,70.0,8:47 AM,,7.0,Calm,Calm,0,Los Angeles,California,90001
12,Haze,2016-09-02 16:47:00,61.0,,-,68,N/A,29.92,72.0,9:47 AM,,6.0,Calm,Calm,0,Los Angeles,California,90001
13,Clear,2016-09-02 17:47:00,61.0,,-,60,N/A,29.91,75.9,10:47 AM,,8.0,West,4.6,260,Los Angeles,California,90001
14,Clear,2016-09-02 18:47:00,60.1,,-,50,N/A,29.90,80.1,11:47 AM,,8.0,North,-9999.0,0,Los Angeles,California,90001
15,Clear,2016-09-02 19:47:00,62.1,,-,56,N/A,29.89,79.0,12:47 PM,,8.0,Variable,4.6,0,Los Angeles,California,90001
16,Clear,2016-09-02 20:47:00,62.1,,-,58,N/A,29.87,78.1,1:47 PM,,9.0,West,5.8,260,Los Angeles,California,90001
17,Clear,2016-09-02 21:47:00,62.1,,-,60,N/A,29.86,77.0,2:47 PM,,9.0,West,4.6,270,Los Angeles,California,90001
18,Clear,2016-09-02 22:47:00,62.1,,-,62,N/A,29.85,75.9,3:47 PM,,10.0,West,4.6,270,Los Angeles,California,90001
19,Clear,2016-09-02 23:47:00,62.1,,-,64,N/A,29.84,75.0,4:47 PM,,10.0,West,3.5,260,Los Angeles,California,90001
20,Clear,2016-09-03 00:47:00,63.0,,-,68,N/A,29.83,73.9,5:47 PM,,10.0,West,8.1,270,Los Angeles,California,90001
21,Clear,2016-09-03 01:47:00,62.1,,-,76,N/A,29.83,70.0,6:47 PM,,10.0,West,4.6,270,Los Angeles,California,90001
22,Clear,2016-09-03 02:47:00,62.1,,-,84,N/A,29.85,66.9,7:47 PM,,10.0,Calm,Calm,0,Los Angeles,California,90001
23,Mostly Cloudy,2016-09-03 03:43:00,62.1,,-,84,N/A,29.86,66.9,8:43 PM,,10.0,Variable,3.5,0,Los Angeles,California,90001
24,Mostly Cloudy,2016-09-03 03:47:00,62.1,,-,84,N/A,29.86,66.9,8:47 PM,,10.0,West,3.5,280,Los Angeles,California,90001
25,Overcast,2016-09-03 04:47:00,62.1,,-,84,N/A,29.86,66.9,9:47 PM,,10.0,Variable,3.5,0,Los Angeles,California,90001
26,Overcast,2016-09-03 05:47:00,62.1,,-,84,N/A,29.86,66.9,10:47 PM,,10.0,Calm,Calm,0,Los Angeles,California,90001
27,Overcast,2016-09-03 06:47:00,62.1,,-,84,N/A,29.86,66.9,11:47 PM,,9.0,Calm,Calm,0,Los Angeles,California,90001
0,Overcast,2016-09-03 07:47:00,62.1,,-,81,N/A,29.86,68.0,12:47 AM,,9.0,Calm,Calm,0,Los Angeles,California,90001
1,Overcast,2016-09-03 08:47:00,61.0,,-,78,N/A,29.85,68.0,1:47 AM,,10.0,Calm,Calm,0,Los Angeles,California,90001
2,Overcast,2016-09-03 09:47:00,61.0,,-,78,N/A,29.85,68.0,2:47 AM,,10.0,West,3.5,270,Los Angeles,California,90001
3,Overcast,2016-09-03 10:47:00,60.1,,-,76,N/A,29.85,68.0,3:47 AM,,10.0,Calm,Calm,0,Los Angeles,California,90001
4,Overcast,2016-09-03 11:47:00,57.9,,-,70,N/A,29.85,68.0,4:47 AM,,10.0,Calm,Calm,0,Los Angeles,California,90001
5,Overcast,2016-09-03 12:47:00,57.9,,-,70,N/A,29.86,68.0,5:47 AM,,10.0,Variable,3.5,0,Los Angeles,California,90001
6,Overcast,2016-09-03 13:47:00,57.0,,-,70,N/A,29.88,66.9,6:47 AM,,10.0,Variable,3.5,0,Los Angeles,California,90001
7,Overcast,2016-09-03 14:47:00,57.0,,-,68,N/A,29.89,68.0,7:47 AM,,10.0,Calm,Calm,0,Los Angeles,California,90001
8,Overcast,2016-09-03 15:47:00,57.0,,-,68,N/A,29.90,68.0,8:47 AM,,10.0,Calm,Calm,0,Los Angeles,California,90001
9,Overcast,2016-09-03 16:37:00,57.0,,-,63,N/A,29.91,70.0,9:37 AM,,10.0,Calm,Calm,0,Los Angeles,California,90001
10,Overcast,2016-09-03 16:47:00,57.0,,-,63,N/A,29.91,70.0,9:47 AM,,10.0,North,-9999.0,0,Los Angeles,California,90001
11,Scattered Clouds,2016-09-03 17:47:00,55.9,,-,55,N/A,29.90,73.0,10:47 AM,,10.0,Calm,Calm,0,Los Angeles,California,90001
12,Clear,2016-09-03 18:47:00,55.0,,-,50,N/A,29.89,75.0,11:47 AM,,10.0,East,3.5,90,Los Angeles,California,90001
13,Clear,2016-09-03 19:47:00,57.9,,-,55,N/A,29.86,75.0,12:47 PM,,10.0,North,-9999.0,0,Los Angeles,California,90001
14,Clear,2016-09-03 20:47:00,57.0,,-,55,N/A,29.85,73.9,1:47 PM,,10.0,Variable,6.9,0,Los Angeles,California,90001
15,Clear,2016-09-03 21:47:00,57.0,,-,55,N/A,29.83,73.9,2:47 PM,,10.0,Variable,4.6,0,Los Angeles,California,90001
16,Clear,2016-09-03 22:47:00,57.9,,-,59,N/A,29.83,73.0,3:47 PM,,10.0,Calm,Calm,0,Los Angeles,California,90001
17,Clear,2016-09-03 23:47:00,59.0,,-,64,N/A,29.82,72.0,4:47 PM,,10.0,Variable,4.6,0,Los Angeles,California,90001
18,Clear,2016-09-04 00:47:00,59.0,,-,66,N/A,29.82,71.1,5:47 PM,,10.0,Variable,4.6,0,Los Angeles,California,90001
19,Clear,2016-09-04 01:47:00,59.0,,-,70,N/A,29.81,69.1,6:47 PM,,10.0,West,5.8,270,Los Angeles,California,90001
20,Clear,2016-09-04 02:47:00,59.0,,-,76,N/A,29.81,66.9,7:47 PM,,10.0,Variable,3.5,0,Los Angeles,California,90001
21,Clear,2016-09-04 03:47:00,59.0,,-,78,N/A,29.83,66.0,8:47 PM,,10.0,Variable,4.6,0,Los Angeles,California,90001
22,Clear,2016-09-04 04:47:00,60.1,,-,84,N/A,29.84,64.9,9:47 PM,,10.0,West,3.5,280,Los Angeles,California,90001
23,Clear,2016-09-04 05:47:00,60.1,,-,84,N/A,29.84,64.9,10:47 PM,,10.0,West,3.5,270,Los Angeles,California,90001
24,Mostly Cloudy,2016-09-04 06:20:00,60.1,,-,84,N/A,29.85,64.9,11:20 PM,,10.0,Calm,Calm,0,Los Angeles,California,90001
25,Overcast,2016-09-04 06:47:00,60.1,,-,84,N/A,29.84,64.9,11:47 PM,,10.0,Calm,Calm,0,Los Angeles,California,90001
0,Overcast,2016-09-04 07:47:00,60.1,,-,84,N/A,29.84,64.9,12:47 AM,,10.0,Calm,Calm,0,Los Angeles,California,90001
1,Overcast,2016-09-04 08:44:00,60.1,,-,84,N/A,29.84,64.9,1:44 AM,,10.0,Calm,Calm,0,Los Angeles,California,90001
2,Overcast,2016-09-04 08:47:00,60.1,,-,84,N/A,29.83,64.9,1:47 AM,,10.0,Calm,Calm,0,Los Angeles,California,90001
3,Overcast,2016-09-04 09:47:00,59.0,,-,78,N/A,29.83,66.0,2:47 AM,,10.0,Calm,Calm,0,Los Angeles,California,90001
4,Overcast,2016-09-04 10:47:00,59.0,,-,78,N/A,29.82,66.0,3:47 AM,,10.0,Calm,Calm,0,Los Angeles,California,90001
5,Overcast,2016-09-04 11:47:00,59.0,,-,78,N/A,29.83,66.0,4:47 AM,,10.0,Calm,Calm,0,Los Angeles,California,90001
6,Overcast,2016-09-04 12:24:00,59.0,,-,78,N/A,29.84,66.0,5:24 AM,,10.0,Calm,Calm,0,Los Angeles,California,90001
7,Overcast,2016-09-04 12:47:00,57.9,,-,75,N/A,29.84,66.0,5:47 AM,,10.0,Variable,4.6,0,Los Angeles,California,90001
8,Overcast,2016-09-04 13:47:00,57.0,,-,73,N/A,29.85,66.0,6:47 AM,,10.0,Calm,Calm,0,Los Angeles,California,90001
9,Overcast,2016-09-04 14:03:00,57.0,,-,73,N/A,29.85,66.0,7:03 AM,,10.0,Calm,Calm,0,Los Angeles,California,90001
10,Overcast,2016-09-04 14:47:00,59.0,,-,78,N/A,29.86,66.0,7:47 AM,,10.0,Calm,Calm,0,Los Angeles,California,90001
11,Overcast,2016-09-04 15:47:00,59.0,,-,76,N/A,29.87,66.9,8:47 AM,,10.0,Calm,Calm,0,Los Angeles,California,90001
12,Overcast,2016-09-04 15:55:00,59.0,,-,76,N/A,29.87,66.9,8:55 AM,,10.0,Calm,Calm,0,Los Angeles,California,90001
13,Overcast,2016-09-04 16:20:00,57.9,,-,70,N/A,29.88,68.0,9:20 AM,,10.0,Calm,Calm,0,Los Angeles,California,90001
14,Overcast,2016-09-04 16:31:00,57.9,,-,70,N/A,29.88,68.0,9:31 AM,,10.0,Calm,Calm,0,Los Angeles,California,90001
15,Overcast,2016-09-04 16:36:00,57.9,,-,70,N/A,29.88,68.0,9:36 AM,,10.0,Variable,3.5,0,Los Angeles,California,90001
16,Overcast,2016-09-04 16:42:00,57.9,,-,70,N/A,29.88,68.0,9:42 AM,,10.0,Calm,Calm,0,Los Angeles,California,90001
17,Overcast,2016-09-04 16:47:00,57.9,,-,70,N/A,29.88,68.0,9:47 AM,,10.0,West,4.6,270,Los Angeles,California,90001
18,Overcast,2016-09-04 17:04:00,59.0,,-,73,N/A,29.88,68.0,10:04 AM,,10.0,Variable,3.5,0,Los Angeles,California,90001
19,Overcast,2016-09-04 17:47:00,57.9,,-,68,N/A,29.87,69.1,10:47 AM,,10.0,Calm,Calm,0,Los Angeles,California,90001
20,Scattered Clouds,2016-09-04 18:47:00,57.0,,-,55,N/A,29.84,73.9,11:47 AM,,10.0,Calm,Calm,0,Los Angeles,California,90001
21,Mostly Cloudy,2016-09-04 19:47:00,57.0,,-,52,N/A,29.82,75.9,12:47 PM,,10.0,Variable,3.5,0,Los Angeles,California,90001
22,Mostly Cloudy,2016-09-04 20:47:00,57.9,,-,59,N/A,29.82,73.0,1:47 PM,,10.0,Variable,4.6,0,Los Angeles,California,90001
23,Mostly Cloudy,2016-09-04 21:14:00,59.0,,-,61,N/A,29.82,73.0,2:14 PM,,10.0,Variable,5.8,0,Los Angeles,California,90001
24,Mostly Cloudy,2016-09-04 21:28:00,59.0,,-,61,N/A,29.81,73.0,2:28 PM,,10.0,West,5.8,260,Los Angeles,California,90001
25,Clear,2016-09-04 21:47:00,57.9,,-,61,N/A,29.80,72.0,2:47 PM,,10.0,West,5.8,260,Los Angeles,California,90001
26,Clear,2016-09-04 22:47:00,57.9,,-,63,N/A,29.78,71.1,3:47 PM,,10.0,Variable,5.8,0,Los Angeles,California,90001
27,Clear,2016-09-04 23:47:00,57.9,,-,63,N/A,29.78,71.1,4:47 PM,,10.0,West,5.8,270,Los Angeles,California,90001
28,Clear,2016-09-05 00:47:00,57.0,,-,65,N/A,29.79,69.1,5:47 PM,,10.0,Variable,4.6,0,Los Angeles,California,90001
29,Clear,2016-09-05 01:47:00,57.0,,-,70,N/A,29.79,66.9,6:47 PM,,10.0,Variable,4.6,0,Los Angeles,California,90001
30,Clear,2016-09-05 02:47:00,55.9,,-,70,N/A,29.79,66.0,7:47 PM,,10.0,Calm,Calm,0,Los Angeles,California,90001
31,Clear,2016-09-05 03:47:00,55.9,,-,73,N/A,29.80,64.9,8:47 PM,,10.0,Calm,Calm,0,Los Angeles,California,90001
32,Clear,2016-09-05 04:47:00,55.9,,-,73,N/A,29.81,64.9,9:47 PM,,10.0,Calm,Calm,0,Los Angeles,California,90001
33,Clear,2016-09-05 05:47:00,57.0,,-,78,N/A,29.80,64.0,10:47 PM,,10.0,Calm,Calm,0,Los Angeles,California,90001
34,Clear,2016-09-05 06:47:00,57.0,,-,78,N/A,29.79,64.0,11:47 PM,,10.0,Calm,Calm,0,Los Angeles,California,90001
0,Mostly Cloudy,2016-09-05 07:22:00,57.9,,-,80,N/A,29.80,64.0,12:22 AM,,9.0,Calm,Calm,0,Los Angeles,California,90001
1,Overcast,2016-09-05 07:47:00,57.9,,-,80,N/A,29.79,64.0,12:47 AM,,10.0,Calm,Calm,0,Los Angeles,California,90001
2,Overcast,2016-09-05 08:47:00,57.0,,-,78,N/A,29.78,64.0,1:47 AM,,10.0,Calm,Calm,0,Los Angeles,California,90001
3,Overcast,2016-09-05 09:47:00,57.0,,-,75,N/A,29.78,64.9,2:47 AM,,10.0,Calm,Calm,0,Los Angeles,California,90001
4,Overcast,2016-09-05 10:30:00,57.0,,-,75,N/A,29.79,64.9,3:30 AM,,10.0,Calm,Calm,0,Los Angeles,California,90001
5,Overcast,2016-09-05 10:47:00,57.0,,-,75,N/A,29.78,64.9,3:47 AM,,10.0,Calm,Calm,0,Los Angeles,California,90001
6,Overcast,2016-09-05 11:08:00,57.0,,-,75,N/A,29.79,64.9,4:08 AM,,10.0,Calm,Calm,0,Los Angeles,California,90001
7,Overcast,2016-09-05 11:26:00,57.0,,-,75,N/A,29.78,64.9,4:26 AM,,10.0,Calm,Calm,0,Los Angeles,California,90001
8,Overcast,2016-09-05 11:47:00,57.0,,-,73,N/A,29.77,66.0,4:47 AM,,10.0,Calm,Calm,0,Los Angeles,California,90001
9,Overcast,2016-09-05 12:47:00,57.0,,-,75,N/A,29.78,64.9,5:47 AM,,10.0,Calm,Calm,0,Los Angeles,California,90001
10,Overcast,2016-09-05 13:07:00,57.0,,-,73,N/A,29.78,66.0,6:07 AM,,10.0,Calm,Calm,0,Los Angeles,California,90001
11,Overcast,2016-09-05 13:47:00,57.0,,-,75,N/A,29.79,64.9,6:47 AM,,10.0,Calm,Calm,0,Los Angeles,California,90001
12,Overcast,2016-09-05 14:16:00,57.0,,-,73,N/A,29.80,66.0,7:16 AM,,10.0,Calm,Calm,0,Los Angeles,California,90001
13,Overcast,2016-09-05 14:19:00,57.0,,-,73,N/A,29.80,66.0,7:19 AM,,10.0,Calm,Calm,0,Los Angeles,California,90001
14,Overcast,2016-09-05 14:47:00,57.0,,-,73,N/A,29.81,66.0,7:47 AM,,10.0,Calm,Calm,0,Los Angeles,California,90001
15,Overcast,2016-09-05 15:47:00,57.0,,-,68,N/A,29.81,68.0,8:47 AM,,10.0,Calm,Calm,0,Los Angeles,California,90001
16,Overcast,2016-09-05 16:47:00,55.9,,-,61,N/A,29.81,70.0,9:47 AM,,10.0,Calm,Calm,0,Los Angeles,California,90001
17,Overcast,2016-09-05 17:47:00,55.9,,-,53,N/A,29.81,73.9,10:47 AM,,10.0,Calm,Calm,0,Los Angeles,California,90001
18,Partly Cloudy,2016-09-05 18:47:00,57.0,,-,55,N/A,29.80,73.9,11:47 AM,,10.0,Calm,Calm,0,Los Angeles,California,90001
19,Overcast,2016-09-05 19:47:00,57.9,,-,59,N/A,29.79,73.0,12:47 PM,,10.0,West,4.6,260,Los Angeles,California,90001
20,Mostly Cloudy,2016-09-05 20:47:00,57.9,,-,59,N/A,29.78,73.0,1:47 PM,,10.0,Variable,3.5,0,Los Angeles,California,90001
21,Partly Cloudy,2016-09-05 21:47:00,59.0,,-,61,N/A,29.77,73.0,2:47 PM,,10.0,Variable,4.6,0,Los Angeles,California,90001
22,Clear,2016-09-05 22:47:00,59.0,,-,64,N/A,29.76,72.0,3:47 PM,,10.0,Variable,4.6,0,Los Angeles,California,90001
23,Clear,2016-09-05 23:47:00,57.9,,-,61,N/A,29.76,72.0,4:47 PM,,10.0,West,3.5,260,Los Angeles,California,90001
24,Clear,2016-09-06 01:47:00,57.0,,-,65,N/A,29.76,69.1,6:47 PM,,10.0,Variable,3.5,0,Los Angeles,California,90001
25,Clear,2016-09-06 02:47:00,57.9,,-,73,N/A,29.77,66.9,7:47 PM,,10.0,Calm,Calm,0,Los Angeles,California,90001
26,Clear,2016-09-06 03:47:00,57.9,,-,73,N/A,29.79,66.9,8:47 PM,,10.0,Calm,Calm,0,Los Angeles,California,90001
27,Clear,2016-09-06 04:47:00,57.9,,-,75,N/A,29.79,66.0,9:47 PM,,10.0,Calm,Calm,0,Los Angeles,California,90001
28,Clear,2016-09-06 05:47:00,57.9,,-,78,N/A,29.79,64.9,10:47 PM,,10.0,Calm,Calm,0,Los Angeles,California,90001
29,Clear,2016-09-06 06:47:00,59.0,,-,84,N/A,29.79,64.0,11:47 PM,,10.0,Calm,Calm,0,Los Angeles,California,90001
0,Clear,2016-09-06 07:47:00,59.0,,-,84,N/A,29.80,64.0,12:47 AM,,10.0,Calm,Calm,0,Los Angeles,California,90001
1,Clear,2016-09-06 08:47:00,59.0,,-,84,N/A,29.81,64.0,1:47 AM,,10.0,Calm,Calm,0,Los Angeles,California,90001
2,Clear,2016-09-06 09:47:00,59.0,,-,87,N/A,29.82,63.0,2:47 AM,,10.0,Calm,Calm,0,Los Angeles,California,90001
3,Mostly Cloudy,2016-09-06 10:47:00,60.1,,-,90,N/A,29.82,63.0,3:47 AM,,10.0,Calm,Calm,0,Los Angeles,California,90001
4,Mostly Cloudy,2016-09-06 11:01:00,59.0,,-,90,N/A,29.82,62.1,4:01 AM,,10.0,Calm,Calm,0,Los Angeles,California,90001
5,Scattered Clouds,2016-09-06 11:12:00,59.0,,-,90,N/A,29.82,62.1,4:12 AM,,10.0,Calm,Calm,0,Los Angeles,California,90001
6,Mostly Cloudy,2016-09-06 11:26:00,59.0,,-,90,N/A,29.82,62.1,4:26 AM,,10.0,Calm,Calm,0,Los Angeles,California,90001
7,Scattered Clouds,2016-09-06 11:33:00,59.0,,-,90,N/A,29.82,62.1,4:33 AM,,10.0,Calm,Calm,0,Los Angeles,California,90001
8,Partly Cloudy,2016-09-06 11:47:00,59.0,,-,90,N/A,29.82,62.1,4:47 AM,,10.0,Calm,Calm,0,Los Angeles,California,90001
9,Mostly Cloudy,2016-09-06 11:59:00,59.0,,-,90,N/A,29.82,62.1,4:59 AM,,10.0,Calm,Calm,0,Los Angeles,California,90001
10,Scattered Clouds,2016-09-06 12:44:00,59.0,,-,87,N/A,29.83,63.0,5:44 AM,,9.0,Calm,Calm,0,Los Angeles,California,90001
11,Scattered Clouds,2016-09-06 12:47:00,59.0,,-,87,N/A,29.83,63.0,5:47 AM,,9.0,Calm,Calm,0,Los Angeles,California,90001
12,Mostly Cloudy,2016-09-06 13:12:00,60.1,,-,90,N/A,29.83,63.0,6:12 AM,,10.0,North,3.5,10,Los Angeles,California,90001
13,Scattered Clouds,2016-09-06 13:47:00,59.0,,-,87,N/A,29.83,63.0,6:47 AM,,10.0,Calm,Calm,0,Los Angeles,California,90001
14,Mostly Cloudy,2016-09-06 13:55:00,59.0,,-,87,N/A,29.84,63.0,6:55 AM,,9.0,Calm,Calm,0,Los Angeles,California,90001
15,Scattered Clouds,2016-09-06 14:08:00,59.0,,-,84,N/A,29.84,64.0,7:08 AM,,9.0,Calm,Calm,0,Los Angeles,California,90001
16,Clear,2016-09-06 14:47:00,59.0,,-,78,N/A,29.84,66.0,7:47 AM,,9.0,Calm,Calm,0,Los Angeles,California,90001
17,Clear,2016-09-06 15:47:00,57.9,,-,75,N/A,29.85,66.0,8:47 AM,,8.0,Calm,Calm,0,Los Angeles,California,90001
18,Mostly Cloudy,2016-09-06 16:16:00,59.0,,-,68,N/A,29.85,70.0,9:16 AM,,7.0,Calm,Calm,0,Los Angeles,California,90001
19,Scattered Clouds,2016-09-06 16:36:00,59.0,,-,66,N/A,29.85,71.1,9:36 AM,,9.0,Calm,Calm,0,Los Angeles,California,90001
20,Partly Cloudy,2016-09-06 16:47:00,59.0,,-,61,N/A,29.84,73.0,9:47 AM,,9.0,Calm,Calm,0,Los Angeles,California,90001
21,Clear,2016-09-06 17:47:00,59.0,,-,57,N/A,29.83,75.0,10:47 AM,,10.0,Calm,Calm,0,Los Angeles,California,90001
22,Clear,2016-09-06 18:47:00,59.0,,-,54,N/A,29.82,77.0,11:47 AM,,10.0,Calm,Calm,0,Los Angeles,California,90001
23,Clear,2016-09-06 19:47:00,60.1,,-,54,N/A,29.81,78.1,12:47 PM,,10.0,Variable,4.6,0,Los Angeles,California,90001
24,Clear,2016-09-06 20:47:00,60.1,,-,56,N/A,29.81,77.0,1:47 PM,,10.0,West,6.9,280,Los Angeles,California,90001
25,Clear,2016-09-06 21:47:00,61.0,,-,62,N/A,29.80,75.0,2:47 PM,,10.0,Variable,5.8,0,Los Angeles,California,90001
26,Clear,2016-09-06 22:47:00,61.0,,-,64,N/A,29.78,73.9,3:47 PM,,10.0,Variable,4.6,0,Los Angeles,California,90001
27,Clear,2016-09-06 23:47:00,61.0,,-,66,N/A,29.78,73.0,4:47 PM,,10.0,West,8.1,270,Los Angeles,California,90001
28,Clear,2016-09-07 00:47:00,62.1,,-,73,N/A,29.78,71.1,5:47 PM,,10.0,Variable,4.6,0,Los Angeles,California,90001
29,Clear,2016-09-07 01:47:00,62.1,,-,78,N/A,29.79,69.1,6:47 PM,,10.0,Variable,3.5,0,Los Angeles,California,90001
30,Mostly Cloudy,2016-09-07 02:41:00,62.1,,-,84,N/A,29.81,66.9,7:41 PM,,10.0,Calm,Calm,0,Los Angeles,California,90001
31,Mostly Cloudy,2016-09-07 02:47:00,62.1,,-,84,N/A,29.81,66.9,7:47 PM,,10.0,Variable,3.5,0,Los Angeles,California,90001
32,Overcast,2016-09-07 03:47:00,62.1,,-,84,N/A,29.82,66.9,8:47 PM,,10.0,Calm,Calm,0,Los Angeles,California,90001
33,Overcast,2016-09-07 04:27:00,62.1,,-,87,N/A,29.83,66.0,9:27 PM,,10.0,Calm,Calm,0,Los Angeles,California,90001
34,Overcast,2016-09-07 04:47:00,62.1,,-,84,N/A,29.83,66.9,9:47 PM,,10.0,Calm,Calm,0,Los Angeles,California,90001
35,Overcast,2016-09-07 04:52:00,62.1,,-,87,N/A,29.84,66.0,9:52 PM,,10.0,Calm,Calm,0,Los Angeles,California,90001
36,Overcast,2016-09-07 05:47:00,62.1,,-,87,N/A,29.84,66.0,10:47 PM,,10.0,Calm,Calm,0,Los Angeles,California,90001
37,Scattered Clouds,2016-09-07 06:35:00,62.1,,-,90,N/A,29.85,64.9,11:35 PM,,10.0,Calm,Calm,0,Los Angeles,California,90001
38,Scattered Clouds,2016-09-07 06:47:00,62.1,,-,90,N/A,29.85,64.9,11:47 PM,,10.0,Calm,Calm,0,Los Angeles,California,90001
0,Partly Cloudy,2016-09-07 07:47:00,62.1,,-,90,N/A,29.85,64.9,12:47 AM,,8.0,Calm,Calm,0,Los Angeles,California,90001
1,Clear,2016-09-07 10:47:00,61.0,,-,93,N/A,29.84,63.0,3:47 AM,,8.0,Calm,Calm,0,Los Angeles,California,90001
2,Clear,2016-09-07 11:47:00,61.0,,-,93,N/A,29.84,63.0,4:47 AM,,7.0,Calm,Calm,0,Los Angeles,California,90001
3,Clear,2016-09-07 12:47:00,61.0,,-,93,N/A,29.85,63.0,5:47 AM,,7.0,Calm,Calm,0,Los Angeles,California,90001
4,Clear,2016-09-07 13:47:00,60.1,,-,90,N/A,29.87,63.0,6:47 AM,,7.0,Calm,Calm,0,Los Angeles,California,90001
5,Clear,2016-09-07 14:47:00,62.1,,-,87,N/A,29.90,66.0,7:47 AM,,6.0,Calm,Calm,0,Los Angeles,California,90001
6,Haze,2016-09-07 15:47:00,63.0,,-,84,N/A,29.93,68.0,8:47 AM,,6.0,WNW,3.5,290,Los Angeles,California,90001
7,Clear,2016-09-07 16:47:00,63.0,,-,73,N/A,29.94,72.0,9:47 AM,,8.0,Calm,Calm,0,Los Angeles,California,90001
8,Clear,2016-09-07 17:47:00,63.0,,-,64,N/A,29.95,75.9,10:47 AM,,10.0,SSW,3.5,200,Los Angeles,California,90001
9,Clear,2016-09-07 18:47:00,63.0,,-,58,N/A,29.96,79.0,11:47 AM,,10.0,Variable,3.5,0,Los Angeles,California,90001
10,Clear,2016-09-07 19:47:00,63.0,,-,60,N/A,29.96,78.1,12:47 PM,,10.0,Variable,4.6,0,Los Angeles,California,90001
11,Clear,2016-09-07 20:47:00,63.0,,-,64,N/A,29.98,75.9,1:47 PM,,9.0,Variable,4.6,0,Los Angeles,California,90001
12,Clear,2016-09-07 21:47:00,63.0,,-,64,N/A,29.98,75.9,2:47 PM,,10.0,Variable,4.6,0,Los Angeles,California,90001
13,Clear,2016-09-07 22:47:00,64.0,,-,67,N/A,29.97,75.9,3:47 PM,,9.0,Calm,Calm,0,Los Angeles,California,90001
14,Clear,2016-09-07 23:47:00,63.0,,-,64,N/A,29.98,75.9,4:47 PM,,9.0,WSW,3.5,250,Los Angeles,California,90001
15,Clear,2016-09-08 00:47:00,63.0,,-,68,N/A,29.99,73.9,5:47 PM,,9.0,Calm,Calm,0,Los Angeles,California,90001
16,Clear,2016-09-08 01:47:00,63.0,,-,75,N/A,30.01,71.1,6:47 PM,,9.0,Calm,Calm,0,Los Angeles,California,90001
17,Mostly Cloudy,2016-09-08 02:28:00,62.1,,-,78,N/A,30.02,69.1,7:28 PM,,10.0,Calm,Calm,0,Los Angeles,California,90001
18,Mostly Cloudy,2016-09-08 02:47:00,61.0,,-,75,N/A,30.03,69.1,7:47 PM,,10.0,Variable,3.5,0,Los Angeles,California,90001
19,Mostly Cloudy,2016-09-08 03:47:00,60.1,,-,79,N/A,30.06,66.9,8:47 PM,,10.0,Calm,Calm,0,Los Angeles,California,90001
20,Scattered Clouds,2016-09-08 03:58:00,60.1,,-,76,N/A,30.06,68.0,8:58 PM,,10.0,Calm,Calm,0,Los Angeles,California,90001
21,Clear,2016-09-08 04:47:00,60.1,,-,79,N/A,30.07,66.9,9:47 PM,,10.0,Calm,Calm,0,Los Angeles,California,90001
22,Clear,2016-09-08 05:47:00,59.0,,-,78,N/A,30.07,66.0,10:47 PM,,10.0,SE,3.5,130,Los Angeles,California,90001
23,Mostly Cloudy,2016-09-08 06:11:00,59.0,,-,76,N/A,30.08,66.9,11:11 PM,,10.0,ESE,3.5,120,Los Angeles,California,90001
24,Overcast,2016-09-08 06:47:00,60.1,,-,79,N/A,30.07,66.9,11:47 PM,,10.0,Calm,Calm,0,Los Angeles,California,90001
0,Overcast,2016-09-08 07:47:00,59.0,,-,76,N/A,30.07,66.9,12:47 AM,,10.0,Variable,4.6,0,Los Angeles,California,90001
1,Overcast,2016-09-08 08:47:00,59.0,,-,76,N/A,30.07,66.9,1:47 AM,,10.0,Calm,Calm,0,Los Angeles,California,90001
2,Mostly Cloudy,2016-09-08 09:47:00,59.0,,-,76,N/A,30.06,66.9,2:47 AM,,10.0,Calm,Calm,0,Los Angeles,California,90001
3,Mostly Cloudy,2016-09-08 10:47:00,59.0,,-,76,N/A,30.06,66.9,3:47 AM,,10.0,Calm,Calm,0,Los Angeles,California,90001
4,Scattered Clouds,2016-09-08 11:07:00,57.9,,-,73,N/A,30.06,66.9,4:07 AM,,10.0,Calm,Calm,0,Los Angeles,California,90001
5,Clear,2016-09-08 11:47:00,57.9,,-,75,N/A,30.05,66.0,4:47 AM,,10.0,Calm,Calm,0,Los Angeles,California,90001
6,Clear,2016-09-08 12:47:00,59.0,,-,81,N/A,30.06,64.9,5:47 AM,,10.0,Calm,Calm,0,Los Angeles,California,90001
7,Clear,2016-09-08 13:47:00,59.0,,-,81,N/A,30.07,64.9,6:47 AM,,10.0,Calm,Calm,0,Los Angeles,California,90001
8,Clear,2016-09-08 14:47:00,60.1,,-,73,N/A,30.08,69.1,7:47 AM,,10.0,Calm,Calm,0,Los Angeles,California,90001
9,Mostly Cloudy,2016-09-08 15:06:00,59.0,,-,73,N/A,30.08,68.0,8:06 AM,,10.0,Calm,Calm,0,Los Angeles,California,90001
10,Overcast,2016-09-08 15:47:00,60.1,,-,71,N/A,30.08,70.0,8:47 AM,,10.0,Variable,3.5,0,Los Angeles,California,90001
11,Scattered Clouds,2016-09-08 16:17:00,60.1,,-,71,N/A,30.08,70.0,9:17 AM,,10.0,Calm,Calm,0,Los Angeles,California,90001
12,Clear,2016-09-08 16:47:00,60.1,,-,64,N/A,30.08,73.0,9:47 AM,,10.0,West,3.5,280,Los Angeles,California,90001
13,Clear,2016-09-08 17:47:00,60.1,,-,60,N/A,30.06,75.0,10:47 AM,,10.0,Calm,Calm,0,Los Angeles,California,90001
14,Clear,2016-09-08 18:47:00,60.1,,-,54,N/A,30.05,78.1,11:47 AM,,10.0,Calm,Calm,0,Los Angeles,California,90001
15,Clear,2016-09-08 19:47:00,60.1,,-,58,N/A,30.04,75.9,12:47 PM,,10.0,Variable,3.5,0,Los Angeles,California,90001
16,Clear,2016-09-08 20:47:00,59.0,,-,57,N/A,30.03,75.0,1:47 PM,,10.0,Variable,5.8,0,Los Angeles,California,90001
17,Clear,2016-09-08 21:47:00,60.1,,-,62,N/A,30.01,73.9,2:47 PM,,10.0,Variable,4.6,0,Los Angeles,California,90001
18,Clear,2016-09-08 22:47:00,61.0,,-,64,N/A,29.99,73.9,3:47 PM,,10.0,Variable,6.9,0,Los Angeles,California,90001
19,Clear,2016-09-08 23:47:00,60.1,,-,66,N/A,29.98,72.0,4:47 PM,,10.0,Variable,5.8,0,Los Angeles,California,90001
20,Clear,2016-09-09 00:47:00,60.1,,-,68,N/A,29.98,71.1,5:47 PM,,10.0,West,5.8,260,Los Angeles,California,90001
21,Clear,2016-09-09 01:47:00,60.1,,-,73,N/A,29.97,69.1,6:47 PM,,10.0,Variable,3.5,0,Los Angeles,California,90001
22,Clear,2016-09-09 02:47:00,60.1,,-,79,N/A,29.99,66.9,7:47 PM,,10.0,West,4.6,270,Los Angeles,California,90001
23,Clear,2016-09-09 03:47:00,60.1,,-,81,N/A,29.99,66.0,8:47 PM,,10.0,Variable,4.6,0,Los Angeles,California,90001
24,Clear,2016-09-09 04:47:00,60.1,,-,81,N/A,30.00,66.0,9:47 PM,,10.0,West,5.8,270,Los Angeles,California,90001
25,Mostly Cloudy,2016-09-09 05:25:00,61.0,,-,84,N/A,30.01,66.0,10:25 PM,,10.0,Calm,Calm,0,Los Angeles,California,90001
26,Overcast,2016-09-09 05:47:00,61.0,,-,84,N/A,30.01,66.0,10:47 PM,,10.0,West,3.5,280,Los Angeles,California,90001
27,Overcast,2016-09-09 06:47:00,61.0,,-,84,N/A,30.01,66.0,11:47 PM,,10.0,Variable,3.5,0,Los Angeles,California,90001
0,Overcast,2016-09-09 07:47:00,61.0,,-,87,N/A,30.01,64.9,12:47 AM,,5.0,Calm,Calm,0,Los Angeles,California,90001
1,Overcast,2016-09-09 08:47:00,61.0,,-,87,N/A,30.01,64.9,1:47 AM,,10.0,Variable,3.5,0,Los Angeles,California,90001
2,Overcast,2016-09-09 09:47:00,61.0,,-,87,N/A,30.00,64.9,2:47 AM,,10.0,Calm,Calm,0,Los Angeles,California,90001
3,Overcast,2016-09-09 10:47:00,60.1,,-,84,N/A,30.00,64.9,3:47 AM,,10.0,WNW,3.5,290,Los Angeles,California,90001
4,Overcast,2016-09-09 11:47:00,60.1,,-,84,N/A,30.00,64.9,4:47 AM,,10.0,Calm,Calm,0,Los Angeles,California,90001
5,Overcast,2016-09-09 12:47:00,60.1,,-,81,N/A,30.01,66.0,5:47 AM,,10.0,Calm,Calm,0,Los Angeles,California,90001
6,Overcast,2016-09-09 13:03:00,60.1,,-,84,N/A,30.02,64.9,6:03 AM,,10.0,Calm,Calm,0,Los Angeles,California,90001
7,Overcast,2016-09-09 13:47:00,60.1,,-,81,N/A,30.02,66.0,6:47 AM,,10.0,Calm,Calm,0,Los Angeles,California,90001
8,Overcast,2016-09-09 14:47:00,60.1,,-,81,N/A,30.03,66.0,7:47 AM,,10.0,Calm,Calm,0,Los Angeles,California,90001
9,Overcast,2016-09-09 15:47:00,60.1,,-,76,N/A,30.02,68.0,8:47 AM,,10.0,West,4.6,280,Los Angeles,California,90001
10,Scattered Clouds,2016-09-09 16:28:00,60.1,,-,71,N/A,30.02,70.0,9:28 AM,,10.0,Calm,Calm,0,Los Angeles,California,90001
11,Clear,2016-09-09 16:47:00,60.1,,-,68,N/A,30.01,71.1,9:47 AM,,10.0,Calm,Calm,0,Los Angeles,California,90001
12,Clear,2016-09-09 17:47:00,61.0,,-,62,N/A,30.00,75.0,10:47 AM,,10.0,Calm,Calm,0,Los Angeles,California,90001
13,Clear,2016-09-09 18:47:00,61.0,,-,58,N/A,29.99,77.0,11:47 AM,,10.0,Variable,3.5,0,Los Angeles,California,90001
14,Clear,2016-09-09 19:47:00,61.0,,-,58,N/A,29.97,77.0,12:47 PM,,10.0,Calm,Calm,0,Los Angeles,California,90001
15,Clear,2016-09-09 20:47:00,61.0,,-,60,N/A,29.96,75.9,1:47 PM,,10.0,Variable,6.9,0,Los Angeles,California,90001
16,Clear,2016-09-09 21:47:00,62.1,,-,64,N/A,29.95,75.0,2:47 PM,,10.0,West,6.9,270,Los Angeles,California,90001
17,Clear,2016-09-09 22:47:00,61.0,,-,64,N/A,29.94,73.9,3:47 PM,,10.0,West,6.9,270,Los Angeles,California,90001
18,Clear,2016-09-09 23:47:00,61.0,,-,66,N/A,29.94,73.0,4:47 PM,,10.0,West,4.6,260,Los Angeles,California,90001
19,Clear,2016-09-10 00:47:00,62.1,,-,71,N/A,29.94,72.0,5:47 PM,,10.0,West,6.9,280,Los Angeles,California,90001
20,Clear,2016-09-10 01:47:00,62.1,,-,78,N/A,29.95,69.1,6:47 PM,,10.0,West,5.8,280,Los Angeles,California,90001
21,Clear,2016-09-10 02:47:00,62.1,,-,84,N/A,29.96,66.9,7:47 PM,,10.0,Calm,Calm,0,Los Angeles,California,90001
22,Clear,2016-09-10 03:47:00,62.1,,-,84,N/A,29.99,66.9,8:47 PM,,10.0,Calm,Calm,0,Los Angeles,California,90001
23,Partly Cloudy,2016-09-10 03:58:00,62.1,,-,87,N/A,29.99,66.0,8:58 PM,,10.0,Calm,Calm,0,Los Angeles,California,90001
24,Clear,2016-09-10 04:47:00,63.0,,-,90,N/A,29.99,66.0,9:47 PM,,9.0,Calm,Calm,0,Los Angeles,California,90001
25,Clear,2016-09-10 05:47:00,63.0,,-,93,N/A,29.99,64.9,10:47 PM,,9.0,Calm,Calm,0,Los Angeles,California,90001
26,Clear,2016-09-10 06:47:00,62.1,,-,90,N/A,29.99,64.9,11:47 PM,,9.0,Calm,Calm,0,Los Angeles,California,90001
0,Partly Cloudy,2016-09-10 07:30:00,62.1,,-,90,N/A,29.99,64.9,12:30 AM,,8.0,Calm,Calm,0,Los Angeles,California,90001
1,Partly Cloudy,2016-09-10 07:47:00,62.1,,-,90,N/A,29.99,64.9,12:47 AM,,7.0,WNW,3.5,290,Los Angeles,California,90001
2,Clear,2016-09-10 08:47:00,62.1,,-,93,N/A,29.98,64.0,1:47 AM,,7.0,Calm,Calm,0,Los Angeles,California,90001
3,Clear,2016-09-10 09:47:00,62.1,,-,93,N/A,29.97,64.0,2:47 AM,,7.0,Calm,Calm,0,Los Angeles,California,90001
4,Clear,2016-09-10 10:47:00,61.0,,-,93,N/A,29.97,63.0,3:47 AM,,6.0,Calm,Calm,0,Los Angeles,California,90001
5,Clear,2016-09-10 11:47:00,61.0,,-,93,N/A,29.98,63.0,4:47 AM,,6.0,Calm,Calm,0,Los Angeles,California,90001
6,Clear,2016-09-10 12:47:00,61.0,,-,93,N/A,29.99,63.0,5:47 AM,,6.0,Calm,Calm,0,Los Angeles,California,90001
7,Partly Cloudy,2016-09-10 12:50:00,61.0,,-,93,N/A,29.99,63.0,5:50 AM,,6.0,Calm,Calm,0,Los Angeles,California,90001
8,Mostly Cloudy,2016-09-10 12:59:00,61.0,,-,93,N/A,29.99,63.0,5:59 AM,,6.0,Calm,Calm,0,Los Angeles,California,90001
9,Overcast,2016-09-10 13:29:00,62.1,,-,97,N/A,30.00,63.0,6:29 AM,,4.0,Calm,Calm,0,Los Angeles,California,90001
10,Overcast,2016-09-10 13:47:00,62.1,,-,97,N/A,30.01,63.0,6:47 AM,,2.5,Calm,Calm,0,Los Angeles,California,90001
11,Mostly Cloudy,2016-09-10 14:21:00,63.0,,-,96,N/A,30.02,64.0,7:21 AM,,2.5,Calm,Calm,0,Los Angeles,California,90001
12,Scattered Clouds,2016-09-10 14:24:00,63.0,,-,96,N/A,30.02,64.0,7:24 AM,,2.5,Calm,Calm,0,Los Angeles,California,90001
13,Partly Cloudy,2016-09-10 14:31:00,62.1,,-,93,N/A,30.02,64.0,7:31 AM,,3.0,Calm,Calm,0,Los Angeles,California,90001
14,Clear,2016-09-10 14:47:00,63.0,,-,90,N/A,30.02,66.0,7:47 AM,,4.0,Calm,Calm,0,Los Angeles,California,90001
15,Haze,2016-09-10 15:47:00,63.0,,-,81,N/A,30.03,69.1,8:47 AM,,5.0,Calm,Calm,0,Los Angeles,California,90001
16,Clear,2016-09-10 16:47:00,64.0,,-,71,N/A,30.03,73.9,9:47 AM,,7.0,Variable,3.5,0,Los Angeles,California,90001
17,Clear,2016-09-10 17:47:00,63.0,,-,62,N/A,30.03,77.0,10:47 AM,,10.0,Calm,Calm,0,Los Angeles,California,90001
18,Clear,2016-09-10 18:47:00,62.1,,-,60,N/A,30.02,77.0,11:47 AM,,10.0,Variable,4.6,0,Los Angeles,California,90001
19,Clear,2016-09-10 19:47:00,63.0,,-,56,N/A,30.01,80.1,12:47 PM,,10.0,Calm,Calm,0,Los Angeles,California,90001
20,Clear,2016-09-10 20:47:00,61.0,,-,56,N/A,30.00,78.1,1:47 PM,,10.0,Variable,4.6,0,Los Angeles,California,90001
21,Clear,2016-09-10 21:47:00,61.0,,-,60,N/A,29.99,75.9,2:47 PM,,10.0,West,6.9,270,Los Angeles,California,90001
22,Clear,2016-09-10 22:47:00,62.1,,-,64,N/A,29.98,75.0,3:47 PM,,10.0,Variable,4.6,0,Los Angeles,California,90001
23,Clear,2016-09-11 00:47:00,62.1,,-,66,N/A,29.98,73.9,5:47 PM,,10.0,Variable,4.6,0,Los Angeles,California,90001
24,Clear,2016-09-11 01:47:00,62.1,,-,76,N/A,29.99,70.0,6:47 PM,,10.0,Variable,3.5,0,Los Angeles,California,90001
25,Clear,2016-09-11 02:47:00,62.1,,-,84,N/A,30.01,66.9,7:47 PM,,10.0,Calm,Calm,0,Los Angeles,California,90001
26,Clear,2016-09-11 03:47:00,62.1,,-,87,N/A,30.03,66.0,8:47 PM,,10.0,West,3.5,260,Los Angeles,California,90001
27,Clear,2016-09-11 04:47:00,62.1,,-,87,N/A,30.03,66.0,9:47 PM,,10.0,Calm,Calm,0,Los Angeles,California,90001
28,Partly Cloudy,2016-09-11 04:50:00,62.1,,-,87,N/A,30.04,66.0,9:50 PM,,10.0,Calm,Calm,0,Los Angeles,California,90001
29,Mostly Cloudy,2016-09-11 05:41:00,62.1,,-,90,N/A,30.05,64.9,10:41 PM,,10.0,West,3.5,280,Los Angeles,California,90001
30,Mostly Cloudy,2016-09-11 05:47:00,62.1,,-,90,N/A,30.04,64.9,10:47 PM,,10.0,Calm,Calm,0,Los Angeles,California,90001
31,Scattered Clouds,2016-09-11 06:01:00,62.1,,-,90,N/A,30.05,64.9,11:01 PM,,9.0,Calm,Calm,0,Los Angeles,California,90001
32,Clear,2016-09-11 06:47:00,62.1,,-,90,N/A,30.04,64.9,11:47 PM,,10.0,Calm,Calm,0,Los Angeles,California,90001
33,Partly Cloudy,2016-09-11 06:51:00,62.1,,-,90,N/A,30.05,64.9,11:51 PM,,10.0,West,3.5,270,Los Angeles,California,90001
0,Mostly Cloudy,2016-09-11 07:05:00,62.1,,-,90,N/A,30.05,64.9,12:05 AM,,10.0,Calm,Calm,0,Los Angeles,California,90001
1,Scattered Clouds,2016-09-11 07:47:00,62.1,,-,90,N/A,30.04,64.9,12:47 AM,,10.0,Calm,Calm,0,Los Angeles,California,90001
2,Mostly Cloudy,2016-09-11 08:47:00,62.1,,-,93,N/A,30.04,64.0,1:47 AM,,10.0,Calm,Calm,0,Los Angeles,California,90001
3,Mostly Cloudy,2016-09-11 08:52:00,62.1,,-,90,N/A,30.05,64.9,1:52 AM,,10.0,Calm,Calm,0,Los Angeles,California,90001
4,Overcast,2016-09-11 09:47:00,62.1,,-,90,N/A,30.04,64.9,2:47 AM,,9.0,Calm,Calm,0,Los Angeles,California,90001
5,Overcast,2016-09-11 10:47:00,61.0,,-,87,N/A,30.04,64.9,3:47 AM,,8.0,Calm,Calm,0,Los Angeles,California,90001
6,Overcast,2016-09-11 11:47:00,61.0,,-,87,N/A,30.04,64.9,4:47 AM,,8.0,Calm,Calm,0,Los Angeles,California,90001
7,Overcast,2016-09-11 12:47:00,61.0,,-,90,N/A,30.05,64.0,5:47 AM,,7.0,Calm,Calm,0,Los Angeles,California,90001
8,Overcast,2016-09-11 13:47:00,61.0,,-,90,N/A,30.07,64.0,6:47 AM,,7.0,Calm,Calm,0,Los Angeles,California,90001
9,Overcast,2016-09-11 14:47:00,61.0,,-,90,N/A,30.07,64.0,7:47 AM,,5.0,Calm,Calm,0,Los Angeles,California,90001
10,Haze,2016-09-11 15:47:00,61.0,,-,84,N/A,30.08,66.0,8:47 AM,,5.0,Calm,Calm,0,Los Angeles,California,90001
11,Clear,2016-09-11 16:47:00,61.0,,-,70,N/A,30.07,71.1,9:47 AM,,8.0,Calm,Calm,0,Los Angeles,California,90001
12,Clear,2016-09-11 17:47:00,61.0,,-,60,N/A,30.06,75.9,10:47 AM,,10.0,Calm,Calm,0,Los Angeles,California,90001
13,Clear,2016-09-11 18:47:00,60.1,,-,54,N/A,30.05,78.1,11:47 AM,,10.0,Variable,3.5,0,Los Angeles,California,90001
14,Clear,2016-09-11 19:47:00,60.1,,-,56,N/A,30.03,77.0,12:47 PM,,10.0,Variable,3.5,0,Los Angeles,California,90001
15,Clear,2016-09-11 20:47:00,61.0,,-,62,N/A,30.01,75.0,1:47 PM,,10.0,Variable,4.6,0,Los Angeles,California,90001
16,Clear,2016-09-11 21:47:00,60.1,,-,62,N/A,29.99,73.9,2:47 PM,,10.0,Variable,3.5,0,Los Angeles,California,90001
17,Clear,2016-09-11 22:47:00,59.0,,-,61,N/A,29.97,73.0,3:47 PM,,10.0,West,8.1,280,Los Angeles,California,90001
18,Clear,2016-09-11 23:47:00,59.0,,-,66,N/A,29.96,71.1,4:47 PM,,10.0,Variable,4.6,0,Los Angeles,California,90001
19,Clear,2016-09-12 00:47:00,59.0,,-,66,N/A,29.96,71.1,5:47 PM,,10.0,Variable,3.5,0,Los Angeles,California,90001
20,Clear,2016-09-12 01:47:00,60.1,,-,79,N/A,29.96,66.9,6:47 PM,,10.0,Variable,6.9,0,Los Angeles,California,90001
21,Clear,2016-09-12 02:47:00,60.1,,-,84,N/A,29.97,64.9,7:47 PM,,10.0,West,3.5,270,Los Angeles,California,90001
22,Mostly Cloudy,2016-09-12 02:59:00,60.1,,-,84,N/A,29.97,64.9,7:59 PM,,10.0,West,5.8,270,Los Angeles,California,90001
23,Overcast,2016-09-12 03:47:00,60.1,,-,87,N/A,29.98,64.0,8:47 PM,,10.0,West,4.6,280,Los Angeles,California,90001
24,Overcast,2016-09-12 04:47:00,59.0,,-,81,N/A,29.98,64.9,9:47 PM,,10.0,Variable,3.5,0,Los Angeles,California,90001
25,Mostly Cloudy,2016-09-12 05:47:00,59.0,,-,84,N/A,29.98,64.0,10:47 PM,,10.0,Calm,Calm,0,Los Angeles,California,90001
26,Scattered Clouds,2016-09-12 06:07:00,59.0,,-,87,N/A,29.99,63.0,11:07 PM,,10.0,West,3.5,280,Los Angeles,California,90001
27,Mostly Cloudy,2016-09-12 06:11:00,59.0,,-,87,N/A,29.99,63.0,11:11 PM,,10.0,Variable,3.5,0,Los Angeles,California,90001
28,Overcast,2016-09-12 06:47:00,59.0,,-,84,N/A,29.99,64.0,11:47 PM,,10.0,Variable,3.5,0,Los Angeles,California,90001
0,Mostly Cloudy,2016-09-12 07:16:00,59.0,,-,87,N/A,29.99,63.0,12:16 AM,,8.0,Calm,Calm,0,Los Angeles,California,90001
1,Mostly Cloudy,2016-09-12 07:47:00,59.0,,-,87,N/A,29.98,63.0,12:47 AM,,10.0,Calm,Calm,0,Los Angeles,California,90001
2,Mostly Cloudy,2016-09-12 07:54:00,59.0,,-,87,N/A,29.98,63.0,12:54 AM,,9.0,Calm,Calm,0,Los Angeles,California,90001
3,Overcast,2016-09-12 08:47:00,60.1,,-,90,N/A,29.96,63.0,1:47 AM,,9.0,Calm,Calm,0,Los Angeles,California,90001
4,Overcast,2016-09-12 09:47:00,59.0,,-,84,N/A,29.95,64.0,2:47 AM,,9.0,Calm,Calm,0,Los Angeles,California,90001
5,Overcast,2016-09-12 10:17:00,59.0,,-,84,N/A,29.95,64.0,3:17 AM,,9.0,Calm,Calm,0,Los Angeles,California,90001
6,Overcast,2016-09-12 10:47:00,59.0,,-,84,N/A,29.94,64.0,3:47 AM,,9.0,Calm,Calm,0,Los Angeles,California,90001
7,Overcast,2016-09-12 11:47:00,59.0,,-,81,N/A,29.94,64.9,4:47 AM,,10.0,Calm,Calm,0,Los Angeles,California,90001
8,Overcast,2016-09-12 12:47:00,59.0,,-,81,N/A,29.94,64.9,5:47 AM,,9.0,Calm,Calm,0,Los Angeles,California,90001
9,Overcast,2016-09-12 13:47:00,59.0,,-,78,N/A,29.95,66.0,6:47 AM,,8.0,Calm,Calm,0,Los Angeles,California,90001
10,Overcast,2016-09-12 14:47:00,59.0,,-,78,N/A,29.96,66.0,7:47 AM,,7.0,Calm,Calm,0,Los Angeles,California,90001
11,Overcast,2016-09-12 15:47:00,57.9,,-,73,N/A,29.96,66.9,8:47 AM,,8.0,Calm,Calm,0,Los Angeles,California,90001
12,Overcast,2016-09-12 16:47:00,57.9,,-,70,N/A,29.96,68.0,9:47 AM,,8.0,Calm,Calm,0,Los Angeles,California,90001
13,Overcast,2016-09-12 17:47:00,59.0,,-,68,N/A,29.96,70.0,10:47 AM,,10.0,Calm,Calm,0,Los Angeles,California,90001
14,Overcast,2016-09-12 18:24:00,59.0,,-,68,N/A,29.96,70.0,11:24 AM,,10.0,Calm,Calm,0,Los Angeles,California,90001
15,Overcast,2016-09-12 18:47:00,57.9,,-,61,N/A,29.96,72.0,11:47 AM,,10.0,Calm,Calm,0,Los Angeles,California,90001
16,Mostly Cloudy,2016-09-12 19:47:00,59.0,,-,64,N/A,29.94,72.0,12:47 PM,,10.0,Variable,4.6,0,Los Angeles,California,90001
17,Mostly Cloudy,2016-09-12 20:05:00,59.0,,-,66,N/A,29.94,71.1,1:05 PM,,10.0,Calm,Calm,0,Los Angeles,California,90001
18,Mostly Cloudy,2016-09-12 20:32:00,59.0,,-,64,N/A,29.93,72.0,1:32 PM,,10.0,Variable,3.5,0,Los Angeles,California,90001
19,Partly Cloudy,2016-09-12 20:47:00,59.0,,-,64,N/A,29.93,72.0,1:47 PM,,10.0,North,-9999.0,0,Los Angeles,California,90001
20,Clear,2016-09-12 21:47:00,59.0,,-,64,N/A,29.92,72.0,2:47 PM,,10.0,Calm,Calm,0,Los Angeles,California,90001
21,Scattered Clouds,2016-09-12 22:47:00,59.0,,-,64,N/A,29.90,72.0,3:47 PM,,10.0,West,5.8,260,Los Angeles,California,90001
22,Scattered Clouds,2016-09-12 23:47:00,59.0,,-,66,N/A,29.89,71.1,4:47 PM,,10.0,Variable,3.5,0,Los Angeles,California,90001
23,Overcast,2016-09-13 00:47:00,60.1,,-,73,N/A,29.89,69.1,5:47 PM,,10.0,Variable,3.5,0,Los Angeles,California,90001
24,Overcast,2016-09-13 01:47:00,60.1,,-,79,N/A,29.88,66.9,6:47 PM,,10.0,Variable,5.8,0,Los Angeles,California,90001
25,Overcast,2016-09-13 02:13:00,59.0,,-,78,N/A,29.89,66.2,7:13 PM,,10.0,Variable,3.5,0,Los Angeles,California,90001
26,Overcast,2016-09-13 02:47:00,59.0,,-,76,N/A,29.89,66.9,7:47 PM,,10.0,Calm,Calm,0,Los Angeles,California,90001
27,Overcast,2016-09-13 03:41:00,59.0,,-,78,N/A,29.90,66.0,8:41 PM,,10.0,Calm,Calm,0,Los Angeles,California,90001
28,Overcast,2016-09-13 03:47:00,59.0,,-,78,N/A,29.90,66.0,8:47 PM,,10.0,Calm,Calm,0,Los Angeles,California,90001
29,Overcast,2016-09-13 04:47:00,59.0,,-,76,N/A,29.91,66.9,9:47 PM,,10.0,Calm,Calm,0,Los Angeles,California,90001
30,Overcast,2016-09-13 05:27:00,59.0,,-,78,N/A,29.91,66.0,10:27 PM,,10.0,Calm,Calm,0,Los Angeles,California,90001
31,Overcast,2016-09-13 05:41:00,59.0,,-,78,N/A,29.91,66.0,10:41 PM,,10.0,Calm,Calm,0,Los Angeles,California,90001
32,Overcast,2016-09-13 05:47:00,59.0,,-,78,N/A,29.91,66.0,10:47 PM,,10.0,Calm,Calm,0,Los Angeles,California,90001
33,Overcast,2016-09-13 06:02:00,59.0,,-,78,N/A,29.91,66.0,11:02 PM,,10.0,Calm,Calm,0,Los Angeles,California,90001
34,Overcast,2016-09-13 06:47:00,59.0,,-,78,N/A,29.90,66.0,11:47 PM,,10.0,Calm,Calm,0,Los Angeles,California,90001
35,Overcast,2016-09-13 06:55:00,57.0,,-,73,N/A,29.91,66.0,11:55 PM,,10.0,Calm,Calm,0,Los Angeles,California,90001
0,Overcast,2016-09-13 07:47:00,57.0,,-,75,N/A,29.90,64.9,12:47 AM,,10.0,Calm,Calm,0,Los Angeles,California,90001
1,Overcast,2016-09-13 08:47:00,55.9,,-,70,N/A,29.89,66.0,1:47 AM,,10.0,Calm,Calm,0,Los Angeles,California,90001
2,Overcast,2016-09-13 09:47:00,57.0,,-,75,N/A,29.89,64.9,2:47 AM,,10.0,Calm,Calm,0,Los Angeles,California,90001
3,Overcast,2016-09-13 10:27:00,57.0,,-,75,N/A,29.90,64.9,3:27 AM,,10.0,Calm,Calm,0,Los Angeles,California,90001
4,Overcast,2016-09-13 10:47:00,57.0,,-,75,N/A,29.89,64.9,3:47 AM,,10.0,Calm,Calm,0,Los Angeles,California,90001
5,Overcast,2016-09-13 11:08:00,55.9,,-,73,N/A,29.90,64.9,4:08 AM,,10.0,Calm,Calm,0,Los Angeles,California,90001
6,Overcast,2016-09-13 11:47:00,55.9,,-,73,N/A,29.90,64.9,4:47 AM,,10.0,Calm,Calm,0,Los Angeles,California,90001
7,Overcast,2016-09-13 13:47:00,57.0,,-,75,N/A,29.92,64.9,6:47 AM,,10.0,Calm,Calm,0,Los Angeles,California,90001
8,Overcast,2016-09-13 14:47:00,57.0,,-,75,N/A,29.94,64.9,7:47 AM,,10.0,Calm,Calm,0,Los Angeles,California,90001
9,Overcast,2016-09-13 15:04:00,57.0,,-,73,N/A,29.94,66.0,8:04 AM,,10.0,Calm,Calm,0,Los Angeles,California,90001
10,Overcast,2016-09-13 15:47:00,57.0,,-,73,N/A,29.95,66.0,8:47 AM,,10.0,Calm,Calm,0,Los Angeles,California,90001
11,Overcast,2016-09-13 15:50:00,57.0,,-,73,N/A,29.95,66.0,8:50 AM,,10.0,Calm,Calm,0,Los Angeles,California,90001
12,Overcast,2016-09-13 16:47:00,57.9,,-,75,0.00,29.96,66.0,9:47 AM,,10.0,Variable,3.5,0,Los Angeles,California,90001
13,Overcast,2016-09-13 17:47:00,57.9,,-,75,N/A,29.97,66.0,10:47 AM,,10.0,Variable,3.5,0,Los Angeles,California,90001
14,Overcast,2016-09-13 18:47:00,57.0,,-,68,N/A,29.98,68.0,11:47 AM,,10.0,West,3.5,270,Los Angeles,California,90001
15,Overcast,2016-09-13 19:47:00,57.0,,-,68,N/A,29.98,68.0,12:47 PM,,10.0,North,-9999.0,0,Los Angeles,California,90001
16,Overcast,2016-09-13 20:36:00,57.0,,-,68,N/A,29.98,68.0,1:36 PM,,10.0,Variable,6.9,0,Los Angeles,California,90001
17,Overcast,2016-09-13 20:47:00,57.0,,-,68,N/A,29.98,68.0,1:47 PM,,10.0,West,6.9,260,Los Angeles,California,90001
18,Overcast,2016-09-13 20:51:00,57.0,,-,68,N/A,29.98,68.0,1:51 PM,,10.0,Variable,3.5,0,Los Angeles,California,90001
19,Mostly Cloudy,2016-09-13 21:47:00,57.0,,-,65,N/A,29.97,69.1,2:47 PM,,10.0,Variable,4.6,0,Los Angeles,California,90001
20,Overcast,2016-09-13 22:14:00,55.9,,-,65,N/A,29.97,68.0,3:14 PM,,10.0,Calm,Calm,0,Los Angeles,California,90001
21,Mostly Cloudy,2016-09-13 22:28:00,55.9,,-,65,N/A,29.97,68.0,3:28 PM,,10.0,Variable,4.6,0,Los Angeles,California,90001
22,Mostly Cloudy,2016-09-13 22:34:00,55.9,,-,65,N/A,29.96,68.0,3:34 PM,,10.0,Variable,3.5,0,Los Angeles,California,90001
23,Partly Cloudy,2016-09-13 22:47:00,55.0,,-,63,N/A,29.96,68.0,3:47 PM,,10.0,Variable,4.6,0,Los Angeles,California,90001
24,Scattered Clouds,2016-09-13 23:47:00,55.0,,-,61,N/A,29.95,69.1,4:47 PM,,10.0,Variable,5.8,0,Los Angeles,California,90001
25,Partly Cloudy,2016-09-14 00:47:00,55.0,,-,63,N/A,29.96,68.0,5:47 PM,,10.0,North,-9999.0,0,Los Angeles,California,90001
26,Clear,2016-09-14 01:47:00,55.0,,-,68,N/A,29.96,66.0,6:47 PM,,10.0,West,4.6,270,Los Angeles,California,90001
27,Clear,2016-09-14 02:47:00,55.0,,-,73,N/A,29.97,64.0,7:47 PM,,10.0,West,5.8,280,Los Angeles,California,90001
28,Clear,2016-09-14 03:47:00,54.0,,-,72,N/A,29.99,63.0,8:47 PM,,10.0,West,4.6,280,Los Angeles,California,90001
29,Scattered Clouds,2016-09-14 04:47:00,54.0,,-,72,N/A,30.00,63.0,9:47 PM,,10.0,Calm,Calm,0,Los Angeles,California,90001
30,Scattered Clouds,2016-09-14 05:47:00,53.1,,-,72,N/A,30.01,62.1,10:47 PM,,10.0,Calm,Calm,0,Los Angeles,California,90001
31,Clear,2016-09-14 06:47:00,53.1,,-,75,N/A,30.01,61.0,11:47 PM,,10.0,Calm,Calm,0,Los Angeles,California,90001
0,Clear,2016-09-14 07:47:00,54.0,,-,78,N/A,30.01,61.0,12:47 AM,,10.0,Calm,Calm,0,Los Angeles,California,90001
1,Clear,2016-09-14 08:47:00,53.1,,-,81,N/A,30.02,59.0,1:47 AM,,10.0,Calm,Calm,0,Los Angeles,California,90001
2,Clear,2016-09-14 09:47:00,53.1,,-,81,N/A,30.02,59.0,2:47 AM,,10.0,Calm,Calm,0,Los Angeles,California,90001
3,Clear,2016-09-14 10:47:00,53.1,,-,81,N/A,30.01,59.0,3:47 AM,,10.0,Calm,Calm,0,Los Angeles,California,90001
4,Clear,2016-09-14 11:47:00,53.1,,-,84,N/A,30.01,57.9,4:47 AM,,10.0,Calm,Calm,0,Los Angeles,California,90001
5,Clear,2016-09-14 12:47:00,52.0,,-,81,N/A,30.02,57.9,5:47 AM,,10.0,Calm,Calm,0,Los Angeles,California,90001
6,Overcast,2016-09-14 13:47:00,52.0,,-,78,N/A,30.04,59.0,6:47 AM,,10.0,Calm,Calm,0,Los Angeles,California,90001
7,Overcast,2016-09-14 14:47:00,52.0,,-,72,N/A,30.06,61.0,7:47 AM,,10.0,Calm,Calm,0,Los Angeles,California,90001
8,Overcast,2016-09-14 15:47:00,53.1,,-,67,N/A,30.06,64.0,8:47 AM,,10.0,Calm,Calm,0,Los Angeles,California,90001
9,Partly Cloudy,2016-09-14 16:47:00,54.0,,-,61,N/A,30.07,68.0,9:47 AM,,10.0,Variable,3.5,0,Los Angeles,California,90001
10,Clear,2016-09-14 17:47:00,53.1,,-,53,N/A,30.07,71.1,10:47 AM,,10.0,Calm,Calm,0,Los Angeles,California,90001
11,Clear,2016-09-14 18:47:00,54.0,,-,51,N/A,30.06,73.0,11:47 AM,,10.0,Calm,Calm,0,Los Angeles,California,90001
12,Clear,2016-09-14 19:47:00,53.1,,-,51,N/A,30.05,72.0,12:47 PM,,10.0,West,6.9,270,Los Angeles,California,90001
13,Clear,2016-09-14 20:47:00,55.0,,-,55,N/A,30.03,72.0,1:47 PM,,10.0,Variable,3.5,0,Los Angeles,California,90001
14,Clear,2016-09-14 21:47:00,55.0,,-,53,N/A,30.01,73.0,2:47 PM,,10.0,Variable,4.6,0,Los Angeles,California,90001
15,Clear,2016-09-14 22:47:00,55.9,,-,59,N/A,30.00,71.1,3:47 PM,,10.0,West,6.9,270,Los Angeles,California,90001
16,Clear,2016-09-14 23:47:00,55.0,,-,57,N/A,29.98,71.1,4:47 PM,,10.0,West,4.6,270,Los Angeles,California,90001
17,Clear,2016-09-15 00:47:00,55.9,,-,63,N/A,29.98,69.1,5:47 PM,,10.0,West,4.6,260,Los Angeles,California,90001
18,Clear,2016-09-15 01:47:00,55.9,,-,65,N/A,29.98,68.0,6:47 PM,,10.0,Variable,3.5,0,Los Angeles,California,90001
19,Clear,2016-09-15 02:47:00,55.9,,-,70,N/A,29.98,66.0,7:47 PM,,10.0,Variable,3.5,0,Los Angeles,California,90001
20,Clear,2016-09-15 03:47:00,55.9,,-,73,N/A,29.99,64.9,8:47 PM,,10.0,Calm,Calm,0,Los Angeles,California,90001
21,Clear,2016-09-15 04:47:00,57.0,,-,75,N/A,29.99,64.9,9:47 PM,,10.0,Calm,Calm,0,Los Angeles,California,90001
22,Clear,2016-09-15 05:47:00,57.0,,-,75,N/A,30.00,64.9,10:47 PM,,10.0,Calm,Calm,0,Los Angeles,California,90001
23,Clear,2016-09-15 06:47:00,57.0,,-,78,N/A,30.00,64.0,11:47 PM,,10.0,Calm,Calm,0,Los Angeles,California,90001
0,Clear,2016-09-15 07:47:00,57.0,,-,81,N/A,30.00,63.0,12:47 AM,,10.0,Calm,Calm,0,Los Angeles,California,90001
1,Clear,2016-09-15 08:47:00,55.9,,-,75,N/A,30.00,64.0,1:47 AM,,10.0,Calm,Calm,0,Los Angeles,California,90001
2,Clear,2016-09-15 09:47:00,55.9,,-,78,N/A,29.99,63.0,2:47 AM,,10.0,East,3.5,90,Los Angeles,California,90001
3,Clear,2016-09-15 10:47:00,55.9,,-,80,N/A,29.99,62.1,3:47 AM,,10.0,Calm,Calm,0,Los Angeles,California,90001
4,Clear,2016-09-15 11:47:00,55.0,,-,78,N/A,29.99,62.1,4:47 AM,,10.0,ESE,3.5,110,Los Angeles,California,90001
5,Clear,2016-09-15 12:47:00,55.9,,-,83,N/A,29.99,61.0,5:47 AM,,10.0,Calm,Calm,0,Los Angeles,California,90001
6,Clear,2016-09-15 13:47:00,55.0,,-,81,N/A,30.00,61.0,6:47 AM,,10.0,Calm,Calm,0,Los Angeles,California,90001
7,Haze,2016-09-15 14:47:00,55.0,,-,75,N/A,30.01,63.0,7:47 AM,,5.0,Calm,Calm,0,Los Angeles,California,90001
8,Clear,2016-09-15 15:47:00,57.0,,-,68,N/A,30.01,68.0,8:47 AM,,10.0,Calm,Calm,0,Los Angeles,California,90001
9,Clear,2016-09-15 16:47:00,54.0,,-,57,N/A,30.01,70.0,9:47 AM,,10.0,Calm,Calm,0,Los Angeles,California,90001
10,Clear,2016-09-15 17:47:00,54.0,,-,48,N/A,29.99,75.0,10:47 AM,,10.0,Calm,Calm,0,Los Angeles,California,90001
11,Clear,2016-09-15 18:47:00,52.0,,-,40,N/A,29.98,78.1,11:47 AM,,10.0,Calm,Calm,0,Los Angeles,California,90001
12,Clear,2016-09-15 19:47:00,51.1,,-,36,N/A,29.96,80.1,12:47 PM,,10.0,Calm,Calm,0,Los Angeles,California,90001
13,Clear,2016-09-15 20:47:00,57.9,,-,52,N/A,29.95,77.0,1:47 PM,,10.0,Variable,3.5,0,Los Angeles,California,90001
14,Clear,2016-09-15 21:47:00,57.9,,-,54,N/A,29.94,75.9,2:47 PM,,10.0,Variable,4.6,0,Los Angeles,California,90001
15,Clear,2016-09-15 22:47:00,57.0,,-,55,N/A,29.93,73.9,3:47 PM,,10.0,Variable,5.8,0,Los Angeles,California,90001
16,Clear,2016-09-15 23:47:00,55.9,,-,53,N/A,29.92,73.9,4:47 PM,,10.0,West,4.6,260,Los Angeles,California,90001
17,Clear,2016-09-16 00:47:00,54.0,,-,51,N/A,29.91,73.0,5:47 PM,,10.0,Variable,6.9,0,Los Angeles,California,90001
18,Clear,2016-09-16 01:47:00,57.0,,-,65,N/A,29.92,69.1,6:47 PM,,10.0,Calm,Calm,0,Los Angeles,California,90001
19,Clear,2016-09-16 03:47:00,57.9,,-,73,N/A,29.94,66.9,8:47 PM,,10.0,Calm,Calm,0,Los Angeles,California,90001
20,Clear,2016-09-16 04:47:00,59.0,,-,78,N/A,29.95,66.0,9:47 PM,,10.0,Calm,Calm,0,Los Angeles,California,90001
21,Clear,2016-09-16 05:47:00,61.0,,-,87,N/A,29.94,64.9,10:47 PM,,10.0,Calm,Calm,0,Los Angeles,California,90001
22,Clear,2016-09-16 06:47:00,61.0,,-,90,N/A,29.94,64.0,11:47 PM,,10.0,Calm,Calm,0,Los Angeles,California,90001
0,Clear,2016-09-16 07:47:00,61.0,,-,93,N/A,29.93,63.0,12:47 AM,,9.0,Calm,Calm,0,Los Angeles,California,90001
1,Clear,2016-09-16 08:47:00,60.1,,-,90,N/A,29.93,63.0,1:47 AM,,10.0,Calm,Calm,0,Los Angeles,California,90001
2,Clear,2016-09-16 09:47:00,59.0,,-,90,N/A,29.93,62.1,2:47 AM,,10.0,Calm,Calm,0,Los Angeles,California,90001
3,Clear,2016-09-16 10:47:00,59.0,,-,93,N/A,29.93,61.0,3:47 AM,,10.0,Calm,Calm,0,Los Angeles,California,90001
4,Clear,2016-09-16 11:47:00,57.9,,-,93,N/A,29.93,60.1,4:47 AM,,10.0,Calm,Calm,0,Los Angeles,California,90001
5,Partly Cloudy,2016-09-16 12:35:00,57.0,,-,90,N/A,29.93,60.1,5:35 AM,,10.0,Calm,Calm,0,Los Angeles,California,90001
6,Partly Cloudy,2016-09-16 12:47:00,57.0,,-,90,N/A,29.93,60.1,5:47 AM,,10.0,Calm,Calm,0,Los Angeles,California,90001
7,Clear,2016-09-16 13:47:00,57.9,,-,90,N/A,29.94,61.0,6:47 AM,,10.0,Calm,Calm,0,Los Angeles,California,90001
8,Clear,2016-09-16 14:47:00,60.1,,-,87,N/A,29.94,64.0,7:47 AM,,9.0,Calm,Calm,0,Los Angeles,California,90001
9,Mostly Cloudy,2016-09-16 15:41:00,60.1,,-,79,N/A,29.94,66.9,8:41 AM,,9.0,Calm,Calm,0,Los Angeles,California,90001
10,Scattered Clouds,2016-09-16 15:47:00,60.1,,-,79,N/A,29.94,66.9,8:47 AM,,9.0,Calm,Calm,0,Los Angeles,California,90001
11,Clear,2016-09-16 16:47:00,60.1,,-,68,N/A,29.93,71.1,9:47 AM,,9.0,Calm,Calm,0,Los Angeles,California,90001
12,Clear,2016-09-16 17:47:00,59.0,,-,57,N/A,29.92,75.0,10:47 AM,,10.0,Calm,Calm,0,Los Angeles,California,90001
13,Clear,2016-09-16 18:47:00,59.0,,-,56,N/A,29.91,75.9,11:47 AM,,10.0,Variable,3.5,0,Los Angeles,California,90001
14,Clear,2016-09-16 19:47:00,59.0,,-,54,N/A,29.91,77.0,12:47 PM,,10.0,North,-9999.0,0,Los Angeles,California,90001
15,Clear,2016-09-16 20:47:00,57.0,,-,53,N/A,29.89,75.0,1:47 PM,,10.0,North,-9999.0,0,Los Angeles,California,90001
16,Clear,2016-09-16 21:47:00,55.9,,-,51,N/A,29.88,75.0,2:47 PM,,10.0,West,9.2,270,Los Angeles,California,90001
17,Clear,2016-09-16 22:47:00,55.9,,-,53,N/A,29.87,73.9,3:47 PM,,10.0,Variable,3.5,0,Los Angeles,California,90001
18,Clear,2016-09-16 23:47:00,55.9,,-,51,N/A,29.86,75.0,4:47 PM,,10.0,Variable,6.9,0,Los Angeles,California,90001
19,Clear,2016-09-17 00:47:00,55.9,,-,55,N/A,29.86,73.0,5:47 PM,,10.0,Variable,3.5,0,Los Angeles,California,90001
20,Clear,2016-09-17 01:47:00,55.0,,-,61,N/A,29.88,69.1,6:47 PM,,10.0,Variable,3.5,0,Los Angeles,California,90001
21,Clear,2016-09-17 02:47:00,60.1,,-,79,N/A,29.89,66.9,7:47 PM,,10.0,West,3.5,260,Los Angeles,California,90001
22,Clear,2016-09-17 03:47:00,62.1,,-,87,N/A,29.92,66.0,8:47 PM,,10.0,Calm,Calm,0,Los Angeles,California,90001
23,Clear,2016-09-17 04:47:00,62.1,,-,87,N/A,29.92,66.0,9:47 PM,,10.0,West,3.5,270,Los Angeles,California,90001
24,Clear,2016-09-17 05:47:00,62.1,,-,90,N/A,29.92,64.9,10:47 PM,,10.0,Calm,Calm,0,Los Angeles,California,90001
25,Clear,2016-09-17 06:47:00,62.1,,-,93,N/A,29.92,64.0,11:47 PM,,9.0,Calm,Calm,0,Los Angeles,California,90001
0,Clear,2016-09-17 07:47:00,61.0,,-,93,N/A,29.92,63.0,12:47 AM,,8.0,Calm,Calm,0,Los Angeles,California,90001
1,Clear,2016-09-17 08:47:00,61.0,,-,93,N/A,29.91,63.0,1:47 AM,,8.0,Calm,Calm,0,Los Angeles,California,90001
2,Clear,2016-09-17 09:47:00,60.1,,-,93,N/A,29.91,62.1,2:47 AM,,8.0,Calm,Calm,0,Los Angeles,California,90001
3,Clear,2016-09-17 10:47:00,60.1,,-,93,N/A,29.91,62.1,3:47 AM,,7.0,Calm,Calm,0,Los Angeles,California,90001
4,Clear,2016-09-17 11:47:00,60.1,,-,97,N/A,29.91,61.0,4:47 AM,,7.0,Calm,Calm,0,Los Angeles,California,90001
5,Partly Cloudy,2016-09-17 12:44:00,60.1,,-,93,N/A,29.92,62.1,5:44 AM,,6.0,Calm,Calm,0,Los Angeles,California,90001
6,Scattered Clouds,2016-09-17 12:47:00,60.1,,-,93,N/A,29.92,62.1,5:47 AM,,6.0,Calm,Calm,0,Los Angeles,California,90001
7,Mostly Cloudy,2016-09-17 12:52:00,60.1,,-,93,N/A,29.93,62.1,5:52 AM,,6.0,Calm,Calm,0,Los Angeles,California,90001
8,Overcast,2016-09-17 13:47:00,60.1,,-,93,N/A,29.94,62.1,6:47 AM,,5.0,West,3.5,270,Los Angeles,California,90001
9,Overcast,2016-09-17 14:47:00,61.0,,-,96,N/A,29.95,62.1,7:47 AM,,4.0,Calm,Calm,0,Los Angeles,California,90001
10,Scattered Clouds,2016-09-17 15:33:00,61.0,,-,90,N/A,29.96,64.0,8:33 AM,,5.0,Calm,Calm,0,Los Angeles,California,90001
11,Scattered Clouds,2016-09-17 15:36:00,61.0,,-,87,N/A,29.96,64.9,8:36 AM,,2.0,Calm,Calm,0,Los Angeles,California,90001
12,Clear,2016-09-17 15:47:00,61.0,,-,87,N/A,29.96,64.9,8:47 AM,,6.0,Calm,Calm,0,Los Angeles,California,90001
13,Clear,2016-09-17 16:47:00,61.0,,-,68,N/A,29.96,72.0,9:47 AM,,10.0,Calm,Calm,0,Los Angeles,California,90001
14,Clear,2016-09-17 17:47:00,59.0,,-,56,N/A,29.96,75.9,10:47 AM,,10.0,North,-9999.0,0,Los Angeles,California,90001
15,Clear,2016-09-17 18:47:00,59.0,,-,48,N/A,29.94,80.1,11:47 AM,,10.0,Calm,Calm,0,Los Angeles,California,90001
16,Clear,2016-09-17 19:47:00,59.0,,-,48,N/A,29.93,80.1,12:47 PM,,10.0,Calm,Calm,0,Los Angeles,California,90001
17,Clear,2016-09-17 20:47:00,57.9,,-,50,N/A,29.91,78.1,1:47 PM,,10.0,Variable,3.5,0,Los Angeles,California,90001
18,Clear,2016-09-17 21:47:00,60.1,,-,56,N/A,29.89,77.0,2:47 PM,,10.0,Variable,5.8,0,Los Angeles,California,90001
19,Clear,2016-09-17 22:47:00,61.0,,-,58,N/A,29.87,77.0,3:47 PM,,10.0,West,5.8,280,Los Angeles,California,90001
20,Clear,2016-09-17 23:47:00,60.1,,-,58,N/A,29.86,75.9,4:47 PM,,10.0,WSW,4.6,250,Los Angeles,California,90001
21,Clear,2016-09-18 00:47:00,62.1,,-,68,N/A,29.86,73.0,5:47 PM,,10.0,West,6.9,270,Los Angeles,California,90001
22,Clear,2016-09-18 01:47:00,63.0,,-,78,N/A,29.86,70.0,6:47 PM,,10.0,Calm,Calm,0,Los Angeles,California,90001
23,Clear,2016-09-18 02:47:00,63.0,,-,84,N/A,29.86,68.0,7:47 PM,,10.0,Calm,Calm,0,Los Angeles,California,90001
24,Clear,2016-09-18 03:47:00,63.0,,-,87,N/A,29.88,66.9,8:47 PM,,9.0,Calm,Calm,0,Los Angeles,California,90001
25,Clear,2016-09-18 04:47:00,63.0,,-,90,N/A,29.89,66.0,9:47 PM,,8.0,Calm,Calm,0,Los Angeles,California,90001
26,Clear,2016-09-18 05:47:00,63.0,,-,90,N/A,29.90,66.0,10:47 PM,,8.0,Calm,Calm,0,Los Angeles,California,90001
27,Clear,2016-09-18 06:47:00,62.1,,-,87,N/A,29.90,66.0,11:47 PM,,8.0,Calm,Calm,0,Los Angeles,California,90001
0,Clear,2016-09-18 07:47:00,62.1,,-,90,N/A,29.90,64.9,12:47 AM,,7.0,Calm,Calm,0,Los Angeles,California,90001
1,Clear,2016-09-18 08:47:00,62.1,,-,90,N/A,29.89,64.9,1:47 AM,,7.0,Calm,Calm,0,Los Angeles,California,90001
2,Clear,2016-09-18 09:47:00,61.0,,-,90,N/A,29.88,64.0,2:47 AM,,7.0,Calm,Calm,0,Los Angeles,California,90001
3,Clear,2016-09-18 10:47:00,61.0,,-,93,N/A,29.87,63.0,3:47 AM,,7.0,Calm,Calm,0,Los Angeles,California,90001
4,Clear,2016-09-18 11:47:00,60.1,,-,90,N/A,29.87,63.0,4:47 AM,,7.0,Calm,Calm,0,Los Angeles,California,90001
5,Clear,2016-09-18 12:47:00,60.1,,-,97,N/A,29.88,61.0,5:47 AM,,5.0,Calm,Calm,0,Los Angeles,California,90001
6,Clear,2016-09-18 13:47:00,60.1,,-,97,N/A,29.89,61.0,6:47 AM,,4.0,Calm,Calm,0,Los Angeles,California,90001
7,Clear,2016-09-18 14:47:00,62.1,,-,90,N/A,29.89,64.9,7:47 AM,,5.0,Calm,Calm,0,Los Angeles,California,90001
8,Haze,2016-09-18 15:47:00,63.0,,-,81,N/A,29.91,69.1,8:47 AM,,6.0,Calm,Calm,0,Los Angeles,California,90001
9,Haze,2016-09-18 16:47:00,63.0,,-,68,N/A,29.92,73.9,9:47 AM,,6.0,Calm,Calm,0,Los Angeles,California,90001
10,Clear,2016-09-18 17:47:00,63.0,,-,54,N/A,29.91,81.0,10:47 AM,,8.0,Calm,Calm,0,Los Angeles,California,90001
11,Clear,2016-09-18 18:47:00,63.0,,-,43,N/A,29.89,88.0,11:47 AM,,10.0,Calm,Calm,0,Los Angeles,California,90001
12,Clear,2016-09-18 19:47:00,63.0,,-,46,N/A,29.89,86.0,12:47 PM,,10.0,West,3.5,260,Los Angeles,California,90001
13,Clear,2016-09-18 20:47:00,62.1,,-,47,N/A,29.88,84.0,1:47 PM,,10.0,Calm,Calm,0,Los Angeles,California,90001
14,Clear,2016-09-18 21:47:00,62.1,,-,51,N/A,29.87,82.0,2:47 PM,,10.0,West,5.8,280,Los Angeles,California,90001
15,Clear,2016-09-18 22:47:00,62.1,,-,49,N/A,29.86,82.9,3:47 PM,,10.0,Variable,4.6,0,Los Angeles,California,90001
16,Clear,2016-09-18 23:47:00,63.0,,-,60,N/A,29.85,78.1,4:47 PM,,9.0,Variable,3.5,0,Los Angeles,California,90001
17,Clear,2016-09-19 00:47:00,63.0,,-,66,N/A,29.86,75.0,5:47 PM,,9.0,Calm,Calm,0,Los Angeles,California,90001
18,Clear,2016-09-19 01:47:00,63.0,,-,75,N/A,29.88,71.1,6:47 PM,,7.0,Calm,Calm,0,Los Angeles,California,90001
19,Clear,2016-09-19 02:47:00,63.0,,-,84,N/A,29.90,68.0,7:47 PM,,7.0,Calm,Calm,0,Los Angeles,California,90001
20,Clear,2016-09-19 03:47:00,63.0,,-,84,N/A,29.91,68.0,8:47 PM,,7.0,Calm,Calm,0,Los Angeles,California,90001
21,Clear,2016-09-19 04:47:00,63.0,,-,87,N/A,29.92,66.9,9:47 PM,,7.0,Calm,Calm,0,Los Angeles,California,90001
22,Clear,2016-09-19 05:47:00,63.0,,-,87,N/A,29.94,66.9,10:47 PM,,6.0,Calm,Calm,0,Los Angeles,California,90001
23,Clear,2016-09-19 06:47:00,63.0,,-,90,N/A,29.93,66.0,11:47 PM,,6.0,Calm,Calm,0,Los Angeles,California,90001
0,Clear,2016-09-19 07:47:00,62.1,,-,90,N/A,29.93,64.9,12:47 AM,,5.0,Calm,Calm,0,Los Angeles,California,90001
1,Clear,2016-09-19 08:47:00,62.1,,-,90,N/A,29.93,64.9,1:47 AM,,5.0,Calm,Calm,0,Los Angeles,California,90001
2,Clear,2016-09-19 09:47:00,62.1,,-,90,N/A,29.91,64.9,2:47 AM,,5.0,Calm,Calm,0,Los Angeles,California,90001
3,Clear,2016-09-19 10:47:00,62.1,,-,93,N/A,29.89,64.0,3:47 AM,,5.0,Calm,Calm,0,Los Angeles,California,90001
4,Clear,2016-09-19 11:47:00,61.0,,-,93,N/A,29.93,63.0,4:47 AM,,5.0,Calm,Calm,0,Los Angeles,California,90001
5,Partly Cloudy,2016-09-19 12:12:00,62.1,,-,97,N/A,29.94,63.0,5:12 AM,,4.0,Calm,Calm,0,Los Angeles,California,90001
6,Mostly Cloudy,2016-09-19 12:20:00,62.1,,-,97,N/A,29.94,63.0,5:20 AM,,2.5,Calm,Calm,0,Los Angeles,California,90001
7,Mostly Cloudy,2016-09-19 12:26:00,62.1,,-,97,N/A,29.94,63.0,5:26 AM,,1.5,Calm,Calm,0,Los Angeles,California,90001
8,Overcast,2016-09-19 12:41:00,63.0,,-,100,N/A,29.94,63.0,5:41 AM,,2.0,Calm,Calm,0,Los Angeles,California,90001
9,Overcast,2016-09-19 12:47:00,63.0,,-,100,N/A,29.94,63.0,5:47 AM,,2.5,Calm,Calm,0,Los Angeles,California,90001
10,Overcast,2016-09-19 13:00:00,63.0,,-,100,N/A,29.95,63.0,6:00 AM,,1.8,Calm,Calm,0,Los Angeles,California,90001
11,Overcast,2016-09-19 13:22:00,63.0,,-,100,N/A,29.96,63.0,6:22 AM,,2.0,Calm,Calm,0,Los Angeles,California,90001
12,Overcast,2016-09-19 13:42:00,62.1,,-,97,N/A,29.95,63.0,6:42 AM,,1.5,Calm,Calm,0,Los Angeles,California,90001
13,Overcast,2016-09-19 13:47:00,62.1,,-,97,N/A,29.95,63.0,6:47 AM,,1.2,Calm,Calm,0,Los Angeles,California,90001
14,Overcast,2016-09-19 13:56:00,62.1,,-,97,N/A,29.94,63.0,6:56 AM,,2.0,NNW,3.5,340,Los Angeles,California,90001
15,Scattered Clouds,2016-09-19 14:17:00,62.1,,-,93,N/A,29.93,64.0,7:17 AM,,2.5,Calm,Calm,0,Los Angeles,California,90001
16,Scattered Clouds,2016-09-19 14:20:00,62.1,,-,93,N/A,29.93,64.0,7:20 AM,,3.0,Variable,4.6,0,Los Angeles,California,90001
17,Haze,2016-09-19 14:47:00,62.1,,-,84,N/A,29.92,66.9,7:47 AM,,4.0,Calm,Calm,0,Los Angeles,California,90001
18,Haze,2016-09-19 15:47:00,62.1,,-,66,N/A,29.89,73.9,8:47 AM,,6.0,Calm,Calm,0,Los Angeles,California,90001
19,Haze,2016-09-19 16:47:00,63.0,,-,71,N/A,29.94,73.0,9:47 AM,,6.0,Variable,3.5,0,Los Angeles,California,90001
20,Clear,2016-09-19 17:47:00,63.0,,-,60,N/A,29.92,78.1,10:47 AM,,9.0,Variable,4.6,0,Los Angeles,California,90001
21,Clear,2016-09-19 18:47:00,57.9,,-,40,N/A,29.90,84.9,11:47 AM,,10.0,Variable,3.5,0,Los Angeles,California,90001
22,Clear,2016-09-19 19:47:00,57.0,,-,40,N/A,29.88,84.0,12:47 PM,,10.0,Variable,3.5,0,Los Angeles,California,90001
23,Light Rain,2016-09-19 20:47:00,61.0,Rain,-,52,0.00,29.92,80.1,1:47 PM,,10.0,Variable,4.6,0,Los Angeles,California,90001
24,Mostly Cloudy,2016-09-19 21:47:00,64.0,,-,73,0.00,29.94,73.0,2:47 PM,,8.0,NNE,3.5,20,Los Angeles,California,90001
25,Clear,2016-09-19 22:47:00,60.1,,-,54,N/A,29.94,78.1,3:47 PM,,10.0,Variable,3.5,0,Los Angeles,California,90001
26,Clear,2016-09-19 23:47:00,55.0,,-,45,N/A,29.94,78.1,4:47 PM,,10.0,Variable,4.6,0,Los Angeles,California,90001
27,Clear,2016-09-20 00:47:00,55.9,,-,46,N/A,29.96,78.1,5:47 PM,,10.0,Calm,Calm,0,Los Angeles,California,90001
28,Clear,2016-09-20 01:47:00,54.0,,-,46,N/A,29.99,75.9,6:47 PM,,10.0,Calm,Calm,0,Los Angeles,California,90001
29,Clear,2016-09-20 02:47:00,53.1,,-,46,N/A,30.00,75.0,7:47 PM,,10.0,Calm,Calm,0,Los Angeles,California,90001
30,Clear,2016-09-20 03:47:00,55.9,,-,51,N/A,30.01,75.0,8:47 PM,,10.0,Calm,Calm,0,Los Angeles,California,90001
31,Clear,2016-09-20 04:47:00,57.0,,-,52,N/A,30.00,75.9,9:47 PM,,10.0,Calm,Calm,0,Los Angeles,California,90001
32,Clear,2016-09-20 05:47:00,55.9,,-,55,N/A,29.99,73.0,10:47 PM,,10.0,Calm,Calm,0,Los Angeles,California,90001
33,Clear,2016-09-20 06:47:00,55.0,,-,55,N/A,29.98,72.0,11:47 PM,,10.0,Calm,Calm,0,Los Angeles,California,90001
0,Clear,2016-09-20 07:47:00,53.1,,-,49,N/A,29.96,73.0,12:47 AM,,10.0,Calm,Calm,0,Los Angeles,California,90001
1,Clear,2016-09-20 08:47:00,53.1,,-,49,N/A,29.94,73.0,1:47 AM,,10.0,Calm,Calm,0,Los Angeles,California,90001
2,Clear,2016-09-20 09:47:00,54.0,,-,53,N/A,29.91,72.0,2:47 AM,,10.0,Calm,Calm,0,Los Angeles,California,90001
3,Clear,2016-09-20 10:47:00,55.0,,-,55,N/A,29.91,72.0,3:47 AM,,10.0,Calm,Calm,0,Los Angeles,California,90001
4,Clear,2016-09-20 11:47:00,55.0,,-,55,N/A,29.91,72.0,4:47 AM,,10.0,Calm,Calm,0,Los Angeles,California,90001
5,Clear,2016-09-20 12:47:00,54.0,,-,51,N/A,29.91,73.0,5:47 AM,,10.0,Calm,Calm,0,Los Angeles,California,90001
6,Clear,2016-09-20 13:47:00,53.1,,-,48,N/A,29.92,73.9,6:47 AM,,10.0,East,3.5,90,Los Angeles,California,90001
7,Clear,2016-09-20 14:47:00,55.0,,-,48,N/A,29.92,75.9,7:47 AM,,10.0,Calm,Calm,0,Los Angeles,California,90001
8,Clear,2016-09-20 15:47:00,55.0,,-,37,N/A,29.93,84.0,8:47 AM,,10.0,SE,5.8,140,Los Angeles,California,90001
9,Clear,2016-09-20 16:47:00,57.0,,-,36,N/A,29.94,87.1,9:47 AM,,10.0,Variable,3.5,0,Los Angeles,California,90001
10,Clear,2016-09-20 17:47:00,57.9,,-,37,N/A,29.94,87.1,10:47 AM,,10.0,Variable,4.6,0,Los Angeles,California,90001
11,Clear,2016-09-20 18:47:00,62.1,,-,42,N/A,29.93,88.0,11:47 AM,,10.0,Variable,5.8,0,Los Angeles,California,90001
12,Clear,2016-09-20 19:47:00,64.0,,-,48,N/A,29.93,86.0,12:47 PM,,10.0,Variable,3.5,0,Los Angeles,California,90001
13,Clear,2016-09-20 20:47:00,63.0,,-,48,N/A,29.91,84.9,1:47 PM,,10.0,Calm,Calm,0,Los Angeles,California,90001
14,Mostly Cloudy,2016-09-20 21:47:00,64.9,,-,53,N/A,29.91,84.0,2:47 PM,,10.0,Variable,6.9,0,Los Angeles,California,90001
15,Mostly Cloudy,2016-09-20 22:47:00,66.0,,-,56,N/A,29.88,82.9,3:47 PM,,10.0,Calm,Calm,0,Los Angeles,California,90001
16,Mostly Cloudy,2016-09-20 23:47:00,66.0,,-,56,N/A,29.87,82.9,4:47 PM,,10.0,Calm,Calm,0,Los Angeles,California,90001
17,Scattered Clouds,2016-09-21 00:47:00,66.0,,-,62,N/A,29.88,80.1,5:47 PM,,10.0,West,6.9,270,Los Angeles,California,90001
18,Mostly Cloudy,2016-09-21 01:47:00,66.0,,-,69,N/A,29.90,77.0,6:47 PM,,10.0,West,3.5,270,Los Angeles,California,90001
19,Partly Cloudy,2016-09-21 02:47:00,66.0,,-,71,N/A,29.90,75.9,7:47 PM,,10.0,Calm,Calm,0,Los Angeles,California,90001
20,Clear,2016-09-21 03:47:00,66.9,,-,74,N/A,29.91,75.9,8:47 PM,,10.0,Calm,Calm,0,Los Angeles,California,90001
21,Clear,2016-09-21 04:47:00,66.9,,-,76,N/A,29.91,75.0,9:47 PM,,10.0,Calm,Calm,0,Los Angeles,California,90001
22,Clear,2016-09-21 05:47:00,66.9,,-,76,N/A,29.91,75.0,10:47 PM,,10.0,Calm,Calm,0,Los Angeles,California,90001
23,Clear,2016-09-21 06:47:00,66.9,,-,79,N/A,29.90,73.9,11:47 PM,,10.0,Calm,Calm,0,Los Angeles,California,90001
0,Clear,2016-09-21 07:47:00,66.9,,-,79,N/A,29.90,73.9,12:47 AM,,10.0,Calm,Calm,0,Los Angeles,California,90001
1,Clear,2016-09-21 08:47:00,66.9,,-,84,N/A,29.89,72.0,1:47 AM,,10.0,Calm,Calm,0,Los Angeles,California,90001
2,Clear,2016-09-21 09:47:00,66.0,,-,79,N/A,29.88,73.0,2:47 AM,,10.0,Calm,Calm,0,Los Angeles,California,90001
3,Clear,2016-09-21 10:47:00,66.0,,-,81,N/A,29.86,72.0,3:47 AM,,10.0,Calm,Calm,0,Los Angeles,California,90001
4,Clear,2016-09-21 11:47:00,66.0,,-,81,N/A,29.85,72.0,4:47 AM,,10.0,Calm,Calm,0,Los Angeles,California,90001
5,Clear,2016-09-21 12:47:00,66.0,,-,81,N/A,29.85,72.0,5:47 AM,,10.0,Calm,Calm,0,Los Angeles,California,90001
6,Clear,2016-09-21 13:47:00,66.0,,-,84,N/A,29.86,71.1,6:47 AM,,10.0,Calm,Calm,0,Los Angeles,California,90001
7,Clear,2016-09-21 14:47:00,66.9,,-,79,N/A,29.88,73.9,7:47 AM,,10.0,Calm,Calm,0,Los Angeles,California,90001
8,Clear,2016-09-21 15:47:00,66.9,,-,71,N/A,29.88,77.0,8:47 AM,,10.0,Calm,Calm,0,Los Angeles,California,90001
9,Clear,2016-09-21 16:47:00,68.0,,-,67,N/A,29.89,80.1,9:47 AM,,10.0,Calm,Calm,0,Los Angeles,California,90001
10,Clear,2016-09-21 17:47:00,66.9,,-,58,N/A,29.88,82.9,10:47 AM,,10.0,Calm,Calm,0,Los Angeles,California,90001
11,Clear,2016-09-21 18:47:00,66.9,,-,58,N/A,29.88,82.9,11:47 AM,,10.0,Variable,4.6,0,Los Angeles,California,90001
12,Clear,2016-09-21 19:47:00,64.9,,-,58,N/A,29.86,81.0,12:47 PM,,10.0,West,8.1,270,Los Angeles,California,90001
13,Clear,2016-09-21 20:47:00,66.0,,-,64,N/A,29.86,79.0,1:47 PM,,10.0,Variable,3.5,0,Los Angeles,California,90001
14,Clear,2016-09-21 21:47:00,64.9,,-,62,N/A,29.84,79.0,2:47 PM,,10.0,Variable,5.8,0,Los Angeles,California,90001
15,Clear,2016-09-21 22:47:00,64.0,,-,58,N/A,29.83,80.1,3:47 PM,,10.0,West,5.8,280,Los Angeles,California,90001
16,Clear,2016-09-21 23:47:00,64.0,,-,60,N/A,29.82,79.0,4:47 PM,,10.0,West,3.5,260,Los Angeles,California,90001
17,Clear,2016-09-22 00:47:00,63.0,,-,64,N/A,29.82,75.9,5:47 PM,,10.0,Variable,5.8,0,Los Angeles,California,90001
18,Clear,2016-09-22 01:47:00,63.0,,-,71,N/A,29.82,73.0,6:47 PM,,10.0,Calm,Calm,0,Los Angeles,California,90001
19,Clear,2016-09-22 02:47:00,63.0,,-,78,N/A,29.83,70.0,7:47 PM,,10.0,Calm,Calm,0,Los Angeles,California,90001
20,Clear,2016-09-22 03:47:00,63.0,,-,78,N/A,29.84,70.0,8:47 PM,,10.0,Calm,Calm,0,Los Angeles,California,90001
21,Clear,2016-09-22 04:47:00,64.0,,-,84,N/A,29.84,69.1,9:47 PM,,10.0,Calm,Calm,0,Los Angeles,California,90001
22,Clear,2016-09-22 05:47:00,60.1,,-,73,N/A,29.86,69.1,10:47 PM,,10.0,Calm,Calm,0,Los Angeles,California,90001
23,Clear,2016-09-22 06:47:00,57.0,,-,68,N/A,29.87,68.0,11:47 PM,,10.0,Calm,Calm,0,Los Angeles,California,90001
0,Clear,2016-09-22 07:47:00,57.0,,-,70,N/A,29.86,66.9,12:47 AM,,10.0,Calm,Calm,0,Los Angeles,California,90001
1,Clear,2016-09-22 08:47:00,59.0,,-,78,N/A,29.86,66.0,1:47 AM,,10.0,Calm,Calm,0,Los Angeles,California,90001
2,Clear,2016-09-22 09:47:00,59.0,,-,78,N/A,29.87,66.0,2:47 AM,,10.0,Calm,Calm,0,Los Angeles,California,90001
3,Mostly Cloudy,2016-09-22 10:15:00,60.1,,-,81,N/A,29.87,66.0,3:15 AM,,10.0,Calm,Calm,0,Los Angeles,California,90001
4,Mostly Cloudy,2016-09-22 10:47:00,62.1,,-,84,N/A,29.87,66.9,3:47 AM,,10.0,Calm,Calm,0,Los Angeles,California,90001
5,Overcast,2016-09-22 11:47:00,64.0,,-,87,N/A,29.86,68.0,4:47 AM,,9.0,Calm,Calm,0,Los Angeles,California,90001
6,Overcast,2016-09-22 12:47:00,62.1,,-,81,N/A,29.87,68.0,5:47 AM,,10.0,Calm,Calm,0,Los Angeles,California,90001
7,Scattered Clouds,2016-09-22 13:13:00,62.1,,-,81,N/A,29.88,68.0,6:13 AM,,10.0,Calm,Calm,0,Los Angeles,California,90001
8,Scattered Clouds,2016-09-22 13:47:00,62.1,,-,81,N/A,29.87,68.0,6:47 AM,,9.0,East,4.6,100,Los Angeles,California,90001
9,Mostly Cloudy,2016-09-22 14:00:00,62.1,,-,81,N/A,29.88,68.0,7:00 AM,,10.0,Calm,Calm,0,Los Angeles,California,90001
10,Overcast,2016-09-22 14:47:00,62.1,,-,81,N/A,29.90,68.0,7:47 AM,,10.0,Calm,Calm,0,Los Angeles,California,90001
11,Scattered Clouds,2016-09-22 15:32:00,62.1,,-,76,N/A,29.90,70.0,8:32 AM,,10.0,SSE,4.6,160,Los Angeles,California,90001
12,Scattered Clouds,2016-09-22 15:47:00,61.0,,-,73,N/A,29.90,70.0,8:47 AM,,10.0,SE,5.8,140,Los Angeles,California,90001
13,Mostly Cloudy,2016-09-22 15:52:00,60.1,,-,71,N/A,29.90,70.0,8:52 AM,,10.0,Variable,6.9,0,Los Angeles,California,90001
14,Scattered Clouds,2016-09-22 15:56:00,60.1,,-,68,N/A,29.90,71.1,8:56 AM,,10.0,SE,5.8,140,Los Angeles,California,90001
15,Mostly Cloudy,2016-09-22 16:44:00,59.0,,-,64,N/A,29.92,72.0,9:44 AM,,10.0,Calm,Calm,0,Los Angeles,California,90001
16,Mostly Cloudy,2016-09-22 16:47:00,59.0,,-,64,N/A,29.91,72.0,9:47 AM,,10.0,Variable,4.6,0,Los Angeles,California,90001
17,Overcast,2016-09-22 16:56:00,57.9,,-,63,N/A,29.92,71.1,9:56 AM,,10.0,Calm,Calm,0,Los Angeles,California,90001
18,Mostly Cloudy,2016-09-22 17:02:00,59.0,,-,59,N/A,29.92,73.9,10:02 AM,,10.0,Variable,3.5,0,Los Angeles,California,90001
19,Partly Cloudy,2016-09-22 17:47:00,57.9,,-,55,N/A,29.91,75.0,10:47 AM,,10.0,ENE,4.6,70,Los Angeles,California,90001
20,Partly Cloudy,2016-09-22 18:47:00,57.9,,-,52,N/A,29.91,77.0,11:47 AM,,10.0,ESE,5.8,120,Los Angeles,California,90001
21,Mostly Cloudy,2016-09-22 19:47:00,60.1,,-,58,N/A,29.89,75.9,12:47 PM,,10.0,Calm,Calm,0,Los Angeles,California,90001
22,Clear,2016-09-22 20:47:00,59.0,,-,57,N/A,29.88,75.0,1:47 PM,,10.0,Variable,5.8,0,Los Angeles,California,90001
23,Clear,2016-09-22 21:47:00,53.1,,-,46,N/A,29.86,75.0,2:47 PM,,10.0,Variable,3.5,0,Los Angeles,California,90001
24,Clear,2016-09-22 22:47:00,46.9,,-,38,N/A,29.85,73.9,3:47 PM,,10.0,Variable,5.8,0,Los Angeles,California,90001
25,Clear,2016-09-22 23:47:00,48.9,,17.3,41,N/A,29.84,73.9,4:47 PM,,10.0,West,9.2,260,Los Angeles,California,90001
26,Clear,2016-09-23 00:47:00,52.0,,-,49,N/A,29.83,72.0,5:47 PM,,10.0,Variable,6.9,0,Los Angeles,California,90001
27,Clear,2016-09-23 01:47:00,53.1,,-,55,N/A,29.84,70.0,6:47 PM,,10.0,Calm,Calm,0,Los Angeles,California,90001
28,Clear,2016-09-23 02:47:00,53.1,,-,59,N/A,29.86,68.0,7:47 PM,,10.0,Calm,Calm,0,Los Angeles,California,90001
29,Clear,2016-09-23 03:47:00,53.1,,-,59,N/A,29.88,68.0,8:47 PM,,10.0,South,4.6,170,Los Angeles,California,90001
30,Clear,2016-09-23 04:47:00,34.0,,-,26,N/A,29.89,71.1,9:47 PM,,10.0,Variable,5.8,0,Los Angeles,California,90001
31,Clear,2016-09-23 05:47:00,36.0,,26.5,28,N/A,29.89,71.1,10:47 PM,,9.0,NNW,10.4,340,Los Angeles,California,90001
32,Clear,2016-09-23 06:47:00,34.0,,-,27,N/A,29.91,70.0,11:47 PM,,10.0,Variable,6.9,0,Los Angeles,California,90001
0,Clear,2016-09-23 07:47:00,34.0,,-,28,N/A,29.90,68.0,12:47 AM,,10.0,Variable,5.8,0,Los Angeles,California,90001
1,Clear,2016-09-23 08:47:00,57.0,,-,78,N/A,29.91,64.0,1:47 AM,,10.0,ESE,5.8,110,Los Angeles,California,90001
2,Clear,2016-09-23 09:47:00,55.9,,-,78,N/A,29.93,63.0,2:47 AM,,10.0,East,6.9,90,Los Angeles,California,90001
3,Clear,2016-09-23 10:47:00,55.9,,-,78,N/A,29.94,63.0,3:47 AM,,10.0,Variable,3.5,0,Los Angeles,California,90001
4,Clear,2016-09-23 11:47:00,55.0,,-,75,N/A,29.94,63.0,4:47 AM,,10.0,East,3.5,90,Los Angeles,California,90001
5,Clear,2016-09-23 12:47:00,55.0,,-,78,N/A,29.96,62.1,5:47 AM,,10.0,Calm,Calm,0,Los Angeles,California,90001
6,Clear,2016-09-23 13:47:00,55.0,,-,78,N/A,29.97,62.1,6:47 AM,,10.0,Variable,3.5,0,Los Angeles,California,90001
7,Clear,2016-09-23 14:47:00,55.9,,-,75,N/A,29.99,64.0,7:47 AM,,10.0,Calm,Calm,0,Los Angeles,California,90001
8,Clear,2016-09-23 15:47:00,55.9,,-,70,N/A,29.98,66.0,8:47 AM,,9.0,SE,4.6,130,Los Angeles,California,90001
9,Clear,2016-09-23 16:47:00,55.0,,-,61,N/A,29.99,69.1,9:47 AM,,10.0,Variable,3.5,0,Los Angeles,California,90001
10,Clear,2016-09-23 17:47:00,53.1,,-,48,N/A,30.00,73.9,10:47 AM,,10.0,Calm,Calm,0,Los Angeles,California,90001
11,Clear,2016-09-23 18:47:00,51.1,,-,39,N/A,29.98,78.1,11:47 AM,,10.0,Calm,Calm,0,Los Angeles,California,90001
12,Clear,2016-09-23 19:47:00,55.9,,-,50,N/A,29.96,75.9,12:47 PM,,10.0,Variable,3.5,0,Los Angeles,California,90001
13,Clear,2016-09-23 20:47:00,55.9,,-,53,N/A,29.94,73.9,1:47 PM,,10.0,Variable,4.6,0,Los Angeles,California,90001
14,Clear,2016-09-23 21:47:00,55.0,,-,52,N/A,29.94,73.9,2:47 PM,,10.0,West,4.6,270,Los Angeles,California,90001
15,Clear,2016-09-23 22:47:00,55.0,,-,53,N/A,29.94,73.0,3:47 PM,,10.0,Variable,5.8,0,Los Angeles,California,90001
16,Clear,2016-09-23 23:47:00,55.0,,-,53,N/A,29.94,73.0,4:47 PM,,10.0,Variable,4.6,0,Los Angeles,California,90001
17,Clear,2016-09-24 00:47:00,52.0,,-,46,N/A,29.93,73.9,5:47 PM,,10.0,Variable,5.8,0,Los Angeles,California,90001
18,Clear,2016-09-24 01:47:00,51.1,,-,48,N/A,29.93,72.0,6:47 PM,,10.0,West,3.5,280,Los Angeles,California,90001
19,Clear,2016-09-24 02:47:00,53.1,,-,55,N/A,29.93,70.0,7:47 PM,,10.0,Calm,Calm,0,Los Angeles,California,90001
20,Clear,2016-09-24 03:47:00,54.0,,-,58,N/A,29.94,69.1,8:47 PM,,10.0,Calm,Calm,0,Los Angeles,California,90001
21,Clear,2016-09-24 04:47:00,55.0,,-,61,N/A,29.94,69.1,9:47 PM,,10.0,Calm,Calm,0,Los Angeles,California,90001
22,Clear,2016-09-24 05:47:00,55.0,,-,63,N/A,29.95,68.0,10:47 PM,,10.0,Calm,Calm,0,Los Angeles,California,90001
23,Clear,2016-09-24 06:47:00,55.0,,-,66,N/A,29.96,66.9,11:47 PM,,10.0,Calm,Calm,0,Los Angeles,California,90001
0,Clear,2016-09-24 07:47:00,55.0,,-,68,N/A,29.95,66.0,12:47 AM,,10.0,Calm,Calm,0,Los Angeles,California,90001
1,Clear,2016-09-24 08:47:00,55.0,,-,70,N/A,29.96,64.9,1:47 AM,,10.0,Calm,Calm,0,Los Angeles,California,90001
2,Clear,2016-09-24 09:47:00,53.1,,-,65,N/A,29.96,64.9,2:47 AM,,10.0,Calm,Calm,0,Los Angeles,California,90001
3,Clear,2016-09-24 10:47:00,52.0,,-,67,N/A,29.96,63.0,3:47 AM,,10.0,Calm,Calm,0,Los Angeles,California,90001
4,Clear,2016-09-24 11:47:00,43.0,,-,45,N/A,29.96,64.9,4:47 AM,,10.0,Calm,Calm,0,Los Angeles,California,90001
5,Clear,2016-09-24 12:47:00,42.1,,-,46,N/A,29.98,63.0,5:47 AM,,10.0,Calm,Calm,0,Los Angeles,California,90001
6,Clear,2016-09-24 13:47:00,45.0,,-,56,N/A,29.99,61.0,6:47 AM,,10.0,Calm,Calm,0,Los Angeles,California,90001
7,Clear,2016-09-24 14:47:00,43.0,,-,43,N/A,29.99,66.0,7:47 AM,,10.0,Calm,Calm,0,Los Angeles,California,90001
8,Clear,2016-09-24 15:47:00,41.0,,-,30,N/A,29.99,73.9,8:47 AM,,10.0,Calm,Calm,0,Los Angeles,California,90001
9,Clear,2016-09-24 16:47:00,39.0,,-,23,N/A,30.00,80.1,9:47 AM,,10.0,Calm,Calm,0,Los Angeles,California,90001
10,Clear,2016-09-24 17:47:00,39.0,,-,18,N/A,29.99,87.1,10:47 AM,,10.0,Calm,Calm,0,Los Angeles,California,90001
11,Clear,2016-09-24 18:47:00,37.9,,-,17,N/A,29.98,88.0,11:47 AM,,10.0,SE,3.5,130,Los Angeles,California,90001
12,Clear,2016-09-24 19:47:00,48.0,,-,25,N/A,29.96,88.0,12:47 PM,,10.0,Variable,4.6,0,Los Angeles,California,90001
13,Clear,2016-09-24 20:47:00,48.9,,-,28,N/A,29.96,86.0,1:47 PM,,10.0,West,5.8,280,Los Angeles,California,90001
14,Clear,2016-09-24 21:47:00,48.9,,-,29,N/A,29.94,84.0,2:47 PM,,10.0,Variable,3.5,0,Los Angeles,California,90001
15,Clear,2016-09-24 22:47:00,46.0,,-,28,N/A,29.94,82.0,3:47 PM,,10.0,West,8.1,280,Los Angeles,California,90001
16,Clear,2016-09-24 23:47:00,41.0,,-,23,N/A,29.94,82.0,4:47 PM,,10.0,Variable,4.6,0,Los Angeles,California,90001
17,Clear,2016-09-25 00:47:00,41.0,,-,25,N/A,29.93,80.1,5:47 PM,,10.0,Variable,3.5,0,Los Angeles,California,90001
18,Clear,2016-09-25 01:47:00,44.1,,-,32,N/A,29.94,75.9,6:47 PM,,10.0,Calm,Calm,0,Los Angeles,California,90001
19,Clear,2016-09-25 02:47:00,51.1,,-,45,N/A,29.94,73.9,7:47 PM,,10.0,Calm,Calm,0,Los Angeles,California,90001
20,Clear,2016-09-25 03:47:00,53.1,,-,51,N/A,29.95,72.0,8:47 PM,,10.0,Calm,Calm,0,Los Angeles,California,90001
21,Clear,2016-09-25 04:47:00,53.1,,-,53,N/A,29.96,71.1,9:47 PM,,10.0,Calm,Calm,0,Los Angeles,California,90001
22,Clear,2016-09-25 05:47:00,53.1,,-,55,N/A,29.96,70.0,10:47 PM,,10.0,Calm,Calm,0,Los Angeles,California,90001
23,Clear,2016-09-25 06:47:00,53.1,,-,57,N/A,29.95,69.1,11:47 PM,,10.0,Calm,Calm,0,Los Angeles,California,90001
0,Clear,2016-09-25 07:47:00,51.1,,-,55,N/A,29.96,68.0,12:47 AM,,10.0,East,4.6,100,Los Angeles,California,90001
1,Clear,2016-09-25 08:47:00,48.0,,-,49,N/A,29.97,68.0,1:47 AM,,10.0,Calm,Calm,0,Los Angeles,California,90001
2,Clear,2016-09-25 09:47:00,51.1,,-,61,N/A,29.97,64.9,2:47 AM,,10.0,Calm,Calm,0,Los Angeles,California,90001
3,Clear,2016-09-25 10:47:00,51.1,,-,63,N/A,29.96,64.0,3:47 AM,,10.0,Calm,Calm,0,Los Angeles,California,90001
4,Clear,2016-09-25 11:47:00,50.0,,-,60,N/A,29.96,64.0,4:47 AM,,8.0,Calm,Calm,0,Los Angeles,California,90001
5,Clear,2016-09-25 12:47:00,46.9,,-,56,N/A,29.96,63.0,5:47 AM,,7.0,Calm,Calm,0,Los Angeles,California,90001
6,Clear,2016-09-25 13:47:00,45.0,,-,52,N/A,29.99,63.0,6:47 AM,,7.0,Calm,Calm,0,Los Angeles,California,90001
7,Clear,2016-09-25 14:47:00,45.0,,-,45,N/A,30.00,66.9,7:47 AM,,7.0,Calm,Calm,0,Los Angeles,California,90001
8,Clear,2016-09-25 15:47:00,46.9,,-,37,N/A,30.00,75.0,8:47 AM,,10.0,Calm,Calm,0,Los Angeles,California,90001
9,Clear,2016-09-25 16:47:00,41.0,,-,20,N/A,29.99,86.0,9:47 AM,,10.0,Calm,Calm,0,Los Angeles,California,90001
10,Clear,2016-09-25 17:47:00,36.0,,-,14,N/A,29.99,91.0,10:47 AM,,10.0,Calm,Calm,0,Los Angeles,California,90001
11,Clear,2016-09-25 18:47:00,36.0,,-,13,N/A,29.96,93.9,11:47 AM,,10.0,Calm,Calm,0,Los Angeles,California,90001
12,Clear,2016-09-25 19:47:00,35.1,,-,12,N/A,29.94,96.1,12:47 PM,,10.0,Variable,3.5,0,Los Angeles,California,90001
13,Clear,2016-09-25 20:47:00,41.0,,-,17,N/A,29.92,91.9,1:47 PM,,10.0,West,4.6,260,Los Angeles,California,90001
14,Clear,2016-09-25 21:47:00,39.9,,-,17,N/A,29.91,91.0,2:47 PM,,10.0,Variable,3.5,0,Los Angeles,California,90001
15,Clear,2016-09-25 22:47:00,39.0,,-,17,N/A,29.90,90.0,3:47 PM,,10.0,Variable,4.6,0,Los Angeles,California,90001
16,Clear,2016-09-25 23:47:00,37.9,,-,16,N/A,29.88,90.0,4:47 PM,,10.0,Variable,3.5,0,Los Angeles,California,90001
17,Clear,2016-09-26 00:47:00,36.0,,-,16,N/A,29.87,88.0,5:47 PM,,10.0,West,6.9,270,Los Angeles,California,90001
18,Clear,2016-09-26 01:47:00,37.9,,-,19,N/A,29.87,84.9,6:47 PM,,10.0,Calm,Calm,0,Los Angeles,California,90001
19,Clear,2016-09-26 02:47:00,51.1,,-,38,N/A,29.88,79.0,7:47 PM,,10.0,Calm,Calm,0,Los Angeles,California,90001
20,Clear,2016-09-26 03:47:00,54.0,,-,45,N/A,29.91,77.0,8:47 PM,,10.0,Calm,Calm,0,Los Angeles,California,90001
21,Clear,2016-09-26 04:47:00,54.0,,-,46,N/A,29.92,75.9,9:47 PM,,10.0,Calm,Calm,0,Los Angeles,California,90001
22,Clear,2016-09-26 05:47:00,46.9,,-,34,N/A,29.92,77.0,10:47 PM,,10.0,Calm,Calm,0,Los Angeles,California,90001
23,Clear,2016-09-26 06:47:00,53.1,,-,51,N/A,29.93,72.0,11:47 PM,,10.0,Calm,Calm,0,Los Angeles,California,90001
0,Clear,2016-09-26 07:47:00,48.9,,-,45,N/A,29.92,71.1,12:47 AM,,10.0,Calm,Calm,0,Los Angeles,California,90001
1,Clear,2016-09-26 08:47:00,45.0,,-,38,N/A,29.92,72.0,1:47 AM,,10.0,Calm,Calm,0,Los Angeles,California,90001
2,Clear,2016-09-26 09:47:00,43.0,,-,36,N/A,29.91,71.1,2:47 AM,,10.0,Calm,Calm,0,Los Angeles,California,90001
3,Clear,2016-09-26 10:47:00,39.9,,-,32,N/A,29.90,71.1,3:47 AM,,10.0,NNE,3.5,20,Los Angeles,California,90001
4,Clear,2016-09-26 11:47:00,35.1,,-,25,N/A,29.90,73.0,4:47 AM,,10.0,NNE,3.5,20,Los Angeles,California,90001
5,Clear,2016-09-26 12:47:00,33.1,,-,23,N/A,29.92,73.0,5:47 AM,,9.0,NNE,4.6,20,Los Angeles,California,90001
6,Clear,2016-09-26 13:47:00,34.0,,-,24,N/A,29.93,73.0,6:47 AM,,10.0,Variable,3.5,0,Los Angeles,California,90001
7,Clear,2016-09-26 14:47:00,35.1,,-,23,N/A,29.94,75.9,7:47 AM,,10.0,NNE,4.6,20,Los Angeles,California,90001
8,Clear,2016-09-26 15:47:00,34.0,,-,17,N/A,29.94,84.0,8:47 AM,,10.0,NNE,3.5,30,Los Angeles,California,90001
9,Clear,2016-09-26 16:47:00,35.1,,-,14,N/A,29.93,91.0,9:47 AM,,10.0,North,3.5,10,Los Angeles,California,90001
10,Clear,2016-09-26 17:47:00,37.0,,-,12,N/A,29.92,97.0,10:47 AM,,10.0,Variable,3.5,0,Los Angeles,California,90001
11,Clear,2016-09-26 18:47:00,37.0,,-,11,N/A,29.90,100.0,11:47 AM,,10.0,Calm,Calm,0,Los Angeles,California,90001
12,Clear,2016-09-26 19:47:00,36.0,,-,10,N/A,29.88,104.0,12:47 PM,,10.0,SE,4.6,140,Los Angeles,California,90001
13,Clear,2016-09-26 20:47:00,37.0,,-,11,N/A,29.85,100.9,1:47 PM,,10.0,Variable,3.5,0,Los Angeles,California,90001
14,Clear,2016-09-26 21:47:00,34.0,,-,10,N/A,29.83,100.9,2:47 PM,,10.0,WNW,5.8,290,Los Angeles,California,90001
15,Clear,2016-09-26 22:47:00,36.0,,-,11,N/A,29.81,100.9,3:47 PM,,10.0,Variable,4.6,0,Los Angeles,California,90001
16,Clear,2016-09-26 23:47:00,36.0,,-,12,N/A,29.81,97.0,4:47 PM,,10.0,West,8.1,270,Los Angeles,California,90001
17,Clear,2016-09-27 00:47:00,42.1,,-,17,N/A,29.81,93.0,5:47 PM,,10.0,Variable,3.5,0,Los Angeles,California,90001
18,Clear,2016-09-27 01:47:00,44.1,,-,22,N/A,29.84,88.0,6:47 PM,,10.0,Calm,Calm,0,Los Angeles,California,90001
19,Clear,2016-09-27 02:47:00,46.9,,-,27,N/A,29.86,84.9,7:47 PM,,10.0,Calm,Calm,0,Los Angeles,California,90001
20,Clear,2016-09-27 03:47:00,48.9,,-,29,N/A,29.86,84.0,8:47 PM,,10.0,Calm,Calm,0,Los Angeles,California,90001
21,Clear,2016-09-27 04:47:00,51.1,,-,36,N/A,29.86,80.1,9:47 PM,,10.0,Calm,Calm,0,Los Angeles,California,90001
22,Clear,2016-09-27 05:47:00,52.0,,-,42,N/A,29.86,77.0,10:47 PM,,10.0,Calm,Calm,0,Los Angeles,California,90001
23,Clear,2016-09-27 06:47:00,53.1,,-,46,N/A,29.86,75.0,11:47 PM,,10.0,Calm,Calm,0,Los Angeles,California,90001
0,Clear,2016-09-27 07:47:00,54.0,,-,48,N/A,29.84,75.0,12:47 AM,,10.0,Calm,Calm,0,Los Angeles,California,90001
1,Clear,2016-09-27 08:47:00,53.1,,-,48,N/A,29.83,73.9,1:47 AM,,10.0,Calm,Calm,0,Los Angeles,California,90001
2,Clear,2016-09-27 09:47:00,46.9,,-,37,N/A,29.82,75.0,2:47 AM,,10.0,ENE,3.5,70,Los Angeles,California,90001
3,Clear,2016-09-27 10:47:00,39.9,,-,25,N/A,29.82,78.1,3:47 AM,,10.0,NE,3.5,40,Los Angeles,California,90001
4,Clear,2016-09-27 11:47:00,41.0,,-,29,N/A,29.83,75.9,4:47 AM,,10.0,Calm,Calm,0,Los Angeles,California,90001
5,Clear,2016-09-27 12:47:00,46.0,,-,40,N/A,29.83,72.0,5:47 AM,,10.0,Calm,Calm,0,Los Angeles,California,90001
6,Clear,2016-09-27 13:47:00,45.0,,-,34,N/A,29.84,75.0,6:47 AM,,10.0,Calm,Calm,0,Los Angeles,California,90001
7,Clear,2016-09-27 14:47:00,46.9,,-,38,N/A,29.83,73.9,7:47 AM,,10.0,Calm,Calm,0,Los Angeles,California,90001
8,Clear,2016-09-27 15:47:00,46.9,,-,30,N/A,29.85,81.0,8:47 AM,,10.0,Calm,Calm,0,Los Angeles,California,90001
9,Clear,2016-09-27 16:47:00,44.1,,-,21,N/A,29.85,89.1,9:47 AM,,10.0,East,3.5,80,Los Angeles,California,90001
10,Clear,2016-09-27 17:47:00,44.1,,-,18,N/A,29.84,93.9,10:47 AM,,10.0,Variable,3.5,0,Los Angeles,California,90001
11,Clear,2016-09-27 18:47:00,45.0,,-,17,N/A,29.83,96.1,11:47 AM,,10.0,Calm,Calm,0,Los Angeles,California,90001
12,Clear,2016-09-27 19:47:00,45.0,,-,17,N/A,29.81,96.1,12:47 PM,,10.0,Calm,Calm,0,Los Angeles,California,90001
13,Clear,2016-09-27 20:47:00,48.0,,-,20,N/A,29.80,95.0,1:47 PM,,10.0,West,5.8,260,Los Angeles,California,90001
14,Clear,2016-09-27 21:47:00,48.9,,-,23,N/A,29.79,91.9,2:47 PM,,10.0,West,10.4,280,Los Angeles,California,90001
15,Clear,2016-09-27 22:47:00,51.1,,-,26,N/A,29.80,90.0,3:47 PM,,10.0,North,-9999.0,0,Los Angeles,California,90001
16,Clear,2016-09-27 23:47:00,53.1,,-,33,N/A,29.82,84.9,4:47 PM,,10.0,Variable,5.8,0,Los Angeles,California,90001
17,Clear,2016-09-28 00:47:00,52.0,,-,34,N/A,29.82,82.9,5:47 PM,,10.0,WSW,3.5,250,Los Angeles,California,90001
18,Clear,2016-09-28 01:47:00,52.0,,-,35,N/A,29.84,82.0,6:47 PM,,10.0,West,3.5,270,Los Angeles,California,90001
19,Clear,2016-09-28 02:47:00,52.0,,-,38,N/A,29.85,80.1,7:47 PM,,10.0,Calm,Calm,0,Los Angeles,California,90001
20,Clear,2016-09-28 03:47:00,50.0,,-,36,N/A,29.86,79.0,8:47 PM,,10.0,Calm,Calm,0,Los Angeles,California,90001
21,Clear,2016-09-28 04:47:00,50.0,,-,36,N/A,29.86,79.0,9:47 PM,,10.0,Calm,Calm,0,Los Angeles,California,90001
22,Clear,2016-09-28 05:47:00,51.1,,-,39,N/A,29.86,78.1,10:47 PM,,10.0,Calm,Calm,0,Los Angeles,California,90001
23,Clear,2016-09-28 06:47:00,51.1,,-,40,N/A,29.86,77.0,11:47 PM,,10.0,Calm,Calm,0,Los Angeles,California,90001
0,Clear,2016-09-28 07:47:00,53.1,,-,43,N/A,29.86,77.0,12:47 AM,,10.0,Calm,Calm,0,Los Angeles,California,90001
1,Clear,2016-09-28 08:47:00,57.0,,-,53,N/A,29.88,75.0,1:47 AM,,10.0,SE,4.6,140,Los Angeles,California,90001
2,Clear,2016-09-28 09:47:00,60.1,,-,62,N/A,29.88,73.9,2:47 AM,,10.0,East,4.6,90,Los Angeles,California,90001
3,Clear,2016-09-28 10:47:00,61.0,,-,66,N/A,29.87,73.0,3:47 AM,,10.0,East,3.5,90,Los Angeles,California,90001
4,Clear,2016-09-28 11:47:00,60.1,,-,64,N/A,29.88,73.0,4:47 AM,,10.0,East,3.5,100,Los Angeles,California,90001
5,Haze,2016-09-28 12:46:00,61.0,,-,68,N/A,29.88,72.0,5:46 AM,,1.0,SE,3.5,130,Los Angeles,California,90001
6,Haze,2016-09-28 12:55:00,61.0,,-,68,N/A,29.89,72.0,5:55 AM,,2.5,SE,3.5,130,Los Angeles,California,90001
7,Clear,2016-09-28 12:58:00,61.0,,-,68,N/A,29.89,72.0,5:58 AM,,7.0,Calm,Calm,0,Los Angeles,California,90001
8,Haze,2016-09-28 13:47:00,61.0,,-,70,N/A,29.90,71.1,6:47 AM,,5.0,Calm,Calm,0,Los Angeles,California,90001
9,Clear,2016-09-28 14:47:00,60.1,,-,62,N/A,29.91,73.9,7:47 AM,,10.0,Calm,Calm,0,Los Angeles,California,90001
10,Clear,2016-09-28 15:47:00,59.0,,-,52,N/A,29.91,78.1,8:47 AM,,10.0,Calm,Calm,0,Los Angeles,California,90001
11,Clear,2016-09-28 16:47:00,55.9,,-,38,N/A,29.91,84.0,9:47 AM,,10.0,Calm,Calm,0,Los Angeles,California,90001
12,Clear,2016-09-28 17:47:00,54.0,,-,31,N/A,29.91,88.0,10:47 AM,,10.0,Calm,Calm,0,Los Angeles,California,90001
13,Clear,2016-09-28 18:47:00,54.0,,-,30,N/A,29.90,89.1,11:47 AM,,10.0,Calm,Calm,0,Los Angeles,California,90001
14,Clear,2016-09-28 19:47:00,54.0,,-,31,N/A,29.89,88.0,12:47 PM,,10.0,Variable,3.5,0,Los Angeles,California,90001
15,Clear,2016-09-28 20:47:00,53.1,,-,30,N/A,29.88,88.0,1:47 PM,,10.0,Variable,4.6,0,Los Angeles,California,90001
16,Clear,2016-09-28 21:47:00,53.1,,-,30,N/A,29.87,88.0,2:47 PM,,10.0,West,5.8,280,Los Angeles,California,90001
17,Clear,2016-09-28 22:47:00,51.1,,-,30,N/A,29.86,86.0,3:47 PM,,10.0,Variable,4.6,0,Los Angeles,California,90001
18,Clear,2016-09-28 23:47:00,51.1,,-,30,N/A,29.86,86.0,4:47 PM,,10.0,West,5.8,280,Los Angeles,California,90001
19,Mostly Cloudy,2016-09-29 00:47:00,52.0,,-,33,0.00,29.88,84.0,5:47 PM,,10.0,Calm,Calm,0,Los Angeles,California,90001
20,Clear,2016-09-29 01:47:00,51.1,,-,34,N/A,29.88,82.0,6:47 PM,,10.0,Calm,Calm,0,Los Angeles,California,90001
21,Clear,2016-09-29 02:47:00,53.1,,-,40,N/A,29.91,79.0,7:47 PM,,10.0,West,5.8,270,Los Angeles,California,90001
22,Clear,2016-09-29 03:47:00,57.9,,-,54,N/A,29.91,75.9,8:47 PM,,10.0,WNW,3.5,290,Los Angeles,California,90001
23,Clear,2016-09-29 04:47:00,61.0,,-,62,N/A,29.92,75.0,9:47 PM,,10.0,Calm,Calm,0,Los Angeles,California,90001
24,Clear,2016-09-29 05:47:00,64.9,,-,76,N/A,29.93,73.0,10:47 PM,,10.0,WNW,3.5,290,Los Angeles,California,90001
25,Clear,2016-09-29 06:47:00,66.0,,-,81,N/A,29.93,72.0,11:47 PM,,10.0,Calm,Calm,0,Los Angeles,California,90001
0,Clear,2016-09-29 07:47:00,64.9,,-,78,N/A,29.93,72.0,12:47 AM,,10.0,Calm,Calm,0,Los Angeles,California,90001
1,Clear,2016-09-29 08:47:00,64.0,,-,73,N/A,29.94,73.0,1:47 AM,,10.0,Calm,Calm,0,Los Angeles,California,90001
2,Clear,2016-09-29 09:47:00,62.1,,-,71,N/A,29.94,72.0,2:47 AM,,10.0,Calm,Calm,0,Los Angeles,California,90001
3,Clear,2016-09-29 10:47:00,62.1,,-,71,N/A,29.94,72.0,3:47 AM,,10.0,Calm,Calm,0,Los Angeles,California,90001
4,Clear,2016-09-29 11:47:00,62.1,,-,76,N/A,29.95,70.0,4:47 AM,,10.0,Calm,Calm,0,Los Angeles,California,90001
5,Clear,2016-09-29 12:47:00,62.1,,-,76,N/A,29.97,70.0,5:47 AM,,10.0,Calm,Calm,0,Los Angeles,California,90001
6,Clear,2016-09-29 13:47:00,62.1,,-,73,N/A,29.98,71.1,6:47 AM,,10.0,Calm,Calm,0,Los Angeles,California,90001
7,Clear,2016-09-29 14:47:00,57.0,,-,53,N/A,29.99,75.0,7:47 AM,,10.0,Calm,Calm,0,Los Angeles,California,90001
8,Clear,2016-09-29 15:47:00,57.9,,-,47,N/A,30.00,80.1,8:47 AM,,10.0,Calm,Calm,0,Los Angeles,California,90001
9,Clear,2016-09-29 16:47:00,55.9,,-,36,N/A,30.01,86.0,9:47 AM,,10.0,Calm,Calm,0,Los Angeles,California,90001
10,Clear,2016-09-29 17:47:00,54.0,,-,30,N/A,30.01,89.1,10:47 AM,,10.0,Calm,Calm,0,Los Angeles,California,90001
11,Clear,2016-09-29 18:47:00,55.0,,-,29,N/A,30.00,91.0,11:47 AM,,10.0,Calm,Calm,0,Los Angeles,California,90001
12,Clear,2016-09-29 19:47:00,64.0,,-,48,N/A,29.99,86.0,12:47 PM,,10.0,Variable,4.6,0,Los Angeles,California,90001
13,Clear,2016-09-29 20:47:00,57.9,,-,38,N/A,29.99,86.0,1:47 PM,,10.0,Variable,4.6,0,Los Angeles,California,90001
14,Clear,2016-09-29 21:47:00,57.0,,-,37,N/A,29.97,86.0,2:47 PM,,10.0,North,-9999.0,0,Los Angeles,California,90001
15,Clear,2016-09-29 22:47:00,55.9,,-,37,N/A,29.96,84.9,3:47 PM,,10.0,Variable,3.5,0,Los Angeles,California,90001
16,Clear,2016-09-29 23:47:00,55.9,,-,39,N/A,29.96,82.9,4:47 PM,,10.0,West,5.8,260,Los Angeles,California,90001
17,Clear,2016-09-30 00:47:00,57.0,,-,44,N/A,29.96,81.0,5:47 PM,,10.0,Variable,3.5,0,Los Angeles,California,90001
18,Clear,2016-09-30 01:47:00,57.9,,-,52,N/A,29.97,77.0,6:47 PM,,10.0,Variable,3.5,0,Los Angeles,California,90001
19,Clear,2016-09-30 02:47:00,57.9,,-,57,N/A,29.98,73.9,7:47 PM,,10.0,Variable,3.5,0,Los Angeles,California,90001
20,Clear,2016-09-30 03:47:00,60.1,,-,64,N/A,29.99,73.0,8:47 PM,,10.0,Calm,Calm,0,Los Angeles,California,90001
21,Clear,2016-09-30 04:47:00,61.0,,-,68,N/A,30.01,72.0,9:47 PM,,10.0,Calm,Calm,0,Los Angeles,California,90001
22,Clear,2016-09-30 05:47:00,60.1,,-,68,N/A,30.02,71.1,10:47 PM,,10.0,Calm,Calm,0,Los Angeles,California,90001
23,Clear,2016-09-30 06:47:00,61.0,,-,73,N/A,30.02,70.0,11:47 PM,,10.0,Calm,Calm,0,Los Angeles,California,90001
0,Clear,2016-09-30 07:47:00,62.1,,-,78,N/A,30.01,69.1,12:47 AM,,10.0,Calm,Calm,0,Los Angeles,California,90001
1,Clear,2016-09-30 08:47:00,62.1,,-,81,N/A,30.01,68.0,1:47 AM,,10.0,Calm,Calm,0,Los Angeles,California,90001
2,Clear,2016-09-30 09:47:00,62.1,,-,81,N/A,30.01,68.0,2:47 AM,,10.0,Calm,Calm,0,Los Angeles,California,90001
3,Clear,2016-09-30 10:47:00,62.1,,-,81,N/A,30.00,68.0,3:47 AM,,10.0,Calm,Calm,0,Los Angeles,California,90001
4,Clear,2016-09-30 11:47:00,62.1,,-,84,N/A,30.00,66.9,4:47 AM,,10.0,Calm,Calm,0,Los Angeles,California,90001
5,Clear,2016-09-30 12:47:00,62.1,,-,84,N/A,30.01,66.9,5:47 AM,,10.0,Calm,Calm,0,Los Angeles,California,90001
6,Clear,2016-09-30 13:47:00,62.1,,-,81,N/A,30.01,68.0,6:47 AM,,10.0,Calm,Calm,0,Los Angeles,California,90001
7,Clear,2016-09-30 14:47:00,62.1,,-,78,N/A,30.02,69.1,7:47 AM,,10.0,Calm,Calm,0,Los Angeles,California,90001
8,Clear,2016-09-30 15:47:00,62.1,,-,64,N/A,30.02,75.0,8:47 AM,,10.0,Calm,Calm,0,Los Angeles,California,90001
9,Clear,2016-09-30 16:47:00,60.1,,-,50,N/A,30.02,80.1,9:47 AM,,10.0,Calm,Calm,0,Los Angeles,California,90001
10,Clear,2016-09-30 17:47:00,57.9,,-,41,N/A,30.02,84.0,10:47 AM,,10.0,Calm,Calm,0,Los Angeles,California,90001
11,Clear,2016-09-30 18:47:00,60.1,,-,39,N/A,30.00,88.0,11:47 AM,,10.0,Calm,Calm,0,Los Angeles,California,90001
12,Clear,2016-09-30 19:47:00,59.0,,-,40,N/A,29.99,86.0,12:47 PM,,10.0,Variable,3.5,0,Los Angeles,California,90001
13,Clear,2016-09-30 20:47:00,55.9,,-,38,N/A,29.96,84.0,1:47 PM,,10.0,Variable,6.9,0,Los Angeles,California,90001
14,Clear,2016-09-30 21:47:00,54.0,,-,37,N/A,29.95,82.9,2:47 PM,,10.0,West,8.1,260,Los Angeles,California,90001
15,Clear,2016-09-30 22:47:00,53.1,,-,36,N/A,29.94,82.9,3:47 PM,,10.0,West,6.9,270,Los Angeles,California,90001
16,Clear,2016-09-30 23:47:00,54.0,,-,40,N/A,29.92,80.1,4:47 PM,,10.0,West,6.9,260,Los Angeles,California,90001
17,Clear,2016-10-01 00:47:00,55.9,,-,46,N/A,29.92,78.1,5:47 PM,,10.0,Variable,3.5,0,Los Angeles,California,90001
18,Clear,2016-10-01 01:47:00,55.9,,-,53,N/A,29.91,73.9,6:47 PM,,10.0,Variable,5.8,0,Los Angeles,California,90001
19,Clear,2016-10-01 02:47:00,55.0,,-,53,N/A,29.92,73.0,7:47 PM,,10.0,Variable,3.5,0,Los Angeles,California,90001
20,Clear,2016-10-01 03:47:00,57.9,,-,63,N/A,29.93,71.1,8:47 PM,,10.0,Calm,Calm,0,Los Angeles,California,90001
21,Clear,2016-10-01 04:47:00,57.9,,-,63,N/A,29.94,71.1,9:47 PM,,10.0,Calm,Calm,0,Los Angeles,California,90001
22,Clear,2016-10-01 05:47:00,57.9,,-,65,N/A,29.95,70.0,10:47 PM,,10.0,Calm,Calm,0,Los Angeles,California,90001
23,Clear,2016-10-01 06:47:00,62.1,,-,78,N/A,29.96,69.1,11:47 PM,,10.0,Calm,Calm,0,Los Angeles,California,90001
0,Clear,2016-10-01 07:47:00,63.0,,-,81,N/A,29.96,69.1,12:47 AM,,10.0,Calm,Calm,0,Los Angeles,California,90001
1,Clear,2016-10-01 08:47:00,60.1,,-,73,N/A,29.97,69.1,1:47 AM,,10.0,Calm,Calm,0,Los Angeles,California,90001
2,Clear,2016-10-01 09:47:00,60.1,,-,79,N/A,29.97,66.9,2:47 AM,,10.0,Calm,Calm,0,Los Angeles,California,90001
3,Clear,2016-10-01 10:47:00,60.1,,-,81,N/A,29.96,66.0,3:47 AM,,10.0,Calm,Calm,0,Los Angeles,California,90001
4,Clear,2016-10-01 11:47:00,61.0,,-,84,N/A,29.96,66.0,4:47 AM,,10.0,Calm,Calm,0,Los Angeles,California,90001
5,Clear,2016-10-01 12:47:00,61.0,,-,87,N/A,29.96,64.9,5:47 AM,,10.0,Calm,Calm,0,Los Angeles,California,90001
6,Clear,2016-10-01 13:47:00,61.0,,-,84,N/A,29.97,66.0,6:47 AM,,8.0,ESE,3.5,110,Los Angeles,California,90001
7,Clear,2016-10-01 14:47:00,62.1,,-,81,N/A,29.98,68.0,7:47 AM,,9.0,ESE,3.5,110,Los Angeles,California,90001
8,Clear,2016-10-01 15:47:00,63.0,,-,75,N/A,29.99,71.1,8:47 AM,,7.0,East,3.5,90,Los Angeles,California,90001
9,Clear,2016-10-01 18:47:00,59.0,,-,44,N/A,29.96,82.9,11:47 AM,,10.0,Calm,Calm,0,Los Angeles,California,90001
10,Clear,2016-10-01 19:47:00,61.0,,-,47,N/A,29.95,82.9,12:47 PM,,10.0,Calm,Calm,0,Los Angeles,California,90001
11,Clear,2016-10-01 20:47:00,63.0,,-,54,N/A,29.92,81.0,1:47 PM,,10.0,Variable,4.6,0,Los Angeles,California,90001
12,Clear,2016-10-01 21:47:00,63.0,,-,54,N/A,29.91,81.0,2:47 PM,,10.0,Variable,3.5,0,Los Angeles,California,90001
13,Clear,2016-10-01 22:47:00,62.1,,-,56,N/A,29.91,79.0,3:47 PM,,10.0,Variable,3.5,0,Los Angeles,California,90001
14,Clear,2016-10-01 23:47:00,57.0,,-,50,N/A,29.90,77.0,4:47 PM,,10.0,West,5.8,260,Los Angeles,California,90001
15,Clear,2016-10-02 00:47:00,61.0,,-,64,N/A,29.89,73.9,5:47 PM,,10.0,Variable,3.5,0,Los Angeles,California,90001
16,Clear,2016-10-02 01:47:00,61.0,,-,73,N/A,29.91,70.0,6:47 PM,,10.0,West,3.5,270,Los Angeles,California,90001
17,Clear,2016-10-02 02:47:00,59.0,,-,73,N/A,29.92,68.0,7:47 PM,,10.0,West,3.5,270,Los Angeles,California,90001
18,Clear,2016-10-02 03:47:00,59.0,,-,76,N/A,29.94,66.9,8:47 PM,,10.0,Calm,Calm,0,Los Angeles,California,90001
19,Clear,2016-10-02 04:47:00,57.0,,-,73,N/A,29.95,66.0,9:47 PM,,10.0,West,3.5,270,Los Angeles,California,90001
20,Clear,2016-10-02 05:47:00,57.0,,-,73,N/A,29.95,66.0,10:47 PM,,10.0,Calm,Calm,0,Los Angeles,California,90001
21,Clear,2016-10-02 06:47:00,57.9,,-,78,N/A,29.95,64.9,11:47 PM,,10.0,Calm,Calm,0,Los Angeles,California,90001
0,Clear,2016-10-02 07:47:00,59.0,,-,84,N/A,29.94,64.0,12:47 AM,,10.0,Calm,Calm,0,Los Angeles,California,90001
1,Clear,2016-10-02 08:47:00,57.9,,-,84,N/A,29.94,63.0,1:47 AM,,10.0,Calm,Calm,0,Los Angeles,California,90001
2,Clear,2016-10-02 09:47:00,57.0,,-,81,N/A,29.94,63.0,2:47 AM,,10.0,Calm,Calm,0,Los Angeles,California,90001
3,Clear,2016-10-02 10:47:00,57.0,,-,81,N/A,29.94,63.0,3:47 AM,,10.0,Calm,Calm,0,Los Angeles,California,90001
4,Clear,2016-10-02 11:47:00,57.0,,-,84,N/A,29.93,62.1,4:47 AM,,10.0,Calm,Calm,0,Los Angeles,California,90001
5,Clear,2016-10-02 12:47:00,60.1,,-,87,N/A,29.94,64.0,5:47 AM,,10.0,Calm,Calm,0,Los Angeles,California,90001
6,Mostly Cloudy,2016-10-02 13:50:00,61.0,,-,90,N/A,29.95,64.0,6:50 AM,,7.0,Calm,Calm,0,Los Angeles,California,90001
7,Overcast,2016-10-02 14:17:00,61.0,,-,87,N/A,29.96,64.9,7:17 AM,,6.0,Calm,Calm,0,Los Angeles,California,90001
8,Overcast,2016-10-02 14:47:00,59.0,,-,81,N/A,29.96,64.9,7:47 AM,,8.0,Calm,Calm,0,Los Angeles,California,90001
9,Overcast,2016-10-02 15:47:00,59.0,,-,76,N/A,29.97,66.9,8:47 AM,,10.0,Calm,Calm,0,Los Angeles,California,90001
10,Scattered Clouds,2016-10-02 16:44:00,59.0,,-,68,N/A,29.98,70.0,9:44 AM,,10.0,ESE,4.6,110,Los Angeles,California,90001
11,Scattered Clouds,2016-10-02 16:47:00,59.0,,-,66,N/A,29.97,71.1,9:47 AM,,10.0,Variable,3.5,0,Los Angeles,California,90001
12,Partly Cloudy,2016-10-02 17:47:00,59.0,,-,61,N/A,29.96,73.0,10:47 AM,,10.0,Calm,Calm,0,Los Angeles,California,90001
13,Partly Cloudy,2016-10-02 18:47:00,57.9,,-,52,N/A,29.95,77.0,11:47 AM,,10.0,Calm,Calm,0,Los Angeles,California,90001
14,Partly Cloudy,2016-10-02 19:47:00,57.0,,-,53,N/A,29.94,75.0,12:47 PM,,10.0,Variable,3.5,0,Los Angeles,California,90001
15,Mostly Cloudy,2016-10-02 20:47:00,61.0,,-,62,N/A,29.92,75.0,1:47 PM,,10.0,West,5.8,270,Los Angeles,California,90001
16,Clear,2016-10-02 21:47:00,60.1,,-,62,N/A,29.91,73.9,2:47 PM,,10.0,Variable,4.6,0,Los Angeles,California,90001
17,Clear,2016-10-02 22:47:00,61.0,,-,68,N/A,29.91,72.0,3:47 PM,,10.0,Variable,3.5,0,Los Angeles,California,90001
18,Clear,2016-10-02 23:47:00,59.0,,-,66,N/A,29.91,71.1,4:47 PM,,10.0,Variable,4.6,0,Los Angeles,California,90001
19,Clear,2016-10-03 00:47:00,52.0,,-,53,N/A,29.91,70.0,5:47 PM,,10.0,West,3.5,270,Los Angeles,California,90001
20,Clear,2016-10-03 01:47:00,55.0,,-,66,N/A,29.91,66.9,6:47 PM,,10.0,Calm,Calm,0,Los Angeles,California,90001
21,Clear,2016-10-03 02:47:00,57.0,,-,75,N/A,29.92,64.9,7:47 PM,,10.0,Calm,Calm,0,Los Angeles,California,90001
22,Clear,2016-10-03 03:47:00,57.0,,-,78,N/A,29.93,64.0,8:47 PM,,10.0,Calm,Calm,0,Los Angeles,California,90001
23,Clear,2016-10-03 04:47:00,57.9,,-,80,N/A,29.94,64.0,9:47 PM,,10.0,Calm,Calm,0,Los Angeles,California,90001
24,Clear,2016-10-03 05:47:00,57.0,,-,81,N/A,29.94,63.0,10:47 PM,,10.0,Calm,Calm,0,Los Angeles,California,90001
25,Clear,2016-10-03 06:47:00,57.0,,-,81,N/A,29.94,63.0,11:47 PM,,10.0,Calm,Calm,0,Los Angeles,California,90001
0,Clear,2016-10-03 07:47:00,55.9,,-,78,N/A,29.94,63.0,12:47 AM,,10.0,Calm,Calm,0,Los Angeles,California,90001
1,Clear,2016-10-03 08:47:00,55.9,,-,78,N/A,29.95,63.0,1:47 AM,,10.0,Calm,Calm,0,Los Angeles,California,90001
2,Clear,2016-10-03 09:47:00,55.0,,-,78,N/A,29.95,62.1,2:47 AM,,10.0,Calm,Calm,0,Los Angeles,California,90001
3,Clear,2016-10-03 10:47:00,54.0,,-,75,N/A,29.96,62.1,3:47 AM,,10.0,Calm,Calm,0,Los Angeles,California,90001
4,Clear,2016-10-03 11:47:00,54.0,,-,78,N/A,29.96,61.0,4:47 AM,,10.0,Calm,Calm,0,Los Angeles,California,90001
5,Haze,2016-10-03 12:47:00,53.1,,-,78,N/A,29.97,60.1,5:47 AM,,3.0,Calm,Calm,0,Los Angeles,California,90001
6,Haze,2016-10-03 12:51:00,53.1,,-,78,N/A,29.97,60.1,5:51 AM,,2.5,Calm,Calm,0,Los Angeles,California,90001
7,Haze,2016-10-03 12:56:00,53.1,,-,78,N/A,29.97,60.1,5:56 AM,,5.0,Calm,Calm,0,Los Angeles,California,90001
8,Clear,2016-10-03 13:47:00,53.1,,-,81,N/A,29.98,59.0,6:47 AM,,10.0,Calm,Calm,0,Los Angeles,California,90001
9,Clear,2016-10-03 14:47:00,53.1,,-,75,N/A,29.99,61.0,7:47 AM,,10.0,Calm,Calm,0,Los Angeles,California,90001
10,Clear,2016-10-03 15:47:00,54.0,,-,65,N/A,30.01,66.0,8:47 AM,,10.0,Calm,Calm,0,Los Angeles,California,90001
11,Clear,2016-10-03 16:47:00,48.9,,-,47,N/A,30.01,70.0,9:47 AM,,10.0,Calm,Calm,0,Los Angeles,California,90001
12,Clear,2016-10-03 17:47:00,39.9,,-,29,N/A,30.01,73.9,10:47 AM,,10.0,NW,3.5,310,Los Angeles,California,90001
13,Clear,2016-10-03 18:47:00,44.1,,-,33,N/A,29.97,75.0,11:47 AM,,10.0,Variable,3.5,0,Los Angeles,California,90001
14,Clear,2016-10-03 19:47:00,46.0,,-,37,N/A,29.96,73.9,12:47 PM,,10.0,Variable,6.9,0,Los Angeles,California,90001
15,Clear,2016-10-03 20:47:00,51.1,,18.4,48,N/A,29.94,72.0,1:47 PM,,10.0,West,11.5,280,Los Angeles,California,90001
16,Clear,2016-10-03 21:47:00,51.1,,-,48,N/A,29.93,72.0,2:47 PM,,10.0,Variable,5.8,0,Los Angeles,California,90001
17,Clear,2016-10-03 22:47:00,48.9,,-,45,N/A,29.91,71.1,3:47 PM,,10.0,Variable,6.9,0,Los Angeles,California,90001
18,Clear,2016-10-03 23:47:00,48.9,,-,44,N/A,29.89,72.0,4:47 PM,,10.0,Variable,4.6,0,Los Angeles,California,90001
19,Clear,2016-10-04 00:47:00,48.0,,-,43,N/A,29.88,72.0,5:47 PM,,10.0,Calm,Calm,0,Los Angeles,California,90001
20,Clear,2016-10-04 01:47:00,54.0,,-,58,N/A,29.88,69.1,6:47 PM,,10.0,West,3.5,280,Los Angeles,California,90001
21,Clear,2016-10-04 02:47:00,54.0,,-,63,N/A,29.88,66.9,7:47 PM,,10.0,Calm,Calm,0,Los Angeles,California,90001
22,Clear,2016-10-04 03:47:00,54.0,,-,65,N/A,29.90,66.0,8:47 PM,,10.0,West,3.5,280,Los Angeles,California,90001
23,Clear,2016-10-04 04:47:00,55.9,,-,73,N/A,29.89,64.9,9:47 PM,,10.0,Calm,Calm,0,Los Angeles,California,90001
24,Clear,2016-10-04 05:47:00,55.9,,-,73,N/A,29.89,64.9,10:47 PM,,10.0,Calm,Calm,0,Los Angeles,California,90001
25,Clear,2016-10-04 06:47:00,55.9,,-,73,N/A,29.88,64.9,11:47 PM,,10.0,Calm,Calm,0,Los Angeles,California,90001
