,Conditions,DateUTC,Dew PointF,Events,Gust SpeedMPH,Humidity,PrecipitationIn,Sea Level PressureIn,TemperatureF,TimeMDT,TimeMST,VisibilityMPH,Wind Direction,Wind SpeedMPH,WindDirDegrees,City,State,Zip
0,Clear,2016-01-01 07:53:00,3.9,,-,76,N/A,30.73,10.0,,12:53 AM,10.0,SE,5.8,140,Boise,Idaho,83701
1,Mostly Cloudy,2016-01-01 08:11:00,3.2,,-,79,N/A,30.59,8.6,,1:11 AM,10.0,SE,4.6,140,Boise,Idaho,83701
2,Mostly Cloudy,2016-01-01 08:53:00,5.0,,-,77,N/A,30.72,10.9,,1:53 AM,10.0,SE,6.9,130,Boise,Idaho,83701
3,Scattered Clouds,2016-01-01 09:05:00,5.0,,-,73,N/A,30.59,12.2,,2:05 AM,10.0,SE,8.1,130,Boise,Idaho,83701
4,Mostly Cloudy,2016-01-01 09:31:00,6.8,,-,79,N/A,30.58,12.2,,2:31 AM,10.0,SE,6.9,130,Boise,Idaho,83701
5,Scattered Clouds,2016-01-01 09:53:00,6.1,,-,77,N/A,30.71,12.0,,2:53 AM,10.0,SE,5.8,130,Boise,Idaho,83701
6,Clear,2016-01-01 10:53:00,3.0,,-,77,N/A,30.71,9.0,,3:53 AM,10.0,SE,10.4,130,Boise,Idaho,83701
7,Clear,2016-01-01 11:53:00,3.0,,-,80,N/A,30.70,8.1,,4:53 AM,10.0,ESE,8.1,120,Boise,Idaho,83701
8,Clear,2016-01-01 12:53:00,3.0,,-,77,N/A,30.69,9.0,,5:53 AM,10.0,ESE,6.9,120,Boise,Idaho,83701
9,Clear,2016-01-01 13:53:00,1.0,,-,77,N/A,30.70,7.0,,6:53 AM,10.0,SE,4.6,140,Boise,Idaho,83701
10,Clear,2016-01-01 14:53:00,3.0,,-,84,N/A,30.71,7.0,,7:53 AM,10.0,Calm,Calm,0,Boise,Idaho,83701
11,Clear,2016-01-01 15:53:00,1.0,,-,73,N/A,30.71,8.1,,8:53 AM,10.0,SE,5.8,140,Boise,Idaho,83701
12,Partly Cloudy,2016-01-01 16:53:00,1.9,,-,70,N/A,30.71,10.0,,9:53 AM,10.0,SE,9.2,130,Boise,Idaho,83701
13,Clear,2016-01-01 17:53:00,3.0,,-,67,N/A,30.70,12.0,,10:53 AM,10.0,ESE,9.2,120,Boise,Idaho,83701
14,Clear,2016-01-01 18:53:00,5.0,,-,67,N/A,30.68,14.0,,11:53 AM,10.0,ESE,5.8,110,Boise,Idaho,83701
15,Clear,2016-01-01 19:53:00,5.0,,-,62,N/A,30.64,16.0,,12:53 PM,10.0,SE,4.6,130,Boise,Idaho,83701
16,Clear,2016-01-01 20:53:00,6.1,,-,65,N/A,30.60,16.0,,1:53 PM,10.0,South,4.6,180,Boise,Idaho,83701
17,Clear,2016-01-01 21:53:00,6.1,,-,62,N/A,30.58,17.1,,2:53 PM,10.0,SSW,6.9,210,Boise,Idaho,83701
18,Clear,2016-01-01 22:53:00,5.0,,-,62,N/A,30.58,16.0,,3:53 PM,10.0,SSW,4.6,200,Boise,Idaho,83701
19,Clear,2016-01-01 23:53:00,5.0,,-,64,N/A,30.58,15.1,,4:53 PM,10.0,Calm,Calm,0,Boise,Idaho,83701
20,Clear,2016-01-02 00:53:00,3.0,,-,65,N/A,30.59,12.9,,5:53 PM,10.0,SSE,4.6,160,Boise,Idaho,83701
21,Clear,2016-01-02 01:53:00,1.9,,-,73,N/A,30.59,9.0,,6:53 PM,10.0,SSE,3.5,160,Boise,Idaho,83701
22,Clear,2016-01-02 02:53:00,-0.0,,-,76,N/A,30.58,6.1,,7:53 PM,10.0,SE,3.5,140,Boise,Idaho,83701
23,Clear,2016-01-02 03:53:00,1.0,,-,73,N/A,30.57,8.1,,8:53 PM,10.0,SE,3.5,130,Boise,Idaho,83701
24,Clear,2016-01-02 04:53:00,1.9,,-,80,N/A,30.55,7.0,,9:53 PM,10.0,SE,4.6,130,Boise,Idaho,83701
25,Clear,2016-01-02 05:53:00,1.0,,-,80,N/A,30.55,6.1,,10:53 PM,10.0,Calm,Calm,0,Boise,Idaho,83701
26,Clear,2016-01-02 06:53:00,1.0,,-,84,N/A,30.55,5.0,,11:53 PM,10.0,ESE,3.5,110,Boise,Idaho,83701
0,Clear,2016-01-02 07:53:00,1.0,,-,84,N/A,30.54,5.0,,12:53 AM,10.0,Calm,Calm,0,Boise,Idaho,83701
1,Clear,2016-01-02 08:53:00,1.0,,-,80,N/A,30.53,6.1,,1:53 AM,10.0,SE,3.5,130,Boise,Idaho,83701
2,Clear,2016-01-02 09:53:00,1.0,,-,80,N/A,30.54,6.1,,2:53 AM,10.0,SE,5.8,130,Boise,Idaho,83701
3,Clear,2016-01-02 10:53:00,1.0,,-,77,N/A,30.52,7.0,,3:53 AM,10.0,SSE,9.2,150,Boise,Idaho,83701
4,Clear,2016-01-02 11:53:00,-0.0,,-,80,N/A,30.53,5.0,,4:53 AM,10.0,Calm,Calm,0,Boise,Idaho,83701
5,Clear,2016-01-02 12:53:00,1.0,,-,80,N/A,30.52,6.1,,5:53 AM,10.0,SE,8.1,130,Boise,Idaho,83701
6,Clear,2016-01-02 13:53:00,1.0,,-,80,N/A,30.53,6.1,,6:53 AM,10.0,ESE,4.6,120,Boise,Idaho,83701
7,Partly Cloudy,2016-01-02 14:53:00,-0.0,,-,84,N/A,30.55,3.9,,7:53 AM,10.0,Calm,Calm,0,Boise,Idaho,83701
8,Clear,2016-01-02 15:53:00,1.0,,-,77,N/A,30.54,7.0,,8:53 AM,10.0,ESE,5.8,120,Boise,Idaho,83701
9,Clear,2016-01-02 16:53:00,3.9,,-,76,N/A,30.54,10.0,,9:53 AM,10.0,Calm,Calm,0,Boise,Idaho,83701
10,Clear,2016-01-02 17:53:00,3.9,,-,70,N/A,30.54,12.0,,10:53 AM,10.0,Calm,Calm,0,Boise,Idaho,83701
11,Clear,2016-01-02 18:53:00,3.9,,-,64,N/A,30.52,14.0,,11:53 AM,10.0,SSW,3.5,200,Boise,Idaho,83701
12,Clear,2016-01-02 19:53:00,3.9,,-,61,N/A,30.50,15.1,,12:53 PM,10.0,South,8.1,170,Boise,Idaho,83701
13,Clear,2016-01-02 20:53:00,5.0,,-,59,N/A,30.45,17.1,,1:53 PM,10.0,SSE,6.9,150,Boise,Idaho,83701
14,Clear,2016-01-02 21:53:00,5.0,,-,57,N/A,30.44,18.0,,2:53 PM,10.0,SE,10.4,140,Boise,Idaho,83701
15,Clear,2016-01-02 22:53:00,6.1,,-,57,N/A,30.42,19.0,,3:53 PM,10.0,SE,5.8,130,Boise,Idaho,83701
16,Clear,2016-01-02 23:53:00,6.1,,-,60,N/A,30.42,18.0,,4:53 PM,10.0,SE,6.9,130,Boise,Idaho,83701
17,Clear,2016-01-03 00:53:00,6.1,,-,65,N/A,30.41,16.0,,5:53 PM,10.0,ESE,5.8,120,Boise,Idaho,83701
18,Clear,2016-01-03 01:53:00,6.1,,-,68,N/A,30.40,15.1,,6:53 PM,10.0,SSE,4.6,150,Boise,Idaho,83701
19,Clear,2016-01-03 02:53:00,7.0,,-,77,N/A,30.40,12.9,,7:53 PM,10.0,WNW,4.6,300,Boise,Idaho,83701
20,Overcast,2016-01-03 03:53:00,8.1,,-,84,N/A,30.40,12.0,,8:53 PM,6.0,NW,3.5,320,Boise,Idaho,83701
21,Mostly Cloudy,2016-01-03 04:53:00,8.1,,-,84,N/A,30.39,12.0,,9:53 PM,6.0,Calm,Calm,0,Boise,Idaho,83701
22,Haze,2016-01-03 05:53:00,9.0,,-,80,N/A,30.39,14.0,,10:53 PM,6.0,NNE,3.5,20,Boise,Idaho,83701
23,Haze,2016-01-03 06:53:00,10.0,,-,80,N/A,30.37,15.1,,11:53 PM,6.0,Calm,Calm,0,Boise,Idaho,83701
0,Haze,2016-01-03 07:53:00,10.9,,-,81,N/A,30.34,16.0,,12:53 AM,6.0,Calm,Calm,0,Boise,Idaho,83701
1,Haze,2016-01-03 08:53:00,10.0,,-,80,N/A,30.33,15.1,,1:53 AM,6.0,West,8.1,280,Boise,Idaho,83701
2,Overcast,2016-01-03 09:53:00,10.0,,-,88,N/A,30.33,12.9,,2:53 AM,6.0,Calm,Calm,0,Boise,Idaho,83701
3,Overcast,2016-01-03 10:53:00,10.0,,-,80,N/A,30.33,15.1,,3:53 AM,7.0,West,3.5,270,Boise,Idaho,83701
4,Overcast,2016-01-03 11:53:00,10.0,,-,84,N/A,30.32,14.0,,4:53 AM,7.0,NW,3.5,310,Boise,Idaho,83701
5,Overcast,2016-01-03 12:53:00,10.0,,-,80,N/A,30.31,15.1,,5:53 AM,7.0,Calm,Calm,0,Boise,Idaho,83701
6,Overcast,2016-01-03 13:53:00,10.9,,-,77,N/A,30.30,17.1,,6:53 AM,7.0,Calm,Calm,0,Boise,Idaho,83701
7,Overcast,2016-01-03 14:53:00,10.9,,-,81,N/A,30.29,16.0,,7:53 AM,8.0,Calm,Calm,0,Boise,Idaho,83701
8,Overcast,2016-01-03 15:53:00,12.0,,-,81,N/A,30.30,17.1,,8:53 AM,7.0,Calm,Calm,0,Boise,Idaho,83701
9,Overcast,2016-01-03 16:53:00,12.9,,-,81,N/A,30.30,18.0,,9:53 AM,7.0,WSW,5.8,250,Boise,Idaho,83701
10,Mostly Cloudy,2016-01-03 17:53:00,14.0,,-,78,N/A,30.31,19.9,,10:53 AM,7.0,NW,3.5,320,Boise,Idaho,83701
11,Overcast,2016-01-03 18:53:00,14.0,,-,72,N/A,30.29,21.9,,11:53 AM,7.0,Calm,Calm,0,Boise,Idaho,83701
12,Partly Cloudy,2016-01-03 19:53:00,16.0,,-,66,N/A,30.25,26.1,,12:53 PM,8.0,Calm,Calm,0,Boise,Idaho,83701
13,Clear,2016-01-03 20:53:00,18.0,,-,66,N/A,30.22,28.0,,1:53 PM,8.0,WNW,4.6,290,Boise,Idaho,83701
14,Partly Cloudy,2016-01-03 21:53:00,18.0,,-,66,N/A,30.19,28.0,,2:53 PM,9.0,WNW,4.6,290,Boise,Idaho,83701
15,Scattered Clouds,2016-01-03 22:53:00,18.0,,-,69,N/A,30.19,27.0,,3:53 PM,9.0,WNW,3.5,300,Boise,Idaho,83701
16,Partly Cloudy,2016-01-03 23:53:00,18.0,,-,71,N/A,30.20,26.1,,4:53 PM,9.0,WNW,3.5,300,Boise,Idaho,83701
17,Overcast,2016-01-04 00:53:00,18.0,,-,71,N/A,30.19,26.1,,5:53 PM,10.0,Calm,Calm,0,Boise,Idaho,83701
18,Overcast,2016-01-04 01:53:00,19.9,,-,81,N/A,30.19,25.0,,6:53 PM,9.0,Calm,Calm,0,Boise,Idaho,83701
19,Overcast,2016-01-04 02:53:00,21.0,,-,75,N/A,30.17,28.0,,7:53 PM,9.0,ESE,4.6,110,Boise,Idaho,83701
20,Overcast,2016-01-04 03:53:00,25.0,,-,72,N/A,30.12,33.1,,8:53 PM,10.0,SSE,10.4,160,Boise,Idaho,83701
21,Overcast,2016-01-04 04:53:00,26.1,,-,73,N/A,30.11,34.0,,9:53 PM,10.0,SSE,8.1,160,Boise,Idaho,83701
22,Overcast,2016-01-04 05:53:00,24.1,,-,70,N/A,30.09,33.1,,10:53 PM,10.0,South,9.2,170,Boise,Idaho,83701
23,Overcast,2016-01-04 06:53:00,24.1,,-,76,N/A,30.08,30.9,,11:53 PM,10.0,SE,9.2,140,Boise,Idaho,83701
0,Overcast,2016-01-04 07:53:00,23.0,,-,72,N/A,30.05,30.9,,12:53 AM,10.0,SE,8.1,140,Boise,Idaho,83701
1,Partly Cloudy,2016-01-04 08:53:00,23.0,,-,72,N/A,30.03,30.9,,1:53 AM,10.0,SSE,8.1,150,Boise,Idaho,83701
2,Overcast,2016-01-04 09:53:00,23.0,,-,75,N/A,30.04,30.0,,2:53 AM,10.0,South,5.8,170,Boise,Idaho,83701
3,Overcast,2016-01-04 10:53:00,24.1,,-,82,N/A,30.03,28.9,,3:53 AM,10.0,Calm,Calm,0,Boise,Idaho,83701
4,Overcast,2016-01-04 11:53:00,21.0,,-,81,N/A,30.02,26.1,,4:53 AM,10.0,Calm,Calm,0,Boise,Idaho,83701
5,Partly Cloudy,2016-01-04 12:53:00,21.9,,-,84,N/A,30.01,26.1,,5:53 AM,9.0,Calm,Calm,0,Boise,Idaho,83701
6,Clear,2016-01-04 13:53:00,21.9,,-,81,N/A,30.02,27.0,,6:53 AM,9.0,NE,3.5,50,Boise,Idaho,83701
7,Mostly Cloudy,2016-01-04 14:53:00,21.9,,-,84,N/A,30.01,26.1,,7:53 AM,10.0,Calm,Calm,0,Boise,Idaho,83701
8,Scattered Clouds,2016-01-04 15:53:00,23.0,,-,85,N/A,29.99,27.0,,8:53 AM,10.0,Calm,Calm,0,Boise,Idaho,83701
9,Overcast,2016-01-04 16:53:00,24.1,,-,82,N/A,29.98,28.9,,9:53 AM,10.0,Calm,Calm,0,Boise,Idaho,83701
10,Overcast,2016-01-04 17:53:00,25.0,,-,75,N/A,29.98,32.0,,10:53 AM,10.0,Variable,3.5,0,Boise,Idaho,83701
11,Overcast,2016-01-04 18:53:00,25.0,,-,70,N/A,29.96,34.0,,11:53 AM,10.0,Calm,Calm,0,Boise,Idaho,83701
12,Overcast,2016-01-04 19:53:00,24.1,,-,59,N/A,29.93,37.0,,12:53 PM,10.0,Calm,Calm,0,Boise,Idaho,83701
13,Overcast,2016-01-04 20:53:00,24.1,,-,59,N/A,29.89,37.0,,1:53 PM,10.0,Calm,Calm,0,Boise,Idaho,83701
14,Overcast,2016-01-04 21:53:00,25.0,,-,62,N/A,29.86,37.0,,2:53 PM,10.0,Calm,Calm,0,Boise,Idaho,83701
15,Mostly Cloudy,2016-01-04 22:53:00,25.0,,-,60,N/A,29.86,37.9,,3:53 PM,10.0,Calm,Calm,0,Boise,Idaho,83701
16,Mostly Cloudy,2016-01-04 23:53:00,27.0,,-,78,N/A,29.86,33.1,,4:53 PM,10.0,WNW,4.6,300,Boise,Idaho,83701
17,Partly Cloudy,2016-01-05 00:53:00,26.1,,-,82,N/A,29.87,30.9,,5:53 PM,9.0,Calm,Calm,0,Boise,Idaho,83701
18,Overcast,2016-01-05 01:53:00,26.1,,-,85,N/A,29.87,30.0,,6:53 PM,8.0,Calm,Calm,0,Boise,Idaho,83701
19,Overcast,2016-01-05 02:53:00,25.0,,-,85,N/A,29.86,28.9,,7:53 PM,7.0,Calm,Calm,0,Boise,Idaho,83701
0,Overcast,2016-01-05 07:53:00,24.1,,-,92,N/A,29.84,26.1,,12:53 AM,5.0,Calm,Calm,0,Boise,Idaho,83701
1,Overcast,2016-01-05 08:53:00,25.0,,-,85,N/A,29.83,28.9,,1:53 AM,7.0,Calm,Calm,0,Boise,Idaho,83701
2,Overcast,2016-01-05 09:53:00,27.0,,-,88,N/A,29.82,30.0,,2:53 AM,7.0,ESE,4.6,120,Boise,Idaho,83701
3,Overcast,2016-01-05 10:53:00,28.0,,-,89,N/A,29.82,30.9,,3:53 AM,7.0,North,4.6,10,Boise,Idaho,83701
4,Overcast,2016-01-05 11:53:00,28.9,,-,88,0.00,29.82,32.0,,4:53 AM,6.0,ENE,5.8,60,Boise,Idaho,83701
5,Overcast,2016-01-05 12:53:00,28.9,,-,88,0.00,29.81,32.0,,5:53 AM,8.0,West,5.8,260,Boise,Idaho,83701
6,Scattered Clouds,2016-01-05 13:53:00,27.0,,-,96,N/A,29.81,28.0,,6:53 AM,7.0,Calm,Calm,0,Boise,Idaho,83701
7,Overcast,2016-01-05 14:53:00,28.0,,-,96,N/A,29.82,28.9,,7:53 AM,5.0,Calm,Calm,0,Boise,Idaho,83701
8,Overcast,2016-01-05 15:53:00,28.0,,-,96,N/A,29.83,28.9,,8:53 AM,4.0,Calm,Calm,0,Boise,Idaho,83701
9,Overcast,2016-01-05 16:53:00,30.0,,-,89,N/A,29.83,33.1,,9:53 AM,6.0,East,4.6,80,Boise,Idaho,83701
10,Light Rain,2016-01-05 17:53:00,30.9,Rain,-,85,0.00,29.83,35.1,,10:53 AM,8.0,Calm,Calm,0,Boise,Idaho,83701
11,Overcast,2016-01-05 18:53:00,33.1,,-,83,0.00,29.80,37.9,,11:53 AM,7.0,Calm,Calm,0,Boise,Idaho,83701
12,Overcast,2016-01-05 19:53:00,35.1,,-,86,N/A,29.77,39.0,,12:53 PM,9.0,Calm,Calm,0,Boise,Idaho,83701
13,Overcast,2016-01-05 20:53:00,34.0,,-,82,N/A,29.75,39.0,,1:53 PM,10.0,NW,6.9,310,Boise,Idaho,83701
14,Mostly Cloudy,2016-01-05 21:53:00,34.0,,-,82,N/A,29.74,39.0,,2:53 PM,9.0,NNW,4.6,330,Boise,Idaho,83701
15,Clear,2016-01-05 22:53:00,34.0,,-,82,N/A,29.74,39.0,,3:53 PM,10.0,Calm,Calm,0,Boise,Idaho,83701
16,Clear,2016-01-05 23:53:00,33.1,,-,86,N/A,29.74,37.0,,4:53 PM,10.0,NNW,3.5,330,Boise,Idaho,83701
17,Clear,2016-01-06 00:53:00,32.0,,-,86,N/A,29.75,36.0,,5:53 PM,9.0,Calm,Calm,0,Boise,Idaho,83701
18,Scattered Clouds,2016-01-06 01:53:00,32.0,,-,92,N/A,29.77,34.0,,6:53 PM,8.0,Calm,Calm,0,Boise,Idaho,83701
19,Mostly Cloudy,2016-01-06 02:53:00,32.0,,-,92,N/A,29.75,34.0,,7:53 PM,7.0,ESE,3.5,120,Boise,Idaho,83701
20,Overcast,2016-01-06 03:53:00,32.0,,-,92,N/A,29.76,34.0,,8:53 PM,9.0,Calm,Calm,0,Boise,Idaho,83701
21,Overcast,2016-01-06 04:53:00,32.0,,-,92,N/A,29.76,34.0,,9:53 PM,7.0,Calm,Calm,0,Boise,Idaho,83701
22,Overcast,2016-01-06 05:53:00,32.0,,-,92,N/A,29.75,34.0,,10:53 PM,8.0,ESE,3.5,110,Boise,Idaho,83701
23,Mostly Cloudy,2016-01-06 06:53:00,32.0,,-,92,N/A,29.74,34.0,,11:53 PM,8.0,Calm,Calm,0,Boise,Idaho,83701
0,Overcast,2016-01-06 07:53:00,33.1,,-,89,N/A,29.73,36.0,,12:53 AM,10.0,Calm,Calm,0,Boise,Idaho,83701
1,Overcast,2016-01-06 08:53:00,32.0,,-,92,N/A,29.73,34.0,,1:53 AM,6.0,WNW,3.5,290,Boise,Idaho,83701
2,Overcast,2016-01-06 09:53:00,32.0,,-,92,N/A,29.74,34.0,,2:53 AM,5.0,West,3.5,270,Boise,Idaho,83701
3,Overcast,2016-01-06 10:53:00,32.0,,-,92,N/A,29.75,34.0,,3:53 AM,6.0,Calm,Calm,0,Boise,Idaho,83701
4,Overcast,2016-01-06 11:53:00,32.0,,-,92,0.00,29.76,34.0,,4:53 AM,6.0,Calm,Calm,0,Boise,Idaho,83701
5,Light Rain,2016-01-06 12:53:00,33.1,Rain,-,92,0.00,29.76,35.1,,5:53 AM,5.0,NNE,3.5,20,Boise,Idaho,83701
6,Light Rain,2016-01-06 13:15:00,33.8,Rain,-,93,0.01,29.73,35.6,,6:15 AM,6.0,Calm,Calm,0,Boise,Idaho,83701
7,Light Rain,2016-01-06 13:53:00,33.1,Rain,-,96,0.02,29.77,34.0,,6:53 AM,5.0,ESE,3.5,110,Boise,Idaho,83701
8,Light Rain,2016-01-06 14:32:00,33.8,Rain,-,100,0.02,29.72,33.8,,7:32 AM,4.0,East,5.8,90,Boise,Idaho,83701
9,Light Rain,2016-01-06 14:53:00,34.0,Rain,-,96,0.02,29.75,35.1,,7:53 AM,5.0,East,4.6,100,Boise,Idaho,83701
10,Overcast,2016-01-06 15:53:00,34.0,,-,96,0.00,29.76,35.1,,8:53 AM,5.0,West,4.6,280,Boise,Idaho,83701
11,Overcast,2016-01-06 16:07:00,35.6,,-,100,N/A,29.72,35.6,,9:07 AM,10.0,SE,6.9,140,Boise,Idaho,83701
12,Overcast,2016-01-06 16:29:00,35.6,,-,93,0.00,29.72,37.4,,9:29 AM,10.0,SE,5.8,130,Boise,Idaho,83701
13,Overcast,2016-01-06 16:53:00,35.1,,-,93,0.00,29.75,37.0,,9:53 AM,10.0,ESE,6.9,120,Boise,Idaho,83701
14,Overcast,2016-01-06 17:53:00,36.0,,-,93,N/A,29.77,37.9,,10:53 AM,10.0,SW,8.1,230,Boise,Idaho,83701
15,Overcast,2016-01-06 18:49:00,37.4,,-,93,N/A,29.73,39.2,,11:49 AM,10.0,NNW,4.6,330,Boise,Idaho,83701
16,Overcast,2016-01-06 18:53:00,36.0,,-,89,N/A,29.76,39.0,,11:53 AM,10.0,NW,5.8,310,Boise,Idaho,83701
17,Overcast,2016-01-06 19:30:00,35.6,,-,93,N/A,29.72,37.4,,12:30 PM,2.0,NNE,5.8,30,Boise,Idaho,83701
18,Overcast,2016-01-06 19:40:00,35.6,,-,93,N/A,29.71,37.4,,12:40 PM,2.0,NNE,5.8,30,Boise,Idaho,83701
19,Overcast,2016-01-06 19:53:00,36.0,,-,93,N/A,29.74,37.9,,12:53 PM,2.0,NE,6.9,50,Boise,Idaho,83701
20,Overcast,2016-01-06 20:00:00,35.6,,-,93,N/A,29.70,37.4,,1:00 PM,3.0,NE,6.9,40,Boise,Idaho,83701
21,Overcast,2016-01-06 20:13:00,37.4,,-,93,N/A,29.70,39.2,,1:13 PM,5.0,NE,5.8,40,Boise,Idaho,83701
22,Overcast,2016-01-06 20:51:00,37.4,,-,81,N/A,29.69,42.8,,1:51 PM,8.0,Calm,Calm,0,Boise,Idaho,83701
23,Overcast,2016-01-06 20:53:00,37.9,,-,85,N/A,29.72,42.1,,1:53 PM,9.0,Calm,Calm,0,Boise,Idaho,83701
24,Overcast,2016-01-06 21:11:00,37.4,,-,87,N/A,29.69,41.0,,2:11 PM,10.0,Calm,Calm,0,Boise,Idaho,83701
25,Overcast,2016-01-06 21:53:00,37.0,,-,82,N/A,29.72,42.1,,2:53 PM,10.0,Calm,Calm,0,Boise,Idaho,83701
26,Overcast,2016-01-06 22:32:00,37.4,,-,81,N/A,29.70,42.8,,3:32 PM,10.0,East,3.5,90,Boise,Idaho,83701
27,Overcast,2016-01-06 22:53:00,37.0,,-,82,N/A,29.73,42.1,,3:53 PM,10.0,East,3.5,100,Boise,Idaho,83701
28,Overcast,2016-01-06 23:53:00,37.0,,-,86,N/A,29.74,41.0,,4:53 PM,10.0,Calm,Calm,0,Boise,Idaho,83701
29,Overcast,2016-01-07 00:53:00,36.0,,-,93,N/A,29.75,37.9,,5:53 PM,7.0,West,5.8,260,Boise,Idaho,83701
30,Overcast,2016-01-07 01:12:00,33.8,,-,93,N/A,29.72,35.6,,6:12 PM,5.0,WNW,6.9,290,Boise,Idaho,83701
31,Overcast,2016-01-07 01:53:00,33.1,,-,92,N/A,29.75,35.1,,6:53 PM,5.0,WNW,5.8,300,Boise,Idaho,83701
32,Overcast,2016-01-07 02:11:00,33.8,,-,93,N/A,29.72,35.6,,7:11 PM,5.0,West,4.6,270,Boise,Idaho,83701
33,Overcast,2016-01-07 02:25:00,33.8,,-,93,N/A,29.72,35.6,,7:25 PM,4.0,West,3.5,260,Boise,Idaho,83701
34,Overcast,2016-01-07 02:35:00,33.8,,-,93,N/A,29.72,35.6,,7:35 PM,4.0,West,4.6,260,Boise,Idaho,83701
35,Overcast,2016-01-07 02:53:00,33.1,,-,96,N/A,29.75,34.0,,7:53 PM,4.0,Calm,Calm,0,Boise,Idaho,83701
36,Overcast,2016-01-07 03:08:00,33.8,,-,100,N/A,29.72,33.8,,8:08 PM,4.0,Calm,Calm,0,Boise,Idaho,83701
37,Overcast,2016-01-07 03:24:00,33.8,,-,100,N/A,29.72,33.8,,8:24 PM,4.0,Calm,Calm,0,Boise,Idaho,83701
38,Overcast,2016-01-07 03:53:00,33.1,,-,96,N/A,29.77,34.0,,8:53 PM,4.0,Calm,Calm,0,Boise,Idaho,83701
39,Overcast,2016-01-07 04:53:00,33.1,,-,96,N/A,29.77,34.0,,9:53 PM,3.0,West,3.5,270,Boise,Idaho,83701
40,Overcast,2016-01-07 05:14:00,33.8,,-,100,N/A,29.74,33.8,,10:14 PM,1.0,WNW,3.5,300,Boise,Idaho,83701
41,Overcast,2016-01-07 05:53:00,33.1,,-,96,N/A,29.78,34.0,,10:53 PM,1.0,NW,3.5,310,Boise,Idaho,83701
42,Overcast,2016-01-07 06:00:00,33.8,,-,100,N/A,29.75,33.8,,11:00 PM,1.0,Calm,Calm,0,Boise,Idaho,83701
43,Overcast,2016-01-07 06:20:00,33.8,,-,100,N/A,29.75,33.8,,11:20 PM,1.0,Calm,Calm,0,Boise,Idaho,83701
44,Overcast,2016-01-07 06:53:00,33.1,,-,96,N/A,29.78,34.0,,11:53 PM,2.5,NNW,3.5,340,Boise,Idaho,83701
0,Overcast,2016-01-07 07:04:00,33.8,,-,100,N/A,29.75,33.8,,12:04 AM,3.0,Calm,Calm,0,Boise,Idaho,83701
1,Overcast,2016-01-07 07:27:00,33.8,,-,100,N/A,29.75,33.8,,12:27 AM,2.5,Calm,Calm,0,Boise,Idaho,83701
2,Overcast,2016-01-07 07:53:00,33.1,,-,96,N/A,29.79,34.0,,12:53 AM,2.5,Calm,Calm,0,Boise,Idaho,83701
3,Overcast,2016-01-07 08:16:00,32.0,,-,93,N/A,29.75,33.8,,1:16 AM,2.0,Calm,Calm,0,Boise,Idaho,83701
4,Overcast,2016-01-07 08:53:00,33.1,,-,96,N/A,29.78,34.0,,1:53 AM,2.0,Calm,Calm,0,Boise,Idaho,83701
5,Overcast,2016-01-07 09:00:00,33.8,,-,100,N/A,29.75,33.8,,2:00 AM,1.2,WSW,3.5,250,Boise,Idaho,83701
6,Fog,2016-01-07 09:13:00,33.8,Fog,-,100,N/A,29.76,33.8,,2:13 AM,0.5,West,4.6,270,Boise,Idaho,83701
7,Fog,2016-01-07 09:26:00,33.8,Fog,-,100,N/A,29.75,33.8,,2:26 AM,0.5,West,4.6,280,Boise,Idaho,83701
8,Fog,2016-01-07 09:34:00,33.8,Fog,-,100,N/A,29.76,33.8,,2:34 AM,0.5,WNW,4.6,290,Boise,Idaho,83701
9,Fog,2016-01-07 09:53:00,33.1,Fog,-,100,N/A,29.78,33.1,,2:53 AM,0.5,NNW,6.9,330,Boise,Idaho,83701
10,Mist,2016-01-07 10:17:00,33.8,,-,100,N/A,29.76,33.8,,3:17 AM,1.0,Calm,Calm,0,Boise,Idaho,83701
11,Mist,2016-01-07 10:49:00,33.8,,-,100,N/A,29.77,33.8,,3:49 AM,0.8,Calm,Calm,0,Boise,Idaho,83701
12,Fog,2016-01-07 10:53:00,33.1,Fog,-,100,N/A,29.80,33.1,,3:53 AM,0.5,Calm,Calm,0,Boise,Idaho,83701
13,Fog,2016-01-07 11:14:00,33.8,Fog,-,100,N/A,29.77,33.8,,4:14 AM,0.2,North,3.5,350,Boise,Idaho,83701
14,Fog,2016-01-07 11:53:00,33.1,Fog,-,100,N/A,29.80,33.1,,4:53 AM,0.2,Calm,Calm,0,Boise,Idaho,83701
15,Fog,2016-01-07 12:10:00,33.8,Fog,-,100,N/A,29.76,33.8,,5:10 AM,0.2,NW,3.5,310,Boise,Idaho,83701
16,Fog,2016-01-07 12:53:00,33.1,Fog,-,100,N/A,29.81,33.1,,5:53 AM,0.2,WNW,3.5,290,Boise,Idaho,83701
17,Fog,2016-01-07 13:35:00,33.8,Fog,-,100,N/A,29.79,33.8,,6:35 AM,0.2,NW,4.6,310,Boise,Idaho,83701
18,Fog,2016-01-07 13:51:00,33.8,Fog,-,100,N/A,29.79,33.8,,6:51 AM,0.5,NW,4.6,310,Boise,Idaho,83701
19,Fog,2016-01-07 13:53:00,33.1,Fog,-,100,N/A,29.83,33.1,,6:53 AM,0.5,NW,5.8,310,Boise,Idaho,83701
20,Fog,2016-01-07 14:15:00,33.8,Fog,-,100,N/A,29.80,33.8,,7:15 AM,0.5,NW,3.5,310,Boise,Idaho,83701
21,Fog,2016-01-07 14:25:00,33.8,Fog,-,100,N/A,29.80,33.8,,7:25 AM,0.5,WNW,5.8,300,Boise,Idaho,83701
22,Fog,2016-01-07 14:38:00,33.8,Fog,-,100,N/A,29.80,33.8,,7:38 AM,0.2,NW,5.8,310,Boise,Idaho,83701
23,Fog,2016-01-07 14:53:00,33.1,Fog,-,100,N/A,29.85,33.1,,7:53 AM,0.2,WNW,6.9,300,Boise,Idaho,83701
24,Fog,2016-01-07 15:02:00,33.8,Fog,-,100,N/A,29.81,33.8,,8:02 AM,0.5,WNW,8.1,300,Boise,Idaho,83701
25,Fog,2016-01-07 15:12:00,33.8,Fog,-,100,N/A,29.81,33.8,,8:12 AM,0.2,WNW,8.1,300,Boise,Idaho,83701
26,Fog,2016-01-07 15:19:00,33.8,Fog,-,100,N/A,29.81,33.8,,8:19 AM,0.5,NW,5.8,310,Boise,Idaho,83701
27,Fog,2016-01-07 15:45:00,33.8,Fog,-,100,N/A,29.82,33.8,,8:45 AM,0.2,WNW,3.5,290,Boise,Idaho,83701
28,Fog,2016-01-07 15:53:00,33.1,Fog,-,100,N/A,29.86,33.1,,8:53 AM,0.2,WNW,3.5,290,Boise,Idaho,83701
29,Fog,2016-01-07 16:53:00,33.1,Fog,-,100,N/A,29.87,33.1,,9:53 AM,0.2,NW,6.9,310,Boise,Idaho,83701
30,Overcast,2016-01-07 17:10:00,33.8,,-,100,N/A,29.84,33.8,,10:10 AM,0.2,NW,5.8,310,Boise,Idaho,83701
31,Overcast,2016-01-07 17:21:00,33.8,,-,100,N/A,29.84,33.8,,10:21 AM,0.2,NW,4.6,310,Boise,Idaho,83701
32,Overcast,2016-01-07 17:53:00,33.1,,-,100,N/A,29.89,33.1,,10:53 AM,0.5,WNW,8.1,300,Boise,Idaho,83701
33,Overcast,2016-01-07 18:00:00,33.8,,-,100,N/A,29.85,33.8,,11:00 AM,1.5,NW,8.1,310,Boise,Idaho,83701
34,Overcast,2016-01-07 18:18:00,33.8,,-,100,N/A,29.86,33.8,,11:18 AM,10.0,WNW,8.1,300,Boise,Idaho,83701
35,Overcast,2016-01-07 18:27:00,33.8,,-,100,N/A,29.86,33.8,,11:27 AM,10.0,WNW,9.2,300,Boise,Idaho,83701
36,Overcast,2016-01-07 18:53:00,32.0,,-,92,N/A,29.90,34.0,,11:53 AM,10.0,NW,9.2,320,Boise,Idaho,83701
37,Overcast,2016-01-07 19:25:00,32.0,,-,87,N/A,29.85,35.6,,12:25 PM,10.0,NW,6.9,310,Boise,Idaho,83701
38,Overcast,2016-01-07 19:53:00,32.0,,-,89,N/A,29.89,35.1,,12:53 PM,10.0,NNW,10.4,330,Boise,Idaho,83701
39,Overcast,2016-01-07 20:53:00,32.0,,-,92,N/A,29.88,34.0,,1:53 PM,10.0,NNW,10.4,330,Boise,Idaho,83701
40,Overcast,2016-01-07 21:53:00,32.0,,-,89,N/A,29.89,35.1,,2:53 PM,10.0,North,9.2,350,Boise,Idaho,83701
41,Overcast,2016-01-07 22:11:00,33.8,,-,93,N/A,29.85,35.6,,3:11 PM,10.0,North,6.9,350,Boise,Idaho,83701
42,Overcast,2016-01-07 22:48:00,33.8,,-,93,N/A,29.85,35.6,,3:48 PM,10.0,NW,9.2,320,Boise,Idaho,83701
43,Overcast,2016-01-07 22:53:00,33.1,,-,89,N/A,29.89,36.0,,3:53 PM,10.0,NNW,10.4,340,Boise,Idaho,83701
44,Overcast,2016-01-07 23:53:00,33.1,,-,89,N/A,29.90,36.0,,4:53 PM,10.0,WNW,6.9,300,Boise,Idaho,83701
45,Overcast,2016-01-08 00:05:00,33.8,,-,93,N/A,29.86,35.6,,5:05 PM,10.0,WNW,8.1,300,Boise,Idaho,83701
46,Overcast,2016-01-08 00:53:00,32.0,,-,89,N/A,29.91,35.1,,5:53 PM,10.0,West,8.1,280,Boise,Idaho,83701
47,Overcast,2016-01-08 01:53:00,32.0,,-,89,N/A,29.93,35.1,,6:53 PM,10.0,NW,5.8,320,Boise,Idaho,83701
48,Mostly Cloudy,2016-01-08 02:53:00,32.0,,-,92,N/A,29.93,34.0,,7:53 PM,10.0,North,4.6,360,Boise,Idaho,83701
49,Partly Cloudy,2016-01-08 03:53:00,30.9,,-,96,N/A,29.94,32.0,,8:53 PM,9.0,WNW,4.6,300,Boise,Idaho,83701
50,Mostly Cloudy,2016-01-08 04:41:00,30.2,,-,93,N/A,29.90,32.0,,9:41 PM,8.0,NW,5.8,310,Boise,Idaho,83701
51,Overcast,2016-01-08 04:53:00,30.9,,-,92,N/A,29.95,33.1,,9:53 PM,8.0,WNW,5.8,300,Boise,Idaho,83701
52,Scattered Clouds,2016-01-08 05:21:00,30.2,,-,87,N/A,29.90,33.8,,10:21 PM,10.0,NW,6.9,320,Boise,Idaho,83701
53,Clear,2016-01-08 05:53:00,30.9,,-,92,N/A,29.95,33.1,,10:53 PM,10.0,NW,6.9,310,Boise,Idaho,83701
54,Clear,2016-01-08 06:53:00,30.9,,-,96,N/A,29.96,32.0,,11:53 PM,10.0,WNW,5.8,300,Boise,Idaho,83701
0,Clear,2016-01-08 07:53:00,30.0,,-,96,N/A,29.96,30.9,,12:53 AM,10.0,Calm,Calm,0,Boise,Idaho,83701
1,Clear,2016-01-08 08:53:00,28.0,,-,96,N/A,29.97,28.9,,1:53 AM,7.0,Calm,Calm,0,Boise,Idaho,83701
2,Clear,2016-01-08 09:53:00,26.1,,-,96,N/A,29.98,27.0,,2:53 AM,7.0,Calm,Calm,0,Boise,Idaho,83701
3,Clear,2016-01-08 10:53:00,25.0,,-,96,N/A,29.99,26.1,,3:53 AM,5.0,Calm,Calm,0,Boise,Idaho,83701
4,Partly Cloudy,2016-01-08 10:57:00,24.8,,-,93,N/A,29.94,26.6,,3:57 AM,1.8,Calm,Calm,0,Boise,Idaho,83701
5,Mist,2016-01-08 11:00:00,24.8,,-,93,N/A,29.94,26.6,,4:00 AM,1.0,Calm,Calm,0,Boise,Idaho,83701
6,Mist,2016-01-08 11:08:00,24.8,,-,93,N/A,29.94,26.6,,4:08 AM,0.8,SSW,3.5,200,Boise,Idaho,83701
7,Scattered Clouds,2016-01-08 11:36:00,24.8,,-,93,N/A,29.94,26.6,,4:36 AM,1.2,Calm,Calm,0,Boise,Idaho,83701
8,Scattered Clouds,2016-01-08 11:39:00,24.8,,-,93,N/A,29.94,26.6,,4:39 AM,2.0,Calm,Calm,0,Boise,Idaho,83701
9,Clear,2016-01-08 11:53:00,25.0,,-,96,N/A,29.99,26.1,,4:53 AM,5.0,Calm,Calm,0,Boise,Idaho,83701
10,Clear,2016-01-08 12:53:00,24.1,,-,96,N/A,30.01,25.0,,5:53 AM,6.0,Calm,Calm,0,Boise,Idaho,83701
11,Scattered Clouds,2016-01-08 13:15:00,24.8,,-,100,N/A,29.95,24.8,,6:15 AM,6.0,Calm,Calm,0,Boise,Idaho,83701
12,Mostly Cloudy,2016-01-08 13:20:00,24.8,,-,100,N/A,29.95,24.8,,6:20 AM,2.0,Calm,Calm,0,Boise,Idaho,83701
13,Overcast,2016-01-08 13:32:00,24.8,,-,100,N/A,29.95,24.8,,6:32 AM,1.2,Calm,Calm,0,Boise,Idaho,83701
14,Mist,2016-01-08 13:35:00,24.8,,-,100,N/A,29.95,24.8,,6:35 AM,0.5,Calm,Calm,0,Boise,Idaho,83701
15,Light Freezing Fog,2016-01-08 13:53:00,25.0,Fog,-,96,N/A,30.01,26.1,,6:53 AM,0.2,Calm,Calm,0,Boise,Idaho,83701
16,Light Freezing Fog,2016-01-08 14:28:00,26.6,Fog,-,100,N/A,29.97,26.6,,7:28 AM,0.2,Calm,Calm,0,Boise,Idaho,83701
17,Light Freezing Fog,2016-01-08 14:50:00,26.6,Fog,-,100,N/A,29.98,26.6,,7:50 AM,0.2,Calm,Calm,0,Boise,Idaho,83701
18,Light Freezing Fog,2016-01-08 14:53:00,26.1,Fog,-,100,N/A,30.04,26.1,,7:53 AM,0.2,Calm,Calm,0,Boise,Idaho,83701
19,Light Freezing Fog,2016-01-08 15:32:00,26.6,Fog,-,100,N/A,29.99,26.6,,8:32 AM,0.2,Calm,Calm,0,Boise,Idaho,83701
20,Light Freezing Fog,2016-01-08 15:46:00,26.6,Fog,-,100,N/A,29.99,26.6,,8:46 AM,0.2,Calm,Calm,0,Boise,Idaho,83701
21,Light Freezing Fog,2016-01-08 15:53:00,26.1,Fog,-,100,N/A,30.05,26.1,,8:53 AM,0.2,Calm,Calm,0,Boise,Idaho,83701
22,Mist,2016-01-08 16:20:00,26.6,,-,100,N/A,30.00,26.6,,9:20 AM,0.8,SSW,3.5,200,Boise,Idaho,83701
23,Mostly Cloudy,2016-01-08 16:25:00,26.6,,-,100,N/A,30.00,26.6,,9:25 AM,1.5,South,3.5,190,Boise,Idaho,83701
24,Mostly Cloudy,2016-01-08 16:30:00,26.6,,-,100,N/A,30.00,26.6,,9:30 AM,3.0,South,3.5,190,Boise,Idaho,83701
25,Scattered Clouds,2016-01-08 16:41:00,26.6,,-,93,N/A,30.01,28.4,,9:41 AM,5.0,Calm,Calm,0,Boise,Idaho,83701
26,Clear,2016-01-08 16:53:00,28.9,,-,100,N/A,30.07,28.9,,9:53 AM,9.0,Calm,Calm,0,Boise,Idaho,83701
27,Clear,2016-01-08 17:53:00,30.0,,-,92,N/A,30.07,32.0,,10:53 AM,10.0,Calm,Calm,0,Boise,Idaho,83701
28,Clear,2016-01-08 18:53:00,30.9,,-,85,N/A,30.06,35.1,,11:53 AM,10.0,NW,8.1,310,Boise,Idaho,83701
29,Clear,2016-01-08 19:53:00,32.0,,-,76,N/A,30.05,39.0,,12:53 PM,10.0,NW,6.9,310,Boise,Idaho,83701
30,Partly Cloudy,2016-01-08 20:53:00,32.0,,-,76,N/A,30.05,39.0,,1:53 PM,10.0,WNW,10.4,300,Boise,Idaho,83701
31,Clear,2016-01-08 21:53:00,30.9,,-,70,N/A,30.06,39.9,,2:53 PM,10.0,NW,9.2,320,Boise,Idaho,83701
32,Clear,2016-01-08 22:53:00,30.9,,-,70,N/A,30.07,39.9,,3:53 PM,10.0,NW,8.1,310,Boise,Idaho,83701
33,Clear,2016-01-08 23:53:00,30.0,,-,73,N/A,30.09,37.9,,4:53 PM,10.0,WNW,5.8,290,Boise,Idaho,83701
34,Clear,2016-01-09 00:53:00,28.0,,-,73,N/A,30.11,36.0,,5:53 PM,10.0,NW,4.6,320,Boise,Idaho,83701
35,Clear,2016-01-09 01:53:00,28.9,,-,82,N/A,30.12,34.0,,6:53 PM,10.0,Calm,Calm,0,Boise,Idaho,83701
36,Partly Cloudy,2016-01-09 02:53:00,28.0,,-,85,N/A,30.13,32.0,,7:53 PM,10.0,South,3.5,190,Boise,Idaho,83701
37,Clear,2016-01-09 03:53:00,27.0,,-,85,N/A,30.14,30.9,,8:53 PM,10.0,Calm,Calm,0,Boise,Idaho,83701
38,Clear,2016-01-09 04:53:00,26.1,,-,92,N/A,30.14,28.0,,9:53 PM,10.0,SE,3.5,140,Boise,Idaho,83701
39,Clear,2016-01-09 05:53:00,26.1,,-,89,N/A,30.14,28.9,,10:53 PM,10.0,SE,6.9,130,Boise,Idaho,83701
40,Clear,2016-01-09 06:53:00,26.1,,-,89,N/A,30.15,28.9,,11:53 PM,10.0,ESE,8.1,120,Boise,Idaho,83701
0,Clear,2016-01-09 07:53:00,25.0,,-,85,N/A,30.14,28.9,,12:53 AM,10.0,SE,8.1,130,Boise,Idaho,83701
1,Partly Cloudy,2016-01-09 08:53:00,25.0,,-,88,N/A,30.14,28.0,,1:53 AM,10.0,SE,8.1,130,Boise,Idaho,83701
2,Scattered Clouds,2016-01-09 09:53:00,24.1,,-,85,N/A,30.14,28.0,,2:53 AM,10.0,SE,10.4,130,Boise,Idaho,83701
3,Overcast,2016-01-09 10:53:00,25.0,,-,82,N/A,30.14,30.0,,3:53 AM,10.0,SE,8.1,130,Boise,Idaho,83701
4,Overcast,2016-01-09 11:53:00,24.1,,-,82,N/A,30.14,28.9,,4:53 AM,10.0,SE,8.1,130,Boise,Idaho,83701
5,Mostly Cloudy,2016-01-09 12:53:00,24.1,,-,82,N/A,30.15,28.9,,5:53 AM,10.0,ESE,6.9,120,Boise,Idaho,83701
6,Overcast,2016-01-09 13:53:00,25.0,,-,85,N/A,30.17,28.9,,6:53 AM,10.0,Calm,Calm,0,Boise,Idaho,83701
7,Mostly Cloudy,2016-01-09 14:53:00,24.1,,-,82,N/A,30.18,28.9,,7:53 AM,10.0,ESE,6.9,120,Boise,Idaho,83701
8,Overcast,2016-01-09 15:53:00,24.1,,-,82,N/A,30.19,28.9,,8:53 AM,10.0,Calm,Calm,0,Boise,Idaho,83701
9,Overcast,2016-01-09 16:53:00,25.0,,-,82,N/A,30.22,30.0,,9:53 AM,10.0,Calm,Calm,0,Boise,Idaho,83701
10,Mostly Cloudy,2016-01-09 17:53:00,27.0,,-,78,N/A,30.23,33.1,,10:53 AM,10.0,ENE,4.6,70,Boise,Idaho,83701
11,Clear,2016-01-09 18:53:00,27.0,,-,72,N/A,30.21,35.1,,11:53 AM,10.0,Calm,Calm,0,Boise,Idaho,83701
12,Clear,2016-01-09 19:53:00,28.9,,-,67,N/A,30.18,39.0,,12:53 PM,10.0,ESE,4.6,120,Boise,Idaho,83701
13,Clear,2016-01-09 20:53:00,30.0,,-,68,N/A,30.17,39.9,,1:53 PM,10.0,SSE,4.6,150,Boise,Idaho,83701
14,Clear,2016-01-09 21:53:00,28.0,,-,63,N/A,30.16,39.9,,2:53 PM,10.0,South,5.8,190,Boise,Idaho,83701
15,Clear,2016-01-09 22:53:00,27.0,,-,57,N/A,30.16,41.0,,3:53 PM,10.0,Calm,Calm,0,Boise,Idaho,83701
16,Clear,2016-01-09 23:53:00,30.9,,-,82,N/A,30.19,36.0,,4:53 PM,10.0,West,5.8,280,Boise,Idaho,83701
17,Clear,2016-01-10 00:53:00,30.0,,-,89,N/A,30.21,33.1,,5:53 PM,10.0,WNW,4.6,290,Boise,Idaho,83701
18,Clear,2016-01-10 01:53:00,28.9,,-,96,N/A,30.21,30.0,,6:53 PM,10.0,Calm,Calm,0,Boise,Idaho,83701
19,Scattered Clouds,2016-01-10 02:53:00,28.0,,-,92,N/A,30.23,30.0,,7:53 PM,7.0,Calm,Calm,0,Boise,Idaho,83701
20,Partly Cloudy,2016-01-10 03:53:00,27.0,,-,96,N/A,30.25,28.0,,8:53 PM,8.0,Calm,Calm,0,Boise,Idaho,83701
21,Clear,2016-01-10 04:53:00,26.1,,-,96,N/A,30.25,27.0,,9:53 PM,9.0,SSE,3.5,160,Boise,Idaho,83701
22,Clear,2016-01-10 05:53:00,24.1,,-,92,N/A,30.26,26.1,,10:53 PM,10.0,Calm,Calm,0,Boise,Idaho,83701
23,Clear,2016-01-10 06:53:00,24.1,,-,92,N/A,30.27,26.1,,11:53 PM,6.0,Calm,Calm,0,Boise,Idaho,83701
0,Scattered Clouds,2016-01-10 07:18:00,24.8,,-,93,N/A,30.21,26.6,,12:18 AM,6.0,Calm,Calm,0,Boise,Idaho,83701
1,Mostly Cloudy,2016-01-10 07:31:00,23.0,,-,93,N/A,30.21,24.8,,12:31 AM,2.0,Calm,Calm,0,Boise,Idaho,83701
2,Overcast,2016-01-10 07:49:00,24.8,,-,93,N/A,30.22,26.6,,12:49 AM,0.5,Calm,Calm,0,Boise,Idaho,83701
3,Overcast,2016-01-10 07:53:00,26.1,,-,96,N/A,30.27,27.0,,12:53 AM,0.5,Calm,Calm,0,Boise,Idaho,83701
4,Light Freezing Fog,2016-01-10 08:11:00,26.6,Fog,-,100,N/A,30.22,26.6,,1:11 AM,0.2,Calm,Calm,0,Boise,Idaho,83701
5,Mist,2016-01-10 08:36:00,26.6,,-,100,N/A,30.22,26.6,,1:36 AM,0.2,Calm,Calm,0,Boise,Idaho,83701
6,Overcast,2016-01-10 08:44:00,24.8,,-,93,N/A,30.22,26.6,,1:44 AM,0.2,SSW,3.5,200,Boise,Idaho,83701
7,Overcast,2016-01-10 08:53:00,23.0,,-,92,N/A,30.28,25.0,,1:53 AM,0.2,Calm,Calm,0,Boise,Idaho,83701
8,Light Freezing Fog,2016-01-10 09:03:00,24.8,Fog,-,93,N/A,30.22,26.6,,2:03 AM,0.2,Calm,Calm,0,Boise,Idaho,83701
9,Light Freezing Fog,2016-01-10 09:41:00,23.0,Fog,-,93,N/A,30.23,24.8,,2:41 AM,0.2,Calm,Calm,0,Boise,Idaho,83701
10,Mist,2016-01-10 09:48:00,23.0,,-,93,N/A,30.24,24.8,,2:48 AM,0.8,Calm,Calm,0,Boise,Idaho,83701
11,Mostly Cloudy,2016-01-10 09:53:00,21.9,,-,91,N/A,30.30,24.1,,2:53 AM,2.5,Calm,Calm,0,Boise,Idaho,83701
12,Scattered Clouds,2016-01-10 09:57:00,21.2,,-,86,N/A,30.24,24.8,,2:57 AM,7.0,Calm,Calm,0,Boise,Idaho,83701
13,Clear,2016-01-10 10:53:00,19.9,,-,88,N/A,30.30,23.0,,3:53 AM,10.0,Calm,Calm,0,Boise,Idaho,83701
14,Mostly Cloudy,2016-01-10 11:48:00,21.2,,-,100,N/A,30.26,21.2,,4:48 AM,8.0,Calm,Calm,0,Boise,Idaho,83701
15,Mostly Cloudy,2016-01-10 11:53:00,21.0,,-,92,N/A,30.32,23.0,,4:53 AM,8.0,Calm,Calm,0,Boise,Idaho,83701
16,Overcast,2016-01-10 12:53:00,21.9,,-,88,N/A,30.33,25.0,,5:53 AM,10.0,Calm,Calm,0,Boise,Idaho,83701
17,Overcast,2016-01-10 13:53:00,23.0,,-,92,N/A,30.36,25.0,,6:53 AM,10.0,Calm,Calm,0,Boise,Idaho,83701
18,Overcast,2016-01-10 14:53:00,21.0,,-,85,N/A,30.37,25.0,,7:53 AM,10.0,SE,5.8,140,Boise,Idaho,83701
19,Overcast,2016-01-10 15:49:00,19.4,,-,80,N/A,30.31,24.8,,8:49 AM,10.0,SE,9.2,140,Boise,Idaho,83701
20,Overcast,2016-01-10 15:53:00,19.9,,-,78,N/A,30.40,26.1,,8:53 AM,10.0,SE,9.2,140,Boise,Idaho,83701
21,Overcast,2016-01-10 16:53:00,19.9,,-,78,N/A,30.41,26.1,,9:53 AM,10.0,SE,9.2,140,Boise,Idaho,83701
22,Overcast,2016-01-10 17:19:00,21.2,,-,80,N/A,30.34,26.6,,10:19 AM,10.0,SE,6.9,140,Boise,Idaho,83701
23,Overcast,2016-01-10 17:53:00,21.0,,-,75,N/A,30.42,28.0,,10:53 AM,10.0,SSE,5.8,150,Boise,Idaho,83701
24,Overcast,2016-01-10 18:53:00,21.0,,-,72,N/A,30.42,28.9,,11:53 AM,10.0,SSE,5.8,150,Boise,Idaho,83701
25,Overcast,2016-01-10 19:53:00,24.1,,-,76,N/A,30.42,30.9,,12:53 PM,10.0,Calm,Calm,0,Boise,Idaho,83701
26,Overcast,2016-01-10 20:53:00,26.1,,-,82,N/A,30.41,30.9,,1:53 PM,10.0,Calm,Calm,0,Boise,Idaho,83701
27,Overcast,2016-01-10 21:53:00,26.1,,-,79,N/A,30.41,32.0,,2:53 PM,10.0,WNW,3.5,290,Boise,Idaho,83701
28,Overcast,2016-01-10 22:53:00,27.0,,-,78,N/A,30.41,33.1,,3:53 PM,10.0,WNW,3.5,300,Boise,Idaho,83701
29,Scattered Clouds,2016-01-10 23:42:00,26.6,,-,75,N/A,30.35,33.8,,4:42 PM,10.0,NNE,6.9,20,Boise,Idaho,83701
30,Clear,2016-01-10 23:53:00,26.1,,-,79,N/A,30.43,32.0,,4:53 PM,10.0,North,4.6,350,Boise,Idaho,83701
31,Clear,2016-01-11 00:53:00,26.1,,-,82,N/A,30.45,30.9,,5:53 PM,10.0,West,3.5,280,Boise,Idaho,83701
32,Clear,2016-01-11 01:53:00,25.0,,-,88,N/A,30.44,28.0,,6:53 PM,8.0,Calm,Calm,0,Boise,Idaho,83701
33,Clear,2016-01-11 02:53:00,25.0,,-,92,N/A,30.45,27.0,,7:53 PM,8.0,Calm,Calm,0,Boise,Idaho,83701
34,Clear,2016-01-11 03:53:00,25.0,,-,92,N/A,30.44,27.0,,8:53 PM,8.0,East,3.5,100,Boise,Idaho,83701
35,Mostly Cloudy,2016-01-11 04:10:00,24.8,,-,93,N/A,30.36,26.6,,9:10 PM,9.0,ESE,5.8,110,Boise,Idaho,83701
36,Overcast,2016-01-11 04:53:00,25.0,,-,88,N/A,30.46,28.0,,9:53 PM,10.0,SE,4.6,140,Boise,Idaho,83701
37,Overcast,2016-01-11 05:53:00,21.9,,-,81,N/A,30.46,27.0,,10:53 PM,10.0,SE,5.8,140,Boise,Idaho,83701
38,Overcast,2016-01-11 06:53:00,21.9,,-,81,N/A,30.46,27.0,,11:53 PM,10.0,East,4.6,100,Boise,Idaho,83701
0,Overcast,2016-01-11 07:53:00,21.0,,-,78,N/A,30.46,27.0,,12:53 AM,10.0,ESE,3.5,110,Boise,Idaho,83701
1,Overcast,2016-01-11 08:53:00,21.0,,-,81,N/A,30.47,26.1,,1:53 AM,10.0,SE,6.9,130,Boise,Idaho,83701
2,Overcast,2016-01-11 09:53:00,19.9,,-,78,N/A,30.48,26.1,,2:53 AM,10.0,SE,8.1,130,Boise,Idaho,83701
3,Overcast,2016-01-11 10:53:00,18.0,,-,75,N/A,30.48,25.0,,3:53 AM,10.0,SE,6.9,130,Boise,Idaho,83701
4,Overcast,2016-01-11 11:53:00,17.1,,-,72,N/A,30.48,25.0,,4:53 AM,10.0,ESE,9.2,110,Boise,Idaho,83701
5,Mostly Cloudy,2016-01-11 12:53:00,17.1,,-,72,N/A,30.48,25.0,,5:53 AM,10.0,ESE,9.2,120,Boise,Idaho,83701
6,Overcast,2016-01-11 13:53:00,16.0,,-,71,N/A,30.51,24.1,,6:53 AM,10.0,ESE,10.4,120,Boise,Idaho,83701
7,Mostly Cloudy,2016-01-11 14:53:00,15.1,,-,72,N/A,30.50,23.0,,7:53 AM,10.0,SE,10.4,130,Boise,Idaho,83701
8,Scattered Clouds,2016-01-11 15:11:00,15.8,,-,80,N/A,30.41,21.2,,8:11 AM,10.0,SE,11.5,130,Boise,Idaho,83701
9,Mostly Cloudy,2016-01-11 15:38:00,15.8,,-,74,N/A,30.42,23.0,,8:38 AM,10.0,ESE,10.4,120,Boise,Idaho,83701
10,Overcast,2016-01-11 15:53:00,16.0,,-,71,N/A,30.51,24.1,,8:53 AM,10.0,ESE,10.4,120,Boise,Idaho,83701
11,Overcast,2016-01-11 16:53:00,17.1,,-,69,N/A,30.52,26.1,,9:53 AM,10.0,ESE,5.8,120,Boise,Idaho,83701
12,Overcast,2016-01-11 17:53:00,19.0,,-,72,N/A,30.53,27.0,,10:53 AM,10.0,ESE,10.4,120,Boise,Idaho,83701
13,Overcast,2016-01-11 18:53:00,21.0,,-,69,N/A,30.51,30.0,,11:53 AM,10.0,ESE,8.1,110,Boise,Idaho,83701
14,Overcast,2016-01-11 19:53:00,21.0,,-,69,N/A,30.50,30.0,,12:53 PM,10.0,ESE,9.2,110,Boise,Idaho,83701
15,Overcast,2016-01-11 20:53:00,21.9,,-,66,N/A,30.47,32.0,,1:53 PM,10.0,East,8.1,100,Boise,Idaho,83701
16,Overcast,2016-01-11 21:53:00,21.9,,-,66,N/A,30.47,32.0,,2:53 PM,10.0,ESE,8.1,110,Boise,Idaho,83701
17,Overcast,2016-01-11 22:53:00,23.0,,-,66,N/A,30.48,33.1,,3:53 PM,10.0,ESE,5.8,110,Boise,Idaho,83701
18,Mostly Cloudy,2016-01-11 23:24:00,23.0,,-,69,N/A,30.41,32.0,,4:24 PM,10.0,ESE,4.6,110,Boise,Idaho,83701
19,Mostly Cloudy,2016-01-11 23:53:00,23.0,,-,69,N/A,30.49,32.0,,4:53 PM,10.0,ESE,5.8,110,Boise,Idaho,83701
20,Overcast,2016-01-12 00:53:00,23.0,,-,69,N/A,30.48,32.0,,5:53 PM,10.0,ESE,9.2,120,Boise,Idaho,83701
21,Overcast,2016-01-12 01:53:00,21.9,,-,66,N/A,30.48,32.0,,6:53 PM,10.0,ESE,10.4,120,Boise,Idaho,83701
22,Overcast,2016-01-12 02:53:00,21.0,,-,67,N/A,30.49,30.9,,7:53 PM,10.0,SE,8.1,130,Boise,Idaho,83701
23,Clear,2016-01-12 03:53:00,21.0,,-,72,N/A,30.50,28.9,,8:53 PM,10.0,SE,6.9,140,Boise,Idaho,83701
24,Overcast,2016-01-12 04:53:00,21.0,,-,72,N/A,30.50,28.9,,9:53 PM,10.0,SE,5.8,140,Boise,Idaho,83701
25,Overcast,2016-01-12 05:53:00,21.9,,-,75,N/A,30.50,28.9,,10:53 PM,10.0,SE,6.9,130,Boise,Idaho,83701
26,Overcast,2016-01-12 06:53:00,21.9,,-,75,N/A,30.51,28.9,,11:53 PM,10.0,SE,6.9,140,Boise,Idaho,83701
0,Partly Cloudy,2016-01-12 07:53:00,21.0,,-,72,N/A,30.49,28.9,,12:53 AM,10.0,SSE,9.2,150,Boise,Idaho,83701
1,Clear,2016-01-12 08:53:00,21.0,,-,72,N/A,30.49,28.9,,1:53 AM,10.0,SSE,9.2,150,Boise,Idaho,83701
2,Clear,2016-01-12 09:53:00,21.0,,-,75,N/A,30.48,28.0,,2:53 AM,10.0,SE,8.1,140,Boise,Idaho,83701
3,Clear,2016-01-12 10:53:00,21.0,,-,78,N/A,30.46,27.0,,3:53 AM,10.0,SE,10.4,140,Boise,Idaho,83701
4,Clear,2016-01-12 11:53:00,19.9,,-,75,N/A,30.45,27.0,,4:53 AM,10.0,SSE,11.5,150,Boise,Idaho,83701
5,Clear,2016-01-12 12:53:00,19.9,,-,78,N/A,30.46,26.1,,5:53 AM,10.0,East,4.6,100,Boise,Idaho,83701
6,Partly Cloudy,2016-01-12 13:53:00,19.0,,-,78,N/A,30.46,25.0,,6:53 AM,10.0,South,4.6,190,Boise,Idaho,83701
7,Clear,2016-01-12 14:53:00,19.0,,-,81,N/A,30.45,24.1,,7:53 AM,10.0,SSE,4.6,160,Boise,Idaho,83701
8,Clear,2016-01-12 15:53:00,19.9,,-,78,N/A,30.46,26.1,,8:53 AM,10.0,SE,4.6,130,Boise,Idaho,83701
9,Clear,2016-01-12 16:53:00,21.0,,-,81,N/A,30.46,26.1,,9:53 AM,10.0,Calm,Calm,0,Boise,Idaho,83701
10,Clear,2016-01-12 17:53:00,21.9,,-,78,N/A,30.45,28.0,,10:53 AM,10.0,Calm,Calm,0,Boise,Idaho,83701
11,Clear,2016-01-12 18:53:00,24.1,,-,70,N/A,30.40,33.1,,11:53 AM,10.0,SE,10.4,140,Boise,Idaho,83701
12,Clear,2016-01-12 19:53:00,24.1,,-,62,N/A,30.36,36.0,,12:53 PM,10.0,ESE,9.2,120,Boise,Idaho,83701
13,Clear,2016-01-12 20:53:00,25.0,,-,57,N/A,30.32,39.0,,1:53 PM,10.0,SE,8.1,140,Boise,Idaho,83701
14,Clear,2016-01-12 21:53:00,24.1,,-,57,N/A,30.31,37.9,,2:53 PM,10.0,SE,15.0,140,Boise,Idaho,83701
15,Mostly Cloudy,2016-01-12 22:53:00,25.0,,-,57,N/A,30.30,39.0,,3:53 PM,10.0,SSE,13.8,150,Boise,Idaho,83701
16,Clear,2016-01-12 23:53:00,25.0,,-,62,N/A,30.28,37.0,,4:53 PM,10.0,SSE,11.5,150,Boise,Idaho,83701
17,Scattered Clouds,2016-01-13 00:53:00,25.0,,-,70,N/A,30.28,34.0,,5:53 PM,10.0,SE,6.9,140,Boise,Idaho,83701
18,Clear,2016-01-13 01:53:00,25.0,,-,72,N/A,30.26,33.1,,6:53 PM,10.0,SSE,13.8,160,Boise,Idaho,83701
19,Clear,2016-01-13 02:53:00,24.1,,-,73,N/A,30.25,32.0,,7:53 PM,10.0,SE,11.5,140,Boise,Idaho,83701
20,Clear,2016-01-13 03:53:00,24.1,,-,73,N/A,30.23,32.0,,8:53 PM,10.0,SSE,12.7,150,Boise,Idaho,83701
21,Clear,2016-01-13 04:53:00,23.0,,-,72,N/A,30.21,30.9,,9:53 PM,10.0,SSE,13.8,150,Boise,Idaho,83701
22,Clear,2016-01-13 05:53:00,24.1,,-,73,N/A,30.19,32.0,,10:53 PM,10.0,SSE,15.0,150,Boise,Idaho,83701
23,Overcast,2016-01-13 06:53:00,24.1,,-,73,N/A,30.18,32.0,,11:53 PM,10.0,SE,11.5,140,Boise,Idaho,83701
0,Partly Cloudy,2016-01-13 07:53:00,24.1,,-,76,N/A,30.16,30.9,,12:53 AM,10.0,NNE,3.5,20,Boise,Idaho,83701
1,Clear,2016-01-13 08:53:00,23.0,,-,69,N/A,30.12,32.0,,1:53 AM,10.0,SE,8.1,130,Boise,Idaho,83701
2,Clear,2016-01-13 09:53:00,24.1,,-,79,N/A,30.14,30.0,,2:53 AM,10.0,ENE,4.6,60,Boise,Idaho,83701
3,Clear,2016-01-13 10:53:00,24.1,,-,79,N/A,30.13,30.0,,3:53 AM,10.0,North,4.6,350,Boise,Idaho,83701
4,Partly Cloudy,2016-01-13 11:53:00,24.1,,-,79,N/A,30.11,30.0,,4:53 AM,10.0,North,6.9,350,Boise,Idaho,83701
5,Overcast,2016-01-13 12:53:00,24.1,,-,79,N/A,30.09,30.0,,5:53 AM,10.0,SE,8.1,140,Boise,Idaho,83701
6,Overcast,2016-01-13 13:53:00,23.0,,20.7,66,N/A,30.00,33.1,,6:53 AM,10.0,SE,17.3,140,Boise,Idaho,83701
7,Overcast,2016-01-13 14:53:00,21.9,,28.8,64,N/A,30.00,33.1,,7:53 AM,10.0,South,18.4,170,Boise,Idaho,83701
8,Overcast,2016-01-13 15:53:00,21.0,,-,61,N/A,30.04,33.1,,8:53 AM,10.0,SSE,13.8,150,Boise,Idaho,83701
9,Overcast,2016-01-13 16:53:00,19.9,,23.0,61,N/A,30.04,32.0,,9:53 AM,10.0,ESE,18.4,110,Boise,Idaho,83701
10,Overcast,2016-01-13 17:53:00,30.0,,21.9,76,0.00,29.99,37.0,,10:53 AM,10.0,ESE,17.3,120,Boise,Idaho,83701
11,Mostly Cloudy,2016-01-13 18:53:00,33.1,,-,70,0.00,29.94,42.1,,11:53 AM,10.0,SE,6.9,140,Boise,Idaho,83701
12,Overcast,2016-01-13 19:53:00,24.1,,20.7,59,N/A,29.92,37.0,,12:53 PM,10.0,Variable,5.8,0,Boise,Idaho,83701
13,Partly Cloudy,2016-01-13 20:53:00,24.1,,33.4,55,N/A,29.87,39.0,,1:53 PM,10.0,SE,23.0,140,Boise,Idaho,83701
14,Overcast,2016-01-13 21:53:00,26.1,,23.0,53,N/A,29.86,42.1,,2:53 PM,10.0,SSE,17.3,150,Boise,Idaho,83701
15,Overcast,2016-01-13 22:53:00,24.1,,-,53,N/A,29.88,39.9,,3:53 PM,10.0,SSE,15.0,150,Boise,Idaho,83701
16,Light Rain,2016-01-13 23:53:00,26.1,Rain,24.2,62,0.00,29.90,37.9,,4:53 PM,10.0,SE,19.6,140,Boise,Idaho,83701
17,Overcast,2016-01-14 00:53:00,28.0,,-,68,0.00,29.91,37.9,,5:53 PM,10.0,SE,12.7,130,Boise,Idaho,83701
18,Overcast,2016-01-14 01:53:00,28.0,,-,68,N/A,29.90,37.9,,6:53 PM,10.0,ESE,11.5,120,Boise,Idaho,83701
19,Mostly Cloudy,2016-01-14 02:53:00,28.9,,-,70,N/A,29.90,37.9,,7:53 PM,10.0,SE,9.2,130,Boise,Idaho,83701
20,Overcast,2016-01-14 03:53:00,30.0,,-,70,N/A,29.90,39.0,,8:53 PM,10.0,SE,9.2,130,Boise,Idaho,83701
21,Overcast,2016-01-14 04:53:00,30.9,,-,76,N/A,29.92,37.9,,9:53 PM,10.0,SE,8.1,130,Boise,Idaho,83701
22,Overcast,2016-01-14 05:53:00,30.9,,-,76,0.00,29.93,37.9,,10:53 PM,10.0,SE,10.4,130,Boise,Idaho,83701
23,Light Rain,2016-01-14 06:53:00,33.1,Rain,-,86,0.01,29.93,37.0,,11:53 PM,10.0,East,3.5,100,Boise,Idaho,83701
0,Light Rain,2016-01-14 07:21:00,33.8,Rain,-,93,0.01,29.92,35.6,,12:21 AM,10.0,NNW,4.6,330,Boise,Idaho,83701
1,Light Snow,2016-01-14 07:41:00,30.2,Snow,-,87,0.02,29.94,33.8,,12:41 AM,4.0,WNW,18.4,300,Boise,Idaho,83701
2,Light Snow,2016-01-14 07:44:00,30.2,Snow,-,93,0.02,29.95,32.0,,12:44 AM,2.5,WNW,17.3,300,Boise,Idaho,83701
3,Light Snow,2016-01-14 07:51:00,30.2,Snow,-,100,0.02,29.95,30.2,,12:51 AM,1.2,NW,15.0,310,Boise,Idaho,83701
4,Light Snow,2016-01-14 07:53:00,30.0,Snow,-,96,0.02,30.00,30.9,,12:53 AM,1.2,NW,12.7,320,Boise,Idaho,83701
5,Light Snow,2016-01-14 08:02:00,30.2,Snow,-,100,0.02,29.96,30.2,,1:02 AM,1.0,NW,9.2,320,Boise,Idaho,83701
6,Light Snow,2016-01-14 08:25:00,32.0,Snow,-,100,0.06,29.97,32.0,,1:25 AM,1.5,WNW,5.8,300,Boise,Idaho,83701
7,Light Snow,2016-01-14 08:28:00,32.0,Snow,-,100,0.07,29.97,32.0,,1:28 AM,2.0,WNW,4.6,290,Boise,Idaho,83701
8,Light Snow,2016-01-14 08:37:00,32.0,Snow,-,93,0.07,29.97,33.8,,1:37 AM,3.0,West,5.8,280,Boise,Idaho,83701
9,Light Snow,2016-01-14 08:53:00,30.9,Snow,-,92,0.07,30.01,33.1,,1:53 AM,3.0,WNW,10.4,300,Boise,Idaho,83701
10,Light Snow,2016-01-14 09:02:00,30.2,Snow,-,87,0.00,29.98,33.8,,2:02 AM,2.5,WNW,6.9,290,Boise,Idaho,83701
11,Light Snow,2016-01-14 09:22:00,30.2,Snow,-,87,0.01,29.99,33.8,,2:22 AM,2.5,WNW,11.5,290,Boise,Idaho,83701
12,Light Snow,2016-01-14 09:36:00,30.2,Snow,19.6,93,0.01,29.99,32.0,,2:36 AM,1.5,WNW,10.4,300,Boise,Idaho,83701
13,Light Snow,2016-01-14 09:48:00,30.2,Snow,-,93,0.02,29.99,32.0,,2:48 AM,2.5,NW,10.4,310,Boise,Idaho,83701
14,Light Snow,2016-01-14 09:49:00,30.0,Snow,-,92,0.02,30.03,32.0,,2:49 AM,2.5,WNW,9.2,300,Boise,Idaho,83701
15,Light Snow,2016-01-14 10:01:00,30.2,Snow,-,100,0.00,30.00,30.2,,3:01 AM,2.5,NW,9.2,320,Boise,Idaho,83701
16,Light Snow,2016-01-14 10:05:00,30.2,Snow,-,100,0.00,30.00,30.2,,3:05 AM,3.0,NW,8.1,310,Boise,Idaho,83701
17,Overcast,2016-01-14 10:53:00,28.9,,-,92,0.00,30.06,30.9,,3:53 AM,8.0,Calm,Calm,0,Boise,Idaho,83701
18,Overcast,2016-01-14 11:53:00,28.9,,-,92,N/A,30.09,30.9,,4:53 AM,9.0,North,4.6,10,Boise,Idaho,83701
19,Mostly Cloudy,2016-01-14 12:53:00,27.0,,-,92,N/A,30.10,28.9,,5:53 AM,8.0,West,3.5,260,Boise,Idaho,83701
20,Clear,2016-01-14 13:37:00,24.8,,-,93,N/A,30.05,26.6,,6:37 AM,1.8,Calm,Calm,0,Boise,Idaho,83701
21,Clear,2016-01-14 13:50:00,24.8,,-,100,N/A,30.05,24.8,,6:50 AM,8.0,Calm,Calm,0,Boise,Idaho,83701
22,Clear,2016-01-14 13:53:00,24.1,,-,96,N/A,30.11,25.0,,6:53 AM,8.0,Calm,Calm,0,Boise,Idaho,83701
23,Clear,2016-01-14 14:00:00,23.0,,-,93,N/A,30.05,24.8,,7:00 AM,2.0,Calm,Calm,0,Boise,Idaho,83701
24,Clear,2016-01-14 14:10:00,23.0,,-,100,N/A,30.05,23.0,,7:10 AM,8.0,Calm,Calm,0,Boise,Idaho,83701
25,Clear,2016-01-14 14:53:00,21.9,,-,96,N/A,30.11,23.0,,7:53 AM,8.0,Calm,Calm,0,Boise,Idaho,83701
26,Mostly Cloudy,2016-01-14 15:53:00,23.0,,-,96,N/A,30.12,24.1,,8:53 AM,7.0,Calm,Calm,0,Boise,Idaho,83701
27,Partly Cloudy,2016-01-14 16:53:00,27.0,,-,96,N/A,30.14,28.0,,9:53 AM,9.0,Calm,Calm,0,Boise,Idaho,83701
28,Clear,2016-01-14 17:53:00,28.9,,-,78,N/A,30.15,35.1,,10:53 AM,10.0,NNW,3.5,330,Boise,Idaho,83701
29,Clear,2016-01-14 18:53:00,26.1,,-,65,N/A,30.14,37.0,,11:53 AM,10.0,North,8.1,350,Boise,Idaho,83701
30,Clear,2016-01-14 19:53:00,25.0,,-,60,N/A,30.12,37.9,,12:53 PM,10.0,North,4.6,360,Boise,Idaho,83701
31,Clear,2016-01-14 20:53:00,25.0,,-,57,N/A,30.06,39.0,,1:53 PM,10.0,NE,6.9,40,Boise,Idaho,83701
32,Clear,2016-01-14 21:53:00,23.0,,-,51,N/A,30.02,39.9,,2:53 PM,10.0,ENE,5.8,60,Boise,Idaho,83701
33,Clear,2016-01-14 22:53:00,26.1,,-,62,N/A,30.01,37.9,,3:53 PM,10.0,SE,6.9,140,Boise,Idaho,83701
34,Clear,2016-01-14 23:53:00,26.1,,-,67,N/A,30.00,36.0,,4:53 PM,10.0,ESE,8.1,120,Boise,Idaho,83701
35,Clear,2016-01-15 00:53:00,26.1,,-,70,N/A,29.98,35.1,,5:53 PM,10.0,SE,8.1,130,Boise,Idaho,83701
36,Partly Cloudy,2016-01-15 01:53:00,25.0,,-,67,N/A,29.95,35.1,,6:53 PM,10.0,ESE,9.2,120,Boise,Idaho,83701
37,Overcast,2016-01-15 02:53:00,25.0,,-,67,N/A,29.94,35.1,,7:53 PM,10.0,ESE,8.1,120,Boise,Idaho,83701
38,Light Snow,2016-01-15 03:53:00,28.0,Snow,-,76,0.00,29.94,35.1,,8:53 PM,7.0,SSE,13.8,150,Boise,Idaho,83701
39,Light Snow,2016-01-15 04:15:00,30.2,Snow,-,87,0.00,29.87,33.8,,9:15 PM,2.5,SE,10.4,130,Boise,Idaho,83701
40,Light Snow,2016-01-15 04:53:00,30.9,Snow,-,92,0.01,29.91,33.1,,9:53 PM,2.5,ESE,10.4,120,Boise,Idaho,83701
41,Light Snow,2016-01-15 05:10:00,30.2,Snow,-,87,0.00,29.85,33.8,,10:10 PM,1.8,ESE,10.4,120,Boise,Idaho,83701
42,Light Snow,2016-01-15 05:53:00,30.9,Snow,-,92,0.03,29.89,33.1,,10:53 PM,1.8,ESE,11.5,120,Boise,Idaho,83701
43,Light Snow,2016-01-15 06:00:00,30.2,Snow,-,87,0.00,29.84,33.8,,11:00 PM,2.0,ESE,9.2,120,Boise,Idaho,83701
44,Light Snow,2016-01-15 06:33:00,30.2,Snow,-,93,0.02,29.84,32.0,,11:33 PM,1.8,ESE,9.2,120,Boise,Idaho,83701
45,Light Snow,2016-01-15 06:53:00,30.9,Snow,-,96,0.03,29.88,32.0,,11:53 PM,3.0,ESE,8.1,120,Boise,Idaho,83701
0,Light Snow,2016-01-15 07:53:00,30.0,Snow,-,89,0.00,29.87,33.1,,12:53 AM,10.0,ESE,8.1,120,Boise,Idaho,83701
1,Overcast,2016-01-15 08:53:00,30.0,,-,89,0.00,29.86,33.1,,1:53 AM,10.0,SE,9.2,130,Boise,Idaho,83701
2,Light Snow,2016-01-15 09:53:00,30.0,Snow,-,89,0.00,29.87,33.1,,2:53 AM,4.0,ESE,6.9,120,Boise,Idaho,83701
3,Light Snow,2016-01-15 10:00:00,30.2,Snow,-,87,0.00,29.84,33.8,,3:00 AM,3.0,ESE,6.9,120,Boise,Idaho,83701
4,Light Snow,2016-01-15 10:53:00,30.9,Snow,-,96,0.02,29.89,32.0,,3:53 AM,1.8,ESE,3.5,110,Boise,Idaho,83701
5,Light Snow,2016-01-15 11:16:00,30.2,Snow,-,93,0.01,29.86,32.0,,4:16 AM,3.0,ESE,4.6,120,Boise,Idaho,83701
6,Light Snow,2016-01-15 11:53:00,30.9,Snow,-,96,0.01,29.91,32.0,,4:53 AM,9.0,WSW,6.9,250,Boise,Idaho,83701
7,Overcast,2016-01-15 12:53:00,30.0,,-,92,0.00,29.92,32.0,,5:53 AM,10.0,Calm,Calm,0,Boise,Idaho,83701
8,Overcast,2016-01-15 13:11:00,30.2,,-,93,N/A,29.88,32.0,,6:11 AM,10.0,East,3.5,90,Boise,Idaho,83701
9,Overcast,2016-01-15 13:24:00,30.2,,-,93,N/A,29.89,32.0,,6:24 AM,10.0,Calm,Calm,0,Boise,Idaho,83701
10,Overcast,2016-01-15 13:53:00,30.9,,-,96,N/A,29.95,32.0,,6:53 AM,10.0,West,4.6,280,Boise,Idaho,83701
11,Overcast,2016-01-15 14:16:00,30.2,,-,93,N/A,29.91,32.0,,7:16 AM,2.0,NW,6.9,310,Boise,Idaho,83701
12,Overcast,2016-01-15 14:23:00,32.0,,-,100,N/A,29.92,32.0,,7:23 AM,1.2,NW,8.1,310,Boise,Idaho,83701
13,Fog,2016-01-15 14:32:00,32.0,Fog,-,100,N/A,29.92,32.0,,7:32 AM,0.5,WNW,6.9,300,Boise,Idaho,83701
14,Fog,2016-01-15 14:49:00,32.0,Fog,-,100,N/A,29.93,32.0,,7:49 AM,0.5,WNW,6.9,290,Boise,Idaho,83701
15,Fog,2016-01-15 14:53:00,32.0,Fog,-,100,N/A,29.98,32.0,,7:53 AM,0.5,WNW,6.9,290,Boise,Idaho,83701
16,Fog,2016-01-15 15:05:00,30.2,Fog,-,93,N/A,29.94,32.0,,8:05 AM,0.2,WNW,8.1,300,Boise,Idaho,83701
17,Light Freezing Fog,2016-01-15 15:16:00,30.2,Fog,-,100,N/A,29.95,30.2,,8:16 AM,0.5,WNW,8.1,300,Boise,Idaho,83701
18,Mist,2016-01-15 15:26:00,30.2,,-,100,N/A,29.96,30.2,,8:26 AM,0.2,WNW,9.2,290,Boise,Idaho,83701
19,Light Freezing Fog,2016-01-15 15:53:00,30.9,Fog,-,100,N/A,30.02,30.9,,8:53 AM,0.2,WNW,6.9,290,Boise,Idaho,83701
20,Overcast,2016-01-15 16:53:00,30.9,,-,100,N/A,30.04,30.9,,9:53 AM,0.2,NW,3.5,320,Boise,Idaho,83701
21,Overcast,2016-01-15 17:53:00,30.9,,-,96,N/A,30.06,32.0,,10:53 AM,0.2,Calm,Calm,0,Boise,Idaho,83701
22,Overcast,2016-01-15 18:31:00,30.2,,-,87,N/A,30.02,33.8,,11:31 AM,0.2,Calm,Calm,0,Boise,Idaho,83701
23,Overcast,2016-01-15 18:53:00,32.0,,-,96,N/A,30.08,33.1,,11:53 AM,4.0,Calm,Calm,0,Boise,Idaho,83701
24,Overcast,2016-01-15 19:02:00,30.2,,-,87,N/A,30.03,33.8,,12:02 PM,10.0,West,3.5,260,Boise,Idaho,83701
25,Overcast,2016-01-15 19:53:00,30.9,,-,85,N/A,30.07,35.1,,12:53 PM,10.0,West,3.5,280,Boise,Idaho,83701
26,Overcast,2016-01-15 20:53:00,30.9,,-,85,N/A,30.08,35.1,,1:53 PM,10.0,West,4.6,260,Boise,Idaho,83701
27,Overcast,2016-01-15 21:27:00,30.2,,-,81,N/A,30.04,35.6,,2:27 PM,10.0,West,5.8,260,Boise,Idaho,83701
28,Overcast,2016-01-15 21:53:00,30.9,,-,85,N/A,30.09,35.1,,2:53 PM,10.0,Calm,Calm,0,Boise,Idaho,83701
29,Overcast,2016-01-15 22:53:00,30.9,,-,82,N/A,30.11,36.0,,3:53 PM,10.0,Calm,Calm,0,Boise,Idaho,83701
30,Overcast,2016-01-15 23:53:00,30.9,,-,82,N/A,30.11,36.0,,4:53 PM,10.0,South,3.5,170,Boise,Idaho,83701
31,Clear,2016-01-16 00:53:00,30.9,,-,92,N/A,30.12,33.1,,5:53 PM,10.0,SSE,5.8,150,Boise,Idaho,83701
32,Partly Cloudy,2016-01-16 01:53:00,28.9,,-,88,N/A,30.12,32.0,,6:53 PM,10.0,ESE,3.5,120,Boise,Idaho,83701
33,Clear,2016-01-16 02:53:00,28.0,,-,89,N/A,30.12,30.9,,7:53 PM,10.0,Calm,Calm,0,Boise,Idaho,83701
34,Mostly Cloudy,2016-01-16 03:53:00,28.0,,-,92,N/A,30.14,30.0,,8:53 PM,10.0,South,4.6,180,Boise,Idaho,83701
35,Partly Cloudy,2016-01-16 04:53:00,27.0,,-,88,N/A,30.14,30.0,,9:53 PM,10.0,ESE,4.6,120,Boise,Idaho,83701
36,Clear,2016-01-16 05:53:00,28.0,,-,89,N/A,30.12,30.9,,10:53 PM,10.0,ESE,6.9,120,Boise,Idaho,83701
37,Clear,2016-01-16 06:53:00,27.0,,-,88,N/A,30.12,30.0,,11:53 PM,10.0,Calm,Calm,0,Boise,Idaho,83701
0,Clear,2016-01-16 07:53:00,27.0,,-,88,N/A,30.12,30.0,,12:53 AM,10.0,Calm,Calm,0,Boise,Idaho,83701
1,Scattered Clouds,2016-01-16 08:53:00,27.0,,-,92,N/A,30.11,28.9,,1:53 AM,10.0,Calm,Calm,0,Boise,Idaho,83701
2,Scattered Clouds,2016-01-16 09:53:00,28.0,,-,92,N/A,30.11,30.0,,2:53 AM,10.0,Calm,Calm,0,Boise,Idaho,83701
3,Overcast,2016-01-16 10:53:00,28.0,,-,82,N/A,30.09,33.1,,3:53 AM,10.0,SSE,9.2,150,Boise,Idaho,83701
4,Overcast,2016-01-16 11:53:00,28.0,,-,82,N/A,30.10,33.1,,4:53 AM,10.0,SSE,4.6,150,Boise,Idaho,83701
5,Overcast,2016-01-16 12:53:00,28.9,,-,92,N/A,30.11,30.9,,5:53 AM,9.0,NE,5.8,50,Boise,Idaho,83701
6,Overcast,2016-01-16 13:53:00,28.9,,-,88,N/A,30.09,32.0,,6:53 AM,10.0,ESE,4.6,120,Boise,Idaho,83701
7,Overcast,2016-01-16 14:53:00,28.0,,-,76,N/A,30.08,35.1,,7:53 AM,10.0,SE,9.2,130,Boise,Idaho,83701
8,Light Snow,2016-01-16 15:17:00,28.4,Snow,-,81,0.00,30.03,33.8,,8:17 AM,3.0,SE,10.4,130,Boise,Idaho,83701
9,Light Snow,2016-01-16 15:29:00,30.2,Snow,-,87,0.00,30.04,33.8,,8:29 AM,2.5,SE,9.2,140,Boise,Idaho,83701
10,Light Snow,2016-01-16 15:45:00,30.2,Snow,-,87,0.01,30.04,33.8,,8:45 AM,1.5,SE,10.4,130,Boise,Idaho,83701
11,Light Snow,2016-01-16 15:53:00,30.9,Snow,-,92,0.01,30.09,33.1,,8:53 AM,2.0,ESE,10.4,120,Boise,Idaho,83701
12,Light Snow,2016-01-16 16:04:00,30.2,Snow,-,87,0.00,30.03,33.8,,9:04 AM,1.8,ESE,10.4,120,Boise,Idaho,83701
13,Light Snow,2016-01-16 16:17:00,30.2,Snow,-,87,0.01,30.01,33.8,,9:17 AM,2.5,ESE,10.4,120,Boise,Idaho,83701
14,Light Snow,2016-01-16 16:25:00,30.2,Snow,-,87,0.01,30.01,33.8,,9:25 AM,2.5,ESE,10.4,120,Boise,Idaho,83701
15,Light Snow,2016-01-16 16:35:00,30.2,Snow,-,87,0.01,30.02,33.8,,9:35 AM,2.5,SE,11.5,130,Boise,Idaho,83701
16,Light Snow,2016-01-16 16:53:00,30.9,Snow,-,92,0.01,30.07,33.1,,9:53 AM,2.5,SE,9.2,130,Boise,Idaho,83701
17,Light Snow,2016-01-16 17:53:00,30.9,Snow,-,92,0.00,30.10,33.1,,10:53 AM,2.5,SE,8.1,140,Boise,Idaho,83701
18,Light Snow,2016-01-16 18:16:00,32.0,Snow,-,93,0.01,30.03,33.8,,11:16 AM,1.8,ESE,10.4,110,Boise,Idaho,83701
19,Light Snow,2016-01-16 18:24:00,32.0,Snow,-,93,0.02,30.03,33.8,,11:24 AM,3.0,ESE,9.2,120,Boise,Idaho,83701
20,Overcast,2016-01-16 18:40:00,32.0,,-,93,0.02,30.02,33.8,,11:40 AM,9.0,ESE,9.2,120,Boise,Idaho,83701
21,Overcast,2016-01-16 18:53:00,32.0,,-,92,0.02,30.06,34.0,,11:53 AM,10.0,ESE,11.5,120,Boise,Idaho,83701
22,Overcast,2016-01-16 19:53:00,33.1,,-,86,0.00,30.03,37.0,,12:53 PM,10.0,SE,11.5,130,Boise,Idaho,83701
23,Overcast,2016-01-16 20:53:00,32.0,,-,82,N/A,30.03,37.0,,1:53 PM,10.0,SE,10.4,140,Boise,Idaho,83701
24,Light Rain,2016-01-16 21:53:00,32.0,Rain,-,82,0.00,30.02,37.0,,2:53 PM,10.0,SE,9.2,130,Boise,Idaho,83701
25,Overcast,2016-01-16 22:53:00,33.1,,-,86,0.00,30.04,37.0,,3:53 PM,10.0,SE,8.1,130,Boise,Idaho,83701
26,Clear,2016-01-16 23:53:00,33.1,,-,83,N/A,30.03,37.9,,4:53 PM,10.0,SE,8.1,130,Boise,Idaho,83701
27,Overcast,2016-01-17 00:53:00,32.0,,-,86,N/A,30.06,36.0,,5:53 PM,10.0,SE,6.9,140,Boise,Idaho,83701
28,Light Rain,2016-01-17 01:53:00,33.1,Rain,-,89,0.00,30.07,36.0,,6:53 PM,10.0,ESE,6.9,120,Boise,Idaho,83701
29,Mostly Cloudy,2016-01-17 02:53:00,32.0,,-,89,0.00,30.11,35.1,,7:53 PM,10.0,Calm,Calm,0,Boise,Idaho,83701
30,Clear,2016-01-17 03:53:00,32.0,,-,89,N/A,30.14,35.1,,8:53 PM,10.0,Calm,Calm,0,Boise,Idaho,83701
31,Clear,2016-01-17 04:53:00,30.0,,-,96,N/A,30.15,30.9,,9:53 PM,10.0,Calm,Calm,0,Boise,Idaho,83701
32,Clear,2016-01-17 05:53:00,28.0,,-,92,N/A,30.18,30.0,,10:53 PM,10.0,Calm,Calm,0,Boise,Idaho,83701
33,Clear,2016-01-17 06:53:00,28.9,,-,96,N/A,30.19,30.0,,11:53 PM,10.0,Calm,Calm,0,Boise,Idaho,83701
0,Clear,2016-01-17 07:53:00,28.0,,-,96,N/A,30.20,28.9,,12:53 AM,9.0,Calm,Calm,0,Boise,Idaho,83701
1,Scattered Clouds,2016-01-17 08:00:00,28.4,,-,100,N/A,30.14,28.4,,1:00 AM,8.0,Calm,Calm,0,Boise,Idaho,83701
2,Mostly Cloudy,2016-01-17 08:09:00,26.6,,-,93,N/A,30.14,28.4,,1:09 AM,8.0,Calm,Calm,0,Boise,Idaho,83701
3,Overcast,2016-01-17 08:19:00,26.6,,-,93,N/A,30.14,28.4,,1:19 AM,1.5,Calm,Calm,0,Boise,Idaho,83701
4,Overcast,2016-01-17 08:22:00,26.6,,-,93,N/A,30.14,28.4,,1:22 AM,0.8,Calm,Calm,0,Boise,Idaho,83701
5,Light Freezing Fog,2016-01-17 08:53:00,28.0,Fog,-,96,N/A,30.19,28.9,,1:53 AM,0.5,Calm,Calm,0,Boise,Idaho,83701
6,Light Freezing Fog,2016-01-17 09:04:00,28.4,Fog,-,100,N/A,30.13,28.4,,2:04 AM,0.2,Calm,Calm,0,Boise,Idaho,83701
7,Light Freezing Fog,2016-01-17 09:14:00,28.4,Fog,-,93,N/A,30.13,30.2,,2:14 AM,0.2,Calm,Calm,0,Boise,Idaho,83701
8,Light Freezing Fog,2016-01-17 09:53:00,28.9,Fog,-,100,N/A,30.19,28.9,,2:53 AM,0.2,Calm,Calm,0,Boise,Idaho,83701
9,Light Freezing Fog,2016-01-17 10:01:00,28.4,Fog,-,100,N/A,30.14,28.4,,3:01 AM,0.2,Calm,Calm,0,Boise,Idaho,83701
10,Light Freezing Fog,2016-01-17 10:19:00,26.6,Fog,-,93,N/A,30.14,28.4,,3:19 AM,0.2,Calm,Calm,0,Boise,Idaho,83701
11,Light Freezing Fog,2016-01-17 10:53:00,27.0,Fog,-,96,N/A,30.21,28.0,,3:53 AM,0.2,WNW,5.8,300,Boise,Idaho,83701
12,Light Freezing Fog,2016-01-17 11:46:00,26.6,Fog,-,100,N/A,30.16,26.6,,4:46 AM,0.2,Calm,Calm,0,Boise,Idaho,83701
13,Light Freezing Fog,2016-01-17 11:53:00,26.1,Fog,-,96,N/A,30.21,27.0,,4:53 AM,0.2,Calm,Calm,0,Boise,Idaho,83701
14,Light Freezing Fog,2016-01-17 12:53:00,25.0,Fog,-,96,N/A,30.20,26.1,,5:53 AM,0.2,Calm,Calm,0,Boise,Idaho,83701
15,Light Freezing Fog,2016-01-17 13:23:00,24.8,Fog,-,100,N/A,30.13,24.8,,6:23 AM,0.2,Calm,Calm,0,Boise,Idaho,83701
16,Light Freezing Fog,2016-01-17 13:33:00,24.8,Fog,-,100,N/A,30.14,24.8,,6:33 AM,0.2,East,3.5,80,Boise,Idaho,83701
17,Light Freezing Fog,2016-01-17 13:40:00,24.8,Fog,-,93,N/A,30.14,26.6,,6:40 AM,0.5,East,3.5,80,Boise,Idaho,83701
18,Light Freezing Fog,2016-01-17 13:53:00,24.1,Fog,-,92,N/A,30.20,26.1,,6:53 AM,0.5,Calm,Calm,0,Boise,Idaho,83701
19,Light Freezing Fog,2016-01-17 14:35:00,24.8,Fog,-,93,N/A,30.15,26.6,,7:35 AM,0.5,Calm,Calm,0,Boise,Idaho,83701
20,Light Freezing Fog,2016-01-17 14:53:00,24.1,Fog,-,89,N/A,30.20,27.0,,7:53 AM,0.5,Calm,Calm,0,Boise,Idaho,83701
21,Light Freezing Fog,2016-01-17 15:53:00,24.1,Fog,-,89,N/A,30.20,27.0,,8:53 AM,0.2,SW,3.5,220,Boise,Idaho,83701
22,Light Freezing Fog,2016-01-17 16:18:00,24.8,Fog,-,86,N/A,30.13,28.4,,9:18 AM,0.5,Calm,Calm,0,Boise,Idaho,83701
23,Light Freezing Fog,2016-01-17 16:22:00,24.8,Fog,-,86,N/A,30.13,28.4,,9:22 AM,0.5,SSE,3.5,160,Boise,Idaho,83701
24,Mostly Cloudy,2016-01-17 16:25:00,24.8,,-,86,N/A,30.13,28.4,,9:25 AM,10.0,SE,5.8,140,Boise,Idaho,83701
25,Clear,2016-01-17 16:53:00,30.0,,-,92,N/A,30.22,32.0,,9:53 AM,10.0,SSE,8.1,160,Boise,Idaho,83701
26,Overcast,2016-01-17 17:53:00,28.9,,-,96,N/A,30.22,30.0,,10:53 AM,9.0,Calm,Calm,0,Boise,Idaho,83701
27,Mostly Cloudy,2016-01-17 18:53:00,30.0,,-,73,N/A,30.17,37.9,,11:53 AM,10.0,ESE,16.1,120,Boise,Idaho,83701
28,Scattered Clouds,2016-01-17 19:53:00,30.9,,-,67,N/A,30.13,41.0,,12:53 PM,10.0,SE,9.2,130,Boise,Idaho,83701
29,Overcast,2016-01-17 20:53:00,30.0,,-,62,N/A,30.09,42.1,,1:53 PM,10.0,ESE,13.8,120,Boise,Idaho,83701
30,Overcast,2016-01-17 21:53:00,30.0,,-,62,N/A,30.05,42.1,,2:53 PM,10.0,ESE,13.8,120,Boise,Idaho,83701
31,Light Rain,2016-01-17 22:53:00,30.9,Rain,-,65,0.00,30.04,42.1,,3:53 PM,10.0,ESE,11.5,120,Boise,Idaho,83701
32,Light Rain,2016-01-17 23:53:00,33.1,Rain,25.3,65,0.01,30.02,44.1,,4:53 PM,10.0,East,16.1,90,Boise,Idaho,83701
33,Light Rain,2016-01-18 00:53:00,34.0,Rain,-,71,0.00,30.02,43.0,,5:53 PM,10.0,ESE,15.0,110,Boise,Idaho,83701
34,Light Rain,2016-01-18 01:53:00,35.1,Rain,27.6,71,0.00,30.02,44.1,,6:53 PM,10.0,ESE,18.4,110,Boise,Idaho,83701
35,Light Rain,2016-01-18 02:53:00,36.0,Rain,29.9,71,0.01,30.04,45.0,,7:53 PM,10.0,SE,10.4,130,Boise,Idaho,83701
36,Light Rain,2016-01-18 03:53:00,36.0,Rain,-,76,0.01,30.03,43.0,,8:53 PM,10.0,ESE,12.7,120,Boise,Idaho,83701
37,Overcast,2016-01-18 04:53:00,36.0,,-,76,0.00,29.99,43.0,,9:53 PM,10.0,ESE,13.8,110,Boise,Idaho,83701
38,Overcast,2016-01-18 05:53:00,36.0,,-,73,0.00,30.00,44.1,,10:53 PM,10.0,ESE,18.4,120,Boise,Idaho,83701
39,Mostly Cloudy,2016-01-18 06:53:00,36.0,,-,73,N/A,29.97,44.1,,11:53 PM,10.0,ESE,16.1,120,Boise,Idaho,83701
0,Mostly Cloudy,2016-01-18 07:53:00,35.1,,-,68,N/A,29.95,45.0,,12:53 AM,10.0,ESE,17.3,120,Boise,Idaho,83701
1,Overcast,2016-01-18 08:53:00,35.1,,-,68,N/A,29.94,45.0,,1:53 AM,10.0,SE,16.1,130,Boise,Idaho,83701
2,Light Rain,2016-01-18 09:53:00,36.0,Rain,-,71,0.00,29.97,45.0,,2:53 AM,10.0,SE,12.7,140,Boise,Idaho,83701
3,Light Rain,2016-01-18 10:53:00,37.0,Rain,-,76,0.04,30.00,44.1,,3:53 AM,10.0,SE,8.1,140,Boise,Idaho,83701
4,Light Rain,2016-01-18 11:53:00,37.9,Rain,-,85,0.03,30.00,42.1,,4:53 AM,10.0,ESE,6.9,120,Boise,Idaho,83701
5,Mostly Cloudy,2016-01-18 12:53:00,37.0,,-,89,0.01,30.02,39.9,,5:53 AM,10.0,ESE,8.1,120,Boise,Idaho,83701
6,Overcast,2016-01-18 13:53:00,37.0,,-,93,N/A,30.04,39.0,,6:53 AM,10.0,WNW,6.9,300,Boise,Idaho,83701
7,Overcast,2016-01-18 14:13:00,37.4,,-,100,N/A,30.04,37.4,,7:13 AM,10.0,West,4.6,280,Boise,Idaho,83701
8,Mostly Cloudy,2016-01-18 14:53:00,35.1,,-,93,N/A,30.08,37.0,,7:53 AM,10.0,Calm,Calm,0,Boise,Idaho,83701
9,Overcast,2016-01-18 15:53:00,34.0,,-,93,N/A,30.09,36.0,,8:53 AM,10.0,Calm,Calm,0,Boise,Idaho,83701
10,Clear,2016-01-18 16:53:00,34.0,,-,96,N/A,30.11,35.1,,9:53 AM,10.0,Calm,Calm,0,Boise,Idaho,83701
11,Clear,2016-01-18 17:53:00,35.1,,-,86,N/A,30.12,39.0,,10:53 AM,10.0,Calm,Calm,0,Boise,Idaho,83701
12,Clear,2016-01-18 18:53:00,36.0,,-,79,N/A,30.11,42.1,,11:53 AM,10.0,North,4.6,360,Boise,Idaho,83701
13,Clear,2016-01-18 19:53:00,37.0,,-,76,N/A,30.10,44.1,,12:53 PM,10.0,NNW,4.6,340,Boise,Idaho,83701
14,Clear,2016-01-18 20:53:00,37.0,,-,74,N/A,30.09,45.0,,1:53 PM,10.0,North,9.2,350,Boise,Idaho,83701
15,Partly Cloudy,2016-01-18 21:53:00,36.0,,-,68,N/A,30.09,46.0,,2:53 PM,10.0,NW,5.8,310,Boise,Idaho,83701
16,Clear,2016-01-18 22:53:00,34.0,,-,63,N/A,30.09,46.0,,3:53 PM,10.0,WNW,3.5,290,Boise,Idaho,83701
17,Clear,2016-01-18 23:53:00,34.0,,-,63,N/A,30.11,46.0,,4:53 PM,10.0,West,4.6,270,Boise,Idaho,83701
18,Clear,2016-01-19 00:53:00,34.0,,-,73,N/A,30.13,42.1,,5:53 PM,10.0,Calm,Calm,0,Boise,Idaho,83701
19,Clear,2016-01-19 01:53:00,30.9,,-,82,N/A,30.15,36.0,,6:53 PM,10.0,ESE,6.9,120,Boise,Idaho,83701
20,Clear,2016-01-19 02:53:00,32.0,,-,89,N/A,30.16,35.1,,7:53 PM,10.0,SE,5.8,130,Boise,Idaho,83701
21,Clear,2016-01-19 03:53:00,33.1,,-,89,N/A,30.16,36.0,,8:53 PM,10.0,SSE,9.2,160,Boise,Idaho,83701
22,Clear,2016-01-19 04:53:00,32.0,,-,89,N/A,30.17,35.1,,9:53 PM,10.0,SE,9.2,140,Boise,Idaho,83701
23,Clear,2016-01-19 05:53:00,30.9,,-,89,N/A,30.18,34.0,,10:53 PM,10.0,SE,9.2,140,Boise,Idaho,83701
24,Clear,2016-01-19 06:53:00,30.9,,-,82,N/A,30.16,36.0,,11:53 PM,10.0,SE,11.5,130,Boise,Idaho,83701
0,Clear,2016-01-19 07:53:00,30.0,,-,73,N/A,30.14,37.9,,12:53 AM,10.0,SE,12.7,130,Boise,Idaho,83701
1,Scattered Clouds,2016-01-19 08:53:00,28.9,,-,70,N/A,30.12,37.9,,1:53 AM,10.0,ESE,11.5,120,Boise,Idaho,83701
2,Mostly Cloudy,2016-01-19 09:53:00,30.0,,-,70,N/A,30.12,39.0,,2:53 AM,10.0,ESE,13.8,120,Boise,Idaho,83701
3,Overcast,2016-01-19 10:53:00,28.9,,-,65,N/A,30.11,39.9,,3:53 AM,10.0,ESE,12.7,120,Boise,Idaho,83701
4,Light Rain,2016-01-19 11:53:00,30.0,Rain,-,70,0.00,30.09,39.0,,4:53 AM,10.0,ESE,11.5,120,Boise,Idaho,83701
5,Light Rain,2016-01-19 12:53:00,30.9,Rain,-,73,0.00,30.10,39.0,,5:53 AM,10.0,ESE,13.8,120,Boise,Idaho,83701
6,Mostly Cloudy,2016-01-19 13:53:00,32.0,,-,76,0.00,30.07,39.0,,6:53 AM,10.0,ESE,15.0,110,Boise,Idaho,83701
7,Clear,2016-01-19 14:53:00,32.0,,-,76,N/A,30.06,39.0,,7:53 AM,10.0,ESE,15.0,110,Boise,Idaho,83701
8,Clear,2016-01-19 15:53:00,30.9,,-,73,N/A,30.06,39.0,,8:53 AM,10.0,SE,12.7,130,Boise,Idaho,83701
9,Mostly Cloudy,2016-01-19 16:53:00,30.9,,21.9,67,N/A,30.04,41.0,,9:53 AM,10.0,SE,16.1,130,Boise,Idaho,83701
10,Clear,2016-01-19 17:53:00,30.0,,-,60,N/A,30.01,43.0,,10:53 AM,10.0,SE,16.1,130,Boise,Idaho,83701
11,Overcast,2016-01-19 18:53:00,30.9,,-,60,N/A,30.00,44.1,,11:53 AM,10.0,SE,13.8,140,Boise,Idaho,83701
12,Overcast,2016-01-19 19:53:00,28.9,,-,55,N/A,29.95,44.1,,12:53 PM,10.0,SE,17.3,130,Boise,Idaho,83701
13,Overcast,2016-01-19 20:53:00,30.0,,24.2,54,0.00,29.89,46.0,,1:53 PM,10.0,SE,17.3,140,Boise,Idaho,83701
14,Overcast,2016-01-19 21:53:00,30.0,,28.8,56,N/A,29.86,45.0,,2:53 PM,10.0,SE,21.9,130,Boise,Idaho,83701
15,Light Rain,2016-01-19 22:43:00,30.2,Rain,33.4,57,0.00,29.84,44.6,,3:43 PM,10.0,SE,23.0,140,Boise,Idaho,83701
16,Light Rain,2016-01-19 22:53:00,32.0,Rain,39.1,67,0.00,29.86,42.1,,3:53 PM,9.0,SE,20.7,140,Boise,Idaho,83701
17,Light Rain,2016-01-19 23:53:00,35.1,Rain,34.5,89,0.04,29.83,37.9,,4:53 PM,9.0,ESE,25.3,120,Boise,Idaho,83701
18,Light Rain,2016-01-20 00:06:00,35.6,Rain,34.5,93,0.01,29.78,37.4,,5:06 PM,8.0,ESE,24.2,120,Boise,Idaho,83701
19,Light Rain,2016-01-20 00:53:00,39.0,Rain,33.4,100,0.03,29.80,39.0,,5:53 PM,10.0,ESE,23.0,120,Boise,Idaho,83701
20,Overcast,2016-01-20 01:53:00,39.9,,24.2,96,0.00,29.81,41.0,,6:53 PM,10.0,ESE,19.6,120,Boise,Idaho,83701
21,Mostly Cloudy,2016-01-20 02:53:00,41.0,,24.2,96,N/A,29.83,42.1,,7:53 PM,10.0,SE,20.7,130,Boise,Idaho,83701
22,Overcast,2016-01-20 03:53:00,39.0,,-,89,N/A,29.85,42.1,,8:53 PM,10.0,SE,17.3,130,Boise,Idaho,83701
23,Overcast,2016-01-20 04:53:00,35.1,,-,79,N/A,29.86,41.0,,9:53 PM,10.0,SE,10.4,130,Boise,Idaho,83701
24,Overcast,2016-01-20 05:53:00,35.1,,-,79,N/A,29.87,41.0,,10:53 PM,10.0,ESE,9.2,120,Boise,Idaho,83701
25,Light Rain,2016-01-20 06:44:00,35.6,Rain,-,81,0.03,29.89,41.0,,11:44 PM,7.0,Calm,Calm,0,Boise,Idaho,83701
26,Overcast,2016-01-20 06:53:00,35.1,,-,79,0.03,29.91,41.0,,11:53 PM,10.0,Calm,Calm,0,Boise,Idaho,83701
0,Overcast,2016-01-20 07:53:00,34.0,,-,86,N/A,29.94,37.9,,12:53 AM,10.0,ESE,4.6,120,Boise,Idaho,83701
1,Overcast,2016-01-20 08:53:00,32.0,,-,70,N/A,29.96,41.0,,1:53 AM,10.0,West,11.5,260,Boise,Idaho,83701
2,Scattered Clouds,2016-01-20 09:53:00,27.0,,-,62,N/A,30.00,39.0,,2:53 AM,10.0,West,11.5,270,Boise,Idaho,83701
3,Overcast,2016-01-20 10:53:00,27.0,,-,67,N/A,30.06,37.0,,3:53 AM,10.0,WNW,4.6,300,Boise,Idaho,83701
4,Overcast,2016-01-20 11:53:00,27.0,,-,67,N/A,30.09,37.0,,4:53 AM,10.0,NNW,5.8,330,Boise,Idaho,83701
5,Overcast,2016-01-20 12:53:00,27.0,,-,67,0.00,30.12,37.0,,5:53 AM,10.0,Calm,Calm,0,Boise,Idaho,83701
6,Overcast,2016-01-20 13:53:00,28.0,,-,70,N/A,30.15,37.0,,6:53 AM,10.0,NNW,5.8,340,Boise,Idaho,83701
7,Overcast,2016-01-20 14:53:00,28.0,,-,70,N/A,30.18,37.0,,7:53 AM,10.0,NNE,3.5,30,Boise,Idaho,83701
8,Overcast,2016-01-20 15:53:00,28.9,,-,76,N/A,30.22,36.0,,8:53 AM,10.0,NW,4.6,320,Boise,Idaho,83701
9,Overcast,2016-01-20 16:53:00,28.9,,-,65,N/A,30.25,39.9,,9:53 AM,10.0,Calm,Calm,0,Boise,Idaho,83701
10,Overcast,2016-01-20 17:53:00,28.0,,-,63,N/A,30.28,39.9,,10:53 AM,10.0,NW,8.1,320,Boise,Idaho,83701
11,Mostly Cloudy,2016-01-20 18:53:00,28.0,,-,58,N/A,30.30,42.1,,11:53 AM,10.0,NW,9.2,320,Boise,Idaho,83701
12,Scattered Clouds,2016-01-20 19:53:00,27.0,,21.9,53,N/A,30.30,43.0,,12:53 PM,10.0,NW,11.5,310,Boise,Idaho,83701
13,Partly Cloudy,2016-01-20 20:53:00,28.0,,-,52,N/A,30.29,45.0,,1:53 PM,10.0,NNW,13.8,330,Boise,Idaho,83701
14,Clear,2016-01-20 21:53:00,27.0,,-,49,N/A,30.29,45.0,,2:53 PM,10.0,NW,11.5,310,Boise,Idaho,83701
15,Clear,2016-01-20 22:53:00,26.1,,-,48,N/A,30.30,45.0,,3:53 PM,10.0,NW,9.2,320,Boise,Idaho,83701
16,Clear,2016-01-20 23:53:00,26.1,,-,49,N/A,30.32,44.1,,4:53 PM,10.0,North,6.9,350,Boise,Idaho,83701
17,Clear,2016-01-21 00:53:00,27.0,,-,57,N/A,30.35,41.0,,5:53 PM,10.0,NE,3.5,40,Boise,Idaho,83701
18,Clear,2016-01-21 01:53:00,27.0,,-,67,N/A,30.36,37.0,,6:53 PM,10.0,SE,3.5,130,Boise,Idaho,83701
19,Clear,2016-01-21 02:53:00,28.0,,-,73,N/A,30.38,36.0,,7:53 PM,10.0,ESE,4.6,120,Boise,Idaho,83701
20,Clear,2016-01-21 03:53:00,28.0,,-,76,N/A,30.39,35.1,,8:53 PM,10.0,SE,6.9,130,Boise,Idaho,83701
21,Clear,2016-01-21 04:53:00,27.0,,-,72,N/A,30.38,35.1,,9:53 PM,10.0,SE,6.9,140,Boise,Idaho,83701
22,Partly Cloudy,2016-01-21 05:53:00,27.0,,-,70,N/A,30.40,36.0,,10:53 PM,10.0,ESE,9.2,120,Boise,Idaho,83701
23,Scattered Clouds,2016-01-21 06:53:00,27.0,,-,65,N/A,30.39,37.9,,11:53 PM,10.0,SE,9.2,130,Boise,Idaho,83701
0,Overcast,2016-01-21 07:53:00,26.1,,-,62,N/A,30.38,37.9,,12:53 AM,10.0,SE,11.5,130,Boise,Idaho,83701
1,Overcast,2016-01-21 08:53:00,26.1,,-,62,N/A,30.35,37.9,,1:53 AM,10.0,ESE,11.5,120,Boise,Idaho,83701
2,Overcast,2016-01-21 09:53:00,25.0,,-,60,N/A,30.37,37.9,,2:53 AM,10.0,SE,10.4,140,Boise,Idaho,83701
3,Overcast,2016-01-21 10:53:00,25.0,,-,57,N/A,30.37,39.0,,3:53 AM,10.0,ESE,11.5,120,Boise,Idaho,83701
4,Overcast,2016-01-21 11:53:00,24.1,,-,55,N/A,30.37,39.0,,4:53 AM,10.0,SE,9.2,130,Boise,Idaho,83701
5,Overcast,2016-01-21 12:53:00,24.1,,-,55,N/A,30.36,39.0,,5:53 AM,10.0,ESE,10.4,120,Boise,Idaho,83701
6,Overcast,2016-01-21 13:53:00,23.0,,-,51,N/A,30.37,39.9,,6:53 AM,10.0,SE,11.5,130,Boise,Idaho,83701
7,Overcast,2016-01-21 14:53:00,24.1,,-,55,N/A,30.38,39.0,,7:53 AM,10.0,SE,10.4,140,Boise,Idaho,83701
8,Clear,2016-01-21 15:53:00,24.1,,-,55,N/A,30.38,39.0,,8:53 AM,10.0,SE,8.1,140,Boise,Idaho,83701
9,Clear,2016-01-21 16:53:00,26.1,,-,60,N/A,30.39,39.0,,9:53 AM,10.0,SE,11.5,140,Boise,Idaho,83701
10,Scattered Clouds,2016-01-21 17:53:00,26.1,,-,53,N/A,30.40,42.1,,10:53 AM,10.0,SSE,9.2,150,Boise,Idaho,83701
11,Clear,2016-01-21 18:53:00,28.0,,-,53,N/A,30.38,44.1,,11:53 AM,10.0,NNE,4.6,30,Boise,Idaho,83701
12,Partly Cloudy,2016-01-21 19:53:00,24.1,,-,42,N/A,30.35,46.0,,12:53 PM,10.0,SE,9.2,130,Boise,Idaho,83701
13,Clear,2016-01-21 20:53:00,24.1,,-,41,N/A,30.33,46.9,,1:53 PM,10.0,SE,10.4,130,Boise,Idaho,83701
14,Mostly Cloudy,2016-01-21 21:53:00,25.0,,-,42,N/A,30.30,46.9,,2:53 PM,10.0,SE,8.1,140,Boise,Idaho,83701
15,Clear,2016-01-21 22:53:00,27.0,,-,47,N/A,30.29,46.0,,3:53 PM,10.0,SSE,8.1,150,Boise,Idaho,83701
16,Scattered Clouds,2016-01-21 23:53:00,30.0,,-,60,N/A,30.29,43.0,,4:53 PM,10.0,SSE,13.8,160,Boise,Idaho,83701
17,Clear,2016-01-22 00:53:00,30.0,,-,68,N/A,30.28,39.9,,5:53 PM,10.0,SSE,11.5,150,Boise,Idaho,83701
18,Clear,2016-01-22 01:53:00,28.0,,-,68,N/A,30.29,37.9,,6:53 PM,10.0,SSE,12.7,150,Boise,Idaho,83701
19,Partly Cloudy,2016-01-22 02:53:00,27.0,,23.0,65,N/A,30.25,37.9,,7:53 PM,10.0,SSE,15.0,160,Boise,Idaho,83701
20,Clear,2016-01-22 03:53:00,26.1,,-,65,N/A,30.24,37.0,,8:53 PM,10.0,SSE,12.7,150,Boise,Idaho,83701
21,Clear,2016-01-22 04:53:00,26.1,,-,65,N/A,30.25,37.0,,9:53 PM,10.0,SSE,9.2,160,Boise,Idaho,83701
22,Clear,2016-01-22 05:53:00,25.0,,-,57,N/A,30.19,39.0,,10:53 PM,10.0,SSE,10.4,150,Boise,Idaho,83701
23,Clear,2016-01-22 06:53:00,24.1,,-,55,N/A,30.17,39.0,,11:53 PM,10.0,SSE,11.5,160,Boise,Idaho,83701
0,Clear,2016-01-22 07:53:00,25.0,,-,60,N/A,30.17,37.9,,12:53 AM,10.0,South,11.5,170,Boise,Idaho,83701
1,Clear,2016-01-22 08:53:00,26.1,,-,65,N/A,30.16,37.0,,1:53 AM,10.0,South,9.2,180,Boise,Idaho,83701
2,Clear,2016-01-22 09:53:00,26.1,,-,62,N/A,30.13,37.9,,2:53 AM,10.0,SSE,10.4,160,Boise,Idaho,83701
3,Clear,2016-01-22 10:53:00,26.1,,-,62,N/A,30.13,37.9,,3:53 AM,10.0,SSE,11.5,160,Boise,Idaho,83701
4,Clear,2016-01-22 11:53:00,26.1,,19.6,58,N/A,30.11,39.9,,4:53 AM,10.0,SSE,12.7,160,Boise,Idaho,83701
5,Clear,2016-01-22 12:53:00,26.1,,-,60,N/A,30.12,39.0,,5:53 AM,10.0,East,5.8,100,Boise,Idaho,83701
6,Mostly Cloudy,2016-01-22 13:53:00,25.0,,25.3,53,N/A,30.06,41.0,,6:53 AM,10.0,SE,15.0,140,Boise,Idaho,83701
7,Partly Cloudy,2016-01-22 14:53:00,26.1,,-,53,N/A,30.06,42.1,,7:53 AM,10.0,SSW,13.8,210,Boise,Idaho,83701
8,Clear,2016-01-22 15:01:00,26.6,,-,57,N/A,30.04,41.0,,8:01 AM,10.0,SSW,12.7,210,Boise,Idaho,83701
9,Overcast,2016-01-22 15:53:00,26.1,,-,55,N/A,30.08,41.0,,8:53 AM,10.0,SSE,15.0,160,Boise,Idaho,83701
10,Mostly Cloudy,2016-01-22 16:53:00,23.0,,23.0,43,N/A,30.09,44.1,,9:53 AM,10.0,SSE,13.8,150,Boise,Idaho,83701
11,Clear,2016-01-22 17:53:00,26.1,,-,46,N/A,30.10,46.0,,10:53 AM,10.0,South,13.8,170,Boise,Idaho,83701
12,Overcast,2016-01-22 18:53:00,28.0,,-,48,N/A,30.07,46.9,,11:53 AM,10.0,SSE,18.4,150,Boise,Idaho,83701
13,Overcast,2016-01-22 19:53:00,28.9,,-,51,N/A,30.06,46.0,,12:53 PM,10.0,SSE,13.8,150,Boise,Idaho,83701
14,Overcast,2016-01-22 20:53:00,28.0,,25.3,48,N/A,30.06,46.9,,1:53 PM,10.0,SE,15.0,140,Boise,Idaho,83701
15,Overcast,2016-01-22 21:53:00,28.9,,24.2,51,N/A,30.05,46.0,,2:53 PM,10.0,SSE,13.8,160,Boise,Idaho,83701
16,Clear,2016-01-22 22:53:00,28.9,,-,53,N/A,30.05,45.0,,3:53 PM,10.0,SE,6.9,130,Boise,Idaho,83701
17,Mostly Cloudy,2016-01-22 23:53:00,28.9,,-,58,N/A,30.06,43.0,,4:53 PM,10.0,SSE,8.1,150,Boise,Idaho,83701
18,Overcast,2016-01-23 00:53:00,27.0,,-,55,N/A,30.08,42.1,,5:53 PM,10.0,SE,15.0,140,Boise,Idaho,83701
19,Overcast,2016-01-23 01:53:00,28.0,,-,53,N/A,30.08,44.1,,6:53 PM,10.0,ESE,16.1,120,Boise,Idaho,83701
20,Overcast,2016-01-23 02:53:00,34.0,,25.3,73,0.00,30.08,42.1,,7:53 PM,10.0,ESE,17.3,110,Boise,Idaho,83701
21,Overcast,2016-01-23 03:53:00,35.1,,26.5,76,N/A,30.07,42.1,,8:53 PM,10.0,SE,21.9,130,Boise,Idaho,83701
22,Overcast,2016-01-23 04:53:00,35.1,,-,71,N/A,30.03,44.1,,9:53 PM,10.0,ESE,21.9,120,Boise,Idaho,83701
23,Overcast,2016-01-23 05:53:00,35.1,,-,79,N/A,30.03,41.0,,10:53 PM,10.0,SE,12.7,140,Boise,Idaho,83701
24,Overcast,2016-01-23 06:53:00,34.0,,-,79,N/A,30.02,39.9,,11:53 PM,10.0,SSE,17.3,150,Boise,Idaho,83701
0,Partly Cloudy,2016-01-23 07:53:00,35.1,,-,79,N/A,29.99,41.0,,12:53 AM,10.0,SE,15.0,140,Boise,Idaho,83701
1,Overcast,2016-01-23 08:53:00,35.1,,-,74,N/A,29.96,43.0,,1:53 AM,10.0,SE,9.2,130,Boise,Idaho,83701
2,Overcast,2016-01-23 09:53:00,34.0,,16.1,65,N/A,29.93,45.0,,2:53 AM,10.0,SSE,8.1,150,Boise,Idaho,83701
3,Mostly Cloudy,2016-01-23 10:53:00,34.0,,-,82,N/A,29.92,39.0,,3:53 AM,10.0,SSE,15.0,150,Boise,Idaho,83701
4,Clear,2016-01-23 11:53:00,34.0,,-,79,N/A,29.89,39.9,,4:53 AM,10.0,SSE,9.2,160,Boise,Idaho,83701
5,Overcast,2016-01-23 12:53:00,34.0,,-,79,N/A,29.89,39.9,,5:53 AM,10.0,SE,16.1,140,Boise,Idaho,83701
6,Overcast,2016-01-23 13:53:00,36.0,,-,82,0.01,29.87,41.0,,6:53 AM,10.0,SSE,9.2,150,Boise,Idaho,83701
7,Overcast,2016-01-23 14:53:00,36.0,,-,71,0.00,29.84,45.0,,7:53 AM,10.0,ESE,11.5,120,Boise,Idaho,83701
8,Overcast,2016-01-23 15:53:00,36.0,,-,73,N/A,29.83,44.1,,8:53 AM,10.0,SSE,8.1,150,Boise,Idaho,83701
9,Overcast,2016-01-23 16:53:00,37.0,,19.6,80,N/A,29.83,43.0,,9:53 AM,10.0,SSE,10.4,160,Boise,Idaho,83701
10,Overcast,2016-01-23 17:53:00,36.0,,-,79,N/A,29.88,42.1,,10:53 AM,10.0,South,15.0,180,Boise,Idaho,83701
11,Overcast,2016-01-23 18:53:00,35.1,,-,76,0.00,29.88,42.1,,11:53 AM,10.0,ESE,12.7,110,Boise,Idaho,83701
12,Overcast,2016-01-23 19:53:00,35.1,,21.9,71,N/A,29.85,44.1,,12:53 PM,10.0,SE,12.7,130,Boise,Idaho,83701
13,Partly Cloudy,2016-01-23 20:53:00,36.0,,26.5,66,N/A,29.83,46.9,,1:53 PM,10.0,SE,17.3,130,Boise,Idaho,83701
14,Scattered Clouds,2016-01-23 21:53:00,36.0,,26.5,61,N/A,29.81,48.9,,2:53 PM,10.0,SE,19.6,140,Boise,Idaho,83701
15,Mostly Cloudy,2016-01-23 22:53:00,37.0,,-,68,N/A,29.83,46.9,,3:53 PM,10.0,SSE,15.0,150,Boise,Idaho,83701
16,Overcast,2016-01-23 23:53:00,36.0,,19.6,68,N/A,29.85,46.0,,4:53 PM,10.0,South,9.2,190,Boise,Idaho,83701
17,Overcast,2016-01-24 00:53:00,37.0,,-,76,0.00,29.87,44.1,,5:53 PM,10.0,South,8.1,180,Boise,Idaho,83701
18,Light Rain,2016-01-24 01:53:00,37.9,Rain,-,89,0.01,29.90,41.0,,6:53 PM,10.0,SE,5.8,140,Boise,Idaho,83701
19,Mostly Cloudy,2016-01-24 02:53:00,36.0,,-,86,0.00,29.88,39.9,,7:53 PM,10.0,SE,8.1,130,Boise,Idaho,83701
20,Overcast,2016-01-24 03:53:00,35.1,,-,83,N/A,29.90,39.9,,8:53 PM,10.0,SSE,6.9,150,Boise,Idaho,83701
21,Overcast,2016-01-24 04:53:00,36.0,,-,86,0.00,29.92,39.9,,9:53 PM,10.0,Calm,Calm,0,Boise,Idaho,83701
22,Light Rain,2016-01-24 05:40:00,37.4,Rain,-,100,0.02,29.91,37.4,,10:40 PM,10.0,Calm,Calm,0,Boise,Idaho,83701
23,Overcast,2016-01-24 05:53:00,36.0,,-,93,0.02,29.94,37.9,,10:53 PM,10.0,East,4.6,80,Boise,Idaho,83701
24,Mostly Cloudy,2016-01-24 06:53:00,36.0,,-,93,N/A,29.93,37.9,,11:53 PM,10.0,South,3.5,190,Boise,Idaho,83701
0,Mostly Cloudy,2016-01-24 07:53:00,35.1,,-,93,N/A,29.93,37.0,,12:53 AM,10.0,SSE,6.9,150,Boise,Idaho,83701
1,Overcast,2016-01-24 08:53:00,35.1,,-,93,N/A,29.93,37.0,,1:53 AM,10.0,ESE,3.5,110,Boise,Idaho,83701
2,Overcast,2016-01-24 09:53:00,34.0,,-,93,N/A,29.94,36.0,,2:53 AM,10.0,SE,3.5,140,Boise,Idaho,83701
3,Overcast,2016-01-24 10:53:00,34.0,,-,93,N/A,29.96,36.0,,3:53 AM,10.0,Calm,Calm,0,Boise,Idaho,83701
4,Overcast,2016-01-24 11:53:00,33.1,,-,86,N/A,29.97,37.0,,4:53 AM,10.0,Calm,Calm,0,Boise,Idaho,83701
5,Overcast,2016-01-24 12:53:00,34.0,,-,93,N/A,30.00,36.0,,5:53 AM,10.0,Calm,Calm,0,Boise,Idaho,83701
6,Overcast,2016-01-24 13:53:00,34.0,,-,93,N/A,30.01,36.0,,6:53 AM,10.0,Calm,Calm,0,Boise,Idaho,83701
7,Mostly Cloudy,2016-01-24 14:53:00,33.1,,-,89,N/A,30.04,36.0,,7:53 AM,10.0,Calm,Calm,0,Boise,Idaho,83701
8,Overcast,2016-01-24 15:53:00,34.0,,-,86,N/A,30.05,37.9,,8:53 AM,10.0,WNW,3.5,300,Boise,Idaho,83701
9,Overcast,2016-01-24 16:53:00,33.1,,-,83,N/A,30.08,37.9,,9:53 AM,10.0,NW,8.1,310,Boise,Idaho,83701
10,Overcast,2016-01-24 17:53:00,32.0,,-,73,N/A,30.09,39.9,,10:53 AM,10.0,NW,6.9,320,Boise,Idaho,83701
11,Overcast,2016-01-24 18:53:00,33.1,,-,70,N/A,30.10,42.1,,11:53 AM,10.0,NW,9.2,320,Boise,Idaho,83701
12,Mostly Cloudy,2016-01-24 19:53:00,33.1,,-,68,N/A,30.09,43.0,,12:53 PM,10.0,NNW,10.4,330,Boise,Idaho,83701
13,Partly Cloudy,2016-01-24 20:53:00,32.0,,-,63,N/A,30.07,44.1,,1:53 PM,10.0,NW,11.5,310,Boise,Idaho,83701
14,Partly Cloudy,2016-01-24 21:53:00,30.0,,-,60,N/A,30.06,43.0,,2:53 PM,10.0,NW,12.7,320,Boise,Idaho,83701
15,Partly Cloudy,2016-01-24 22:53:00,28.9,,-,58,N/A,30.08,43.0,,3:53 PM,10.0,NNW,10.4,330,Boise,Idaho,83701
16,Clear,2016-01-24 23:53:00,28.0,,-,53,N/A,30.09,44.1,,4:53 PM,10.0,NNW,10.4,340,Boise,Idaho,83701
17,Clear,2016-01-25 00:53:00,28.0,,-,63,N/A,30.12,39.9,,5:53 PM,10.0,NW,8.1,310,Boise,Idaho,83701
18,Clear,2016-01-25 01:53:00,28.0,,-,68,N/A,30.15,37.9,,6:53 PM,10.0,NW,4.6,320,Boise,Idaho,83701
19,Clear,2016-01-25 02:53:00,28.0,,-,76,N/A,30.17,35.1,,7:53 PM,10.0,NW,4.6,310,Boise,Idaho,83701
20,Clear,2016-01-25 03:53:00,27.0,,-,75,N/A,30.18,34.0,,8:53 PM,10.0,Calm,Calm,0,Boise,Idaho,83701
21,Clear,2016-01-25 04:53:00,26.1,,-,82,N/A,30.20,30.9,,9:53 PM,10.0,Calm,Calm,0,Boise,Idaho,83701
22,Clear,2016-01-25 05:53:00,26.1,,-,82,N/A,30.20,30.9,,10:53 PM,10.0,SE,4.6,130,Boise,Idaho,83701
23,Clear,2016-01-25 06:53:00,26.1,,-,85,N/A,30.22,30.0,,11:53 PM,10.0,SE,8.1,140,Boise,Idaho,83701
0,Clear,2016-01-25 07:53:00,26.1,,-,85,N/A,30.22,30.0,,12:53 AM,10.0,SSE,3.5,160,Boise,Idaho,83701
1,Clear,2016-01-25 08:53:00,25.0,,-,79,N/A,30.23,30.9,,1:53 AM,10.0,SSE,5.8,160,Boise,Idaho,83701
2,Clear,2016-01-25 09:53:00,25.0,,-,82,N/A,30.25,30.0,,2:53 AM,10.0,SE,8.1,130,Boise,Idaho,83701
3,Clear,2016-01-25 10:53:00,25.0,,-,88,N/A,30.25,28.0,,3:53 AM,10.0,SE,4.6,130,Boise,Idaho,83701
4,Clear,2016-01-25 11:53:00,25.0,,-,88,N/A,30.26,28.0,,4:53 AM,10.0,South,4.6,170,Boise,Idaho,83701
5,Clear,2016-01-25 12:53:00,24.1,,-,85,N/A,30.29,28.0,,5:53 AM,10.0,East,4.6,80,Boise,Idaho,83701
6,Clear,2016-01-25 13:53:00,24.1,,-,85,N/A,30.31,28.0,,6:53 AM,10.0,Calm,Calm,0,Boise,Idaho,83701
7,Clear,2016-01-25 14:53:00,24.1,,-,82,N/A,30.33,28.9,,7:53 AM,10.0,ESE,4.6,120,Boise,Idaho,83701
8,Clear,2016-01-25 15:53:00,24.1,,-,82,N/A,30.33,28.9,,8:53 AM,10.0,Calm,Calm,0,Boise,Idaho,83701
9,Clear,2016-01-25 16:53:00,25.0,,-,72,N/A,30.36,33.1,,9:53 AM,10.0,Calm,Calm,0,Boise,Idaho,83701
10,Clear,2016-01-25 17:53:00,26.1,,-,73,N/A,30.36,34.0,,10:53 AM,10.0,Calm,Calm,0,Boise,Idaho,83701
11,Clear,2016-01-25 18:53:00,26.1,,-,60,N/A,30.35,39.0,,11:53 AM,10.0,Calm,Calm,0,Boise,Idaho,83701
12,Clear,2016-01-25 19:53:00,25.0,,-,53,N/A,30.34,41.0,,12:53 PM,10.0,Calm,Calm,0,Boise,Idaho,83701
13,Overcast,2016-01-25 20:53:00,26.1,,-,51,N/A,30.33,43.0,,1:53 PM,10.0,Calm,Calm,0,Boise,Idaho,83701
14,Mostly Cloudy,2016-01-25 21:53:00,28.0,,-,53,N/A,30.32,44.1,,2:53 PM,10.0,Variable,3.5,0,Boise,Idaho,83701
15,Overcast,2016-01-25 22:53:00,28.0,,-,56,N/A,30.32,43.0,,3:53 PM,10.0,NNW,6.9,340,Boise,Idaho,83701
16,Overcast,2016-01-25 23:53:00,28.9,,-,60,N/A,30.35,42.1,,4:53 PM,10.0,NNW,5.8,330,Boise,Idaho,83701
17,Overcast,2016-01-26 00:53:00,28.0,,-,58,N/A,30.37,42.1,,5:53 PM,10.0,NNE,4.6,20,Boise,Idaho,83701
18,Overcast,2016-01-26 01:53:00,27.0,,-,55,N/A,30.38,42.1,,6:53 PM,10.0,NE,4.6,40,Boise,Idaho,83701
19,Overcast,2016-01-26 02:53:00,27.0,,-,60,N/A,30.38,39.9,,7:53 PM,10.0,NE,4.6,50,Boise,Idaho,83701
20,Overcast,2016-01-26 03:53:00,27.0,,-,70,N/A,30.41,36.0,,8:53 PM,10.0,Calm,Calm,0,Boise,Idaho,83701
21,Scattered Clouds,2016-01-26 04:53:00,26.1,,-,75,N/A,30.43,33.1,,9:53 PM,10.0,SE,5.8,130,Boise,Idaho,83701
22,Clear,2016-01-26 05:53:00,26.1,,-,79,N/A,30.44,32.0,,10:53 PM,10.0,SSE,8.1,150,Boise,Idaho,83701
23,Clear,2016-01-26 06:53:00,25.0,,-,75,N/A,30.44,32.0,,11:53 PM,10.0,SE,9.2,130,Boise,Idaho,83701
0,Clear,2016-01-26 07:53:00,25.0,,-,82,N/A,30.44,30.0,,12:53 AM,10.0,ESE,5.8,120,Boise,Idaho,83701
1,Clear,2016-01-26 08:53:00,24.1,,-,79,N/A,30.45,30.0,,1:53 AM,10.0,SE,3.5,140,Boise,Idaho,83701
2,Clear,2016-01-26 09:53:00,24.1,,-,79,N/A,30.47,30.0,,2:53 AM,10.0,SE,8.1,140,Boise,Idaho,83701
3,Overcast,2016-01-26 10:53:00,25.0,,-,79,N/A,30.49,30.9,,3:53 AM,10.0,Calm,Calm,0,Boise,Idaho,83701
4,Partly Cloudy,2016-01-26 11:53:00,24.1,,-,76,N/A,30.48,30.9,,4:53 AM,10.0,Calm,Calm,0,Boise,Idaho,83701
5,Overcast,2016-01-26 12:53:00,23.0,,-,72,N/A,30.49,30.9,,5:53 AM,10.0,Calm,Calm,0,Boise,Idaho,83701
6,Overcast,2016-01-26 13:53:00,25.0,,-,82,N/A,30.51,30.0,,6:53 AM,10.0,Calm,Calm,0,Boise,Idaho,83701
7,Overcast,2016-01-26 14:53:00,21.0,,-,67,N/A,30.51,30.9,,7:53 AM,10.0,SE,10.4,130,Boise,Idaho,83701
8,Overcast,2016-01-26 15:53:00,21.0,,-,67,N/A,30.53,30.9,,8:53 AM,10.0,SE,11.5,140,Boise,Idaho,83701
9,Overcast,2016-01-26 16:53:00,24.1,,-,70,N/A,30.56,33.1,,9:53 AM,10.0,Calm,Calm,0,Boise,Idaho,83701
10,Overcast,2016-01-26 17:53:00,25.0,,-,70,N/A,30.58,34.0,,10:53 AM,10.0,Calm,Calm,0,Boise,Idaho,83701
11,Clear,2016-01-26 18:53:00,26.1,,-,62,N/A,30.58,37.9,,11:53 AM,10.0,Calm,Calm,0,Boise,Idaho,83701
12,Clear,2016-01-26 19:53:00,27.0,,-,60,N/A,30.56,39.9,,12:53 PM,10.0,Calm,Calm,0,Boise,Idaho,83701
13,Clear,2016-01-26 20:53:00,28.0,,-,60,N/A,30.53,41.0,,1:53 PM,10.0,Variable,3.5,0,Boise,Idaho,83701
14,Clear,2016-01-26 21:53:00,28.0,,-,58,N/A,30.51,42.1,,2:53 PM,10.0,Calm,Calm,0,Boise,Idaho,83701
15,Clear,2016-01-26 22:53:00,30.0,,-,58,N/A,30.49,44.1,,3:53 PM,10.0,SSE,6.9,160,Boise,Idaho,83701
16,Clear,2016-01-26 23:53:00,30.0,,-,60,N/A,30.49,43.0,,4:53 PM,10.0,South,8.1,180,Boise,Idaho,83701
17,Clear,2016-01-27 00:53:00,28.9,,-,67,N/A,30.51,39.0,,5:53 PM,10.0,Calm,Calm,0,Boise,Idaho,83701
18,Clear,2016-01-27 01:53:00,28.0,,-,73,N/A,30.52,36.0,,6:53 PM,10.0,ESE,6.9,120,Boise,Idaho,83701
19,Clear,2016-01-27 02:53:00,28.0,,-,79,N/A,30.54,34.0,,7:53 PM,10.0,SE,5.8,130,Boise,Idaho,83701
20,Clear,2016-01-27 03:53:00,27.0,,-,75,N/A,30.54,34.0,,8:53 PM,10.0,SE,5.8,130,Boise,Idaho,83701
21,Clear,2016-01-27 04:53:00,26.1,,-,75,N/A,30.55,33.1,,9:53 PM,10.0,SE,11.5,140,Boise,Idaho,83701
22,Clear,2016-01-27 05:53:00,26.1,,-,79,N/A,30.55,32.0,,10:53 PM,10.0,SE,8.1,140,Boise,Idaho,83701
23,Clear,2016-01-27 06:53:00,26.1,,-,79,N/A,30.53,32.0,,11:53 PM,10.0,SE,10.4,140,Boise,Idaho,83701
0,Clear,2016-01-27 07:53:00,25.0,,-,79,N/A,30.54,30.9,,12:53 AM,10.0,SSE,9.2,150,Boise,Idaho,83701
1,Clear,2016-01-27 08:53:00,25.0,,-,82,N/A,30.55,30.0,,1:53 AM,10.0,SSE,8.1,160,Boise,Idaho,83701
2,Clear,2016-01-27 09:53:00,25.0,,-,85,N/A,30.56,28.9,,2:53 AM,10.0,SE,5.8,130,Boise,Idaho,83701
3,Clear,2016-01-27 10:53:00,26.1,,-,89,N/A,30.56,28.9,,3:53 AM,10.0,ESE,4.6,120,Boise,Idaho,83701
4,Clear,2016-01-27 11:53:00,23.0,,-,81,N/A,30.54,28.0,,4:53 AM,10.0,SSE,6.9,150,Boise,Idaho,83701
5,Clear,2016-01-27 12:53:00,23.0,,-,78,N/A,30.56,28.9,,5:53 AM,10.0,SSE,5.8,160,Boise,Idaho,83701
6,Clear,2016-01-27 13:53:00,23.0,,-,81,N/A,30.57,28.0,,6:53 AM,10.0,SE,3.5,140,Boise,Idaho,83701
7,Clear,2016-01-27 14:53:00,25.0,,-,88,N/A,30.59,28.0,,7:53 AM,10.0,Calm,Calm,0,Boise,Idaho,83701
8,Clear,2016-01-27 15:53:00,21.9,,-,75,N/A,30.58,28.9,,8:53 AM,10.0,SSE,8.1,160,Boise,Idaho,83701
9,Clear,2016-01-27 16:53:00,24.1,,-,73,N/A,30.61,32.0,,9:53 AM,10.0,SSE,8.1,150,Boise,Idaho,83701
10,Clear,2016-01-27 17:53:00,25.0,,-,70,N/A,30.61,34.0,,10:53 AM,10.0,ESE,4.6,110,Boise,Idaho,83701
11,Clear,2016-01-27 18:53:00,25.0,,-,64,N/A,30.59,36.0,,11:53 AM,-9999.0,Calm,Calm,0,Boise,Idaho,83701
12,Unknown,2016-01-27 19:53:00,26.1,,-,58,N/A,30.55,39.9,,12:53 PM,10.0,Calm,Calm,0,Boise,Idaho,83701
13,Clear,2016-01-27 20:53:00,28.9,,-,62,N/A,30.51,41.0,,1:53 PM,10.0,South,6.9,180,Boise,Idaho,83701
14,Clear,2016-01-27 21:53:00,28.9,,-,60,N/A,30.50,42.1,,2:53 PM,10.0,Variable,3.5,0,Boise,Idaho,83701
15,Clear,2016-01-27 22:53:00,30.0,,-,60,N/A,30.49,43.0,,3:53 PM,10.0,South,5.8,180,Boise,Idaho,83701
16,Clear,2016-01-27 23:53:00,30.0,,-,60,N/A,30.48,43.0,,4:53 PM,10.0,South,5.8,170,Boise,Idaho,83701
17,Clear,2016-01-28 00:53:00,28.9,,-,65,N/A,30.48,39.9,,5:53 PM,10.0,South,3.5,170,Boise,Idaho,83701
18,Clear,2016-01-28 01:53:00,28.9,,-,76,N/A,30.49,36.0,,6:53 PM,10.0,SSE,5.8,150,Boise,Idaho,83701
19,Clear,2016-01-28 02:53:00,28.0,,-,73,N/A,30.49,36.0,,7:53 PM,10.0,SE,5.8,140,Boise,Idaho,83701
20,Clear,2016-01-28 03:53:00,28.0,,-,76,N/A,30.51,35.1,,8:53 PM,10.0,SSE,4.6,160,Boise,Idaho,83701
21,Clear,2016-01-28 04:53:00,27.0,,-,75,N/A,30.51,34.0,,9:53 PM,10.0,SE,3.5,140,Boise,Idaho,83701
22,Clear,2016-01-28 05:53:00,26.1,,-,73,N/A,30.46,34.0,,10:53 PM,10.0,SE,10.4,140,Boise,Idaho,83701
23,Clear,2016-01-28 06:53:00,26.1,,-,70,N/A,30.43,35.1,,11:53 PM,10.0,SE,11.5,140,Boise,Idaho,83701
0,Clear,2016-01-28 07:53:00,26.1,,-,70,N/A,30.42,35.1,,12:53 AM,10.0,SSE,12.7,150,Boise,Idaho,83701
1,Clear,2016-01-28 08:53:00,26.1,,-,75,N/A,30.42,33.1,,1:53 AM,10.0,ESE,5.8,110,Boise,Idaho,83701
2,Clear,2016-01-28 09:53:00,26.1,,-,82,N/A,30.43,30.9,,2:53 AM,10.0,Calm,Calm,0,Boise,Idaho,83701
3,Clear,2016-01-28 10:53:00,26.1,,-,85,N/A,30.40,30.0,,3:53 AM,10.0,SE,4.6,130,Boise,Idaho,83701
4,Clear,2016-01-28 11:53:00,26.1,,-,89,N/A,30.38,28.9,,4:53 AM,10.0,Calm,Calm,0,Boise,Idaho,83701
5,Clear,2016-01-28 12:53:00,25.0,,-,88,N/A,30.38,28.0,,5:53 AM,10.0,Calm,Calm,0,Boise,Idaho,83701
6,Clear,2016-01-28 13:53:00,25.0,,-,85,N/A,30.35,28.9,,6:53 AM,10.0,SE,4.6,130,Boise,Idaho,83701
7,Clear,2016-01-28 14:53:00,24.1,,-,82,N/A,30.34,28.9,,7:53 AM,10.0,NE,4.6,40,Boise,Idaho,83701
8,Clear,2016-01-28 15:53:00,25.0,,-,79,N/A,30.30,30.9,,8:53 AM,10.0,ESE,6.9,120,Boise,Idaho,83701
9,Clear,2016-01-28 16:53:00,27.0,,-,72,N/A,30.28,35.1,,9:53 AM,10.0,North,4.6,360,Boise,Idaho,83701
10,Clear,2016-01-28 17:53:00,27.0,,-,70,N/A,30.24,36.0,,10:53 AM,10.0,ESE,5.8,110,Boise,Idaho,83701
11,Mostly Cloudy,2016-01-28 18:53:00,28.0,,-,52,N/A,30.19,45.0,,11:53 AM,10.0,SE,6.9,140,Boise,Idaho,83701
12,Overcast,2016-01-28 19:53:00,26.1,,-,46,N/A,30.15,46.0,,12:53 PM,10.0,ESE,5.8,110,Boise,Idaho,83701
13,Overcast,2016-01-28 20:53:00,28.9,,-,65,N/A,30.15,39.9,,1:53 PM,10.0,NNW,8.1,340,Boise,Idaho,83701
14,Overcast,2016-01-28 21:53:00,30.0,,-,68,N/A,30.17,39.9,,2:53 PM,10.0,NW,11.5,320,Boise,Idaho,83701
15,Overcast,2016-01-28 22:53:00,30.0,,-,68,N/A,30.15,39.9,,3:53 PM,10.0,North,3.5,360,Boise,Idaho,83701
16,Light Snow,2016-01-28 23:51:00,30.2,Snow,-,75,0.00,30.12,37.4,,4:51 PM,5.0,NNW,3.5,330,Boise,Idaho,83701
17,Light Snow,2016-01-28 23:53:00,30.9,Snow,-,79,0.01,30.17,37.0,,4:53 PM,4.0,NW,3.5,310,Boise,Idaho,83701
18,Light Snow,2016-01-29 00:05:00,32.0,Snow,-,87,0.01,30.11,35.6,,5:05 PM,1.5,Calm,Calm,0,Boise,Idaho,83701
19,Light Snow,2016-01-29 00:46:00,33.8,Snow,-,93,0.04,30.10,35.6,,5:46 PM,1.5,ESE,3.5,120,Boise,Idaho,83701
20,Light Snow,2016-01-29 00:53:00,33.1,Snow,-,92,0.04,30.16,35.1,,5:53 PM,1.5,ESE,5.8,120,Boise,Idaho,83701
21,Light Snow,2016-01-29 01:03:00,33.8,Snow,-,100,0.01,30.10,33.8,,6:03 PM,1.5,SE,4.6,140,Boise,Idaho,83701
22,Light Snow,2016-01-29 01:24:00,33.8,Snow,-,100,0.05,30.10,33.8,,6:24 PM,2.5,SE,4.6,140,Boise,Idaho,83701
23,Light Rain,2016-01-29 01:39:00,33.8,Rain,-,100,0.06,30.10,33.8,,6:39 PM,4.0,SSE,8.1,150,Boise,Idaho,83701
24,Light Rain,2016-01-29 01:53:00,33.1,Rain,-,96,0.07,30.17,34.0,,6:53 PM,4.0,SSE,8.1,150,Boise,Idaho,83701
25,Overcast,2016-01-29 02:53:00,33.1,,-,92,0.02,30.17,35.1,,7:53 PM,5.0,SSE,6.9,160,Boise,Idaho,83701
26,Overcast,2016-01-29 03:13:00,33.8,,-,93,N/A,30.11,35.6,,8:13 PM,8.0,SSE,8.1,150,Boise,Idaho,83701
27,Overcast,2016-01-29 03:34:00,33.8,,-,93,N/A,30.11,35.6,,8:34 PM,10.0,SSE,6.9,160,Boise,Idaho,83701
28,Overcast,2016-01-29 03:53:00,34.0,,-,93,N/A,30.16,36.0,,8:53 PM,10.0,Calm,Calm,0,Boise,Idaho,83701
29,Overcast,2016-01-29 04:53:00,35.1,,-,97,N/A,30.16,36.0,,9:53 PM,5.0,Calm,Calm,0,Boise,Idaho,83701
30,Overcast,2016-01-29 05:14:00,35.6,,-,100,N/A,30.12,35.6,,10:14 PM,3.0,NW,9.2,310,Boise,Idaho,83701
31,Overcast,2016-01-29 05:44:00,33.8,,-,93,N/A,30.13,35.6,,10:44 PM,4.0,WNW,5.8,290,Boise,Idaho,83701
32,Overcast,2016-01-29 05:53:00,34.0,,-,100,N/A,30.18,34.0,,10:53 PM,4.0,WNW,6.9,300,Boise,Idaho,83701
33,Overcast,2016-01-29 06:04:00,33.8,,-,100,N/A,30.14,33.8,,11:04 PM,1.8,NNW,6.9,340,Boise,Idaho,83701
34,Overcast,2016-01-29 06:35:00,33.8,,-,100,N/A,30.14,33.8,,11:35 PM,2.0,NNW,5.8,340,Boise,Idaho,83701
35,Overcast,2016-01-29 06:53:00,33.1,,-,96,N/A,30.18,34.0,,11:53 PM,2.5,NNW,4.6,330,Boise,Idaho,83701
0,Overcast,2016-01-29 07:25:00,33.8,,-,100,N/A,30.15,33.8,,12:25 AM,2.5,Calm,Calm,0,Boise,Idaho,83701
1,Overcast,2016-01-29 07:39:00,33.8,,-,100,N/A,30.15,33.8,,12:39 AM,2.5,Calm,Calm,0,Boise,Idaho,83701
2,Overcast,2016-01-29 07:53:00,33.1,,-,96,N/A,30.18,34.0,,12:53 AM,2.5,Calm,Calm,0,Boise,Idaho,83701
3,Overcast,2016-01-29 08:11:00,33.8,,-,100,N/A,30.15,33.8,,1:11 AM,3.0,Calm,Calm,0,Boise,Idaho,83701
4,Overcast,2016-01-29 08:19:00,33.8,,-,100,N/A,30.14,33.8,,1:19 AM,3.0,SSE,3.5,150,Boise,Idaho,83701
5,Overcast,2016-01-29 08:53:00,33.1,,-,96,N/A,30.18,34.0,,1:53 AM,2.5,Calm,Calm,0,Boise,Idaho,83701
6,Overcast,2016-01-29 09:03:00,33.8,,-,100,N/A,30.14,33.8,,2:03 AM,3.0,Calm,Calm,0,Boise,Idaho,83701
7,Overcast,2016-01-29 09:27:00,33.8,,-,100,N/A,30.14,33.8,,2:27 AM,2.5,Calm,Calm,0,Boise,Idaho,83701
8,Overcast,2016-01-29 09:53:00,33.1,,-,96,N/A,30.17,34.0,,2:53 AM,0.5,SSW,3.5,210,Boise,Idaho,83701
9,Overcast,2016-01-29 10:37:00,33.8,,-,100,N/A,30.11,33.8,,3:37 AM,0.2,SSW,3.5,200,Boise,Idaho,83701
10,Mist,2016-01-29 10:53:00,33.1,,-,100,N/A,30.16,33.1,,3:53 AM,0.2,Calm,Calm,0,Boise,Idaho,83701
11,Fog,2016-01-29 11:53:00,33.1,Fog,-,100,N/A,30.10,33.1,,4:53 AM,0.2,Calm,Calm,0,Boise,Idaho,83701
12,Fog,2016-01-29 12:33:00,33.8,Fog,-,100,N/A,30.03,33.8,,5:33 AM,0.1,WSW,4.6,240,Boise,Idaho,83701
13,Fog,2016-01-29 12:53:00,32.0,Fog,-,100,N/A,30.06,32.0,,5:53 AM,0.1,SW,6.9,220,Boise,Idaho,83701
14,Overcast,2016-01-29 13:08:00,30.2,,-,93,N/A,30.01,32.0,,6:08 AM,1.0,SW,6.9,230,Boise,Idaho,83701
15,Overcast,2016-01-29 13:12:00,32.0,,-,100,N/A,30.01,32.0,,6:12 AM,2.0,SW,8.1,220,Boise,Idaho,83701
16,Overcast,2016-01-29 13:17:00,32.0,,-,93,N/A,30.02,33.8,,6:17 AM,7.0,SSW,11.5,210,Boise,Idaho,83701
17,Overcast,2016-01-29 13:53:00,30.9,,-,96,N/A,30.06,32.0,,6:53 AM,7.0,ESE,10.4,110,Boise,Idaho,83701
18,Overcast,2016-01-29 14:00:00,30.2,,-,93,N/A,30.01,32.0,,7:00 AM,7.0,ESE,12.7,120,Boise,Idaho,83701
19,Overcast,2016-01-29 14:23:00,30.2,,-,93,N/A,30.02,32.0,,7:23 AM,10.0,ESE,4.6,120,Boise,Idaho,83701
20,Overcast,2016-01-29 14:41:00,32.0,,-,93,N/A,30.01,33.8,,7:41 AM,10.0,ESE,6.9,120,Boise,Idaho,83701
21,Overcast,2016-01-29 14:53:00,32.0,,-,96,N/A,30.05,33.1,,7:53 AM,9.0,ENE,5.8,60,Boise,Idaho,83701
22,Light Rain,2016-01-29 15:10:00,33.8,Rain,-,100,0.00,29.99,33.8,,8:10 AM,2.0,NE,6.9,50,Boise,Idaho,83701
23,Light Rain,2016-01-29 15:28:00,33.8,Rain,-,100,0.01,29.99,33.8,,8:28 AM,1.8,ESE,3.5,120,Boise,Idaho,83701
24,Light Rain,2016-01-29 15:36:00,33.8,Rain,-,100,0.02,29.99,33.8,,8:36 AM,2.0,ESE,4.6,110,Boise,Idaho,83701
25,Light Rain,2016-01-29 15:53:00,34.0,Rain,-,100,0.02,30.01,34.0,,8:53 AM,2.0,East,5.8,90,Boise,Idaho,83701
26,Light Rain,2016-01-29 16:12:00,33.8,Rain,-,87,0.01,29.96,37.4,,9:12 AM,10.0,ESE,10.4,110,Boise,Idaho,83701
27,Light Rain,2016-01-29 16:53:00,36.0,Rain,-,82,0.01,29.96,41.0,,9:53 AM,10.0,SE,12.7,130,Boise,Idaho,83701
28,Overcast,2016-01-29 17:53:00,37.9,,24.2,85,0.00,29.92,42.1,,10:53 AM,10.0,ESE,13.8,120,Boise,Idaho,83701
29,Light Rain,2016-01-29 18:53:00,37.9,Rain,-,82,0.00,29.89,43.0,,11:53 AM,10.0,ESE,19.6,120,Boise,Idaho,83701
30,Light Rain,2016-01-29 19:53:00,39.0,Rain,26.5,82,0.01,29.83,44.1,,12:53 PM,10.0,ESE,17.3,120,Boise,Idaho,83701
31,Light Rain,2016-01-29 20:53:00,39.9,Rain,-,82,0.00,29.80,45.0,,1:53 PM,10.0,SE,12.7,130,Boise,Idaho,83701
32,Overcast,2016-01-29 21:53:00,39.9,,-,79,0.00,29.80,46.0,,2:53 PM,10.0,SE,11.5,130,Boise,Idaho,83701
33,Light Rain,2016-01-29 22:53:00,41.0,Rain,-,83,0.01,29.80,46.0,,3:53 PM,6.0,East,4.6,90,Boise,Idaho,83701
34,Light Rain,2016-01-29 23:53:00,41.0,Rain,-,86,0.05,29.81,45.0,,4:53 PM,10.0,SSW,6.9,210,Boise,Idaho,83701
35,Light Rain,2016-01-30 00:18:00,41.0,Rain,-,87,0.01,29.80,44.6,,5:18 PM,8.0,WNW,9.2,290,Boise,Idaho,83701
36,Light Rain,2016-01-30 00:43:00,39.2,Rain,25.3,87,0.02,29.83,42.8,,5:43 PM,7.0,WNW,16.1,290,Boise,Idaho,83701
37,Light Rain,2016-01-30 00:53:00,39.0,Rain,25.3,93,0.03,29.86,41.0,,5:53 PM,7.0,WNW,21.9,300,Boise,Idaho,83701
38,Light Rain,2016-01-30 01:49:00,-9999,Rain,-,N/A,0.06,29.89,35.6,,6:49 PM,5.0,NW,10.4,320,Boise,Idaho,83701
39,Light Rain,2016-01-30 01:53:00,36.0,Rain,-,100,0.06,29.94,36.0,,6:53 PM,5.0,NNW,6.9,330,Boise,Idaho,83701
40,Overcast,2016-01-30 02:53:00,-9999,,-,N/A,0.04,29.89,37.0,,7:53 PM,10.0,ESE,5.8,120,Boise,Idaho,83701
41,Overcast,2016-01-30 03:53:00,-9999,,-,N/A,0.00,29.90,37.0,,8:53 PM,10.0,Calm,Calm,0,Boise,Idaho,83701
42,Overcast,2016-01-30 04:53:00,-9999,,-,N/A,N/A,29.88,36.0,,9:53 PM,10.0,Calm,Calm,0,Boise,Idaho,83701
43,Mostly Cloudy,2016-01-30 05:53:00,-9999,,-,N/A,N/A,29.88,35.1,,10:53 PM,10.0,SE,3.5,130,Boise,Idaho,83701
44,Scattered Clouds,2016-01-30 06:53:00,-9999,,-,N/A,N/A,29.89,35.1,,11:53 PM,10.0,Calm,Calm,0,Boise,Idaho,83701
0,Overcast,2016-01-30 07:53:00,34.0,,-,93,N/A,29.88,36.0,,12:53 AM,10.0,Calm,Calm,0,Boise,Idaho,83701
1,Overcast,2016-01-30 08:53:00,34.0,,-,93,N/A,29.88,36.0,,1:53 AM,10.0,South,3.5,170,Boise,Idaho,83701
2,Overcast,2016-01-30 09:53:00,34.0,,-,96,0.00,29.87,35.1,,2:53 AM,10.0,SE,3.5,140,Boise,Idaho,83701
3,Overcast,2016-01-30 10:53:00,34.0,,-,93,N/A,29.87,36.0,,3:53 AM,10.0,Calm,Calm,0,Boise,Idaho,83701
4,Mostly Cloudy,2016-01-30 11:53:00,33.1,,-,96,N/A,29.87,34.0,,4:53 AM,10.0,SW,3.5,220,Boise,Idaho,83701
5,Mostly Cloudy,2016-01-30 12:53:00,30.9,,-,92,N/A,29.89,33.1,,5:53 AM,10.0,SW,4.6,220,Boise,Idaho,83701
6,Clear,2016-01-30 13:53:00,30.0,,-,89,N/A,29.90,33.1,,6:53 AM,10.0,West,4.6,260,Boise,Idaho,83701
7,Scattered Clouds,2016-01-30 14:53:00,28.9,,-,92,N/A,29.92,30.9,,7:53 AM,10.0,NW,5.8,320,Boise,Idaho,83701
8,Scattered Clouds,2016-01-30 15:53:00,30.0,,-,89,N/A,29.94,33.1,,8:53 AM,10.0,North,3.5,350,Boise,Idaho,83701
9,Scattered Clouds,2016-01-30 16:53:00,30.0,,-,76,N/A,29.94,37.0,,9:53 AM,10.0,NNW,5.8,340,Boise,Idaho,83701
10,Clear,2016-01-30 17:53:00,28.0,,-,68,N/A,29.95,37.9,,10:53 AM,10.0,NW,8.1,320,Boise,Idaho,83701
11,Mostly Cloudy,2016-01-30 18:53:00,28.0,,-,65,N/A,29.96,39.0,,11:53 AM,10.0,WNW,11.5,300,Boise,Idaho,83701
12,Mostly Cloudy,2016-01-30 19:53:00,27.0,,-,62,N/A,29.95,39.0,,12:53 PM,10.0,West,12.7,280,Boise,Idaho,83701
13,Overcast,2016-01-30 20:53:00,27.0,,-,60,N/A,29.93,39.9,,1:53 PM,10.0,NNW,13.8,330,Boise,Idaho,83701
14,Light Snow,2016-01-30 21:14:00,28.4,Snow,-,75,0.01,29.90,35.6,,2:14 PM,2.0,NW,4.6,320,Boise,Idaho,83701
15,Overcast,2016-01-30 21:24:00,28.4,,-,70,0.01,29.90,37.4,,2:24 PM,9.0,NW,6.9,320,Boise,Idaho,83701
16,Overcast,2016-01-30 21:53:00,27.0,,-,62,0.01,29.93,39.0,,2:53 PM,10.0,North,8.1,350,Boise,Idaho,83701
17,Light Snow,2016-01-30 22:53:00,28.9,Snow,18.4,73,0.00,29.94,37.0,,3:53 PM,3.0,West,6.9,270,Boise,Idaho,83701
18,Scattered Clouds,2016-01-30 23:25:00,28.4,,-,65,0.00,29.90,39.2,,4:25 PM,10.0,Calm,Calm,0,Boise,Idaho,83701
19,Mostly Cloudy,2016-01-30 23:53:00,28.0,,-,65,0.00,29.94,39.0,,4:53 PM,10.0,North,6.9,10,Boise,Idaho,83701
20,Overcast,2016-01-31 00:53:00,30.0,,-,82,N/A,29.96,35.1,,5:53 PM,10.0,SE,4.6,130,Boise,Idaho,83701
21,Overcast,2016-01-31 01:53:00,30.0,,-,82,N/A,29.98,35.1,,6:53 PM,10.0,South,3.5,170,Boise,Idaho,83701
22,Overcast,2016-01-31 02:53:00,30.9,,-,89,N/A,29.99,34.0,,7:53 PM,10.0,ESE,3.5,120,Boise,Idaho,83701
23,Overcast,2016-01-31 03:53:00,30.9,,-,89,N/A,29.99,34.0,,8:53 PM,10.0,SE,5.8,140,Boise,Idaho,83701
24,Overcast,2016-01-31 04:53:00,30.0,,-,85,N/A,29.99,34.0,,9:53 PM,10.0,SE,4.6,130,Boise,Idaho,83701
25,Overcast,2016-01-31 05:53:00,28.9,,-,82,N/A,29.99,34.0,,10:53 PM,10.0,ESE,4.6,120,Boise,Idaho,83701
26,Overcast,2016-01-31 06:53:00,28.9,,-,82,0.00,29.99,34.0,,11:53 PM,10.0,SW,3.5,220,Boise,Idaho,83701
0,Overcast,2016-01-31 07:53:00,30.9,,-,96,N/A,30.00,32.0,,12:53 AM,10.0,Calm,Calm,0,Boise,Idaho,83701
1,Partly Cloudy,2016-01-31 08:53:00,28.9,,-,96,N/A,30.00,30.0,,1:53 AM,10.0,Calm,Calm,0,Boise,Idaho,83701
2,Clear,2016-01-31 09:53:00,28.0,,-,96,N/A,30.00,28.9,,2:53 AM,10.0,Calm,Calm,0,Boise,Idaho,83701
3,Scattered Clouds,2016-01-31 10:38:00,26.6,,-,93,N/A,29.96,28.4,,3:38 AM,7.0,SW,3.5,220,Boise,Idaho,83701
4,Mostly Cloudy,2016-01-31 10:44:00,26.6,,-,93,N/A,29.96,28.4,,3:44 AM,0.5,SW,3.5,220,Boise,Idaho,83701
5,Mostly Cloudy,2016-01-31 10:53:00,27.0,,-,100,N/A,30.01,27.0,,3:53 AM,2.0,SSW,3.5,210,Boise,Idaho,83701
6,Scattered Clouds,2016-01-31 10:56:00,26.6,,-,100,N/A,29.96,26.6,,3:56 AM,4.0,SSW,3.5,210,Boise,Idaho,83701
7,Partly Cloudy,2016-01-31 11:53:00,27.0,,-,100,N/A,30.01,27.0,,4:53 AM,5.0,Calm,Calm,0,Boise,Idaho,83701
8,Scattered Clouds,2016-01-31 12:53:00,27.0,,-,96,N/A,30.02,28.0,,5:53 AM,4.0,Calm,Calm,0,Boise,Idaho,83701
9,Scattered Clouds,2016-01-31 13:05:00,26.6,,-,93,N/A,29.96,28.4,,6:05 AM,1.0,NE,3.5,40,Boise,Idaho,83701
10,Mostly Cloudy,2016-01-31 13:09:00,26.6,,-,93,N/A,29.96,28.4,,6:09 AM,0.5,NE,3.5,50,Boise,Idaho,83701
11,Overcast,2016-01-31 13:53:00,28.9,,-,100,N/A,30.01,28.9,,6:53 AM,0.5,Calm,Calm,0,Boise,Idaho,83701
12,Overcast,2016-01-31 14:19:00,28.4,,-,100,N/A,29.96,28.4,,7:19 AM,1.5,Calm,Calm,0,Boise,Idaho,83701
13,Overcast,2016-01-31 14:53:00,28.9,,-,100,N/A,30.01,28.9,,7:53 AM,4.0,Calm,Calm,0,Boise,Idaho,83701
14,Overcast,2016-01-31 15:00:00,28.4,,-,100,N/A,29.96,28.4,,8:00 AM,2.0,NNW,3.5,330,Boise,Idaho,83701
15,Overcast,2016-01-31 15:06:00,28.4,,-,100,N/A,29.96,28.4,,8:06 AM,1.0,Calm,Calm,0,Boise,Idaho,83701
16,Light Freezing Fog,2016-01-31 15:20:00,28.4,Fog,-,100,N/A,29.96,28.4,,8:20 AM,0.5,Calm,Calm,0,Boise,Idaho,83701
17,Light Freezing Fog,2016-01-31 15:31:00,28.4,Fog,-,100,N/A,29.96,28.4,,8:31 AM,0.2,Calm,Calm,0,Boise,Idaho,83701
18,Light Freezing Fog,2016-01-31 15:42:00,28.4,Fog,-,100,N/A,29.96,28.4,,8:42 AM,0.2,Calm,Calm,0,Boise,Idaho,83701
19,Light Freezing Fog,2016-01-31 15:53:00,28.0,Fog,-,100,N/A,30.01,28.0,,8:53 AM,0.2,Calm,Calm,0,Boise,Idaho,83701
20,Light Freezing Fog,2016-01-31 16:04:00,28.4,Fog,-,100,N/A,29.96,28.4,,9:04 AM,0.2,WSW,3.5,250,Boise,Idaho,83701
21,Light Freezing Fog,2016-01-31 16:53:00,28.0,Fog,-,100,N/A,30.01,28.0,,9:53 AM,0.2,Calm,Calm,0,Boise,Idaho,83701
22,Light Freezing Fog,2016-01-31 17:53:00,27.0,Fog,-,96,N/A,30.02,28.0,,10:53 AM,0.2,SW,6.9,220,Boise,Idaho,83701
23,Overcast,2016-01-31 18:01:00,26.6,,-,93,N/A,29.96,28.4,,11:01 AM,0.8,SW,3.5,220,Boise,Idaho,83701
24,Overcast,2016-01-31 18:23:00,26.6,,-,93,N/A,29.96,28.4,,11:23 AM,1.0,WSW,6.9,240,Boise,Idaho,83701
25,Light Freezing Fog,2016-01-31 18:31:00,26.6,Fog,-,93,N/A,29.96,28.4,,11:31 AM,0.5,West,6.9,260,Boise,Idaho,83701
26,Overcast,2016-01-31 18:43:00,28.4,,-,100,N/A,29.96,28.4,,11:43 AM,1.5,WSW,4.6,240,Boise,Idaho,83701
27,Overcast,2016-01-31 18:53:00,28.0,,-,100,N/A,30.02,28.0,,11:53 AM,2.5,West,5.8,260,Boise,Idaho,83701
28,Overcast,2016-01-31 19:04:00,28.4,,-,100,N/A,29.96,28.4,,12:04 PM,0.5,West,6.9,270,Boise,Idaho,83701
29,Overcast,2016-01-31 19:53:00,27.0,,-,96,N/A,30.00,28.0,,12:53 PM,0.5,NW,4.6,320,Boise,Idaho,83701
30,Overcast,2016-01-31 20:53:00,27.0,,-,92,N/A,29.97,28.9,,1:53 PM,3.0,Calm,Calm,0,Boise,Idaho,83701
31,Overcast,2016-01-31 21:14:00,26.6,,-,93,N/A,29.91,28.4,,2:14 PM,10.0,NW,5.8,320,Boise,Idaho,83701
32,Overcast,2016-01-31 21:53:00,27.0,,-,96,0.00,29.96,28.0,,2:53 PM,8.0,NW,3.5,310,Boise,Idaho,83701
33,Overcast,2016-01-31 22:53:00,27.0,,-,92,N/A,29.96,28.9,,3:53 PM,9.0,WNW,6.9,290,Boise,Idaho,83701
34,Overcast,2016-01-31 23:05:00,26.6,,-,93,N/A,29.89,28.4,,4:05 PM,8.0,WNW,8.1,300,Boise,Idaho,83701
35,Overcast,2016-01-31 23:27:00,26.6,,-,93,N/A,29.89,28.4,,4:27 PM,9.0,WNW,8.1,300,Boise,Idaho,83701
36,Overcast,2016-01-31 23:53:00,26.1,,-,92,N/A,29.96,28.0,,4:53 PM,10.0,NW,6.9,310,Boise,Idaho,83701
37,Overcast,2016-02-01 00:53:00,27.0,,-,92,N/A,29.96,28.9,,5:53 PM,10.0,NNW,8.1,330,Boise,Idaho,83701
38,Overcast,2016-02-01 01:37:00,26.6,,-,86,N/A,29.89,30.2,,6:37 PM,10.0,West,4.6,270,Boise,Idaho,83701
39,Overcast,2016-02-01 01:53:00,28.0,,-,92,N/A,29.96,30.0,,6:53 PM,10.0,WNW,5.8,290,Boise,Idaho,83701
40,Mostly Cloudy,2016-02-01 02:14:00,26.6,,-,93,N/A,29.90,28.4,,7:14 PM,10.0,West,8.1,260,Boise,Idaho,83701
41,Scattered Clouds,2016-02-01 02:53:00,27.0,,-,96,N/A,29.96,28.0,,7:53 PM,10.0,West,4.6,260,Boise,Idaho,83701
42,Clear,2016-02-01 03:53:00,26.1,,-,96,N/A,29.97,27.0,,8:53 PM,8.0,Calm,Calm,0,Boise,Idaho,83701
43,Partly Cloudy,2016-02-01 04:07:00,26.6,,-,100,N/A,29.90,26.6,,9:07 PM,8.0,Calm,Calm,0,Boise,Idaho,83701
44,Mostly Cloudy,2016-02-01 04:27:00,26.6,,-,100,N/A,29.90,26.6,,9:27 PM,9.0,Calm,Calm,0,Boise,Idaho,83701
45,Scattered Clouds,2016-02-01 04:37:00,26.6,,-,100,N/A,29.90,26.6,,9:37 PM,9.0,Calm,Calm,0,Boise,Idaho,83701
46,Mostly Cloudy,2016-02-01 04:53:00,26.1,,-,96,N/A,29.96,27.0,,9:53 PM,8.0,Calm,Calm,0,Boise,Idaho,83701
47,Scattered Clouds,2016-02-01 05:08:00,24.8,,-,93,N/A,29.90,26.6,,10:08 PM,7.0,SSE,3.5,160,Boise,Idaho,83701
48,Mostly Cloudy,2016-02-01 05:53:00,26.1,,-,96,N/A,29.97,27.0,,10:53 PM,10.0,South,3.5,180,Boise,Idaho,83701
49,Overcast,2016-02-01 06:12:00,24.8,,-,93,N/A,29.90,26.6,,11:12 PM,10.0,South,3.5,170,Boise,Idaho,83701
50,Scattered Clouds,2016-02-01 06:51:00,24.8,,-,100,N/A,29.92,24.8,,11:51 PM,10.0,Calm,Calm,0,Boise,Idaho,83701
51,Scattered Clouds,2016-02-01 06:53:00,24.1,,-,96,N/A,29.99,25.0,,11:53 PM,10.0,SW,3.5,220,Boise,Idaho,83701
0,Mostly Cloudy,2016-02-01 07:01:00,24.8,,-,100,N/A,29.91,24.8,,12:01 AM,10.0,SSW,4.6,210,Boise,Idaho,83701
1,Scattered Clouds,2016-02-01 07:51:00,21.2,,-,86,N/A,29.91,24.8,,12:51 AM,10.0,Calm,Calm,0,Boise,Idaho,83701
2,Scattered Clouds,2016-02-01 07:53:00,21.9,,-,91,N/A,29.99,24.1,,12:53 AM,10.0,Calm,Calm,0,Boise,Idaho,83701
3,Mostly Cloudy,2016-02-01 08:09:00,21.2,,-,86,N/A,29.91,24.8,,1:09 AM,10.0,Calm,Calm,0,Boise,Idaho,83701
4,Scattered Clouds,2016-02-01 08:36:00,21.2,,-,86,N/A,29.91,24.8,,1:36 AM,10.0,West,3.5,280,Boise,Idaho,83701
5,Mostly Cloudy,2016-02-01 08:51:00,21.2,,-,86,N/A,29.91,24.8,,1:51 AM,10.0,WNW,3.5,300,Boise,Idaho,83701
6,Mostly Cloudy,2016-02-01 08:53:00,21.9,,-,91,N/A,29.98,24.1,,1:53 AM,10.0,WNW,4.6,300,Boise,Idaho,83701
7,Mostly Cloudy,2016-02-01 09:21:00,21.2,,-,86,N/A,29.91,24.8,,2:21 AM,10.0,WNW,4.6,290,Boise,Idaho,83701
8,Overcast,2016-02-01 09:53:00,21.9,,-,91,N/A,29.99,24.1,,2:53 AM,9.0,WNW,5.8,290,Boise,Idaho,83701
9,Overcast,2016-02-01 10:01:00,21.2,,-,93,N/A,29.91,23.0,,3:01 AM,1.8,WNW,5.8,290,Boise,Idaho,83701
10,Overcast,2016-02-01 10:03:00,23.0,,-,100,N/A,29.91,23.0,,3:03 AM,1.2,West,5.8,280,Boise,Idaho,83701
11,Light Freezing Fog,2016-02-01 10:09:00,23.0,Fog,-,100,N/A,29.92,23.0,,3:09 AM,0.2,WNW,3.5,300,Boise,Idaho,83701
12,Mist,2016-02-01 10:19:00,21.2,,-,100,N/A,29.92,21.2,,3:19 AM,1.0,NW,3.5,310,Boise,Idaho,83701
13,Mostly Cloudy,2016-02-01 10:23:00,21.2,,-,100,N/A,29.92,21.2,,3:23 AM,2.0,WNW,4.6,300,Boise,Idaho,83701
14,Scattered Clouds,2016-02-01 10:30:00,21.2,,-,100,N/A,29.92,21.2,,3:30 AM,8.0,Calm,Calm,0,Boise,Idaho,83701
15,Clear,2016-02-01 10:53:00,19.0,,-,92,N/A,29.99,21.0,,3:53 AM,10.0,Calm,Calm,0,Boise,Idaho,83701
16,Clear,2016-02-01 11:53:00,19.0,,-,89,N/A,30.00,21.9,,4:53 AM,10.0,Calm,Calm,0,Boise,Idaho,83701
17,Clear,2016-02-01 12:53:00,18.0,,-,85,N/A,30.01,21.9,,5:53 AM,10.0,NNW,3.5,340,Boise,Idaho,83701
18,Clear,2016-02-01 13:53:00,19.0,,-,81,N/A,30.02,24.1,,6:53 AM,10.0,NW,4.6,320,Boise,Idaho,83701
19,Clear,2016-02-01 14:53:00,18.0,,-,81,N/A,30.05,23.0,,7:53 AM,10.0,WNW,6.9,300,Boise,Idaho,83701
20,Clear,2016-02-01 15:53:00,19.0,,-,81,N/A,30.09,24.1,,8:53 AM,10.0,WNW,5.8,300,Boise,Idaho,83701
21,Clear,2016-02-01 16:53:00,19.9,,-,75,N/A,30.11,27.0,,9:53 AM,10.0,NW,9.2,320,Boise,Idaho,83701
22,Clear,2016-02-01 17:53:00,21.9,,-,69,N/A,30.10,30.9,,10:53 AM,10.0,NW,16.1,310,Boise,Idaho,83701
23,Clear,2016-02-01 18:53:00,21.9,,-,61,N/A,30.10,34.0,,11:53 AM,10.0,NW,19.6,310,Boise,Idaho,83701
24,Clear,2016-02-01 19:53:00,21.9,,26.5,59,N/A,30.09,35.1,,12:53 PM,10.0,NW,19.6,310,Boise,Idaho,83701
25,Clear,2016-02-01 20:53:00,21.9,,23.0,54,N/A,30.08,37.0,,1:53 PM,10.0,NW,17.3,320,Boise,Idaho,83701
26,Clear,2016-02-01 21:53:00,21.0,,-,52,N/A,30.08,37.0,,2:53 PM,10.0,NW,18.4,310,Boise,Idaho,83701
27,Clear,2016-02-01 22:53:00,19.9,,-,50,N/A,30.10,37.0,,3:53 PM,10.0,NW,16.1,310,Boise,Idaho,83701
28,Clear,2016-02-01 23:53:00,21.0,,-,52,N/A,30.12,37.0,,4:53 PM,10.0,NW,12.7,310,Boise,Idaho,83701
29,Clear,2016-02-02 00:53:00,21.0,,-,59,N/A,30.15,34.0,,5:53 PM,10.0,NW,15.0,320,Boise,Idaho,83701
30,Partly Cloudy,2016-02-02 01:53:00,23.0,,-,66,N/A,30.17,33.1,,6:53 PM,10.0,North,8.1,10,Boise,Idaho,83701
31,Overcast,2016-02-02 02:53:00,23.0,,-,69,N/A,30.18,32.0,,7:53 PM,10.0,North,4.6,10,Boise,Idaho,83701
32,Overcast,2016-02-02 03:53:00,24.1,,-,76,N/A,30.19,30.9,,8:53 PM,10.0,Calm,Calm,0,Boise,Idaho,83701
33,Overcast,2016-02-02 04:53:00,23.0,,-,72,N/A,30.18,30.9,,9:53 PM,10.0,Calm,Calm,0,Boise,Idaho,83701
34,Overcast,2016-02-02 05:53:00,21.9,,-,66,N/A,30.17,32.0,,10:53 PM,10.0,West,6.9,270,Boise,Idaho,83701
35,Clear,2016-02-02 06:53:00,21.9,,-,75,N/A,30.17,28.9,,11:53 PM,10.0,Calm,Calm,0,Boise,Idaho,83701
0,Clear,2016-02-02 07:53:00,21.9,,-,75,N/A,30.17,28.9,,12:53 AM,10.0,Calm,Calm,0,Boise,Idaho,83701
1,Clear,2016-02-02 08:53:00,21.0,,-,85,N/A,30.17,25.0,,1:53 AM,10.0,Calm,Calm,0,Boise,Idaho,83701
2,Clear,2016-02-02 09:53:00,19.9,,-,81,N/A,30.18,25.0,,2:53 AM,10.0,Calm,Calm,0,Boise,Idaho,83701
3,Clear,2016-02-02 10:53:00,18.0,,-,81,N/A,30.18,23.0,,3:53 AM,10.0,SE,4.6,140,Boise,Idaho,83701
4,Clear,2016-02-02 11:53:00,17.1,,-,82,N/A,30.19,21.9,,4:53 AM,10.0,SE,5.8,130,Boise,Idaho,83701
5,Clear,2016-02-02 12:53:00,17.1,,-,82,N/A,30.20,21.9,,5:53 AM,10.0,ESE,8.1,120,Boise,Idaho,83701
6,Clear,2016-02-02 13:53:00,17.1,,-,82,N/A,30.20,21.9,,6:53 AM,10.0,Variable,5.8,0,Boise,Idaho,83701
7,Clear,2016-02-02 14:53:00,16.0,,-,78,N/A,30.21,21.9,,7:53 AM,10.0,SE,8.1,130,Boise,Idaho,83701
8,Clear,2016-02-02 15:53:00,18.0,,-,77,N/A,30.22,24.1,,8:53 AM,10.0,SSE,4.6,150,Boise,Idaho,83701
9,Mostly Cloudy,2016-02-02 16:53:00,19.0,,-,69,N/A,30.24,28.0,,9:53 AM,10.0,Calm,Calm,0,Boise,Idaho,83701
10,Mostly Cloudy,2016-02-02 17:53:00,19.9,,-,64,N/A,30.24,30.9,,10:53 AM,10.0,Calm,Calm,0,Boise,Idaho,83701
11,Overcast,2016-02-02 18:53:00,21.0,,-,61,N/A,30.25,33.1,,11:53 AM,10.0,Calm,Calm,0,Boise,Idaho,83701
12,Clear,2016-02-02 19:53:00,21.0,,-,59,N/A,30.23,34.0,,12:53 PM,10.0,NW,6.9,320,Boise,Idaho,83701
13,Clear,2016-02-02 20:53:00,21.9,,-,57,N/A,30.22,36.0,,1:53 PM,10.0,North,4.6,350,Boise,Idaho,83701
14,Clear,2016-02-02 21:53:00,19.9,,-,50,N/A,30.22,37.0,,2:53 PM,10.0,WNW,4.6,300,Boise,Idaho,83701
15,Partly Cloudy,2016-02-02 22:53:00,19.0,,-,48,N/A,30.24,37.0,,3:53 PM,10.0,West,4.6,280,Boise,Idaho,83701
16,Clear,2016-02-02 23:53:00,19.9,,-,50,N/A,30.25,37.0,,4:53 PM,10.0,WNW,6.9,290,Boise,Idaho,83701
17,Clear,2016-02-03 00:53:00,19.9,,-,56,N/A,30.27,34.0,,5:53 PM,10.0,NNW,5.8,330,Boise,Idaho,83701
18,Clear,2016-02-03 01:53:00,21.0,,-,61,N/A,30.28,33.1,,6:53 PM,10.0,North,4.6,10,Boise,Idaho,83701
19,Clear,2016-02-03 02:53:00,19.9,,-,64,N/A,30.29,30.9,,7:53 PM,10.0,Calm,Calm,0,Boise,Idaho,83701
20,Clear,2016-02-03 03:53:00,19.9,,-,66,N/A,30.30,30.0,,8:53 PM,10.0,Calm,Calm,0,Boise,Idaho,83701
21,Clear,2016-02-03 04:53:00,19.9,,-,75,N/A,30.30,27.0,,9:53 PM,10.0,ESE,3.5,120,Boise,Idaho,83701
22,Clear,2016-02-03 05:53:00,19.9,,-,78,N/A,30.31,26.1,,10:53 PM,10.0,SE,5.8,130,Boise,Idaho,83701
23,Clear,2016-02-03 06:53:00,19.0,,-,75,N/A,30.32,26.1,,11:53 PM,10.0,SE,8.1,130,Boise,Idaho,83701
0,Clear,2016-02-03 07:53:00,18.0,,-,75,N/A,30.32,25.0,,12:53 AM,10.0,SE,8.1,130,Boise,Idaho,83701
1,Clear,2016-02-03 08:53:00,18.0,,-,75,N/A,30.32,25.0,,1:53 AM,10.0,ESE,6.9,120,Boise,Idaho,83701
2,Clear,2016-02-03 09:53:00,17.1,,-,75,N/A,30.34,24.1,,2:53 AM,10.0,SE,8.1,130,Boise,Idaho,83701
3,Clear,2016-02-03 10:53:00,17.1,,-,75,N/A,30.35,24.1,,3:53 AM,10.0,SE,6.9,130,Boise,Idaho,83701
4,Scattered Clouds,2016-02-03 11:53:00,16.0,,-,71,N/A,30.35,24.1,,4:53 AM,10.0,ESE,8.1,120,Boise,Idaho,83701
5,Overcast,2016-02-03 12:53:00,17.1,,-,72,N/A,30.37,25.0,,5:53 AM,10.0,ESE,6.9,120,Boise,Idaho,83701
6,Overcast,2016-02-03 13:53:00,16.0,,-,69,N/A,30.37,25.0,,6:53 AM,10.0,SE,6.9,130,Boise,Idaho,83701
7,Overcast,2016-02-03 14:53:00,16.0,,-,69,N/A,30.38,25.0,,7:53 AM,10.0,SE,10.4,130,Boise,Idaho,83701
8,Scattered Clouds,2016-02-03 15:53:00,16.0,,-,69,N/A,30.39,25.0,,8:53 AM,10.0,SE,8.1,130,Boise,Idaho,83701
9,Overcast,2016-02-03 16:53:00,17.1,,-,63,N/A,30.41,28.0,,9:53 AM,10.0,SE,10.4,130,Boise,Idaho,83701
10,Scattered Clouds,2016-02-03 17:53:00,19.0,,-,59,N/A,30.41,32.0,,10:53 AM,10.0,ESE,10.4,120,Boise,Idaho,83701
11,Clear,2016-02-03 18:53:00,21.0,,-,57,N/A,30.40,35.1,,11:53 AM,10.0,SSE,13.8,150,Boise,Idaho,83701
12,Partly Cloudy,2016-02-03 19:53:00,21.9,,-,54,N/A,30.38,37.0,,12:53 PM,10.0,SSE,11.5,150,Boise,Idaho,83701
13,Scattered Clouds,2016-02-03 20:53:00,21.9,,-,53,N/A,30.37,37.9,,1:53 PM,10.0,SSE,11.5,160,Boise,Idaho,83701
14,Clear,2016-02-03 21:53:00,21.0,,-,51,N/A,30.35,37.9,,2:53 PM,10.0,SSE,10.4,150,Boise,Idaho,83701
15,Clear,2016-02-03 22:53:00,21.0,,-,51,N/A,30.35,37.9,,3:53 PM,10.0,SSE,12.7,160,Boise,Idaho,83701
16,Clear,2016-02-03 23:53:00,19.9,,-,50,N/A,30.35,37.0,,4:53 PM,10.0,SSE,13.8,150,Boise,Idaho,83701
17,Overcast,2016-02-04 00:53:00,21.0,,-,55,N/A,30.34,36.0,,5:53 PM,10.0,ESE,10.4,120,Boise,Idaho,83701
18,Overcast,2016-02-04 01:53:00,21.0,,-,57,N/A,30.35,35.1,,6:53 PM,10.0,ESE,15.0,120,Boise,Idaho,83701
19,Overcast,2016-02-04 02:53:00,19.9,,-,54,N/A,30.37,35.1,,7:53 PM,10.0,ESE,12.7,120,Boise,Idaho,83701
20,Overcast,2016-02-04 03:53:00,19.9,,20.7,54,N/A,30.38,35.1,,8:53 PM,10.0,SE,10.4,130,Boise,Idaho,83701
21,Overcast,2016-02-04 04:53:00,21.9,,20.7,61,N/A,30.38,34.0,,9:53 PM,10.0,SSE,15.0,150,Boise,Idaho,83701
22,Light Snow,2016-02-04 05:53:00,23.0,Snow,-,66,0.00,30.36,33.1,,10:53 PM,8.0,SE,13.8,140,Boise,Idaho,83701
23,Light Snow,2016-02-04 06:53:00,27.0,Snow,-,88,0.00,30.38,30.0,,11:53 PM,2.0,SE,11.5,140,Boise,Idaho,83701
0,Light Snow,2016-02-04 07:00:00,28.4,Snow,-,93,0.00,30.32,30.2,,12:00 AM,2.0,SE,10.4,140,Boise,Idaho,83701
1,Light Snow,2016-02-04 07:42:00,26.6,Snow,-,93,0.02,30.32,28.4,,12:42 AM,1.0,SE,10.4,130,Boise,Idaho,83701
2,Light Snow,2016-02-04 07:53:00,28.0,Snow,-,96,0.02,30.38,28.9,,12:53 AM,1.2,SE,10.4,130,Boise,Idaho,83701
3,Light Snow,2016-02-04 08:10:00,28.4,Snow,-,93,0.01,30.32,30.2,,1:10 AM,2.0,ESE,9.2,120,Boise,Idaho,83701
4,Light Snow,2016-02-04 08:17:00,28.4,Snow,-,93,0.01,30.32,30.2,,1:17 AM,3.0,SE,9.2,130,Boise,Idaho,83701
5,Light Snow,2016-02-04 08:53:00,27.0,Snow,-,88,0.01,30.37,30.0,,1:53 AM,2.0,SE,9.2,130,Boise,Idaho,83701
6,Light Snow,2016-02-04 09:53:00,28.0,Snow,-,92,0.02,30.38,30.0,,2:53 AM,2.0,SE,8.1,130,Boise,Idaho,83701
7,Light Snow,2016-02-04 10:24:00,28.4,Snow,-,93,0.00,30.33,30.2,,3:24 AM,1.2,SE,5.8,130,Boise,Idaho,83701
8,Light Snow,2016-02-04 10:53:00,28.9,Snow,-,96,0.02,30.40,30.0,,3:53 AM,1.2,ESE,5.8,120,Boise,Idaho,83701
9,Light Snow,2016-02-04 11:00:00,28.4,Snow,-,93,0.01,30.34,30.2,,4:00 AM,1.8,ESE,5.8,120,Boise,Idaho,83701
10,Light Snow,2016-02-04 11:35:00,28.4,Snow,-,93,0.01,30.36,30.2,,4:35 AM,2.5,ESE,4.6,110,Boise,Idaho,83701
11,Light Snow,2016-02-04 11:44:00,28.4,Snow,-,93,0.01,30.36,30.2,,4:44 AM,3.0,ESE,6.9,120,Boise,Idaho,83701
12,Light Snow,2016-02-04 11:53:00,28.9,Snow,-,96,0.01,30.41,30.0,,4:53 AM,3.0,ESE,6.9,120,Boise,Idaho,83701
13,Overcast,2016-02-04 12:53:00,28.0,,-,89,0.00,30.41,30.9,,5:53 AM,10.0,ESE,6.9,120,Boise,Idaho,83701
14,Overcast,2016-02-04 13:53:00,27.0,,-,85,N/A,30.43,30.9,,6:53 AM,10.0,SSE,8.1,150,Boise,Idaho,83701
15,Overcast,2016-02-04 14:11:00,26.6,,-,86,N/A,30.37,30.2,,7:11 AM,10.0,SE,8.1,140,Boise,Idaho,83701
16,Overcast,2016-02-04 14:21:00,26.6,,-,86,N/A,30.38,30.2,,7:21 AM,10.0,SSE,6.9,150,Boise,Idaho,83701
17,Overcast,2016-02-04 14:53:00,27.0,,-,88,N/A,30.44,30.0,,7:53 AM,10.0,South,4.6,170,Boise,Idaho,83701
18,Overcast,2016-02-04 15:42:00,26.6,,-,86,N/A,30.40,30.2,,8:42 AM,10.0,SSE,10.4,150,Boise,Idaho,83701
19,Overcast,2016-02-04 15:53:00,26.1,,-,85,N/A,30.46,30.0,,8:53 AM,10.0,SSE,9.2,160,Boise,Idaho,83701
20,Overcast,2016-02-04 16:53:00,27.0,,-,85,N/A,30.46,30.9,,9:53 AM,10.0,SE,13.8,140,Boise,Idaho,83701
21,Overcast,2016-02-04 17:53:00,27.0,,-,82,N/A,30.48,32.0,,10:53 AM,10.0,SSE,11.5,150,Boise,Idaho,83701
22,Overcast,2016-02-04 18:53:00,27.0,,-,78,N/A,30.49,33.1,,11:53 AM,10.0,SSE,13.8,150,Boise,Idaho,83701
23,Overcast,2016-02-04 19:53:00,28.9,,-,78,N/A,30.48,35.1,,12:53 PM,10.0,SE,9.2,140,Boise,Idaho,83701
24,Overcast,2016-02-04 20:53:00,30.0,,-,76,N/A,30.46,37.0,,1:53 PM,10.0,SE,6.9,130,Boise,Idaho,83701
25,Overcast,2016-02-04 21:53:00,30.0,,-,73,N/A,30.45,37.9,,2:53 PM,10.0,SE,5.8,130,Boise,Idaho,83701
26,Overcast,2016-02-04 22:53:00,30.0,,-,70,N/A,30.45,39.0,,3:53 PM,10.0,Calm,Calm,0,Boise,Idaho,83701
27,Overcast,2016-02-04 23:53:00,30.9,,-,76,N/A,30.46,37.9,,4:53 PM,10.0,Calm,Calm,0,Boise,Idaho,83701
28,Overcast,2016-02-05 00:53:00,32.0,,-,79,N/A,30.47,37.9,,5:53 PM,10.0,Calm,Calm,0,Boise,Idaho,83701
29,Overcast,2016-02-05 01:53:00,32.0,,-,86,N/A,30.48,36.0,,6:53 PM,10.0,Calm,Calm,0,Boise,Idaho,83701
30,Overcast,2016-02-05 02:53:00,32.0,,-,86,N/A,30.50,36.0,,7:53 PM,10.0,Calm,Calm,0,Boise,Idaho,83701
31,Overcast,2016-02-05 03:53:00,30.9,,-,82,N/A,30.51,36.0,,8:53 PM,10.0,Calm,Calm,0,Boise,Idaho,83701
32,Overcast,2016-02-05 04:53:00,32.0,,-,92,N/A,30.53,34.0,,9:53 PM,9.0,West,4.6,270,Boise,Idaho,83701
33,Overcast,2016-02-05 05:53:00,32.0,,-,96,N/A,30.54,33.1,,10:53 PM,5.0,West,3.5,270,Boise,Idaho,83701
34,Overcast,2016-02-05 06:39:00,32.0,,-,93,N/A,30.49,33.8,,11:39 PM,5.0,Calm,Calm,0,Boise,Idaho,83701
35,Overcast,2016-02-05 06:51:00,30.2,,-,87,N/A,30.49,33.8,,11:51 PM,4.0,Calm,Calm,0,Boise,Idaho,83701
36,Overcast,2016-02-05 06:53:00,30.9,,-,92,N/A,30.55,33.1,,11:53 PM,4.0,Calm,Calm,0,Boise,Idaho,83701
0,Overcast,2016-02-05 07:14:00,32.0,,-,93,N/A,30.49,33.8,,12:14 AM,4.0,Calm,Calm,0,Boise,Idaho,83701
1,Overcast,2016-02-05 07:53:00,30.9,,-,96,N/A,30.55,32.0,,12:53 AM,3.0,SSW,3.5,210,Boise,Idaho,83701
2,Overcast,2016-02-05 08:00:00,30.2,,-,93,N/A,30.49,32.0,,1:00 AM,3.0,SSW,4.6,210,Boise,Idaho,83701
3,Overcast,2016-02-05 08:53:00,30.9,,-,96,N/A,30.56,32.0,,1:53 AM,3.0,Calm,Calm,0,Boise,Idaho,83701
4,Overcast,2016-02-05 09:53:00,30.9,,-,96,N/A,30.58,32.0,,2:53 AM,3.0,WSW,3.5,240,Boise,Idaho,83701
5,Overcast,2016-02-05 10:25:00,32.0,,-,93,0.00,30.53,33.8,,3:25 AM,2.5,SE,3.5,130,Boise,Idaho,83701
6,Overcast,2016-02-05 10:42:00,32.0,,-,93,0.01,30.53,33.8,,3:42 AM,3.0,Calm,Calm,0,Boise,Idaho,83701
7,Overcast,2016-02-05 10:53:00,30.9,,-,96,0.01,30.58,32.0,,3:53 AM,2.5,East,3.5,90,Boise,Idaho,83701
8,Overcast,2016-02-05 11:53:00,32.0,,-,100,N/A,30.58,32.0,,4:53 AM,2.0,Calm,Calm,0,Boise,Idaho,83701
9,Mostly Cloudy,2016-02-05 12:05:00,30.2,,-,93,N/A,30.53,32.0,,5:05 AM,2.0,Calm,Calm,0,Boise,Idaho,83701
10,Partly Cloudy,2016-02-05 12:26:00,30.2,,-,100,N/A,30.53,30.2,,5:26 AM,1.8,Calm,Calm,0,Boise,Idaho,83701
11,Clear,2016-02-05 12:41:00,30.2,,-,100,N/A,30.53,30.2,,5:41 AM,2.0,Calm,Calm,0,Boise,Idaho,83701
12,Clear,2016-02-05 12:53:00,30.9,,-,96,N/A,30.58,32.0,,5:53 AM,2.0,NNE,3.5,30,Boise,Idaho,83701
13,Clear,2016-02-05 13:53:00,28.9,,-,96,N/A,30.59,30.0,,6:53 AM,1.8,Calm,Calm,0,Boise,Idaho,83701
14,Clear,2016-02-05 14:09:00,28.4,,-,93,N/A,30.52,30.2,,7:09 AM,2.0,Calm,Calm,0,Boise,Idaho,83701
15,Clear,2016-02-05 14:18:00,28.4,,-,100,N/A,30.53,28.4,,7:18 AM,1.8,Calm,Calm,0,Boise,Idaho,83701
16,Scattered Clouds,2016-02-05 14:33:00,28.4,,-,93,N/A,30.53,30.2,,7:33 AM,1.8,North,3.5,360,Boise,Idaho,83701
17,Mostly Cloudy,2016-02-05 14:40:00,30.2,,-,100,N/A,30.52,30.2,,7:40 AM,1.2,NNE,3.5,30,Boise,Idaho,83701
18,Light Freezing Fog,2016-02-05 14:45:00,30.2,Fog,-,100,N/A,30.52,30.2,,7:45 AM,0.5,Calm,Calm,0,Boise,Idaho,83701
19,Light Freezing Fog,2016-02-05 14:51:00,30.2,Fog,-,100,N/A,30.52,30.2,,7:51 AM,0.2,Calm,Calm,0,Boise,Idaho,83701
20,Light Freezing Fog,2016-02-05 14:52:00,30.9,Fog,-,100,N/A,30.58,30.9,,7:52 AM,0.2,Calm,Calm,0,Boise,Idaho,83701
21,Light Freezing Fog,2016-02-05 15:53:00,30.0,Fog,-,100,N/A,30.59,30.0,,8:53 AM,0.2,Calm,Calm,0,Boise,Idaho,83701
22,Light Freezing Fog,2016-02-05 16:53:00,28.9,Fog,-,100,N/A,30.61,28.9,,9:53 AM,0.2,Calm,Calm,0,Boise,Idaho,83701
23,Light Freezing Fog,2016-02-05 17:53:00,30.0,Fog,-,100,N/A,30.62,30.0,,10:53 AM,0.2,Calm,Calm,0,Boise,Idaho,83701
24,Light Freezing Fog,2016-02-05 17:57:00,30.2,Fog,-,100,N/A,30.55,30.2,,10:57 AM,0.2,Calm,Calm,0,Boise,Idaho,83701
25,Light Freezing Fog,2016-02-05 18:22:00,30.2,Fog,-,100,N/A,30.55,30.2,,11:22 AM,0.2,Calm,Calm,0,Boise,Idaho,83701
26,Mist,2016-02-05 18:39:00,32.0,,-,100,N/A,30.55,32.0,,11:39 AM,0.8,Calm,Calm,0,Boise,Idaho,83701
27,Scattered Clouds,2016-02-05 18:53:00,32.0,,-,100,N/A,30.61,32.0,,11:53 AM,1.8,Calm,Calm,0,Boise,Idaho,83701
28,Partly Cloudy,2016-02-05 19:04:00,33.8,,-,93,N/A,30.54,35.6,,12:04 PM,2.5,Calm,Calm,0,Boise,Idaho,83701
29,Clear,2016-02-05 19:11:00,33.8,,-,93,N/A,30.53,35.6,,12:11 PM,3.0,Calm,Calm,0,Boise,Idaho,83701
30,Clear,2016-02-05 19:53:00,34.0,,-,79,N/A,30.56,39.9,,12:53 PM,10.0,SSE,8.1,150,Boise,Idaho,83701
31,Clear,2016-02-05 20:53:00,36.0,,-,79,N/A,30.54,42.1,,1:53 PM,10.0,South,10.4,170,Boise,Idaho,83701
32,Clear,2016-02-05 21:53:00,36.0,,-,68,N/A,30.51,46.0,,2:53 PM,10.0,SSE,9.2,160,Boise,Idaho,83701
33,Clear,2016-02-05 22:53:00,36.0,,-,66,N/A,30.51,46.9,,3:53 PM,10.0,SSE,6.9,160,Boise,Idaho,83701
34,Clear,2016-02-05 23:53:00,35.1,,-,68,N/A,30.50,45.0,,4:53 PM,10.0,South,9.2,170,Boise,Idaho,83701
35,Clear,2016-02-06 00:53:00,34.0,,-,76,N/A,30.48,41.0,,5:53 PM,10.0,SSE,10.4,150,Boise,Idaho,83701
36,Clear,2016-02-06 01:53:00,32.0,,-,79,N/A,30.49,37.9,,6:53 PM,10.0,SE,12.7,140,Boise,Idaho,83701
37,Clear,2016-02-06 02:53:00,30.0,,-,79,N/A,30.49,36.0,,7:53 PM,10.0,SSE,16.1,150,Boise,Idaho,83701
38,Clear,2016-02-06 03:53:00,28.9,,-,76,N/A,30.48,36.0,,8:53 PM,10.0,SE,11.5,130,Boise,Idaho,83701
39,Clear,2016-02-06 04:53:00,28.9,,-,70,N/A,30.47,37.9,,9:53 PM,10.0,SE,12.7,140,Boise,Idaho,83701
40,Clear,2016-02-06 05:53:00,28.9,,-,76,N/A,30.49,36.0,,10:53 PM,10.0,SSE,10.4,150,Boise,Idaho,83701
41,Clear,2016-02-06 06:53:00,28.0,,-,76,N/A,30.48,35.1,,11:53 PM,10.0,SE,16.1,140,Boise,Idaho,83701
0,Clear,2016-02-06 07:53:00,28.0,,-,76,N/A,30.45,35.1,,12:53 AM,10.0,SSE,12.7,160,Boise,Idaho,83701
1,Clear,2016-02-06 08:53:00,28.0,,-,76,N/A,30.44,35.1,,1:53 AM,10.0,SSE,15.0,150,Boise,Idaho,83701
2,Scattered Clouds,2016-02-06 09:53:00,27.0,,-,75,N/A,30.46,34.0,,2:53 AM,10.0,SSE,15.0,150,Boise,Idaho,83701
3,Mostly Cloudy,2016-02-06 10:53:00,28.0,,-,79,N/A,30.47,34.0,,3:53 AM,10.0,ESE,8.1,110,Boise,Idaho,83701
4,Overcast,2016-02-06 11:53:00,28.9,,-,85,N/A,30.48,33.1,,4:53 AM,10.0,Calm,Calm,0,Boise,Idaho,83701
5,Mostly Cloudy,2016-02-06 12:53:00,27.0,,-,78,N/A,30.46,33.1,,5:53 AM,10.0,SSE,11.5,150,Boise,Idaho,83701
6,Overcast,2016-02-06 13:53:00,27.0,,-,78,N/A,30.45,33.1,,6:53 AM,10.0,SSE,13.8,160,Boise,Idaho,83701
7,Overcast,2016-02-06 14:53:00,27.0,,-,75,N/A,30.46,34.0,,7:53 AM,10.0,SE,13.8,140,Boise,Idaho,83701
8,Overcast,2016-02-06 15:53:00,27.0,,-,72,N/A,30.45,35.1,,8:53 AM,10.0,SSE,16.1,150,Boise,Idaho,83701
9,Overcast,2016-02-06 16:53:00,28.9,,-,70,N/A,30.47,37.9,,9:53 AM,10.0,SE,5.8,140,Boise,Idaho,83701
10,Mostly Cloudy,2016-02-06 17:53:00,30.0,,-,70,N/A,30.50,39.0,,10:53 AM,10.0,North,4.6,10,Boise,Idaho,83701
11,Overcast,2016-02-06 18:53:00,30.9,,-,70,N/A,30.51,39.9,,11:53 AM,10.0,NNW,5.8,330,Boise,Idaho,83701
12,Mostly Cloudy,2016-02-06 19:53:00,30.9,,-,62,N/A,30.49,43.0,,12:53 PM,10.0,North,3.5,350,Boise,Idaho,83701
13,Overcast,2016-02-06 20:53:00,30.9,,-,60,N/A,30.47,44.1,,1:53 PM,10.0,NW,3.5,320,Boise,Idaho,83701
14,Scattered Clouds,2016-02-06 21:53:00,30.9,,-,56,N/A,30.45,46.0,,2:53 PM,10.0,Variable,4.6,0,Boise,Idaho,83701
15,Mostly Cloudy,2016-02-06 22:53:00,32.0,,-,63,N/A,30.46,44.1,,3:53 PM,10.0,NW,8.1,310,Boise,Idaho,83701
16,Mostly Cloudy,2016-02-06 23:53:00,32.0,,-,65,N/A,30.46,43.0,,4:53 PM,10.0,WNW,6.9,300,Boise,Idaho,83701
17,Mostly Cloudy,2016-02-07 00:53:00,32.0,,-,70,N/A,30.48,41.0,,5:53 PM,10.0,NW,6.9,310,Boise,Idaho,83701
18,Clear,2016-02-07 01:53:00,32.0,,-,76,N/A,30.48,39.0,,6:53 PM,10.0,West,5.8,280,Boise,Idaho,83701
19,Clear,2016-02-07 02:53:00,32.0,,-,82,N/A,30.49,37.0,,7:53 PM,10.0,WNW,5.8,290,Boise,Idaho,83701
20,Clear,2016-02-07 03:53:00,30.0,,-,85,N/A,30.51,34.0,,8:53 PM,9.0,WNW,5.8,300,Boise,Idaho,83701
21,Clear,2016-02-07 04:53:00,30.0,,-,89,N/A,30.51,33.1,,9:53 PM,7.0,Calm,Calm,0,Boise,Idaho,83701
22,Clear,2016-02-07 05:53:00,28.9,,-,92,N/A,30.52,30.9,,10:53 PM,5.0,Calm,Calm,0,Boise,Idaho,83701
23,Clear,2016-02-07 06:53:00,28.0,,-,92,N/A,30.51,30.0,,11:53 PM,6.0,Calm,Calm,0,Boise,Idaho,83701
0,Clear,2016-02-07 07:53:00,27.0,,-,92,N/A,30.52,28.9,,12:53 AM,6.0,Calm,Calm,0,Boise,Idaho,83701
1,Clear,2016-02-07 08:53:00,27.0,,-,88,N/A,30.54,30.0,,1:53 AM,5.0,Calm,Calm,0,Boise,Idaho,83701
2,Partly Cloudy,2016-02-07 09:53:00,26.1,,-,89,N/A,30.56,28.9,,2:53 AM,6.0,Calm,Calm,0,Boise,Idaho,83701
3,Clear,2016-02-07 10:53:00,26.1,,-,92,N/A,30.57,28.0,,3:53 AM,5.0,ESE,3.5,110,Boise,Idaho,83701
4,Partly Cloudy,2016-02-07 11:53:00,25.0,,-,92,N/A,30.57,27.0,,4:53 AM,5.0,Calm,Calm,0,Boise,Idaho,83701
5,Clear,2016-02-07 12:53:00,26.1,,-,92,N/A,30.59,28.0,,5:53 AM,4.0,NNE,4.6,20,Boise,Idaho,83701
6,Overcast,2016-02-07 13:53:00,26.1,,-,92,N/A,30.60,28.0,,6:53 AM,5.0,Calm,Calm,0,Boise,Idaho,83701
7,Overcast,2016-02-07 14:53:00,27.0,,-,92,N/A,30.64,28.9,,7:53 AM,4.0,Calm,Calm,0,Boise,Idaho,83701
8,Scattered Clouds,2016-02-07 15:53:00,28.0,,-,92,N/A,30.67,30.0,,8:53 AM,5.0,Calm,Calm,0,Boise,Idaho,83701
9,Mostly Cloudy,2016-02-07 16:53:00,30.0,,-,89,N/A,30.69,33.1,,9:53 AM,5.0,Calm,Calm,0,Boise,Idaho,83701
10,Clear,2016-02-07 17:53:00,32.0,,-,86,N/A,30.70,36.0,,10:53 AM,7.0,Calm,Calm,0,Boise,Idaho,83701
11,Clear,2016-02-07 18:53:00,33.1,,-,77,N/A,30.69,39.9,,11:53 AM,8.0,Variable,3.5,0,Boise,Idaho,83701
12,Clear,2016-02-07 19:53:00,33.1,,-,68,N/A,30.66,43.0,,12:53 PM,10.0,Calm,Calm,0,Boise,Idaho,83701
13,Clear,2016-02-07 20:53:00,35.1,,-,63,N/A,30.65,46.9,,1:53 PM,10.0,NW,8.1,320,Boise,Idaho,83701
14,Clear,2016-02-07 21:53:00,34.0,,-,61,N/A,30.63,46.9,,2:53 PM,10.0,NW,8.1,310,Boise,Idaho,83701
15,Clear,2016-02-07 22:53:00,36.0,,-,66,N/A,30.63,46.9,,3:53 PM,10.0,NW,8.1,310,Boise,Idaho,83701
16,Clear,2016-02-07 23:53:00,36.0,,-,66,N/A,30.66,46.9,,4:53 PM,10.0,WNW,10.4,300,Boise,Idaho,83701
17,Clear,2016-02-08 00:53:00,35.1,,-,68,N/A,30.67,45.0,,5:53 PM,10.0,WNW,6.9,290,Boise,Idaho,83701
18,Clear,2016-02-08 01:53:00,34.0,,-,73,N/A,30.67,42.1,,6:53 PM,10.0,Calm,Calm,0,Boise,Idaho,83701
19,Clear,2016-02-08 02:53:00,33.1,,-,79,N/A,30.69,39.0,,7:53 PM,10.0,Calm,Calm,0,Boise,Idaho,83701
20,Clear,2016-02-08 03:53:00,33.1,,-,86,N/A,30.69,37.0,,8:53 PM,10.0,Calm,Calm,0,Boise,Idaho,83701
21,Clear,2016-02-08 04:53:00,32.0,,-,89,N/A,30.70,35.1,,9:53 PM,10.0,Calm,Calm,0,Boise,Idaho,83701
22,Clear,2016-02-08 05:53:00,30.0,,-,85,N/A,30.71,34.0,,10:53 PM,10.0,Calm,Calm,0,Boise,Idaho,83701
23,Clear,2016-02-08 06:53:00,30.0,,-,89,N/A,30.72,33.1,,11:53 PM,10.0,SE,8.1,140,Boise,Idaho,83701
0,Clear,2016-02-08 07:53:00,30.9,,-,89,N/A,30.71,34.0,,12:53 AM,9.0,SSE,6.9,160,Boise,Idaho,83701
1,Clear,2016-02-08 08:53:00,30.0,,-,89,N/A,30.71,33.1,,1:53 AM,10.0,SE,5.8,130,Boise,Idaho,83701
2,Clear,2016-02-08 09:53:00,30.0,,-,89,N/A,30.71,33.1,,2:53 AM,10.0,SE,6.9,130,Boise,Idaho,83701
3,Clear,2016-02-08 10:53:00,28.9,,-,88,N/A,30.71,32.0,,3:53 AM,10.0,SE,5.8,130,Boise,Idaho,83701
4,Clear,2016-02-08 11:53:00,28.0,,-,85,N/A,30.70,32.0,,4:53 AM,10.0,SE,6.9,140,Boise,Idaho,83701
5,Clear,2016-02-08 12:53:00,27.0,,-,82,N/A,30.71,32.0,,5:53 AM,10.0,SE,8.1,130,Boise,Idaho,83701
6,Clear,2016-02-08 13:53:00,28.0,,-,85,N/A,30.73,32.0,,6:53 AM,10.0,SE,8.1,140,Boise,Idaho,83701
7,Clear,2016-02-08 14:53:00,27.0,,-,82,N/A,30.74,32.0,,7:53 AM,10.0,SE,9.2,140,Boise,Idaho,83701
8,Clear,2016-02-08 15:53:00,28.0,,-,85,N/A,30.75,32.0,,8:53 AM,10.0,ESE,3.5,120,Boise,Idaho,83701
9,Clear,2016-02-08 16:53:00,30.0,,-,79,N/A,30.76,36.0,,9:53 AM,10.0,SSE,3.5,150,Boise,Idaho,83701
10,Clear,2016-02-08 17:53:00,32.0,,-,76,N/A,30.78,39.0,,10:53 AM,10.0,South,12.7,170,Boise,Idaho,83701
11,Clear,2016-02-08 18:53:00,33.1,,-,77,N/A,30.77,39.9,,11:53 AM,10.0,SSE,13.8,150,Boise,Idaho,83701
12,Clear,2016-02-08 19:53:00,34.0,,-,73,N/A,30.75,42.1,,12:53 PM,10.0,SSE,10.4,160,Boise,Idaho,83701
13,Clear,2016-02-08 20:53:00,34.0,,-,71,N/A,30.72,43.0,,1:53 PM,10.0,South,13.8,180,Boise,Idaho,83701
14,Clear,2016-02-08 21:53:00,35.1,,-,71,N/A,30.69,44.1,,2:53 PM,10.0,South,13.8,180,Boise,Idaho,83701
15,Clear,2016-02-08 22:53:00,34.0,,-,68,N/A,30.69,44.1,,3:53 PM,10.0,South,9.2,180,Boise,Idaho,83701
16,Clear,2016-02-08 23:53:00,34.0,,-,68,N/A,30.69,44.1,,4:53 PM,10.0,South,8.1,180,Boise,Idaho,83701
17,Clear,2016-02-09 00:53:00,33.1,,-,70,N/A,30.69,42.1,,5:53 PM,10.0,South,6.9,180,Boise,Idaho,83701
18,Clear,2016-02-09 01:53:00,32.0,,-,73,N/A,30.70,39.9,,6:53 PM,10.0,Calm,Calm,0,Boise,Idaho,83701
19,Clear,2016-02-09 02:53:00,32.0,,-,79,N/A,30.69,37.9,,7:53 PM,10.0,Calm,Calm,0,Boise,Idaho,83701
20,Clear,2016-02-09 03:53:00,30.9,,-,82,N/A,30.69,36.0,,8:53 PM,10.0,SE,3.5,140,Boise,Idaho,83701
21,Clear,2016-02-09 04:53:00,30.0,,-,82,N/A,30.69,35.1,,9:53 PM,10.0,South,4.6,170,Boise,Idaho,83701
22,Clear,2016-02-09 05:53:00,30.0,,-,85,N/A,30.69,34.0,,10:53 PM,10.0,ESE,5.8,110,Boise,Idaho,83701
23,Clear,2016-02-09 06:53:00,28.0,,-,82,N/A,30.69,33.1,,11:53 PM,10.0,ESE,8.1,120,Boise,Idaho,83701
0,Clear,2016-02-09 07:53:00,27.0,,-,75,N/A,30.68,34.0,,12:53 AM,10.0,SE,8.1,140,Boise,Idaho,83701
1,Mostly Cloudy,2016-02-09 08:35:00,28.4,,-,87,N/A,30.62,32.0,,1:35 AM,10.0,ESE,4.6,120,Boise,Idaho,83701
2,Overcast,2016-02-09 08:53:00,28.0,,-,85,N/A,30.66,32.0,,1:53 AM,10.0,SE,3.5,140,Boise,Idaho,83701
3,Overcast,2016-02-09 08:54:00,28.4,,-,87,N/A,30.62,32.0,,1:54 AM,10.0,SE,3.5,140,Boise,Idaho,83701
4,Overcast,2016-02-09 09:53:00,26.1,,-,82,N/A,30.66,30.9,,2:53 AM,10.0,SSE,4.6,160,Boise,Idaho,83701
5,Scattered Clouds,2016-02-09 10:13:00,26.6,,-,86,N/A,30.62,30.2,,3:13 AM,10.0,SSE,5.8,150,Boise,Idaho,83701
6,Clear,2016-02-09 10:53:00,25.0,,-,85,N/A,30.66,28.9,,3:53 AM,10.0,SE,3.5,130,Boise,Idaho,83701
7,Mostly Cloudy,2016-02-09 11:27:00,24.8,,-,86,N/A,30.60,28.4,,4:27 AM,10.0,SSE,3.5,160,Boise,Idaho,83701
8,Overcast,2016-02-09 11:53:00,25.0,,-,85,N/A,30.66,28.9,,4:53 AM,10.0,SSE,8.1,160,Boise,Idaho,83701
9,Overcast,2016-02-09 12:53:00,24.1,,-,85,N/A,30.66,28.0,,5:53 AM,10.0,SSE,5.8,150,Boise,Idaho,83701
10,Overcast,2016-02-09 13:06:00,24.8,,-,86,N/A,30.60,28.4,,6:06 AM,10.0,SSE,8.1,150,Boise,Idaho,83701
11,Overcast,2016-02-09 13:53:00,23.0,,-,81,N/A,30.66,28.0,,6:53 AM,10.0,SSE,8.1,160,Boise,Idaho,83701
12,Overcast,2016-02-09 14:16:00,23.0,,-,86,N/A,30.60,26.6,,7:16 AM,10.0,South,6.9,170,Boise,Idaho,83701
13,Scattered Clouds,2016-02-09 14:37:00,23.0,,-,86,N/A,30.59,26.6,,7:37 AM,10.0,South,8.1,170,Boise,Idaho,83701
14,Scattered Clouds,2016-02-09 14:53:00,23.0,,-,85,N/A,30.66,27.0,,7:53 AM,10.0,South,8.1,170,Boise,Idaho,83701
15,Mostly Cloudy,2016-02-09 15:31:00,23.0,,-,86,N/A,30.60,26.6,,8:31 AM,10.0,SSE,10.4,150,Boise,Idaho,83701
16,Overcast,2016-02-09 15:53:00,23.0,,-,81,N/A,30.67,28.0,,8:53 AM,10.0,SSE,11.5,160,Boise,Idaho,83701
17,Overcast,2016-02-09 16:34:00,24.8,,-,80,N/A,30.61,30.2,,9:34 AM,10.0,SE,11.5,140,Boise,Idaho,83701
18,Overcast,2016-02-09 16:53:00,25.0,,-,82,N/A,30.67,30.0,,9:53 AM,10.0,SE,9.2,140,Boise,Idaho,83701
19,Overcast,2016-02-09 17:36:00,26.6,,-,86,N/A,30.60,30.2,,10:36 AM,10.0,SSE,6.9,160,Boise,Idaho,83701
20,Overcast,2016-02-09 17:53:00,27.0,,-,78,N/A,30.66,33.1,,10:53 AM,10.0,SSE,6.9,150,Boise,Idaho,83701
21,Overcast,2016-02-09 18:53:00,28.0,,-,79,N/A,30.65,34.0,,11:53 AM,10.0,Calm,Calm,0,Boise,Idaho,83701
22,Overcast,2016-02-09 19:01:00,28.4,,-,75,N/A,30.59,35.6,,12:01 PM,10.0,Calm,Calm,0,Boise,Idaho,83701
23,Scattered Clouds,2016-02-09 19:53:00,28.9,,-,73,N/A,30.61,37.0,,12:53 PM,10.0,Calm,Calm,0,Boise,Idaho,83701
24,Clear,2016-02-09 20:53:00,30.9,,-,67,N/A,30.57,41.0,,1:53 PM,10.0,Calm,Calm,0,Boise,Idaho,83701
25,Clear,2016-02-09 21:53:00,30.9,,-,65,N/A,30.54,42.1,,2:53 PM,10.0,Calm,Calm,0,Boise,Idaho,83701
26,Clear,2016-02-09 22:53:00,32.0,,-,63,N/A,30.53,44.1,,3:53 PM,10.0,SSW,5.8,210,Boise,Idaho,83701
27,Clear,2016-02-09 23:53:00,32.0,,-,63,N/A,30.51,44.1,,4:53 PM,10.0,SW,3.5,220,Boise,Idaho,83701
28,Clear,2016-02-10 00:53:00,33.1,,-,70,N/A,30.49,42.1,,5:53 PM,10.0,SW,6.9,220,Boise,Idaho,83701
29,Clear,2016-02-10 01:53:00,32.0,,-,79,N/A,30.50,37.9,,6:53 PM,10.0,SW,3.5,220,Boise,Idaho,83701
30,Clear,2016-02-10 02:53:00,30.0,,-,85,N/A,30.52,34.0,,7:53 PM,10.0,Calm,Calm,0,Boise,Idaho,83701
31,Clear,2016-02-10 03:53:00,28.9,,-,88,N/A,30.53,32.0,,8:53 PM,9.0,Calm,Calm,0,Boise,Idaho,83701
32,Clear,2016-02-10 04:53:00,28.0,,-,85,N/A,30.52,32.0,,9:53 PM,8.0,Calm,Calm,0,Boise,Idaho,83701
33,Clear,2016-02-10 05:53:00,27.0,,-,88,N/A,30.51,30.0,,10:53 PM,8.0,Calm,Calm,0,Boise,Idaho,83701
34,Clear,2016-02-10 06:53:00,28.0,,-,92,N/A,30.49,30.0,,11:53 PM,7.0,Calm,Calm,0,Boise,Idaho,83701
0,Clear,2016-02-10 07:53:00,27.0,,-,92,N/A,30.51,28.9,,12:53 AM,5.0,West,4.6,270,Boise,Idaho,83701
1,Partly Cloudy,2016-02-10 08:07:00,26.6,,-,93,N/A,30.45,28.4,,1:07 AM,1.5,WNW,4.6,300,Boise,Idaho,83701
2,Mist,2016-02-10 08:09:00,26.6,,-,93,N/A,30.45,28.4,,1:09 AM,0.8,WNW,4.6,300,Boise,Idaho,83701
3,Light Freezing Fog,2016-02-10 08:16:00,26.6,Fog,-,93,N/A,30.45,28.4,,1:16 AM,0.2,WNW,4.6,290,Boise,Idaho,83701
4,Light Freezing Fog,2016-02-10 08:53:00,28.0,Fog,-,100,N/A,30.48,28.0,,1:53 AM,0.2,Calm,Calm,0,Boise,Idaho,83701
5,Light Freezing Fog,2016-02-10 09:53:00,28.9,Fog,-,100,N/A,30.47,28.9,,2:53 AM,0.2,Calm,Calm,0,Boise,Idaho,83701
6,Light Freezing Fog,2016-02-10 10:53:00,25.0,Fog,-,96,N/A,30.47,26.1,,3:53 AM,0.2,Calm,Calm,0,Boise,Idaho,83701
7,Light Freezing Fog,2016-02-10 11:53:00,28.0,Fog,-,96,N/A,30.49,28.9,,4:53 AM,0.2,NNW,3.5,340,Boise,Idaho,83701
8,Light Freezing Fog,2016-02-10 12:33:00,28.4,Fog,-,100,N/A,30.43,28.4,,5:33 AM,0.2,Calm,Calm,0,Boise,Idaho,83701
9,Light Freezing Fog,2016-02-10 12:41:00,26.6,Fog,-,93,N/A,30.43,28.4,,5:41 AM,0.2,Calm,Calm,0,Boise,Idaho,83701
10,Light Freezing Fog,2016-02-10 12:53:00,28.0,Fog,-,100,N/A,30.48,28.0,,5:53 AM,0.2,ESE,3.5,110,Boise,Idaho,83701
11,Light Freezing Fog,2016-02-10 13:20:00,26.6,Fog,-,100,N/A,30.41,26.6,,6:20 AM,0.2,SE,5.8,130,Boise,Idaho,83701
12,Light Freezing Fog,2016-02-10 13:32:00,26.6,Fog,-,100,N/A,30.42,26.6,,6:32 AM,0.2,SSE,3.5,150,Boise,Idaho,83701
13,Mist,2016-02-10 13:37:00,26.6,,-,100,N/A,30.42,26.6,,6:37 AM,1.0,SSE,4.6,160,Boise,Idaho,83701
14,Mostly Cloudy,2016-02-10 13:45:00,26.6,,-,100,N/A,30.42,26.6,,6:45 AM,3.0,Calm,Calm,0,Boise,Idaho,83701
15,Scattered Clouds,2016-02-10 13:53:00,25.0,,-,92,N/A,30.48,27.0,,6:53 AM,6.0,ESE,3.5,120,Boise,Idaho,83701
16,Partly Cloudy,2016-02-10 14:28:00,24.8,,-,93,N/A,30.43,26.6,,7:28 AM,1.5,WNW,6.9,300,Boise,Idaho,83701
17,Mist,2016-02-10 14:30:00,26.6,,-,100,N/A,30.43,26.6,,7:30 AM,0.8,WNW,6.9,300,Boise,Idaho,83701
18,Light Freezing Fog,2016-02-10 14:38:00,26.6,Fog,-,100,N/A,30.44,26.6,,7:38 AM,0.2,NNW,5.8,330,Boise,Idaho,83701
19,Light Freezing Fog,2016-02-10 14:44:00,26.6,Fog,-,100,N/A,30.44,26.6,,7:44 AM,0.5,NNW,5.8,340,Boise,Idaho,83701
20,Light Freezing Fog,2016-02-10 14:53:00,27.0,Fog,-,100,N/A,30.50,27.0,,7:53 AM,0.2,NNW,4.6,330,Boise,Idaho,83701
21,Light Freezing Fog,2016-02-10 15:53:00,27.0,Fog,-,96,N/A,30.51,28.0,,8:53 AM,0.2,Calm,Calm,0,Boise,Idaho,83701
22,Light Freezing Fog,2016-02-10 16:00:00,28.4,Fog,-,100,N/A,30.45,28.4,,9:00 AM,0.2,Calm,Calm,0,Boise,Idaho,83701
23,Light Freezing Fog,2016-02-10 16:53:00,28.9,Fog,-,96,N/A,30.53,30.0,,9:53 AM,0.2,Calm,Calm,0,Boise,Idaho,83701
24,Overcast,2016-02-10 17:13:00,28.4,,-,93,N/A,30.48,30.2,,10:13 AM,1.0,Calm,Calm,0,Boise,Idaho,83701
25,Overcast,2016-02-10 17:22:00,28.4,,-,93,N/A,30.48,30.2,,10:22 AM,1.8,Calm,Calm,0,Boise,Idaho,83701
26,Overcast,2016-02-10 17:31:00,28.4,,-,93,N/A,30.48,30.2,,10:31 AM,3.0,North,5.8,10,Boise,Idaho,83701
27,Overcast,2016-02-10 17:53:00,28.9,,-,92,N/A,30.54,30.9,,10:53 AM,4.0,North,3.5,350,Boise,Idaho,83701
28,Overcast,2016-02-10 18:04:00,28.4,,-,93,N/A,30.47,30.2,,11:04 AM,4.0,Calm,Calm,0,Boise,Idaho,83701
29,Clear,2016-02-10 21:53:00,30.9,,-,67,N/A,30.46,41.0,,2:53 PM,10.0,Calm,Calm,0,Boise,Idaho,83701
30,Clear,2016-02-10 22:53:00,30.9,,-,65,N/A,30.44,42.1,,3:53 PM,10.0,Calm,Calm,0,Boise,Idaho,83701
31,Clear,2016-02-10 23:53:00,33.1,,-,73,N/A,30.47,41.0,,4:53 PM,10.0,NNW,10.4,340,Boise,Idaho,83701
32,Clear,2016-02-11 00:53:00,32.0,,-,82,N/A,30.48,37.0,,5:53 PM,9.0,NW,5.8,320,Boise,Idaho,83701
33,Clear,2016-02-11 01:53:00,30.9,,-,82,N/A,30.49,36.0,,6:53 PM,10.0,Calm,Calm,0,Boise,Idaho,83701
34,Partly Cloudy,2016-02-11 02:53:00,30.9,,-,82,N/A,30.49,36.0,,7:53 PM,9.0,West,4.6,280,Boise,Idaho,83701
35,Clear,2016-02-11 03:53:00,30.9,,-,89,N/A,30.49,34.0,,8:53 PM,8.0,West,4.6,280,Boise,Idaho,83701
36,Clear,2016-02-11 04:53:00,28.9,,-,85,N/A,30.48,33.1,,9:53 PM,6.0,Calm,Calm,0,Boise,Idaho,83701
37,Clear,2016-02-11 05:53:00,28.9,,-,92,N/A,30.48,30.9,,10:53 PM,5.0,SW,3.5,230,Boise,Idaho,83701
38,Clear,2016-02-11 06:53:00,28.9,,-,92,N/A,30.48,30.9,,11:53 PM,4.0,Calm,Calm,0,Boise,Idaho,83701
0,Clear,2016-02-11 07:53:00,28.0,,-,92,N/A,30.48,30.0,,12:53 AM,4.0,Calm,Calm,0,Boise,Idaho,83701
1,Clear,2016-02-11 08:53:00,28.0,,-,92,N/A,30.47,30.0,,1:53 AM,4.0,Calm,Calm,0,Boise,Idaho,83701
2,Partly Cloudy,2016-02-11 09:25:00,26.6,,-,93,N/A,30.41,28.4,,2:25 AM,5.0,Calm,Calm,0,Boise,Idaho,83701
3,Clear,2016-02-11 09:53:00,28.0,,-,92,N/A,30.46,30.0,,2:53 AM,4.0,ESE,3.5,110,Boise,Idaho,83701
4,Clear,2016-02-11 10:53:00,28.9,,-,92,N/A,30.45,30.9,,3:53 AM,5.0,Calm,Calm,0,Boise,Idaho,83701
5,Clear,2016-02-11 11:53:00,30.0,,-,92,N/A,30.43,32.0,,4:53 AM,6.0,Calm,Calm,0,Boise,Idaho,83701
6,Clear,2016-02-11 12:53:00,30.0,,-,92,N/A,30.46,32.0,,5:53 AM,6.0,West,3.5,280,Boise,Idaho,83701
7,Clear,2016-02-11 13:53:00,28.9,,-,96,N/A,30.47,30.0,,6:53 AM,5.0,North,3.5,350,Boise,Idaho,83701
8,Clear,2016-02-11 14:53:00,27.0,,-,82,N/A,30.45,32.0,,7:53 AM,10.0,SE,6.9,130,Boise,Idaho,83701
9,Mostly Cloudy,2016-02-11 15:53:00,28.9,,-,85,N/A,30.45,33.1,,8:53 AM,8.0,ESE,6.9,110,Boise,Idaho,83701
10,Partly Cloudy,2016-02-11 16:53:00,30.0,,-,79,N/A,30.45,36.0,,9:53 AM,9.0,SSW,4.6,200,Boise,Idaho,83701
11,Clear,2016-02-11 17:53:00,28.9,,-,70,N/A,30.46,37.9,,10:53 AM,10.0,South,8.1,180,Boise,Idaho,83701
12,Clear,2016-02-11 18:53:00,30.9,,-,67,N/A,30.44,41.0,,11:53 AM,10.0,South,4.6,170,Boise,Idaho,83701
13,Clear,2016-02-11 19:53:00,32.0,,-,67,N/A,30.43,42.1,,12:53 PM,10.0,Calm,Calm,0,Boise,Idaho,83701
14,Clear,2016-02-11 20:53:00,33.1,,-,63,N/A,30.40,45.0,,1:53 PM,10.0,Calm,Calm,0,Boise,Idaho,83701
15,Clear,2016-02-11 21:53:00,33.1,,-,61,N/A,30.38,46.0,,2:53 PM,10.0,Calm,Calm,0,Boise,Idaho,83701
16,Clear,2016-02-11 22:53:00,34.0,,-,61,N/A,30.35,46.9,,3:53 PM,10.0,ESE,4.6,110,Boise,Idaho,83701
17,Partly Cloudy,2016-02-11 23:53:00,35.1,,-,66,N/A,30.36,46.0,,4:53 PM,10.0,WSW,4.6,240,Boise,Idaho,83701
18,Scattered Clouds,2016-02-12 00:53:00,35.1,,-,71,N/A,30.35,44.1,,5:53 PM,10.0,SSW,9.2,210,Boise,Idaho,83701
19,Scattered Clouds,2016-02-12 01:53:00,34.0,,-,76,N/A,30.40,41.0,,6:53 PM,10.0,Calm,Calm,0,Boise,Idaho,83701
20,Clear,2016-02-12 02:53:00,33.1,,-,79,N/A,30.39,39.0,,7:53 PM,10.0,South,3.5,170,Boise,Idaho,83701
21,Clear,2016-02-12 03:53:00,33.1,,-,86,N/A,30.36,37.0,,8:53 PM,9.0,SE,6.9,140,Boise,Idaho,83701
22,Clear,2016-02-12 04:53:00,30.9,,-,76,N/A,30.37,37.9,,9:53 PM,10.0,South,5.8,190,Boise,Idaho,83701
23,Clear,2016-02-12 05:53:00,30.0,,-,76,N/A,30.37,37.0,,10:53 PM,10.0,SE,3.5,140,Boise,Idaho,83701
24,Clear,2016-02-12 06:53:00,28.9,,-,78,N/A,30.37,35.1,,11:53 PM,10.0,SSE,3.5,160,Boise,Idaho,83701
0,Clear,2016-02-12 07:53:00,28.9,,-,85,N/A,30.36,33.1,,12:53 AM,10.0,Calm,Calm,0,Boise,Idaho,83701
1,Clear,2016-02-12 08:53:00,28.9,,-,85,N/A,30.36,33.1,,1:53 AM,10.0,Calm,Calm,0,Boise,Idaho,83701
2,Clear,2016-02-12 09:53:00,28.0,,-,85,N/A,30.37,32.0,,2:53 AM,10.0,Calm,Calm,0,Boise,Idaho,83701
3,Clear,2016-02-12 10:53:00,28.0,,-,85,N/A,30.36,32.0,,3:53 AM,10.0,Calm,Calm,0,Boise,Idaho,83701
4,Clear,2016-02-12 11:53:00,27.0,,-,85,N/A,30.37,30.9,,4:53 AM,10.0,Calm,Calm,0,Boise,Idaho,83701
5,Clear,2016-02-12 12:53:00,28.9,,-,88,N/A,30.38,32.0,,5:53 AM,9.0,Calm,Calm,0,Boise,Idaho,83701
6,Clear,2016-02-12 13:53:00,27.0,,-,85,N/A,30.38,30.9,,6:53 AM,10.0,Calm,Calm,0,Boise,Idaho,83701
7,Clear,2016-02-12 14:53:00,28.0,,-,92,N/A,30.40,30.0,,7:53 AM,10.0,Calm,Calm,0,Boise,Idaho,83701
8,Clear,2016-02-12 15:53:00,28.0,,-,89,N/A,30.40,30.9,,8:53 AM,10.0,Calm,Calm,0,Boise,Idaho,83701
9,Clear,2016-02-12 16:53:00,30.9,,-,79,N/A,30.38,37.0,,9:53 AM,10.0,ESE,3.5,120,Boise,Idaho,83701
10,Clear,2016-02-12 17:53:00,30.9,,-,70,N/A,30.38,39.9,,10:53 AM,10.0,Calm,Calm,0,Boise,Idaho,83701
11,Clear,2016-02-12 18:53:00,32.0,,-,63,N/A,30.36,44.1,,11:53 AM,10.0,NNW,3.5,340,Boise,Idaho,83701
12,Clear,2016-02-12 19:53:00,32.0,,-,60,N/A,30.33,45.0,,12:53 PM,10.0,ESE,4.6,110,Boise,Idaho,83701
13,Clear,2016-02-12 20:53:00,34.0,,-,61,N/A,30.32,46.9,,1:53 PM,10.0,NW,6.9,320,Boise,Idaho,83701
14,Clear,2016-02-12 21:53:00,33.1,,-,59,N/A,30.29,46.9,,2:53 PM,10.0,North,4.6,10,Boise,Idaho,83701
15,Clear,2016-02-12 22:53:00,33.1,,-,56,N/A,30.28,48.0,,3:53 PM,10.0,Calm,Calm,0,Boise,Idaho,83701
16,Clear,2016-02-12 23:53:00,33.1,,-,56,N/A,30.26,48.0,,4:53 PM,10.0,Calm,Calm,0,Boise,Idaho,83701
17,Clear,2016-02-13 00:53:00,33.1,,-,59,N/A,30.25,46.9,,5:53 PM,10.0,Calm,Calm,0,Boise,Idaho,83701
18,Scattered Clouds,2016-02-13 01:53:00,35.1,,-,71,N/A,30.25,44.1,,6:53 PM,9.0,Calm,Calm,0,Boise,Idaho,83701
19,Clear,2016-02-13 02:53:00,35.1,,-,76,N/A,30.27,42.1,,7:53 PM,8.0,Calm,Calm,0,Boise,Idaho,83701
20,Clear,2016-02-13 03:53:00,34.0,,-,73,N/A,30.26,42.1,,8:53 PM,7.0,Calm,Calm,0,Boise,Idaho,83701
21,Clear,2016-02-13 04:53:00,34.0,,-,82,N/A,30.24,39.0,,9:53 PM,7.0,Calm,Calm,0,Boise,Idaho,83701
22,Clear,2016-02-13 05:53:00,32.0,,-,76,N/A,30.22,39.0,,10:53 PM,10.0,South,5.8,170,Boise,Idaho,83701
23,Clear,2016-02-13 06:53:00,30.9,,-,73,N/A,30.20,39.0,,11:53 PM,10.0,SSW,8.1,210,Boise,Idaho,83701
0,Clear,2016-02-13 07:53:00,33.1,,-,89,N/A,30.21,36.0,,12:53 AM,7.0,NW,5.8,310,Boise,Idaho,83701
1,Overcast,2016-02-13 08:53:00,33.1,,-,92,N/A,30.22,35.1,,1:53 AM,4.0,NNW,4.6,330,Boise,Idaho,83701
2,Clear,2016-02-13 09:53:00,32.0,,-,92,N/A,30.24,34.0,,2:53 AM,4.0,Calm,Calm,0,Boise,Idaho,83701
3,Scattered Clouds,2016-02-13 10:53:00,30.9,,-,96,N/A,30.25,32.0,,3:53 AM,3.0,SW,3.5,230,Boise,Idaho,83701
4,Partly Cloudy,2016-02-13 11:26:00,30.2,,-,93,N/A,30.22,32.0,,4:26 AM,2.5,Calm,Calm,0,Boise,Idaho,83701
5,Scattered Clouds,2016-02-13 11:53:00,30.9,,-,96,N/A,30.27,32.0,,4:53 AM,2.0,Calm,Calm,0,Boise,Idaho,83701
6,Overcast,2016-02-13 12:39:00,32.0,,-,93,N/A,30.25,33.8,,5:39 AM,3.0,Calm,Calm,0,Boise,Idaho,83701
7,Overcast,2016-02-13 12:53:00,32.0,,-,96,N/A,30.28,33.1,,5:53 AM,3.0,Calm,Calm,0,Boise,Idaho,83701
8,Scattered Clouds,2016-02-13 13:53:00,30.0,,-,96,N/A,30.31,30.9,,6:53 AM,2.5,WNW,3.5,300,Boise,Idaho,83701
9,Partly Cloudy,2016-02-13 14:53:00,30.0,,-,96,N/A,30.35,30.9,,7:53 AM,1.5,Calm,Calm,0,Boise,Idaho,83701
10,Clear,2016-02-13 15:53:00,30.0,,-,96,N/A,30.38,30.9,,8:53 AM,1.5,SE,3.5,140,Boise,Idaho,83701
11,Clear,2016-02-13 16:07:00,30.2,,-,100,N/A,30.33,30.2,,9:07 AM,0.8,ESE,3.5,120,Boise,Idaho,83701
12,Light Freezing Fog,2016-02-13 16:10:00,30.2,Fog,-,100,N/A,30.33,30.2,,9:10 AM,0.2,Calm,Calm,0,Boise,Idaho,83701
13,Mist,2016-02-13 16:26:00,30.2,,-,93,N/A,30.33,32.0,,9:26 AM,0.8,SE,3.5,130,Boise,Idaho,83701
14,Partly Cloudy,2016-02-13 16:34:00,32.0,,-,93,N/A,30.33,33.8,,9:34 AM,0.8,Calm,Calm,0,Boise,Idaho,83701
15,Partly Cloudy,2016-02-13 16:36:00,32.0,,-,93,N/A,30.34,33.8,,9:36 AM,1.8,Calm,Calm,0,Boise,Idaho,83701
16,Clear,2016-02-13 16:53:00,33.1,,-,96,N/A,30.38,34.0,,9:53 AM,2.0,Calm,Calm,0,Boise,Idaho,83701
17,Clear,2016-02-13 17:06:00,33.8,,-,93,N/A,30.34,35.6,,10:06 AM,3.0,Calm,Calm,0,Boise,Idaho,83701
18,Haze,2016-02-13 17:53:00,34.0,,-,76,N/A,30.38,41.0,,10:53 AM,5.0,Calm,Calm,0,Boise,Idaho,83701
19,Clear,2016-02-13 18:53:00,34.0,,-,65,N/A,30.37,45.0,,11:53 AM,10.0,WNW,5.8,300,Boise,Idaho,83701
20,Clear,2016-02-13 19:53:00,33.1,,-,56,N/A,30.35,48.0,,12:53 PM,10.0,WNW,11.5,300,Boise,Idaho,83701
21,Partly Cloudy,2016-02-13 20:53:00,30.9,,-,48,N/A,30.34,50.0,,1:53 PM,10.0,NW,11.5,320,Boise,Idaho,83701
22,Clear,2016-02-13 21:53:00,28.9,,-,43,N/A,30.31,51.1,,2:53 PM,10.0,NNW,6.9,330,Boise,Idaho,83701
23,Clear,2016-02-13 22:53:00,26.1,,-,38,N/A,30.29,51.1,,3:53 PM,10.0,NNW,8.1,340,Boise,Idaho,83701
24,Clear,2016-02-13 23:53:00,26.1,,-,41,N/A,30.30,48.9,,4:53 PM,10.0,North,10.4,350,Boise,Idaho,83701
25,Clear,2016-02-14 00:53:00,26.1,,-,44,N/A,30.28,46.9,,5:53 PM,10.0,North,3.5,10,Boise,Idaho,83701
26,Clear,2016-02-14 01:53:00,26.1,,-,44,N/A,30.29,46.9,,6:53 PM,10.0,Calm,Calm,0,Boise,Idaho,83701
27,Partly Cloudy,2016-02-14 02:53:00,28.0,,-,53,N/A,30.30,44.1,,7:53 PM,10.0,SE,6.9,130,Boise,Idaho,83701
28,Overcast,2016-02-14 03:53:00,28.9,,-,58,N/A,30.29,43.0,,8:53 PM,10.0,SE,5.8,130,Boise,Idaho,83701
29,Overcast,2016-02-14 04:53:00,28.9,,-,55,N/A,30.27,44.1,,9:53 PM,10.0,SE,10.4,140,Boise,Idaho,83701
30,Overcast,2016-02-14 05:53:00,28.9,,-,55,N/A,30.24,44.1,,10:53 PM,10.0,SSE,9.2,150,Boise,Idaho,83701
31,Overcast,2016-02-14 06:53:00,28.9,,-,53,0.00,30.21,45.0,,11:53 PM,10.0,ENE,11.5,60,Boise,Idaho,83701
0,Light Rain,2016-02-14 07:53:00,35.1,Rain,-,74,0.00,30.19,43.0,,12:53 AM,10.0,East,5.8,90,Boise,Idaho,83701
1,Light Rain,2016-02-14 08:53:00,35.1,Rain,-,71,0.00,30.20,44.1,,1:53 AM,10.0,South,6.9,180,Boise,Idaho,83701
2,Light Rain,2016-02-14 09:53:00,37.0,Rain,-,82,0.01,30.21,42.1,,2:53 AM,10.0,South,3.5,190,Boise,Idaho,83701
3,Light Rain,2016-02-14 10:53:00,37.0,Rain,-,89,0.02,30.22,39.9,,3:53 AM,10.0,SE,4.6,140,Boise,Idaho,83701
4,Light Rain,2016-02-14 11:53:00,37.9,Rain,-,93,0.04,30.23,39.9,,4:53 AM,10.0,ESE,4.6,110,Boise,Idaho,83701
5,Light Rain,2016-02-14 12:43:00,39.2,Rain,-,100,0.05,30.22,39.2,,5:43 AM,7.0,Calm,Calm,0,Boise,Idaho,83701
6,Light Rain,2016-02-14 12:53:00,39.0,Rain,-,93,0.06,30.25,41.0,,5:53 AM,8.0,Calm,Calm,0,Boise,Idaho,83701
7,Light Rain,2016-02-14 13:13:00,37.4,Rain,-,93,0.02,30.21,39.2,,6:13 AM,9.0,Calm,Calm,0,Boise,Idaho,83701
8,Light Rain,2016-02-14 13:36:00,39.2,Rain,-,100,0.03,30.22,39.2,,6:36 AM,8.0,East,3.5,80,Boise,Idaho,83701
9,Light Rain,2016-02-14 13:53:00,39.0,Rain,-,97,0.04,30.24,39.9,,6:53 AM,6.0,ESE,3.5,110,Boise,Idaho,83701
10,Light Rain,2016-02-14 14:53:00,37.9,Rain,-,96,0.04,30.27,39.0,,7:53 AM,9.0,SE,3.5,130,Boise,Idaho,83701
11,Light Rain,2016-02-14 15:53:00,37.9,Rain,-,93,0.03,30.27,39.9,,8:53 AM,9.0,South,3.5,180,Boise,Idaho,83701
12,Light Rain,2016-02-14 16:53:00,37.9,Rain,-,89,0.02,30.28,41.0,,9:53 AM,10.0,Calm,Calm,0,Boise,Idaho,83701
13,Light Rain,2016-02-14 17:53:00,39.0,Rain,-,86,0.00,30.28,43.0,,10:53 AM,10.0,Calm,Calm,0,Boise,Idaho,83701
14,Overcast,2016-02-14 18:53:00,39.9,,-,82,0.00,30.28,45.0,,11:53 AM,10.0,North,3.5,10,Boise,Idaho,83701
15,Overcast,2016-02-14 19:53:00,41.0,,-,83,0.00,30.28,46.0,,12:53 PM,10.0,NNE,3.5,20,Boise,Idaho,83701
16,Overcast,2016-02-14 20:53:00,42.1,,-,83,0.00,30.26,46.9,,1:53 PM,10.0,North,5.8,360,Boise,Idaho,83701
17,Overcast,2016-02-14 21:36:00,42.8,,-,82,N/A,30.23,48.2,,2:36 PM,9.0,Variable,3.5,0,Boise,Idaho,83701
18,Haze,2016-02-14 21:53:00,41.0,,-,80,N/A,30.24,46.9,,2:53 PM,6.0,NNE,4.6,20,Boise,Idaho,83701
19,Overcast,2016-02-14 22:53:00,43.0,,-,89,0.00,30.26,46.0,,3:53 PM,10.0,Calm,Calm,0,Boise,Idaho,83701
20,Overcast,2016-02-14 23:53:00,42.1,,-,80,N/A,30.25,48.0,,4:53 PM,10.0,Calm,Calm,0,Boise,Idaho,83701
21,Overcast,2016-02-15 00:53:00,42.1,,-,80,N/A,30.25,48.0,,5:53 PM,10.0,Calm,Calm,0,Boise,Idaho,83701
22,Overcast,2016-02-15 01:53:00,43.0,,-,89,N/A,30.26,46.0,,6:53 PM,10.0,SE,4.6,130,Boise,Idaho,83701
23,Light Rain,2016-02-15 02:53:00,43.0,Rain,-,93,0.00,30.26,45.0,,7:53 PM,10.0,ESE,4.6,120,Boise,Idaho,83701
24,Light Rain,2016-02-15 03:53:00,43.0,Rain,-,93,0.01,30.24,45.0,,8:53 PM,10.0,ESE,4.6,120,Boise,Idaho,83701
25,Overcast,2016-02-15 04:53:00,42.1,,-,90,0.00,30.25,45.0,,9:53 PM,10.0,SW,4.6,220,Boise,Idaho,83701
26,Overcast,2016-02-15 05:53:00,43.0,,-,93,N/A,30.25,45.0,,10:53 PM,10.0,Calm,Calm,0,Boise,Idaho,83701
27,Clear,2016-02-15 06:53:00,42.1,,-,97,N/A,30.24,43.0,,11:53 PM,10.0,Calm,Calm,0,Boise,Idaho,83701
0,Scattered Clouds,2016-02-15 07:53:00,42.1,,-,97,N/A,30.23,43.0,,12:53 AM,10.0,Calm,Calm,0,Boise,Idaho,83701
1,Overcast,2016-02-15 08:53:00,41.0,,-,93,N/A,30.22,43.0,,1:53 AM,10.0,Calm,Calm,0,Boise,Idaho,83701
2,Overcast,2016-02-15 09:53:00,41.0,,-,89,N/A,30.22,44.1,,2:53 AM,10.0,Calm,Calm,0,Boise,Idaho,83701
3,Partly Cloudy,2016-02-15 10:53:00,42.1,,-,97,N/A,30.21,43.0,,3:53 AM,10.0,Calm,Calm,0,Boise,Idaho,83701
4,Overcast,2016-02-15 11:53:00,42.1,,-,90,N/A,30.21,45.0,,4:53 AM,10.0,Calm,Calm,0,Boise,Idaho,83701
5,Overcast,2016-02-15 12:53:00,42.1,,-,90,N/A,30.20,45.0,,5:53 AM,10.0,Calm,Calm,0,Boise,Idaho,83701
6,Overcast,2016-02-15 13:53:00,42.1,,-,86,N/A,30.20,46.0,,6:53 AM,10.0,Calm,Calm,0,Boise,Idaho,83701
7,Overcast,2016-02-15 14:53:00,41.0,,-,83,N/A,30.20,46.0,,7:53 AM,10.0,Calm,Calm,0,Boise,Idaho,83701
8,Overcast,2016-02-15 15:53:00,43.0,,-,80,N/A,30.21,48.9,,8:53 AM,10.0,Calm,Calm,0,Boise,Idaho,83701
9,Overcast,2016-02-15 16:53:00,43.0,,-,71,N/A,30.21,52.0,,9:53 AM,10.0,North,4.6,350,Boise,Idaho,83701
10,Mostly Cloudy,2016-02-15 17:53:00,43.0,,-,66,N/A,30.20,54.0,,10:53 AM,10.0,NNW,8.1,340,Boise,Idaho,83701
11,Overcast,2016-02-15 18:53:00,43.0,,-,59,N/A,30.19,57.0,,11:53 AM,10.0,NW,8.1,320,Boise,Idaho,83701
12,Overcast,2016-02-15 19:53:00,44.1,,-,58,N/A,30.17,59.0,,12:53 PM,10.0,NNW,9.2,330,Boise,Idaho,83701
13,Overcast,2016-02-15 20:53:00,44.1,,-,60,N/A,30.15,57.9,,1:53 PM,10.0,NNW,12.7,340,Boise,Idaho,83701
14,Scattered Clouds,2016-02-15 21:53:00,44.1,,-,58,N/A,30.14,59.0,,2:53 PM,10.0,NNW,11.5,330,Boise,Idaho,83701
15,Clear,2016-02-15 22:53:00,43.0,,-,55,N/A,30.14,59.0,,3:53 PM,10.0,NNW,12.7,330,Boise,Idaho,83701
16,Clear,2016-02-15 23:53:00,43.0,,-,59,N/A,30.13,57.0,,4:53 PM,10.0,North,9.2,360,Boise,Idaho,83701
17,Clear,2016-02-16 00:53:00,42.1,,-,60,N/A,30.14,55.9,,5:53 PM,10.0,NNW,9.2,340,Boise,Idaho,83701
18,Partly Cloudy,2016-02-16 01:53:00,42.1,,-,66,N/A,30.14,53.1,,6:53 PM,10.0,North,5.8,360,Boise,Idaho,83701
19,Clear,2016-02-16 02:53:00,41.0,,-,71,N/A,30.13,50.0,,7:53 PM,10.0,Calm,Calm,0,Boise,Idaho,83701
20,Clear,2016-02-16 03:53:00,39.9,,-,77,N/A,30.12,46.9,,8:53 PM,10.0,ESE,4.6,120,Boise,Idaho,83701
21,Clear,2016-02-16 04:53:00,39.9,,-,77,N/A,30.12,46.9,,9:53 PM,10.0,SE,6.9,130,Boise,Idaho,83701
22,Clear,2016-02-16 05:53:00,39.0,,-,76,N/A,30.12,46.0,,10:53 PM,10.0,SE,8.1,130,Boise,Idaho,83701
23,Scattered Clouds,2016-02-16 06:53:00,39.0,,-,74,N/A,30.12,46.9,,11:53 PM,10.0,SSE,9.2,150,Boise,Idaho,83701
0,Clear,2016-02-16 07:53:00,37.9,,-,73,N/A,30.09,46.0,,12:53 AM,10.0,ESE,8.1,120,Boise,Idaho,83701
1,Scattered Clouds,2016-02-16 08:53:00,37.9,,-,76,N/A,30.10,45.0,,1:53 AM,10.0,ESE,8.1,120,Boise,Idaho,83701
2,Clear,2016-02-16 09:53:00,37.0,,-,80,N/A,30.10,43.0,,2:53 AM,10.0,ESE,6.9,120,Boise,Idaho,83701
3,Clear,2016-02-16 10:53:00,37.0,,-,80,N/A,30.09,43.0,,3:53 AM,10.0,SE,10.4,130,Boise,Idaho,83701
4,Clear,2016-02-16 11:53:00,37.0,,-,80,N/A,30.09,43.0,,4:53 AM,10.0,SE,8.1,130,Boise,Idaho,83701
5,Clear,2016-02-16 12:53:00,36.0,,-,79,N/A,30.09,42.1,,5:53 AM,10.0,SE,10.4,130,Boise,Idaho,83701
6,Clear,2016-02-16 13:53:00,36.0,,-,82,N/A,30.10,41.0,,6:53 AM,10.0,SE,9.2,130,Boise,Idaho,83701
7,Clear,2016-02-16 14:53:00,36.0,,-,82,N/A,30.11,41.0,,7:53 AM,10.0,SE,10.4,130,Boise,Idaho,83701
8,Clear,2016-02-16 15:53:00,37.0,,-,76,N/A,30.12,44.1,,8:53 AM,10.0,SE,9.2,130,Boise,Idaho,83701
9,Clear,2016-02-16 16:53:00,37.9,,-,68,N/A,30.11,48.0,,9:53 AM,10.0,ESE,10.4,120,Boise,Idaho,83701
10,Clear,2016-02-16 17:53:00,39.0,,-,61,N/A,30.10,52.0,,10:53 AM,10.0,ESE,8.1,120,Boise,Idaho,83701
11,Clear,2016-02-16 18:53:00,42.1,,-,60,N/A,30.09,55.9,,11:53 AM,10.0,SE,6.9,140,Boise,Idaho,83701
12,Clear,2016-02-16 19:53:00,37.9,,-,46,N/A,30.05,59.0,,12:53 PM,10.0,Calm,Calm,0,Boise,Idaho,83701
13,Clear,2016-02-16 20:53:00,37.0,,-,44,N/A,30.04,59.0,,1:53 PM,10.0,Calm,Calm,0,Boise,Idaho,83701
14,Clear,2016-02-16 21:53:00,37.0,,-,42,N/A,30.01,60.1,,2:53 PM,10.0,SSE,3.5,160,Boise,Idaho,83701
15,Clear,2016-02-16 22:53:00,35.1,,-,39,N/A,30.00,60.1,,3:53 PM,10.0,Calm,Calm,0,Boise,Idaho,83701
16,Clear,2016-02-16 23:53:00,36.0,,-,42,N/A,29.99,59.0,,4:53 PM,10.0,Calm,Calm,0,Boise,Idaho,83701
17,Clear,2016-02-17 00:53:00,37.0,,-,47,N/A,29.99,57.0,,5:53 PM,10.0,SE,4.6,140,Boise,Idaho,83701
18,Clear,2016-02-17 01:53:00,37.9,,-,57,N/A,29.99,53.1,,6:53 PM,10.0,SE,4.6,130,Boise,Idaho,83701
19,Clear,2016-02-17 02:53:00,37.9,,-,63,N/A,29.98,50.0,,7:53 PM,10.0,SE,6.9,130,Boise,Idaho,83701
20,Clear,2016-02-17 03:53:00,37.0,,-,61,N/A,29.98,50.0,,8:53 PM,10.0,SE,9.2,130,Boise,Idaho,83701
21,Clear,2016-02-17 04:53:00,35.1,,-,59,N/A,29.96,48.9,,9:53 PM,10.0,ESE,9.2,120,Boise,Idaho,83701
22,Clear,2016-02-17 05:53:00,34.0,,-,58,N/A,29.94,48.0,,10:53 PM,10.0,SE,10.4,130,Boise,Idaho,83701
23,Clear,2016-02-17 06:53:00,33.1,,-,52,N/A,29.90,50.0,,11:53 PM,10.0,ESE,11.5,120,Boise,Idaho,83701
0,Clear,2016-02-17 07:53:00,32.0,,-,52,N/A,29.86,48.9,,12:53 AM,10.0,ESE,12.7,120,Boise,Idaho,83701
1,Clear,2016-02-17 08:53:00,30.9,,-,50,N/A,29.83,48.9,,1:53 AM,10.0,SE,13.8,130,Boise,Idaho,83701
2,Clear,2016-02-17 09:53:00,30.9,,-,50,N/A,29.81,48.9,,2:53 AM,10.0,ESE,12.7,120,Boise,Idaho,83701
3,Clear,2016-02-17 10:53:00,30.0,,-,48,N/A,29.76,48.9,,3:53 AM,10.0,ESE,13.8,120,Boise,Idaho,83701
4,Clear,2016-02-17 11:53:00,32.0,,-,60,N/A,29.75,45.0,,4:53 AM,10.0,SSE,10.4,160,Boise,Idaho,83701
5,Clear,2016-02-17 12:53:00,33.1,,-,68,N/A,29.72,43.0,,5:53 AM,10.0,South,9.2,190,Boise,Idaho,83701
6,Clear,2016-02-17 13:53:00,34.0,,-,76,N/A,29.70,41.0,,6:53 AM,10.0,South,13.8,170,Boise,Idaho,83701
7,Clear,2016-02-17 14:53:00,34.0,,-,73,N/A,29.70,42.1,,7:53 AM,10.0,SE,10.4,140,Boise,Idaho,83701
8,Clear,2016-02-17 15:53:00,34.0,,-,63,N/A,29.65,46.0,,8:53 AM,10.0,South,16.1,170,Boise,Idaho,83701
9,Clear,2016-02-17 16:53:00,36.0,,-,71,N/A,29.70,45.0,,9:53 AM,10.0,SSE,11.5,150,Boise,Idaho,83701
10,Clear,2016-02-17 17:53:00,36.0,,-,61,N/A,29.65,48.9,,10:53 AM,10.0,SE,15.0,140,Boise,Idaho,83701
11,Clear,2016-02-17 18:53:00,35.1,,-,50,N/A,29.64,53.1,,11:53 AM,10.0,SSE,12.7,160,Boise,Idaho,83701
12,Partly Cloudy,2016-02-17 19:53:00,35.1,,-,47,N/A,29.64,55.0,,12:53 PM,10.0,SE,9.2,140,Boise,Idaho,83701
13,Overcast,2016-02-17 20:53:00,36.0,,23.0,51,N/A,29.61,54.0,,1:53 PM,10.0,SE,17.3,140,Boise,Idaho,83701
14,Overcast,2016-02-17 21:53:00,34.0,,-,45,N/A,29.55,55.0,,2:53 PM,10.0,SE,16.1,140,Boise,Idaho,83701
15,Overcast,2016-02-17 22:53:00,36.0,,29.9,47,N/A,29.55,55.9,,3:53 PM,10.0,SE,20.7,140,Boise,Idaho,83701
16,Overcast,2016-02-17 23:53:00,33.1,,-,40,N/A,29.53,57.0,,4:53 PM,10.0,SE,13.8,140,Boise,Idaho,83701
17,Overcast,2016-02-18 00:53:00,37.0,,-,49,N/A,29.52,55.9,,5:53 PM,10.0,SE,13.8,140,Boise,Idaho,83701
18,Overcast,2016-02-18 01:53:00,35.1,,-,49,N/A,29.52,54.0,,6:53 PM,10.0,SE,12.7,140,Boise,Idaho,83701
19,Overcast,2016-02-18 02:53:00,34.0,,-,48,N/A,29.50,53.1,,7:53 PM,10.0,SE,13.8,140,Boise,Idaho,83701
20,Overcast,2016-02-18 03:53:00,30.9,,-,40,N/A,29.44,55.0,,8:53 PM,10.0,ESE,15.0,120,Boise,Idaho,83701
21,Overcast,2016-02-18 04:53:00,30.9,,-,39,N/A,29.40,55.9,,9:53 PM,10.0,ESE,19.6,120,Boise,Idaho,83701
22,Mostly Cloudy,2016-02-18 05:53:00,32.0,,-,42,N/A,29.36,55.0,,10:53 PM,10.0,ESE,16.1,120,Boise,Idaho,83701
23,Mostly Cloudy,2016-02-18 06:53:00,30.9,,19.6,40,N/A,29.33,55.0,,11:53 PM,10.0,SE,13.8,130,Boise,Idaho,83701
0,Mostly Cloudy,2016-02-18 07:53:00,32.0,,34.5,42,N/A,29.30,55.0,,12:53 AM,10.0,SE,24.2,130,Boise,Idaho,83701
1,Partly Cloudy,2016-02-18 08:53:00,33.1,,41.4,42,N/A,29.28,55.9,,1:53 AM,10.0,SE,23.0,140,Boise,Idaho,83701
2,Clear,2016-02-18 09:53:00,34.0,,27.6,47,N/A,29.27,54.0,,2:53 AM,10.0,SE,15.0,130,Boise,Idaho,83701
3,Partly Cloudy,2016-02-18 10:53:00,35.1,,27.6,50,N/A,29.26,53.1,,3:53 AM,10.0,SE,20.7,130,Boise,Idaho,83701
4,Overcast,2016-02-18 11:53:00,36.0,,25.3,52,N/A,29.28,53.1,,4:53 AM,10.0,SW,15.0,230,Boise,Idaho,83701
5,Light Rain,2016-02-18 11:58:00,35.6,Rain-Thunderstorm,34.5,66,0.00,29.37,46.4,,4:58 AM,9.0,WSW,23.0,250,Boise,Idaho,83701
6,Heavy Rain,2016-02-18 12:06:00,37.4,Rain-Thunderstorm,41.4,81,0.02,29.40,42.8,,5:06 AM,4.0,West,21.9,280,Boise,Idaho,83701
7,Light Rain,2016-02-18 12:21:00,37.4,Rain,27.6,81,0.08,29.42,42.8,,5:21 AM,8.0,West,17.3,270,Boise,Idaho,83701
8,Light Rain,2016-02-18 12:42:00,39.2,Rain,-,93,0.11,29.45,41.0,,5:42 AM,7.0,West,11.5,270,Boise,Idaho,83701
9,Light Rain,2016-02-18 12:53:00,37.9,Rain,-,89,0.13,29.45,41.0,,5:53 AM,6.0,WNW,8.1,290,Boise,Idaho,83701
10,Light Rain,2016-02-18 13:05:00,37.4,Rain,-,87,0.01,29.46,41.0,,6:05 AM,9.0,NNW,8.1,340,Boise,Idaho,83701
11,Overcast,2016-02-18 13:53:00,37.9,,-,85,0.01,29.48,42.1,,6:53 AM,10.0,NNE,4.6,30,Boise,Idaho,83701
12,Overcast,2016-02-18 14:53:00,34.0,,-,71,0.00,29.50,43.0,,7:53 AM,10.0,Calm,Calm,0,Boise,Idaho,83701
13,Clear,2016-02-18 15:53:00,37.0,,-,82,N/A,29.52,42.1,,8:53 AM,10.0,NNE,3.5,20,Boise,Idaho,83701
14,Scattered Clouds,2016-02-18 16:53:00,37.9,,-,82,N/A,29.57,43.0,,9:53 AM,10.0,ESE,5.8,120,Boise,Idaho,83701
15,Clear,2016-02-18 17:53:00,36.0,,-,68,N/A,29.59,46.0,,10:53 AM,10.0,SSE,3.5,150,Boise,Idaho,83701
16,Partly Cloudy,2016-02-18 18:53:00,33.1,,-,54,N/A,29.63,48.9,,11:53 AM,10.0,Variable,3.5,0,Boise,Idaho,83701
17,Overcast,2016-02-18 19:53:00,30.9,,-,52,N/A,29.62,48.0,,12:53 PM,10.0,NNE,3.5,30,Boise,Idaho,83701
18,Overcast,2016-02-18 20:53:00,30.0,,17.3,46,0.00,29.62,50.0,,1:53 PM,10.0,WSW,9.2,240,Boise,Idaho,83701
19,Mostly Cloudy,2016-02-18 21:53:00,28.9,,-,44,N/A,29.64,50.0,,2:53 PM,10.0,SW,6.9,220,Boise,Idaho,83701
20,Overcast,2016-02-18 22:53:00,27.0,,25.3,39,N/A,29.65,51.1,,3:53 PM,10.0,WSW,12.7,250,Boise,Idaho,83701
21,Mostly Cloudy,2016-02-18 23:53:00,28.0,,21.9,43,N/A,29.69,50.0,,4:53 PM,10.0,SW,15.0,220,Boise,Idaho,83701
22,Overcast,2016-02-19 00:53:00,27.0,,-,41,N/A,29.74,50.0,,5:53 PM,10.0,SW,5.8,220,Boise,Idaho,83701
23,Overcast,2016-02-19 01:53:00,28.0,,-,44,N/A,29.78,48.9,,6:53 PM,10.0,SW,5.8,220,Boise,Idaho,83701
24,Overcast,2016-02-19 02:53:00,27.0,,-,41,N/A,29.81,50.0,,7:53 PM,10.0,WSW,8.1,240,Boise,Idaho,83701
25,Overcast,2016-02-19 03:53:00,28.0,,-,44,N/A,29.85,48.9,,8:53 PM,10.0,Calm,Calm,0,Boise,Idaho,83701
26,Overcast,2016-02-19 04:53:00,30.9,,-,56,N/A,29.89,46.0,,9:53 PM,10.0,SE,4.6,140,Boise,Idaho,83701
27,Unknown,2016-02-19 05:53:00,-9999,,-,N/A,N/A,29.91,-9999,,10:53 PM,-9999.0,North,-9999.0,0,Boise,Idaho,83701
28,Unknown,2016-02-19 06:53:00,-9999,,-,N/A,N/A,29.93,-9999,,11:53 PM,-9999.0,North,-9999.0,0,Boise,Idaho,83701
0,Overcast,2016-02-19 07:53:00,32.0,,-,60,N/A,29.96,45.0,,12:53 AM,10.0,SE,5.8,140,Boise,Idaho,83701
1,Mostly Cloudy,2016-02-19 08:53:00,32.0,,-,63,N/A,29.96,44.1,,1:53 AM,10.0,South,4.6,180,Boise,Idaho,83701
2,Mostly Cloudy,2016-02-19 09:53:00,34.0,,-,73,N/A,29.97,42.1,,2:53 AM,10.0,ESE,8.1,120,Boise,Idaho,83701
3,Clear,2016-02-19 10:53:00,33.1,,-,77,N/A,29.97,39.9,,3:53 AM,10.0,ESE,5.8,110,Boise,Idaho,83701
4,Overcast,2016-02-19 11:53:00,33.1,,-,70,N/A,29.96,42.1,,4:53 AM,10.0,ESE,6.9,110,Boise,Idaho,83701
5,Mostly Cloudy,2016-02-19 12:53:00,32.0,,-,67,N/A,29.95,42.1,,5:53 AM,10.0,ESE,10.4,120,Boise,Idaho,83701
6,Partly Cloudy,2016-02-19 13:53:00,33.1,,-,73,N/A,29.95,41.0,,6:53 AM,10.0,ESE,10.4,120,Boise,Idaho,83701
7,Clear,2016-02-19 14:53:00,30.9,,-,65,N/A,29.93,42.1,,7:53 AM,10.0,ESE,11.5,120,Boise,Idaho,83701
8,Clear,2016-02-19 15:53:00,30.9,,-,62,N/A,29.94,43.0,,8:53 AM,10.0,ESE,10.4,120,Boise,Idaho,83701
9,Partly Cloudy,2016-02-19 16:53:00,30.0,,-,54,N/A,29.93,46.0,,9:53 AM,10.0,ESE,15.0,120,Boise,Idaho,83701
10,Clear,2016-02-19 17:53:00,30.0,,-,52,N/A,29.92,46.9,,10:53 AM,10.0,ESE,16.1,120,Boise,Idaho,83701
11,Clear,2016-02-19 18:53:00,28.9,,25.3,46,N/A,29.90,48.9,,11:53 AM,10.0,ESE,16.1,120,Boise,Idaho,83701
12,Mostly Cloudy,2016-02-19 19:53:00,28.9,,36.8,41,N/A,29.85,52.0,,12:53 PM,10.0,SE,27.6,140,Boise,Idaho,83701
13,Clear,2016-02-19 20:53:00,28.0,,34.5,34,N/A,29.84,55.9,,1:53 PM,10.0,SE,20.7,140,Boise,Idaho,83701
14,Mostly Cloudy,2016-02-19 21:53:00,27.0,,28.8,32,N/A,29.82,57.0,,2:53 PM,10.0,SSE,20.7,150,Boise,Idaho,83701
15,Light Rain,2016-02-19 22:53:00,28.9,Rain,20.7,38,0.00,29.83,54.0,,3:53 PM,10.0,SSE,13.8,160,Boise,Idaho,83701
16,Overcast,2016-02-19 23:53:00,30.0,,-,41,0.00,29.84,53.1,,4:53 PM,10.0,South,10.4,180,Boise,Idaho,83701
17,Light Rain,2016-02-20 00:42:00,35.6,Rain,25.3,58,0.00,29.91,50.0,,5:42 PM,9.0,West,17.3,270,Boise,Idaho,83701
18,Overcast,2016-02-20 00:53:00,35.1,,-,57,0.00,29.91,50.0,,5:53 PM,10.0,West,11.5,270,Boise,Idaho,83701
19,Overcast,2016-02-20 01:53:00,37.0,,23.0,80,0.00,30.02,43.0,,6:53 PM,10.0,NW,16.1,320,Boise,Idaho,83701
20,Overcast,2016-02-20 02:53:00,32.0,,-,63,N/A,30.06,44.1,,7:53 PM,10.0,Calm,Calm,0,Boise,Idaho,83701
21,Clear,2016-02-20 03:53:00,34.0,,-,73,N/A,30.08,42.1,,8:53 PM,10.0,NNE,3.5,30,Boise,Idaho,83701
22,Clear,2016-02-20 04:53:00,30.9,,-,67,N/A,30.11,41.0,,9:53 PM,10.0,NNW,6.9,330,Boise,Idaho,83701
23,Clear,2016-02-20 05:53:00,28.0,,-,60,N/A,30.14,41.0,,10:53 PM,10.0,Calm,Calm,0,Boise,Idaho,83701
24,Partly Cloudy,2016-02-20 06:53:00,27.0,,-,55,N/A,30.15,42.1,,11:53 PM,10.0,West,4.6,260,Boise,Idaho,83701
0,Clear,2016-02-20 07:53:00,28.0,,-,65,N/A,30.19,39.0,,12:53 AM,10.0,Calm,Calm,0,Boise,Idaho,83701
1,Clear,2016-02-20 08:53:00,28.0,,-,65,N/A,30.19,39.0,,1:53 AM,10.0,NNE,5.8,20,Boise,Idaho,83701
2,Mostly Cloudy,2016-02-20 09:53:00,28.9,,-,70,N/A,30.21,37.9,,2:53 AM,10.0,Calm,Calm,0,Boise,Idaho,83701
3,Mostly Cloudy,2016-02-20 10:53:00,27.0,,-,65,N/A,30.23,37.9,,3:53 AM,10.0,NNW,4.6,330,Boise,Idaho,83701
4,Mostly Cloudy,2016-02-20 11:53:00,27.0,,-,67,N/A,30.26,37.0,,4:53 AM,10.0,North,3.5,10,Boise,Idaho,83701
5,Mostly Cloudy,2016-02-20 12:53:00,28.0,,-,70,N/A,30.29,37.0,,5:53 AM,10.0,Calm,Calm,0,Boise,Idaho,83701
6,Overcast,2016-02-20 13:53:00,27.0,,-,70,N/A,30.31,36.0,,6:53 AM,10.0,North,4.6,350,Boise,Idaho,83701
7,Overcast,2016-02-20 14:53:00,26.1,,-,67,N/A,30.33,36.0,,7:53 AM,10.0,Calm,Calm,0,Boise,Idaho,83701
8,Clear,2016-02-20 15:53:00,27.0,,-,65,N/A,30.36,37.9,,8:53 AM,10.0,NW,3.5,320,Boise,Idaho,83701
9,Clear,2016-02-20 16:53:00,25.0,,-,55,N/A,30.38,39.9,,9:53 AM,10.0,NW,6.9,310,Boise,Idaho,83701
10,Clear,2016-02-20 17:53:00,26.1,,-,53,N/A,30.39,42.1,,10:53 AM,10.0,Variable,6.9,0,Boise,Idaho,83701
11,Clear,2016-02-20 18:53:00,26.1,,-,49,N/A,30.39,44.1,,11:53 AM,10.0,NW,5.8,320,Boise,Idaho,83701
12,Clear,2016-02-20 19:53:00,25.0,,-,46,N/A,30.36,45.0,,12:53 PM,10.0,North,4.6,360,Boise,Idaho,83701
13,Clear,2016-02-20 20:53:00,24.1,,-,41,N/A,30.35,46.9,,1:53 PM,10.0,WNW,5.8,300,Boise,Idaho,83701
14,Clear,2016-02-20 21:53:00,24.1,,-,39,N/A,30.33,48.0,,2:53 PM,10.0,NW,9.2,320,Boise,Idaho,83701
15,Clear,2016-02-20 22:53:00,21.0,,-,36,N/A,30.32,46.9,,3:53 PM,10.0,West,4.6,280,Boise,Idaho,83701
16,Clear,2016-02-20 23:53:00,21.0,,-,37,N/A,30.33,46.0,,4:53 PM,10.0,WNW,8.1,300,Boise,Idaho,83701
17,Clear,2016-02-21 00:53:00,21.9,,-,40,N/A,30.34,45.0,,5:53 PM,10.0,NNW,6.9,340,Boise,Idaho,83701
18,Clear,2016-02-21 01:53:00,21.9,,-,45,N/A,30.36,42.1,,6:53 PM,10.0,NNW,3.5,340,Boise,Idaho,83701
19,Clear,2016-02-21 02:53:00,21.0,,-,43,N/A,30.37,42.1,,7:53 PM,10.0,Calm,Calm,0,Boise,Idaho,83701
20,Clear,2016-02-21 03:53:00,26.1,,-,65,N/A,30.37,37.0,,8:53 PM,10.0,ESE,3.5,110,Boise,Idaho,83701
21,Clear,2016-02-21 04:53:00,25.0,,-,67,N/A,30.36,35.1,,9:53 PM,10.0,SE,3.5,130,Boise,Idaho,83701
22,Clear,2016-02-21 05:53:00,25.0,,-,64,N/A,30.34,36.0,,10:53 PM,10.0,SE,6.9,130,Boise,Idaho,83701
23,Clear,2016-02-21 06:53:00,25.0,,-,62,N/A,30.32,37.0,,11:53 PM,10.0,ESE,8.1,120,Boise,Idaho,83701
0,Clear,2016-02-21 07:53:00,24.1,,-,62,N/A,30.32,36.0,,12:53 AM,10.0,SE,8.1,140,Boise,Idaho,83701
1,Clear,2016-02-21 08:53:00,24.1,,-,59,N/A,30.31,37.0,,1:53 AM,10.0,SE,6.9,130,Boise,Idaho,83701
2,Clear,2016-02-21 09:53:00,24.1,,-,64,N/A,30.32,35.1,,2:53 AM,10.0,SE,8.1,140,Boise,Idaho,83701
3,Clear,2016-02-21 10:53:00,21.9,,-,54,N/A,30.30,37.0,,3:53 AM,10.0,ESE,12.7,120,Boise,Idaho,83701
4,Clear,2016-02-21 11:53:00,21.9,,-,61,N/A,30.30,34.0,,4:53 AM,10.0,SE,9.2,140,Boise,Idaho,83701
5,Clear,2016-02-21 12:53:00,21.9,,-,61,N/A,30.30,34.0,,5:53 AM,10.0,SE,9.2,140,Boise,Idaho,83701
6,Clear,2016-02-21 13:53:00,21.9,,-,61,N/A,30.31,34.0,,6:53 AM,10.0,SE,8.1,140,Boise,Idaho,83701
7,Clear,2016-02-21 14:53:00,21.9,,-,64,N/A,30.32,33.1,,7:53 AM,10.0,SSE,9.2,150,Boise,Idaho,83701
8,Partly Cloudy,2016-02-21 15:53:00,21.9,,-,57,N/A,30.33,36.0,,8:53 AM,10.0,SSE,12.7,150,Boise,Idaho,83701
9,Clear,2016-02-21 16:53:00,21.9,,-,47,N/A,30.32,41.0,,9:53 AM,10.0,SE,12.7,140,Boise,Idaho,83701
10,Clear,2016-02-21 17:53:00,21.0,,-,40,N/A,30.30,44.1,,10:53 AM,10.0,SE,13.8,140,Boise,Idaho,83701
11,Clear,2016-02-21 18:53:00,23.0,,-,40,N/A,30.30,46.0,,11:53 AM,10.0,SE,9.2,140,Boise,Idaho,83701
12,Clear,2016-02-21 19:53:00,24.1,,-,38,N/A,30.28,48.9,,12:53 PM,10.0,SE,12.7,140,Boise,Idaho,83701
13,Clear,2016-02-21 20:53:00,25.0,,-,36,N/A,30.27,51.1,,1:53 PM,10.0,SE,8.1,140,Boise,Idaho,83701
14,Clear,2016-02-21 21:53:00,25.0,,-,36,N/A,30.25,51.1,,2:53 PM,10.0,SE,10.4,140,Boise,Idaho,83701
15,Clear,2016-02-21 22:53:00,27.0,,-,38,N/A,30.24,52.0,,3:53 PM,10.0,South,4.6,190,Boise,Idaho,83701
16,Partly Cloudy,2016-02-21 23:53:00,26.1,,-,38,N/A,30.25,51.1,,4:53 PM,10.0,West,3.5,260,Boise,Idaho,83701
17,Mostly Cloudy,2016-02-22 00:53:00,26.1,,-,39,N/A,30.25,50.0,,5:53 PM,10.0,West,3.5,280,Boise,Idaho,83701
18,Partly Cloudy,2016-02-22 01:53:00,27.0,,-,43,N/A,30.25,48.9,,6:53 PM,10.0,Calm,Calm,0,Boise,Idaho,83701
19,Scattered Clouds,2016-02-22 02:53:00,28.9,,-,50,N/A,30.26,46.9,,7:53 PM,10.0,West,4.6,280,Boise,Idaho,83701
20,Mostly Cloudy,2016-02-22 03:53:00,28.9,,-,53,N/A,30.25,45.0,,8:53 PM,10.0,Calm,Calm,0,Boise,Idaho,83701
21,Overcast,2016-02-22 04:53:00,30.9,,-,62,N/A,30.27,43.0,,9:53 PM,10.0,West,11.5,270,Boise,Idaho,83701
22,Overcast,2016-02-22 05:53:00,30.9,,-,67,N/A,30.26,41.0,,10:53 PM,10.0,WNW,5.8,300,Boise,Idaho,83701
23,Overcast,2016-02-22 06:53:00,30.0,,-,68,N/A,30.24,39.9,,11:53 PM,10.0,West,3.5,260,Boise,Idaho,83701
0,Partly Cloudy,2016-02-22 07:53:00,30.0,,-,76,N/A,30.24,37.0,,12:53 AM,10.0,Calm,Calm,0,Boise,Idaho,83701
1,Clear,2016-02-22 08:53:00,28.9,,-,78,N/A,30.25,35.1,,1:53 AM,10.0,NW,4.6,320,Boise,Idaho,83701
2,Scattered Clouds,2016-02-22 09:53:00,28.0,,-,79,N/A,30.24,34.0,,2:53 AM,10.0,Calm,Calm,0,Boise,Idaho,83701
3,Overcast,2016-02-22 10:53:00,28.9,,-,78,N/A,30.23,35.1,,3:53 AM,10.0,NW,5.8,310,Boise,Idaho,83701
4,Overcast,2016-02-22 11:53:00,30.0,,-,79,N/A,30.24,36.0,,4:53 AM,10.0,Calm,Calm,0,Boise,Idaho,83701
5,Overcast,2016-02-22 12:53:00,28.9,,-,78,N/A,30.25,35.1,,5:53 AM,10.0,West,5.8,270,Boise,Idaho,83701
6,Clear,2016-02-22 13:53:00,28.9,,-,82,N/A,30.27,34.0,,6:53 AM,10.0,NNE,4.6,20,Boise,Idaho,83701
7,Clear,2016-02-22 14:53:00,28.0,,-,85,N/A,30.30,32.0,,7:53 AM,10.0,NNW,3.5,340,Boise,Idaho,83701
8,Clear,2016-02-22 15:53:00,28.9,,-,76,N/A,30.30,36.0,,8:53 AM,10.0,NW,10.4,320,Boise,Idaho,83701
9,Clear,2016-02-22 16:53:00,28.9,,-,67,N/A,30.31,39.0,,9:53 AM,10.0,NW,13.8,310,Boise,Idaho,83701
10,Clear,2016-02-22 17:53:00,28.0,,-,56,N/A,30.28,43.0,,10:53 AM,10.0,NW,15.0,310,Boise,Idaho,83701
11,Clear,2016-02-22 18:53:00,28.0,,-,53,N/A,30.29,44.1,,11:53 AM,10.0,WNW,17.3,300,Boise,Idaho,83701
12,Clear,2016-02-22 19:53:00,27.0,,23.0,46,N/A,30.27,46.9,,12:53 PM,10.0,NW,18.4,320,Boise,Idaho,83701
13,Clear,2016-02-22 20:53:00,24.1,,25.3,41,N/A,30.26,46.9,,1:53 PM,10.0,WNW,19.6,300,Boise,Idaho,83701
14,Clear,2016-02-22 21:53:00,21.0,,26.5,34,N/A,30.25,48.0,,2:53 PM,10.0,NW,19.6,310,Boise,Idaho,83701
15,Clear,2016-02-22 22:53:00,18.0,,-,29,N/A,30.24,48.9,,3:53 PM,10.0,NW,19.6,320,Boise,Idaho,83701
16,Clear,2016-02-22 23:53:00,19.0,,-,32,N/A,30.25,48.0,,4:53 PM,10.0,NNW,17.3,330,Boise,Idaho,83701
17,Clear,2016-02-23 00:53:00,15.1,,-,30,N/A,30.25,45.0,,5:53 PM,10.0,NW,16.1,320,Boise,Idaho,83701
18,Clear,2016-02-23 01:53:00,17.1,,-,37,N/A,30.28,42.1,,6:53 PM,10.0,NW,9.2,320,Boise,Idaho,83701
19,Clear,2016-02-23 02:53:00,19.0,,-,45,N/A,30.30,39.0,,7:53 PM,10.0,NNW,8.1,330,Boise,Idaho,83701
20,Clear,2016-02-23 03:53:00,21.0,,-,49,N/A,30.29,39.0,,8:53 PM,10.0,NNW,11.5,340,Boise,Idaho,83701
21,Clear,2016-02-23 04:53:00,21.0,,-,51,N/A,30.30,37.9,,9:53 PM,10.0,NNW,10.4,330,Boise,Idaho,83701
22,Clear,2016-02-23 05:53:00,21.0,,-,55,N/A,30.30,36.0,,10:53 PM,10.0,West,5.8,280,Boise,Idaho,83701
23,Clear,2016-02-23 06:53:00,21.0,,-,67,N/A,30.32,30.9,,11:53 PM,10.0,South,4.6,190,Boise,Idaho,83701
0,Clear,2016-02-23 07:53:00,19.9,,-,72,N/A,30.33,28.0,,12:53 AM,10.0,South,4.6,170,Boise,Idaho,83701
1,Clear,2016-02-23 08:53:00,21.9,,-,81,N/A,30.35,27.0,,1:53 AM,10.0,SSW,5.8,210,Boise,Idaho,83701
2,Clear,2016-02-23 09:53:00,21.9,,-,81,N/A,30.35,27.0,,2:53 AM,10.0,South,5.8,190,Boise,Idaho,83701
3,Clear,2016-02-23 10:53:00,21.0,,-,81,N/A,30.34,26.1,,3:53 AM,10.0,South,5.8,190,Boise,Idaho,83701
4,Clear,2016-02-23 11:53:00,21.9,,-,81,N/A,30.36,27.0,,4:53 AM,10.0,SSW,3.5,200,Boise,Idaho,83701
5,Clear,2016-02-23 12:53:00,21.0,,-,81,N/A,30.39,26.1,,5:53 AM,10.0,SE,3.5,130,Boise,Idaho,83701
6,Clear,2016-02-23 13:53:00,19.9,,-,81,N/A,30.40,25.0,,6:53 AM,10.0,Calm,Calm,0,Boise,Idaho,83701
7,Clear,2016-02-23 14:53:00,19.0,,-,72,N/A,30.41,27.0,,7:53 AM,10.0,SE,5.8,140,Boise,Idaho,83701
8,Clear,2016-02-23 15:53:00,19.0,,-,54,N/A,30.41,34.0,,8:53 AM,10.0,SSE,13.8,150,Boise,Idaho,83701
9,Clear,2016-02-23 16:53:00,18.0,,-,46,N/A,30.41,37.0,,9:53 AM,10.0,SSE,11.5,160,Boise,Idaho,83701
10,Clear,2016-02-23 17:53:00,18.0,,-,40,N/A,30.42,41.0,,10:53 AM,10.0,SE,9.2,130,Boise,Idaho,83701
11,Clear,2016-02-23 18:53:00,23.0,,-,43,N/A,30.42,44.1,,11:53 AM,10.0,SE,13.8,140,Boise,Idaho,83701
12,Clear,2016-02-23 19:53:00,24.1,,-,41,N/A,30.40,46.9,,12:53 PM,10.0,SSE,17.3,150,Boise,Idaho,83701
13,Clear,2016-02-23 20:53:00,21.9,,26.5,36,N/A,30.37,48.0,,1:53 PM,10.0,SE,16.1,140,Boise,Idaho,83701
14,Clear,2016-02-23 21:53:00,19.0,,-,31,N/A,30.35,48.9,,2:53 PM,10.0,SE,13.8,140,Boise,Idaho,83701
15,Clear,2016-02-23 22:53:00,19.9,,-,31,N/A,30.32,50.0,,3:53 PM,10.0,SE,15.0,140,Boise,Idaho,83701
16,Clear,2016-02-23 23:53:00,17.1,,-,28,N/A,30.31,48.9,,4:53 PM,10.0,SE,12.7,140,Boise,Idaho,83701
17,Clear,2016-02-24 00:53:00,16.0,,-,28,N/A,30.30,48.0,,5:53 PM,10.0,SE,12.7,130,Boise,Idaho,83701
18,Clear,2016-02-24 01:53:00,18.0,,-,35,N/A,30.30,44.1,,6:53 PM,10.0,ESE,8.1,120,Boise,Idaho,83701
19,Clear,2016-02-24 02:53:00,19.0,,-,45,N/A,30.32,39.0,,7:53 PM,10.0,SE,6.9,130,Boise,Idaho,83701
20,Clear,2016-02-24 03:53:00,18.0,,-,45,N/A,30.31,37.9,,8:53 PM,10.0,SE,9.2,140,Boise,Idaho,83701
21,Clear,2016-02-24 04:53:00,19.0,,-,48,N/A,30.31,37.0,,9:53 PM,10.0,SE,8.1,140,Boise,Idaho,83701
22,Clear,2016-02-24 05:53:00,19.0,,-,48,N/A,30.30,37.0,,10:53 PM,10.0,ESE,9.2,120,Boise,Idaho,83701
23,Clear,2016-02-24 06:53:00,19.0,,-,48,N/A,30.30,37.0,,11:53 PM,10.0,SE,9.2,130,Boise,Idaho,83701
0,Clear,2016-02-24 07:53:00,18.0,,-,45,N/A,30.28,37.9,,12:53 AM,10.0,SE,9.2,130,Boise,Idaho,83701
1,Clear,2016-02-24 08:53:00,17.1,,-,43,N/A,30.27,37.9,,1:53 AM,10.0,SE,10.4,130,Boise,Idaho,83701
2,Clear,2016-02-24 09:53:00,17.1,,-,43,N/A,30.28,37.9,,2:53 AM,10.0,ESE,3.5,120,Boise,Idaho,83701
3,Clear,2016-02-24 10:53:00,19.0,,-,56,N/A,30.30,33.1,,3:53 AM,10.0,SSE,8.1,150,Boise,Idaho,83701
4,Clear,2016-02-24 11:53:00,21.9,,-,69,N/A,30.31,30.9,,4:53 AM,10.0,ENE,4.6,70,Boise,Idaho,83701
5,Clear,2016-02-24 12:53:00,21.0,,-,64,N/A,30.30,32.0,,5:53 AM,10.0,Calm,Calm,0,Boise,Idaho,83701
6,Clear,2016-02-24 13:53:00,19.0,,-,54,N/A,30.30,34.0,,6:53 AM,10.0,ESE,3.5,120,Boise,Idaho,83701
7,Clear,2016-02-24 14:53:00,21.9,,-,69,N/A,30.34,30.9,,7:53 AM,10.0,North,6.9,360,Boise,Idaho,83701
8,Clear,2016-02-24 15:53:00,21.0,,-,61,N/A,30.36,33.1,,8:53 AM,10.0,Calm,Calm,0,Boise,Idaho,83701
9,Clear,2016-02-24 16:53:00,21.0,,-,52,N/A,30.38,37.0,,9:53 AM,10.0,Calm,Calm,0,Boise,Idaho,83701
10,Clear,2016-02-24 17:53:00,19.9,,-,43,N/A,30.37,41.0,,10:53 AM,10.0,Calm,Calm,0,Boise,Idaho,83701
11,Clear,2016-02-24 18:53:00,19.9,,-,37,N/A,30.35,45.0,,11:53 AM,10.0,West,3.5,270,Boise,Idaho,83701
12,Clear,2016-02-24 19:53:00,19.9,,-,34,N/A,30.32,46.9,,12:53 PM,10.0,Calm,Calm,0,Boise,Idaho,83701
13,Clear,2016-02-24 20:53:00,19.9,,-,31,N/A,30.30,50.0,,1:53 PM,10.0,Variable,3.5,0,Boise,Idaho,83701
14,Clear,2016-02-24 21:53:00,23.0,,-,33,N/A,30.28,51.1,,2:53 PM,10.0,SW,3.5,220,Boise,Idaho,83701
15,Clear,2016-02-24 22:53:00,21.9,,-,31,N/A,30.28,52.0,,3:53 PM,10.0,South,3.5,190,Boise,Idaho,83701
16,Mostly Cloudy,2016-02-24 23:53:00,21.9,,-,30,N/A,30.27,53.1,,4:53 PM,10.0,Variable,4.6,0,Boise,Idaho,83701
17,Partly Cloudy,2016-02-25 00:53:00,24.1,,-,34,N/A,30.27,52.0,,5:53 PM,10.0,Calm,Calm,0,Boise,Idaho,83701
18,Clear,2016-02-25 01:53:00,25.0,,-,42,N/A,30.28,46.9,,6:53 PM,10.0,SSW,3.5,210,Boise,Idaho,83701
19,Clear,2016-02-25 02:53:00,25.0,,-,46,N/A,30.30,45.0,,7:53 PM,10.0,Calm,Calm,0,Boise,Idaho,83701
20,Clear,2016-02-25 03:53:00,25.0,,-,51,N/A,30.30,42.1,,8:53 PM,10.0,SE,5.8,140,Boise,Idaho,83701
21,Clear,2016-02-25 04:53:00,26.1,,-,60,N/A,30.32,39.0,,9:53 PM,10.0,ESE,6.9,120,Boise,Idaho,83701
22,Clear,2016-02-25 05:53:00,26.1,,-,65,N/A,30.32,37.0,,10:53 PM,10.0,SE,6.9,130,Boise,Idaho,83701
23,Clear,2016-02-25 06:53:00,26.1,,-,65,N/A,30.32,37.0,,11:53 PM,10.0,SE,10.4,140,Boise,Idaho,83701
0,Clear,2016-02-25 07:53:00,25.0,,-,64,N/A,30.32,36.0,,12:53 AM,10.0,SE,6.9,140,Boise,Idaho,83701
1,Clear,2016-02-25 08:53:00,25.0,,-,70,N/A,30.32,34.0,,1:53 AM,10.0,ESE,5.8,120,Boise,Idaho,83701
2,Clear,2016-02-25 09:53:00,25.0,,-,67,N/A,30.30,35.1,,2:53 AM,10.0,ESE,6.9,120,Boise,Idaho,83701
3,Clear,2016-02-25 10:53:00,24.1,,-,73,N/A,30.30,32.0,,3:53 AM,10.0,Calm,Calm,0,Boise,Idaho,83701
4,Clear,2016-02-25 11:53:00,24.1,,-,67,N/A,30.30,34.0,,4:53 AM,10.0,SSE,10.4,160,Boise,Idaho,83701
5,Clear,2016-02-25 12:53:00,23.0,,-,64,N/A,30.33,34.0,,5:53 AM,10.0,ESE,8.1,120,Boise,Idaho,83701
6,Clear,2016-02-25 13:53:00,24.1,,-,76,N/A,30.36,30.9,,6:53 AM,10.0,ESE,4.6,120,Boise,Idaho,83701
7,Clear,2016-02-25 14:53:00,23.0,,-,69,N/A,30.36,32.0,,7:53 AM,10.0,SE,3.5,130,Boise,Idaho,83701
8,Clear,2016-02-25 15:53:00,25.0,,-,64,N/A,30.38,36.0,,8:53 AM,10.0,Calm,Calm,0,Boise,Idaho,83701
9,Clear,2016-02-25 16:53:00,26.1,,-,58,N/A,30.39,39.9,,9:53 AM,10.0,Calm,Calm,0,Boise,Idaho,83701
10,Clear,2016-02-25 17:53:00,26.1,,-,49,N/A,30.39,44.1,,10:53 AM,10.0,North,3.5,350,Boise,Idaho,83701
11,Clear,2016-02-25 18:53:00,27.0,,-,44,N/A,30.38,48.0,,11:53 AM,10.0,Calm,Calm,0,Boise,Idaho,83701
12,Clear,2016-02-25 19:53:00,26.1,,-,39,N/A,30.36,50.0,,12:53 PM,10.0,Calm,Calm,0,Boise,Idaho,83701
13,Clear,2016-02-25 20:53:00,26.1,,-,37,N/A,30.34,52.0,,1:53 PM,10.0,Calm,Calm,0,Boise,Idaho,83701
14,Clear,2016-02-25 21:53:00,27.0,,-,35,N/A,30.30,54.0,,2:53 PM,10.0,West,3.5,280,Boise,Idaho,83701
15,Clear,2016-02-25 22:53:00,26.1,,-,34,N/A,30.30,54.0,,3:53 PM,10.0,Calm,Calm,0,Boise,Idaho,83701
16,Clear,2016-02-25 23:53:00,26.1,,-,33,N/A,30.28,55.0,,4:53 PM,10.0,Calm,Calm,0,Boise,Idaho,83701
17,Clear,2016-02-26 00:53:00,27.0,,-,35,N/A,30.28,54.0,,5:53 PM,10.0,Calm,Calm,0,Boise,Idaho,83701
18,Clear,2016-02-26 01:53:00,27.0,,-,39,N/A,30.29,51.1,,6:53 PM,10.0,Calm,Calm,0,Boise,Idaho,83701
19,Clear,2016-02-26 02:53:00,28.0,,-,48,N/A,30.30,46.9,,7:53 PM,10.0,Calm,Calm,0,Boise,Idaho,83701
20,Clear,2016-02-26 03:53:00,28.9,,-,58,N/A,30.30,43.0,,8:53 PM,10.0,SE,3.5,130,Boise,Idaho,83701
21,Clear,2016-02-26 04:53:00,30.0,,-,65,N/A,30.29,41.0,,9:53 PM,10.0,SE,6.9,140,Boise,Idaho,83701
22,Clear,2016-02-26 05:53:00,30.0,,-,65,N/A,30.29,41.0,,10:53 PM,10.0,SE,10.4,130,Boise,Idaho,83701
23,Clear,2016-02-26 06:53:00,30.0,,-,68,N/A,30.28,39.9,,11:53 PM,10.0,SE,11.5,140,Boise,Idaho,83701
0,Clear,2016-02-26 07:53:00,28.9,,-,65,N/A,30.28,39.9,,12:53 AM,10.0,SSE,9.2,150,Boise,Idaho,83701
1,Clear,2016-02-26 08:53:00,28.0,,-,60,N/A,30.27,41.0,,1:53 AM,10.0,SE,13.8,140,Boise,Idaho,83701
2,Clear,2016-02-26 09:53:00,28.0,,-,65,N/A,30.27,39.0,,2:53 AM,10.0,SE,9.2,140,Boise,Idaho,83701
3,Clear,2016-02-26 10:53:00,28.0,,-,73,N/A,30.27,36.0,,3:53 AM,10.0,South,6.9,170,Boise,Idaho,83701
4,Clear,2016-02-26 11:53:00,27.0,,-,67,N/A,30.27,37.0,,4:53 AM,10.0,SSE,8.1,150,Boise,Idaho,83701
5,Clear,2016-02-26 12:53:00,27.0,,-,72,N/A,30.27,35.1,,5:53 AM,10.0,SSE,3.5,150,Boise,Idaho,83701
6,Clear,2016-02-26 13:53:00,27.0,,-,78,N/A,30.28,33.1,,6:53 AM,10.0,South,3.5,190,Boise,Idaho,83701
7,Clear,2016-02-26 14:53:00,27.0,,-,72,N/A,30.30,35.1,,7:53 AM,10.0,Calm,Calm,0,Boise,Idaho,83701
8,Clear,2016-02-26 15:53:00,27.0,,-,60,N/A,30.27,39.9,,8:53 AM,10.0,SSE,11.5,150,Boise,Idaho,83701
9,Clear,2016-02-26 16:53:00,28.0,,-,52,N/A,30.26,45.0,,9:53 AM,10.0,East,4.6,80,Boise,Idaho,83701
10,Clear,2016-02-26 17:53:00,30.0,,-,50,N/A,30.23,48.0,,10:53 AM,10.0,Calm,Calm,0,Boise,Idaho,83701
11,Clear,2016-02-26 18:53:00,32.0,,-,50,N/A,30.23,50.0,,11:53 AM,10.0,South,5.8,190,Boise,Idaho,83701
12,Clear,2016-02-26 19:53:00,33.1,,-,45,N/A,30.19,54.0,,12:53 PM,10.0,NE,5.8,50,Boise,Idaho,83701
13,Clear,2016-02-26 20:53:00,33.1,,-,39,N/A,30.13,57.9,,1:53 PM,10.0,Variable,3.5,0,Boise,Idaho,83701
14,Clear,2016-02-26 21:53:00,34.0,,21.9,33,N/A,30.07,64.0,,2:53 PM,10.0,SSE,13.8,150,Boise,Idaho,83701
15,Clear,2016-02-26 22:53:00,32.0,,25.3,29,N/A,30.04,64.9,,3:53 PM,10.0,SSE,20.7,150,Boise,Idaho,83701
16,Clear,2016-02-26 23:53:00,35.1,,-,37,N/A,30.03,62.1,,4:53 PM,10.0,SSE,11.5,160,Boise,Idaho,83701
17,Clear,2016-02-27 00:53:00,34.0,,-,41,N/A,30.01,57.9,,5:53 PM,10.0,SSE,9.2,160,Boise,Idaho,83701
18,Clear,2016-02-27 01:53:00,32.0,,-,40,N/A,29.99,55.9,,6:53 PM,10.0,SSE,12.7,150,Boise,Idaho,83701
19,Clear,2016-02-27 02:53:00,33.1,,-,49,N/A,30.00,52.0,,7:53 PM,10.0,South,9.2,170,Boise,Idaho,83701
20,Clear,2016-02-27 03:53:00,35.1,,-,54,N/A,29.99,51.1,,8:53 PM,10.0,SSE,11.5,150,Boise,Idaho,83701
21,Clear,2016-02-27 04:53:00,35.1,,-,57,N/A,29.98,50.0,,9:53 PM,10.0,SSE,13.8,150,Boise,Idaho,83701
22,Clear,2016-02-27 05:53:00,33.1,,-,49,N/A,29.96,52.0,,10:53 PM,10.0,SSE,11.5,150,Boise,Idaho,83701
23,Clear,2016-02-27 06:53:00,33.1,,-,49,N/A,29.94,52.0,,11:53 PM,10.0,SSE,15.0,150,Boise,Idaho,83701
0,Mostly Cloudy,2016-02-27 07:53:00,34.0,,-,50,N/A,29.94,52.0,,12:53 AM,10.0,SSE,13.8,160,Boise,Idaho,83701
1,Mostly Cloudy,2016-02-27 08:53:00,34.0,,-,65,N/A,29.97,45.0,,1:53 AM,10.0,North,6.9,360,Boise,Idaho,83701
2,Overcast,2016-02-27 09:53:00,34.0,,-,61,N/A,29.96,46.9,,2:53 AM,10.0,West,5.8,270,Boise,Idaho,83701
3,Mostly Cloudy,2016-02-27 10:53:00,33.1,,-,63,N/A,29.95,45.0,,3:53 AM,10.0,Calm,Calm,0,Boise,Idaho,83701
4,Mostly Cloudy,2016-02-27 11:53:00,33.1,,-,70,N/A,29.95,42.1,,4:53 AM,10.0,SE,6.9,130,Boise,Idaho,83701
5,Overcast,2016-02-27 12:53:00,34.0,,-,71,N/A,30.00,43.0,,5:53 AM,10.0,West,9.2,270,Boise,Idaho,83701
6,Overcast,2016-02-27 13:34:00,35.6,,-,71,N/A,30.02,44.6,,6:34 AM,10.0,North,6.9,360,Boise,Idaho,83701
7,Overcast,2016-02-27 13:43:00,35.6,,-,71,N/A,30.02,44.6,,6:43 AM,10.0,North,5.8,360,Boise,Idaho,83701
8,Overcast,2016-02-27 13:53:00,37.0,,-,76,N/A,30.02,44.1,,6:53 AM,10.0,WNW,3.5,290,Boise,Idaho,83701
9,Rain,2016-02-27 14:33:00,39.2,Rain,-,81,0.03,30.03,44.6,,7:33 AM,4.0,West,3.5,280,Boise,Idaho,83701
10,Light Rain,2016-02-27 14:53:00,39.0,Rain,-,89,0.06,30.04,42.1,,7:53 AM,4.0,Calm,Calm,0,Boise,Idaho,83701
11,Light Rain,2016-02-27 15:01:00,39.2,Rain,-,87,0.01,30.04,42.8,,8:01 AM,4.0,Calm,Calm,0,Boise,Idaho,83701
12,Light Rain,2016-02-27 15:11:00,39.2,Rain,-,87,0.02,30.04,42.8,,8:11 AM,3.0,Calm,Calm,0,Boise,Idaho,83701
13,Light Rain,2016-02-27 15:34:00,41.0,Rain,-,93,0.05,30.05,42.8,,8:34 AM,5.0,ENE,4.6,60,Boise,Idaho,83701
14,Light Rain,2016-02-27 15:53:00,41.0,Rain,-,96,0.06,30.06,42.1,,8:53 AM,3.0,Calm,Calm,0,Boise,Idaho,83701
15,Light Rain,2016-02-27 16:03:00,39.2,Rain,-,87,0.02,30.06,42.8,,9:03 AM,2.5,Calm,Calm,0,Boise,Idaho,83701
16,Light Rain,2016-02-27 16:07:00,39.2,Rain,-,87,0.03,30.06,42.8,,9:07 AM,3.0,Calm,Calm,0,Boise,Idaho,83701
17,Light Rain,2016-02-27 16:53:00,41.0,Rain,-,89,0.05,30.09,44.1,,9:53 AM,7.0,Calm,Calm,0,Boise,Idaho,83701
18,Overcast,2016-02-27 17:53:00,42.1,,-,80,0.00,30.10,48.0,,10:53 AM,10.0,Variable,5.8,0,Boise,Idaho,83701
19,Overcast,2016-02-27 18:53:00,37.9,,-,63,N/A,30.12,50.0,,11:53 AM,10.0,West,13.8,280,Boise,Idaho,83701
20,Overcast,2016-02-27 19:53:00,36.0,,-,56,N/A,30.11,51.1,,12:53 PM,10.0,West,13.8,280,Boise,Idaho,83701
21,Overcast,2016-02-27 20:53:00,36.0,,-,54,N/A,30.12,52.0,,1:53 PM,10.0,WNW,11.5,300,Boise,Idaho,83701
22,Overcast,2016-02-27 21:53:00,36.0,,-,52,N/A,30.09,53.1,,2:53 PM,10.0,WNW,11.5,290,Boise,Idaho,83701
23,Scattered Clouds,2016-02-27 22:53:00,36.0,,-,51,N/A,30.10,54.0,,3:53 PM,10.0,WNW,9.2,290,Boise,Idaho,83701
24,Overcast,2016-02-27 23:53:00,36.0,,-,52,N/A,30.11,53.1,,4:53 PM,10.0,WNW,8.1,300,Boise,Idaho,83701
25,Mostly Cloudy,2016-02-28 00:53:00,36.0,,-,51,N/A,30.12,54.0,,5:53 PM,10.0,West,3.5,280,Boise,Idaho,83701
26,Overcast,2016-02-28 01:53:00,36.0,,-,54,N/A,30.13,52.0,,6:53 PM,10.0,Calm,Calm,0,Boise,Idaho,83701
27,Mostly Cloudy,2016-02-28 02:53:00,37.9,,-,68,N/A,30.15,48.0,,7:53 PM,10.0,East,3.5,100,Boise,Idaho,83701
28,Clear,2016-02-28 03:53:00,39.0,,-,82,N/A,30.16,44.1,,8:53 PM,10.0,SSE,3.5,150,Boise,Idaho,83701
29,Clear,2016-02-28 04:53:00,37.9,,-,82,N/A,30.17,43.0,,9:53 PM,10.0,SE,6.9,130,Boise,Idaho,83701
30,Clear,2016-02-28 05:53:00,37.0,,-,82,N/A,30.16,42.1,,10:53 PM,10.0,SE,6.9,130,Boise,Idaho,83701
31,Clear,2016-02-28 06:53:00,37.0,,-,86,N/A,30.17,41.0,,11:53 PM,10.0,ESE,8.1,120,Boise,Idaho,83701
0,Clear,2016-02-28 07:53:00,36.0,,-,82,N/A,30.16,41.0,,12:53 AM,10.0,SE,8.1,130,Boise,Idaho,83701
1,Clear,2016-02-28 08:53:00,35.1,,-,86,N/A,30.16,39.0,,1:53 AM,10.0,ESE,6.9,120,Boise,Idaho,83701
2,Clear,2016-02-28 09:53:00,35.1,,-,86,N/A,30.15,39.0,,2:53 AM,10.0,SE,10.4,140,Boise,Idaho,83701
3,Clear,2016-02-28 10:53:00,35.1,,-,86,N/A,30.15,39.0,,3:53 AM,10.0,SE,10.4,130,Boise,Idaho,83701
4,Clear,2016-02-28 11:53:00,34.0,,-,82,N/A,30.14,39.0,,4:53 AM,10.0,SE,10.4,130,Boise,Idaho,83701
5,Clear,2016-02-28 12:53:00,35.1,,-,83,N/A,30.13,39.9,,5:53 AM,10.0,ESE,11.5,120,Boise,Idaho,83701
6,Clear,2016-02-28 13:53:00,34.0,,-,82,N/A,30.12,39.0,,6:53 AM,10.0,SE,12.7,130,Boise,Idaho,83701
7,Clear,2016-02-28 14:53:00,34.0,,-,76,N/A,30.12,41.0,,7:53 AM,10.0,ESE,12.7,120,Boise,Idaho,83701
8,Partly Cloudy,2016-02-28 15:53:00,35.1,,-,71,N/A,30.13,44.1,,8:53 AM,10.0,SE,12.7,130,Boise,Idaho,83701
9,Clear,2016-02-28 16:53:00,35.1,,-,66,N/A,30.13,46.0,,9:53 AM,10.0,SE,12.7,130,Boise,Idaho,83701
10,Mostly Cloudy,2016-02-28 17:53:00,36.0,,-,63,N/A,30.15,48.0,,10:53 AM,10.0,SE,11.5,140,Boise,Idaho,83701
11,Clear,2016-02-28 18:53:00,37.0,,-,53,N/A,30.12,54.0,,11:53 AM,10.0,ESE,15.0,120,Boise,Idaho,83701
12,Mostly Cloudy,2016-02-28 19:53:00,36.0,,-,45,N/A,30.10,57.0,,12:53 PM,10.0,SE,10.4,130,Boise,Idaho,83701
13,Clear,2016-02-28 20:53:00,32.0,,-,36,N/A,30.07,59.0,,1:53 PM,10.0,SSE,13.8,150,Boise,Idaho,83701
14,Clear,2016-02-28 21:53:00,30.9,,-,35,N/A,30.05,59.0,,2:53 PM,10.0,SE,10.4,130,Boise,Idaho,83701
15,Clear,2016-02-28 22:53:00,30.9,,18.4,35,N/A,30.04,59.0,,3:53 PM,10.0,SE,13.8,130,Boise,Idaho,83701
16,Clear,2016-02-28 23:53:00,32.0,,-,37,N/A,30.01,57.9,,4:53 PM,10.0,ESE,11.5,120,Boise,Idaho,83701
17,Clear,2016-02-29 00:53:00,35.1,,-,47,N/A,30.02,55.0,,5:53 PM,10.0,SE,6.9,130,Boise,Idaho,83701
18,Partly Cloudy,2016-02-29 01:53:00,35.1,,-,50,N/A,30.02,53.1,,6:53 PM,10.0,SE,8.1,130,Boise,Idaho,83701
19,Overcast,2016-02-29 02:49:00,35.6,,20.7,47,N/A,30.05,55.4,,7:49 PM,10.0,SSW,12.7,200,Boise,Idaho,83701
20,Mostly Cloudy,2016-02-29 02:53:00,36.0,,-,51,N/A,30.05,54.0,,7:53 PM,10.0,SSW,11.5,210,Boise,Idaho,83701
21,Scattered Clouds,2016-02-29 03:53:00,37.0,,-,61,N/A,30.06,50.0,,8:53 PM,10.0,Calm,Calm,0,Boise,Idaho,83701
22,Partly Cloudy,2016-02-29 04:53:00,37.9,,-,66,N/A,30.08,48.9,,9:53 PM,10.0,WNW,4.6,290,Boise,Idaho,83701
23,Clear,2016-02-29 05:53:00,39.0,,-,76,N/A,30.12,46.0,,10:53 PM,10.0,NW,5.8,320,Boise,Idaho,83701
24,Clear,2016-02-29 06:53:00,39.0,,-,80,N/A,30.12,45.0,,11:53 PM,10.0,South,3.5,180,Boise,Idaho,83701
0,Clear,2016-02-29 07:53:00,37.0,,-,74,N/A,30.14,45.0,,12:53 AM,10.0,NW,6.9,310,Boise,Idaho,83701
1,Clear,2016-02-29 08:53:00,30.9,,-,62,N/A,30.16,43.0,,1:53 AM,10.0,NW,9.2,320,Boise,Idaho,83701
2,Clear,2016-02-29 09:53:00,28.9,,-,62,N/A,30.15,41.0,,2:53 AM,10.0,WNW,4.6,290,Boise,Idaho,83701
3,Clear,2016-02-29 10:53:00,28.9,,-,70,N/A,30.18,37.9,,3:53 AM,10.0,West,6.9,280,Boise,Idaho,83701
4,Clear,2016-02-29 11:53:00,28.0,,-,70,N/A,30.19,37.0,,4:53 AM,10.0,WNW,5.8,290,Boise,Idaho,83701
5,Clear,2016-02-29 12:53:00,25.0,,-,67,N/A,30.22,35.1,,5:53 AM,10.0,NNW,6.9,330,Boise,Idaho,83701
6,Clear,2016-02-29 13:53:00,23.0,,-,61,N/A,30.23,35.1,,6:53 AM,10.0,NNW,5.8,330,Boise,Idaho,83701
7,Clear,2016-02-29 14:53:00,23.0,,-,64,N/A,30.25,34.0,,7:53 AM,10.0,Calm,Calm,0,Boise,Idaho,83701
8,Clear,2016-02-29 15:53:00,24.1,,-,53,N/A,30.26,39.9,,8:53 AM,10.0,WNW,5.8,300,Boise,Idaho,83701
9,Clear,2016-02-29 16:53:00,23.0,,-,45,N/A,30.27,43.0,,9:53 AM,10.0,NNW,9.2,330,Boise,Idaho,83701
10,Clear,2016-02-29 17:53:00,21.9,,-,40,N/A,30.27,45.0,,10:53 AM,10.0,NW,6.9,310,Boise,Idaho,83701
11,Clear,2016-02-29 18:53:00,19.9,,-,35,N/A,30.27,46.0,,11:53 AM,10.0,WNW,6.9,290,Boise,Idaho,83701
12,Clear,2016-02-29 19:53:00,19.0,,-,31,N/A,30.26,48.9,,12:53 PM,10.0,NW,6.9,310,Boise,Idaho,83701
13,Clear,2016-02-29 20:53:00,15.1,,-,25,N/A,30.24,50.0,,1:53 PM,10.0,WNW,6.9,300,Boise,Idaho,83701
14,Clear,2016-02-29 21:53:00,16.0,,-,24,N/A,30.22,52.0,,2:53 PM,10.0,WNW,9.2,290,Boise,Idaho,83701
15,Clear,2016-02-29 22:53:00,12.0,,-,20,N/A,30.19,52.0,,3:53 PM,10.0,North,4.6,10,Boise,Idaho,83701
16,Clear,2016-02-29 23:53:00,18.0,,-,26,N/A,30.19,52.0,,4:53 PM,10.0,NW,5.8,320,Boise,Idaho,83701
17,Clear,2016-03-01 00:53:00,18.0,,-,27,N/A,30.21,51.1,,5:53 PM,10.0,NNE,5.8,20,Boise,Idaho,83701
18,Clear,2016-03-01 01:53:00,18.0,,-,28,N/A,30.20,50.0,,6:53 PM,10.0,Calm,Calm,0,Boise,Idaho,83701
19,Clear,2016-03-01 02:53:00,23.0,,-,43,N/A,30.22,44.1,,7:53 PM,10.0,ESE,4.6,120,Boise,Idaho,83701
20,Clear,2016-03-01 03:53:00,23.0,,-,42,N/A,30.20,45.0,,8:53 PM,10.0,SE,5.8,130,Boise,Idaho,83701
21,Overcast,2016-03-01 04:53:00,24.1,,-,44,N/A,30.20,45.0,,9:53 PM,10.0,SSE,6.9,150,Boise,Idaho,83701
22,Overcast,2016-03-01 05:53:00,21.9,,-,39,N/A,30.19,46.0,,10:53 PM,10.0,SE,10.4,140,Boise,Idaho,83701
23,Overcast,2016-03-01 06:53:00,23.0,,-,42,N/A,30.19,45.0,,11:53 PM,10.0,SE,6.9,130,Boise,Idaho,83701
0,Overcast,2016-03-01 07:53:00,21.9,,-,39,N/A,30.18,46.0,,12:53 AM,10.0,ESE,8.1,120,Boise,Idaho,83701
1,Overcast,2016-03-01 08:53:00,25.0,,-,44,N/A,30.16,46.0,,1:53 AM,10.0,East,6.9,80,Boise,Idaho,83701
2,Overcast,2016-03-01 09:53:00,27.0,,-,51,N/A,30.17,44.1,,2:53 AM,10.0,South,12.7,170,Boise,Idaho,83701
3,Overcast,2016-03-01 10:53:00,27.0,,-,49,N/A,30.15,45.0,,3:53 AM,10.0,ESE,12.7,120,Boise,Idaho,83701
4,Overcast,2016-03-01 11:53:00,28.9,,-,55,N/A,30.16,44.1,,4:53 AM,10.0,ESE,8.1,110,Boise,Idaho,83701
5,Overcast,2016-03-01 12:53:00,28.9,,-,51,N/A,30.14,46.0,,5:53 AM,10.0,East,10.4,90,Boise,Idaho,83701
6,Overcast,2016-03-01 13:53:00,30.9,,-,60,N/A,30.14,44.1,,6:53 AM,10.0,ESE,9.2,120,Boise,Idaho,83701
7,Overcast,2016-03-01 14:53:00,30.9,,-,58,N/A,30.14,45.0,,7:53 AM,10.0,ESE,11.5,120,Boise,Idaho,83701
8,Scattered Clouds,2016-03-01 15:53:00,30.9,,-,54,N/A,30.14,46.9,,8:53 AM,10.0,SE,11.5,130,Boise,Idaho,83701
9,Clear,2016-03-01 16:53:00,30.0,,-,48,N/A,30.12,48.9,,9:53 AM,10.0,ESE,16.1,120,Boise,Idaho,83701
10,Clear,2016-03-01 17:53:00,30.9,,21.9,48,N/A,30.09,50.0,,10:53 AM,10.0,ESE,13.8,110,Boise,Idaho,83701
11,Clear,2016-03-01 18:53:00,30.9,,-,45,N/A,30.06,52.0,,11:53 AM,10.0,ESE,17.3,120,Boise,Idaho,83701
12,Clear,2016-03-01 19:53:00,32.0,,-,40,N/A,30.01,55.9,,12:53 PM,10.0,ESE,18.4,120,Boise,Idaho,83701
13,Clear,2016-03-01 20:53:00,34.0,,-,42,N/A,29.96,57.0,,1:53 PM,10.0,ESE,15.0,110,Boise,Idaho,83701
14,Clear,2016-03-01 21:53:00,34.0,,-,39,N/A,29.92,59.0,,2:53 PM,10.0,ESE,15.0,110,Boise,Idaho,83701
15,Clear,2016-03-01 22:53:00,35.1,,-,39,N/A,29.90,60.1,,3:53 PM,10.0,ESE,12.7,120,Boise,Idaho,83701
16,Mostly Cloudy,2016-03-01 23:53:00,36.0,,-,42,N/A,29.89,59.0,,4:53 PM,10.0,SE,10.4,130,Boise,Idaho,83701
17,Light Rain,2016-03-02 00:53:00,39.0,Rain,25.3,49,0.00,29.96,57.9,,5:53 PM,10.0,West,17.3,270,Boise,Idaho,83701
18,Light Rain,2016-03-02 01:04:00,41.0,Rain,-,58,0.00,29.97,55.4,,6:04 PM,10.0,Calm,Calm,0,Boise,Idaho,83701
19,Clear,2016-03-02 01:53:00,39.9,,-,57,0.00,29.92,55.0,,6:53 PM,10.0,ESE,9.2,120,Boise,Idaho,83701
20,Clear,2016-03-02 02:53:00,39.0,,-,61,N/A,29.91,52.0,,7:53 PM,10.0,ESE,11.5,120,Boise,Idaho,83701
21,Clear,2016-03-02 03:53:00,39.0,,-,66,N/A,29.93,50.0,,8:53 PM,10.0,SE,4.6,140,Boise,Idaho,83701
22,Clear,2016-03-02 04:53:00,37.9,,-,66,N/A,29.93,48.9,,9:53 PM,10.0,SE,8.1,130,Boise,Idaho,83701
23,Clear,2016-03-02 05:53:00,37.0,,-,71,N/A,29.94,46.0,,10:53 PM,10.0,ESE,8.1,110,Boise,Idaho,83701
24,Clear,2016-03-02 06:53:00,36.0,,-,76,N/A,29.95,43.0,,11:53 PM,10.0,ESE,5.8,110,Boise,Idaho,83701
0,Clear,2016-03-02 07:53:00,33.1,,-,59,N/A,29.95,46.9,,12:53 AM,10.0,West,3.5,280,Boise,Idaho,83701
1,Partly Cloudy,2016-03-02 08:53:00,32.0,,-,58,N/A,29.98,46.0,,1:53 AM,10.0,Calm,Calm,0,Boise,Idaho,83701
2,Mostly Cloudy,2016-03-02 09:53:00,30.9,,-,50,N/A,29.99,48.9,,2:53 AM,10.0,WNW,6.9,300,Boise,Idaho,83701
3,Mostly Cloudy,2016-03-02 10:53:00,33.1,,-,54,N/A,29.99,48.9,,3:53 AM,10.0,WNW,6.9,290,Boise,Idaho,83701
4,Scattered Clouds,2016-03-02 11:53:00,33.1,,-,68,N/A,30.01,43.0,,4:53 AM,10.0,WNW,5.8,300,Boise,Idaho,83701
5,Clear,2016-03-02 12:53:00,33.1,,-,63,N/A,30.04,45.0,,5:53 AM,10.0,NW,5.8,310,Boise,Idaho,83701
6,Clear,2016-03-02 13:53:00,32.0,,-,73,N/A,30.07,39.9,,6:53 AM,10.0,Calm,Calm,0,Boise,Idaho,83701
7,Clear,2016-03-02 14:53:00,30.9,,-,76,N/A,30.09,37.9,,7:53 AM,10.0,Calm,Calm,0,Boise,Idaho,83701
8,Clear,2016-03-02 15:53:00,35.1,,-,71,N/A,30.12,44.1,,8:53 AM,10.0,South,3.5,190,Boise,Idaho,83701
9,Clear,2016-03-02 16:53:00,32.0,,-,52,N/A,30.14,48.9,,9:53 AM,10.0,NW,5.8,320,Boise,Idaho,83701
10,Clear,2016-03-02 17:53:00,32.0,,-,47,N/A,30.14,52.0,,10:53 AM,10.0,North,5.8,360,Boise,Idaho,83701
11,Clear,2016-03-02 18:53:00,28.9,,-,38,N/A,30.13,54.0,,11:53 AM,10.0,NW,8.1,320,Boise,Idaho,83701
12,Clear,2016-03-02 19:53:00,24.1,,-,30,N/A,30.11,55.0,,12:53 PM,10.0,North,11.5,10,Boise,Idaho,83701
13,Clear,2016-03-02 20:53:00,24.1,,-,28,N/A,30.08,57.0,,1:53 PM,10.0,NNE,5.8,20,Boise,Idaho,83701
14,Clear,2016-03-02 21:53:00,23.0,,-,27,N/A,30.07,57.0,,2:53 PM,10.0,NNW,9.2,330,Boise,Idaho,83701
15,Clear,2016-03-02 22:53:00,21.9,,-,25,N/A,30.05,57.9,,3:53 PM,10.0,Calm,Calm,0,Boise,Idaho,83701
16,Clear,2016-03-02 23:53:00,21.0,,-,24,N/A,30.04,57.9,,4:53 PM,10.0,East,5.8,80,Boise,Idaho,83701
17,Clear,2016-03-03 00:53:00,23.0,,-,27,N/A,30.06,57.0,,5:53 PM,10.0,South,4.6,190,Boise,Idaho,83701
18,Clear,2016-03-03 01:53:00,23.0,,-,36,N/A,30.07,48.9,,6:53 PM,10.0,ESE,3.5,120,Boise,Idaho,83701
19,Clear,2016-03-03 02:53:00,21.9,,-,35,N/A,30.07,48.9,,7:53 PM,10.0,SE,9.2,130,Boise,Idaho,83701
20,Clear,2016-03-03 03:53:00,21.9,,-,36,N/A,30.05,48.0,,8:53 PM,10.0,SE,10.4,130,Boise,Idaho,83701
21,Clear,2016-03-03 04:53:00,21.0,,-,33,N/A,30.03,48.9,,9:53 PM,10.0,SE,13.8,130,Boise,Idaho,83701
22,Clear,2016-03-03 05:53:00,21.9,,-,35,N/A,30.02,48.9,,10:53 PM,10.0,SE,12.7,130,Boise,Idaho,83701
23,Clear,2016-03-03 06:53:00,21.9,,-,36,N/A,30.02,48.0,,11:53 PM,10.0,ESE,12.7,120,Boise,Idaho,83701
0,Scattered Clouds,2016-03-03 07:53:00,21.9,,-,33,N/A,29.99,50.0,,12:53 AM,10.0,SE,12.7,130,Boise,Idaho,83701
1,Overcast,2016-03-03 08:53:00,21.9,,-,32,N/A,29.97,51.1,,1:53 AM,10.0,SE,15.0,130,Boise,Idaho,83701
2,Partly Cloudy,2016-03-03 09:53:00,21.9,,-,33,N/A,29.96,50.0,,2:53 AM,10.0,ESE,17.3,120,Boise,Idaho,83701
3,Mostly Cloudy,2016-03-03 10:53:00,21.0,,-,31,N/A,29.94,51.1,,3:53 AM,10.0,SE,11.5,140,Boise,Idaho,83701
4,Overcast,2016-03-03 11:53:00,24.1,,-,39,N/A,29.97,48.0,,4:53 AM,10.0,SSE,6.9,150,Boise,Idaho,83701
5,Clear,2016-03-03 12:53:00,25.0,,-,42,N/A,29.98,46.9,,5:53 AM,10.0,East,5.8,100,Boise,Idaho,83701
6,Overcast,2016-03-03 13:31:00,24.8,,-,43,N/A,29.99,46.4,,6:31 AM,10.0,SE,10.4,140,Boise,Idaho,83701
7,Overcast,2016-03-03 13:53:00,24.1,,-,39,N/A,29.99,48.0,,6:53 AM,10.0,ESE,11.5,120,Boise,Idaho,83701
8,Scattered Clouds,2016-03-03 14:53:00,24.1,,-,38,N/A,29.99,48.9,,7:53 AM,10.0,SE,8.1,130,Boise,Idaho,83701
9,Overcast,2016-03-03 15:53:00,26.1,,-,41,N/A,30.02,48.9,,8:53 AM,10.0,SE,8.1,140,Boise,Idaho,83701
10,Overcast,2016-03-03 16:53:00,30.9,,-,54,N/A,30.04,46.9,,9:53 AM,10.0,NNW,4.6,340,Boise,Idaho,83701
11,Overcast,2016-03-03 17:53:00,30.0,,-,48,N/A,30.05,48.9,,10:53 AM,10.0,NE,4.6,40,Boise,Idaho,83701
12,Overcast,2016-03-03 18:53:00,30.0,,-,41,N/A,30.03,53.1,,11:53 AM,10.0,ESE,4.6,110,Boise,Idaho,83701
13,Overcast,2016-03-03 19:53:00,28.9,,-,34,N/A,30.02,57.0,,12:53 PM,10.0,ESE,5.8,110,Boise,Idaho,83701
14,Overcast,2016-03-03 20:53:00,30.0,,-,33,N/A,30.00,59.0,,1:53 PM,10.0,ESE,8.1,120,Boise,Idaho,83701
15,Mostly Cloudy,2016-03-03 21:53:00,30.0,,-,31,N/A,29.97,61.0,,2:53 PM,10.0,ESE,4.6,120,Boise,Idaho,83701
16,Scattered Clouds,2016-03-03 22:53:00,30.9,,-,30,N/A,29.96,63.0,,3:53 PM,10.0,Variable,3.5,0,Boise,Idaho,83701
17,Mostly Cloudy,2016-03-03 23:53:00,32.0,,-,34,N/A,29.96,61.0,,4:53 PM,10.0,South,3.5,170,Boise,Idaho,83701
18,Light Rain,2016-03-04 00:30:00,41.0,Rain,-,62,0.00,30.04,53.6,,5:30 PM,10.0,WNW,15.0,300,Boise,Idaho,83701
19,Overcast,2016-03-04 00:53:00,42.1,,-,64,0.00,30.03,54.0,,5:53 PM,10.0,NNW,9.2,340,Boise,Idaho,83701
20,Light Rain,2016-03-04 01:53:00,39.9,Rain,-,61,0.00,30.04,53.1,,6:53 PM,10.0,NNW,3.5,340,Boise,Idaho,83701
21,Mostly Cloudy,2016-03-04 02:53:00,43.0,,-,74,0.00,30.06,51.1,,7:53 PM,10.0,ENE,5.8,70,Boise,Idaho,83701
22,Clear,2016-03-04 03:53:00,42.1,,-,90,N/A,30.06,45.0,,8:53 PM,10.0,SSW,5.8,200,Boise,Idaho,83701
23,Clear,2016-03-04 04:53:00,39.9,,-,82,N/A,30.09,45.0,,9:53 PM,10.0,SSW,4.6,210,Boise,Idaho,83701
24,Clear,2016-03-04 05:53:00,39.0,,-,86,N/A,30.10,43.0,,10:53 PM,10.0,Calm,Calm,0,Boise,Idaho,83701
25,Clear,2016-03-04 06:53:00,37.9,,-,85,N/A,30.09,42.1,,11:53 PM,10.0,ESE,5.8,120,Boise,Idaho,83701
0,Clear,2016-03-04 07:53:00,37.0,,-,89,N/A,30.08,39.9,,12:53 AM,10.0,ESE,3.5,110,Boise,Idaho,83701
1,Clear,2016-03-04 08:53:00,36.0,,-,86,N/A,30.07,39.9,,1:53 AM,10.0,ESE,4.6,120,Boise,Idaho,83701
2,Clear,2016-03-04 09:53:00,36.0,,-,89,N/A,30.07,39.0,,2:53 AM,10.0,SSE,4.6,160,Boise,Idaho,83701
3,Clear,2016-03-04 10:53:00,35.1,,-,86,N/A,30.06,39.0,,3:53 AM,10.0,ESE,5.8,110,Boise,Idaho,83701
4,Clear,2016-03-04 11:53:00,35.1,,-,86,N/A,30.05,39.0,,4:53 AM,10.0,SE,8.1,130,Boise,Idaho,83701
5,Clear,2016-03-04 12:53:00,34.0,,-,79,N/A,30.06,39.9,,5:53 AM,10.0,SE,6.9,130,Boise,Idaho,83701
6,Partly Cloudy,2016-03-04 13:53:00,34.0,,-,93,N/A,30.09,36.0,,6:53 AM,10.0,North,6.9,350,Boise,Idaho,83701
7,Partly Cloudy,2016-03-04 14:53:00,35.1,,-,89,N/A,30.09,37.9,,7:53 AM,10.0,SSE,3.5,150,Boise,Idaho,83701
8,Partly Cloudy,2016-03-04 15:53:00,36.0,,-,68,N/A,30.08,46.0,,8:53 AM,10.0,SE,11.5,140,Boise,Idaho,83701
9,Clear,2016-03-04 16:53:00,35.1,,-,61,N/A,30.08,48.0,,9:53 AM,10.0,SE,11.5,130,Boise,Idaho,83701
10,Clear,2016-03-04 17:53:00,39.0,,-,59,N/A,30.06,53.1,,10:53 AM,10.0,South,13.8,170,Boise,Idaho,83701
11,Clear,2016-03-04 18:53:00,39.9,,-,53,N/A,30.04,57.0,,11:53 AM,10.0,SSE,11.5,160,Boise,Idaho,83701
12,Clear,2016-03-04 19:53:00,39.0,,-,46,N/A,30.03,60.1,,12:53 PM,10.0,SE,12.7,140,Boise,Idaho,83701
13,Clear,2016-03-04 20:53:00,36.0,,-,34,N/A,29.97,64.9,,1:53 PM,10.0,SSE,15.0,150,Boise,Idaho,83701
14,Overcast,2016-03-04 21:53:00,35.1,,-,33,N/A,29.94,64.9,,2:53 PM,10.0,SSE,16.1,160,Boise,Idaho,83701
15,Mostly Cloudy,2016-03-04 22:53:00,35.1,,19.6,31,N/A,29.92,66.9,,3:53 PM,10.0,SE,13.8,130,Boise,Idaho,83701
16,Clear,2016-03-04 23:53:00,36.0,,-,34,N/A,29.89,64.9,,4:53 PM,10.0,SSE,12.7,160,Boise,Idaho,83701
17,Clear,2016-03-05 00:53:00,35.1,,-,34,N/A,29.88,64.0,,5:53 PM,10.0,SE,9.2,130,Boise,Idaho,83701
18,Clear,2016-03-05 01:53:00,35.1,,-,39,N/A,29.88,60.1,,6:53 PM,10.0,ESE,9.2,120,Boise,Idaho,83701
19,Clear,2016-03-05 02:53:00,34.0,,-,39,N/A,29.86,59.0,,7:53 PM,10.0,ESE,9.2,120,Boise,Idaho,83701
20,Clear,2016-03-05 03:53:00,33.1,,-,38,N/A,29.82,59.0,,8:53 PM,10.0,ESE,10.4,120,Boise,Idaho,83701
21,Clear,2016-03-05 04:53:00,34.0,,-,42,N/A,29.80,57.0,,9:53 PM,10.0,ESE,10.4,120,Boise,Idaho,83701
22,Clear,2016-03-05 05:53:00,33.1,,-,38,N/A,29.77,59.0,,10:53 PM,10.0,ESE,11.5,120,Boise,Idaho,83701
23,Mostly Cloudy,2016-03-05 06:53:00,35.1,,-,49,N/A,29.77,54.0,,11:53 PM,10.0,SSW,8.1,200,Boise,Idaho,83701
0,Overcast,2016-03-05 07:53:00,36.0,,-,54,N/A,29.74,52.0,,12:53 AM,10.0,South,6.9,180,Boise,Idaho,83701
1,Overcast,2016-03-05 08:53:00,36.0,,-,52,N/A,29.74,53.1,,1:53 AM,10.0,West,11.5,270,Boise,Idaho,83701
2,Overcast,2016-03-05 09:53:00,35.1,,-,50,N/A,29.77,53.1,,2:53 AM,10.0,SSW,5.8,200,Boise,Idaho,83701
3,Light Rain,2016-03-05 10:53:00,39.0,Rain,-,61,0.00,29.77,52.0,,3:53 AM,10.0,North,3.5,10,Boise,Idaho,83701
4,Light Rain,2016-03-05 11:53:00,39.0,Rain,17.3,63,0.00,29.79,51.1,,4:53 AM,10.0,Variable,5.8,0,Boise,Idaho,83701
5,Light Rain,2016-03-05 12:53:00,44.1,Rain,-,83,0.06,29.81,48.9,,5:53 AM,7.0,East,3.5,100,Boise,Idaho,83701
6,Light Rain,2016-03-05 13:53:00,44.1,Rain,-,90,0.04,29.81,46.9,,6:53 AM,10.0,ESE,9.2,120,Boise,Idaho,83701
7,Light Rain,2016-03-05 14:53:00,44.1,Rain,-,86,0.00,29.81,48.0,,7:53 AM,10.0,SE,9.2,140,Boise,Idaho,83701
8,Scattered Clouds,2016-03-05 15:53:00,43.0,,-,77,0.00,29.82,50.0,,8:53 AM,10.0,ESE,13.8,120,Boise,Idaho,83701
9,Scattered Clouds,2016-03-05 16:53:00,45.0,,-,69,N/A,29.82,55.0,,9:53 AM,10.0,ESE,12.7,120,Boise,Idaho,83701
10,Overcast,2016-03-05 17:53:00,44.1,,-,64,N/A,29.80,55.9,,10:53 AM,10.0,ESE,10.4,110,Boise,Idaho,83701
11,Overcast,2016-03-05 18:53:00,44.1,,-,62,N/A,29.81,57.0,,11:53 AM,10.0,ESE,8.1,120,Boise,Idaho,83701
12,Overcast,2016-03-05 19:53:00,45.0,,-,64,0.00,29.79,57.0,,12:53 PM,10.0,East,8.1,100,Boise,Idaho,83701
13,Mostly Cloudy,2016-03-05 20:53:00,41.0,,-,48,0.00,29.74,61.0,,1:53 PM,10.0,SE,15.0,130,Boise,Idaho,83701
14,Overcast,2016-03-05 21:53:00,39.9,,-,44,N/A,29.71,62.1,,2:53 PM,10.0,SE,11.5,130,Boise,Idaho,83701
15,Mostly Cloudy,2016-03-05 22:53:00,39.0,,-,41,N/A,29.69,63.0,,3:53 PM,10.0,SE,11.5,130,Boise,Idaho,83701
16,Overcast,2016-03-05 23:53:00,41.0,,-,46,N/A,29.66,62.1,,4:53 PM,10.0,SE,12.7,140,Boise,Idaho,83701
17,Overcast,2016-03-06 00:53:00,41.0,,-,48,N/A,29.64,61.0,,5:53 PM,10.0,ESE,10.4,110,Boise,Idaho,83701
18,Clear,2016-03-06 01:53:00,39.9,,-,51,N/A,29.62,57.9,,6:53 PM,10.0,ESE,11.5,110,Boise,Idaho,83701
19,Mostly Cloudy,2016-03-06 02:53:00,39.0,,-,51,N/A,29.59,57.0,,7:53 PM,10.0,ESE,12.7,120,Boise,Idaho,83701
20,Partly Cloudy,2016-03-06 03:53:00,37.9,,23.0,47,N/A,29.55,57.9,,8:53 PM,10.0,ESE,15.0,110,Boise,Idaho,83701
21,Clear,2016-03-06 04:53:00,37.0,,-,44,N/A,29.52,59.0,,9:53 PM,10.0,ESE,18.4,120,Boise,Idaho,83701
22,Scattered Clouds,2016-03-06 05:53:00,37.0,,-,42,N/A,29.48,60.1,,10:53 PM,10.0,ESE,17.3,110,Boise,Idaho,83701
23,Clear,2016-03-06 06:53:00,36.0,,-,41,N/A,29.43,60.1,,11:53 PM,10.0,ESE,17.3,110,Boise,Idaho,83701
0,Scattered Clouds,2016-03-06 07:53:00,33.1,,36.8,31,N/A,29.40,64.0,,12:53 AM,10.0,ESE,28.8,120,Boise,Idaho,83701
1,Partly Cloudy,2016-03-06 08:53:00,34.0,,29.9,35,N/A,29.39,62.1,,1:53 AM,10.0,SE,23.0,130,Boise,Idaho,83701
2,Mostly Cloudy,2016-03-06 09:53:00,34.0,,41.4,35,N/A,29.39,62.1,,2:53 AM,10.0,SE,28.8,130,Boise,Idaho,83701
3,Overcast,2016-03-06 10:53:00,36.0,,31.1,41,0.00,29.38,60.1,,3:53 AM,10.0,SE,21.9,140,Boise,Idaho,83701
4,Overcast,2016-03-06 11:53:00,37.0,,28.8,42,N/A,29.38,60.1,,4:53 AM,10.0,SE,18.4,140,Boise,Idaho,83701
5,Rain,2016-03-06 12:53:00,44.1,Rain,33.4,71,0.03,29.47,53.1,,5:53 AM,3.0,SW,13.8,230,Boise,Idaho,83701
6,Light Rain,2016-03-06 13:24:00,44.6,Rain,-,76,0.04,29.49,51.8,,6:24 AM,10.0,ESE,10.4,120,Boise,Idaho,83701
7,Overcast,2016-03-06 13:53:00,45.0,,-,83,0.04,29.46,50.0,,6:53 AM,10.0,East,9.2,100,Boise,Idaho,83701
8,Light Rain,2016-03-06 14:53:00,45.0,Rain,-,80,0.02,29.49,51.1,,7:53 AM,8.0,ESE,9.2,120,Boise,Idaho,83701
9,Rain,2016-03-06 15:42:00,42.8,Rain,27.6,82,0.11,29.55,48.2,,8:42 AM,2.5,West,12.7,280,Boise,Idaho,83701
10,Light Rain,2016-03-06 15:53:00,44.1,Rain,-,86,0.13,29.53,48.0,,8:53 AM,7.0,West,4.6,280,Boise,Idaho,83701
11,Light Rain,2016-03-06 16:11:00,42.8,Rain,-,82,0.00,29.56,48.2,,9:11 AM,10.0,WNW,8.1,290,Boise,Idaho,83701
12,Overcast,2016-03-06 16:53:00,43.0,,-,80,0.00,29.56,48.9,,9:53 AM,10.0,NW,3.5,310,Boise,Idaho,83701
13,Overcast,2016-03-06 17:53:00,39.9,,23.0,71,N/A,29.60,48.9,,10:53 AM,10.0,West,16.1,270,Boise,Idaho,83701
14,Light Rain,2016-03-06 18:53:00,37.9,Rain,24.2,73,0.00,29.64,46.0,,11:53 AM,10.0,NNW,16.1,340,Boise,Idaho,83701
15,Light Rain,2016-03-06 19:53:00,37.9,Rain,-,68,0.00,29.65,48.0,,12:53 PM,10.0,NNW,15.0,340,Boise,Idaho,83701
16,Mostly Cloudy,2016-03-06 20:53:00,36.0,,-,61,0.00,29.66,48.9,,1:53 PM,10.0,NNW,9.2,340,Boise,Idaho,83701
17,Overcast,2016-03-06 21:53:00,35.1,,-,59,N/A,29.66,48.9,,2:53 PM,10.0,North,6.9,10,Boise,Idaho,83701
18,Scattered Clouds,2016-03-06 22:53:00,33.1,,-,52,N/A,29.67,50.0,,3:53 PM,10.0,Calm,Calm,0,Boise,Idaho,83701
19,Clear,2016-03-06 23:53:00,32.0,,-,50,N/A,29.66,50.0,,4:53 PM,10.0,Calm,Calm,0,Boise,Idaho,83701
20,Clear,2016-03-07 00:53:00,32.0,,-,50,N/A,29.68,50.0,,5:53 PM,10.0,Calm,Calm,0,Boise,Idaho,83701
21,Overcast,2016-03-07 01:53:00,35.1,,-,63,N/A,29.70,46.9,,6:53 PM,10.0,SW,5.8,230,Boise,Idaho,83701
22,Clear,2016-03-07 02:53:00,33.1,,-,65,N/A,29.71,44.1,,7:53 PM,10.0,SSE,3.5,150,Boise,Idaho,83701
23,Clear,2016-03-07 03:53:00,33.1,,-,70,N/A,29.72,42.1,,8:53 PM,10.0,East,4.6,100,Boise,Idaho,83701
24,Clear,2016-03-07 04:53:00,33.1,,-,79,N/A,29.71,39.0,,9:53 PM,10.0,ESE,8.1,120,Boise,Idaho,83701
25,Clear,2016-03-07 05:53:00,33.1,,-,77,N/A,29.72,39.9,,10:53 PM,10.0,SE,10.4,140,Boise,Idaho,83701
26,Clear,2016-03-07 06:53:00,33.1,,-,79,N/A,29.73,39.0,,11:53 PM,10.0,SE,9.2,140,Boise,Idaho,83701
0,Clear,2016-03-07 07:53:00,32.0,,-,76,N/A,29.73,39.0,,12:53 AM,10.0,ESE,10.4,120,Boise,Idaho,83701
1,Clear,2016-03-07 08:53:00,32.0,,-,76,N/A,29.73,39.0,,1:53 AM,10.0,ESE,10.4,120,Boise,Idaho,83701
2,Overcast,2016-03-07 09:53:00,32.0,,-,73,N/A,29.71,39.9,,2:53 AM,10.0,ESE,11.5,120,Boise,Idaho,83701
3,Overcast,2016-03-07 10:53:00,30.9,,-,70,N/A,29.69,39.9,,3:53 AM,10.0,ESE,11.5,120,Boise,Idaho,83701
4,Overcast,2016-03-07 11:53:00,32.0,,-,76,N/A,29.72,39.0,,4:53 AM,10.0,SE,11.5,130,Boise,Idaho,83701
5,Overcast,2016-03-07 12:53:00,32.0,,-,79,N/A,29.74,37.9,,5:53 AM,10.0,SSW,6.9,200,Boise,Idaho,83701
6,Overcast,2016-03-07 13:53:00,30.9,,-,76,N/A,29.75,37.9,,6:53 AM,10.0,ESE,5.8,120,Boise,Idaho,83701
7,Overcast,2016-03-07 14:53:00,32.0,,-,79,N/A,29.77,37.9,,7:53 AM,10.0,SE,5.8,130,Boise,Idaho,83701
8,Overcast,2016-03-07 15:53:00,32.0,,-,67,N/A,29.78,42.1,,8:53 AM,10.0,SE,6.9,140,Boise,Idaho,83701
9,Overcast,2016-03-07 16:53:00,32.0,,-,60,N/A,29.80,45.0,,9:53 AM,10.0,SSE,5.8,150,Boise,Idaho,83701
10,Overcast,2016-03-07 17:53:00,32.0,,-,58,N/A,29.81,46.0,,10:53 AM,10.0,SSE,5.8,150,Boise,Idaho,83701
11,Overcast,2016-03-07 18:53:00,33.1,,-,56,N/A,29.81,48.0,,11:53 AM,10.0,SSW,4.6,200,Boise,Idaho,83701
12,Mostly Cloudy,2016-03-07 19:53:00,33.1,,-,52,N/A,29.80,50.0,,12:53 PM,10.0,North,3.5,350,Boise,Idaho,83701
13,Overcast,2016-03-07 20:53:00,33.1,,-,52,N/A,29.79,50.0,,1:53 PM,10.0,Calm,Calm,0,Boise,Idaho,83701
14,Overcast,2016-03-07 21:53:00,30.9,,-,46,N/A,29.78,51.1,,2:53 PM,10.0,Calm,Calm,0,Boise,Idaho,83701
15,Partly Cloudy,2016-03-07 22:53:00,30.9,,-,48,N/A,29.78,50.0,,3:53 PM,10.0,WNW,3.5,290,Boise,Idaho,83701
16,Partly Cloudy,2016-03-07 23:53:00,34.0,,-,54,N/A,29.80,50.0,,4:53 PM,10.0,NW,6.9,310,Boise,Idaho,83701
17,Mostly Cloudy,2016-03-08 00:53:00,35.1,,-,59,N/A,29.81,48.9,,5:53 PM,10.0,NNW,8.1,340,Boise,Idaho,83701
18,Overcast,2016-03-08 01:53:00,34.0,,-,58,N/A,29.84,48.0,,6:53 PM,10.0,NNW,9.2,340,Boise,Idaho,83701
19,Overcast,2016-03-08 02:53:00,36.0,,-,66,N/A,29.86,46.9,,7:53 PM,10.0,NW,8.1,310,Boise,Idaho,83701
20,Overcast,2016-03-08 03:53:00,36.0,,-,68,N/A,29.86,46.0,,8:53 PM,10.0,WNW,6.9,300,Boise,Idaho,83701
21,Overcast,2016-03-08 04:53:00,36.0,,-,68,N/A,29.87,46.0,,9:53 PM,10.0,WNW,6.9,300,Boise,Idaho,83701
22,Overcast,2016-03-08 05:53:00,36.0,,-,71,N/A,29.88,45.0,,10:53 PM,10.0,West,4.6,260,Boise,Idaho,83701
23,Mostly Cloudy,2016-03-08 06:53:00,36.0,,-,76,N/A,29.89,43.0,,11:53 PM,10.0,West,5.8,270,Boise,Idaho,83701
0,Overcast,2016-03-08 07:53:00,34.0,,-,73,N/A,29.90,42.1,,12:53 AM,10.0,WNW,9.2,300,Boise,Idaho,83701
1,Overcast,2016-03-08 08:53:00,34.0,,-,76,N/A,29.92,41.0,,1:53 AM,10.0,WNW,6.9,300,Boise,Idaho,83701
2,Overcast,2016-03-08 09:53:00,34.0,,-,79,N/A,29.93,39.9,,2:53 AM,10.0,West,8.1,280,Boise,Idaho,83701
3,Overcast,2016-03-08 10:53:00,33.1,,-,79,N/A,29.94,39.0,,3:53 AM,10.0,WNW,6.9,290,Boise,Idaho,83701
4,Clear,2016-03-08 11:53:00,32.0,,-,82,N/A,29.95,37.0,,4:53 AM,10.0,Calm,Calm,0,Boise,Idaho,83701
5,Partly Cloudy,2016-03-08 12:53:00,30.9,,-,82,N/A,29.97,36.0,,5:53 AM,10.0,West,3.5,260,Boise,Idaho,83701
6,Overcast,2016-03-08 13:53:00,30.0,,-,79,N/A,29.98,36.0,,6:53 AM,10.0,Calm,Calm,0,Boise,Idaho,83701
7,Scattered Clouds,2016-03-08 14:53:00,30.0,,-,79,N/A,29.98,36.0,,7:53 AM,10.0,Calm,Calm,0,Boise,Idaho,83701
8,Clear,2016-03-08 15:53:00,30.9,,-,73,N/A,30.00,39.0,,8:53 AM,10.0,West,5.8,270,Boise,Idaho,83701
9,Clear,2016-03-08 16:53:00,32.0,,-,65,N/A,29.99,43.0,,9:53 AM,10.0,Calm,Calm,0,Boise,Idaho,83701
10,Clear,2016-03-08 17:53:00,32.0,,-,58,N/A,29.98,46.0,,10:53 AM,10.0,NW,3.5,310,Boise,Idaho,83701
11,Clear,2016-03-08 18:53:00,28.9,,-,46,N/A,29.97,48.9,,11:53 AM,10.0,North,4.6,360,Boise,Idaho,83701
12,Clear,2016-03-08 19:53:00,27.0,,-,39,N/A,29.95,51.1,,12:53 PM,10.0,NW,8.1,310,Boise,Idaho,83701
13,Clear,2016-03-08 20:53:00,21.9,,-,33,N/A,29.91,50.0,,1:53 PM,10.0,Calm,Calm,0,Boise,Idaho,83701
14,Clear,2016-03-08 21:53:00,21.9,,-,32,N/A,29.88,51.1,,2:53 PM,10.0,NNE,4.6,30,Boise,Idaho,83701
15,Mostly Cloudy,2016-03-08 22:53:00,23.0,,-,33,N/A,29.87,51.1,,3:53 PM,10.0,South,5.8,190,Boise,Idaho,83701
16,Partly Cloudy,2016-03-08 23:53:00,23.0,,-,35,N/A,29.86,50.0,,4:53 PM,10.0,Calm,Calm,0,Boise,Idaho,83701
17,Mostly Cloudy,2016-03-09 00:53:00,23.0,,-,35,N/A,29.88,50.0,,5:53 PM,10.0,Calm,Calm,0,Boise,Idaho,83701
18,Overcast,2016-03-09 01:53:00,30.9,,23.0,56,N/A,29.91,46.0,,6:53 PM,10.0,SW,15.0,220,Boise,Idaho,83701
19,Overcast,2016-03-09 02:53:00,34.0,,-,65,N/A,29.92,45.0,,7:53 PM,10.0,SSW,6.9,200,Boise,Idaho,83701
20,Overcast,2016-03-09 03:53:00,34.0,,-,68,N/A,29.89,44.1,,8:53 PM,10.0,SSW,4.6,200,Boise,Idaho,83701
21,Overcast,2016-03-09 04:53:00,34.0,,-,68,N/A,29.91,44.1,,9:53 PM,10.0,West,10.4,280,Boise,Idaho,83701
22,Light Rain,2016-03-09 05:19:00,37.4,Rain,-,87,0.00,29.92,41.0,,10:19 PM,7.0,NW,11.5,310,Boise,Idaho,83701
23,Light Rain,2016-03-09 05:28:00,35.6,Rain,-,81,0.00,29.92,41.0,,10:28 PM,9.0,NW,11.5,320,Boise,Idaho,83701
24,Overcast,2016-03-09 05:53:00,37.0,,-,86,0.01,29.94,41.0,,10:53 PM,10.0,North,3.5,360,Boise,Idaho,83701
25,Overcast,2016-03-09 06:53:00,37.0,,-,86,N/A,29.95,41.0,,11:53 PM,10.0,NE,5.8,40,Boise,Idaho,83701
0,Scattered Clouds,2016-03-09 07:53:00,36.0,,-,86,N/A,29.94,39.9,,12:53 AM,10.0,ENE,3.5,70,Boise,Idaho,83701
1,Clear,2016-03-09 08:53:00,36.0,,-,89,N/A,29.95,39.0,,1:53 AM,10.0,Calm,Calm,0,Boise,Idaho,83701
2,Clear,2016-03-09 09:53:00,36.0,,-,93,N/A,29.97,37.9,,2:53 AM,10.0,Calm,Calm,0,Boise,Idaho,83701
3,Overcast,2016-03-09 10:53:00,36.0,,-,89,N/A,29.97,39.0,,3:53 AM,10.0,Calm,Calm,0,Boise,Idaho,83701
4,Overcast,2016-03-09 11:53:00,35.1,,-,83,N/A,29.99,39.9,,4:53 AM,10.0,Calm,Calm,0,Boise,Idaho,83701
5,Overcast,2016-03-09 12:53:00,34.0,,-,76,N/A,30.00,41.0,,5:53 AM,10.0,Calm,Calm,0,Boise,Idaho,83701
6,Clear,2016-03-09 13:53:00,34.0,,-,82,N/A,30.03,39.0,,6:53 AM,10.0,SE,4.6,130,Boise,Idaho,83701
7,Scattered Clouds,2016-03-09 14:53:00,34.0,,-,76,N/A,30.04,41.0,,7:53 AM,10.0,ESE,5.8,120,Boise,Idaho,83701
8,Partly Cloudy,2016-03-09 15:53:00,36.0,,-,76,N/A,30.04,43.0,,8:53 AM,10.0,SE,3.5,130,Boise,Idaho,83701
9,Mostly Cloudy,2016-03-09 16:53:00,35.1,,-,68,N/A,30.06,45.0,,9:53 AM,10.0,ESE,4.6,120,Boise,Idaho,83701
10,Overcast,2016-03-09 17:53:00,32.0,,-,56,N/A,30.07,46.9,,10:53 AM,10.0,SE,4.6,130,Boise,Idaho,83701
11,Mostly Cloudy,2016-03-09 18:53:00,32.0,,-,52,N/A,30.07,48.9,,11:53 AM,10.0,SSE,8.1,150,Boise,Idaho,83701
12,Mostly Cloudy,2016-03-09 19:53:00,30.9,,-,48,N/A,30.04,50.0,,12:53 PM,10.0,ESE,5.8,120,Boise,Idaho,83701
13,Overcast,2016-03-09 20:53:00,28.0,,-,40,N/A,30.02,52.0,,1:53 PM,10.0,SSE,10.4,160,Boise,Idaho,83701
14,Overcast,2016-03-09 21:53:00,28.9,,19.6,41,N/A,30.00,52.0,,2:53 PM,10.0,SSE,16.1,160,Boise,Idaho,83701
15,Overcast,2016-03-09 22:53:00,30.0,,21.9,43,N/A,30.00,52.0,,3:53 PM,10.0,SSE,13.8,150,Boise,Idaho,83701
16,Overcast,2016-03-09 23:53:00,32.0,,-,47,N/A,29.99,52.0,,4:53 PM,10.0,ESE,16.1,120,Boise,Idaho,83701
17,Overcast,2016-03-10 00:53:00,33.1,,-,50,0.00,29.97,51.1,,5:53 PM,10.0,SE,15.0,130,Boise,Idaho,83701
18,Overcast,2016-03-10 01:53:00,33.1,,25.3,52,N/A,29.99,50.0,,6:53 PM,10.0,ESE,18.4,120,Boise,Idaho,83701
19,Overcast,2016-03-10 02:53:00,37.0,,-,64,0.00,29.99,48.9,,7:53 PM,10.0,ESE,16.1,120,Boise,Idaho,83701
20,Light Rain,2016-03-10 03:53:00,37.9,Rain,-,63,0.00,29.98,50.0,,8:53 PM,10.0,ESE,19.6,120,Boise,Idaho,83701
21,Clear,2016-03-10 04:53:00,37.0,,24.2,61,0.00,29.96,50.0,,9:53 PM,10.0,ESE,16.1,120,Boise,Idaho,83701
22,Clear,2016-03-10 05:53:00,37.0,,-,61,N/A,29.97,50.0,,10:53 PM,10.0,ESE,17.3,120,Boise,Idaho,83701
23,Mostly Cloudy,2016-03-10 06:53:00,37.0,,-,61,N/A,29.96,50.0,,11:53 PM,10.0,ESE,16.1,120,Boise,Idaho,83701
0,Overcast,2016-03-10 07:53:00,37.0,,-,59,N/A,29.94,51.1,,12:53 AM,10.0,ESE,17.3,120,Boise,Idaho,83701
1,Mostly Cloudy,2016-03-10 08:53:00,37.0,,26.5,57,N/A,29.91,52.0,,1:53 AM,10.0,ESE,17.3,120,Boise,Idaho,83701
2,Mostly Cloudy,2016-03-10 09:53:00,37.0,,-,57,N/A,29.92,52.0,,2:53 AM,10.0,ESE,17.3,120,Boise,Idaho,83701
3,Partly Cloudy,2016-03-10 10:53:00,37.0,,26.5,57,N/A,29.91,52.0,,3:53 AM,10.0,SE,16.1,140,Boise,Idaho,83701
4,Overcast,2016-03-10 11:53:00,37.0,,-,55,N/A,29.91,53.1,,4:53 AM,10.0,ESE,16.1,120,Boise,Idaho,83701
5,Overcast,2016-03-10 12:53:00,36.0,,20.7,49,N/A,29.90,55.0,,5:53 AM,10.0,SE,17.3,130,Boise,Idaho,83701
6,Overcast,2016-03-10 13:53:00,36.0,,-,47,N/A,29.90,55.9,,6:53 AM,10.0,SE,17.3,130,Boise,Idaho,83701
7,Mostly Cloudy,2016-03-10 14:53:00,36.0,,25.3,49,N/A,29.91,55.0,,7:53 AM,10.0,SE,17.3,130,Boise,Idaho,83701
8,Overcast,2016-03-10 15:53:00,36.0,,-,45,N/A,29.92,57.0,,8:53 AM,10.0,ESE,15.0,120,Boise,Idaho,83701
9,Overcast,2016-03-10 16:53:00,36.0,,-,47,0.00,29.90,55.9,,9:53 AM,10.0,ESE,15.0,120,Boise,Idaho,83701
10,Overcast,2016-03-10 17:53:00,36.0,,-,45,N/A,29.91,57.0,,10:53 AM,10.0,ESE,13.8,120,Boise,Idaho,83701
11,Overcast,2016-03-10 18:53:00,37.0,,-,46,N/A,29.90,57.9,,11:53 AM,10.0,SE,18.4,130,Boise,Idaho,83701
12,Overcast,2016-03-10 19:53:00,36.0,,-,42,N/A,29.89,59.0,,12:53 PM,10.0,SE,10.4,130,Boise,Idaho,83701
13,Overcast,2016-03-10 20:53:00,36.0,,-,41,0.00,29.89,60.1,,1:53 PM,10.0,ESE,10.4,110,Boise,Idaho,83701
14,Light Rain,2016-03-10 21:53:00,41.0,Rain,-,53,0.00,29.91,57.9,,2:53 PM,9.0,ESE,8.1,110,Boise,Idaho,83701
15,Overcast,2016-03-10 22:53:00,37.9,,-,44,0.00,29.87,60.1,,3:53 PM,10.0,SE,10.4,140,Boise,Idaho,83701
16,Light Rain,2016-03-10 23:53:00,42.1,Rain,-,56,0.00,29.90,57.9,,4:53 PM,10.0,South,6.9,190,Boise,Idaho,83701
17,Mostly Cloudy,2016-03-11 00:53:00,39.0,,-,49,0.00,29.88,57.9,,5:53 PM,10.0,SSW,6.9,210,Boise,Idaho,83701
18,Overcast,2016-03-11 01:53:00,37.0,,-,46,N/A,29.89,57.9,,6:53 PM,10.0,SW,8.1,220,Boise,Idaho,83701
19,Overcast,2016-03-11 02:53:00,41.0,,-,59,N/A,29.94,55.0,,7:53 PM,10.0,NW,9.2,310,Boise,Idaho,83701
20,Overcast,2016-03-11 03:53:00,42.1,,-,66,N/A,29.95,53.1,,8:53 PM,10.0,NNW,8.1,330,Boise,Idaho,83701
21,Overcast,2016-03-11 04:53:00,42.1,,-,69,N/A,29.99,52.0,,9:53 PM,10.0,Calm,Calm,0,Boise,Idaho,83701
22,Overcast,2016-03-11 05:53:00,42.1,,-,74,N/A,29.99,50.0,,10:53 PM,10.0,Calm,Calm,0,Boise,Idaho,83701
23,Overcast,2016-03-11 06:53:00,43.0,,-,77,N/A,29.99,50.0,,11:53 PM,10.0,SSE,9.2,150,Boise,Idaho,83701
0,Overcast,2016-03-11 07:53:00,44.1,,-,83,N/A,29.96,48.9,,12:53 AM,10.0,Calm,Calm,0,Boise,Idaho,83701
1,Mostly Cloudy,2016-03-11 08:53:00,43.0,,-,83,N/A,29.96,48.0,,1:53 AM,10.0,South,6.9,170,Boise,Idaho,83701
2,Overcast,2016-03-11 09:53:00,43.0,,-,80,N/A,29.95,48.9,,2:53 AM,10.0,SSE,8.1,150,Boise,Idaho,83701
3,Overcast,2016-03-11 10:09:00,42.8,,-,82,N/A,29.96,48.2,,3:09 AM,10.0,SE,10.4,130,Boise,Idaho,83701
4,Overcast,2016-03-11 10:53:00,45.0,,-,86,N/A,29.92,48.9,,3:53 AM,10.0,ESE,12.7,120,Boise,Idaho,83701
5,Overcast,2016-03-11 11:53:00,44.1,,27.6,80,N/A,29.88,50.0,,4:53 AM,10.0,ESE,18.4,110,Boise,Idaho,83701
6,Overcast,2016-03-11 12:53:00,43.0,,-,77,N/A,29.87,50.0,,5:53 AM,10.0,SE,10.4,140,Boise,Idaho,83701
7,Light Rain,2016-03-11 13:53:00,43.0,Rain,20.7,80,0.00,29.86,48.9,,6:53 AM,10.0,SSE,11.5,150,Boise,Idaho,83701
8,Light Rain,2016-03-11 14:53:00,45.0,Rain,27.6,89,0.01,29.87,48.0,,7:53 AM,10.0,SSE,18.4,150,Boise,Idaho,83701
9,Overcast,2016-03-11 15:53:00,44.1,,-,83,0.00,29.85,48.9,,8:53 AM,10.0,SE,13.8,140,Boise,Idaho,83701
10,Mostly Cloudy,2016-03-11 16:53:00,43.0,,-,74,0.00,29.82,51.1,,9:53 AM,10.0,ESE,11.5,120,Boise,Idaho,83701
11,Overcast,2016-03-11 17:53:00,42.1,,-,66,N/A,29.80,53.1,,10:53 AM,10.0,ESE,11.5,120,Boise,Idaho,83701
12,Clear,2016-03-11 18:53:00,42.1,,-,64,N/A,29.77,54.0,,11:53 AM,10.0,ESE,8.1,120,Boise,Idaho,83701
13,Overcast,2016-03-11 19:53:00,42.1,,-,62,N/A,29.74,55.0,,12:53 PM,10.0,SSE,17.3,150,Boise,Idaho,83701
14,Clear,2016-03-11 20:53:00,42.1,,-,53,N/A,29.67,59.0,,1:53 PM,10.0,ESE,11.5,110,Boise,Idaho,83701
15,Clear,2016-03-11 21:53:00,39.0,,25.3,43,N/A,29.64,62.1,,2:53 PM,10.0,SSE,19.6,150,Boise,Idaho,83701
16,Clear,2016-03-11 22:53:00,37.9,,-,42,N/A,29.61,61.0,,3:53 PM,10.0,ESE,12.7,120,Boise,Idaho,83701
17,Clear,2016-03-11 23:53:00,39.0,,-,46,N/A,29.59,60.1,,4:53 PM,10.0,ESE,8.1,120,Boise,Idaho,83701
18,Clear,2016-03-12 00:53:00,39.0,,-,48,N/A,29.56,59.0,,5:53 PM,10.0,SE,4.6,140,Boise,Idaho,83701
19,Mostly Cloudy,2016-03-12 01:53:00,41.0,,-,55,N/A,29.55,57.0,,6:53 PM,10.0,SSW,4.6,210,Boise,Idaho,83701
20,Overcast,2016-03-12 02:53:00,41.0,,-,59,N/A,29.56,55.0,,7:53 PM,10.0,WSW,4.6,250,Boise,Idaho,83701
21,Overcast,2016-03-12 03:53:00,44.1,,-,62,N/A,29.57,57.0,,8:53 PM,10.0,West,8.1,260,Boise,Idaho,83701
22,Overcast,2016-03-12 04:20:00,46.4,,28.8,87,N/A,29.65,50.0,,9:20 PM,10.0,NW,23.0,310,Boise,Idaho,83701
23,Overcast,2016-03-12 04:53:00,44.1,,23.0,83,N/A,29.67,48.9,,9:53 PM,10.0,NNW,16.1,340,Boise,Idaho,83701
24,Overcast,2016-03-12 05:53:00,42.1,,-,83,0.00,29.68,46.9,,10:53 PM,10.0,NNW,12.7,340,Boise,Idaho,83701
25,Overcast,2016-03-12 06:53:00,41.0,,-,77,N/A,29.68,48.0,,11:53 PM,10.0,North,8.1,10,Boise,Idaho,83701
0,Overcast,2016-03-12 07:53:00,42.1,,-,80,N/A,29.69,48.0,,12:53 AM,10.0,West,4.6,270,Boise,Idaho,83701
1,Overcast,2016-03-12 08:53:00,43.0,,-,86,0.01,29.69,46.9,,1:53 AM,10.0,NNW,4.6,330,Boise,Idaho,83701
2,Light Rain,2016-03-12 09:53:00,44.1,Rain,-,90,0.00,29.69,46.9,,2:53 AM,10.0,Calm,Calm,0,Boise,Idaho,83701
3,Light Rain,2016-03-12 10:53:00,43.0,Rain,-,86,0.00,29.71,46.9,,3:53 AM,10.0,Calm,Calm,0,Boise,Idaho,83701
4,Light Rain,2016-03-12 11:53:00,44.1,Rain,-,90,0.01,29.72,46.9,,4:53 AM,10.0,Calm,Calm,0,Boise,Idaho,83701
5,Overcast,2016-03-12 12:53:00,43.0,,-,86,0.00,29.74,46.9,,5:53 AM,10.0,South,3.5,170,Boise,Idaho,83701
6,Mostly Cloudy,2016-03-12 13:53:00,41.0,,-,80,0.00,29.76,46.9,,6:53 AM,10.0,South,3.5,170,Boise,Idaho,83701
7,Overcast,2016-03-12 14:53:00,43.0,,-,86,N/A,29.78,46.9,,7:53 AM,10.0,East,4.6,80,Boise,Idaho,83701
8,Scattered Clouds,2016-03-12 15:53:00,39.9,,-,74,N/A,29.81,48.0,,8:53 AM,10.0,Calm,Calm,0,Boise,Idaho,83701
9,Scattered Clouds,2016-03-12 16:53:00,39.0,,-,69,N/A,29.83,48.9,,9:53 AM,10.0,Calm,Calm,0,Boise,Idaho,83701
10,Clear,2016-03-12 17:53:00,39.9,,-,63,N/A,29.83,52.0,,10:53 AM,10.0,East,4.6,100,Boise,Idaho,83701
11,Scattered Clouds,2016-03-12 18:53:00,39.0,,-,61,N/A,29.83,52.0,,11:53 AM,10.0,ESE,4.6,120,Boise,Idaho,83701
12,Scattered Clouds,2016-03-12 19:53:00,35.1,,-,50,N/A,29.83,53.1,,12:53 PM,10.0,South,4.6,190,Boise,Idaho,83701
13,Mostly Cloudy,2016-03-12 20:53:00,30.0,,-,38,N/A,29.81,55.0,,1:53 PM,10.0,SE,4.6,130,Boise,Idaho,83701
14,Overcast,2016-03-12 21:53:00,28.9,,-,36,N/A,29.79,55.9,,2:53 PM,10.0,SE,6.9,140,Boise,Idaho,83701
15,Light Rain,2016-03-12 22:53:00,33.1,Rain,-,45,0.00,29.79,54.0,,3:53 PM,10.0,SE,9.2,140,Boise,Idaho,83701
16,Mostly Cloudy,2016-03-12 23:53:00,34.0,,-,47,0.00,29.78,54.0,,4:53 PM,10.0,ESE,9.2,120,Boise,Idaho,83701
17,Overcast,2016-03-13 00:53:00,34.0,,18.4,47,N/A,29.78,54.0,,5:53 PM,10.0,South,13.8,170,Boise,Idaho,83701
18,Light Rain,2016-03-13 01:42:00,42.8,Rain,-,87,0.03,29.85,46.4,,6:42 PM,10.0,NNW,15.0,340,Boise,Idaho,83701
19,Light Rain,2016-03-13 01:53:00,44.1,Rain,18.4,90,0.03,29.86,46.9,,6:53 PM,9.0,NNW,8.1,340,Boise,Idaho,83701
20,Overcast,2016-03-13 02:53:00,45.0,,-,93,0.01,29.86,46.9,,7:53 PM,10.0,East,8.1,80,Boise,Idaho,83701
21,Partly Cloudy,2016-03-13 03:53:00,39.9,,-,74,N/A,29.86,48.0,,8:53 PM,10.0,SE,8.1,130,Boise,Idaho,83701
22,Overcast,2016-03-13 04:53:00,35.1,,-,57,N/A,29.87,50.0,,9:53 PM,10.0,SSW,11.5,200,Boise,Idaho,83701
23,Mostly Cloudy,2016-03-13 05:53:00,34.0,,-,56,N/A,29.86,48.9,,10:53 PM,10.0,SSW,3.5,210,Boise,Idaho,83701
24,Overcast,2016-03-13 06:53:00,37.0,,-,68,N/A,29.86,46.9,,11:53 PM,10.0,SSE,6.9,150,Boise,Idaho,83701
0,Overcast,2016-03-13 07:53:00,37.9,,-,73,N/A,29.84,46.0,12:53 AM,,10.0,SE,6.9,130,Boise,Idaho,83701
1,Light Rain,2016-03-13 08:53:00,39.0,Rain,-,76,0.01,29.86,46.0,1:53 AM,,10.0,Variable,6.9,0,Boise,Idaho,83701
2,Mostly Cloudy,2016-03-13 09:53:00,39.9,,-,89,0.01,29.87,43.0,3:53 AM,,10.0,ESE,3.5,120,Boise,Idaho,83701
3,Overcast,2016-03-13 10:53:00,37.0,,-,74,N/A,29.86,45.0,4:53 AM,,10.0,SW,5.8,220,Boise,Idaho,83701
4,Overcast,2016-03-13 11:53:00,36.0,,-,71,0.00,29.87,45.0,5:53 AM,,10.0,WSW,4.6,250,Boise,Idaho,83701
5,Overcast,2016-03-13 12:53:00,37.0,,-,80,N/A,29.86,43.0,6:53 AM,,10.0,NNW,4.6,340,Boise,Idaho,83701
6,Light Rain,2016-03-13 13:53:00,37.0,Rain,-,76,0.00,29.87,44.1,7:53 AM,,10.0,ESE,5.8,110,Boise,Idaho,83701
7,Light Rain,2016-03-13 14:53:00,37.9,Rain,-,82,0.04,29.87,43.0,8:53 AM,,9.0,East,4.6,100,Boise,Idaho,83701
8,Light Rain,2016-03-13 15:53:00,41.0,Rain,-,93,0.03,29.86,43.0,9:53 AM,,10.0,East,10.4,90,Boise,Idaho,83701
9,Overcast,2016-03-13 16:53:00,43.0,,-,93,0.00,29.83,45.0,10:53 AM,,10.0,ESE,15.0,110,Boise,Idaho,83701
10,Light Rain,2016-03-13 17:53:00,46.0,Rain,20.7,93,0.00,29.82,48.0,11:53 AM,,10.0,SE,17.3,130,Boise,Idaho,83701
11,Overcast,2016-03-13 18:53:00,41.0,,-,74,0.00,29.80,48.9,12:53 PM,,10.0,SE,16.1,140,Boise,Idaho,83701
12,Overcast,2016-03-13 19:53:00,41.0,,21.9,66,N/A,29.75,52.0,1:53 PM,,10.0,ESE,17.3,120,Boise,Idaho,83701
13,Overcast,2016-03-13 20:53:00,39.0,,25.3,59,N/A,29.71,53.1,2:53 PM,,10.0,SE,20.7,130,Boise,Idaho,83701
14,Light Rain,2016-03-13 21:53:00,39.9,Rain,27.6,63,0.00,29.68,52.0,3:53 PM,,10.0,SE,17.3,130,Boise,Idaho,83701
15,Light Rain,2016-03-13 22:53:00,43.0,Rain,25.3,77,0.00,29.67,50.0,4:53 PM,,10.0,SE,16.1,130,Boise,Idaho,83701
16,Light Rain,2016-03-13 23:53:00,42.1,Rain,20.7,77,0.07,29.66,48.9,5:53 PM,,4.0,SE,17.3,130,Boise,Idaho,83701
17,Overcast,2016-03-14 00:53:00,42.1,,21.9,77,0.01,29.64,48.9,6:53 PM,,10.0,SE,16.1,140,Boise,Idaho,83701
18,Mostly Cloudy,2016-03-14 01:53:00,39.9,,-,68,N/A,29.62,50.0,7:53 PM,,10.0,SSE,17.3,150,Boise,Idaho,83701
19,Mostly Cloudy,2016-03-14 02:53:00,37.0,,26.5,59,N/A,29.64,51.1,8:53 PM,,10.0,SSW,21.9,200,Boise,Idaho,83701
20,Light Rain,2016-03-14 03:53:00,36.0,Rain,24.2,59,0.00,29.63,50.0,9:53 PM,,10.0,West,16.1,270,Boise,Idaho,83701
21,Mostly Cloudy,2016-03-14 04:53:00,39.9,,-,77,0.01,29.63,46.9,10:53 PM,,10.0,SE,10.4,140,Boise,Idaho,83701
22,Overcast,2016-03-14 05:39:00,35.6,,42.6,62,N/A,29.62,48.2,11:39 PM,,10.0,WSW,19.6,240,Boise,Idaho,83701
23,Overcast,2016-03-14 05:53:00,34.0,,-,56,N/A,29.60,48.9,11:53 PM,,10.0,WSW,16.1,250,Boise,Idaho,83701
24,Overcast,2016-03-14 06:53:00,37.0,,-,71,N/A,29.62,46.0,12:53 AM,,10.0,SW,6.9,220,Boise,Idaho,83701
0,Overcast,2016-03-14 06:53:00,37.0,,-,71,N/A,29.62,46.0,12:53 AM,,10.0,SW,6.9,220,Boise,Idaho,83701
1,Heavy Rain,2016-03-14 07:51:00,37.4,Rain,34.5,87,0.03,29.70,41.0,1:51 AM,,2.5,WNW,18.4,290,Boise,Idaho,83701
2,Rain,2016-03-14 07:53:00,37.9,Rain,40.3,89,0.03,29.70,41.0,1:53 AM,,2.5,WNW,27.6,290,Boise,Idaho,83701
3,Rain,2016-03-14 08:01:00,37.4,Rain,40.3,87,0.03,29.71,41.0,2:01 AM,,5.0,WNW,16.1,290,Boise,Idaho,83701
4,Light Rain,2016-03-14 08:26:00,37.4,Rain,-,93,0.06,29.68,39.2,2:26 AM,,10.0,NNE,6.9,30,Boise,Idaho,83701
5,Scattered Clouds,2016-03-14 08:53:00,37.9,,-,93,0.06,29.70,39.9,2:53 AM,,10.0,Calm,Calm,0,Boise,Idaho,83701
6,Overcast,2016-03-14 09:53:00,36.0,,-,86,N/A,29.70,39.9,3:53 AM,,10.0,NW,4.6,310,Boise,Idaho,83701
7,Partly Cloudy,2016-03-14 10:53:00,35.1,,-,83,N/A,29.71,39.9,4:53 AM,,10.0,NNW,3.5,330,Boise,Idaho,83701
8,Clear,2016-03-14 11:53:00,33.1,,-,73,N/A,29.74,41.0,5:53 AM,,10.0,Variable,5.8,0,Boise,Idaho,83701
9,Overcast,2016-03-14 12:53:00,32.0,,-,73,N/A,29.77,39.9,6:53 AM,,10.0,West,4.6,280,Boise,Idaho,83701
10,Overcast,2016-03-14 13:53:00,32.0,,-,73,N/A,29.80,39.9,7:53 AM,,10.0,WNW,5.8,300,Boise,Idaho,83701
11,Overcast,2016-03-14 14:53:00,30.9,,-,67,N/A,29.83,41.0,8:53 AM,,10.0,WSW,5.8,250,Boise,Idaho,83701
12,Mostly Cloudy,2016-03-14 15:53:00,30.0,,-,68,N/A,29.87,39.9,9:53 AM,,10.0,NW,8.1,320,Boise,Idaho,83701
13,Clear,2016-03-14 16:53:00,28.9,,23.0,60,N/A,29.90,42.1,10:53 AM,,10.0,West,16.1,280,Boise,Idaho,83701
14,Mostly Cloudy,2016-03-14 17:53:00,27.0,,27.6,53,N/A,29.93,43.0,11:53 AM,,10.0,WNW,20.7,290,Boise,Idaho,83701
15,Clear,2016-03-14 18:53:00,27.0,,25.3,51,N/A,29.95,44.1,12:53 PM,,10.0,WNW,19.6,300,Boise,Idaho,83701
16,Mostly Cloudy,2016-03-14 19:07:00,26.6,,23.0,49,N/A,29.94,44.6,1:07 PM,,10.0,West,19.6,280,Boise,Idaho,83701
17,Mostly Cloudy,2016-03-14 19:53:00,26.1,,23.0,48,N/A,29.96,45.0,1:53 PM,,10.0,West,18.4,280,Boise,Idaho,83701
18,Partly Cloudy,2016-03-14 20:53:00,24.1,,31.1,41,N/A,29.95,46.9,2:53 PM,,10.0,West,23.0,280,Boise,Idaho,83701
19,Mostly Cloudy,2016-03-14 21:53:00,26.1,,33.4,49,N/A,29.97,44.1,3:53 PM,,7.0,WNW,20.7,290,Boise,Idaho,83701
20,Mostly Cloudy,2016-03-14 22:53:00,26.1,,-,48,0.00,29.96,45.0,4:53 PM,,10.0,WNW,8.1,290,Boise,Idaho,83701
21,Scattered Clouds,2016-03-14 23:53:00,25.0,,-,44,0.00,29.98,46.0,5:53 PM,,10.0,WNW,10.4,290,Boise,Idaho,83701
22,Mostly Cloudy,2016-03-15 00:53:00,26.1,,25.3,48,N/A,29.99,45.0,6:53 PM,,10.0,WSW,19.6,250,Boise,Idaho,83701
23,Light Rain,2016-03-15 01:26:00,30.2,Rain,33.4,70,0.04,30.01,39.2,7:26 PM,,9.0,WNW,12.7,300,Boise,Idaho,83701
24,Overcast,2016-03-15 01:39:00,30.2,,-,65,0.04,30.00,41.0,7:39 PM,,10.0,NW,9.2,310,Boise,Idaho,83701
25,Overcast,2016-03-15 01:53:00,27.0,,-,55,0.04,30.04,42.1,7:53 PM,,10.0,West,9.2,280,Boise,Idaho,83701
26,Mostly Cloudy,2016-03-15 02:53:00,28.0,,-,63,N/A,30.07,39.9,8:53 PM,,10.0,WSW,8.1,250,Boise,Idaho,83701
27,Overcast,2016-03-15 03:53:00,28.0,,-,65,N/A,30.11,39.0,9:53 PM,,10.0,WSW,5.8,250,Boise,Idaho,83701
28,Overcast,2016-03-15 04:53:00,28.0,,-,65,N/A,30.14,39.0,10:53 PM,,10.0,SSW,4.6,200,Boise,Idaho,83701
29,Overcast,2016-03-15 05:53:00,30.0,,-,76,N/A,30.15,37.0,11:53 PM,,10.0,Calm,Calm,0,Boise,Idaho,83701
0,Overcast,2016-03-15 06:53:00,30.0,,-,76,N/A,30.15,37.0,12:53 AM,,10.0,Calm,Calm,0,Boise,Idaho,83701
1,Overcast,2016-03-15 07:53:00,28.9,,-,73,N/A,30.17,37.0,1:53 AM,,10.0,Calm,Calm,0,Boise,Idaho,83701
2,Overcast,2016-03-15 08:53:00,28.9,,-,70,N/A,30.17,37.9,2:53 AM,,10.0,Calm,Calm,0,Boise,Idaho,83701
3,Overcast,2016-03-15 09:53:00,27.0,,-,67,N/A,30.18,37.0,3:53 AM,,10.0,Calm,Calm,0,Boise,Idaho,83701
4,Mostly Cloudy,2016-03-15 10:53:00,27.0,,-,67,N/A,30.19,37.0,4:53 AM,,10.0,WNW,5.8,290,Boise,Idaho,83701
5,Overcast,2016-03-15 11:53:00,27.0,,-,65,N/A,30.18,37.9,5:53 AM,,10.0,West,3.5,260,Boise,Idaho,83701
6,Overcast,2016-03-15 12:53:00,27.0,,-,67,N/A,30.19,37.0,6:53 AM,,10.0,NNE,6.9,20,Boise,Idaho,83701
7,Mostly Cloudy,2016-03-15 13:53:00,27.0,,-,67,N/A,30.20,37.0,7:53 AM,,10.0,North,3.5,360,Boise,Idaho,83701
8,Overcast,2016-03-15 14:53:00,27.0,,-,65,N/A,30.22,37.9,8:53 AM,,10.0,Calm,Calm,0,Boise,Idaho,83701
9,Overcast,2016-03-15 15:53:00,27.0,,17.3,62,N/A,30.24,39.0,9:53 AM,,10.0,WNW,10.4,290,Boise,Idaho,83701
10,Light Snow,2016-03-15 16:43:00,30.2,Snow,-,75,0.00,30.23,37.4,10:43 AM,,6.0,West,12.7,270,Boise,Idaho,83701
11,Light Rain,2016-03-15 16:53:00,30.9,Rain,-,79,0.00,30.27,37.0,10:53 AM,,9.0,WNW,11.5,290,Boise,Idaho,83701
12,Overcast,2016-03-15 17:28:00,33.8,,-,87,0.01,30.23,37.4,11:28 AM,,10.0,NNW,5.8,340,Boise,Idaho,83701
13,Overcast,2016-03-15 17:53:00,32.0,,-,76,0.01,30.26,39.0,11:53 AM,,10.0,NW,5.8,310,Boise,Idaho,83701
14,Overcast,2016-03-15 18:53:00,28.9,,19.6,62,N/A,30.25,41.0,12:53 PM,,10.0,West,9.2,270,Boise,Idaho,83701
15,Scattered Clouds,2016-03-15 19:53:00,28.9,,-,55,N/A,30.22,44.1,1:53 PM,,10.0,WNW,12.7,290,Boise,Idaho,83701
16,Overcast,2016-03-15 20:53:00,28.0,,-,53,N/A,30.20,44.1,2:53 PM,,10.0,WNW,10.4,300,Boise,Idaho,83701
17,Overcast,2016-03-15 21:53:00,30.9,,-,65,0.00,30.21,42.1,3:53 PM,,10.0,North,4.6,360,Boise,Idaho,83701
18,Light Rain,2016-03-15 22:53:00,34.0,Rain,-,79,0.00,30.22,39.9,4:53 PM,,10.0,North,11.5,10,Boise,Idaho,83701
19,Light Rain,2016-03-15 23:02:00,33.8,Rain,-,81,0.00,30.18,39.2,5:02 PM,,10.0,North,5.8,10,Boise,Idaho,83701
20,Light Rain,2016-03-15 23:18:00,33.8,Rain,-,81,0.00,30.18,39.2,5:18 PM,,10.0,NNE,12.7,20,Boise,Idaho,83701
21,Overcast,2016-03-15 23:53:00,35.1,,-,86,0.00,30.21,39.0,5:53 PM,,10.0,ENE,4.6,60,Boise,Idaho,83701
22,Overcast,2016-03-16 00:53:00,34.0,,-,82,0.00,30.22,39.0,6:53 PM,,10.0,NE,4.6,40,Boise,Idaho,83701
23,Light Rain,2016-03-16 01:44:00,33.8,Rain,18.4,81,0.00,30.19,39.2,7:44 PM,,7.0,NNW,15.0,330,Boise,Idaho,83701
24,Rain,2016-03-16 01:53:00,33.1,Rain,19.6,83,0.02,30.23,37.9,7:53 PM,,5.0,NNW,6.9,340,Boise,Idaho,83701
25,Overcast,2016-03-16 02:51:00,33.8,,-,87,0.01,30.20,37.4,8:51 PM,,10.0,Calm,Calm,0,Boise,Idaho,83701
26,Overcast,2016-03-16 02:53:00,34.0,,-,86,0.01,30.23,37.9,8:53 PM,,10.0,Calm,Calm,0,Boise,Idaho,83701
27,Light Rain,2016-03-16 03:53:00,34.0,Rain,-,86,0.01,30.24,37.9,9:53 PM,,10.0,Calm,Calm,0,Boise,Idaho,83701
28,Light Rain,2016-03-16 04:53:00,35.1,Rain,-,93,0.00,30.25,37.0,10:53 PM,,10.0,East,3.5,100,Boise,Idaho,83701
29,Light Rain,2016-03-16 05:53:00,35.1,Rain,-,93,0.00,30.25,37.0,11:53 PM,,10.0,ESE,3.5,110,Boise,Idaho,83701
0,Light Rain,2016-03-16 06:53:00,35.1,Rain,-,93,0.00,30.25,37.0,12:53 AM,,10.0,SE,4.6,130,Boise,Idaho,83701
1,Overcast,2016-03-16 07:53:00,35.1,,-,93,0.00,30.25,37.0,1:53 AM,,10.0,ESE,3.5,110,Boise,Idaho,83701
2,Overcast,2016-03-16 08:53:00,35.1,,-,93,0.00,30.25,37.0,2:53 AM,,10.0,East,3.5,100,Boise,Idaho,83701
3,Overcast,2016-03-16 09:53:00,34.0,,-,96,N/A,30.26,35.1,3:53 AM,,10.0,Calm,Calm,0,Boise,Idaho,83701
4,Overcast,2016-03-16 10:53:00,34.0,,-,93,N/A,30.26,36.0,4:53 AM,,10.0,SE,3.5,130,Boise,Idaho,83701
5,Mostly Cloudy,2016-03-16 11:53:00,34.0,,-,93,N/A,30.26,36.0,5:53 AM,,10.0,SE,5.8,140,Boise,Idaho,83701
6,Mostly Cloudy,2016-03-16 12:53:00,33.1,,-,89,N/A,30.26,36.0,6:53 AM,,10.0,South,5.8,170,Boise,Idaho,83701
7,Overcast,2016-03-16 13:53:00,34.0,,-,93,N/A,30.26,36.0,7:53 AM,,10.0,SE,6.9,130,Boise,Idaho,83701
8,Overcast,2016-03-16 14:53:00,34.0,,-,89,N/A,30.27,37.0,8:53 AM,,10.0,SE,6.9,140,Boise,Idaho,83701
9,Light Rain,2016-03-16 15:53:00,35.1,Rain,-,86,0.01,30.27,39.0,9:53 AM,,10.0,ESE,4.6,110,Boise,Idaho,83701
10,Light Rain,2016-03-16 16:53:00,36.0,Rain,-,89,0.02,30.28,39.0,10:53 AM,,10.0,East,6.9,80,Boise,Idaho,83701
11,Light Rain,2016-03-16 17:53:00,37.0,Rain,-,86,0.01,30.27,41.0,11:53 AM,,10.0,Calm,Calm,0,Boise,Idaho,83701
12,Light Rain,2016-03-16 18:53:00,36.0,Rain,-,79,0.01,30.26,42.1,12:53 PM,,10.0,Calm,Calm,0,Boise,Idaho,83701
13,Light Rain,2016-03-16 19:33:00,37.4,Rain,-,81,0.00,30.22,42.8,1:33 PM,,10.0,Calm,Calm,0,Boise,Idaho,83701
14,Light Rain,2016-03-16 19:53:00,37.9,Rain,-,82,0.00,30.25,43.0,1:53 PM,,8.0,Calm,Calm,0,Boise,Idaho,83701
15,Light Rain,2016-03-16 20:02:00,37.4,Rain,-,76,0.00,30.21,44.6,2:02 PM,,10.0,NE,3.5,50,Boise,Idaho,83701
16,Overcast,2016-03-16 20:53:00,39.0,,-,76,0.00,30.22,46.0,2:53 PM,,10.0,NNE,6.9,20,Boise,Idaho,83701
17,Mostly Cloudy,2016-03-16 21:53:00,37.9,,-,71,0.00,30.20,46.9,3:53 PM,,10.0,NNW,9.2,330,Boise,Idaho,83701
18,Overcast,2016-03-16 22:53:00,37.0,,-,64,N/A,30.17,48.9,4:53 PM,,10.0,NNE,8.1,20,Boise,Idaho,83701
19,Mostly Cloudy,2016-03-16 23:53:00,34.0,,-,56,N/A,30.16,48.9,5:53 PM,,10.0,NW,4.6,320,Boise,Idaho,83701
20,Mostly Cloudy,2016-03-17 00:53:00,34.0,,-,58,N/A,30.15,48.0,6:53 PM,,10.0,WNW,8.1,300,Boise,Idaho,83701
21,Overcast,2016-03-17 01:53:00,35.1,,-,63,N/A,30.15,46.9,7:53 PM,,10.0,WNW,6.9,300,Boise,Idaho,83701
22,Partly Cloudy,2016-03-17 02:53:00,35.1,,-,71,N/A,30.16,44.1,8:53 PM,,10.0,NW,4.6,310,Boise,Idaho,83701
23,Mostly Cloudy,2016-03-17 03:53:00,35.1,,-,74,N/A,30.16,43.0,9:53 PM,,10.0,Calm,Calm,0,Boise,Idaho,83701
24,Partly Cloudy,2016-03-17 04:53:00,35.1,,-,79,N/A,30.17,41.0,10:53 PM,,10.0,Calm,Calm,0,Boise,Idaho,83701
25,Mostly Cloudy,2016-03-17 05:53:00,36.0,,-,82,N/A,30.17,41.0,11:53 PM,,10.0,Calm,Calm,0,Boise,Idaho,83701
0,Overcast,2016-03-17 06:53:00,35.1,,-,83,N/A,30.17,39.9,12:53 AM,,10.0,Calm,Calm,0,Boise,Idaho,83701
1,Overcast,2016-03-17 07:53:00,36.0,,-,89,N/A,30.16,39.0,1:53 AM,,10.0,Calm,Calm,0,Boise,Idaho,83701
2,Overcast,2016-03-17 08:53:00,35.1,,-,83,N/A,30.16,39.9,2:53 AM,,10.0,WNW,4.6,290,Boise,Idaho,83701
3,Overcast,2016-03-17 09:53:00,36.0,,-,89,N/A,30.14,39.0,3:53 AM,,10.0,West,4.6,280,Boise,Idaho,83701
4,Mostly Cloudy,2016-03-17 10:53:00,35.1,,-,89,N/A,30.14,37.9,4:53 AM,,10.0,NW,4.6,320,Boise,Idaho,83701
5,Overcast,2016-03-17 11:53:00,34.0,,-,89,N/A,30.15,37.0,5:53 AM,,10.0,WNW,5.8,290,Boise,Idaho,83701
6,Overcast,2016-03-17 12:53:00,33.1,,-,86,N/A,30.16,37.0,6:53 AM,,10.0,NW,6.9,320,Boise,Idaho,83701
7,Overcast,2016-03-17 13:53:00,32.0,,-,86,N/A,30.17,36.0,7:53 AM,,10.0,WNW,3.5,290,Boise,Idaho,83701
8,Mostly Cloudy,2016-03-17 14:53:00,30.9,,-,79,N/A,30.19,37.0,8:53 AM,,10.0,North,5.8,10,Boise,Idaho,83701
9,Mostly Cloudy,2016-03-17 15:53:00,30.9,,-,70,N/A,30.19,39.9,9:53 AM,,10.0,NW,3.5,310,Boise,Idaho,83701
10,Clear,2016-03-17 16:53:00,28.9,,-,58,N/A,30.19,43.0,10:53 AM,,10.0,WNW,11.5,290,Boise,Idaho,83701
11,Clear,2016-03-17 17:53:00,30.0,,-,56,N/A,30.19,45.0,11:53 AM,,10.0,WNW,8.1,290,Boise,Idaho,83701
12,Clear,2016-03-17 18:53:00,30.0,,-,52,N/A,30.17,46.9,12:53 PM,,10.0,NW,12.7,320,Boise,Idaho,83701
13,Partly Cloudy,2016-03-17 19:53:00,27.0,,18.4,43,N/A,30.17,48.9,1:53 PM,,10.0,NW,9.2,320,Boise,Idaho,83701
14,Mostly Cloudy,2016-03-17 20:53:00,28.0,,23.0,48,N/A,30.15,46.9,2:53 PM,,10.0,NNW,12.7,330,Boise,Idaho,83701
15,Overcast,2016-03-17 21:53:00,25.0,,-,41,N/A,30.14,48.0,3:53 PM,,10.0,NNW,15.0,340,Boise,Idaho,83701
16,Scattered Clouds,2016-03-17 22:53:00,25.0,,23.0,38,N/A,30.13,50.0,4:53 PM,,10.0,West,16.1,280,Boise,Idaho,83701
17,Clear,2016-03-17 23:53:00,21.9,,26.5,35,N/A,30.14,48.9,5:53 PM,,10.0,NW,18.4,320,Boise,Idaho,83701
18,Clear,2016-03-18 00:53:00,21.9,,20.7,36,N/A,30.14,48.0,6:53 PM,,10.0,North,13.8,360,Boise,Idaho,83701
19,Clear,2016-03-18 01:53:00,19.0,,-,36,N/A,30.15,45.0,7:53 PM,,10.0,NNW,15.0,340,Boise,Idaho,83701
20,Overcast,2016-03-18 02:53:00,19.9,,-,40,N/A,30.16,43.0,8:53 PM,,10.0,North,9.2,350,Boise,Idaho,83701
21,Overcast,2016-03-18 03:53:00,23.0,,-,49,N/A,30.17,41.0,9:53 PM,,10.0,NW,8.1,320,Boise,Idaho,83701
22,Scattered Clouds,2016-03-18 04:53:00,23.0,,-,53,N/A,30.18,39.0,10:53 PM,,10.0,NW,5.8,310,Boise,Idaho,83701
23,Clear,2016-03-18 05:53:00,21.9,,-,53,N/A,30.18,37.9,11:53 PM,,10.0,Calm,Calm,0,Boise,Idaho,83701
0,Clear,2016-03-18 06:53:00,21.9,,-,59,N/A,30.19,35.1,12:53 AM,,10.0,Calm,Calm,0,Boise,Idaho,83701
1,Clear,2016-03-18 07:53:00,21.9,,-,64,N/A,30.19,33.1,1:53 AM,,10.0,SW,3.5,220,Boise,Idaho,83701
2,Clear,2016-03-18 08:53:00,21.9,,-,69,N/A,30.21,30.9,2:53 AM,,10.0,SSW,4.6,200,Boise,Idaho,83701
3,Clear,2016-03-18 09:53:00,21.9,,-,72,N/A,30.21,30.0,3:53 AM,,10.0,SSW,4.6,200,Boise,Idaho,83701
4,Clear,2016-03-18 10:53:00,23.0,,-,72,N/A,30.21,30.9,4:53 AM,,10.0,South,4.6,180,Boise,Idaho,83701
5,Clear,2016-03-18 11:53:00,21.9,,-,75,N/A,30.22,28.9,5:53 AM,,10.0,South,4.6,190,Boise,Idaho,83701
6,Clear,2016-03-18 12:53:00,21.9,,-,75,N/A,30.22,28.9,6:53 AM,,10.0,Calm,Calm,0,Boise,Idaho,83701
7,Clear,2016-03-18 13:53:00,23.0,,-,78,N/A,30.25,28.9,7:53 AM,,10.0,Calm,Calm,0,Boise,Idaho,83701
8,Clear,2016-03-18 14:53:00,24.1,,-,70,N/A,30.26,33.1,8:53 AM,,10.0,Calm,Calm,0,Boise,Idaho,83701
9,Clear,2016-03-18 15:53:00,24.1,,-,64,N/A,30.27,35.1,9:53 AM,,10.0,Calm,Calm,0,Boise,Idaho,83701
10,Clear,2016-03-18 16:53:00,21.9,,-,47,N/A,30.27,41.0,10:53 AM,,10.0,SE,9.2,140,Boise,Idaho,83701
11,Clear,2016-03-18 17:53:00,23.0,,25.3,40,N/A,30.26,46.0,11:53 AM,,10.0,SSE,19.6,150,Boise,Idaho,83701
12,Clear,2016-03-18 18:53:00,21.9,,28.8,37,N/A,30.27,46.9,12:53 PM,,10.0,SE,18.4,140,Boise,Idaho,83701
13,Clear,2016-03-18 19:53:00,23.0,,26.5,36,N/A,30.24,48.9,1:53 PM,,10.0,South,20.7,170,Boise,Idaho,83701
14,Clear,2016-03-18 20:53:00,21.9,,21.9,32,N/A,30.22,51.1,2:53 PM,,10.0,SSE,16.1,160,Boise,Idaho,83701
15,Clear,2016-03-18 21:53:00,23.0,,21.9,32,N/A,30.20,52.0,3:53 PM,,10.0,SSE,11.5,150,Boise,Idaho,83701
16,Clear,2016-03-18 22:53:00,21.9,,21.9,31,N/A,30.19,52.0,4:53 PM,,10.0,SSE,11.5,160,Boise,Idaho,83701
17,Clear,2016-03-18 23:53:00,23.0,,-,32,N/A,30.19,52.0,5:53 PM,,10.0,ESE,9.2,110,Boise,Idaho,83701
18,Clear,2016-03-19 00:53:00,21.9,,-,32,N/A,30.19,51.1,6:53 PM,,10.0,SE,13.8,140,Boise,Idaho,83701
19,Clear,2016-03-19 01:53:00,24.1,,-,39,N/A,30.19,48.0,7:53 PM,,10.0,SE,10.4,140,Boise,Idaho,83701
20,Clear,2016-03-19 02:53:00,25.0,,-,46,N/A,30.18,45.0,8:53 PM,,10.0,SE,8.1,130,Boise,Idaho,83701
21,Clear,2016-03-19 03:53:00,21.0,,-,39,N/A,30.20,45.0,9:53 PM,,10.0,SE,10.4,130,Boise,Idaho,83701
22,Clear,2016-03-19 04:53:00,19.9,,-,37,N/A,30.19,45.0,10:53 PM,,10.0,ESE,10.4,120,Boise,Idaho,83701
23,Clear,2016-03-19 05:53:00,23.0,,-,49,N/A,30.19,41.0,11:53 PM,,10.0,SE,9.2,140,Boise,Idaho,83701
0,Clear,2016-03-19 06:53:00,24.1,,-,55,N/A,30.20,39.0,12:53 AM,,10.0,SE,9.2,130,Boise,Idaho,83701
1,Clear,2016-03-19 07:53:00,24.1,,-,59,N/A,30.21,37.0,1:53 AM,,10.0,SSE,10.4,160,Boise,Idaho,83701
2,Clear,2016-03-19 08:53:00,21.9,,-,54,N/A,30.22,37.0,2:53 AM,,10.0,SSE,16.1,150,Boise,Idaho,83701
3,Clear,2016-03-19 09:53:00,21.9,,-,57,N/A,30.22,36.0,3:53 AM,,10.0,SSE,15.0,160,Boise,Idaho,83701
4,Clear,2016-03-19 10:53:00,21.9,,-,57,N/A,30.22,36.0,4:53 AM,,10.0,SSE,16.1,160,Boise,Idaho,83701
5,Clear,2016-03-19 11:53:00,21.9,,-,64,N/A,30.23,33.1,5:53 AM,,10.0,SSE,15.0,160,Boise,Idaho,83701
6,Clear,2016-03-19 12:53:00,21.0,,-,61,N/A,30.25,33.1,6:53 AM,,10.0,SSE,16.1,160,Boise,Idaho,83701
7,Clear,2016-03-19 13:53:00,19.9,,-,59,N/A,30.27,33.1,7:53 AM,,10.0,SSE,12.7,150,Boise,Idaho,83701
8,Clear,2016-03-19 14:53:00,19.9,,-,54,N/A,30.27,35.1,8:53 AM,,10.0,SSE,15.0,160,Boise,Idaho,83701
9,Clear,2016-03-19 15:53:00,19.9,,24.2,48,N/A,30.26,37.9,9:53 AM,,10.0,SSE,16.1,160,Boise,Idaho,83701
10,Clear,2016-03-19 16:53:00,21.0,,-,45,N/A,30.27,41.0,10:53 AM,,10.0,South,16.1,170,Boise,Idaho,83701
11,Clear,2016-03-19 17:53:00,23.0,,-,42,N/A,30.25,45.0,11:53 AM,,10.0,South,13.8,170,Boise,Idaho,83701
12,Clear,2016-03-19 18:53:00,24.1,,18.4,36,N/A,30.24,50.0,12:53 PM,,10.0,SE,13.8,140,Boise,Idaho,83701
13,Clear,2016-03-19 19:53:00,21.0,,18.4,27,N/A,30.20,55.0,1:53 PM,,10.0,SSE,12.7,150,Boise,Idaho,83701
14,Clear,2016-03-19 20:53:00,21.9,,21.9,25,N/A,30.16,57.9,2:53 PM,,10.0,SE,13.8,130,Boise,Idaho,83701
15,Clear,2016-03-19 21:53:00,24.1,,-,25,N/A,30.13,60.1,3:53 PM,,10.0,SE,11.5,140,Boise,Idaho,83701
16,Clear,2016-03-19 22:53:00,25.0,,-,24,N/A,30.11,62.1,4:53 PM,,10.0,SE,13.8,130,Boise,Idaho,83701
17,Clear,2016-03-19 23:53:00,25.0,,-,24,N/A,30.09,62.1,5:53 PM,,10.0,SE,12.7,140,Boise,Idaho,83701
18,Clear,2016-03-20 00:53:00,26.1,,-,26,N/A,30.08,61.0,6:53 PM,,10.0,ESE,11.5,120,Boise,Idaho,83701
19,Clear,2016-03-20 01:53:00,30.0,,-,37,N/A,30.07,55.9,7:53 PM,,10.0,South,8.1,170,Boise,Idaho,83701
20,Clear,2016-03-20 02:53:00,33.1,,-,52,N/A,30.09,50.0,8:53 PM,,10.0,SSE,8.1,160,Boise,Idaho,83701
21,Clear,2016-03-20 03:53:00,30.0,,-,50,N/A,30.09,48.0,9:53 PM,,10.0,SSE,8.1,160,Boise,Idaho,83701
22,Clear,2016-03-20 04:53:00,26.1,,-,39,N/A,30.08,50.0,10:53 PM,,10.0,SSE,16.1,150,Boise,Idaho,83701
23,Clear,2016-03-20 05:53:00,26.1,,-,44,N/A,30.09,46.9,11:53 PM,,10.0,SSE,13.8,160,Boise,Idaho,83701
0,Clear,2016-03-20 06:53:00,26.1,,-,49,N/A,30.08,44.1,12:53 AM,,10.0,SSE,15.0,160,Boise,Idaho,83701
1,Clear,2016-03-20 07:53:00,24.1,,-,47,N/A,30.07,43.0,1:53 AM,,10.0,South,16.1,170,Boise,Idaho,83701
2,Clear,2016-03-20 08:53:00,24.1,,-,51,N/A,30.06,41.0,2:53 AM,,10.0,SSE,13.8,160,Boise,Idaho,83701
3,Clear,2016-03-20 09:53:00,23.0,,-,47,N/A,30.04,42.1,3:53 AM,,10.0,SSE,12.7,160,Boise,Idaho,83701
4,Clear,2016-03-20 10:53:00,23.0,,-,53,N/A,30.03,39.0,4:53 AM,,10.0,South,15.0,170,Boise,Idaho,83701
5,Clear,2016-03-20 11:53:00,21.9,,-,53,N/A,30.04,37.9,5:53 AM,,10.0,South,12.7,170,Boise,Idaho,83701
6,Clear,2016-03-20 12:53:00,21.9,,-,53,N/A,30.04,37.9,6:53 AM,,10.0,SSE,9.2,150,Boise,Idaho,83701
7,Clear,2016-03-20 13:53:00,21.9,,-,50,N/A,30.04,39.0,7:53 AM,,10.0,SE,9.2,130,Boise,Idaho,83701
8,Clear,2016-03-20 14:53:00,25.0,,-,49,N/A,30.04,43.0,8:53 AM,,10.0,SE,5.8,130,Boise,Idaho,83701
9,Clear,2016-03-20 15:53:00,24.1,,18.4,45,N/A,30.04,44.1,9:53 AM,,10.0,SSE,11.5,160,Boise,Idaho,83701
10,Clear,2016-03-20 16:53:00,27.0,,-,44,N/A,30.02,48.0,10:53 AM,,10.0,SSE,10.4,160,Boise,Idaho,83701
11,Clear,2016-03-20 17:53:00,30.0,,-,40,N/A,30.00,54.0,11:53 AM,,10.0,SE,6.9,140,Boise,Idaho,83701
12,Clear,2016-03-20 18:53:00,32.0,,-,36,N/A,29.95,59.0,12:53 PM,,10.0,NNE,5.8,30,Boise,Idaho,83701
13,Clear,2016-03-20 19:53:00,27.0,,27.6,21,N/A,29.90,68.0,1:53 PM,,10.0,SSE,19.6,150,Boise,Idaho,83701
14,Clear,2016-03-20 20:53:00,28.0,,-,23,N/A,29.89,66.9,2:53 PM,,10.0,South,16.1,170,Boise,Idaho,83701
15,Clear,2016-03-20 21:53:00,28.9,,-,24,N/A,29.86,66.9,3:53 PM,,10.0,South,13.8,170,Boise,Idaho,83701
16,Clear,2016-03-20 22:53:00,30.0,,-,24,N/A,29.85,68.0,4:53 PM,,10.0,South,11.5,170,Boise,Idaho,83701
17,Clear,2016-03-20 23:53:00,30.9,,-,24,N/A,29.82,69.1,5:53 PM,,10.0,South,11.5,170,Boise,Idaho,83701
18,Clear,2016-03-21 00:53:00,33.1,,-,29,N/A,29.81,66.0,6:53 PM,,10.0,South,8.1,170,Boise,Idaho,83701
19,Scattered Clouds,2016-03-21 01:53:00,37.0,,-,41,N/A,29.83,61.0,7:53 PM,,10.0,South,5.8,170,Boise,Idaho,83701
20,Overcast,2016-03-21 02:44:00,39.2,,28.8,48,N/A,29.90,59.0,8:44 PM,,10.0,WNW,21.9,300,Boise,Idaho,83701
21,Overcast,2016-03-21 02:53:00,41.0,,28.8,53,N/A,29.90,57.9,8:53 PM,,10.0,NW,16.1,310,Boise,Idaho,83701
22,Rain,2016-03-21 03:53:00,46.0,Rain,28.8,83,0.01,29.97,51.1,9:53 PM,,6.0,North,16.1,350,Boise,Idaho,83701
23,Light Rain,2016-03-21 04:28:00,46.4,Rain,-,87,0.03,29.95,50.0,10:28 PM,,10.0,NE,12.7,40,Boise,Idaho,83701
24,Light Rain,2016-03-21 04:53:00,46.0,Rain,-,86,0.05,29.93,50.0,10:53 PM,,9.0,NE,13.8,50,Boise,Idaho,83701
25,Mostly Cloudy,2016-03-21 05:53:00,50.0,,-,96,0.01,29.90,51.1,11:53 PM,,10.0,ESE,6.9,110,Boise,Idaho,83701
0,Clear,2016-03-21 06:53:00,45.0,,-,83,N/A,29.89,50.0,12:53 AM,,10.0,SSE,9.2,150,Boise,Idaho,83701
1,Mostly Cloudy,2016-03-21 07:53:00,44.1,,-,80,N/A,29.89,50.0,1:53 AM,,10.0,SSE,5.8,150,Boise,Idaho,83701
2,Scattered Clouds,2016-03-21 08:53:00,45.0,,-,86,N/A,29.90,48.9,2:53 AM,,10.0,Calm,Calm,0,Boise,Idaho,83701
3,Scattered Clouds,2016-03-21 09:53:00,44.1,,-,86,N/A,29.88,48.0,3:53 AM,,10.0,Calm,Calm,0,Boise,Idaho,83701
4,Overcast,2016-03-21 10:53:00,45.0,,-,89,N/A,29.88,48.0,4:53 AM,,10.0,SE,9.2,130,Boise,Idaho,83701
5,Overcast,2016-03-21 11:53:00,42.1,,-,74,0.00,29.87,50.0,5:53 AM,,10.0,SSE,4.6,150,Boise,Idaho,83701
6,Scattered Clouds,2016-03-21 12:53:00,42.1,,-,80,0.00,29.88,48.0,6:53 AM,,10.0,South,5.8,180,Boise,Idaho,83701
7,Overcast,2016-03-21 13:53:00,39.9,,-,74,N/A,29.91,48.0,7:53 AM,,10.0,ESE,9.2,110,Boise,Idaho,83701
8,Partly Cloudy,2016-03-21 14:53:00,39.9,,-,74,N/A,29.91,48.0,8:53 AM,,10.0,ESE,11.5,120,Boise,Idaho,83701
9,Clear,2016-03-21 15:53:00,39.9,,-,68,N/A,29.91,50.0,9:53 AM,,10.0,ESE,11.5,120,Boise,Idaho,83701
10,Clear,2016-03-21 16:53:00,41.0,,-,66,N/A,29.90,52.0,10:53 AM,,10.0,ESE,10.4,120,Boise,Idaho,83701
11,Mostly Cloudy,2016-03-21 17:53:00,41.0,,-,66,N/A,29.89,52.0,11:53 AM,,10.0,SSE,16.1,150,Boise,Idaho,83701
12,Mostly Cloudy,2016-03-21 18:53:00,43.0,,-,66,N/A,29.87,54.0,12:53 PM,,10.0,SSE,17.3,150,Boise,Idaho,83701
13,Clear,2016-03-21 19:53:00,42.1,,-,60,N/A,29.84,55.9,1:53 PM,,10.0,SE,18.4,140,Boise,Idaho,83701
14,Clear,2016-03-21 20:53:00,39.9,,17.3,51,N/A,29.80,57.9,2:53 PM,,10.0,ESE,11.5,110,Boise,Idaho,83701
15,Scattered Clouds,2016-03-21 21:53:00,39.0,,28.8,48,N/A,29.75,59.0,3:53 PM,,10.0,SE,18.4,130,Boise,Idaho,83701
16,Mostly Cloudy,2016-03-21 22:04:00,39.2,Thunderstorm,23.0,51,N/A,29.76,57.2,4:04 PM,,10.0,SE,16.1,140,Boise,Idaho,83701
17,Mostly Cloudy,2016-03-21 22:16:00,39.2,Thunderstorm,-,51,N/A,29.76,57.2,4:16 PM,,10.0,SSE,15.0,160,Boise,Idaho,83701
18,Mostly Cloudy,2016-03-21 22:53:00,42.1,,-,66,0.00,29.75,53.1,4:53 PM,,10.0,South,10.4,190,Boise,Idaho,83701
19,Scattered Clouds,2016-03-21 23:12:00,39.2,Thunderstorm,18.4,58,N/A,29.76,53.6,5:12 PM,,10.0,SSW,8.1,200,Boise,Idaho,83701
20,Scattered Clouds,2016-03-21 23:27:00,37.4,,-,54,N/A,29.75,53.6,5:27 PM,,10.0,Variable,3.5,0,Boise,Idaho,83701
21,Mostly Cloudy,2016-03-21 23:53:00,39.9,,17.3,63,N/A,29.73,52.0,5:53 PM,,10.0,ESE,8.1,120,Boise,Idaho,83701
22,Scattered Clouds,2016-03-22 00:53:00,39.0,,-,57,N/A,29.70,54.0,6:53 PM,,10.0,East,9.2,90,Boise,Idaho,83701
23,Clear,2016-03-22 01:53:00,39.9,,-,63,N/A,29.66,52.0,7:53 PM,,10.0,ESE,9.2,110,Boise,Idaho,83701
24,Mostly Cloudy,2016-03-22 02:16:00,39.2,Thunderstorm,31.1,62,N/A,29.69,51.8,8:16 PM,,10.0,West,23.0,260,Boise,Idaho,83701
25,Heavy Thunderstorms and Rain,2016-03-22 02:31:00,37.4,Rain-Thunderstorm,29.9,81,0.16,29.73,42.8,8:31 PM,,1.8,Variable,6.9,0,Boise,Idaho,83701
26,Heavy Thunderstorms and Rain,2016-03-22 02:39:00,37.4,Rain-Thunderstorm,-,81,0.24,29.73,42.8,8:39 PM,,3.0,West,3.5,280,Boise,Idaho,83701
27,Scattered Clouds,2016-03-22 02:53:00,37.9,Thunderstorm,-,89,0.24,29.74,41.0,8:53 PM,,10.0,NNE,6.9,20,Boise,Idaho,83701
28,Mostly Cloudy,2016-03-22 03:02:00,39.2,,-,87,N/A,29.75,42.8,9:02 PM,,10.0,NE,10.4,40,Boise,Idaho,83701
29,Overcast,2016-03-22 03:53:00,39.9,,-,89,N/A,29.77,43.0,9:53 PM,,10.0,WSW,3.5,250,Boise,Idaho,83701
30,Light Rain,2016-03-22 04:53:00,37.9,Rain,18.4,76,0.02,29.78,45.0,10:53 PM,,10.0,West,12.7,280,Boise,Idaho,83701
31,Light Rain,2016-03-22 05:53:00,39.0,Rain,-,82,0.01,29.77,44.1,11:53 PM,,10.0,NE,5.8,50,Boise,Idaho,83701
0,Overcast,2016-03-22 06:53:00,39.0,,-,82,0.00,29.80,44.1,12:53 AM,,10.0,WSW,3.5,250,Boise,Idaho,83701
1,Overcast,2016-03-22 07:53:00,36.0,,-,73,N/A,29.79,44.1,1:53 AM,,10.0,Calm,Calm,0,Boise,Idaho,83701
2,Scattered Clouds,2016-03-22 08:53:00,34.0,,-,68,N/A,29.79,44.1,2:53 AM,,10.0,West,4.6,280,Boise,Idaho,83701
3,Mostly Cloudy,2016-03-22 09:53:00,34.0,,-,73,N/A,29.79,42.1,3:53 AM,,10.0,WSW,5.8,250,Boise,Idaho,83701
4,Overcast,2016-03-22 10:53:00,30.9,,-,67,N/A,29.81,41.0,4:53 AM,,10.0,West,6.9,270,Boise,Idaho,83701
5,Light Rain,2016-03-22 11:53:00,30.9,Rain,23.0,67,0.00,29.83,41.0,5:53 AM,,10.0,WNW,17.3,290,Boise,Idaho,83701
6,Mostly Cloudy,2016-03-22 12:53:00,33.1,,-,83,0.00,29.85,37.9,6:53 AM,,10.0,North,4.6,360,Boise,Idaho,83701
7,Overcast,2016-03-22 13:53:00,32.0,,-,76,N/A,29.87,39.0,7:53 AM,,10.0,NNW,5.8,330,Boise,Idaho,83701
8,Overcast,2016-03-22 14:53:00,32.0,,-,73,N/A,29.91,39.9,8:53 AM,,10.0,NW,9.2,320,Boise,Idaho,83701
9,Mostly Cloudy,2016-03-22 15:53:00,30.9,,-,65,0.00,29.93,42.1,9:53 AM,,10.0,WNW,10.4,290,Boise,Idaho,83701
10,Overcast,2016-03-22 16:53:00,30.9,,-,62,N/A,29.95,43.0,10:53 AM,,10.0,NW,12.7,320,Boise,Idaho,83701
11,Overcast,2016-03-22 17:53:00,30.0,,-,56,N/A,29.94,45.0,11:53 AM,,10.0,WNW,17.3,290,Boise,Idaho,83701
12,Light Rain,2016-03-22 18:53:00,30.9,Rain,28.8,60,0.00,29.96,44.1,12:53 PM,,10.0,WNW,18.4,290,Boise,Idaho,83701
13,Overcast,2016-03-22 19:53:00,28.9,,-,51,0.00,29.96,46.0,1:53 PM,,10.0,NNW,21.9,340,Boise,Idaho,83701
14,Mostly Cloudy,2016-03-22 20:53:00,28.0,,26.5,46,N/A,29.95,48.0,2:53 PM,,10.0,WNW,20.7,300,Boise,Idaho,83701
15,Overcast,2016-03-22 21:53:00,28.0,,27.6,44,N/A,29.95,48.9,3:53 PM,,10.0,WNW,19.6,300,Boise,Idaho,83701
16,Mostly Cloudy,2016-03-22 22:53:00,25.0,,31.1,41,N/A,29.96,48.0,4:53 PM,,10.0,NW,20.7,320,Boise,Idaho,83701
17,Mostly Cloudy,2016-03-22 23:53:00,25.0,,29.9,38,N/A,29.97,50.0,5:53 PM,,10.0,NW,23.0,310,Boise,Idaho,83701
18,Partly Cloudy,2016-03-23 00:53:00,24.1,,28.8,38,N/A,30.00,48.9,6:53 PM,,10.0,NW,21.9,320,Boise,Idaho,83701
19,Scattered Clouds,2016-03-23 01:53:00,26.1,,20.7,44,N/A,30.03,46.9,7:53 PM,,10.0,NNW,15.0,330,Boise,Idaho,83701
20,Partly Cloudy,2016-03-23 02:53:00,28.0,,23.0,52,N/A,30.06,45.0,8:53 PM,,10.0,NW,16.1,310,Boise,Idaho,83701
21,Overcast,2016-03-23 03:53:00,28.9,,21.9,55,N/A,30.09,44.1,9:53 PM,,10.0,NW,13.8,320,Boise,Idaho,83701
22,Overcast,2016-03-23 04:53:00,30.0,,-,60,N/A,30.10,43.0,10:53 PM,,10.0,NNW,9.2,340,Boise,Idaho,83701
23,Mostly Cloudy,2016-03-23 05:53:00,30.9,,-,67,N/A,30.11,41.0,11:53 PM,,10.0,NW,6.9,320,Boise,Idaho,83701
0,Overcast,2016-03-23 06:53:00,30.9,,-,65,N/A,30.14,42.1,12:53 AM,,10.0,WNW,6.9,300,Boise,Idaho,83701
1,Overcast,2016-03-23 07:53:00,32.0,,-,70,N/A,30.15,41.0,1:53 AM,,10.0,WNW,5.8,290,Boise,Idaho,83701
2,Overcast,2016-03-23 08:53:00,30.9,,-,70,N/A,30.17,39.9,2:53 AM,,10.0,WNW,8.1,290,Boise,Idaho,83701
3,Overcast,2016-03-23 09:53:00,32.0,,-,73,N/A,30.18,39.9,3:53 AM,,10.0,NW,8.1,320,Boise,Idaho,83701
4,Partly Cloudy,2016-03-23 10:53:00,30.9,,-,76,N/A,30.20,37.9,4:53 AM,,10.0,NW,5.8,320,Boise,Idaho,83701
5,Overcast,2016-03-23 11:53:00,30.0,,-,73,N/A,30.22,37.9,5:53 AM,,10.0,WNW,5.8,290,Boise,Idaho,83701
6,Mostly Cloudy,2016-03-23 12:53:00,30.0,,-,76,N/A,30.24,37.0,6:53 AM,,10.0,NW,6.9,310,Boise,Idaho,83701
7,Partly Cloudy,2016-03-23 13:53:00,28.9,,-,76,N/A,30.25,36.0,7:53 AM,,10.0,WNW,5.8,290,Boise,Idaho,83701
8,Clear,2016-03-23 14:53:00,30.9,,-,76,N/A,30.28,37.9,8:53 AM,,10.0,WNW,5.8,300,Boise,Idaho,83701
9,Clear,2016-03-23 15:53:00,32.0,,-,67,N/A,30.30,42.1,9:53 AM,,10.0,NW,8.1,310,Boise,Idaho,83701
10,Clear,2016-03-23 16:53:00,33.1,,-,63,N/A,30.32,45.0,10:53 AM,,10.0,NW,13.8,310,Boise,Idaho,83701
11,Clear,2016-03-23 17:53:00,32.0,,-,56,N/A,30.32,46.9,11:53 AM,,10.0,WNW,9.2,300,Boise,Idaho,83701
12,Partly Cloudy,2016-03-23 18:53:00,32.0,,-,50,N/A,30.30,50.0,12:53 PM,,10.0,West,6.9,280,Boise,Idaho,83701
13,Mostly Cloudy,2016-03-23 19:53:00,30.0,,-,46,N/A,30.30,50.0,1:53 PM,,10.0,NW,10.4,310,Boise,Idaho,83701
14,Mostly Cloudy,2016-03-23 20:53:00,28.0,,17.3,41,N/A,30.28,51.1,2:53 PM,,10.0,West,9.2,260,Boise,Idaho,83701
15,Mostly Cloudy,2016-03-23 21:53:00,28.9,,-,40,N/A,30.27,53.1,3:53 PM,,10.0,NW,9.2,320,Boise,Idaho,83701
16,Partly Cloudy,2016-03-23 22:53:00,28.9,,-,38,N/A,30.25,54.0,4:53 PM,,10.0,NW,9.2,320,Boise,Idaho,83701
17,Scattered Clouds,2016-03-23 23:53:00,28.0,,-,38,N/A,30.24,53.1,5:53 PM,,10.0,North,6.9,360,Boise,Idaho,83701
18,Clear,2016-03-24 00:53:00,28.0,,-,38,N/A,30.24,53.1,6:53 PM,,10.0,North,4.6,350,Boise,Idaho,83701
19,Clear,2016-03-24 01:53:00,28.9,,-,44,N/A,30.24,50.0,7:53 PM,,10.0,NNE,4.6,20,Boise,Idaho,83701
20,Clear,2016-03-24 02:53:00,28.9,,-,46,N/A,30.23,48.9,8:53 PM,,10.0,ENE,6.9,60,Boise,Idaho,83701
21,Clear,2016-03-24 03:53:00,30.0,,-,58,N/A,30.23,44.1,9:53 PM,,10.0,SE,4.6,130,Boise,Idaho,83701
22,Mostly Cloudy,2016-03-24 04:53:00,30.0,,-,56,N/A,30.20,45.0,10:53 PM,,10.0,SE,5.8,140,Boise,Idaho,83701
23,Overcast,2016-03-24 05:53:00,28.9,,-,51,N/A,30.19,46.0,11:53 PM,,10.0,SE,10.4,140,Boise,Idaho,83701
0,Overcast,2016-03-24 06:53:00,28.9,,-,51,N/A,30.18,46.0,12:53 AM,,10.0,SE,6.9,140,Boise,Idaho,83701
1,Overcast,2016-03-24 07:53:00,28.0,,-,50,N/A,30.17,46.0,1:53 AM,,10.0,SE,10.4,130,Boise,Idaho,83701
2,Mostly Cloudy,2016-03-24 08:53:00,28.9,,-,55,N/A,30.14,44.1,2:53 AM,,10.0,SE,9.2,130,Boise,Idaho,83701
3,Overcast,2016-03-24 09:53:00,28.0,,-,52,N/A,30.12,45.0,3:53 AM,,10.0,SE,10.4,130,Boise,Idaho,83701
4,Overcast,2016-03-24 10:53:00,28.0,,-,52,N/A,30.09,45.0,4:53 AM,,10.0,SE,10.4,140,Boise,Idaho,83701
5,Overcast,2016-03-24 11:53:00,28.9,,-,53,N/A,30.09,45.0,5:53 AM,,10.0,SE,9.2,130,Boise,Idaho,83701
6,Light Rain,2016-03-24 12:53:00,33.1,Rain,-,63,0.00,30.08,45.0,6:53 AM,,10.0,SSE,6.9,150,Boise,Idaho,83701
7,Partly Cloudy,2016-03-24 13:53:00,33.1,,-,65,0.00,30.08,44.1,7:53 AM,,10.0,ESE,5.8,120,Boise,Idaho,83701
8,Overcast,2016-03-24 14:53:00,35.1,,-,68,N/A,30.07,45.0,8:53 AM,,10.0,SE,8.1,130,Boise,Idaho,83701
9,Overcast,2016-03-24 15:53:00,34.0,,-,58,N/A,30.07,48.0,9:53 AM,,10.0,SE,5.8,130,Boise,Idaho,83701
10,Mostly Cloudy,2016-03-24 16:53:00,34.0,,-,54,N/A,30.08,50.0,10:53 AM,,10.0,Calm,Calm,0,Boise,Idaho,83701
11,Scattered Clouds,2016-03-24 17:53:00,35.1,,34.5,49,N/A,30.05,54.0,11:53 AM,,10.0,West,25.3,270,Boise,Idaho,83701
12,Scattered Clouds,2016-03-24 18:53:00,33.1,,31.1,40,N/A,30.02,57.0,12:53 PM,,10.0,West,17.3,270,Boise,Idaho,83701
13,Mostly Cloudy,2016-03-24 19:53:00,37.9,,-,57,0.00,30.04,53.1,1:53 PM,,10.0,NNW,12.7,330,Boise,Idaho,83701
14,Mostly Cloudy,2016-03-24 20:53:00,34.0,,28.8,45,0.00,30.01,55.0,2:53 PM,,10.0,NW,16.1,310,Boise,Idaho,83701
15,Mostly Cloudy,2016-03-24 21:53:00,30.9,,28.8,40,N/A,30.01,55.0,3:53 PM,,10.0,NNW,19.6,330,Boise,Idaho,83701
16,Mostly Cloudy,2016-03-24 22:53:00,27.0,,-,34,N/A,30.00,55.0,4:53 PM,,10.0,NNW,19.6,330,Boise,Idaho,83701
17,Mostly Cloudy,2016-03-24 23:53:00,21.9,,32.2,31,N/A,30.00,52.0,5:53 PM,,10.0,NNW,24.2,330,Boise,Idaho,83701
18,Clear,2016-03-25 00:53:00,21.0,,-,32,N/A,30.01,50.0,6:53 PM,,10.0,NNW,12.7,330,Boise,Idaho,83701
19,Mostly Cloudy,2016-03-25 01:53:00,19.9,,26.5,33,N/A,30.04,48.0,7:53 PM,,10.0,North,18.4,350,Boise,Idaho,83701
20,Clear,2016-03-25 02:53:00,21.9,,-,39,N/A,30.05,46.0,8:53 PM,,10.0,NNW,13.8,330,Boise,Idaho,83701
21,Clear,2016-03-25 03:53:00,21.9,,-,42,N/A,30.07,44.1,9:53 PM,,10.0,NW,10.4,320,Boise,Idaho,83701
22,Clear,2016-03-25 04:53:00,19.9,,21.9,40,N/A,30.07,43.0,10:53 PM,,10.0,NNW,15.0,330,Boise,Idaho,83701
23,Clear,2016-03-25 05:53:00,21.0,,-,43,N/A,30.08,42.1,11:53 PM,,10.0,NNW,9.2,340,Boise,Idaho,83701
0,Clear,2016-03-25 06:53:00,21.9,,-,47,N/A,30.09,41.0,12:53 AM,,10.0,West,5.8,270,Boise,Idaho,83701
1,Partly Cloudy,2016-03-25 07:53:00,24.1,,-,57,N/A,30.09,37.9,1:53 AM,,10.0,WNW,4.6,300,Boise,Idaho,83701
2,Overcast,2016-03-25 08:53:00,25.0,,-,62,N/A,30.10,37.0,2:53 AM,,10.0,WSW,6.9,250,Boise,Idaho,83701
3,Overcast,2016-03-25 09:53:00,26.1,,-,65,N/A,30.09,37.0,3:53 AM,,10.0,WSW,4.6,250,Boise,Idaho,83701
4,Mostly Cloudy,2016-03-25 10:53:00,26.1,,-,65,N/A,30.08,37.0,4:53 AM,,10.0,West,5.8,280,Boise,Idaho,83701
5,Overcast,2016-03-25 11:53:00,27.0,,-,70,N/A,30.09,36.0,5:53 AM,,10.0,Calm,Calm,0,Boise,Idaho,83701
6,Overcast,2016-03-25 12:53:00,27.0,,-,67,N/A,30.09,37.0,6:53 AM,,10.0,West,3.5,270,Boise,Idaho,83701
7,Overcast,2016-03-25 13:53:00,28.0,,-,70,N/A,30.10,37.0,7:53 AM,,10.0,WNW,4.6,300,Boise,Idaho,83701
8,Overcast,2016-03-25 14:53:00,28.9,,-,70,N/A,30.10,37.9,8:53 AM,,10.0,West,4.6,260,Boise,Idaho,83701
9,Mostly Cloudy,2016-03-25 15:53:00,28.9,,-,67,N/A,30.10,39.0,9:53 AM,,10.0,WSW,4.6,240,Boise,Idaho,83701
10,Mostly Cloudy,2016-03-25 16:53:00,28.9,,-,55,N/A,30.09,44.1,10:53 AM,,10.0,North,8.1,360,Boise,Idaho,83701
11,Overcast,2016-03-25 17:53:00,28.0,,-,53,N/A,30.09,44.1,11:53 AM,,10.0,WNW,11.5,300,Boise,Idaho,83701
12,Overcast,2016-03-25 18:53:00,28.0,,-,52,N/A,30.08,45.0,12:53 PM,,10.0,North,9.2,350,Boise,Idaho,83701
13,Overcast,2016-03-25 19:53:00,26.1,,-,46,N/A,30.06,46.0,1:53 PM,,10.0,NW,11.5,320,Boise,Idaho,83701
14,Scattered Clouds,2016-03-25 20:53:00,24.1,,-,41,0.00,30.04,46.9,2:53 PM,,10.0,WNW,9.2,290,Boise,Idaho,83701
15,Mostly Cloudy,2016-03-25 21:53:00,25.0,,20.7,41,N/A,30.01,48.0,3:53 PM,,10.0,NNW,12.7,330,Boise,Idaho,83701
16,Mostly Cloudy,2016-03-25 22:53:00,28.0,,32.2,48,N/A,30.01,46.9,4:53 PM,,10.0,North,20.7,350,Boise,Idaho,83701
17,Light Rain,2016-03-25 23:00:00,28.4,Rain,25.3,46,0.00,30.00,48.2,5:00 PM,,10.0,North,19.6,350,Boise,Idaho,83701
18,Partly Cloudy,2016-03-25 23:53:00,24.1,,34.5,39,0.00,30.02,48.0,5:53 PM,,10.0,NW,19.6,320,Boise,Idaho,83701
19,Overcast,2016-03-26 00:38:00,30.2,,27.6,61,0.00,30.03,42.8,6:38 PM,,10.0,North,21.9,360,Boise,Idaho,83701
20,Scattered Clouds,2016-03-26 00:53:00,28.0,,24.2,56,0.00,30.06,43.0,6:53 PM,,10.0,North,17.3,360,Boise,Idaho,83701
21,Clear,2016-03-26 01:53:00,28.0,,-,60,N/A,30.07,41.0,7:53 PM,,10.0,NNW,10.4,340,Boise,Idaho,83701
22,Clear,2016-03-26 02:53:00,28.0,,-,65,N/A,30.09,39.0,8:53 PM,,10.0,NW,10.4,310,Boise,Idaho,83701
23,Clear,2016-03-26 03:53:00,30.0,,-,73,N/A,30.12,37.9,9:53 PM,,10.0,NW,11.5,320,Boise,Idaho,83701
24,Clear,2016-03-26 04:53:00,28.9,,-,76,N/A,30.12,36.0,10:53 PM,,10.0,NW,12.7,320,Boise,Idaho,83701
25,Clear,2016-03-26 05:53:00,28.0,,-,76,N/A,30.12,35.1,11:53 PM,,10.0,WNW,8.1,290,Boise,Idaho,83701
0,Clear,2016-03-26 06:53:00,27.0,,-,75,N/A,30.14,34.0,12:53 AM,,10.0,West,4.6,270,Boise,Idaho,83701
1,Clear,2016-03-26 07:53:00,26.1,,-,79,N/A,30.14,32.0,1:53 AM,,10.0,NNW,4.6,340,Boise,Idaho,83701
2,Clear,2016-03-26 08:53:00,26.1,,-,85,N/A,30.15,30.0,2:53 AM,,10.0,Calm,Calm,0,Boise,Idaho,83701
3,Clear,2016-03-26 09:53:00,24.1,,-,82,N/A,30.16,28.9,3:53 AM,,10.0,Calm,Calm,0,Boise,Idaho,83701
4,Clear,2016-03-26 10:53:00,23.0,,-,81,N/A,30.17,28.0,4:53 AM,,10.0,Calm,Calm,0,Boise,Idaho,83701
5,Clear,2016-03-26 11:53:00,24.1,,-,85,N/A,30.18,28.0,5:53 AM,,10.0,SSW,6.9,210,Boise,Idaho,83701
6,Clear,2016-03-26 12:53:00,23.0,,-,85,N/A,30.19,27.0,6:53 AM,,10.0,East,3.5,80,Boise,Idaho,83701
7,Clear,2016-03-26 13:53:00,24.1,,-,85,N/A,30.21,28.0,7:53 AM,,10.0,SSE,6.9,150,Boise,Idaho,83701
8,Clear,2016-03-26 14:53:00,26.1,,-,75,N/A,30.22,33.1,8:53 AM,,10.0,South,4.6,170,Boise,Idaho,83701
9,Clear,2016-03-26 15:53:00,25.0,,-,60,N/A,30.21,37.9,9:53 AM,,10.0,SSW,3.5,200,Boise,Idaho,83701
10,Clear,2016-03-26 16:53:00,25.0,,-,55,N/A,30.21,39.9,10:53 AM,,10.0,Calm,Calm,0,Boise,Idaho,83701
11,Clear,2016-03-26 17:53:00,25.0,,-,51,N/A,30.21,42.1,11:53 AM,,10.0,Variable,3.5,0,Boise,Idaho,83701
12,Clear,2016-03-26 18:53:00,26.1,,-,48,N/A,30.20,45.0,12:53 PM,,10.0,SE,6.9,140,Boise,Idaho,83701
13,Clear,2016-03-26 19:53:00,26.1,,-,44,N/A,30.18,46.9,1:53 PM,,10.0,Calm,Calm,0,Boise,Idaho,83701
14,Clear,2016-03-26 20:53:00,26.1,,-,39,N/A,30.15,50.0,2:53 PM,,10.0,East,4.6,80,Boise,Idaho,83701
15,Clear,2016-03-26 21:53:00,23.0,,-,35,N/A,30.12,50.0,3:53 PM,,10.0,South,6.9,170,Boise,Idaho,83701
16,Clear,2016-03-26 22:53:00,21.9,,-,31,N/A,30.10,52.0,4:53 PM,,10.0,ESE,5.8,120,Boise,Idaho,83701
17,Clear,2016-03-26 23:53:00,21.9,,-,32,N/A,30.08,51.1,5:53 PM,,10.0,SE,8.1,140,Boise,Idaho,83701
18,Clear,2016-03-27 00:53:00,23.0,,-,32,N/A,30.07,52.0,6:53 PM,,10.0,ESE,6.9,110,Boise,Idaho,83701
19,Clear,2016-03-27 01:53:00,24.1,,-,35,N/A,30.06,51.1,7:53 PM,,10.0,SE,8.1,140,Boise,Idaho,83701
20,Mostly Cloudy,2016-03-27 02:53:00,28.9,,-,48,N/A,30.06,48.0,8:53 PM,,10.0,SSE,5.8,150,Boise,Idaho,83701
21,Overcast,2016-03-27 03:53:00,27.0,,-,44,N/A,30.05,48.0,9:53 PM,,10.0,SSE,6.9,150,Boise,Idaho,83701
22,Overcast,2016-03-27 04:53:00,28.0,,-,48,N/A,30.04,46.9,10:53 PM,,10.0,SE,8.1,130,Boise,Idaho,83701
23,Overcast,2016-03-27 05:53:00,25.0,,-,42,N/A,30.02,46.9,11:53 PM,,10.0,ESE,6.9,120,Boise,Idaho,83701
0,Overcast,2016-03-27 06:53:00,24.1,,-,42,N/A,30.01,46.0,12:53 AM,,10.0,SE,9.2,130,Boise,Idaho,83701
1,Overcast,2016-03-27 07:53:00,24.1,,-,42,N/A,29.99,46.0,1:53 AM,,10.0,SE,9.2,130,Boise,Idaho,83701
2,Overcast,2016-03-27 08:53:00,23.0,,-,39,N/A,29.96,46.9,2:53 AM,,10.0,ESE,11.5,120,Boise,Idaho,83701
3,Overcast,2016-03-27 09:53:00,23.0,,-,39,N/A,29.96,46.9,3:53 AM,,10.0,SE,10.4,130,Boise,Idaho,83701
4,Overcast,2016-03-27 10:53:00,24.1,,-,42,N/A,29.95,46.0,4:53 AM,,10.0,ESE,10.4,120,Boise,Idaho,83701
5,Overcast,2016-03-27 11:53:00,24.1,,-,42,N/A,29.94,46.0,5:53 AM,,10.0,SE,9.2,130,Boise,Idaho,83701
6,Overcast,2016-03-27 12:53:00,23.0,,-,40,N/A,29.94,46.0,6:53 AM,,10.0,SE,8.1,140,Boise,Idaho,83701
7,Light Rain,2016-03-27 13:53:00,30.0,Rain,-,60,0.00,29.96,43.0,7:53 AM,,10.0,West,3.5,260,Boise,Idaho,83701
8,Light Rain,2016-03-27 14:53:00,28.0,Rain,-,53,0.00,29.99,44.1,8:53 AM,,10.0,West,5.8,260,Boise,Idaho,83701
9,Overcast,2016-03-27 15:53:00,30.0,,-,56,0.00,29.98,45.0,9:53 AM,,10.0,East,6.9,80,Boise,Idaho,83701
10,Overcast,2016-03-27 16:53:00,30.0,,-,50,N/A,29.98,48.0,10:53 AM,,10.0,SSE,4.6,150,Boise,Idaho,83701
11,Overcast,2016-03-27 17:53:00,30.9,,-,48,N/A,29.98,50.0,11:53 AM,,10.0,SSE,5.8,160,Boise,Idaho,83701
12,Overcast,2016-03-27 18:53:00,32.0,,-,48,N/A,29.97,51.1,12:53 PM,,10.0,ESE,5.8,110,Boise,Idaho,83701
13,Light Rain,2016-03-27 19:53:00,34.0,Rain,-,54,0.00,29.97,50.0,1:53 PM,,10.0,East,6.9,90,Boise,Idaho,83701
14,Overcast,2016-03-27 20:53:00,34.0,,-,54,0.00,29.95,50.0,2:53 PM,,10.0,SSE,5.8,150,Boise,Idaho,83701
15,Overcast,2016-03-27 21:53:00,34.0,,-,52,N/A,29.95,51.1,3:53 PM,,10.0,SSW,5.8,210,Boise,Idaho,83701
16,Partly Cloudy,2016-03-27 22:53:00,35.1,,-,50,N/A,29.92,53.1,4:53 PM,,10.0,Variable,3.5,0,Boise,Idaho,83701
17,Clear,2016-03-27 23:53:00,19.9,,-,27,N/A,29.91,53.1,5:53 PM,,10.0,WNW,8.1,290,Boise,Idaho,83701
18,Partly Cloudy,2016-03-28 00:53:00,23.0,,-,32,N/A,29.90,52.0,6:53 PM,,10.0,NW,6.9,320,Boise,Idaho,83701
19,Overcast,2016-03-28 01:53:00,25.0,,-,38,N/A,29.91,50.0,7:53 PM,,10.0,NW,11.5,310,Boise,Idaho,83701
20,Clear,2016-03-28 02:53:00,26.1,,-,46,N/A,29.92,46.0,8:53 PM,,10.0,NNW,12.7,330,Boise,Idaho,83701
21,Clear,2016-03-28 03:53:00,27.0,,-,55,N/A,29.94,42.1,9:53 PM,,10.0,NNW,6.9,340,Boise,Idaho,83701
22,Clear,2016-03-28 04:53:00,28.0,,-,63,N/A,29.94,39.9,10:53 PM,,10.0,NW,8.1,310,Boise,Idaho,83701
23,Clear,2016-03-28 05:53:00,26.1,,-,58,N/A,29.92,39.9,11:53 PM,,10.0,West,5.8,270,Boise,Idaho,83701
0,Clear,2016-03-28 06:53:00,26.1,,-,65,N/A,29.93,37.0,12:53 AM,,10.0,West,9.2,280,Boise,Idaho,83701
1,Clear,2016-03-28 07:53:00,25.0,,-,70,N/A,29.95,34.0,1:53 AM,,10.0,Calm,Calm,0,Boise,Idaho,83701
2,Clear,2016-03-28 08:53:00,25.0,,-,72,N/A,29.95,33.1,2:53 AM,,10.0,Calm,Calm,0,Boise,Idaho,83701
3,Clear,2016-03-28 09:53:00,24.1,,-,76,N/A,29.95,30.9,3:53 AM,,10.0,NW,5.8,320,Boise,Idaho,83701
4,Clear,2016-03-28 10:53:00,24.1,,-,79,N/A,29.94,30.0,4:53 AM,,10.0,SSW,3.5,210,Boise,Idaho,83701
5,Clear,2016-03-28 11:53:00,24.1,,-,79,N/A,29.94,30.0,5:53 AM,,10.0,WNW,3.5,300,Boise,Idaho,83701
6,Clear,2016-03-28 12:53:00,24.1,,-,82,N/A,29.95,28.9,6:53 AM,,10.0,Calm,Calm,0,Boise,Idaho,83701
7,Clear,2016-03-28 13:53:00,23.0,,-,78,N/A,29.95,28.9,7:53 AM,,10.0,Calm,Calm,0,Boise,Idaho,83701
8,Clear,2016-03-28 14:53:00,25.0,,-,79,N/A,29.93,30.9,8:53 AM,,10.0,WNW,4.6,300,Boise,Idaho,83701
9,Clear,2016-03-28 15:53:00,26.1,,-,73,N/A,29.93,34.0,9:53 AM,,10.0,Calm,Calm,0,Boise,Idaho,83701
10,Clear,2016-03-28 16:53:00,26.1,,-,58,N/A,29.92,39.9,10:53 AM,,10.0,WNW,9.2,290,Boise,Idaho,83701
11,Clear,2016-03-28 17:53:00,25.0,,-,47,N/A,29.89,44.1,11:53 AM,,10.0,WNW,11.5,300,Boise,Idaho,83701
12,Clear,2016-03-28 18:53:00,23.0,,26.5,36,N/A,29.86,48.9,12:53 PM,,10.0,NNW,17.3,330,Boise,Idaho,83701
13,Clear,2016-03-28 19:53:00,21.0,,26.5,31,N/A,29.83,51.1,1:53 PM,,10.0,NW,21.9,310,Boise,Idaho,83701
14,Clear,2016-03-28 20:53:00,21.0,,28.8,29,N/A,29.81,53.1,2:53 PM,,10.0,NW,20.7,320,Boise,Idaho,83701
15,Clear,2016-03-28 21:53:00,21.0,,27.6,29,N/A,29.79,53.1,3:53 PM,,10.0,NNW,17.3,330,Boise,Idaho,83701
16,Clear,2016-03-28 22:53:00,19.0,,27.6,24,N/A,29.77,55.0,4:53 PM,,10.0,NNW,15.0,340,Boise,Idaho,83701
17,Clear,2016-03-28 23:53:00,19.9,,31.1,26,N/A,29.75,54.0,5:53 PM,,10.0,NW,23.0,320,Boise,Idaho,83701
18,Clear,2016-03-29 00:53:00,19.9,,35.7,28,N/A,29.75,52.0,6:53 PM,,10.0,NW,27.6,320,Boise,Idaho,83701
19,Clear,2016-03-29 01:53:00,21.0,,32.2,33,N/A,29.75,48.9,7:53 PM,,10.0,NNW,19.6,330,Boise,Idaho,83701
20,Clear,2016-03-29 02:53:00,21.9,,-,39,N/A,29.76,46.0,8:53 PM,,10.0,NNW,18.4,330,Boise,Idaho,83701
21,Clear,2016-03-29 03:53:00,21.9,,-,40,N/A,29.75,45.0,9:53 PM,,10.0,NW,17.3,320,Boise,Idaho,83701
22,Clear,2016-03-29 04:53:00,21.9,,25.3,43,N/A,29.73,43.0,10:53 PM,,10.0,NW,19.6,310,Boise,Idaho,83701
23,Clear,2016-03-29 05:53:00,23.0,,-,49,N/A,29.72,41.0,11:53 PM,,10.0,NW,17.3,310,Boise,Idaho,83701
0,Clear,2016-03-29 06:53:00,23.0,,-,51,N/A,29.70,39.9,12:53 AM,,10.0,NW,17.3,310,Boise,Idaho,83701
1,Clear,2016-03-29 07:53:00,21.9,,-,49,N/A,29.68,39.9,1:53 AM,,10.0,NNW,21.9,330,Boise,Idaho,83701
2,Clear,2016-03-29 08:53:00,23.0,,-,53,N/A,29.66,39.0,2:53 AM,,10.0,NW,19.6,310,Boise,Idaho,83701
3,Clear,2016-03-29 09:53:00,23.0,,-,53,N/A,29.65,39.0,3:53 AM,,10.0,NW,18.4,310,Boise,Idaho,83701
4,Partly Cloudy,2016-03-29 10:53:00,23.0,,-,55,N/A,29.62,37.9,4:53 AM,,10.0,NW,16.1,310,Boise,Idaho,83701
5,Partly Cloudy,2016-03-29 11:53:00,23.0,,-,55,N/A,29.62,37.9,5:53 AM,,10.0,WNW,16.1,300,Boise,Idaho,83701
6,Mostly Cloudy,2016-03-29 12:53:00,23.0,,-,53,N/A,29.63,39.0,6:53 AM,,10.0,NW,15.0,310,Boise,Idaho,83701
7,Overcast,2016-03-29 13:53:00,24.1,,-,55,N/A,29.65,39.0,7:53 AM,,10.0,WNW,10.4,300,Boise,Idaho,83701
8,Overcast,2016-03-29 14:53:00,24.1,,-,53,N/A,29.66,39.9,8:53 AM,,10.0,WNW,6.9,300,Boise,Idaho,83701
9,Overcast,2016-03-29 15:53:00,25.0,,-,49,N/A,29.66,43.0,9:53 AM,,10.0,NNW,11.5,330,Boise,Idaho,83701
10,Mostly Cloudy,2016-03-29 16:53:00,26.1,,-,46,N/A,29.65,46.0,10:53 AM,,10.0,North,9.2,360,Boise,Idaho,83701
11,Clear,2016-03-29 17:53:00,26.1,,-,38,N/A,29.64,51.1,11:53 AM,,10.0,NNW,19.6,330,Boise,Idaho,83701
12,Clear,2016-03-29 18:53:00,25.0,,-,38,N/A,29.64,50.0,12:53 PM,,10.0,NW,19.6,310,Boise,Idaho,83701
13,Scattered Clouds,2016-03-29 19:53:00,25.0,,23.0,34,N/A,29.62,53.1,1:53 PM,,10.0,WNW,15.0,300,Boise,Idaho,83701
14,Clear,2016-03-29 20:53:00,26.1,,20.7,33,N/A,29.61,55.0,2:53 PM,,10.0,West,12.7,270,Boise,Idaho,83701
15,Partly Cloudy,2016-03-29 21:53:00,26.1,,-,30,N/A,29.60,57.9,3:53 PM,,10.0,WNW,19.6,300,Boise,Idaho,83701
16,Mostly Cloudy,2016-03-29 22:53:00,27.0,,-,31,N/A,29.63,57.9,4:53 PM,,10.0,NW,16.1,310,Boise,Idaho,83701
17,Overcast,2016-03-29 23:53:00,28.0,,24.2,33,N/A,29.63,57.0,5:53 PM,,10.0,WNW,20.7,300,Boise,Idaho,83701
18,Overcast,2016-03-30 00:53:00,28.9,,-,36,N/A,29.64,55.9,6:53 PM,,10.0,NW,16.1,320,Boise,Idaho,83701
19,Overcast,2016-03-30 01:53:00,30.0,,-,40,N/A,29.67,54.0,7:53 PM,,10.0,NNW,11.5,330,Boise,Idaho,83701
20,Overcast,2016-03-30 02:53:00,34.0,,-,58,N/A,29.72,48.0,8:53 PM,,10.0,SSE,10.4,160,Boise,Idaho,83701
21,Partly Cloudy,2016-03-30 03:53:00,33.1,,-,63,N/A,29.74,45.0,9:53 PM,,10.0,SSE,11.5,150,Boise,Idaho,83701
22,Clear,2016-03-30 04:53:00,32.0,,-,63,N/A,29.76,44.1,10:53 PM,,10.0,South,6.9,170,Boise,Idaho,83701
23,Clear,2016-03-30 05:53:00,32.0,,-,70,N/A,29.77,41.0,11:53 PM,,10.0,ESE,8.1,120,Boise,Idaho,83701
0,Clear,2016-03-30 06:53:00,32.0,,-,67,N/A,29.80,42.1,12:53 AM,,10.0,SE,5.8,130,Boise,Idaho,83701
1,Partly Cloudy,2016-03-30 07:53:00,32.0,,-,70,N/A,29.80,41.0,1:53 AM,,10.0,SE,8.1,140,Boise,Idaho,83701
2,Clear,2016-03-30 08:53:00,33.1,,-,77,N/A,29.83,39.9,2:53 AM,,10.0,SW,4.6,220,Boise,Idaho,83701
3,Partly Cloudy,2016-03-30 09:53:00,32.0,,-,79,N/A,29.84,37.9,3:53 AM,,10.0,East,6.9,80,Boise,Idaho,83701
4,Clear,2016-03-30 10:53:00,30.9,,-,79,N/A,29.84,37.0,4:53 AM,,10.0,ESE,4.6,110,Boise,Idaho,83701
5,Clear,2016-03-30 11:53:00,30.0,,-,79,N/A,29.87,36.0,5:53 AM,,10.0,Calm,Calm,0,Boise,Idaho,83701
6,Clear,2016-03-30 12:53:00,28.9,,-,76,N/A,29.88,36.0,6:53 AM,,10.0,SSW,3.5,200,Boise,Idaho,83701
7,Clear,2016-03-30 13:53:00,28.9,,-,78,N/A,29.91,35.1,7:53 AM,,10.0,Calm,Calm,0,Boise,Idaho,83701
8,Clear,2016-03-30 14:53:00,30.9,,-,73,N/A,29.95,39.0,8:53 AM,,10.0,Calm,Calm,0,Boise,Idaho,83701
9,Clear,2016-03-30 15:53:00,33.1,,-,68,N/A,29.96,43.0,9:53 AM,,10.0,Calm,Calm,0,Boise,Idaho,83701
10,Clear,2016-03-30 16:53:00,33.1,,-,56,N/A,29.97,48.0,10:53 AM,,10.0,Calm,Calm,0,Boise,Idaho,83701
11,Clear,2016-03-30 17:53:00,33.1,,-,52,N/A,29.97,50.0,11:53 AM,,10.0,Calm,Calm,0,Boise,Idaho,83701
12,Clear,2016-03-30 18:53:00,32.0,,-,43,N/A,29.96,54.0,12:53 PM,,10.0,Variable,5.8,0,Boise,Idaho,83701
13,Clear,2016-03-30 19:53:00,30.9,,-,36,N/A,29.95,57.9,1:53 PM,,10.0,West,6.9,260,Boise,Idaho,83701
14,Clear,2016-03-30 20:53:00,30.0,,-,31,N/A,29.92,61.0,2:53 PM,,10.0,WNW,9.2,290,Boise,Idaho,83701
15,Clear,2016-03-30 21:53:00,28.9,,-,28,N/A,29.92,63.0,3:53 PM,,10.0,WNW,11.5,300,Boise,Idaho,83701
16,Clear,2016-03-30 22:53:00,28.9,,-,28,N/A,29.91,63.0,4:53 PM,,10.0,WNW,11.5,300,Boise,Idaho,83701
17,Clear,2016-03-30 23:53:00,30.0,,-,29,N/A,29.90,63.0,5:53 PM,,10.0,NW,13.8,310,Boise,Idaho,83701
18,Clear,2016-03-31 00:53:00,30.0,,-,30,N/A,29.91,62.1,6:53 PM,,10.0,WNW,12.7,300,Boise,Idaho,83701
19,Clear,2016-03-31 01:53:00,30.9,,-,35,N/A,29.91,59.0,7:53 PM,,10.0,NW,8.1,310,Boise,Idaho,83701
20,Clear,2016-03-31 02:53:00,30.0,,-,36,N/A,29.92,57.0,8:53 PM,,10.0,Calm,Calm,0,Boise,Idaho,83701
21,Clear,2016-03-31 03:53:00,32.0,,-,43,N/A,29.93,54.0,9:53 PM,,10.0,NNE,4.6,20,Boise,Idaho,83701
22,Clear,2016-03-31 04:53:00,32.0,,-,48,N/A,29.93,51.1,10:53 PM,,10.0,Calm,Calm,0,Boise,Idaho,83701
23,Clear,2016-03-31 05:53:00,32.0,,-,52,N/A,29.93,48.9,11:53 PM,,10.0,Calm,Calm,0,Boise,Idaho,83701
0,Clear,2016-03-31 06:53:00,32.0,,-,58,N/A,29.93,46.0,12:53 AM,,10.0,West,5.8,260,Boise,Idaho,83701
1,Clear,2016-03-31 07:53:00,32.0,,-,63,N/A,29.95,44.1,1:53 AM,,10.0,Calm,Calm,0,Boise,Idaho,83701
2,Clear,2016-03-31 08:53:00,30.9,,-,67,N/A,29.96,41.0,2:53 AM,,10.0,Calm,Calm,0,Boise,Idaho,83701
3,Clear,2016-03-31 09:53:00,32.0,,-,73,N/A,29.95,39.9,3:53 AM,,10.0,WSW,4.6,250,Boise,Idaho,83701
4,Clear,2016-03-31 10:53:00,30.9,,-,76,N/A,29.96,37.9,4:53 AM,,10.0,ESE,3.5,120,Boise,Idaho,83701
5,Clear,2016-03-31 11:53:00,30.9,,-,76,N/A,29.96,37.9,5:53 AM,,10.0,South,3.5,190,Boise,Idaho,83701
6,Clear,2016-03-31 12:53:00,32.0,,-,73,N/A,29.98,39.9,6:53 AM,,10.0,Calm,Calm,0,Boise,Idaho,83701
7,Clear,2016-03-31 13:53:00,32.0,,-,76,N/A,30.00,39.0,7:53 AM,,10.0,Calm,Calm,0,Boise,Idaho,83701
8,Clear,2016-03-31 14:53:00,33.1,,-,70,N/A,30.01,42.1,8:53 AM,,10.0,Calm,Calm,0,Boise,Idaho,83701
9,Clear,2016-03-31 15:53:00,34.0,,-,65,N/A,30.02,45.0,9:53 AM,,10.0,Calm,Calm,0,Boise,Idaho,83701
10,Clear,2016-03-31 16:53:00,35.1,,-,57,N/A,30.03,50.0,10:53 AM,,10.0,NW,8.1,320,Boise,Idaho,83701
11,Clear,2016-03-31 17:53:00,35.1,,-,45,N/A,30.02,55.9,11:53 AM,,10.0,WNW,10.4,290,Boise,Idaho,83701
12,Clear,2016-03-31 18:53:00,34.0,,-,35,N/A,30.01,62.1,12:53 PM,,10.0,NW,12.7,310,Boise,Idaho,83701
13,Clear,2016-03-31 19:53:00,34.0,,-,33,N/A,29.99,64.0,1:53 PM,,10.0,NNW,11.5,330,Boise,Idaho,83701
14,Clear,2016-03-31 20:53:00,33.1,,-,28,N/A,29.97,66.9,2:53 PM,,10.0,NNW,13.8,330,Boise,Idaho,83701
15,Clear,2016-03-31 21:53:00,33.1,,25.3,28,N/A,29.97,66.9,3:53 PM,,10.0,WNW,20.7,290,Boise,Idaho,83701
16,Mostly Cloudy,2016-03-31 22:53:00,34.0,,26.5,28,N/A,29.96,68.0,4:53 PM,,10.0,WNW,19.6,300,Boise,Idaho,83701
17,Clear,2016-03-31 23:53:00,32.0,,-,27,N/A,29.96,66.9,5:53 PM,,10.0,NW,20.7,320,Boise,Idaho,83701
18,Clear,2016-04-01 00:53:00,32.0,,-,28,N/A,29.96,66.0,6:53 PM,,10.0,NW,17.3,310,Boise,Idaho,83701
19,Clear,2016-04-01 01:53:00,32.0,,-,31,N/A,29.98,63.0,7:53 PM,,10.0,WNW,13.8,300,Boise,Idaho,83701
20,Clear,2016-04-01 02:53:00,33.1,,-,39,N/A,30.00,57.9,8:53 PM,,10.0,NW,8.1,310,Boise,Idaho,83701
21,Clear,2016-04-01 03:53:00,32.0,,-,43,N/A,30.01,54.0,9:53 PM,,10.0,NW,8.1,320,Boise,Idaho,83701
22,Clear,2016-04-01 04:53:00,32.0,,-,48,N/A,30.03,51.1,10:53 PM,,10.0,NW,6.9,320,Boise,Idaho,83701
23,Clear,2016-04-01 05:53:00,32.0,,-,52,N/A,30.04,48.9,11:53 PM,,10.0,Calm,Calm,0,Boise,Idaho,83701
0,Clear,2016-04-01 06:53:00,32.0,,-,54,N/A,30.05,48.0,12:53 AM,,10.0,WSW,6.9,240,Boise,Idaho,83701
1,Clear,2016-04-01 07:53:00,33.1,,18.4,63,N/A,30.09,45.0,1:53 AM,,10.0,South,15.0,170,Boise,Idaho,83701
2,Clear,2016-04-01 08:53:00,33.1,,-,61,N/A,30.10,46.0,2:53 AM,,10.0,ESE,4.6,110,Boise,Idaho,83701
3,Clear,2016-04-01 09:53:00,34.0,,-,58,N/A,30.12,48.0,3:53 AM,,10.0,SSE,5.8,160,Boise,Idaho,83701
4,Clear,2016-04-01 10:53:00,35.1,,-,71,N/A,30.13,44.1,4:53 AM,,10.0,SSE,4.6,150,Boise,Idaho,83701
5,Clear,2016-04-01 11:53:00,33.1,,-,73,N/A,30.17,41.0,5:53 AM,,10.0,SE,3.5,130,Boise,Idaho,83701
6,Clear,2016-04-01 12:53:00,30.9,,-,62,N/A,30.18,43.0,6:53 AM,,10.0,SE,9.2,140,Boise,Idaho,83701
7,Clear,2016-04-01 13:53:00,30.9,,-,67,N/A,30.21,41.0,7:53 AM,,10.0,SE,8.1,140,Boise,Idaho,83701
8,Clear,2016-04-01 14:53:00,33.1,,-,63,N/A,30.22,45.0,8:53 AM,,10.0,SE,6.9,140,Boise,Idaho,83701
9,Clear,2016-04-01 15:53:00,33.1,,-,52,N/A,30.24,50.0,9:53 AM,,10.0,Variable,3.5,0,Boise,Idaho,83701
10,Clear,2016-04-01 16:53:00,33.1,,-,43,N/A,30.24,55.0,10:53 AM,,10.0,Calm,Calm,0,Boise,Idaho,83701
11,Clear,2016-04-01 17:53:00,33.1,,-,38,N/A,30.24,59.0,11:53 AM,,10.0,South,6.9,180,Boise,Idaho,83701
12,Clear,2016-04-01 18:53:00,28.9,,17.3,29,N/A,30.23,62.1,12:53 PM,,10.0,SSE,13.8,150,Boise,Idaho,83701
13,Clear,2016-04-01 19:53:00,28.9,,-,27,N/A,30.22,64.0,1:53 PM,,10.0,South,11.5,170,Boise,Idaho,83701
14,Clear,2016-04-01 20:53:00,28.9,,-,26,N/A,30.19,64.9,2:53 PM,,10.0,South,10.4,180,Boise,Idaho,83701
15,Clear,2016-04-01 21:53:00,28.0,,-,24,N/A,30.17,66.0,3:53 PM,,10.0,East,3.5,90,Boise,Idaho,83701
16,Clear,2016-04-01 22:53:00,28.0,,-,25,N/A,30.17,64.9,4:53 PM,,10.0,South,9.2,170,Boise,Idaho,83701
17,Clear,2016-04-01 23:53:00,28.0,,-,25,N/A,30.17,64.9,5:53 PM,,10.0,South,6.9,190,Boise,Idaho,83701
18,Clear,2016-04-02 00:53:00,28.9,,-,26,N/A,30.16,64.9,6:53 PM,,10.0,SSE,8.1,150,Boise,Idaho,83701
19,Clear,2016-04-02 01:53:00,28.9,,-,28,N/A,30.16,63.0,7:53 PM,,10.0,South,3.5,190,Boise,Idaho,83701
20,Clear,2016-04-02 02:53:00,33.1,,-,40,N/A,30.17,57.0,8:53 PM,,10.0,SSE,5.8,160,Boise,Idaho,83701
21,Clear,2016-04-02 03:53:00,34.0,,-,47,N/A,30.17,54.0,9:53 PM,,10.0,SE,5.8,130,Boise,Idaho,83701
22,Clear,2016-04-02 04:53:00,30.9,,-,43,N/A,30.17,53.1,10:53 PM,,10.0,ESE,8.1,110,Boise,Idaho,83701
23,Clear,2016-04-02 05:53:00,33.1,,-,54,N/A,30.17,48.9,11:53 PM,,10.0,SE,6.9,130,Boise,Idaho,83701
0,Clear,2016-04-02 06:53:00,33.1,,-,56,N/A,30.16,48.0,12:53 AM,,10.0,SE,9.2,130,Boise,Idaho,83701
1,Clear,2016-04-02 07:53:00,33.1,,-,59,N/A,30.17,46.9,1:53 AM,,10.0,SE,8.1,130,Boise,Idaho,83701
2,Clear,2016-04-02 08:53:00,33.1,,-,59,N/A,30.16,46.9,2:53 AM,,10.0,SE,8.1,130,Boise,Idaho,83701
3,Clear,2016-04-02 09:53:00,33.1,,-,61,N/A,30.16,46.0,3:53 AM,,10.0,ESE,8.1,120,Boise,Idaho,83701
4,Clear,2016-04-02 10:53:00,33.1,,-,61,N/A,30.15,46.0,4:53 AM,,10.0,ESE,9.2,120,Boise,Idaho,83701
5,Clear,2016-04-02 11:53:00,32.0,,-,60,N/A,30.16,45.0,5:53 AM,,10.0,SE,10.4,130,Boise,Idaho,83701
6,Clear,2016-04-02 12:53:00,32.0,,-,60,N/A,30.16,45.0,6:53 AM,,10.0,ESE,6.9,110,Boise,Idaho,83701
7,Clear,2016-04-02 13:53:00,33.1,,-,70,N/A,30.18,42.1,7:53 AM,,10.0,North,3.5,350,Boise,Idaho,83701
8,Clear,2016-04-02 14:53:00,33.1,,-,68,N/A,30.21,43.0,8:53 AM,,10.0,Calm,Calm,0,Boise,Idaho,83701
9,Clear,2016-04-02 15:53:00,33.1,,-,54,N/A,30.20,48.9,9:53 AM,,10.0,SE,3.5,140,Boise,Idaho,83701
10,Clear,2016-04-02 16:53:00,35.1,,-,47,N/A,30.19,55.0,10:53 AM,,10.0,Calm,Calm,0,Boise,Idaho,83701
11,Clear,2016-04-02 17:53:00,35.1,,-,38,N/A,30.17,61.0,11:53 AM,,10.0,ENE,3.5,60,Boise,Idaho,83701
12,Clear,2016-04-02 18:53:00,34.0,,-,30,N/A,30.15,66.0,12:53 PM,,10.0,South,6.9,170,Boise,Idaho,83701
13,Clear,2016-04-02 19:53:00,32.0,,-,27,N/A,30.12,66.9,1:53 PM,,10.0,SSW,5.8,200,Boise,Idaho,83701
14,Clear,2016-04-02 20:53:00,30.9,,-,25,N/A,30.09,68.0,2:53 PM,,10.0,Calm,Calm,0,Boise,Idaho,83701
15,Clear,2016-04-02 21:53:00,32.0,,-,25,N/A,30.06,70.0,3:53 PM,,10.0,West,4.6,280,Boise,Idaho,83701
16,Clear,2016-04-02 22:53:00,32.0,,-,23,N/A,30.04,72.0,4:53 PM,,10.0,Calm,Calm,0,Boise,Idaho,83701
17,Clear,2016-04-02 23:53:00,30.9,,-,22,N/A,30.02,72.0,5:53 PM,,10.0,Calm,Calm,0,Boise,Idaho,83701
18,Clear,2016-04-03 00:53:00,33.1,,-,25,N/A,30.01,71.1,6:53 PM,,10.0,North,5.8,10,Boise,Idaho,83701
19,Clear,2016-04-03 01:53:00,30.0,,-,23,N/A,30.00,70.0,7:53 PM,,10.0,Calm,Calm,0,Boise,Idaho,83701
20,Clear,2016-04-03 02:53:00,34.0,,-,35,N/A,29.99,62.1,8:53 PM,,10.0,SE,6.9,140,Boise,Idaho,83701
21,Clear,2016-04-03 03:53:00,36.0,,-,45,N/A,30.00,57.0,9:53 PM,,10.0,SE,8.1,140,Boise,Idaho,83701
22,Clear,2016-04-03 04:53:00,36.0,,-,44,N/A,29.99,57.9,10:53 PM,,10.0,ESE,9.2,120,Boise,Idaho,83701
23,Clear,2016-04-03 05:53:00,37.0,,-,51,N/A,29.98,55.0,11:53 PM,,10.0,SE,9.2,130,Boise,Idaho,83701
0,Clear,2016-04-03 06:53:00,36.0,,-,51,N/A,29.98,54.0,12:53 AM,,10.0,SE,11.5,130,Boise,Idaho,83701
1,Scattered Clouds,2016-04-03 07:53:00,36.0,,-,49,N/A,29.99,55.0,1:53 AM,,10.0,Calm,Calm,0,Boise,Idaho,83701
2,Scattered Clouds,2016-04-03 08:53:00,35.1,,-,47,N/A,29.97,55.0,2:53 AM,,10.0,SE,8.1,130,Boise,Idaho,83701
3,Clear,2016-04-03 09:53:00,35.1,,-,53,N/A,29.98,52.0,3:53 AM,,10.0,SE,9.2,130,Boise,Idaho,83701
4,Clear,2016-04-03 10:53:00,35.1,,-,59,N/A,30.00,48.9,4:53 AM,,10.0,SW,3.5,220,Boise,Idaho,83701
5,Clear,2016-04-03 11:53:00,35.1,,-,66,N/A,30.03,46.0,5:53 AM,,10.0,SSE,6.9,150,Boise,Idaho,83701
6,Clear,2016-04-03 12:53:00,36.0,,-,66,N/A,30.02,46.9,6:53 AM,,10.0,SSE,4.6,160,Boise,Idaho,83701
7,Clear,2016-04-03 13:53:00,35.1,,-,66,N/A,30.04,46.0,7:53 AM,,10.0,South,3.5,170,Boise,Idaho,83701
8,Clear,2016-04-03 14:53:00,37.0,,-,61,N/A,30.07,50.0,8:53 AM,,10.0,ENE,4.6,70,Boise,Idaho,83701
9,Clear,2016-04-03 15:53:00,37.9,,-,51,N/A,30.07,55.9,9:53 AM,,10.0,ESE,4.6,110,Boise,Idaho,83701
10,Clear,2016-04-03 16:53:00,39.9,,-,47,N/A,30.07,60.1,10:53 AM,,10.0,West,3.5,260,Boise,Idaho,83701
11,Clear,2016-04-03 17:53:00,41.0,,-,46,N/A,30.07,62.1,11:53 AM,,10.0,West,4.6,270,Boise,Idaho,83701
12,Clear,2016-04-03 18:53:00,39.9,,-,40,N/A,30.06,64.9,12:53 PM,,10.0,Calm,Calm,0,Boise,Idaho,83701
13,Clear,2016-04-03 19:53:00,41.0,,-,37,N/A,30.03,68.0,1:53 PM,,10.0,Variable,3.5,0,Boise,Idaho,83701
14,Clear,2016-04-03 20:53:00,37.9,,-,31,N/A,30.00,70.0,2:53 PM,,10.0,Variable,4.6,0,Boise,Idaho,83701
15,Clear,2016-04-03 21:53:00,34.0,,17.3,24,N/A,29.98,73.0,3:53 PM,,10.0,NW,10.4,320,Boise,Idaho,83701
16,Clear,2016-04-03 22:53:00,35.1,,-,24,N/A,29.96,73.9,4:53 PM,,10.0,NW,6.9,310,Boise,Idaho,83701
17,Clear,2016-04-03 23:53:00,35.1,,-,25,N/A,29.95,73.0,5:53 PM,,10.0,NNE,3.5,30,Boise,Idaho,83701
18,Clear,2016-04-04 00:53:00,36.0,,-,27,N/A,29.94,72.0,6:53 PM,,10.0,North,8.1,10,Boise,Idaho,83701
19,Clear,2016-04-04 01:53:00,35.1,,-,29,N/A,29.93,69.1,7:53 PM,,10.0,North,5.8,10,Boise,Idaho,83701
20,Clear,2016-04-04 02:53:00,37.0,,-,39,N/A,29.94,62.1,8:53 PM,,10.0,South,3.5,170,Boise,Idaho,83701
21,Clear,2016-04-04 03:53:00,37.9,,-,44,N/A,29.95,60.1,9:53 PM,,10.0,SE,9.2,130,Boise,Idaho,83701
22,Clear,2016-04-04 04:53:00,35.1,,-,39,N/A,29.94,60.1,10:53 PM,,10.0,ESE,8.1,110,Boise,Idaho,83701
23,Clear,2016-04-04 05:53:00,36.0,,-,44,N/A,29.94,57.9,11:53 PM,,10.0,SE,9.2,130,Boise,Idaho,83701
0,Clear,2016-04-04 06:53:00,35.1,,-,44,N/A,29.93,57.0,12:53 AM,,10.0,SE,10.4,130,Boise,Idaho,83701
1,Clear,2016-04-04 07:53:00,35.1,,-,47,N/A,29.94,55.0,1:53 AM,,10.0,SE,10.4,130,Boise,Idaho,83701
2,Partly Cloudy,2016-04-04 08:53:00,34.0,,-,44,N/A,29.94,55.9,2:53 AM,,10.0,ESE,13.8,120,Boise,Idaho,83701
3,Clear,2016-04-04 09:53:00,34.0,,-,42,N/A,29.93,57.0,3:53 AM,,10.0,SE,16.1,130,Boise,Idaho,83701
4,Partly Cloudy,2016-04-04 10:53:00,35.1,,-,54,N/A,29.94,51.1,4:53 AM,,10.0,SE,6.9,140,Boise,Idaho,83701
5,Scattered Clouds,2016-04-04 11:53:00,35.1,,-,53,N/A,29.95,52.0,5:53 AM,,10.0,SSE,10.4,150,Boise,Idaho,83701
6,Overcast,2016-04-04 12:53:00,36.0,,-,54,N/A,29.96,52.0,6:53 AM,,10.0,ESE,6.9,110,Boise,Idaho,83701
7,Partly Cloudy,2016-04-04 13:53:00,36.0,,-,56,N/A,30.01,51.1,7:53 AM,,10.0,SE,13.8,140,Boise,Idaho,83701
8,Clear,2016-04-04 14:53:00,37.0,,-,55,N/A,30.04,53.1,8:53 AM,,10.0,ESE,11.5,120,Boise,Idaho,83701
9,Clear,2016-04-04 15:53:00,39.0,,-,51,N/A,30.04,57.0,9:53 AM,,10.0,ESE,8.1,120,Boise,Idaho,83701
10,Clear,2016-04-04 16:53:00,39.9,,-,49,N/A,30.05,59.0,10:53 AM,,10.0,ESE,4.6,120,Boise,Idaho,83701
11,Overcast,2016-04-04 17:53:00,37.9,,-,41,N/A,30.06,62.1,11:53 AM,,10.0,NW,5.8,320,Boise,Idaho,83701
12,Overcast,2016-04-04 18:53:00,37.0,,35.7,47,N/A,30.12,57.0,12:53 PM,,10.0,NW,23.0,310,Boise,Idaho,83701
13,Overcast,2016-04-04 19:53:00,34.0,,24.2,48,N/A,30.16,53.1,1:53 PM,,10.0,NNW,18.4,330,Boise,Idaho,83701
14,Mostly Cloudy,2016-04-04 20:53:00,27.0,,24.2,33,N/A,30.16,55.9,2:53 PM,,10.0,NW,16.1,310,Boise,Idaho,83701
15,Scattered Clouds,2016-04-04 21:53:00,30.9,,23.0,36,N/A,30.15,57.9,3:53 PM,,10.0,NW,17.3,320,Boise,Idaho,83701
16,Scattered Clouds,2016-04-04 22:53:00,28.9,,26.5,32,N/A,30.16,59.0,4:53 PM,,10.0,North,20.7,360,Boise,Idaho,83701
17,Clear,2016-04-04 23:53:00,16.0,,31.1,19,N/A,30.15,59.0,5:53 PM,,10.0,NW,23.0,310,Boise,Idaho,83701
18,Clear,2016-04-05 00:53:00,19.0,,29.9,23,N/A,30.17,57.0,6:53 PM,,10.0,NNW,18.4,330,Boise,Idaho,83701
19,Clear,2016-04-05 01:53:00,19.9,,24.2,26,N/A,30.20,54.0,7:53 PM,,10.0,NNW,18.4,330,Boise,Idaho,83701
20,Clear,2016-04-05 02:53:00,21.9,,-,32,N/A,30.22,51.1,8:53 PM,,10.0,North,11.5,350,Boise,Idaho,83701
21,Clear,2016-04-05 03:53:00,23.0,,-,36,N/A,30.23,48.9,9:53 PM,,10.0,North,4.6,350,Boise,Idaho,83701
22,Clear,2016-04-05 04:53:00,23.0,,-,40,N/A,30.25,46.0,10:53 PM,,10.0,Calm,Calm,0,Boise,Idaho,83701
23,Clear,2016-04-05 05:53:00,25.0,,-,47,N/A,30.26,44.1,11:53 PM,,10.0,West,6.9,260,Boise,Idaho,83701
0,Clear,2016-04-05 06:53:00,26.1,,-,55,N/A,30.29,41.0,12:53 AM,,10.0,West,4.6,260,Boise,Idaho,83701
1,Clear,2016-04-05 07:53:00,26.1,,-,58,N/A,30.31,39.9,1:53 AM,,10.0,Calm,Calm,0,Boise,Idaho,83701
2,Clear,2016-04-05 08:53:00,26.1,,-,58,N/A,30.32,39.9,2:53 AM,,10.0,Calm,Calm,0,Boise,Idaho,83701
3,Overcast,2016-04-05 09:53:00,28.0,,-,63,N/A,30.34,39.9,3:53 AM,,10.0,Calm,Calm,0,Boise,Idaho,83701
4,Overcast,2016-04-05 10:53:00,28.9,,-,62,N/A,30.32,41.0,4:53 AM,,10.0,WNW,4.6,300,Boise,Idaho,83701
5,Mostly Cloudy,2016-04-05 11:53:00,28.9,,-,67,N/A,30.35,39.0,5:53 AM,,10.0,WNW,8.1,300,Boise,Idaho,83701
6,Overcast,2016-04-05 12:53:00,30.0,,-,65,N/A,30.39,41.0,6:53 AM,,10.0,WNW,10.4,300,Boise,Idaho,83701
7,Scattered Clouds,2016-04-05 13:53:00,28.9,,-,62,N/A,30.42,41.0,7:53 AM,,10.0,WNW,10.4,300,Boise,Idaho,83701
8,Clear,2016-04-05 14:53:00,27.0,,-,53,N/A,30.44,43.0,8:53 AM,,10.0,WNW,8.1,300,Boise,Idaho,83701
9,Clear,2016-04-05 15:53:00,26.1,,-,46,N/A,30.45,46.0,9:53 AM,,10.0,NNW,16.1,330,Boise,Idaho,83701
10,Clear,2016-04-05 16:53:00,27.0,,-,46,N/A,30.48,46.9,10:53 AM,,10.0,NW,11.5,310,Boise,Idaho,83701
11,Clear,2016-04-05 17:53:00,24.1,,-,38,N/A,30.49,48.9,11:53 AM,,10.0,NNW,12.7,330,Boise,Idaho,83701
12,Clear,2016-04-05 18:53:00,25.0,,18.4,35,N/A,30.49,52.0,12:53 PM,,10.0,NW,13.8,310,Boise,Idaho,83701
13,Clear,2016-04-05 19:53:00,24.1,,-,34,N/A,30.47,52.0,1:53 PM,,10.0,NW,6.9,310,Boise,Idaho,83701
14,Clear,2016-04-05 20:53:00,24.1,,21.9,31,N/A,30.48,54.0,2:53 PM,,10.0,WNW,12.7,290,Boise,Idaho,83701
15,Partly Cloudy,2016-04-05 21:53:00,25.0,,20.7,31,N/A,30.48,55.0,3:53 PM,,10.0,WNW,16.1,300,Boise,Idaho,83701
16,Clear,2016-04-05 22:53:00,24.1,,23.0,29,N/A,30.45,55.9,4:53 PM,,10.0,NNW,12.7,340,Boise,Idaho,83701
17,Clear,2016-04-05 23:53:00,23.0,,-,28,N/A,30.44,55.9,5:53 PM,,10.0,NNW,13.8,330,Boise,Idaho,83701
18,Clear,2016-04-06 00:53:00,23.0,,-,28,N/A,30.43,55.9,6:53 PM,,10.0,West,19.6,270,Boise,Idaho,83701
19,Clear,2016-04-06 01:53:00,23.0,,-,31,N/A,30.44,53.1,7:53 PM,,10.0,NNW,9.2,330,Boise,Idaho,83701
20,Clear,2016-04-06 02:53:00,25.0,,-,36,N/A,30.44,51.1,8:53 PM,,10.0,NW,3.5,320,Boise,Idaho,83701
21,Clear,2016-04-06 03:53:00,26.1,,-,39,N/A,30.45,50.0,9:53 PM,,10.0,Calm,Calm,0,Boise,Idaho,83701
22,Clear,2016-04-06 04:53:00,26.1,,-,44,N/A,30.45,46.9,10:53 PM,,10.0,South,3.5,190,Boise,Idaho,83701
23,Clear,2016-04-06 05:53:00,27.0,,-,47,N/A,30.47,46.0,11:53 PM,,10.0,Calm,Calm,0,Boise,Idaho,83701
0,Clear,2016-04-06 06:53:00,27.0,,-,55,N/A,30.48,42.1,12:53 AM,,10.0,SE,3.5,140,Boise,Idaho,83701
1,Clear,2016-04-06 07:53:00,28.0,,-,60,N/A,30.48,41.0,1:53 AM,,10.0,SE,3.5,140,Boise,Idaho,83701
2,Clear,2016-04-06 08:53:00,28.0,,-,65,N/A,30.48,39.0,2:53 AM,,10.0,SE,4.6,140,Boise,Idaho,83701
3,Clear,2016-04-06 09:53:00,28.0,,-,63,N/A,30.46,39.9,3:53 AM,,10.0,SE,6.9,130,Boise,Idaho,83701
4,Clear,2016-04-06 10:53:00,27.0,,-,62,N/A,30.45,39.0,4:53 AM,,10.0,SE,5.8,140,Boise,Idaho,83701
5,Clear,2016-04-06 11:53:00,27.0,,-,62,N/A,30.46,39.0,5:53 AM,,10.0,SE,3.5,140,Boise,Idaho,83701
6,Clear,2016-04-06 12:53:00,27.0,,-,65,N/A,30.47,37.9,6:53 AM,,10.0,SE,4.6,130,Boise,Idaho,83701
7,Clear,2016-04-06 13:53:00,28.0,,-,68,N/A,30.48,37.9,7:53 AM,,10.0,SE,3.5,130,Boise,Idaho,83701
8,Clear,2016-04-06 14:53:00,28.9,,-,58,N/A,30.49,43.0,8:53 AM,,10.0,SE,3.5,130,Boise,Idaho,83701
9,Clear,2016-04-06 15:53:00,28.0,,-,43,N/A,30.48,50.0,9:53 AM,,10.0,Calm,Calm,0,Boise,Idaho,83701
10,Clear,2016-04-06 16:53:00,28.9,,-,38,N/A,30.49,54.0,10:53 AM,,10.0,Calm,Calm,0,Boise,Idaho,83701
11,Clear,2016-04-06 17:53:00,32.0,,-,39,N/A,30.47,57.0,11:53 AM,,10.0,Calm,Calm,0,Boise,Idaho,83701
12,Clear,2016-04-06 18:53:00,30.0,,-,32,N/A,30.45,60.1,12:53 PM,,10.0,Calm,Calm,0,Boise,Idaho,83701
13,Clear,2016-04-06 19:53:00,30.0,,-,28,N/A,30.42,64.0,1:53 PM,,10.0,NNW,5.8,340,Boise,Idaho,83701
14,Clear,2016-04-06 20:53:00,30.9,,-,27,N/A,30.40,66.0,2:53 PM,,10.0,Variable,4.6,0,Boise,Idaho,83701
15,Clear,2016-04-06 21:53:00,32.0,,-,26,N/A,30.36,68.0,3:53 PM,,10.0,North,4.6,360,Boise,Idaho,83701
16,Clear,2016-04-06 22:53:00,34.0,,-,27,N/A,30.33,70.0,4:53 PM,,10.0,North,11.5,360,Boise,Idaho,83701
17,Clear,2016-04-06 23:53:00,35.1,,-,28,N/A,30.30,70.0,5:53 PM,,10.0,NNW,11.5,330,Boise,Idaho,83701
18,Clear,2016-04-07 00:53:00,30.9,,-,24,N/A,30.28,69.1,6:53 PM,,10.0,NW,6.9,320,Boise,Idaho,83701
19,Clear,2016-04-07 01:53:00,27.0,,-,23,N/A,30.27,66.0,7:53 PM,,10.0,NNW,9.2,330,Boise,Idaho,83701
20,Clear,2016-04-07 02:53:00,30.9,,-,32,N/A,30.26,61.0,8:53 PM,,10.0,NNW,4.6,340,Boise,Idaho,83701
21,Clear,2016-04-07 03:53:00,32.0,,-,37,N/A,30.26,57.9,9:53 PM,,10.0,Calm,Calm,0,Boise,Idaho,83701
22,Clear,2016-04-07 04:53:00,35.1,,-,49,N/A,30.26,54.0,10:53 PM,,10.0,WSW,3.5,240,Boise,Idaho,83701
23,Clear,2016-04-07 05:53:00,36.0,,-,56,N/A,30.26,51.1,11:53 PM,,10.0,South,3.5,180,Boise,Idaho,83701
0,Clear,2016-04-07 06:53:00,34.0,,-,58,N/A,30.25,48.0,12:53 AM,,10.0,ESE,4.6,110,Boise,Idaho,83701
1,Clear,2016-04-07 07:53:00,30.0,,-,46,N/A,30.23,50.0,1:53 AM,,10.0,SE,9.2,130,Boise,Idaho,83701
2,Clear,2016-04-07 08:53:00,30.9,,-,48,N/A,30.22,50.0,2:53 AM,,10.0,SE,5.8,140,Boise,Idaho,83701
3,Clear,2016-04-07 09:53:00,30.9,,-,58,N/A,30.21,45.0,3:53 AM,,10.0,Calm,Calm,0,Boise,Idaho,83701
4,Clear,2016-04-07 10:53:00,30.9,,-,54,N/A,30.20,46.9,4:53 AM,,10.0,SSE,10.4,150,Boise,Idaho,83701
5,Clear,2016-04-07 11:53:00,30.9,,-,60,N/A,30.19,44.1,5:53 AM,,10.0,SSW,3.5,200,Boise,Idaho,83701
6,Clear,2016-04-07 12:53:00,30.9,,-,67,N/A,30.19,41.0,6:53 AM,,10.0,SSE,4.6,150,Boise,Idaho,83701
7,Clear,2016-04-07 13:53:00,32.0,,-,63,N/A,30.19,44.1,7:53 AM,,10.0,Calm,Calm,0,Boise,Idaho,83701
8,Clear,2016-04-07 14:53:00,35.1,,-,53,N/A,30.22,52.0,8:53 AM,,10.0,SE,8.1,140,Boise,Idaho,83701
9,Clear,2016-04-07 15:53:00,34.0,,-,42,N/A,30.20,57.0,9:53 AM,,10.0,SE,9.2,130,Boise,Idaho,83701
10,Clear,2016-04-07 16:53:00,35.1,,-,37,N/A,30.19,62.1,10:53 AM,,10.0,SE,5.8,140,Boise,Idaho,83701
11,Clear,2016-04-07 17:53:00,33.1,,-,31,N/A,30.17,64.9,11:53 AM,,10.0,South,5.8,170,Boise,Idaho,83701
12,Clear,2016-04-07 18:53:00,33.1,,-,27,N/A,30.15,68.0,12:53 PM,,10.0,SSE,5.8,160,Boise,Idaho,83701
13,Clear,2016-04-07 19:53:00,34.0,,-,26,N/A,30.11,71.1,1:53 PM,,10.0,South,5.8,170,Boise,Idaho,83701
14,Clear,2016-04-07 20:53:00,33.1,,-,22,N/A,30.08,73.9,2:53 PM,,10.0,Variable,4.6,0,Boise,Idaho,83701
15,Clear,2016-04-07 21:53:00,34.0,,-,22,N/A,30.06,75.0,3:53 PM,,10.0,Calm,Calm,0,Boise,Idaho,83701
16,Clear,2016-04-07 22:53:00,36.0,,-,23,N/A,30.02,75.9,4:53 PM,,10.0,SE,4.6,140,Boise,Idaho,83701
17,Clear,2016-04-07 23:53:00,36.0,,-,24,N/A,30.01,75.0,5:53 PM,,10.0,Calm,Calm,0,Boise,Idaho,83701
18,Clear,2016-04-08 00:53:00,37.9,,-,26,N/A,30.00,75.0,6:53 PM,,10.0,South,4.6,180,Boise,Idaho,83701
19,Clear,2016-04-08 01:53:00,37.9,,-,28,N/A,29.98,73.0,7:53 PM,,10.0,South,4.6,170,Boise,Idaho,83701
20,Clear,2016-04-08 02:53:00,41.0,,-,37,N/A,29.97,68.0,8:53 PM,,10.0,Calm,Calm,0,Boise,Idaho,83701
21,Clear,2016-04-08 03:53:00,43.0,,-,52,N/A,29.99,61.0,9:53 PM,,10.0,SE,5.8,130,Boise,Idaho,83701
22,Clear,2016-04-08 04:53:00,41.0,,-,51,N/A,29.98,59.0,10:53 PM,,10.0,ESE,8.1,120,Boise,Idaho,83701
23,Clear,2016-04-08 05:53:00,41.0,,-,57,N/A,29.98,55.9,11:53 PM,,10.0,ESE,4.6,120,Boise,Idaho,83701
0,Clear,2016-04-08 06:53:00,39.9,,-,55,N/A,29.97,55.9,12:53 AM,,10.0,SE,6.9,130,Boise,Idaho,83701
1,Clear,2016-04-08 07:53:00,39.0,,-,53,N/A,29.96,55.9,1:53 AM,,10.0,ESE,8.1,120,Boise,Idaho,83701
2,Clear,2016-04-08 08:53:00,36.0,,-,47,N/A,29.96,55.9,2:53 AM,,10.0,SE,15.0,140,Boise,Idaho,83701
3,Clear,2016-04-08 09:53:00,36.0,,-,54,N/A,29.95,52.0,3:53 AM,,10.0,ESE,5.8,110,Boise,Idaho,83701
4,Clear,2016-04-08 10:53:00,36.0,,-,59,N/A,29.94,50.0,4:53 AM,,10.0,East,4.6,100,Boise,Idaho,83701
5,Clear,2016-04-08 11:53:00,34.0,,-,50,N/A,29.94,52.0,5:53 AM,,10.0,SE,3.5,130,Boise,Idaho,83701
6,Clear,2016-04-08 12:53:00,33.1,,-,56,N/A,29.95,48.0,6:53 AM,,10.0,ESE,3.5,110,Boise,Idaho,83701
7,Clear,2016-04-08 13:53:00,33.1,,-,54,N/A,29.96,48.9,7:53 AM,,10.0,Calm,Calm,0,Boise,Idaho,83701
8,Clear,2016-04-08 14:53:00,33.1,,-,45,N/A,29.96,54.0,8:53 AM,,10.0,SE,9.2,130,Boise,Idaho,83701
9,Clear,2016-04-08 15:53:00,33.1,,-,38,N/A,29.96,59.0,9:53 AM,,10.0,ESE,8.1,120,Boise,Idaho,83701
10,Clear,2016-04-08 16:53:00,33.1,,-,31,N/A,29.94,64.0,10:53 AM,,10.0,Calm,Calm,0,Boise,Idaho,83701
11,Clear,2016-04-08 17:53:00,33.1,,-,28,N/A,29.93,66.9,11:53 AM,,10.0,Calm,Calm,0,Boise,Idaho,83701
12,Clear,2016-04-08 18:53:00,35.1,,-,29,N/A,29.90,69.1,12:53 PM,,10.0,Calm,Calm,0,Boise,Idaho,83701
13,Clear,2016-04-08 19:53:00,35.1,,-,27,N/A,29.86,71.1,1:53 PM,,10.0,West,4.6,280,Boise,Idaho,83701
14,Clear,2016-04-08 20:53:00,35.1,,-,24,N/A,29.83,73.9,2:53 PM,,10.0,Variable,3.5,0,Boise,Idaho,83701
15,Clear,2016-04-08 21:53:00,34.0,,-,22,N/A,29.80,75.0,3:53 PM,,10.0,West,5.8,280,Boise,Idaho,83701
16,Clear,2016-04-08 22:53:00,34.0,,-,22,N/A,29.78,75.9,4:53 PM,,10.0,Calm,Calm,0,Boise,Idaho,83701
17,Clear,2016-04-08 23:53:00,34.0,,-,21,N/A,29.75,77.0,5:53 PM,,10.0,West,3.5,260,Boise,Idaho,83701
18,Clear,2016-04-09 00:53:00,37.0,,-,24,N/A,29.73,77.0,6:53 PM,,10.0,NNW,5.8,340,Boise,Idaho,83701
19,Clear,2016-04-09 01:53:00,39.9,,-,31,N/A,29.71,72.0,7:53 PM,,10.0,NNW,6.9,330,Boise,Idaho,83701
20,Clear,2016-04-09 02:53:00,41.0,,-,36,N/A,29.70,69.1,8:53 PM,,10.0,Calm,Calm,0,Boise,Idaho,83701
21,Clear,2016-04-09 03:53:00,42.1,,-,50,N/A,29.71,61.0,9:53 PM,,10.0,Calm,Calm,0,Boise,Idaho,83701
22,Clear,2016-04-09 04:53:00,39.9,,-,49,N/A,29.70,59.0,10:53 PM,,10.0,SE,5.8,130,Boise,Idaho,83701
23,Clear,2016-04-09 05:53:00,39.0,,-,51,N/A,29.69,57.0,11:53 PM,,10.0,SE,5.8,130,Boise,Idaho,83701
0,Clear,2016-04-09 06:53:00,39.0,,-,51,N/A,29.68,57.0,12:53 AM,,10.0,SE,3.5,140,Boise,Idaho,83701
1,Clear,2016-04-09 07:53:00,37.9,,-,51,N/A,29.68,55.9,1:53 AM,,10.0,SE,4.6,130,Boise,Idaho,83701
2,Clear,2016-04-09 08:53:00,37.0,,-,55,N/A,29.67,53.1,2:53 AM,,10.0,ESE,3.5,110,Boise,Idaho,83701
3,Clear,2016-04-09 09:53:00,36.0,,-,52,N/A,29.66,53.1,3:53 AM,,10.0,Calm,Calm,0,Boise,Idaho,83701
4,Clear,2016-04-09 10:53:00,36.0,,-,56,N/A,29.66,51.1,4:53 AM,,10.0,SE,4.6,140,Boise,Idaho,83701
5,Clear,2016-04-09 11:53:00,35.1,,-,54,N/A,29.67,51.1,5:53 AM,,10.0,ESE,4.6,110,Boise,Idaho,83701
6,Clear,2016-04-09 12:53:00,34.0,,-,56,N/A,29.68,48.9,6:53 AM,,10.0,Calm,Calm,0,Boise,Idaho,83701
7,Clear,2016-04-09 13:53:00,34.0,,-,54,N/A,29.68,50.0,7:53 AM,,10.0,SE,5.8,130,Boise,Idaho,83701
8,Clear,2016-04-09 14:53:00,35.1,,-,49,N/A,29.70,54.0,8:53 AM,,10.0,Calm,Calm,0,Boise,Idaho,83701
9,Clear,2016-04-09 15:53:00,37.9,,-,46,N/A,29.71,59.0,9:53 AM,,10.0,Calm,Calm,0,Boise,Idaho,83701
10,Clear,2016-04-09 16:53:00,37.0,,-,38,N/A,29.70,63.0,10:53 AM,,10.0,Calm,Calm,0,Boise,Idaho,83701
11,Clear,2016-04-09 17:53:00,35.1,,-,30,N/A,29.70,68.0,11:53 AM,,10.0,Calm,Calm,0,Boise,Idaho,83701
12,Clear,2016-04-09 18:53:00,36.0,,-,28,N/A,29.68,71.1,12:53 PM,,10.0,NW,3.5,320,Boise,Idaho,83701
13,Clear,2016-04-09 19:53:00,37.9,,-,28,N/A,29.65,73.0,1:53 PM,,10.0,Variable,4.6,0,Boise,Idaho,83701
14,Clear,2016-04-09 20:53:00,35.1,,-,23,N/A,29.63,75.9,2:53 PM,,10.0,West,5.8,270,Boise,Idaho,83701
15,Clear,2016-04-09 21:53:00,36.0,,-,23,N/A,29.61,77.0,3:53 PM,,10.0,NW,9.2,320,Boise,Idaho,83701
16,Clear,2016-04-09 22:53:00,36.0,,-,22,N/A,29.58,78.1,4:53 PM,,10.0,NW,9.2,320,Boise,Idaho,83701
17,Clear,2016-04-09 23:53:00,35.1,,-,22,N/A,29.56,77.0,5:53 PM,,10.0,NW,11.5,310,Boise,Idaho,83701
18,Clear,2016-04-10 00:53:00,37.9,,-,25,N/A,29.55,75.9,6:53 PM,,10.0,NNW,11.5,330,Boise,Idaho,83701
19,Clear,2016-04-10 01:53:00,42.1,,-,32,N/A,29.55,73.9,7:53 PM,,10.0,WNW,10.4,300,Boise,Idaho,83701
20,Clear,2016-04-10 02:53:00,39.9,,-,35,N/A,29.56,69.1,8:53 PM,,10.0,WNW,5.8,300,Boise,Idaho,83701
21,Clear,2016-04-10 03:53:00,41.0,,-,40,N/A,29.56,66.0,9:53 PM,,10.0,West,3.5,260,Boise,Idaho,83701
22,Clear,2016-04-10 04:53:00,39.9,,-,38,N/A,29.57,66.0,10:53 PM,,10.0,West,6.9,280,Boise,Idaho,83701
23,Clear,2016-04-10 05:53:00,41.0,,-,48,N/A,29.57,61.0,11:53 PM,,10.0,Calm,Calm,0,Boise,Idaho,83701
0,Clear,2016-04-10 06:53:00,39.0,,-,49,N/A,29.60,57.9,12:53 AM,,10.0,South,6.9,190,Boise,Idaho,83701
1,Clear,2016-04-10 07:53:00,39.0,,-,49,N/A,29.62,57.9,1:53 AM,,10.0,SSE,3.5,160,Boise,Idaho,83701
2,Clear,2016-04-10 08:53:00,39.9,,-,63,N/A,29.64,52.0,2:53 AM,,10.0,ESE,5.8,110,Boise,Idaho,83701
3,Clear,2016-04-10 09:53:00,41.0,,-,64,N/A,29.64,53.1,3:53 AM,,10.0,SE,9.2,130,Boise,Idaho,83701
4,Clear,2016-04-10 10:53:00,41.0,,-,68,N/A,29.63,51.1,4:53 AM,,10.0,SSE,9.2,150,Boise,Idaho,83701
5,Clear,2016-04-10 11:53:00,39.0,,-,57,N/A,29.65,54.0,5:53 AM,,10.0,SE,9.2,140,Boise,Idaho,83701
6,Clear,2016-04-10 12:53:00,37.9,,-,61,N/A,29.66,51.1,6:53 AM,,10.0,ESE,10.4,120,Boise,Idaho,83701
7,Clear,2016-04-10 13:53:00,37.9,,-,61,N/A,29.68,51.1,7:53 AM,,10.0,ESE,6.9,120,Boise,Idaho,83701
8,Clear,2016-04-10 14:53:00,39.9,,-,55,N/A,29.69,55.9,8:53 AM,,10.0,SE,6.9,130,Boise,Idaho,83701
9,Clear,2016-04-10 15:53:00,39.9,,-,46,N/A,29.70,61.0,9:53 AM,,10.0,ESE,6.9,120,Boise,Idaho,83701
10,Clear,2016-04-10 16:53:00,43.0,,-,45,N/A,29.70,64.9,10:53 AM,,10.0,SSE,11.5,160,Boise,Idaho,83701
11,Clear,2016-04-10 17:53:00,43.0,,-,42,N/A,29.71,66.9,11:53 AM,,10.0,SSW,5.8,200,Boise,Idaho,83701
12,Clear,2016-04-10 18:53:00,42.1,,-,38,N/A,29.70,69.1,12:53 PM,,10.0,Calm,Calm,0,Boise,Idaho,83701
13,Clear,2016-04-10 19:53:00,43.0,,-,36,N/A,29.68,71.1,1:53 PM,,10.0,Variable,3.5,0,Boise,Idaho,83701
14,Clear,2016-04-10 20:53:00,37.9,,-,28,N/A,29.68,73.0,2:53 PM,,10.0,WNW,5.8,290,Boise,Idaho,83701
15,Clear,2016-04-10 21:53:00,39.9,,-,29,N/A,29.66,73.9,3:53 PM,,10.0,WNW,11.5,290,Boise,Idaho,83701
16,Clear,2016-04-10 22:53:00,36.0,,-,25,N/A,29.65,73.9,4:53 PM,,10.0,West,9.2,270,Boise,Idaho,83701
17,Clear,2016-04-10 23:53:00,37.0,,-,26,N/A,29.65,73.9,5:53 PM,,10.0,NNW,10.4,340,Boise,Idaho,83701
18,Clear,2016-04-11 00:53:00,35.1,,-,24,N/A,29.65,73.9,6:53 PM,,10.0,North,11.5,350,Boise,Idaho,83701
19,Clear,2016-04-11 01:53:00,30.9,,-,23,N/A,29.65,71.1,7:53 PM,,10.0,NW,10.4,310,Boise,Idaho,83701
20,Clear,2016-04-11 02:53:00,30.0,,-,25,N/A,29.67,66.9,8:53 PM,,10.0,WNW,5.8,300,Boise,Idaho,83701
21,Clear,2016-04-11 03:53:00,30.9,,-,27,N/A,29.70,66.0,9:53 PM,,10.0,WNW,3.5,290,Boise,Idaho,83701
22,Clear,2016-04-11 04:53:00,32.0,,-,34,N/A,29.72,61.0,10:53 PM,,10.0,Calm,Calm,0,Boise,Idaho,83701
23,Clear,2016-04-11 05:53:00,34.0,,-,45,N/A,29.75,55.0,11:53 PM,,10.0,SE,4.6,130,Boise,Idaho,83701
0,Clear,2016-04-11 06:53:00,37.0,,19.6,47,N/A,29.78,57.0,12:53 AM,,10.0,SE,16.1,130,Boise,Idaho,83701
1,Clear,2016-04-11 07:53:00,41.0,,-,55,N/A,29.80,57.0,1:53 AM,,10.0,SE,8.1,130,Boise,Idaho,83701
2,Clear,2016-04-11 08:53:00,41.0,,-,64,N/A,29.82,53.1,2:53 AM,,10.0,South,4.6,170,Boise,Idaho,83701
3,Clear,2016-04-11 09:53:00,39.9,,-,71,N/A,29.83,48.9,3:53 AM,,10.0,Calm,Calm,0,Boise,Idaho,83701
4,Clear,2016-04-11 10:53:00,37.0,,-,61,N/A,29.85,50.0,4:53 AM,,10.0,SE,9.2,140,Boise,Idaho,83701
5,Clear,2016-04-11 11:53:00,37.0,,-,66,N/A,29.86,48.0,5:53 AM,,10.0,SE,5.8,130,Boise,Idaho,83701
6,Clear,2016-04-11 12:53:00,36.0,,-,66,N/A,29.87,46.9,6:53 AM,,10.0,SE,8.1,140,Boise,Idaho,83701
7,Clear,2016-04-11 13:53:00,37.0,,-,66,N/A,29.91,48.0,7:53 AM,,10.0,SE,5.8,130,Boise,Idaho,83701
8,Clear,2016-04-11 14:53:00,37.9,,-,55,N/A,29.92,54.0,8:53 AM,,10.0,ESE,8.1,120,Boise,Idaho,83701
9,Clear,2016-04-11 15:53:00,39.9,,-,47,N/A,29.92,60.1,9:53 AM,,10.0,SE,5.8,140,Boise,Idaho,83701
10,Clear,2016-04-11 16:53:00,43.0,,-,48,N/A,29.94,63.0,10:53 AM,,10.0,SW,4.6,230,Boise,Idaho,83701
11,Clear,2016-04-11 17:53:00,42.1,,-,45,N/A,29.96,64.0,11:53 AM,,10.0,Variable,4.6,0,Boise,Idaho,83701
12,Clear,2016-04-11 18:53:00,39.9,,-,37,N/A,29.94,66.9,12:53 PM,,10.0,Calm,Calm,0,Boise,Idaho,83701
13,Clear,2016-04-11 19:53:00,39.0,,-,32,N/A,29.93,70.0,1:53 PM,,10.0,WNW,4.6,290,Boise,Idaho,83701
14,Clear,2016-04-11 20:53:00,39.9,,-,31,N/A,29.92,72.0,2:53 PM,,10.0,NNW,8.1,330,Boise,Idaho,83701
15,Clear,2016-04-11 21:53:00,39.0,,-,28,N/A,29.90,73.9,3:53 PM,,10.0,North,8.1,360,Boise,Idaho,83701
16,Clear,2016-04-11 22:53:00,36.0,,-,26,N/A,29.88,73.0,4:53 PM,,10.0,NW,9.2,310,Boise,Idaho,83701
17,Clear,2016-04-11 23:53:00,35.1,,-,24,N/A,29.88,73.9,5:53 PM,,10.0,West,9.2,280,Boise,Idaho,83701
18,Clear,2016-04-12 00:53:00,33.1,,-,23,N/A,29.88,73.0,6:53 PM,,10.0,WNW,9.2,290,Boise,Idaho,83701
19,Clear,2016-04-12 01:53:00,35.1,,-,28,N/A,29.88,70.0,7:53 PM,,10.0,WNW,9.2,300,Boise,Idaho,83701
20,Clear,2016-04-12 02:53:00,37.0,,-,34,N/A,29.88,66.0,8:53 PM,,10.0,NNW,3.5,330,Boise,Idaho,83701
21,Clear,2016-04-12 03:53:00,36.0,,-,38,N/A,29.89,62.1,9:53 PM,,10.0,Calm,Calm,0,Boise,Idaho,83701
22,Clear,2016-04-12 04:53:00,36.0,,-,47,N/A,29.89,55.9,10:53 PM,,10.0,ESE,5.8,120,Boise,Idaho,83701
23,Clear,2016-04-12 05:53:00,37.9,,-,51,N/A,29.90,55.9,11:53 PM,,10.0,SE,8.1,130,Boise,Idaho,83701
0,Clear,2016-04-12 06:53:00,37.0,,-,51,N/A,29.90,55.0,12:53 AM,,10.0,SE,10.4,130,Boise,Idaho,83701
1,Clear,2016-04-12 07:53:00,37.0,,-,49,N/A,29.90,55.9,1:53 AM,,10.0,SE,11.5,130,Boise,Idaho,83701
2,Clear,2016-04-12 08:53:00,37.0,,-,49,N/A,29.90,55.9,2:53 AM,,10.0,ESE,10.4,120,Boise,Idaho,83701
3,Clear,2016-04-12 09:53:00,37.0,,-,53,N/A,29.90,54.0,3:53 AM,,10.0,SE,9.2,130,Boise,Idaho,83701
4,Clear,2016-04-12 10:53:00,37.0,,-,55,N/A,29.90,53.1,4:53 AM,,10.0,SE,9.2,140,Boise,Idaho,83701
5,Clear,2016-04-12 11:53:00,37.0,,-,57,N/A,29.90,52.0,5:53 AM,,10.0,SE,11.5,130,Boise,Idaho,83701
6,Clear,2016-04-12 12:53:00,37.0,,-,55,N/A,29.92,53.1,6:53 AM,,10.0,SE,13.8,140,Boise,Idaho,83701
7,Clear,2016-04-12 13:53:00,37.0,,-,55,N/A,29.95,53.1,7:53 AM,,10.0,ESE,4.6,110,Boise,Idaho,83701
8,Partly Cloudy,2016-04-12 14:53:00,37.9,,-,53,N/A,29.98,55.0,8:53 AM,,10.0,ESE,5.8,110,Boise,Idaho,83701
9,Clear,2016-04-12 15:53:00,39.0,,-,48,N/A,29.99,59.0,9:53 AM,,10.0,ESE,4.6,110,Boise,Idaho,83701
10,Clear,2016-04-12 16:53:00,41.0,,-,43,N/A,30.00,64.0,10:53 AM,,10.0,NW,6.9,310,Boise,Idaho,83701
11,Partly Cloudy,2016-04-12 17:53:00,39.9,,-,37,N/A,29.99,66.9,11:53 AM,,10.0,NNW,10.4,330,Boise,Idaho,83701
12,Clear,2016-04-12 18:53:00,39.0,,19.6,35,N/A,29.99,68.0,12:53 PM,,10.0,West,9.2,260,Boise,Idaho,83701
13,Scattered Clouds,2016-04-12 19:53:00,42.1,,23.0,39,N/A,29.97,68.0,1:53 PM,,10.0,NW,19.6,310,Boise,Idaho,83701
14,Mostly Cloudy,2016-04-12 20:53:00,43.0,,23.0,46,N/A,29.98,64.0,2:53 PM,,10.0,NW,17.3,310,Boise,Idaho,83701
15,Mostly Cloudy,2016-04-12 21:53:00,44.1,,-,47,N/A,29.97,64.9,3:53 PM,,10.0,NW,15.0,320,Boise,Idaho,83701
16,Overcast,2016-04-12 22:53:00,45.0,,-,53,N/A,29.98,62.1,4:53 PM,,10.0,WNW,21.9,300,Boise,Idaho,83701
17,Overcast,2016-04-12 23:53:00,45.0,,-,62,N/A,30.00,57.9,5:53 PM,,10.0,WNW,11.5,300,Boise,Idaho,83701
18,Overcast,2016-04-13 00:53:00,46.9,,-,69,0.00,29.99,57.0,6:53 PM,,10.0,NNW,6.9,330,Boise,Idaho,83701
19,Partly Cloudy,2016-04-13 01:53:00,46.0,,-,67,N/A,29.97,57.0,7:53 PM,,10.0,NW,5.8,320,Boise,Idaho,83701
20,Light Rain,2016-04-13 02:53:00,48.0,Rain,-,75,0.00,29.99,55.9,8:53 PM,,10.0,West,6.9,260,Boise,Idaho,83701
21,Light Rain,2016-04-13 03:53:00,48.0,Rain,-,77,0.00,29.99,55.0,9:53 PM,,10.0,West,3.5,270,Boise,Idaho,83701
22,Overcast,2016-04-13 04:53:00,48.9,,-,83,0.00,29.99,54.0,10:53 PM,,10.0,NW,8.1,310,Boise,Idaho,83701
23,Light Rain,2016-04-13 05:53:00,48.9,Rain,-,89,0.00,29.99,52.0,11:53 PM,,10.0,NW,8.1,310,Boise,Idaho,83701
0,Light Rain,2016-04-13 06:53:00,48.9,Rain,-,92,0.02,30.00,51.1,12:53 AM,,7.0,WNW,8.1,300,Boise,Idaho,83701
1,Light Rain,2016-04-13 07:53:00,48.0,Rain,-,89,0.03,30.01,51.1,1:53 AM,,9.0,NE,5.8,50,Boise,Idaho,83701
2,Light Rain,2016-04-13 08:53:00,48.9,Rain,-,96,0.00,30.02,50.0,2:53 AM,,10.0,WNW,4.6,300,Boise,Idaho,83701
3,Light Rain,2016-04-13 09:19:00,42.8,Rain,32.2,93,0.01,30.08,44.6,3:19 AM,,6.0,NW,23.0,310,Boise,Idaho,83701
4,Light Rain,2016-04-13 09:30:00,42.8,Rain,28.8,93,0.01,30.09,44.6,3:30 AM,,5.0,NW,19.6,310,Boise,Idaho,83701
5,Light Rain,2016-04-13 09:53:00,44.1,Rain,-,100,0.04,30.07,44.1,3:53 AM,,7.0,NW,15.0,320,Boise,Idaho,83701
6,Overcast,2016-04-13 10:53:00,44.1,,-,97,0.00,30.08,45.0,4:53 AM,,10.0,NW,9.2,320,Boise,Idaho,83701
7,Overcast,2016-04-13 11:53:00,41.0,,-,80,N/A,30.06,46.9,5:53 AM,,10.0,NE,4.6,40,Boise,Idaho,83701
8,Partly Cloudy,2016-04-13 12:53:00,41.0,,-,89,N/A,30.08,44.1,6:53 AM,,10.0,WSW,6.9,250,Boise,Idaho,83701
9,Clear,2016-04-13 13:53:00,41.0,,-,89,N/A,30.11,44.1,7:53 AM,,10.0,Calm,Calm,0,Boise,Idaho,83701
10,Clear,2016-04-13 14:53:00,41.0,,-,86,N/A,30.12,45.0,8:53 AM,,10.0,SSE,3.5,160,Boise,Idaho,83701
11,Clear,2016-04-13 15:53:00,41.0,,-,77,N/A,30.10,48.0,9:53 AM,,10.0,Calm,Calm,0,Boise,Idaho,83701
12,Clear,2016-04-13 16:53:00,41.0,,-,68,N/A,30.09,51.1,10:53 AM,,10.0,Calm,Calm,0,Boise,Idaho,83701
13,Clear,2016-04-13 17:53:00,37.9,,-,53,N/A,30.08,55.0,11:53 AM,,10.0,Variable,5.8,0,Boise,Idaho,83701
14,Clear,2016-04-13 18:53:00,35.1,,-,44,N/A,30.05,57.0,12:53 PM,,10.0,Variable,3.5,0,Boise,Idaho,83701
15,Clear,2016-04-13 19:53:00,34.0,,-,38,N/A,30.01,60.1,1:53 PM,,10.0,Variable,4.6,0,Boise,Idaho,83701
16,Clear,2016-04-13 20:53:00,30.9,,-,33,N/A,29.97,60.1,2:53 PM,,10.0,Calm,Calm,0,Boise,Idaho,83701
17,Mostly Cloudy,2016-04-13 21:53:00,33.1,,-,35,N/A,29.94,61.0,3:53 PM,,10.0,South,6.9,180,Boise,Idaho,83701
18,Overcast,2016-04-13 22:53:00,33.1,,-,33,N/A,29.91,63.0,4:53 PM,,10.0,West,3.5,280,Boise,Idaho,83701
19,Overcast,2016-04-13 23:53:00,34.0,,-,38,N/A,29.88,60.1,5:53 PM,,10.0,South,4.6,170,Boise,Idaho,83701
20,Scattered Clouds,2016-04-14 00:53:00,34.0,,-,38,N/A,29.85,60.1,6:53 PM,,10.0,South,8.1,170,Boise,Idaho,83701
21,Clear,2016-04-14 01:53:00,37.0,,-,44,N/A,29.82,59.0,7:53 PM,,10.0,SSE,9.2,150,Boise,Idaho,83701
22,Overcast,2016-04-14 02:53:00,39.0,,-,51,N/A,29.80,57.0,8:53 PM,,10.0,SE,6.9,140,Boise,Idaho,83701
23,Light Rain,2016-04-14 03:53:00,43.0,Rain,-,71,0.03,29.81,52.0,9:53 PM,,9.0,Calm,Calm,0,Boise,Idaho,83701
24,Overcast,2016-04-14 04:53:00,46.0,,-,83,0.01,29.80,51.1,10:53 PM,,10.0,NNE,4.6,20,Boise,Idaho,83701
25,Light Rain,2016-04-14 05:38:00,46.4,Rain-Thunderstorm,-,82,0.01,29.80,51.8,11:38 PM,,10.0,Calm,Calm,0,Boise,Idaho,83701
26,Overcast,2016-04-14 05:53:00,46.0,,-,80,0.01,29.77,52.0,11:53 PM,,10.0,Calm,Calm,0,Boise,Idaho,83701
0,Overcast,2016-04-14 06:53:00,46.9,,-,86,N/A,29.75,51.1,12:53 AM,,10.0,WNW,5.8,300,Boise,Idaho,83701
1,Overcast,2016-04-14 07:00:00,46.4,Thunderstorm,-,82,N/A,29.77,51.8,1:00 AM,,10.0,Calm,Calm,0,Boise,Idaho,83701
2,Light Rain,2016-04-14 07:15:00,48.2,Rain,-,88,0.00,29.76,51.8,1:15 AM,,10.0,ENE,3.5,70,Boise,Idaho,83701
3,Overcast,2016-04-14 07:53:00,46.9,,-,83,0.02,29.73,52.0,1:53 AM,,10.0,East,3.5,90,Boise,Idaho,83701
4,Overcast,2016-04-14 08:53:00,46.0,,-,83,N/A,29.72,51.1,2:53 AM,,10.0,ESE,4.6,120,Boise,Idaho,83701
5,Mostly Cloudy,2016-04-14 09:53:00,43.0,,-,77,N/A,29.71,50.0,3:53 AM,,10.0,Calm,Calm,0,Boise,Idaho,83701
6,Overcast,2016-04-14 10:53:00,46.0,,-,86,N/A,29.70,50.0,4:53 AM,,10.0,North,4.6,350,Boise,Idaho,83701
7,Light Rain,2016-04-14 11:53:00,37.9,Rain,33.4,68,0.00,29.75,48.0,5:53 AM,,8.0,WNW,21.9,290,Boise,Idaho,83701
8,Light Rain,2016-04-14 12:53:00,37.0,Rain,-,74,0.00,29.79,45.0,6:53 AM,,10.0,West,16.1,280,Boise,Idaho,83701
9,Overcast,2016-04-14 13:53:00,37.9,,-,76,0.00,29.81,45.0,7:53 AM,,10.0,NNW,3.5,340,Boise,Idaho,83701
10,Overcast,2016-04-14 14:53:00,35.1,,-,66,N/A,29.82,46.0,8:53 AM,,10.0,Variable,3.5,0,Boise,Idaho,83701
11,Partly Cloudy,2016-04-14 15:53:00,35.1,,-,61,N/A,29.84,48.0,9:53 AM,,10.0,WSW,5.8,240,Boise,Idaho,83701
12,Scattered Clouds,2016-04-14 16:53:00,30.9,,21.9,48,N/A,29.85,50.0,10:53 AM,,10.0,WNW,11.5,290,Boise,Idaho,83701
13,Scattered Clouds,2016-04-14 17:53:00,28.9,,20.7,41,N/A,29.84,52.0,11:53 AM,,10.0,WNW,17.3,300,Boise,Idaho,83701
14,Scattered Clouds,2016-04-14 18:53:00,27.0,,20.7,37,N/A,29.83,53.1,12:53 PM,,10.0,WNW,15.0,290,Boise,Idaho,83701
15,Mostly Cloudy,2016-04-14 19:53:00,28.9,,19.6,41,N/A,29.84,52.0,1:53 PM,,10.0,NW,15.0,310,Boise,Idaho,83701
16,Partly Cloudy,2016-04-14 20:53:00,30.0,,-,38,N/A,29.81,55.0,2:53 PM,,10.0,North,9.2,10,Boise,Idaho,83701
17,Mostly Cloudy,2016-04-14 21:53:00,28.0,,-,38,N/A,29.81,53.1,3:53 PM,,10.0,North,5.8,10,Boise,Idaho,83701
18,Light Rain,2016-04-14 22:53:00,34.0,Rain,25.3,56,0.00,29.83,48.9,4:53 PM,,9.0,SSW,16.1,200,Boise,Idaho,83701
19,Light Rain,2016-04-14 23:53:00,36.0,Rain,-,63,0.01,29.86,48.0,5:53 PM,,9.0,ESE,4.6,110,Boise,Idaho,83701
20,Light Rain,2016-04-15 00:53:00,34.0,Rain,17.3,61,0.00,29.87,46.9,6:53 PM,,10.0,West,8.1,280,Boise,Idaho,83701
21,Overcast,2016-04-15 01:53:00,35.1,,-,68,0.00,29.88,45.0,7:53 PM,,10.0,South,9.2,190,Boise,Idaho,83701
22,Light Rain,2016-04-15 02:53:00,37.0,Rain,-,76,0.00,29.92,44.1,8:53 PM,,9.0,NNW,9.2,330,Boise,Idaho,83701
23,Overcast,2016-04-15 03:53:00,36.0,,-,73,0.00,29.90,44.1,9:53 PM,,10.0,ESE,3.5,110,Boise,Idaho,83701
24,Overcast,2016-04-15 04:53:00,37.0,,-,80,0.00,29.92,43.0,10:53 PM,,10.0,SSE,4.6,150,Boise,Idaho,83701
25,Overcast,2016-04-15 05:53:00,37.0,,-,76,N/A,29.92,44.1,11:53 PM,,10.0,NNW,9.2,340,Boise,Idaho,83701
0,Overcast,2016-04-15 06:45:00,35.6,,-,76,0.00,29.93,42.8,12:45 AM,,10.0,WNW,9.2,300,Boise,Idaho,83701
1,Overcast,2016-04-15 06:53:00,35.1,,-,76,0.00,29.93,42.1,12:53 AM,,10.0,WNW,6.9,300,Boise,Idaho,83701
2,Overcast,2016-04-15 07:53:00,36.0,,-,82,0.00,29.94,41.0,1:53 AM,,10.0,NNE,5.8,20,Boise,Idaho,83701
3,Overcast,2016-04-15 08:53:00,36.0,,-,82,N/A,29.94,41.0,2:53 AM,,10.0,Calm,Calm,0,Boise,Idaho,83701
4,Overcast,2016-04-15 09:53:00,36.0,,-,82,N/A,29.96,41.0,3:53 AM,,10.0,WNW,4.6,300,Boise,Idaho,83701
5,Scattered Clouds,2016-04-15 10:53:00,35.1,,-,86,N/A,29.99,39.0,4:53 AM,,10.0,WNW,3.5,300,Boise,Idaho,83701
6,Partly Cloudy,2016-04-15 11:53:00,35.1,,-,86,N/A,30.01,39.0,5:53 AM,,10.0,WNW,8.1,300,Boise,Idaho,83701
7,Mostly Cloudy,2016-04-15 12:53:00,35.1,,-,89,N/A,30.03,37.9,6:53 AM,,10.0,WNW,5.8,290,Boise,Idaho,83701
8,Mostly Cloudy,2016-04-15 13:05:00,35.6,,-,87,N/A,30.02,39.2,7:05 AM,,10.0,WNW,8.1,300,Boise,Idaho,83701
9,Overcast,2016-04-15 13:30:00,35.6,,-,87,N/A,30.03,39.2,7:30 AM,,10.0,WNW,12.7,300,Boise,Idaho,83701
10,Mostly Cloudy,2016-04-15 13:53:00,36.0,,-,89,N/A,30.06,39.0,7:53 AM,,10.0,WNW,11.5,290,Boise,Idaho,83701
11,Clear,2016-04-15 14:53:00,37.0,,-,86,N/A,30.08,41.0,8:53 AM,,10.0,WNW,12.7,300,Boise,Idaho,83701
12,Partly Cloudy,2016-04-15 15:53:00,37.0,,-,76,N/A,30.09,44.1,9:53 AM,,10.0,WNW,12.7,290,Boise,Idaho,83701
13,Partly Cloudy,2016-04-15 16:53:00,37.9,,26.5,68,N/A,30.11,48.0,10:53 AM,,10.0,NW,18.4,310,Boise,Idaho,83701
14,Partly Cloudy,2016-04-15 17:53:00,36.0,,25.3,56,N/A,30.12,51.1,11:53 AM,,10.0,NW,20.7,320,Boise,Idaho,83701
15,Mostly Cloudy,2016-04-15 18:53:00,35.1,,26.5,53,N/A,30.13,52.0,12:53 PM,,10.0,NW,17.3,320,Boise,Idaho,83701
16,Overcast,2016-04-15 19:53:00,33.1,,-,47,N/A,30.14,53.1,1:53 PM,,10.0,NNW,17.3,330,Boise,Idaho,83701
17,Mostly Cloudy,2016-04-15 20:53:00,32.0,,31.1,39,N/A,30.13,57.0,2:53 PM,,10.0,NW,26.5,320,Boise,Idaho,83701
18,Mostly Cloudy,2016-04-15 21:53:00,30.0,,25.3,36,N/A,30.14,57.0,3:53 PM,,10.0,NNW,19.6,340,Boise,Idaho,83701
19,Partly Cloudy,2016-04-15 22:53:00,30.0,,28.8,36,N/A,30.14,57.0,4:53 PM,,10.0,NW,21.9,320,Boise,Idaho,83701
20,Clear,2016-04-15 23:53:00,28.9,,29.9,34,N/A,30.14,57.0,5:53 PM,,10.0,NNW,16.1,330,Boise,Idaho,83701
21,Partly Cloudy,2016-04-16 00:53:00,30.0,,27.6,36,N/A,30.14,57.0,6:53 PM,,10.0,NW,20.7,310,Boise,Idaho,83701
22,Clear,2016-04-16 01:53:00,30.0,,28.8,38,N/A,30.15,55.0,7:53 PM,,10.0,NW,19.6,320,Boise,Idaho,83701
23,Clear,2016-04-16 02:53:00,30.9,,23.0,45,N/A,30.17,52.0,8:53 PM,,10.0,NNW,16.1,330,Boise,Idaho,83701
24,Clear,2016-04-16 03:53:00,32.0,,-,52,N/A,30.20,48.9,9:53 PM,,10.0,NNW,12.7,340,Boise,Idaho,83701
25,Clear,2016-04-16 04:53:00,30.9,,-,54,N/A,30.22,46.9,10:53 PM,,10.0,WNW,8.1,290,Boise,Idaho,83701
26,Clear,2016-04-16 05:53:00,32.0,,-,58,N/A,30.22,46.0,11:53 PM,,10.0,WNW,6.9,290,Boise,Idaho,83701
0,Clear,2016-04-16 06:53:00,32.0,,-,63,N/A,30.23,44.1,12:53 AM,,10.0,West,3.5,270,Boise,Idaho,83701
1,Clear,2016-04-16 07:53:00,32.0,,-,73,N/A,30.24,39.9,1:53 AM,,10.0,SW,3.5,230,Boise,Idaho,83701
2,Clear,2016-04-16 08:53:00,30.9,,-,76,N/A,30.24,37.9,2:53 AM,,10.0,Calm,Calm,0,Boise,Idaho,83701
3,Clear,2016-04-16 09:53:00,30.9,,-,79,N/A,30.24,37.0,3:53 AM,,10.0,Calm,Calm,0,Boise,Idaho,83701
4,Clear,2016-04-16 10:53:00,30.9,,-,82,N/A,30.26,36.0,4:53 AM,,10.0,Calm,Calm,0,Boise,Idaho,83701
5,Clear,2016-04-16 11:53:00,30.9,,-,82,N/A,30.28,36.0,5:53 AM,,10.0,Calm,Calm,0,Boise,Idaho,83701
6,Clear,2016-04-16 12:53:00,30.0,,-,85,N/A,30.30,34.0,6:53 AM,,10.0,Calm,Calm,0,Boise,Idaho,83701
7,Clear,2016-04-16 13:53:00,32.0,,-,86,N/A,30.31,36.0,7:53 AM,,10.0,Calm,Calm,0,Boise,Idaho,83701
8,Clear,2016-04-16 14:53:00,33.1,,-,77,N/A,30.34,39.9,8:53 AM,,10.0,Calm,Calm,0,Boise,Idaho,83701
9,Clear,2016-04-16 15:53:00,33.1,,-,68,N/A,30.34,43.0,9:53 AM,,10.0,Calm,Calm,0,Boise,Idaho,83701
10,Clear,2016-04-16 16:53:00,33.1,,-,56,N/A,30.33,48.0,10:53 AM,,10.0,WNW,6.9,290,Boise,Idaho,83701
11,Clear,2016-04-16 17:53:00,33.1,,-,47,N/A,30.31,53.1,11:53 AM,,10.0,NNW,8.1,340,Boise,Idaho,83701
12,Clear,2016-04-16 18:53:00,34.0,,-,42,N/A,30.30,57.0,12:53 PM,,10.0,NW,10.4,320,Boise,Idaho,83701
13,Clear,2016-04-16 19:53:00,30.9,,-,36,N/A,30.29,57.9,1:53 PM,,10.0,Variable,6.9,0,Boise,Idaho,83701
14,Clear,2016-04-16 20:53:00,30.9,,-,32,N/A,30.27,61.0,2:53 PM,,10.0,WNW,9.2,300,Boise,Idaho,83701
15,Clear,2016-04-16 21:53:00,33.1,,18.4,33,N/A,30.25,63.0,3:53 PM,,10.0,NW,12.7,320,Boise,Idaho,83701
16,Clear,2016-04-16 22:53:00,30.0,,-,28,N/A,30.25,64.0,4:53 PM,,10.0,WNW,11.5,290,Boise,Idaho,83701
17,Clear,2016-04-16 23:53:00,32.0,,-,29,N/A,30.23,64.9,5:53 PM,,10.0,NNW,17.3,330,Boise,Idaho,83701
18,Clear,2016-04-17 00:53:00,32.0,,-,31,N/A,30.23,63.0,6:53 PM,,10.0,NW,16.1,320,Boise,Idaho,83701
19,Clear,2016-04-17 01:53:00,30.9,,-,32,N/A,30.24,61.0,7:53 PM,,10.0,NNW,12.7,330,Boise,Idaho,83701
20,Clear,2016-04-17 02:53:00,30.9,,-,37,N/A,30.25,57.0,8:53 PM,,10.0,NW,8.1,310,Boise,Idaho,83701
21,Clear,2016-04-17 03:53:00,30.9,,-,40,N/A,30.27,55.0,9:53 PM,,10.0,NW,8.1,320,Boise,Idaho,83701
22,Clear,2016-04-17 04:53:00,32.0,,-,42,N/A,30.26,55.0,10:53 PM,,10.0,WNW,5.8,290,Boise,Idaho,83701
23,Clear,2016-04-17 05:53:00,33.1,,-,50,N/A,30.26,51.1,11:53 PM,,10.0,WNW,9.2,300,Boise,Idaho,83701
0,Clear,2016-04-17 06:53:00,33.1,,-,56,N/A,30.26,48.0,12:53 AM,,10.0,SE,3.5,140,Boise,Idaho,83701
1,Clear,2016-04-17 07:53:00,34.0,,-,63,N/A,30.27,46.0,1:53 AM,,10.0,SE,6.9,140,Boise,Idaho,83701
2,Clear,2016-04-17 08:53:00,32.0,,-,58,N/A,30.27,46.0,2:53 AM,,10.0,South,4.6,190,Boise,Idaho,83701
3,Clear,2016-04-17 09:53:00,32.0,,-,60,N/A,30.29,45.0,3:53 AM,,10.0,SSE,6.9,160,Boise,Idaho,83701
4,Clear,2016-04-17 10:53:00,32.0,,-,60,N/A,30.28,45.0,4:53 AM,,10.0,SE,8.1,130,Boise,Idaho,83701
5,Clear,2016-04-17 11:53:00,32.0,,-,56,N/A,30.29,46.9,5:53 AM,,10.0,SE,10.4,140,Boise,Idaho,83701
6,Clear,2016-04-17 12:53:00,32.0,,-,60,N/A,30.31,45.0,6:53 AM,,10.0,SE,11.5,140,Boise,Idaho,83701
7,Clear,2016-04-17 13:53:00,32.0,,-,60,N/A,30.33,45.0,7:53 AM,,10.0,SSE,9.2,150,Boise,Idaho,83701
8,Clear,2016-04-17 14:53:00,32.0,,-,50,N/A,30.34,50.0,8:53 AM,,10.0,SSE,8.1,160,Boise,Idaho,83701
9,Clear,2016-04-17 15:53:00,33.1,,-,43,N/A,30.35,55.0,9:53 AM,,10.0,ESE,4.6,110,Boise,Idaho,83701
10,Clear,2016-04-17 16:53:00,27.0,,20.7,29,N/A,30.33,59.0,10:53 AM,,10.0,SE,16.1,140,Boise,Idaho,83701
11,Clear,2016-04-17 17:53:00,27.0,,-,26,N/A,30.32,62.1,11:53 AM,,10.0,SE,12.7,130,Boise,Idaho,83701
12,Clear,2016-04-17 18:53:00,27.0,,16.1,26,N/A,30.31,63.0,12:53 PM,,10.0,SSE,9.2,160,Boise,Idaho,83701
13,Clear,2016-04-17 19:53:00,27.0,,-,23,N/A,30.29,66.0,1:53 PM,,10.0,SSW,5.8,200,Boise,Idaho,83701
14,Clear,2016-04-17 20:53:00,26.1,,-,22,N/A,30.27,66.0,2:53 PM,,10.0,Calm,Calm,0,Boise,Idaho,83701
15,Clear,2016-04-17 21:53:00,27.0,,-,21,N/A,30.23,69.1,3:53 PM,,10.0,Variable,3.5,0,Boise,Idaho,83701
16,Clear,2016-04-17 22:53:00,24.1,,-,18,N/A,30.21,69.1,4:53 PM,,10.0,Calm,Calm,0,Boise,Idaho,83701
17,Clear,2016-04-17 23:53:00,26.1,,-,19,N/A,30.18,70.0,5:53 PM,,10.0,West,8.1,280,Boise,Idaho,83701
18,Clear,2016-04-18 00:53:00,28.0,,-,21,N/A,30.17,70.0,6:53 PM,,10.0,NNW,8.1,330,Boise,Idaho,83701
19,Clear,2016-04-18 01:53:00,34.0,,-,30,N/A,30.16,66.9,7:53 PM,,10.0,WNW,11.5,300,Boise,Idaho,83701
20,Clear,2016-04-18 02:53:00,35.1,,-,35,N/A,30.16,63.0,8:53 PM,,10.0,West,4.6,280,Boise,Idaho,83701
21,Clear,2016-04-18 03:53:00,35.1,,-,41,N/A,30.17,59.0,9:53 PM,,10.0,WNW,5.8,300,Boise,Idaho,83701
22,Clear,2016-04-18 04:53:00,36.0,,-,45,N/A,30.17,57.0,10:53 PM,,10.0,NNW,3.5,330,Boise,Idaho,83701
23,Clear,2016-04-18 05:53:00,36.0,,-,51,N/A,30.17,54.0,11:53 PM,,10.0,Calm,Calm,0,Boise,Idaho,83701
0,Clear,2016-04-18 06:53:00,37.0,,-,61,N/A,30.18,50.0,12:53 AM,,10.0,SE,6.9,130,Boise,Idaho,83701
1,Clear,2016-04-18 07:53:00,37.9,,-,66,N/A,30.19,48.9,1:53 AM,,10.0,ESE,4.6,120,Boise,Idaho,83701
2,Clear,2016-04-18 08:53:00,37.9,,-,66,N/A,30.19,48.9,2:53 AM,,10.0,SE,10.4,130,Boise,Idaho,83701
3,Clear,2016-04-18 09:53:00,37.0,,-,64,N/A,30.18,48.9,3:53 AM,,10.0,SE,11.5,140,Boise,Idaho,83701
4,Clear,2016-04-18 10:53:00,34.0,,-,52,N/A,30.20,51.1,4:53 AM,,10.0,SSE,13.8,160,Boise,Idaho,83701
5,Clear,2016-04-18 11:53:00,30.9,,-,54,N/A,30.21,46.9,5:53 AM,,10.0,SSE,11.5,150,Boise,Idaho,83701
6,Clear,2016-04-18 12:53:00,33.1,,-,56,N/A,30.23,48.0,6:53 AM,,10.0,ESE,11.5,120,Boise,Idaho,83701
7,Clear,2016-04-18 13:53:00,30.0,,-,46,N/A,30.23,50.0,7:53 AM,,10.0,ESE,10.4,110,Boise,Idaho,83701
8,Clear,2016-04-18 14:53:00,30.9,,-,41,N/A,30.25,54.0,8:53 AM,,10.0,ESE,10.4,120,Boise,Idaho,83701
9,Clear,2016-04-18 15:53:00,26.1,,-,27,N/A,30.26,60.1,9:53 AM,,10.0,SE,10.4,130,Boise,Idaho,83701
10,Clear,2016-04-18 16:53:00,23.0,,-,22,N/A,30.25,63.0,10:53 AM,,10.0,SSE,13.8,150,Boise,Idaho,83701
11,Clear,2016-04-18 17:53:00,23.0,,-,20,N/A,30.25,64.9,11:53 AM,,10.0,SSE,10.4,150,Boise,Idaho,83701
12,Clear,2016-04-18 18:53:00,21.9,,-,19,N/A,30.24,66.0,12:53 PM,,10.0,South,8.1,190,Boise,Idaho,83701
13,Clear,2016-04-18 19:53:00,23.0,,-,19,N/A,30.21,66.9,1:53 PM,,10.0,Variable,3.5,0,Boise,Idaho,83701
14,Clear,2016-04-18 20:53:00,23.0,,-,17,N/A,30.18,70.0,2:53 PM,,10.0,NW,5.8,310,Boise,Idaho,83701
15,Clear,2016-04-18 21:53:00,24.1,,-,18,N/A,30.16,70.0,3:53 PM,,10.0,WNW,4.6,290,Boise,Idaho,83701
16,Clear,2016-04-18 22:53:00,25.0,,-,18,N/A,30.13,71.1,4:53 PM,,10.0,WNW,8.1,300,Boise,Idaho,83701
17,Clear,2016-04-18 23:53:00,25.0,,-,18,N/A,30.12,71.1,5:53 PM,,10.0,NW,9.2,320,Boise,Idaho,83701
18,Clear,2016-04-19 00:53:00,28.0,,-,20,N/A,30.10,71.1,6:53 PM,,10.0,North,9.2,350,Boise,Idaho,83701
19,Clear,2016-04-19 01:53:00,28.9,,-,23,N/A,30.10,68.0,7:53 PM,,10.0,NW,6.9,320,Boise,Idaho,83701
20,Clear,2016-04-19 02:53:00,28.9,,-,27,N/A,30.09,64.0,8:53 PM,,10.0,WNW,5.8,300,Boise,Idaho,83701
21,Clear,2016-04-19 03:53:00,28.9,,-,30,N/A,30.10,61.0,9:53 PM,,10.0,Calm,Calm,0,Boise,Idaho,83701
22,Clear,2016-04-19 04:53:00,30.9,,-,40,N/A,30.11,55.0,10:53 PM,,10.0,ESE,3.5,120,Boise,Idaho,83701
23,Clear,2016-04-19 05:53:00,32.0,,-,42,N/A,30.10,55.0,11:53 PM,,10.0,ESE,8.1,110,Boise,Idaho,83701
0,Clear,2016-04-19 06:53:00,35.1,,-,53,N/A,30.10,52.0,12:53 AM,,10.0,SE,9.2,130,Boise,Idaho,83701
1,Clear,2016-04-19 07:53:00,36.0,,-,56,N/A,30.10,51.1,1:53 AM,,10.0,SE,8.1,130,Boise,Idaho,83701
2,Clear,2016-04-19 08:01:00,35.6,,-,54,N/A,30.13,51.8,2:01 AM,,10.0,SE,6.9,130,Boise,Idaho,83701
3,Clear,2016-04-19 08:53:00,36.0,,-,61,N/A,30.09,48.9,2:53 AM,,10.0,ESE,5.8,110,Boise,Idaho,83701
4,Clear,2016-04-19 09:53:00,36.0,,-,61,N/A,30.08,48.9,3:53 AM,,10.0,SE,9.2,130,Boise,Idaho,83701
5,Clear,2016-04-19 10:53:00,35.1,,-,59,N/A,30.08,48.9,4:53 AM,,10.0,SE,6.9,130,Boise,Idaho,83701
6,Clear,2016-04-19 11:53:00,35.1,,-,63,N/A,30.09,46.9,5:53 AM,,10.0,SE,5.8,130,Boise,Idaho,83701
7,Clear,2016-04-19 12:53:00,35.1,,-,63,N/A,30.09,46.9,6:53 AM,,10.0,ESE,6.9,120,Boise,Idaho,83701
8,Clear,2016-04-19 13:53:00,35.1,,-,61,N/A,30.09,48.0,7:53 AM,,10.0,ESE,3.5,120,Boise,Idaho,83701
9,Clear,2016-04-19 14:53:00,36.0,,-,54,N/A,30.09,52.0,8:53 AM,,10.0,Calm,Calm,0,Boise,Idaho,83701
10,Clear,2016-04-19 15:53:00,34.0,,-,41,N/A,30.08,57.9,9:53 AM,,10.0,Calm,Calm,0,Boise,Idaho,83701
11,Clear,2016-04-19 16:53:00,33.1,,-,34,N/A,30.07,62.1,10:53 AM,,10.0,West,4.6,260,Boise,Idaho,83701
12,Clear,2016-04-19 17:04:00,35.6,,-,37,N/A,30.10,62.6,11:04 AM,,10.0,Calm,Calm,0,Boise,Idaho,83701
13,Clear,2016-04-19 17:53:00,34.0,,-,32,N/A,30.05,64.9,11:53 AM,,10.0,NW,4.6,310,Boise,Idaho,83701
14,Clear,2016-04-19 18:53:00,32.0,,-,26,N/A,30.03,68.0,12:53 PM,,10.0,NNW,6.9,330,Boise,Idaho,83701
15,Clear,2016-04-19 19:53:00,30.0,,-,22,N/A,29.99,71.1,1:53 PM,,10.0,West,11.5,280,Boise,Idaho,83701
16,Clear,2016-04-19 20:53:00,30.0,,-,20,N/A,29.97,73.0,2:53 PM,,10.0,Variable,6.9,0,Boise,Idaho,83701
17,Clear,2016-04-19 21:53:00,33.1,,18.4,22,N/A,29.94,75.0,3:53 PM,,10.0,West,13.8,270,Boise,Idaho,83701
18,Clear,2016-04-19 22:37:00,28.4,,19.6,17,N/A,29.96,77.0,4:37 PM,,10.0,NW,10.4,320,Boise,Idaho,83701
19,Clear,2016-04-19 22:53:00,28.0,,-,17,N/A,29.91,75.9,4:53 PM,,10.0,WNW,11.5,300,Boise,Idaho,83701
20,Clear,2016-04-19 23:53:00,30.9,,-,19,N/A,29.89,75.9,5:53 PM,,10.0,NW,11.5,320,Boise,Idaho,83701
21,Clear,2016-04-20 00:53:00,30.9,,-,19,N/A,29.87,75.9,6:53 PM,,10.0,NW,8.1,320,Boise,Idaho,83701
22,Clear,2016-04-20 01:53:00,30.9,,-,21,N/A,29.86,73.9,7:53 PM,,10.0,NW,10.4,310,Boise,Idaho,83701
23,Clear,2016-04-20 02:53:00,30.9,,-,24,N/A,29.86,70.0,8:53 PM,,10.0,WNW,4.6,290,Boise,Idaho,83701
24,Clear,2016-04-20 03:53:00,32.0,,-,28,N/A,29.87,66.0,9:53 PM,,10.0,Calm,Calm,0,Boise,Idaho,83701
25,Clear,2016-04-20 04:53:00,33.1,,-,35,N/A,29.87,61.0,10:53 PM,,10.0,Calm,Calm,0,Boise,Idaho,83701
26,Clear,2016-04-20 05:53:00,37.0,,-,49,N/A,29.86,55.9,11:53 PM,,10.0,SE,5.8,130,Boise,Idaho,83701
0,Clear,2016-04-20 06:53:00,37.9,,-,51,N/A,29.86,55.9,12:53 AM,,10.0,SE,8.1,130,Boise,Idaho,83701
1,Clear,2016-04-20 07:53:00,37.9,,-,55,N/A,29.86,54.0,1:53 AM,,10.0,SE,9.2,130,Boise,Idaho,83701
2,Clear,2016-04-20 08:53:00,37.0,,-,55,N/A,29.86,53.1,2:53 AM,,10.0,SE,9.2,130,Boise,Idaho,83701
3,Clear,2016-04-20 09:53:00,36.0,,-,54,N/A,29.86,52.0,3:53 AM,,10.0,ESE,8.1,120,Boise,Idaho,83701
4,Clear,2016-04-20 10:53:00,36.0,,-,56,N/A,29.86,51.1,4:53 AM,,10.0,SE,9.2,130,Boise,Idaho,83701
5,Clear,2016-04-20 11:53:00,35.1,,-,59,N/A,29.87,48.9,5:53 AM,,10.0,ESE,4.6,120,Boise,Idaho,83701
6,Clear,2016-04-20 12:53:00,34.0,,-,54,N/A,29.88,50.0,6:53 AM,,10.0,SE,8.1,130,Boise,Idaho,83701
7,Clear,2016-04-20 13:53:00,33.1,,-,50,N/A,29.89,51.1,7:53 AM,,10.0,SE,12.7,130,Boise,Idaho,83701
8,Clear,2016-04-20 14:53:00,32.0,,-,39,N/A,29.89,57.0,8:53 AM,,10.0,ESE,10.4,120,Boise,Idaho,83701
9,Clear,2016-04-20 15:53:00,32.0,,-,31,N/A,29.90,63.0,9:53 AM,,-9999.0,ESE,9.2,110,Boise,Idaho,83701
10,Unknown,2016-04-20 16:53:00,33.1,,-,27,N/A,29.90,68.0,10:53 AM,,10.0,SE,9.2,130,Boise,Idaho,83701
11,Clear,2016-04-20 17:53:00,37.0,,-,29,N/A,29.91,71.1,11:53 AM,,10.0,South,11.5,170,Boise,Idaho,83701
12,Clear,2016-04-20 18:53:00,35.1,,-,24,N/A,29.89,73.9,12:53 PM,,10.0,SSE,5.8,160,Boise,Idaho,83701
13,Clear,2016-04-20 19:53:00,33.1,,-,20,N/A,29.87,77.0,1:53 PM,,10.0,SSE,8.1,160,Boise,Idaho,83701
14,Clear,2016-04-20 20:53:00,33.1,,-,19,N/A,29.85,78.1,2:53 PM,,10.0,ESE,5.8,110,Boise,Idaho,83701
15,Clear,2016-04-20 21:53:00,28.9,,-,15,N/A,29.83,80.1,3:53 PM,,10.0,Variable,3.5,0,Boise,Idaho,83701
16,Clear,2016-04-20 22:53:00,25.0,,16.1,12,N/A,29.81,82.0,4:53 PM,,10.0,SSE,10.4,150,Boise,Idaho,83701
17,Clear,2016-04-20 23:53:00,23.0,,-,12,N/A,29.80,81.0,5:53 PM,,10.0,SSE,4.6,150,Boise,Idaho,83701
18,Clear,2016-04-21 00:53:00,21.0,,-,11,N/A,29.79,81.0,6:53 PM,,10.0,ENE,8.1,70,Boise,Idaho,83701
19,Clear,2016-04-21 01:53:00,19.9,,-,11,N/A,29.78,78.1,7:53 PM,,10.0,ESE,3.5,110,Boise,Idaho,83701
20,Clear,2016-04-21 02:53:00,34.0,,-,26,N/A,29.79,71.1,8:53 PM,,10.0,ESE,3.5,110,Boise,Idaho,83701
21,Clear,2016-04-21 03:53:00,30.0,,-,27,N/A,29.80,64.9,9:53 PM,,10.0,ESE,6.9,120,Boise,Idaho,83701
22,Clear,2016-04-21 04:53:00,32.0,,-,30,N/A,29.81,64.0,10:53 PM,,10.0,SE,9.2,130,Boise,Idaho,83701
23,Clear,2016-04-21 05:53:00,34.0,,-,36,N/A,29.80,61.0,11:53 PM,,10.0,ESE,8.1,120,Boise,Idaho,83701
0,Clear,2016-04-21 06:53:00,34.0,,-,36,N/A,29.79,61.0,12:53 AM,,10.0,SE,8.1,130,Boise,Idaho,83701
1,Clear,2016-04-21 07:53:00,34.0,,-,38,N/A,29.79,60.1,1:53 AM,,10.0,SE,10.4,130,Boise,Idaho,83701
2,Clear,2016-04-21 08:53:00,35.1,,-,41,N/A,29.78,59.0,2:53 AM,,10.0,SE,10.4,130,Boise,Idaho,83701
3,Clear,2016-04-21 09:53:00,32.0,,-,34,N/A,29.77,61.0,3:53 AM,,10.0,SE,10.4,140,Boise,Idaho,83701
4,Clear,2016-04-21 10:53:00,32.0,,-,35,N/A,29.77,60.1,4:53 AM,,10.0,SE,11.5,130,Boise,Idaho,83701
5,Clear,2016-04-21 11:53:00,33.1,,-,42,N/A,29.78,55.9,5:53 AM,,10.0,Variable,3.5,0,Boise,Idaho,83701
6,Clear,2016-04-21 12:53:00,33.1,,-,45,N/A,29.79,54.0,6:53 AM,,10.0,NNW,4.6,330,Boise,Idaho,83701
7,Clear,2016-04-21 13:53:00,35.1,,-,49,N/A,29.80,54.0,7:53 AM,,10.0,Calm,Calm,0,Boise,Idaho,83701
8,Clear,2016-04-21 14:53:00,36.0,,-,45,N/A,29.83,57.0,8:53 AM,,10.0,NW,4.6,320,Boise,Idaho,83701
9,Clear,2016-04-21 15:53:00,37.0,,-,41,N/A,29.83,61.0,9:53 AM,,10.0,Calm,Calm,0,Boise,Idaho,83701
10,Clear,2016-04-21 16:53:00,37.9,,-,34,N/A,29.82,66.9,10:53 AM,,10.0,North,3.5,10,Boise,Idaho,83701
11,Clear,2016-04-21 17:53:00,39.9,,-,32,N/A,29.81,71.1,11:53 AM,,10.0,Variable,4.6,0,Boise,Idaho,83701
12,Clear,2016-04-21 18:53:00,39.0,,-,28,N/A,29.77,73.9,12:53 PM,,10.0,Variable,4.6,0,Boise,Idaho,83701
13,Clear,2016-04-21 19:53:00,32.0,,-,16,N/A,29.73,82.9,1:53 PM,,10.0,South,15.0,170,Boise,Idaho,83701
14,Clear,2016-04-21 20:53:00,32.0,,19.6,15,N/A,29.70,84.0,2:53 PM,,10.0,SSE,11.5,150,Boise,Idaho,83701
15,Clear,2016-04-21 21:53:00,30.9,,20.7,15,N/A,29.66,84.0,3:53 PM,,10.0,SSE,15.0,150,Boise,Idaho,83701
16,Clear,2016-04-21 22:53:00,30.0,,20.7,14,N/A,29.63,84.0,4:53 PM,,10.0,SE,13.8,140,Boise,Idaho,83701
17,Clear,2016-04-21 23:53:00,28.9,,-,13,N/A,29.61,84.9,5:53 PM,,10.0,SE,15.0,130,Boise,Idaho,83701
18,Clear,2016-04-22 00:53:00,28.9,,-,14,N/A,29.59,82.9,6:53 PM,,10.0,SE,10.4,130,Boise,Idaho,83701
19,Clear,2016-04-22 01:53:00,35.1,,-,20,N/A,29.57,79.0,7:53 PM,,10.0,SE,6.9,130,Boise,Idaho,83701
20,Clear,2016-04-22 02:53:00,44.1,,-,35,N/A,29.58,73.0,8:53 PM,,10.0,Calm,Calm,0,Boise,Idaho,83701
21,Clear,2016-04-22 03:53:00,45.0,,-,45,N/A,29.60,66.9,9:53 PM,,10.0,SSW,4.6,210,Boise,Idaho,83701
22,Clear,2016-04-22 04:53:00,44.1,,-,40,N/A,29.59,69.1,10:53 PM,,10.0,ESE,3.5,120,Boise,Idaho,83701
23,Clear,2016-04-22 05:53:00,34.0,,-,27,N/A,29.57,69.1,11:53 PM,,10.0,ESE,9.2,110,Boise,Idaho,83701
0,Clear,2016-04-22 06:53:00,34.0,,-,30,N/A,29.56,66.0,12:53 AM,,10.0,SW,4.6,220,Boise,Idaho,83701
1,Clear,2016-04-22 07:53:00,35.1,,-,32,N/A,29.55,66.0,1:53 AM,,10.0,South,5.8,170,Boise,Idaho,83701
2,Clear,2016-04-22 08:53:00,32.0,,-,29,N/A,29.58,64.9,2:53 AM,,10.0,SSW,4.6,200,Boise,Idaho,83701
3,Clear,2016-04-22 09:53:00,33.1,,-,33,N/A,29.60,63.0,3:53 AM,,10.0,NE,5.8,40,Boise,Idaho,83701
4,Clear,2016-04-22 10:53:00,35.1,,-,41,N/A,29.60,59.0,4:53 AM,,10.0,East,3.5,100,Boise,Idaho,83701
5,Clear,2016-04-22 11:53:00,37.0,,-,42,N/A,29.59,60.1,5:53 AM,,10.0,South,3.5,190,Boise,Idaho,83701
6,Overcast,2016-04-22 12:53:00,35.1,,-,37,0.00,29.58,62.1,6:53 AM,,10.0,ESE,5.8,110,Boise,Idaho,83701
7,Mostly Cloudy,2016-04-22 13:53:00,36.0,,-,37,N/A,29.59,63.0,7:53 AM,,10.0,SSW,3.5,200,Boise,Idaho,83701
8,Mostly Cloudy,2016-04-22 14:34:00,37.4,,17.3,42,N/A,29.69,60.8,8:34 AM,,10.0,South,6.9,190,Boise,Idaho,83701
9,Mostly Cloudy,2016-04-22 14:37:00,37.4,,-,42,N/A,29.68,60.8,8:37 AM,,10.0,SSW,9.2,210,Boise,Idaho,83701
10,Mostly Cloudy,2016-04-22 14:53:00,35.1,,-,37,N/A,29.62,62.1,8:53 AM,,10.0,South,6.9,180,Boise,Idaho,83701
11,Mostly Cloudy,2016-04-22 15:10:00,35.6,,-,37,N/A,29.70,62.6,9:10 AM,,10.0,West,6.9,270,Boise,Idaho,83701
12,Mostly Cloudy,2016-04-22 15:53:00,35.1,,-,35,N/A,29.64,63.0,9:53 AM,,10.0,South,4.6,190,Boise,Idaho,83701
13,Partly Cloudy,2016-04-22 16:39:00,37.4,,-,35,N/A,29.69,66.2,10:39 AM,,10.0,North,4.6,10,Boise,Idaho,83701
14,Scattered Clouds,2016-04-22 16:53:00,36.0,,-,33,N/A,29.62,66.0,10:53 AM,,10.0,Calm,Calm,0,Boise,Idaho,83701
15,Mostly Cloudy,2016-04-22 17:11:00,35.6,,-,32,N/A,29.68,66.2,11:11 AM,,10.0,North,3.5,350,Boise,Idaho,83701
16,Mostly Cloudy,2016-04-22 17:53:00,35.1,,-,28,N/A,29.60,70.0,11:53 AM,,10.0,Calm,Calm,0,Boise,Idaho,83701
17,Clear,2016-04-22 18:53:00,35.1,,-,26,N/A,29.58,72.0,12:53 PM,,10.0,North,6.9,350,Boise,Idaho,83701
18,Clear,2016-04-22 19:53:00,36.0,,-,26,N/A,29.57,73.0,1:53 PM,,10.0,WNW,12.7,300,Boise,Idaho,83701
19,Clear,2016-04-22 20:53:00,34.0,,-,22,N/A,29.56,75.0,2:53 PM,,10.0,NNW,12.7,330,Boise,Idaho,83701
20,Clear,2016-04-22 21:53:00,35.1,,-,23,N/A,29.55,75.0,3:53 PM,,10.0,NW,16.1,310,Boise,Idaho,83701
21,Mostly Cloudy,2016-04-22 22:53:00,35.1,,26.5,29,N/A,29.60,69.1,4:53 PM,,10.0,West,20.7,270,Boise,Idaho,83701
22,Clear,2016-04-22 23:53:00,37.0,,21.9,32,N/A,29.61,68.0,5:53 PM,,10.0,NW,12.7,320,Boise,Idaho,83701
23,Mostly Cloudy,2016-04-23 00:53:00,37.9,,-,38,N/A,29.61,64.0,6:53 PM,,10.0,North,12.7,10,Boise,Idaho,83701
24,Overcast,2016-04-23 01:53:00,39.9,,-,44,N/A,29.67,62.1,7:53 PM,,10.0,West,13.8,260,Boise,Idaho,83701
25,Overcast,2016-04-23 02:53:00,39.9,,-,53,0.00,29.71,57.0,8:53 PM,,10.0,NW,13.8,310,Boise,Idaho,83701
26,Mostly Cloudy,2016-04-23 03:53:00,39.9,,-,55,N/A,29.73,55.9,9:53 PM,,10.0,North,9.2,10,Boise,Idaho,83701
27,Overcast,2016-04-23 04:53:00,37.9,,-,51,N/A,29.69,55.9,10:53 PM,,10.0,NNW,9.2,340,Boise,Idaho,83701
28,Light Rain,2016-04-23 05:53:00,42.1,Rain,-,64,0.00,29.68,54.0,11:53 PM,,10.0,West,9.2,280,Boise,Idaho,83701
0,Overcast,2016-04-23 06:53:00,45.0,,-,77,0.00,29.68,52.0,12:53 AM,,10.0,WNW,5.8,290,Boise,Idaho,83701
1,Overcast,2016-04-23 07:53:00,44.1,,-,77,N/A,29.68,51.1,1:53 AM,,10.0,NW,8.1,320,Boise,Idaho,83701
2,Rain,2016-04-23 08:53:00,46.0,Rain,-,86,0.05,29.69,50.0,2:53 AM,,4.0,NW,6.9,320,Boise,Idaho,83701
3,Rain,2016-04-23 09:53:00,46.0,Rain,-,93,0.12,29.70,48.0,3:53 AM,,5.0,NNW,5.8,330,Boise,Idaho,83701
4,Light Rain,2016-04-23 10:53:00,45.0,Rain,-,93,0.06,29.71,46.9,4:53 AM,,6.0,WNW,8.1,300,Boise,Idaho,83701
5,Light Rain,2016-04-23 11:40:00,44.6,Rain,-,93,0.03,29.75,46.4,5:40 AM,,8.0,NW,12.7,310,Boise,Idaho,83701
6,Light Rain,2016-04-23 11:53:00,46.9,Rain,-,100,0.04,29.71,46.9,5:53 AM,,7.0,NW,10.4,310,Boise,Idaho,83701
7,Light Rain,2016-04-23 12:00:00,46.4,Rain,-,100,0.01,29.74,46.4,6:00 AM,,6.0,WNW,12.7,300,Boise,Idaho,83701
8,Overcast,2016-04-23 12:53:00,46.9,,24.2,100,0.03,29.73,46.9,6:53 AM,,10.0,WNW,18.4,300,Boise,Idaho,83701
9,Light Rain,2016-04-23 13:53:00,46.0,Rain,-,100,0.01,29.75,46.0,7:53 AM,,8.0,WNW,21.9,300,Boise,Idaho,83701
10,Light Rain,2016-04-23 14:53:00,45.0,Rain,31.1,100,0.00,29.78,45.0,8:53 AM,,9.0,WNW,24.2,300,Boise,Idaho,83701
11,Light Rain,2016-04-23 15:53:00,45.0,Rain,28.8,100,0.07,29.80,45.0,9:53 AM,,7.0,WNW,21.9,300,Boise,Idaho,83701
12,Light Rain,2016-04-23 16:53:00,45.0,Rain,28.8,100,0.02,29.83,45.0,10:53 AM,,10.0,WNW,21.9,300,Boise,Idaho,83701
13,Light Rain,2016-04-23 17:53:00,45.0,Rain,29.9,96,0.00,29.85,46.0,11:53 AM,,10.0,NW,23.0,310,Boise,Idaho,83701
14,Light Rain,2016-04-23 18:40:00,46.4,Rain,28.8,100,0.01,29.87,46.4,12:40 PM,,7.0,NW,20.7,310,Boise,Idaho,83701
15,Light Rain,2016-04-23 18:53:00,46.9,Rain,29.9,100,0.01,29.86,46.9,12:53 PM,,10.0,NW,23.0,310,Boise,Idaho,83701
16,Light Rain,2016-04-23 19:53:00,48.0,Rain,-,93,0.00,29.87,50.0,1:53 PM,,10.0,NNW,19.6,330,Boise,Idaho,83701
17,Light Rain,2016-04-23 20:04:00,44.6,Rain,-,76,0.00,29.88,51.8,2:04 PM,,10.0,NNW,18.4,330,Boise,Idaho,83701
18,Overcast,2016-04-23 20:17:00,42.8,,26.5,71,0.00,29.89,51.8,2:17 PM,,10.0,NW,20.7,320,Boise,Idaho,83701
19,Overcast,2016-04-23 20:29:00,42.8,,29.9,71,0.00,29.89,51.8,2:29 PM,,10.0,NW,19.6,320,Boise,Idaho,83701
20,Overcast,2016-04-23 20:53:00,42.1,,-,69,0.00,29.87,52.0,2:53 PM,,10.0,NW,24.2,320,Boise,Idaho,83701
21,Overcast,2016-04-23 21:53:00,43.0,,25.3,66,N/A,29.88,54.0,3:53 PM,,10.0,NNW,12.7,330,Boise,Idaho,83701
22,Overcast,2016-04-23 22:53:00,42.1,,26.5,62,N/A,29.88,55.0,4:53 PM,,10.0,NNW,17.3,340,Boise,Idaho,83701
23,Overcast,2016-04-23 23:53:00,43.0,,26.5,62,N/A,29.89,55.9,5:53 PM,,10.0,NNW,15.0,340,Boise,Idaho,83701
24,Overcast,2016-04-24 00:53:00,42.1,,-,64,N/A,29.89,54.0,6:53 PM,,10.0,NNW,11.5,330,Boise,Idaho,83701
25,Light Rain,2016-04-24 01:53:00,42.1,Rain,-,66,0.00,29.90,53.1,7:53 PM,,10.0,NNW,10.4,330,Boise,Idaho,83701
26,Overcast,2016-04-24 02:53:00,42.1,,-,66,0.00,29.91,53.1,8:53 PM,,10.0,NNW,10.4,340,Boise,Idaho,83701
27,Mostly Cloudy,2016-04-24 03:53:00,39.0,,-,59,N/A,29.92,53.1,9:53 PM,,10.0,NNW,12.7,340,Boise,Idaho,83701
28,Clear,2016-04-24 04:53:00,39.9,,-,66,N/A,29.94,51.1,10:53 PM,,10.0,WNW,8.1,290,Boise,Idaho,83701
29,Clear,2016-04-24 05:53:00,39.9,,-,71,N/A,29.93,48.9,11:53 PM,,10.0,WNW,9.2,290,Boise,Idaho,83701
0,Clear,2016-04-24 06:53:00,39.9,,-,71,N/A,29.94,48.9,12:53 AM,,10.0,West,8.1,280,Boise,Idaho,83701
1,Clear,2016-04-24 07:53:00,41.0,,-,80,N/A,29.94,46.9,1:53 AM,,10.0,WNW,6.9,290,Boise,Idaho,83701
2,Clear,2016-04-24 08:53:00,39.9,,-,82,N/A,29.94,45.0,2:53 AM,,10.0,NNW,4.6,330,Boise,Idaho,83701
3,Clear,2016-04-24 09:53:00,39.9,,-,85,N/A,29.94,44.1,3:53 AM,,10.0,West,4.6,280,Boise,Idaho,83701
4,Clear,2016-04-24 10:53:00,39.0,,-,89,N/A,29.94,42.1,4:53 AM,,10.0,Calm,Calm,0,Boise,Idaho,83701
5,Clear,2016-04-24 11:53:00,39.0,,-,93,N/A,29.94,41.0,5:53 AM,,10.0,Calm,Calm,0,Boise,Idaho,83701
6,Clear,2016-04-24 12:53:00,37.9,,-,93,N/A,29.95,39.9,6:53 AM,,10.0,Calm,Calm,0,Boise,Idaho,83701
7,Clear,2016-04-24 13:53:00,39.9,,-,96,N/A,29.95,41.0,7:53 AM,,9.0,Calm,Calm,0,Boise,Idaho,83701
8,Scattered Clouds,2016-04-24 14:53:00,41.0,,-,89,N/A,29.96,44.1,8:53 AM,,10.0,West,4.6,260,Boise,Idaho,83701
9,Partly Cloudy,2016-04-24 15:53:00,42.1,,-,83,N/A,29.95,46.9,9:53 AM,,10.0,West,3.5,280,Boise,Idaho,83701
10,Clear,2016-04-24 16:53:00,41.0,,-,66,N/A,29.94,52.0,10:53 AM,,10.0,WNW,10.4,300,Boise,Idaho,83701
11,Scattered Clouds,2016-04-24 17:53:00,41.0,,-,62,N/A,29.93,54.0,11:53 AM,,10.0,WNW,12.7,300,Boise,Idaho,83701
12,Clear,2016-04-24 18:53:00,41.0,,-,57,N/A,29.91,55.9,12:53 PM,,10.0,NW,13.8,310,Boise,Idaho,83701
13,Partly Cloudy,2016-04-24 19:53:00,39.9,,-,53,N/A,29.89,57.0,1:53 PM,,10.0,NW,11.5,320,Boise,Idaho,83701
14,Partly Cloudy,2016-04-24 20:53:00,39.9,,-,53,N/A,29.88,57.0,2:53 PM,,10.0,NW,13.8,310,Boise,Idaho,83701
15,Clear,2016-04-24 21:53:00,39.0,,-,46,N/A,29.84,60.1,3:53 PM,,10.0,WNW,9.2,290,Boise,Idaho,83701
16,Partly Cloudy,2016-04-24 22:53:00,37.9,,-,44,N/A,29.82,60.1,4:53 PM,,10.0,WNW,13.8,300,Boise,Idaho,83701
17,Partly Cloudy,2016-04-24 23:53:00,37.9,,-,46,N/A,29.81,59.0,5:53 PM,,10.0,WNW,15.0,300,Boise,Idaho,83701
18,Mostly Cloudy,2016-04-25 00:53:00,37.9,,-,47,N/A,29.80,57.9,6:53 PM,,10.0,NW,16.1,310,Boise,Idaho,83701
19,Scattered Clouds,2016-04-25 01:53:00,39.0,,-,51,N/A,29.79,57.0,7:53 PM,,10.0,NW,12.7,320,Boise,Idaho,83701
20,Partly Cloudy,2016-04-25 02:53:00,39.0,,-,57,N/A,29.79,54.0,8:53 PM,,10.0,NNW,10.4,330,Boise,Idaho,83701
21,Clear,2016-04-25 03:53:00,39.0,,-,61,N/A,29.79,52.0,9:53 PM,,10.0,WNW,9.2,300,Boise,Idaho,83701
22,Clear,2016-04-25 04:53:00,39.0,,-,69,N/A,29.78,48.9,10:53 PM,,10.0,NW,8.1,310,Boise,Idaho,83701
23,Clear,2016-04-25 05:53:00,39.9,,-,77,N/A,29.76,46.9,11:53 PM,,10.0,NW,10.4,310,Boise,Idaho,83701
0,Partly Cloudy,2016-04-25 06:53:00,37.9,,-,71,N/A,29.75,46.9,12:53 AM,,10.0,WNW,15.0,300,Boise,Idaho,83701
1,Mostly Cloudy,2016-04-25 07:53:00,37.0,,-,71,N/A,29.75,46.0,1:53 AM,,10.0,NW,10.4,320,Boise,Idaho,83701
2,Clear,2016-04-25 08:53:00,36.0,,-,71,N/A,29.73,45.0,2:53 AM,,10.0,NW,12.7,320,Boise,Idaho,83701
3,Clear,2016-04-25 09:53:00,35.1,,-,68,N/A,29.71,45.0,3:53 AM,,10.0,WNW,13.8,300,Boise,Idaho,83701
4,Partly Cloudy,2016-04-25 10:53:00,35.1,,-,68,N/A,29.69,45.0,4:53 AM,,10.0,WNW,15.0,300,Boise,Idaho,83701
5,Overcast,2016-04-25 11:53:00,34.0,,-,65,N/A,29.69,45.0,5:53 AM,,10.0,WNW,16.1,300,Boise,Idaho,83701
6,Overcast,2016-04-25 12:53:00,33.1,,-,63,N/A,29.69,45.0,6:53 AM,,10.0,WNW,10.4,290,Boise,Idaho,83701
7,Overcast,2016-04-25 13:53:00,33.1,,-,63,N/A,29.70,45.0,7:53 AM,,10.0,WNW,11.5,290,Boise,Idaho,83701
8,Overcast,2016-04-25 14:53:00,33.1,,-,59,N/A,29.70,46.9,8:53 AM,,10.0,West,9.2,280,Boise,Idaho,83701
9,Overcast,2016-04-25 15:53:00,34.0,,-,61,N/A,29.70,46.9,9:53 AM,,10.0,WNW,13.8,290,Boise,Idaho,83701
10,Overcast,2016-04-25 16:53:00,33.1,,27.6,50,N/A,29.70,51.1,10:53 AM,,10.0,NW,21.9,310,Boise,Idaho,83701
11,Overcast,2016-04-25 17:53:00,33.1,,29.9,47,N/A,29.70,53.1,11:53 AM,,10.0,WNW,23.0,300,Boise,Idaho,83701
12,Mostly Cloudy,2016-04-25 18:53:00,32.0,,38.0,39,N/A,29.68,57.0,12:53 PM,,10.0,WNW,29.9,300,Boise,Idaho,83701
13,Mostly Cloudy,2016-04-25 19:53:00,30.9,,41.4,35,N/A,29.67,59.0,1:53 PM,,10.0,NW,27.6,310,Boise,Idaho,83701
14,Clear,2016-04-25 20:53:00,30.9,,41.4,33,N/A,29.67,60.1,2:53 PM,,10.0,NW,26.5,310,Boise,Idaho,83701
15,Clear,2016-04-25 21:53:00,30.9,,41.4,32,N/A,29.67,61.0,3:53 PM,,10.0,NW,29.9,320,Boise,Idaho,83701
16,Scattered Clouds,2016-04-25 22:53:00,30.0,,38.0,32,N/A,29.67,60.1,4:53 PM,,10.0,NNW,29.9,330,Boise,Idaho,83701
17,Clear,2016-04-25 23:53:00,30.0,,44.9,32,N/A,29.69,60.1,5:53 PM,,10.0,NW,31.1,320,Boise,Idaho,83701
18,Clear,2016-04-26 00:53:00,30.0,,40.3,33,N/A,29.70,59.0,6:53 PM,,10.0,NW,20.7,320,Boise,Idaho,83701
19,Clear,2016-04-26 01:53:00,28.9,,40.3,36,N/A,29.72,55.9,7:53 PM,,10.0,NW,26.5,320,Boise,Idaho,83701
20,Clear,2016-04-26 02:53:00,28.0,,32.2,38,N/A,29.75,53.1,8:53 PM,,10.0,NNW,24.2,330,Boise,Idaho,83701
21,Clear,2016-04-26 03:53:00,28.9,,28.8,43,N/A,29.78,51.1,9:53 PM,,10.0,NW,19.6,320,Boise,Idaho,83701
22,Clear,2016-04-26 04:53:00,28.9,,-,44,N/A,29.79,50.0,10:53 PM,,10.0,NW,21.9,310,Boise,Idaho,83701
23,Partly Cloudy,2016-04-26 05:53:00,30.9,,29.9,52,N/A,29.80,48.0,11:53 PM,,10.0,NW,20.7,320,Boise,Idaho,83701
0,Clear,2016-04-26 06:53:00,30.9,,26.5,52,N/A,29.81,48.0,12:53 AM,,10.0,NW,18.4,320,Boise,Idaho,83701
1,Clear,2016-04-26 07:53:00,30.9,,-,56,N/A,29.82,46.0,1:53 AM,,10.0,WNW,13.8,300,Boise,Idaho,83701
2,Clear,2016-04-26 08:53:00,30.9,,24.2,60,N/A,29.83,44.1,2:53 AM,,10.0,West,16.1,280,Boise,Idaho,83701
3,Clear,2016-04-26 09:53:00,30.9,,24.2,60,N/A,29.83,44.1,3:53 AM,,10.0,WNW,19.6,300,Boise,Idaho,83701
4,Clear,2016-04-26 10:53:00,30.9,,-,65,N/A,29.86,42.1,4:53 AM,,10.0,WNW,15.0,300,Boise,Idaho,83701
5,Clear,2016-04-26 11:53:00,30.0,,-,62,N/A,29.87,42.1,5:53 AM,,10.0,WNW,16.1,300,Boise,Idaho,83701
6,Clear,2016-04-26 12:53:00,30.0,,-,65,N/A,29.89,41.0,6:53 AM,,10.0,NW,11.5,310,Boise,Idaho,83701
7,Clear,2016-04-26 13:53:00,30.9,,-,62,N/A,29.91,43.0,7:53 AM,,10.0,WNW,12.7,300,Boise,Idaho,83701
8,Clear,2016-04-26 14:53:00,30.9,,-,56,N/A,29.91,46.0,8:53 AM,,10.0,NW,18.4,310,Boise,Idaho,83701
9,Clear,2016-04-26 15:53:00,32.0,,-,52,N/A,29.91,48.9,9:53 AM,,10.0,WNW,15.0,290,Boise,Idaho,83701
10,Clear,2016-04-26 16:53:00,33.1,,-,47,N/A,29.90,53.1,10:53 AM,,10.0,WNW,16.1,290,Boise,Idaho,83701
11,Clear,2016-04-26 17:53:00,33.1,,24.2,42,N/A,29.89,55.9,11:53 AM,,10.0,WNW,16.1,300,Boise,Idaho,83701
12,Clear,2016-04-26 18:53:00,33.1,,25.3,38,N/A,29.88,59.0,12:53 PM,,10.0,WNW,17.3,300,Boise,Idaho,83701
13,Clear,2016-04-26 19:53:00,33.1,,21.9,35,N/A,29.87,61.0,1:53 PM,,10.0,West,12.7,280,Boise,Idaho,83701
14,Clear,2016-04-26 20:53:00,33.1,,21.9,34,N/A,29.87,62.1,2:53 PM,,10.0,West,15.0,280,Boise,Idaho,83701
15,Mostly Cloudy,2016-04-26 21:53:00,32.0,,21.9,30,N/A,29.85,64.0,3:53 PM,,10.0,West,10.4,270,Boise,Idaho,83701
16,Clear,2016-04-26 22:53:00,32.0,,21.9,30,N/A,29.84,64.0,4:53 PM,,10.0,WNW,15.0,290,Boise,Idaho,83701
17,Clear,2016-04-26 23:53:00,32.0,,18.4,30,N/A,29.83,64.0,5:53 PM,,10.0,WNW,8.1,290,Boise,Idaho,83701
18,Clear,2016-04-27 00:53:00,32.0,,17.3,30,N/A,29.82,64.0,6:53 PM,,10.0,NW,11.5,310,Boise,Idaho,83701
19,Clear,2016-04-27 01:53:00,32.0,,-,31,N/A,29.81,63.0,7:53 PM,,10.0,WNW,8.1,290,Boise,Idaho,83701
20,Clear,2016-04-27 02:53:00,32.0,,-,35,N/A,29.82,60.1,8:53 PM,,10.0,West,3.5,270,Boise,Idaho,83701
21,Overcast,2016-04-27 03:53:00,34.0,,-,44,N/A,29.83,55.9,9:53 PM,,10.0,SW,3.5,220,Boise,Idaho,83701
22,Overcast,2016-04-27 04:53:00,33.1,,-,40,N/A,29.83,57.0,10:53 PM,,10.0,Calm,Calm,0,Boise,Idaho,83701
23,Overcast,2016-04-27 05:53:00,34.0,,-,42,N/A,29.82,57.0,11:53 PM,,10.0,Calm,Calm,0,Boise,Idaho,83701
0,Overcast,2016-04-27 06:53:00,37.9,,-,53,N/A,29.81,55.0,12:53 AM,,10.0,Calm,Calm,0,Boise,Idaho,83701
1,Overcast,2016-04-27 07:53:00,35.1,,-,47,N/A,29.80,55.0,1:53 AM,,10.0,Calm,Calm,0,Boise,Idaho,83701
2,Overcast,2016-04-27 08:53:00,35.1,,-,53,N/A,29.80,52.0,2:53 AM,,10.0,SSW,4.6,200,Boise,Idaho,83701
3,Overcast,2016-04-27 09:53:00,37.0,,-,55,N/A,29.79,53.1,3:53 AM,,10.0,ESE,4.6,120,Boise,Idaho,83701
4,Overcast,2016-04-27 10:53:00,37.9,,-,61,N/A,29.80,51.1,4:53 AM,,10.0,SE,4.6,140,Boise,Idaho,83701
5,Overcast,2016-04-27 11:53:00,39.0,,-,66,N/A,29.81,50.0,5:53 AM,,10.0,WSW,3.5,250,Boise,Idaho,83701
6,Overcast,2016-04-27 12:53:00,35.1,,-,57,N/A,29.81,50.0,6:53 AM,,10.0,Calm,Calm,0,Boise,Idaho,83701
7,Overcast,2016-04-27 13:53:00,35.1,,-,54,N/A,29.83,51.1,7:53 AM,,10.0,North,5.8,360,Boise,Idaho,83701
8,Overcast,2016-04-27 14:53:00,30.0,,-,41,N/A,29.83,53.1,8:53 AM,,10.0,WNW,11.5,300,Boise,Idaho,83701
9,Overcast,2016-04-27 15:53:00,30.0,,-,40,N/A,29.84,54.0,9:53 AM,,10.0,NW,9.2,310,Boise,Idaho,83701
10,Partly Cloudy,2016-04-27 16:53:00,32.0,,-,42,N/A,29.83,55.0,10:53 AM,,10.0,WNW,11.5,300,Boise,Idaho,83701
11,Partly Cloudy,2016-04-27 17:53:00,34.0,,-,42,N/A,29.83,57.0,11:53 AM,,10.0,NNW,10.4,330,Boise,Idaho,83701
12,Clear,2016-04-27 18:53:00,36.0,,-,44,N/A,29.82,57.9,12:53 PM,,10.0,NNW,12.7,330,Boise,Idaho,83701
13,Mostly Cloudy,2016-04-27 19:53:00,37.0,,-,44,N/A,29.81,59.0,1:53 PM,,10.0,NNW,11.5,330,Boise,Idaho,83701
14,Scattered Clouds,2016-04-27 20:53:00,37.9,,-,46,N/A,29.80,59.0,2:53 PM,,10.0,NNW,11.5,330,Boise,Idaho,83701
15,Partly Cloudy,2016-04-27 21:53:00,37.0,,-,42,N/A,29.78,60.1,3:53 PM,,10.0,NNW,15.0,330,Boise,Idaho,83701
16,Partly Cloudy,2016-04-27 22:53:00,36.0,,-,39,N/A,29.77,61.0,4:53 PM,,10.0,North,16.1,350,Boise,Idaho,83701
17,Partly Cloudy,2016-04-27 23:53:00,37.9,,-,46,N/A,29.77,59.0,5:53 PM,,10.0,North,12.7,360,Boise,Idaho,83701
18,Scattered Clouds,2016-04-28 00:53:00,37.0,,-,46,N/A,29.76,57.9,6:53 PM,,10.0,North,13.8,350,Boise,Idaho,83701
19,Partly Cloudy,2016-04-28 01:53:00,36.0,,-,45,N/A,29.75,57.0,7:53 PM,,10.0,North,9.2,350,Boise,Idaho,83701
20,Clear,2016-04-28 02:53:00,37.9,,-,53,N/A,29.76,55.0,8:53 PM,,10.0,NNW,9.2,330,Boise,Idaho,83701
21,Mostly Cloudy,2016-04-28 03:53:00,37.0,,-,53,N/A,29.76,54.0,9:53 PM,,10.0,NW,9.2,320,Boise,Idaho,83701
22,Overcast,2016-04-28 04:53:00,39.9,,-,61,N/A,29.76,53.1,10:53 PM,,10.0,NW,11.5,320,Boise,Idaho,83701
23,Clear,2016-04-28 05:53:00,39.9,,-,66,N/A,29.76,51.1,11:53 PM,,10.0,WNW,10.4,300,Boise,Idaho,83701
0,Partly Cloudy,2016-04-28 06:53:00,41.0,,-,71,N/A,29.77,50.0,12:53 AM,,10.0,WNW,10.4,300,Boise,Idaho,83701
1,Clear,2016-04-28 07:53:00,42.1,,-,77,N/A,29.78,48.9,1:53 AM,,10.0,WNW,8.1,300,Boise,Idaho,83701
2,Clear,2016-04-28 08:53:00,41.0,,-,77,N/A,29.78,48.0,2:53 AM,,10.0,West,3.5,270,Boise,Idaho,83701
3,Mostly Cloudy,2016-04-28 09:53:00,39.9,,-,79,N/A,29.79,46.0,3:53 AM,,10.0,Calm,Calm,0,Boise,Idaho,83701
4,Clear,2016-04-28 10:53:00,39.0,,-,82,N/A,29.80,44.1,4:53 AM,,10.0,Calm,Calm,0,Boise,Idaho,83701
5,Clear,2016-04-28 11:53:00,37.9,,-,82,N/A,29.81,43.0,5:53 AM,,10.0,Calm,Calm,0,Boise,Idaho,83701
6,Clear,2016-04-28 12:53:00,37.0,,-,80,N/A,29.81,43.0,6:53 AM,,10.0,Calm,Calm,0,Boise,Idaho,83701
7,Clear,2016-04-28 13:53:00,37.9,,-,79,N/A,29.83,44.1,7:53 AM,,10.0,Calm,Calm,0,Boise,Idaho,83701
8,Partly Cloudy,2016-04-28 14:53:00,39.9,,-,77,N/A,29.83,46.9,8:53 AM,,10.0,Calm,Calm,0,Boise,Idaho,83701
9,Clear,2016-04-28 15:53:00,42.1,,-,74,N/A,29.83,50.0,9:53 AM,,10.0,WNW,3.5,290,Boise,Idaho,83701
10,Clear,2016-04-28 16:53:00,42.1,,-,62,N/A,29.82,55.0,10:53 AM,,10.0,NNW,5.8,330,Boise,Idaho,83701
11,Clear,2016-04-28 17:53:00,37.0,,-,39,N/A,29.79,62.1,11:53 AM,,10.0,NNW,12.7,340,Boise,Idaho,83701
12,Partly Cloudy,2016-04-28 18:53:00,34.0,,20.7,34,N/A,29.78,63.0,12:53 PM,,10.0,West,12.7,280,Boise,Idaho,83701
13,Clear,2016-04-28 19:53:00,34.0,,20.7,30,N/A,29.76,66.9,1:53 PM,,10.0,NW,17.3,310,Boise,Idaho,83701
14,Mostly Cloudy,2016-04-28 20:53:00,35.1,,34.5,30,N/A,29.76,68.0,2:53 PM,,10.0,NW,20.7,320,Boise,Idaho,83701
15,Mostly Cloudy,2016-04-28 21:53:00,33.1,,33.4,27,N/A,29.76,68.0,3:53 PM,,10.0,NNW,20.7,330,Boise,Idaho,83701
16,Clear,2016-04-28 22:53:00,32.0,,34.5,27,N/A,29.75,66.9,4:53 PM,,10.0,NW,25.3,310,Boise,Idaho,83701
17,Clear,2016-04-28 23:53:00,30.9,,33.4,26,N/A,29.75,66.9,5:53 PM,,10.0,WNW,26.5,300,Boise,Idaho,83701
18,Clear,2016-04-29 00:53:00,30.0,,33.4,27,N/A,29.78,64.9,6:53 PM,,10.0,NW,25.3,310,Boise,Idaho,83701
19,Clear,2016-04-29 01:53:00,30.0,,29.9,30,N/A,29.79,62.1,7:53 PM,,10.0,NW,19.6,320,Boise,Idaho,83701
20,Clear,2016-04-29 02:53:00,30.9,,-,35,N/A,29.81,59.0,8:53 PM,,10.0,NW,15.0,320,Boise,Idaho,83701
21,Clear,2016-04-29 03:53:00,34.0,,-,42,N/A,29.83,57.0,9:53 PM,,10.0,NNW,15.0,330,Boise,Idaho,83701
22,Clear,2016-04-29 04:53:00,33.1,,-,42,N/A,29.83,55.9,10:53 PM,,10.0,NNW,10.4,340,Boise,Idaho,83701
23,Clear,2016-04-29 05:53:00,34.0,,-,47,N/A,29.83,54.0,11:53 PM,,10.0,North,9.2,360,Boise,Idaho,83701
0,Scattered Clouds,2016-04-29 06:53:00,34.0,,-,48,N/A,29.84,53.1,12:53 AM,,10.0,NW,12.7,320,Boise,Idaho,83701
1,Overcast,2016-04-29 07:53:00,36.0,,-,54,N/A,29.85,52.0,1:53 AM,,10.0,WNW,10.4,300,Boise,Idaho,83701
2,Overcast,2016-04-29 08:53:00,37.0,,-,57,N/A,29.85,52.0,2:53 AM,,10.0,WNW,11.5,290,Boise,Idaho,83701
3,Overcast,2016-04-29 09:53:00,37.9,,-,61,N/A,29.86,51.1,3:53 AM,,10.0,WNW,12.7,300,Boise,Idaho,83701
4,Overcast,2016-04-29 10:53:00,39.0,,-,69,N/A,29.87,48.9,4:53 AM,,10.0,WNW,9.2,290,Boise,Idaho,83701
5,Overcast,2016-04-29 11:53:00,39.0,,-,69,N/A,29.87,48.9,5:53 AM,,10.0,West,8.1,280,Boise,Idaho,83701
6,Overcast,2016-04-29 12:53:00,39.9,,-,74,N/A,29.87,48.0,6:53 AM,,10.0,WNW,10.4,300,Boise,Idaho,83701
7,Clear,2016-04-29 13:53:00,39.0,,-,74,N/A,29.88,46.9,7:53 AM,,10.0,WNW,3.5,300,Boise,Idaho,83701
8,Partly Cloudy,2016-04-29 14:53:00,39.0,,-,63,N/A,29.89,51.1,8:53 AM,,10.0,West,6.9,280,Boise,Idaho,83701
9,Clear,2016-04-29 15:53:00,39.0,,-,59,N/A,29.88,53.1,9:53 AM,,10.0,NW,5.8,310,Boise,Idaho,83701
10,Clear,2016-04-29 16:53:00,39.0,,-,51,N/A,29.87,57.0,10:53 AM,,10.0,NW,10.4,310,Boise,Idaho,83701
11,Overcast,2016-04-29 17:53:00,37.9,,19.6,47,N/A,29.88,57.9,11:53 AM,,10.0,NNW,11.5,330,Boise,Idaho,83701
12,Mostly Cloudy,2016-04-29 18:53:00,37.9,,17.3,44,N/A,29.86,60.1,12:53 PM,,10.0,West,8.1,280,Boise,Idaho,83701
13,Partly Cloudy,2016-04-29 19:53:00,37.9,,21.9,42,N/A,29.84,61.0,1:53 PM,,10.0,NNW,12.7,330,Boise,Idaho,83701
14,Mostly Cloudy,2016-04-29 20:53:00,37.0,,20.7,42,N/A,29.83,60.1,2:53 PM,,10.0,NNW,16.1,330,Boise,Idaho,83701
15,Scattered Clouds,2016-04-29 21:53:00,35.1,,25.3,35,N/A,29.82,63.0,3:53 PM,,10.0,NNW,17.3,330,Boise,Idaho,83701
16,Clear,2016-04-29 22:53:00,36.0,,27.6,37,N/A,29.81,63.0,4:53 PM,,10.0,NNW,21.9,330,Boise,Idaho,83701
17,Scattered Clouds,2016-04-29 23:53:00,37.0,,31.1,41,N/A,29.82,61.0,5:53 PM,,10.0,NW,24.2,320,Boise,Idaho,83701
18,Mostly Cloudy,2016-04-30 00:53:00,36.0,,25.3,42,N/A,29.84,59.0,6:53 PM,,10.0,North,17.3,360,Boise,Idaho,83701
19,Clear,2016-04-30 01:53:00,37.0,,26.5,49,N/A,29.86,55.9,7:53 PM,,10.0,NNW,17.3,330,Boise,Idaho,83701
20,Clear,2016-04-30 02:53:00,37.9,,-,57,N/A,29.88,53.1,8:53 PM,,10.0,NNW,16.1,340,Boise,Idaho,83701
21,Clear,2016-04-30 03:53:00,37.9,,-,59,N/A,29.90,52.0,9:53 PM,,10.0,NW,13.8,320,Boise,Idaho,83701
22,Clear,2016-04-30 04:53:00,36.0,,-,59,N/A,29.92,50.0,10:53 PM,,10.0,NNW,13.8,330,Boise,Idaho,83701
23,Clear,2016-04-30 05:53:00,36.0,,-,63,N/A,29.92,48.0,11:53 PM,,10.0,NW,16.1,320,Boise,Idaho,83701
0,Clear,2016-04-30 06:53:00,37.0,,-,71,N/A,29.94,46.0,12:53 AM,,10.0,WNW,12.7,300,Boise,Idaho,83701
1,Clear,2016-04-30 07:53:00,37.0,,-,74,N/A,29.94,45.0,1:53 AM,,10.0,WNW,17.3,300,Boise,Idaho,83701
2,Clear,2016-04-30 08:53:00,37.0,,-,74,N/A,29.95,45.0,2:53 AM,,10.0,WNW,17.3,300,Boise,Idaho,83701
3,Clear,2016-04-30 09:53:00,36.0,,-,73,N/A,29.96,44.1,3:53 AM,,10.0,NW,13.8,310,Boise,Idaho,83701
4,Clear,2016-04-30 10:53:00,36.0,,-,73,N/A,29.97,44.1,4:53 AM,,10.0,NW,13.8,320,Boise,Idaho,83701
5,Clear,2016-04-30 11:53:00,36.0,,-,76,N/A,29.98,43.0,5:53 AM,,10.0,NW,13.8,310,Boise,Idaho,83701
6,Clear,2016-04-30 12:53:00,36.0,,-,76,N/A,30.00,43.0,6:53 AM,,10.0,WNW,15.0,300,Boise,Idaho,83701
7,Clear,2016-04-30 13:53:00,37.0,,-,74,N/A,30.03,45.0,7:53 AM,,10.0,WNW,9.2,290,Boise,Idaho,83701
8,Clear,2016-04-30 14:53:00,36.0,,-,59,N/A,30.04,50.0,8:53 AM,,10.0,NNW,12.7,330,Boise,Idaho,83701
9,Clear,2016-04-30 15:53:00,37.0,,27.6,53,N/A,30.04,54.0,9:53 AM,,10.0,NW,19.6,320,Boise,Idaho,83701
10,Clear,2016-04-30 16:53:00,37.9,,-,47,N/A,30.03,57.9,10:53 AM,,10.0,NW,20.7,310,Boise,Idaho,83701
11,Clear,2016-04-30 17:53:00,35.1,,27.6,37,N/A,30.01,62.1,11:53 AM,,10.0,NNW,20.7,330,Boise,Idaho,83701
12,Partly Cloudy,2016-04-30 18:53:00,37.0,,26.5,36,N/A,30.00,64.9,12:53 PM,,10.0,NW,18.4,310,Boise,Idaho,83701
13,Clear,2016-04-30 19:53:00,37.0,,27.6,33,N/A,29.99,66.9,1:53 PM,,10.0,NW,20.7,320,Boise,Idaho,83701
14,Clear,2016-04-30 20:53:00,36.0,,29.9,31,N/A,29.98,68.0,2:53 PM,,10.0,NNW,21.9,330,Boise,Idaho,83701
15,Mostly Cloudy,2016-04-30 21:53:00,34.0,,35.7,27,N/A,29.96,69.1,3:53 PM,,10.0,WNW,21.9,300,Boise,Idaho,83701
16,Clear,2016-04-30 22:53:00,35.1,,34.5,29,N/A,29.96,69.1,4:53 PM,,10.0,NNW,21.9,330,Boise,Idaho,83701
17,Clear,2016-04-30 23:53:00,33.1,,33.4,28,N/A,29.97,66.9,5:53 PM,,10.0,NW,24.2,320,Boise,Idaho,83701
18,Clear,2016-05-01 00:53:00,30.0,,33.4,27,N/A,29.99,64.9,6:53 PM,,10.0,NNW,24.2,330,Boise,Idaho,83701
19,Clear,2016-05-01 01:53:00,35.1,,25.3,37,N/A,30.00,62.1,7:53 PM,,10.0,NNW,17.3,330,Boise,Idaho,83701
20,Mostly Cloudy,2016-05-01 02:53:00,37.0,,-,47,N/A,30.02,57.0,8:53 PM,,10.0,NW,15.0,310,Boise,Idaho,83701
21,Overcast,2016-05-01 03:53:00,37.0,,-,51,N/A,30.04,55.0,9:53 PM,,10.0,WNW,12.7,300,Boise,Idaho,83701
22,Clear,2016-05-01 04:53:00,37.0,,-,57,N/A,30.05,52.0,10:53 PM,,10.0,WNW,8.1,300,Boise,Idaho,83701
23,Scattered Clouds,2016-05-01 05:53:00,36.0,,-,61,N/A,30.06,48.9,11:53 PM,,10.0,South,3.5,180,Boise,Idaho,83701
0,Scattered Clouds,2016-05-01 06:53:00,36.0,,-,66,N/A,30.07,46.9,12:53 AM,,10.0,SW,3.5,230,Boise,Idaho,83701
1,Clear,2016-05-01 07:53:00,36.0,,-,68,N/A,30.07,46.0,1:53 AM,,10.0,Calm,Calm,0,Boise,Idaho,83701
2,Clear,2016-05-01 08:53:00,35.1,,-,71,N/A,30.06,44.1,2:53 AM,,10.0,SSW,3.5,200,Boise,Idaho,83701
3,Clear,2016-05-01 09:53:00,36.0,,-,73,N/A,30.07,44.1,3:53 AM,,10.0,Calm,Calm,0,Boise,Idaho,83701
4,Clear,2016-05-01 10:53:00,35.1,,-,76,N/A,30.08,42.1,4:53 AM,,10.0,SE,3.5,130,Boise,Idaho,83701
5,Clear,2016-05-01 11:53:00,35.1,,-,76,N/A,30.09,42.1,5:53 AM,,10.0,Calm,Calm,0,Boise,Idaho,83701
6,Clear,2016-05-01 12:53:00,34.0,,-,76,N/A,30.12,41.0,6:53 AM,,10.0,Calm,Calm,0,Boise,Idaho,83701
7,Clear,2016-05-01 13:53:00,37.0,,-,74,N/A,30.13,45.0,7:53 AM,,10.0,Calm,Calm,0,Boise,Idaho,83701
8,Clear,2016-05-01 14:53:00,37.0,,-,61,N/A,30.14,50.0,8:53 AM,,10.0,Calm,Calm,0,Boise,Idaho,83701
9,Mostly Cloudy,2016-05-01 15:53:00,37.9,,-,53,N/A,30.14,55.0,9:53 AM,,10.0,Calm,Calm,0,Boise,Idaho,83701
10,Clear,2016-05-01 16:53:00,39.9,,-,51,N/A,30.13,57.9,10:53 AM,,10.0,Calm,Calm,0,Boise,Idaho,83701
11,Clear,2016-05-01 17:53:00,39.9,,-,46,N/A,30.11,61.0,11:53 AM,,10.0,WNW,3.5,300,Boise,Idaho,83701
12,Partly Cloudy,2016-05-01 18:53:00,37.9,,-,38,N/A,30.09,64.0,12:53 PM,,10.0,NNW,3.5,340,Boise,Idaho,83701
13,Clear,2016-05-01 19:53:00,37.0,,-,34,N/A,30.08,66.0,1:53 PM,,10.0,Variable,6.9,0,Boise,Idaho,83701
14,Clear,2016-05-01 20:53:00,36.0,,-,32,N/A,30.06,66.9,2:53 PM,,10.0,NNE,4.6,30,Boise,Idaho,83701
15,Clear,2016-05-01 21:53:00,37.0,,-,30,N/A,30.03,70.0,3:53 PM,,10.0,NNE,6.9,30,Boise,Idaho,83701
16,Clear,2016-05-01 22:53:00,37.9,,-,31,N/A,30.01,70.0,4:53 PM,,10.0,WNW,8.1,290,Boise,Idaho,83701
17,Clear,2016-05-01 23:31:00,37.4,,-,31,N/A,30.03,69.8,5:31 PM,,10.0,NW,8.1,320,Boise,Idaho,83701
18,Clear,2016-05-01 23:53:00,39.0,,-,32,N/A,30.00,70.0,5:53 PM,,10.0,NNW,9.2,330,Boise,Idaho,83701
19,Clear,2016-05-02 00:53:00,39.0,,16.1,32,N/A,29.99,70.0,6:53 PM,,10.0,NNW,10.4,340,Boise,Idaho,83701
20,Partly Cloudy,2016-05-02 01:53:00,39.9,,-,36,N/A,29.99,68.0,7:53 PM,,10.0,NW,10.4,320,Boise,Idaho,83701
21,Clear,2016-05-02 02:53:00,41.0,,-,42,N/A,29.99,64.9,8:53 PM,,10.0,NNW,4.6,330,Boise,Idaho,83701
22,Clear,2016-05-02 03:53:00,33.1,,-,31,N/A,30.02,64.0,9:53 PM,,10.0,SSW,9.2,200,Boise,Idaho,83701
23,Clear,2016-05-02 04:53:00,36.0,,-,49,N/A,30.05,55.0,10:53 PM,,10.0,East,4.6,100,Boise,Idaho,83701
24,Clear,2016-05-02 05:53:00,34.0,,-,44,N/A,30.05,55.9,11:53 PM,,10.0,ESE,4.6,110,Boise,Idaho,83701
0,Partly Cloudy,2016-05-02 06:53:00,33.1,,-,45,N/A,30.05,54.0,12:53 AM,,10.0,ESE,5.8,110,Boise,Idaho,83701
1,Mostly Cloudy,2016-05-02 07:53:00,37.0,,-,57,N/A,30.06,52.0,1:53 AM,,10.0,SE,6.9,130,Boise,Idaho,83701
2,Clear,2016-05-02 08:53:00,37.9,,-,61,N/A,30.05,51.1,2:53 AM,,10.0,ESE,5.8,120,Boise,Idaho,83701
3,Clear,2016-05-02 09:53:00,37.0,,-,59,N/A,30.05,51.1,3:53 AM,,10.0,SE,8.1,130,Boise,Idaho,83701
4,Clear,2016-05-02 10:53:00,37.0,,-,64,N/A,30.06,48.9,4:53 AM,,10.0,Calm,Calm,0,Boise,Idaho,83701
5,Clear,2016-05-02 11:53:00,36.0,,-,61,N/A,30.07,48.9,5:53 AM,,10.0,Calm,Calm,0,Boise,Idaho,83701
6,Clear,2016-05-02 12:53:00,36.0,,-,63,N/A,30.09,48.0,6:53 AM,,10.0,SE,4.6,130,Boise,Idaho,83701
7,Clear,2016-05-02 13:53:00,37.0,,-,57,N/A,30.12,52.0,7:53 AM,,10.0,Calm,Calm,0,Boise,Idaho,83701
8,Clear,2016-05-02 14:53:00,36.0,,-,45,N/A,30.13,57.0,8:53 AM,,10.0,SE,12.7,140,Boise,Idaho,83701
9,Clear,2016-05-02 15:53:00,35.1,,-,38,N/A,30.14,61.0,9:53 AM,,10.0,SSE,9.2,150,Boise,Idaho,83701
10,Clear,2016-05-02 16:53:00,32.0,,19.6,29,N/A,30.15,64.9,10:53 AM,,10.0,SSE,13.8,150,Boise,Idaho,83701
11,Clear,2016-05-02 17:53:00,32.0,,-,26,N/A,30.14,68.0,11:53 AM,,10.0,South,8.1,180,Boise,Idaho,83701
12,Clear,2016-05-02 18:53:00,30.0,,17.3,23,N/A,30.12,70.0,12:53 PM,,10.0,South,12.7,190,Boise,Idaho,83701
13,Clear,2016-05-02 19:53:00,27.0,,-,19,N/A,30.10,71.1,1:53 PM,,10.0,East,5.8,100,Boise,Idaho,83701
14,Clear,2016-05-02 20:53:00,27.0,,17.3,18,N/A,30.08,73.9,2:53 PM,,10.0,South,11.5,180,Boise,Idaho,83701
15,Clear,2016-05-02 21:53:00,28.9,,16.1,19,N/A,30.05,73.9,3:53 PM,,10.0,SE,9.2,140,Boise,Idaho,83701
16,Clear,2016-05-02 22:53:00,27.0,,-,17,N/A,30.04,75.0,4:53 PM,,10.0,SW,9.2,220,Boise,Idaho,83701
17,Clear,2016-05-02 23:53:00,24.1,,16.1,16,N/A,30.03,73.9,5:53 PM,,10.0,SE,6.9,130,Boise,Idaho,83701
18,Clear,2016-05-03 00:53:00,23.0,,-,15,N/A,30.03,73.0,6:53 PM,,10.0,SE,3.5,130,Boise,Idaho,83701
19,Clear,2016-05-03 01:53:00,24.1,,-,16,N/A,30.02,73.0,7:53 PM,,10.0,SSE,6.9,150,Boise,Idaho,83701
20,Clear,2016-05-03 02:53:00,25.0,,-,19,N/A,30.02,69.1,8:53 PM,,10.0,SE,5.8,130,Boise,Idaho,83701
21,Clear,2016-05-03 03:53:00,30.0,,-,29,N/A,30.04,63.0,9:53 PM,,10.0,ESE,4.6,110,Boise,Idaho,83701
22,Clear,2016-05-03 04:53:00,28.9,,-,30,N/A,30.05,61.0,10:53 PM,,10.0,ESE,5.8,120,Boise,Idaho,83701
23,Clear,2016-05-03 05:53:00,32.0,,-,40,N/A,30.05,55.9,11:53 PM,,10.0,SE,5.8,130,Boise,Idaho,83701
0,Clear,2016-05-03 06:53:00,30.9,,-,39,N/A,30.05,55.9,12:53 AM,,10.0,SE,5.8,130,Boise,Idaho,83701
1,Clear,2016-05-03 07:53:00,32.0,,-,40,N/A,30.05,55.9,1:53 AM,,10.0,SE,8.1,130,Boise,Idaho,83701
2,Clear,2016-05-03 08:53:00,30.9,,-,40,N/A,30.04,55.0,2:53 AM,,10.0,SE,8.1,130,Boise,Idaho,83701
3,Clear,2016-05-03 09:53:00,32.0,,-,43,N/A,30.05,54.0,3:53 AM,,10.0,SE,11.5,130,Boise,Idaho,83701
4,Clear,2016-05-03 10:53:00,30.9,,-,43,N/A,30.05,53.1,4:53 AM,,10.0,ESE,5.8,110,Boise,Idaho,83701
5,Clear,2016-05-03 11:53:00,30.9,,-,43,N/A,30.06,53.1,5:53 AM,,10.0,ESE,9.2,120,Boise,Idaho,83701
6,Clear,2016-05-03 12:53:00,30.9,,-,43,N/A,30.08,53.1,6:53 AM,,10.0,ESE,8.1,120,Boise,Idaho,83701
7,Clear,2016-05-03 13:53:00,33.1,,-,42,N/A,30.09,55.9,7:53 AM,,10.0,Calm,Calm,0,Boise,Idaho,83701
8,Clear,2016-05-03 14:53:00,34.0,,-,39,N/A,30.11,59.0,8:53 AM,,10.0,North,3.5,360,Boise,Idaho,83701
9,Clear,2016-05-03 15:53:00,34.0,,-,34,N/A,30.12,63.0,9:53 AM,,10.0,Calm,Calm,0,Boise,Idaho,83701
10,Clear,2016-05-03 16:53:00,35.1,,-,30,N/A,30.11,68.0,10:53 AM,,10.0,Calm,Calm,0,Boise,Idaho,83701
11,Clear,2016-05-03 17:53:00,36.0,,-,27,N/A,30.10,72.0,11:53 AM,,10.0,SE,8.1,140,Boise,Idaho,83701
12,Clear,2016-05-03 18:53:00,28.9,,23.0,18,N/A,30.07,75.9,12:53 PM,,10.0,ESE,8.1,120,Boise,Idaho,83701
13,Clear,2016-05-03 19:53:00,28.0,,23.0,16,N/A,30.05,78.1,1:53 PM,,10.0,South,11.5,170,Boise,Idaho,83701
14,Clear,2016-05-03 20:53:00,28.9,,-,16,N/A,30.04,79.0,2:53 PM,,10.0,ESE,8.1,120,Boise,Idaho,83701
15,Clear,2016-05-03 21:53:00,28.0,,-,16,N/A,30.02,78.1,3:53 PM,,10.0,SE,9.2,140,Boise,Idaho,83701
16,Clear,2016-05-03 22:53:00,26.1,,-,14,N/A,29.99,80.1,4:53 PM,,10.0,South,6.9,170,Boise,Idaho,83701
17,Clear,2016-05-03 23:53:00,28.0,,19.6,15,N/A,29.97,80.1,5:53 PM,,10.0,SE,12.7,140,Boise,Idaho,83701
18,Clear,2016-05-04 00:53:00,28.9,,-,16,N/A,29.96,79.0,6:53 PM,,10.0,SE,9.2,140,Boise,Idaho,83701
19,Clear,2016-05-04 01:53:00,28.9,,-,17,N/A,29.94,77.0,7:53 PM,,10.0,SE,9.2,140,Boise,Idaho,83701
20,Clear,2016-05-04 02:53:00,32.0,,-,24,N/A,29.95,71.1,8:53 PM,,10.0,SE,6.9,130,Boise,Idaho,83701
21,Clear,2016-05-04 03:53:00,32.0,,-,25,N/A,29.95,69.1,9:53 PM,,10.0,ESE,8.1,110,Boise,Idaho,83701
22,Clear,2016-05-04 04:53:00,30.9,,-,24,N/A,29.94,69.1,10:53 PM,,10.0,ESE,6.9,120,Boise,Idaho,83701
23,Clear,2016-05-04 05:53:00,33.1,,-,29,N/A,29.93,66.0,11:53 PM,,10.0,ESE,9.2,120,Boise,Idaho,83701
0,Scattered Clouds,2016-05-04 06:53:00,33.1,,-,29,N/A,29.93,66.0,12:53 AM,,10.0,ESE,6.9,120,Boise,Idaho,83701
1,Clear,2016-05-04 07:53:00,34.0,,-,34,N/A,29.93,63.0,1:53 AM,,10.0,SSE,10.4,150,Boise,Idaho,83701
2,Clear,2016-05-04 08:53:00,34.0,,-,35,N/A,29.92,62.1,2:53 AM,,10.0,SE,8.1,140,Boise,Idaho,83701
3,Clear,2016-05-04 09:53:00,35.1,,-,41,N/A,29.91,59.0,3:53 AM,,10.0,SSE,4.6,150,Boise,Idaho,83701
4,Clear,2016-05-04 10:53:00,34.0,,-,36,N/A,29.90,61.0,4:53 AM,,10.0,SE,6.9,130,Boise,Idaho,83701
5,Clear,2016-05-04 11:53:00,33.1,,-,34,N/A,29.90,62.1,5:53 AM,,10.0,ESE,9.2,120,Boise,Idaho,83701
6,Clear,2016-05-04 12:53:00,33.1,,-,36,N/A,29.91,60.1,6:53 AM,,10.0,ESE,9.2,120,Boise,Idaho,83701
7,Partly Cloudy,2016-05-04 13:53:00,37.0,,-,46,N/A,29.93,57.9,7:53 AM,,10.0,WNW,4.6,300,Boise,Idaho,83701
8,Clear,2016-05-04 14:53:00,39.0,,-,44,N/A,29.94,61.0,8:53 AM,,10.0,NNW,3.5,330,Boise,Idaho,83701
9,Clear,2016-05-04 15:53:00,37.9,,-,36,N/A,29.93,66.0,9:53 AM,,10.0,NW,4.6,310,Boise,Idaho,83701
10,Clear,2016-05-04 16:53:00,37.9,,-,31,N/A,29.90,70.0,10:53 AM,,10.0,Calm,Calm,0,Boise,Idaho,83701
11,Clear,2016-05-04 17:53:00,37.9,,-,25,N/A,29.88,75.9,11:53 AM,,10.0,North,3.5,360,Boise,Idaho,83701
12,Clear,2016-05-04 18:53:00,33.1,,27.6,17,N/A,29.86,82.0,12:53 PM,,10.0,SSE,11.5,150,Boise,Idaho,83701
13,Clear,2016-05-04 19:53:00,32.0,,21.9,16,N/A,29.83,82.0,1:53 PM,,10.0,South,10.4,170,Boise,Idaho,83701
14,Mostly Cloudy,2016-05-04 20:53:00,33.1,,24.2,17,N/A,29.81,82.0,2:53 PM,,10.0,SSE,12.7,150,Boise,Idaho,83701
15,Partly Cloudy,2016-05-04 21:53:00,33.1,,21.9,16,N/A,29.78,84.0,3:53 PM,,10.0,SSE,12.7,160,Boise,Idaho,83701
16,Scattered Clouds,2016-05-04 22:53:00,33.1,,-,17,N/A,29.76,82.0,4:53 PM,,10.0,SSE,6.9,150,Boise,Idaho,83701
17,Mostly Cloudy,2016-05-04 23:53:00,34.0,,-,18,N/A,29.75,82.0,5:53 PM,,10.0,SSE,9.2,150,Boise,Idaho,83701
18,Mostly Cloudy,2016-05-05 00:53:00,33.1,,-,18,0.00,29.74,80.1,6:53 PM,,10.0,WSW,5.8,250,Boise,Idaho,83701
19,Scattered Clouds,2016-05-05 01:53:00,37.0,,-,23,N/A,29.73,78.1,7:53 PM,,10.0,SSE,3.5,160,Boise,Idaho,83701
20,Mostly Cloudy,2016-05-05 02:53:00,36.0,,-,24,N/A,29.72,75.0,8:53 PM,,10.0,SE,11.5,130,Boise,Idaho,83701
21,Partly Cloudy,2016-05-05 03:53:00,35.1,,-,25,N/A,29.72,73.0,9:53 PM,,10.0,ESE,9.2,120,Boise,Idaho,83701
22,Scattered Clouds,2016-05-05 04:53:00,37.0,,24.2,32,N/A,29.75,68.0,10:53 PM,,10.0,SSE,17.3,160,Boise,Idaho,83701
23,Mostly Cloudy,2016-05-05 05:53:00,37.9,,26.5,28,0.00,29.77,73.0,11:53 PM,,10.0,SW,17.3,220,Boise,Idaho,83701
0,Overcast,2016-05-05 06:00:00,42.8,,23.0,38,N/A,29.86,69.8,12:00 AM,,10.0,South,10.4,180,Boise,Idaho,83701
1,Clear,2016-05-05 06:53:00,43.0,,-,40,N/A,29.76,68.0,12:53 AM,,10.0,North,9.2,360,Boise,Idaho,83701
2,Mostly Cloudy,2016-05-05 07:53:00,43.0,,-,43,N/A,29.74,66.0,1:53 AM,,10.0,NNE,8.1,30,Boise,Idaho,83701
3,Mostly Cloudy,2016-05-05 08:53:00,44.1,,19.6,45,N/A,29.79,66.0,2:53 AM,,10.0,WNW,12.7,300,Boise,Idaho,83701
4,Partly Cloudy,2016-05-05 09:53:00,44.1,,-,50,N/A,29.79,63.0,3:53 AM,,10.0,WNW,6.9,290,Boise,Idaho,83701
5,Clear,2016-05-05 10:53:00,42.1,,-,50,N/A,29.81,61.0,4:53 AM,,10.0,West,9.2,280,Boise,Idaho,83701
6,Clear,2016-05-05 11:53:00,43.0,,-,59,N/A,29.81,57.0,5:53 AM,,10.0,NNW,4.6,330,Boise,Idaho,83701
7,Clear,2016-05-05 12:53:00,44.1,,-,64,N/A,29.81,55.9,6:53 AM,,10.0,West,6.9,280,Boise,Idaho,83701
8,Clear,2016-05-05 13:53:00,44.1,,-,62,N/A,29.82,57.0,7:53 AM,,10.0,WNW,5.8,300,Boise,Idaho,83701
9,Clear,2016-05-05 14:53:00,45.0,,-,62,N/A,29.81,57.9,8:53 AM,,10.0,Calm,Calm,0,Boise,Idaho,83701
10,Clear,2016-05-05 15:53:00,46.0,,-,62,N/A,29.81,59.0,9:53 AM,,10.0,Calm,Calm,0,Boise,Idaho,83701
11,Clear,2016-05-05 16:53:00,45.0,,-,56,N/A,29.81,61.0,10:53 AM,,10.0,West,4.6,270,Boise,Idaho,83701
12,Clear,2016-05-05 17:19:00,44.6,,-,52,N/A,29.87,62.6,11:19 AM,,10.0,Calm,Calm,0,Boise,Idaho,83701
13,Clear,2016-05-05 17:53:00,46.0,,-,50,N/A,29.79,64.9,11:53 AM,,10.0,WNW,4.6,290,Boise,Idaho,83701
14,Clear,2016-05-05 18:53:00,46.9,,-,45,N/A,29.76,69.1,12:53 PM,,10.0,West,4.6,280,Boise,Idaho,83701
15,Clear,2016-05-05 19:53:00,46.9,,-,41,N/A,29.73,72.0,1:53 PM,,8.0,WNW,3.5,290,Boise,Idaho,83701
16,Partly Cloudy,2016-05-05 20:18:00,44.6,,-,36,N/A,29.79,73.4,2:18 PM,,9.0,NW,5.8,320,Boise,Idaho,83701
17,Haze,2016-05-05 20:30:00,44.6,,-,36,N/A,29.79,73.4,2:30 PM,,1.8,Calm,Calm,0,Boise,Idaho,83701
18,Haze,2016-05-05 20:36:00,44.6,,-,36,N/A,29.78,73.4,2:36 PM,,3.0,Calm,Calm,0,Boise,Idaho,83701
19,Partly Cloudy,2016-05-05 20:53:00,45.0,,-,35,N/A,29.71,73.9,2:53 PM,,10.0,Calm,Calm,0,Boise,Idaho,83701
20,Clear,2016-05-05 21:53:00,45.0,,-,32,N/A,29.68,77.0,3:53 PM,,10.0,North,10.4,360,Boise,Idaho,83701
21,Clear,2016-05-05 22:53:00,45.0,,-,33,N/A,29.64,75.9,4:53 PM,,10.0,NW,8.1,320,Boise,Idaho,83701
22,Partly Cloudy,2016-05-05 23:53:00,46.0,,-,35,N/A,29.65,75.9,5:53 PM,,10.0,NW,11.5,320,Boise,Idaho,83701
23,Clear,2016-05-06 00:53:00,46.0,,-,37,N/A,29.65,73.9,6:53 PM,,10.0,WNW,15.0,300,Boise,Idaho,83701
24,Clear,2016-05-06 01:53:00,45.0,,-,38,N/A,29.67,72.0,7:53 PM,,10.0,NW,15.0,320,Boise,Idaho,83701
25,Clear,2016-05-06 02:53:00,46.9,,-,45,N/A,29.71,69.1,8:53 PM,,10.0,WNW,16.1,300,Boise,Idaho,83701
26,Clear,2016-05-06 03:53:00,45.0,,-,47,N/A,29.73,66.0,9:53 PM,,10.0,NNW,13.8,340,Boise,Idaho,83701
27,Clear,2016-05-06 04:53:00,44.1,,-,47,N/A,29.74,64.9,10:53 PM,,10.0,NNW,10.4,330,Boise,Idaho,83701
28,Clear,2016-05-06 05:53:00,45.0,,-,53,N/A,29.73,62.1,11:53 PM,,10.0,WNW,10.4,300,Boise,Idaho,83701
0,Clear,2016-05-06 06:53:00,48.0,,-,64,N/A,29.73,60.1,12:53 AM,,10.0,WNW,11.5,290,Boise,Idaho,83701
1,Clear,2016-05-06 07:53:00,48.9,,-,72,N/A,29.74,57.9,1:53 AM,,10.0,WNW,8.1,290,Boise,Idaho,83701
2,Clear,2016-05-06 08:53:00,48.0,,-,70,N/A,29.76,57.9,2:53 AM,,10.0,Variable,3.5,0,Boise,Idaho,83701
3,Clear,2016-05-06 09:53:00,48.0,,-,70,N/A,29.76,57.9,3:53 AM,,10.0,WNW,8.1,300,Boise,Idaho,83701
4,Partly Cloudy,2016-05-06 10:53:00,48.9,,-,74,N/A,29.75,57.0,4:53 AM,,10.0,WNW,9.2,300,Boise,Idaho,83701
5,Overcast,2016-05-06 11:53:00,50.0,,-,80,N/A,29.78,55.9,5:53 AM,,10.0,Calm,Calm,0,Boise,Idaho,83701
6,Overcast,2016-05-06 12:53:00,50.0,,-,80,N/A,29.78,55.9,6:53 AM,,10.0,SSW,3.5,210,Boise,Idaho,83701
7,Clear,2016-05-06 13:53:00,50.0,,-,80,N/A,29.78,55.9,7:53 AM,,10.0,WSW,4.6,250,Boise,Idaho,83701
8,Scattered Clouds,2016-05-06 14:53:00,50.0,,-,77,N/A,29.79,57.0,8:53 AM,,10.0,Calm,Calm,0,Boise,Idaho,83701
9,Clear,2016-05-06 15:53:00,51.1,,-,75,N/A,29.76,59.0,9:53 AM,,10.0,WSW,4.6,240,Boise,Idaho,83701
10,Clear,2016-05-06 16:53:00,50.0,,-,69,N/A,29.79,60.1,10:53 AM,,10.0,Calm,Calm,0,Boise,Idaho,83701
11,Clear,2016-05-06 17:53:00,50.0,,-,63,N/A,29.79,63.0,11:53 AM,,10.0,WNW,5.8,290,Boise,Idaho,83701
12,Clear,2016-05-06 18:53:00,51.1,,-,57,N/A,29.77,66.9,12:53 PM,,10.0,North,3.5,360,Boise,Idaho,83701
13,Clear,2016-05-06 19:53:00,51.1,,-,51,N/A,29.77,70.0,1:53 PM,,10.0,NW,5.8,310,Boise,Idaho,83701
14,Clear,2016-05-06 20:53:00,52.0,,-,51,N/A,29.75,71.1,2:53 PM,,10.0,NNE,5.8,20,Boise,Idaho,83701
15,Clear,2016-05-06 21:53:00,51.1,,-,48,N/A,29.73,72.0,3:53 PM,,10.0,Variable,5.8,0,Boise,Idaho,83701
16,Clear,2016-05-06 22:53:00,50.0,,-,43,N/A,29.70,73.9,4:53 PM,,10.0,Variable,6.9,0,Boise,Idaho,83701
17,Mostly Cloudy,2016-05-06 23:53:00,48.9,,-,41,N/A,29.70,73.9,5:53 PM,,10.0,WSW,6.9,250,Boise,Idaho,83701
18,Mostly Cloudy,2016-05-07 00:53:00,48.0,,-,41,N/A,29.70,73.0,6:53 PM,,10.0,WSW,5.8,250,Boise,Idaho,83701
19,Mostly Cloudy,2016-05-07 01:01:00,48.2,Thunderstorm,-,41,N/A,29.75,73.4,7:01 PM,,10.0,SSW,5.8,210,Boise,Idaho,83701
20,Heavy Rain,2016-05-07 01:38:00,53.6,Rain-Thunderstorm,35.7,77,0.03,29.76,60.8,7:38 PM,,1.8,SSE,19.6,150,Boise,Idaho,83701
21,Heavy Thunderstorms and Rain,2016-05-07 01:44:00,48.2,Rain-Thunderstorm,33.4,72,0.22,29.76,57.2,7:44 PM,,0.8,SSW,21.9,200,Boise,Idaho,83701
22,Thunderstorms and Rain,2016-05-07 01:49:00,48.2,Rain-Thunderstorm,26.5,63,0.33,29.76,60.8,7:49 PM,,1.5,Variable,3.5,0,Boise,Idaho,83701
23,Light Thunderstorms and Rain,2016-05-07 01:51:00,48.2,Rain-Thunderstorm,26.5,63,0.33,29.77,60.8,7:51 PM,,3.0,South,17.3,180,Boise,Idaho,83701
24,Light Thunderstorms and Rain,2016-05-07 01:53:00,48.9,Rain-Thunderstorm,25.3,64,0.33,29.74,61.0,7:53 PM,,5.0,South,18.4,190,Boise,Idaho,83701
25,Overcast,2016-05-07 02:42:00,53.6,,17.3,88,0.00,29.83,57.2,8:42 PM,,10.0,ESE,12.7,110,Boise,Idaho,83701
26,Overcast,2016-05-07 02:53:00,54.0,,-,83,0.00,29.80,59.0,8:53 PM,,10.0,ESE,6.9,110,Boise,Idaho,83701
27,Mostly Cloudy,2016-05-07 03:53:00,53.1,,-,84,0.06,29.79,57.9,9:53 PM,,10.0,ESE,8.1,110,Boise,Idaho,83701
28,Partly Cloudy,2016-05-07 04:53:00,52.0,,-,83,N/A,29.80,57.0,10:53 PM,,10.0,ESE,8.1,120,Boise,Idaho,83701
29,Overcast,2016-05-07 05:53:00,52.0,,-,81,N/A,29.80,57.9,11:53 PM,,10.0,ESE,9.2,110,Boise,Idaho,83701
0,Overcast,2016-05-07 06:53:00,51.1,,-,78,0.00,29.78,57.9,12:53 AM,,10.0,ESE,6.9,110,Boise,Idaho,83701
1,Clear,2016-05-07 07:53:00,50.0,,-,80,N/A,29.77,55.9,1:53 AM,,10.0,SE,5.8,140,Boise,Idaho,83701
2,Mostly Cloudy,2016-05-07 08:53:00,52.0,,-,89,N/A,29.76,55.0,2:53 AM,,10.0,NW,3.5,320,Boise,Idaho,83701
3,Partly Cloudy,2016-05-07 09:53:00,51.1,,-,90,N/A,29.77,54.0,3:53 AM,,10.0,SSW,6.9,200,Boise,Idaho,83701
4,Mostly Cloudy,2016-05-07 10:53:00,50.0,,-,83,N/A,29.78,55.0,4:53 AM,,10.0,SE,8.1,130,Boise,Idaho,83701
5,Overcast,2016-05-07 11:53:00,50.0,,-,83,N/A,29.79,55.0,5:53 AM,,10.0,SE,9.2,130,Boise,Idaho,83701
6,Overcast,2016-05-07 12:53:00,50.0,,-,83,N/A,29.80,55.0,6:53 AM,,10.0,SE,6.9,140,Boise,Idaho,83701
7,Clear,2016-05-07 13:53:00,50.0,,-,83,N/A,29.83,55.0,7:53 AM,,10.0,SSE,5.8,150,Boise,Idaho,83701
8,Scattered Clouds,2016-05-07 14:53:00,51.1,,-,78,N/A,29.84,57.9,8:53 AM,,10.0,South,6.9,170,Boise,Idaho,83701
9,Clear,2016-05-07 15:53:00,50.0,,-,69,N/A,29.85,60.1,9:53 AM,,10.0,SSW,3.5,210,Boise,Idaho,83701
10,Clear,2016-05-07 16:53:00,50.0,,-,63,N/A,29.83,63.0,10:53 AM,,10.0,Variable,3.5,0,Boise,Idaho,83701
11,Clear,2016-05-07 17:53:00,48.9,,-,56,N/A,29.83,64.9,11:53 AM,,10.0,NNW,5.8,330,Boise,Idaho,83701
12,Partly Cloudy,2016-05-07 18:53:00,50.0,,-,54,N/A,29.81,66.9,12:53 PM,,10.0,WSW,8.1,250,Boise,Idaho,83701
13,Clear,2016-05-07 19:53:00,52.0,,-,54,N/A,29.80,69.1,1:53 PM,,10.0,NNW,8.1,340,Boise,Idaho,83701
14,Partly Cloudy,2016-05-07 20:53:00,50.0,,16.1,47,N/A,29.78,71.1,2:53 PM,,10.0,West,8.1,270,Boise,Idaho,83701
15,Mostly Cloudy,2016-05-07 21:53:00,48.9,,-,47,N/A,29.76,70.0,3:53 PM,,10.0,WSW,9.2,250,Boise,Idaho,83701
16,Mostly Cloudy,2016-05-07 22:53:00,48.9,,-,47,N/A,29.74,70.0,4:53 PM,,10.0,SW,8.1,230,Boise,Idaho,83701
17,Mostly Cloudy,2016-05-07 23:53:00,51.1,,-,49,N/A,29.72,71.1,5:53 PM,,10.0,WSW,8.1,240,Boise,Idaho,83701
18,Overcast,2016-05-08 00:49:00,50.0,Thunderstorm,-,49,N/A,29.77,69.8,6:49 PM,,10.0,South,8.1,190,Boise,Idaho,83701
19,Overcast,2016-05-08 00:53:00,50.0,Thunderstorm,-,49,N/A,29.73,70.0,6:53 PM,,10.0,South,8.1,170,Boise,Idaho,83701
20,Light Rain,2016-05-08 01:09:00,51.8,Rain-Thunderstorm,31.1,60,0.00,29.79,66.2,7:09 PM,,10.0,SE,23.0,130,Boise,Idaho,83701
21,Light Rain,2016-05-08 01:38:00,57.2,Rain,-,94,0.03,29.79,59.0,7:38 PM,,4.0,SE,11.5,130,Boise,Idaho,83701
22,Light Rain,2016-05-08 01:53:00,55.9,Rain,-,86,0.03,29.76,60.1,7:53 PM,,10.0,East,8.1,90,Boise,Idaho,83701
23,Mostly Cloudy,2016-05-08 02:53:00,54.0,,-,80,0.02,29.75,60.1,8:53 PM,,10.0,SE,10.4,140,Boise,Idaho,83701
24,Scattered Clouds,2016-05-08 03:10:00,53.6,Thunderstorm,-,82,N/A,29.80,59.0,9:10 PM,,10.0,SE,10.4,130,Boise,Idaho,83701
25,Partly Cloudy,2016-05-08 03:25:00,53.6,,-,88,N/A,29.80,57.2,9:25 PM,,10.0,SE,11.5,140,Boise,Idaho,83701
26,Mostly Cloudy,2016-05-08 03:53:00,53.1,,-,84,N/A,29.77,57.9,9:53 PM,,10.0,SE,11.5,130,Boise,Idaho,83701
27,Clear,2016-05-08 04:53:00,52.0,,-,81,N/A,29.74,57.9,10:53 PM,,10.0,SSE,8.1,150,Boise,Idaho,83701
28,Clear,2016-05-08 05:53:00,53.1,,-,84,N/A,29.74,57.9,11:53 PM,,10.0,SE,11.5,140,Boise,Idaho,83701
0,Partly Cloudy,2016-05-08 06:53:00,53.1,,-,87,N/A,29.75,57.0,12:53 AM,,10.0,SE,5.8,130,Boise,Idaho,83701
1,Clear,2016-05-08 07:53:00,53.1,,-,84,N/A,29.74,57.9,1:53 AM,,10.0,Calm,Calm,0,Boise,Idaho,83701
2,Scattered Clouds,2016-05-08 08:53:00,52.0,,-,83,N/A,29.73,57.0,2:53 AM,,10.0,Calm,Calm,0,Boise,Idaho,83701
3,Partly Cloudy,2016-05-08 09:53:00,52.0,,-,93,N/A,29.74,54.0,3:53 AM,,10.0,Calm,Calm,0,Boise,Idaho,83701
4,Overcast,2016-05-08 10:53:00,52.0,,-,93,N/A,29.74,54.0,4:53 AM,,10.0,Calm,Calm,0,Boise,Idaho,83701
5,Partly Cloudy,2016-05-08 11:53:00,52.0,,-,93,N/A,29.73,54.0,5:53 AM,,10.0,Calm,Calm,0,Boise,Idaho,83701
6,Overcast,2016-05-08 12:53:00,51.1,,-,93,N/A,29.72,53.1,6:53 AM,,10.0,Calm,Calm,0,Boise,Idaho,83701
7,Partly Cloudy,2016-05-08 13:53:00,52.0,,-,87,N/A,29.74,55.9,7:53 AM,,10.0,Calm,Calm,0,Boise,Idaho,83701
8,Scattered Clouds,2016-05-08 14:53:00,53.1,,-,84,N/A,29.73,57.9,8:53 AM,,10.0,Calm,Calm,0,Boise,Idaho,83701
9,Clear,2016-05-08 15:53:00,55.0,,-,75,N/A,29.71,63.0,9:53 AM,,10.0,NW,6.9,320,Boise,Idaho,83701
10,Clear,2016-05-08 16:53:00,54.0,,-,65,N/A,29.69,66.0,10:53 AM,,10.0,NW,8.1,310,Boise,Idaho,83701
11,Clear,2016-05-08 17:53:00,54.0,,-,63,N/A,29.68,66.9,11:53 AM,,10.0,WNW,15.0,300,Boise,Idaho,83701
12,Clear,2016-05-08 18:53:00,53.1,,-,55,N/A,29.67,70.0,12:53 PM,,10.0,NW,13.8,310,Boise,Idaho,83701
13,Partly Cloudy,2016-05-08 19:53:00,48.9,,25.3,42,N/A,29.64,73.0,1:53 PM,,10.0,NW,18.4,320,Boise,Idaho,83701
14,Clear,2016-05-08 20:53:00,48.0,,25.3,38,N/A,29.62,75.0,2:53 PM,,10.0,WNW,20.7,300,Boise,Idaho,83701
15,Clear,2016-05-08 21:53:00,44.1,,-,31,N/A,29.60,77.0,3:53 PM,,10.0,WNW,18.4,290,Boise,Idaho,83701
16,Clear,2016-05-08 22:53:00,43.0,,-,30,N/A,29.58,77.0,4:53 PM,,10.0,WNW,16.1,300,Boise,Idaho,83701
17,Clear,2016-05-08 23:53:00,43.0,,18.4,29,N/A,29.56,78.1,5:53 PM,,10.0,NW,11.5,320,Boise,Idaho,83701
18,Clear,2016-05-09 00:53:00,42.1,,-,28,N/A,29.55,78.1,6:53 PM,,10.0,NW,12.7,310,Boise,Idaho,83701
19,Clear,2016-05-09 01:53:00,43.0,,-,31,N/A,29.54,75.9,7:53 PM,,10.0,NW,11.5,320,Boise,Idaho,83701
20,Clear,2016-05-09 02:53:00,41.0,,-,33,N/A,29.55,72.0,8:53 PM,,10.0,NW,13.8,320,Boise,Idaho,83701
21,Clear,2016-05-09 03:53:00,42.1,,-,39,N/A,29.58,68.0,9:53 PM,,10.0,NW,15.0,320,Boise,Idaho,83701
22,Clear,2016-05-09 04:53:00,39.9,,-,40,N/A,29.61,64.9,10:53 PM,,10.0,WNW,12.7,300,Boise,Idaho,83701
23,Clear,2016-05-09 05:53:00,35.1,,-,37,N/A,29.63,62.1,11:53 PM,,10.0,West,8.1,280,Boise,Idaho,83701
0,Clear,2016-05-09 06:53:00,28.9,,-,32,N/A,29.65,59.0,12:53 AM,,10.0,WNW,13.8,300,Boise,Idaho,83701
1,Clear,2016-05-09 07:53:00,30.0,,-,38,N/A,29.67,55.0,1:53 AM,,10.0,West,8.1,280,Boise,Idaho,83701
2,Clear,2016-05-09 08:53:00,30.0,,-,41,N/A,29.68,53.1,2:53 AM,,10.0,West,8.1,270,Boise,Idaho,83701
3,Clear,2016-05-09 09:53:00,30.0,,-,44,N/A,29.69,51.1,3:53 AM,,10.0,WNW,5.8,290,Boise,Idaho,83701
4,Clear,2016-05-09 10:53:00,21.9,,-,35,N/A,29.71,48.9,4:53 AM,,10.0,NW,8.1,310,Boise,Idaho,83701
5,Clear,2016-05-09 11:53:00,24.1,,-,39,N/A,29.72,48.0,5:53 AM,,10.0,NW,15.0,320,Boise,Idaho,83701
6,Clear,2016-05-09 12:53:00,26.1,,-,46,N/A,29.75,46.0,6:53 AM,,10.0,NW,15.0,320,Boise,Idaho,83701
7,Clear,2016-05-09 13:53:00,26.1,,-,42,N/A,29.78,48.0,7:53 AM,,10.0,NW,13.8,310,Boise,Idaho,83701
8,Clear,2016-05-09 14:53:00,26.1,,32.2,41,N/A,29.80,48.9,8:53 AM,,10.0,NW,25.3,310,Boise,Idaho,83701
9,Clear,2016-05-09 15:53:00,25.0,,31.1,36,N/A,29.83,51.1,9:53 AM,,10.0,NW,21.9,310,Boise,Idaho,83701
10,Clear,2016-05-09 16:53:00,23.0,,36.8,31,N/A,29.84,53.1,10:53 AM,,10.0,NW,26.5,310,Boise,Idaho,83701
11,Clear,2016-05-09 17:53:00,27.0,,32.2,34,N/A,29.85,55.0,11:53 AM,,10.0,NW,25.3,320,Boise,Idaho,83701
12,Mostly Cloudy,2016-05-09 18:53:00,26.1,,31.1,33,N/A,29.86,55.0,12:53 PM,,10.0,NW,24.2,320,Boise,Idaho,83701
13,Partly Cloudy,2016-05-09 19:53:00,26.1,,29.9,30,N/A,29.86,57.0,1:53 PM,,10.0,WNW,24.2,300,Boise,Idaho,83701
14,Partly Cloudy,2016-05-09 20:53:00,24.1,,33.4,26,N/A,29.86,59.0,2:53 PM,,10.0,NW,25.3,320,Boise,Idaho,83701
15,Mostly Cloudy,2016-05-09 21:53:00,30.9,,35.7,37,N/A,29.90,57.0,3:53 PM,,10.0,North,23.0,360,Boise,Idaho,83701
16,Scattered Clouds,2016-05-09 22:53:00,28.9,,26.5,33,0.00,29.90,57.9,4:53 PM,,10.0,NNW,21.9,330,Boise,Idaho,83701
17,Clear,2016-05-09 23:53:00,26.1,,28.8,28,N/A,29.90,59.0,5:53 PM,,10.0,NNW,20.7,330,Boise,Idaho,83701
18,Scattered Clouds,2016-05-10 00:53:00,25.0,,29.9,28,N/A,29.92,57.9,6:53 PM,,10.0,NNW,23.0,330,Boise,Idaho,83701
19,Partly Cloudy,2016-05-10 01:53:00,25.0,,24.2,29,N/A,29.93,57.0,7:53 PM,,10.0,NW,16.1,310,Boise,Idaho,83701
20,Clear,2016-05-10 02:53:00,25.0,,-,31,N/A,29.96,55.0,8:53 PM,,10.0,NW,12.7,320,Boise,Idaho,83701
21,Clear,2016-05-10 03:53:00,27.0,,-,38,N/A,29.99,52.0,9:53 PM,,10.0,NW,8.1,320,Boise,Idaho,83701
22,Clear,2016-05-10 04:53:00,28.9,,-,44,N/A,30.01,50.0,10:53 PM,,10.0,NW,9.2,320,Boise,Idaho,83701
23,Clear,2016-05-10 05:53:00,30.9,,-,52,N/A,30.01,48.0,11:53 PM,,10.0,NW,6.9,310,Boise,Idaho,83701
0,Clear,2016-05-10 06:53:00,32.0,,-,56,N/A,30.02,46.9,12:53 AM,,10.0,NW,6.9,320,Boise,Idaho,83701
1,Clear,2016-05-10 07:53:00,33.1,,-,63,N/A,30.03,45.0,1:53 AM,,10.0,WNW,5.8,300,Boise,Idaho,83701
2,Clear,2016-05-10 08:53:00,33.1,,-,65,N/A,30.04,44.1,2:53 AM,,10.0,West,6.9,280,Boise,Idaho,83701
3,Clear,2016-05-10 09:53:00,33.1,,-,68,N/A,30.06,43.0,3:53 AM,,10.0,Calm,Calm,0,Boise,Idaho,83701
4,Clear,2016-05-10 10:53:00,34.0,,-,76,N/A,30.07,41.0,4:53 AM,,10.0,Calm,Calm,0,Boise,Idaho,83701
5,Overcast,2016-05-10 11:53:00,34.0,,-,79,N/A,30.08,39.9,5:53 AM,,10.0,South,3.5,180,Boise,Idaho,83701
6,Partly Cloudy,2016-05-10 12:53:00,35.1,,-,79,N/A,30.09,41.0,6:53 AM,,10.0,Calm,Calm,0,Boise,Idaho,83701
7,Clear,2016-05-10 13:53:00,36.0,,-,76,N/A,30.12,43.0,7:53 AM,,10.0,West,4.6,280,Boise,Idaho,83701
8,Clear,2016-05-10 14:53:00,36.0,,-,63,N/A,30.12,48.0,8:53 AM,,10.0,NW,10.4,320,Boise,Idaho,83701
9,Clear,2016-05-10 15:53:00,37.0,,-,57,N/A,30.13,52.0,9:53 AM,,10.0,WNW,11.5,300,Boise,Idaho,83701
10,Clear,2016-05-10 16:53:00,36.0,,21.9,49,N/A,30.12,55.0,10:53 AM,,10.0,NW,16.1,310,Boise,Idaho,83701
11,Clear,2016-05-10 17:53:00,35.1,,20.7,42,N/A,30.12,57.9,11:53 AM,,10.0,WNW,13.8,290,Boise,Idaho,83701
12,Clear,2016-05-10 18:53:00,33.1,,23.0,35,N/A,30.11,61.0,12:53 PM,,10.0,NW,16.1,310,Boise,Idaho,83701
13,Partly Cloudy,2016-05-10 19:53:00,30.0,,27.6,31,N/A,30.10,61.0,1:53 PM,,10.0,WNW,15.0,290,Boise,Idaho,83701
14,Scattered Clouds,2016-05-10 20:53:00,30.9,,-,28,N/A,30.09,64.9,2:53 PM,,10.0,NNW,13.8,340,Boise,Idaho,83701
15,Mostly Cloudy,2016-05-10 21:53:00,30.9,,29.9,30,N/A,30.10,63.0,3:53 PM,,10.0,North,20.7,350,Boise,Idaho,83701
16,Light Rain,2016-05-10 22:16:00,28.4,Rain,34.5,31,0.00,30.11,59.0,4:16 PM,,10.0,Variable,6.9,0,Boise,Idaho,83701
17,Clear,2016-05-10 22:53:00,28.0,,-,26,0.00,30.09,64.0,4:53 PM,,10.0,Variable,5.8,0,Boise,Idaho,83701
18,Clear,2016-05-10 23:51:00,21.2,,23.0,18,N/A,30.10,66.2,5:51 PM,,10.0,NNW,17.3,330,Boise,Idaho,83701
19,Clear,2016-05-10 23:53:00,21.9,,23.0,19,N/A,30.08,66.0,5:53 PM,,10.0,NW,17.3,320,Boise,Idaho,83701
20,Clear,2016-05-11 00:05:00,21.2,,-,18,N/A,30.10,66.2,6:05 PM,,10.0,NW,12.7,320,Boise,Idaho,83701
21,Clear,2016-05-11 00:53:00,23.0,,-,20,N/A,30.09,64.9,6:53 PM,,10.0,NW,18.4,310,Boise,Idaho,83701
22,Clear,2016-05-11 01:53:00,24.1,,21.9,23,N/A,30.11,63.0,7:53 PM,,10.0,NNW,15.0,330,Boise,Idaho,83701
23,Clear,2016-05-11 02:53:00,24.1,,-,25,N/A,30.12,60.1,8:53 PM,,10.0,NNW,10.4,340,Boise,Idaho,83701
24,Clear,2016-05-11 03:53:00,25.0,,-,29,N/A,30.14,57.0,9:53 PM,,10.0,NNW,8.1,330,Boise,Idaho,83701
25,Clear,2016-05-11 04:53:00,27.0,,-,37,N/A,30.16,53.1,10:53 PM,,10.0,NNW,4.6,330,Boise,Idaho,83701
26,Clear,2016-05-11 05:53:00,28.9,,-,44,N/A,30.17,50.0,11:53 PM,,10.0,Calm,Calm,0,Boise,Idaho,83701
0,Clear,2016-05-11 06:53:00,28.9,,-,48,N/A,30.19,48.0,12:53 AM,,10.0,SE,3.5,140,Boise,Idaho,83701
1,Clear,2016-05-11 07:53:00,30.0,,-,48,N/A,30.20,48.9,1:53 AM,,10.0,South,6.9,170,Boise,Idaho,83701
2,Clear,2016-05-11 08:53:00,35.1,,-,61,N/A,30.20,48.0,2:53 AM,,10.0,SSE,6.9,150,Boise,Idaho,83701
3,Clear,2016-05-11 09:53:00,35.1,,-,68,N/A,30.22,45.0,3:53 AM,,10.0,South,3.5,170,Boise,Idaho,83701
4,Clear,2016-05-11 10:53:00,30.9,,-,62,N/A,30.23,43.0,4:53 AM,,10.0,SSE,8.1,150,Boise,Idaho,83701
5,Clear,2016-05-11 11:53:00,30.9,,-,65,N/A,30.25,42.1,5:53 AM,,10.0,SE,8.1,140,Boise,Idaho,83701
6,Clear,2016-05-11 12:53:00,30.9,,-,67,N/A,30.26,41.0,6:53 AM,,10.0,SSE,8.1,150,Boise,Idaho,83701
7,Clear,2016-05-11 13:53:00,32.0,,-,60,N/A,30.27,45.0,7:53 AM,,10.0,SSE,4.6,150,Boise,Idaho,83701
8,Clear,2016-05-11 14:53:00,32.0,,-,47,N/A,30.26,52.0,8:53 AM,,10.0,SE,4.6,140,Boise,Idaho,83701
9,Clear,2016-05-11 15:53:00,33.1,,-,42,N/A,30.26,55.9,9:53 AM,,10.0,SSE,8.1,150,Boise,Idaho,83701
10,Clear,2016-05-11 16:53:00,34.0,,-,41,N/A,30.25,57.9,10:53 AM,,10.0,ESE,3.5,110,Boise,Idaho,83701
11,Clear,2016-05-11 17:53:00,33.1,,-,34,N/A,30.24,62.1,11:53 AM,,10.0,South,5.8,170,Boise,Idaho,83701
12,Clear,2016-05-11 18:53:00,30.0,,16.1,28,N/A,30.23,64.0,12:53 PM,,10.0,East,5.8,100,Boise,Idaho,83701
13,Clear,2016-05-11 19:53:00,27.0,,-,23,N/A,30.20,66.0,1:53 PM,,10.0,SE,6.9,130,Boise,Idaho,83701
14,Clear,2016-05-11 20:53:00,24.1,,-,20,N/A,30.18,66.9,2:53 PM,,10.0,South,6.9,190,Boise,Idaho,83701
15,Clear,2016-05-11 21:53:00,25.0,,17.3,18,N/A,30.17,70.0,3:53 PM,,10.0,SSE,9.2,160,Boise,Idaho,83701
16,Clear,2016-05-11 22:53:00,24.1,,-,18,N/A,30.15,69.1,4:53 PM,,10.0,Variable,4.6,0,Boise,Idaho,83701
17,Clear,2016-05-11 23:53:00,23.0,,-,18,N/A,30.13,69.1,5:53 PM,,10.0,Calm,Calm,0,Boise,Idaho,83701
18,Clear,2016-05-12 00:53:00,25.0,,-,18,N/A,30.12,70.0,6:53 PM,,10.0,SE,6.9,140,Boise,Idaho,83701
19,Clear,2016-05-12 01:53:00,25.0,,-,19,N/A,30.11,69.1,7:53 PM,,10.0,East,5.8,100,Boise,Idaho,83701
20,Clear,2016-05-12 02:53:00,27.0,,-,22,N/A,30.10,66.9,8:53 PM,,10.0,ESE,5.8,110,Boise,Idaho,83701
21,Clear,2016-05-12 03:53:00,30.9,,-,31,N/A,30.12,62.1,9:53 PM,,10.0,ESE,6.9,120,Boise,Idaho,83701
22,Clear,2016-05-12 04:53:00,32.0,,-,39,N/A,30.12,57.0,10:53 PM,,10.0,SE,6.9,130,Boise,Idaho,83701
23,Clear,2016-05-12 05:53:00,33.1,,-,43,N/A,30.12,55.0,11:53 PM,,10.0,SE,9.2,130,Boise,Idaho,83701
0,Clear,2016-05-12 06:53:00,32.0,,-,42,N/A,30.11,55.0,12:53 AM,,10.0,SE,10.4,130,Boise,Idaho,83701
1,Clear,2016-05-12 07:53:00,32.0,,-,42,N/A,30.10,55.0,1:53 AM,,10.0,SE,11.5,130,Boise,Idaho,83701
2,Clear,2016-05-12 08:53:00,33.1,,-,50,N/A,30.09,51.1,2:53 AM,,10.0,SSE,13.8,150,Boise,Idaho,83701
3,Clear,2016-05-12 09:53:00,32.0,,-,43,N/A,30.08,54.0,3:53 AM,,10.0,ESE,12.7,120,Boise,Idaho,83701
4,Clear,2016-05-12 10:53:00,30.9,,-,41,N/A,30.08,54.0,4:53 AM,,10.0,SE,11.5,130,Boise,Idaho,83701
5,Clear,2016-05-12 11:53:00,30.0,,-,38,N/A,30.07,55.0,5:53 AM,,10.0,SE,12.7,130,Boise,Idaho,83701
6,Clear,2016-05-12 12:53:00,30.0,,-,38,N/A,30.06,55.0,6:53 AM,,10.0,SE,13.8,130,Boise,Idaho,83701
7,Clear,2016-05-12 13:53:00,30.9,,-,36,N/A,30.07,57.9,7:53 AM,,10.0,SE,8.1,140,Boise,Idaho,83701
8,Clear,2016-05-12 14:53:00,33.1,,-,35,N/A,30.08,61.0,8:53 AM,,10.0,SSE,12.7,150,Boise,Idaho,83701
9,Clear,2016-05-12 15:53:00,32.0,,-,28,N/A,30.07,66.0,9:53 AM,,10.0,ESE,13.8,120,Boise,Idaho,83701
10,Clear,2016-05-12 16:53:00,33.1,,19.6,24,N/A,30.06,72.0,10:53 AM,,10.0,ESE,13.8,120,Boise,Idaho,83701
11,Clear,2016-05-12 17:53:00,28.0,,23.0,18,N/A,30.05,75.0,11:53 AM,,10.0,SE,17.3,130,Boise,Idaho,83701
12,Clear,2016-05-12 18:53:00,26.1,,-,15,N/A,30.04,77.0,12:53 PM,,10.0,SSE,12.7,150,Boise,Idaho,83701
13,Clear,2016-05-12 19:53:00,27.0,,20.7,14,N/A,30.01,80.1,1:53 PM,,10.0,SSE,12.7,160,Boise,Idaho,83701
14,Clear,2016-05-12 20:53:00,27.0,,-,13,N/A,29.99,82.0,2:53 PM,,10.0,SE,10.4,140,Boise,Idaho,83701
15,Clear,2016-05-12 21:53:00,28.0,,-,14,N/A,29.96,82.0,3:53 PM,,10.0,SE,6.9,130,Boise,Idaho,83701
16,Clear,2016-05-12 22:53:00,28.0,,-,14,N/A,29.94,82.9,4:53 PM,,10.0,SE,6.9,140,Boise,Idaho,83701
17,Clear,2016-05-12 23:53:00,28.9,,-,14,N/A,29.92,84.0,5:53 PM,,10.0,East,6.9,80,Boise,Idaho,83701
18,Clear,2016-05-13 00:53:00,28.0,,-,14,N/A,29.91,82.0,6:53 PM,,10.0,ESE,9.2,120,Boise,Idaho,83701
19,Clear,2016-05-13 01:53:00,30.0,,-,16,N/A,29.90,81.0,7:53 PM,,10.0,East,8.1,80,Boise,Idaho,83701
20,Clear,2016-05-13 02:53:00,32.0,,-,20,N/A,29.90,75.9,8:53 PM,,10.0,ESE,4.6,110,Boise,Idaho,83701
21,Clear,2016-05-13 03:53:00,37.0,,-,31,N/A,29.91,69.1,9:53 PM,,10.0,ESE,4.6,120,Boise,Idaho,83701
22,Clear,2016-05-13 04:53:00,37.0,,-,32,N/A,29.91,68.0,10:53 PM,,10.0,SE,9.2,130,Boise,Idaho,83701
23,Clear,2016-05-13 05:53:00,37.9,,-,36,N/A,29.91,66.0,11:53 PM,,10.0,ESE,9.2,120,Boise,Idaho,83701
0,Clear,2016-05-13 06:53:00,37.0,,-,36,N/A,29.91,64.9,12:53 AM,,10.0,SE,9.2,130,Boise,Idaho,83701
1,Clear,2016-05-13 07:53:00,37.0,,-,39,N/A,29.91,62.1,1:53 AM,,10.0,SE,9.2,140,Boise,Idaho,83701
2,Clear,2016-05-13 08:53:00,37.9,,-,46,N/A,29.93,59.0,2:53 AM,,10.0,Calm,Calm,0,Boise,Idaho,83701
3,Clear,2016-05-13 09:53:00,37.9,,-,49,N/A,29.94,57.0,3:53 AM,,10.0,SE,8.1,140,Boise,Idaho,83701
4,Clear,2016-05-13 10:53:00,37.9,,-,51,N/A,29.95,55.9,4:53 AM,,10.0,SE,5.8,130,Boise,Idaho,83701
5,Clear,2016-05-13 11:53:00,37.0,,-,53,N/A,29.97,54.0,5:53 AM,,10.0,South,4.6,180,Boise,Idaho,83701
6,Clear,2016-05-13 12:53:00,37.0,,-,55,N/A,29.99,53.1,6:53 AM,,10.0,SE,9.2,140,Boise,Idaho,83701
7,Clear,2016-05-13 13:53:00,39.0,,-,51,N/A,29.99,57.0,7:53 AM,,10.0,SE,10.4,130,Boise,Idaho,83701
8,Clear,2016-05-13 14:53:00,39.0,,-,41,N/A,30.01,63.0,8:53 AM,,10.0,SE,9.2,130,Boise,Idaho,83701
9,Clear,2016-05-13 15:53:00,36.0,,-,30,N/A,30.01,69.1,9:53 AM,,10.0,SE,4.6,130,Boise,Idaho,83701
10,Clear,2016-05-13 16:53:00,37.0,,-,28,N/A,30.01,72.0,10:53 AM,,10.0,SE,3.5,130,Boise,Idaho,83701
11,Clear,2016-05-13 17:53:00,36.0,,-,23,N/A,30.00,75.9,11:53 AM,,10.0,Calm,Calm,0,Boise,Idaho,83701
12,Clear,2016-05-13 18:53:00,35.1,,-,20,N/A,29.98,79.0,12:53 PM,,10.0,NW,4.6,320,Boise,Idaho,83701
13,Clear,2016-05-13 19:53:00,32.0,,-,18,N/A,29.96,79.0,1:53 PM,,10.0,Calm,Calm,0,Boise,Idaho,83701
14,Clear,2016-05-13 20:53:00,34.0,,-,18,N/A,29.94,81.0,2:53 PM,,10.0,Calm,Calm,0,Boise,Idaho,83701
15,Clear,2016-05-13 21:53:00,35.1,,-,18,N/A,29.92,82.0,3:53 PM,,10.0,North,6.9,350,Boise,Idaho,83701
16,Clear,2016-05-13 22:53:00,27.0,,-,13,N/A,29.90,84.0,4:53 PM,,10.0,North,6.9,360,Boise,Idaho,83701
17,Clear,2016-05-13 23:53:00,28.0,,-,13,N/A,29.88,84.0,5:53 PM,,10.0,North,9.2,10,Boise,Idaho,83701
18,Clear,2016-05-14 00:53:00,25.0,,-,12,N/A,29.86,84.0,6:53 PM,,10.0,North,10.4,350,Boise,Idaho,83701
19,Clear,2016-05-14 01:53:00,30.9,,-,15,N/A,29.83,82.9,7:53 PM,,10.0,North,10.4,360,Boise,Idaho,83701
20,Clear,2016-05-14 02:53:00,37.0,,-,23,N/A,29.83,78.1,8:53 PM,,10.0,North,5.8,10,Boise,Idaho,83701
21,Clear,2016-05-14 03:53:00,39.0,,-,28,N/A,29.82,73.9,9:53 PM,,10.0,NE,5.8,40,Boise,Idaho,83701
22,Clear,2016-05-14 04:53:00,39.9,,-,33,N/A,29.81,70.0,10:53 PM,,10.0,SE,6.9,140,Boise,Idaho,83701
23,Clear,2016-05-14 05:53:00,39.0,,-,35,N/A,29.80,68.0,11:53 PM,,10.0,ESE,5.8,120,Boise,Idaho,83701
0,Clear,2016-05-14 06:53:00,37.0,,-,32,N/A,29.78,68.0,12:53 AM,,10.0,SE,6.9,130,Boise,Idaho,83701
1,Clear,2016-05-14 07:53:00,39.0,,-,40,N/A,29.79,64.0,1:53 AM,,10.0,Calm,Calm,0,Boise,Idaho,83701
2,Clear,2016-05-14 08:53:00,41.0,,-,49,N/A,29.78,60.1,2:53 AM,,10.0,SSW,3.5,210,Boise,Idaho,83701
3,Clear,2016-05-14 09:53:00,37.9,,-,44,N/A,29.78,60.1,3:53 AM,,10.0,ESE,3.5,110,Boise,Idaho,83701
4,Clear,2016-05-14 10:53:00,39.0,,-,48,N/A,29.78,59.0,4:53 AM,,10.0,SW,3.5,230,Boise,Idaho,83701
5,Clear,2016-05-14 11:53:00,41.0,,-,53,N/A,29.78,57.9,5:53 AM,,10.0,ESE,5.8,110,Boise,Idaho,83701
6,Clear,2016-05-14 12:53:00,37.9,,-,47,N/A,29.76,57.9,6:53 AM,,10.0,SE,12.7,130,Boise,Idaho,83701
7,Clear,2016-05-14 13:53:00,37.9,,-,40,N/A,29.75,63.0,7:53 AM,,10.0,SE,15.0,140,Boise,Idaho,83701
8,Clear,2016-05-14 14:53:00,39.0,,-,36,N/A,29.77,66.9,8:53 AM,,10.0,SSE,9.2,160,Boise,Idaho,83701
9,Clear,2016-05-14 15:53:00,41.0,,-,37,N/A,29.77,68.0,9:53 AM,,10.0,Calm,Calm,0,Boise,Idaho,83701
10,Clear,2016-05-14 16:53:00,41.0,,-,36,N/A,29.76,69.1,10:53 AM,,10.0,WNW,4.6,290,Boise,Idaho,83701
11,Clear,2016-05-14 17:53:00,39.9,,-,31,N/A,29.75,72.0,11:53 AM,,10.0,North,8.1,360,Boise,Idaho,83701
12,Clear,2016-05-14 18:53:00,41.0,,-,31,N/A,29.74,73.0,12:53 PM,,10.0,West,3.5,280,Boise,Idaho,83701
13,Clear,2016-05-14 19:53:00,43.0,,-,31,N/A,29.72,75.9,1:53 PM,,10.0,WNW,15.0,300,Boise,Idaho,83701
14,Clear,2016-05-14 20:53:00,45.0,,-,34,N/A,29.72,75.0,2:53 PM,,10.0,WNW,15.0,300,Boise,Idaho,83701
15,Clear,2016-05-14 21:53:00,45.0,,-,33,N/A,29.71,75.9,3:53 PM,,10.0,NW,9.2,310,Boise,Idaho,83701
16,Clear,2016-05-14 22:53:00,43.0,,-,31,N/A,29.69,75.9,4:53 PM,,10.0,North,8.1,350,Boise,Idaho,83701
17,Clear,2016-05-14 23:53:00,43.0,,-,29,N/A,29.67,78.1,5:53 PM,,10.0,NNE,6.9,20,Boise,Idaho,83701
18,Clear,2016-05-15 00:53:00,41.0,,-,26,N/A,29.65,79.0,6:53 PM,,10.0,North,4.6,350,Boise,Idaho,83701
19,Thunderstorm,2016-05-15 01:44:00,39.2,Thunderstorm,31.1,27,N/A,29.72,75.2,7:44 PM,,10.0,SSE,19.6,150,Boise,Idaho,83701
20,Light Thunderstorms and Rain,2016-05-15 01:53:00,44.1,Rain-Thunderstorm,35.7,38,0.00,29.67,71.1,7:53 PM,,7.0,SSE,24.2,150,Boise,Idaho,83701
21,Light Rain,2016-05-15 02:18:00,51.8,Rain,-,60,0.04,29.70,66.2,8:18 PM,,10.0,ESE,12.7,120,Boise,Idaho,83701
22,Clear,2016-05-15 02:53:00,46.9,,-,49,0.04,29.63,66.9,8:53 PM,,10.0,ESE,8.1,110,Boise,Idaho,83701
23,Clear,2016-05-15 03:53:00,45.0,,-,48,N/A,29.62,64.9,9:53 PM,,10.0,ESE,11.5,120,Boise,Idaho,83701
24,Clear,2016-05-15 04:53:00,46.0,,31.1,54,N/A,29.68,63.0,10:53 PM,,10.0,WNW,21.9,290,Boise,Idaho,83701
25,Clear,2016-05-15 05:09:00,46.4,,28.8,59,N/A,29.76,60.8,11:09 PM,,10.0,NW,16.1,320,Boise,Idaho,83701
26,Clear,2016-05-15 05:53:00,46.0,,19.6,62,N/A,29.73,59.0,11:53 PM,,10.0,WNW,13.8,300,Boise,Idaho,83701
0,Mostly Cloudy,2016-05-15 06:53:00,46.9,,-,69,N/A,29.76,57.0,12:53 AM,,10.0,WNW,15.0,290,Boise,Idaho,83701
1,Overcast,2016-05-15 07:53:00,46.9,,-,69,N/A,29.77,57.0,1:53 AM,,10.0,West,9.2,280,Boise,Idaho,83701
2,Scattered Clouds,2016-05-15 08:53:00,46.0,,-,69,N/A,29.78,55.9,2:53 AM,,10.0,North,12.7,350,Boise,Idaho,83701
3,Mostly Cloudy,2016-05-15 09:53:00,46.9,,-,77,0.00,29.79,54.0,3:53 AM,,10.0,NW,5.8,320,Boise,Idaho,83701
4,Mostly Cloudy,2016-05-15 10:53:00,46.9,,-,77,0.00,29.79,54.0,4:53 AM,,10.0,WNW,6.9,290,Boise,Idaho,83701
5,Mostly Cloudy,2016-05-15 11:53:00,46.0,,-,80,N/A,29.80,52.0,5:53 AM,,10.0,WNW,4.6,300,Boise,Idaho,83701
6,Overcast,2016-05-15 12:53:00,46.9,,-,83,N/A,29.80,52.0,6:53 AM,,10.0,Calm,Calm,0,Boise,Idaho,83701
7,Overcast,2016-05-15 13:53:00,46.9,,-,77,N/A,29.81,54.0,7:53 AM,,10.0,Calm,Calm,0,Boise,Idaho,83701
8,Overcast,2016-05-15 14:53:00,46.9,,-,74,N/A,29.83,55.0,8:53 AM,,10.0,WNW,3.5,300,Boise,Idaho,83701
9,Overcast,2016-05-15 15:53:00,45.0,,-,67,N/A,29.83,55.9,9:53 AM,,10.0,West,8.1,280,Boise,Idaho,83701
10,Overcast,2016-05-15 16:53:00,45.0,,-,62,N/A,29.83,57.9,10:53 AM,,10.0,WNW,8.1,300,Boise,Idaho,83701
11,Mostly Cloudy,2016-05-15 17:53:00,45.0,,16.1,53,N/A,29.83,62.1,11:53 AM,,10.0,WNW,11.5,300,Boise,Idaho,83701
12,Mostly Cloudy,2016-05-15 18:53:00,48.9,,-,69,0.01,29.85,59.0,12:53 PM,,10.0,North,6.9,350,Boise,Idaho,83701
13,Light Rain,2016-05-15 19:42:00,48.2,Rain,19.6,72,0.00,29.88,57.2,1:42 PM,,7.0,WNW,12.7,290,Boise,Idaho,83701
14,Heavy Rain,2016-05-15 19:47:00,50.0,Rain,-,88,0.03,29.89,53.6,1:47 PM,,1.8,West,15.0,270,Boise,Idaho,83701
15,Light Rain,2016-05-15 19:53:00,50.0,Rain,-,89,0.05,29.87,53.1,1:53 PM,,1.8,West,12.7,270,Boise,Idaho,83701
16,Rain,2016-05-15 20:00:00,48.2,Rain,-,88,0.02,29.89,51.8,2:00 PM,,2.5,WNW,9.2,290,Boise,Idaho,83701
17,Light Rain,2016-05-15 20:05:00,48.2,Rain-Thunderstorm,-,82,0.03,29.90,53.6,2:05 PM,,3.0,WNW,9.2,300,Boise,Idaho,83701
18,Light Rain,2016-05-15 20:22:00,48.2,Rain,-,77,0.03,29.90,55.4,2:22 PM,,10.0,NNW,6.9,330,Boise,Idaho,83701
19,Light Rain,2016-05-15 20:53:00,50.0,Rain,-,83,0.04,29.87,55.0,2:53 PM,,4.0,WNW,4.6,300,Boise,Idaho,83701
20,Mostly Cloudy,2016-05-15 21:53:00,46.0,,-,60,0.00,29.85,60.1,3:53 PM,,10.0,West,4.6,280,Boise,Idaho,83701
21,Overcast,2016-05-15 22:53:00,46.9,,-,64,N/A,29.84,59.0,4:53 PM,,10.0,NE,4.6,50,Boise,Idaho,83701
22,Overcast,2016-05-15 23:53:00,44.1,,-,55,N/A,29.84,60.1,5:53 PM,,10.0,WNW,12.7,300,Boise,Idaho,83701
23,Mostly Cloudy,2016-05-16 00:53:00,44.1,,19.6,55,N/A,29.84,60.1,6:53 PM,,10.0,WNW,9.2,290,Boise,Idaho,83701
24,Mostly Cloudy,2016-05-16 01:53:00,44.1,,-,55,N/A,29.85,60.1,7:53 PM,,10.0,WNW,11.5,300,Boise,Idaho,83701
25,Scattered Clouds,2016-05-16 02:53:00,44.1,,-,62,N/A,29.85,57.0,8:53 PM,,10.0,NW,8.1,310,Boise,Idaho,83701
26,Clear,2016-05-16 03:53:00,44.1,,-,67,N/A,29.87,55.0,9:53 PM,,10.0,NNW,9.2,330,Boise,Idaho,83701
27,Clear,2016-05-16 04:53:00,44.1,,-,69,N/A,29.89,54.0,10:53 PM,,10.0,WNW,9.2,300,Boise,Idaho,83701
28,Overcast,2016-05-16 05:53:00,46.0,,-,77,N/A,29.89,53.1,11:53 PM,,10.0,WNW,6.9,300,Boise,Idaho,83701
0,Clear,2016-05-16 06:53:00,46.9,,-,86,N/A,29.91,51.1,12:53 AM,,10.0,WNW,10.4,300,Boise,Idaho,83701
1,Overcast,2016-05-16 07:53:00,46.9,,-,89,N/A,29.92,50.0,1:53 AM,,10.0,WNW,8.1,300,Boise,Idaho,83701
2,Partly Cloudy,2016-05-16 08:53:00,46.9,,-,93,N/A,29.92,48.9,2:53 AM,,10.0,NW,3.5,320,Boise,Idaho,83701
3,Partly Cloudy,2016-05-16 09:53:00,45.0,,-,89,N/A,29.91,48.0,3:53 AM,,10.0,NW,3.5,320,Boise,Idaho,83701
4,Clear,2016-05-16 10:53:00,43.0,,-,83,N/A,29.92,48.0,4:53 AM,,10.0,West,5.8,280,Boise,Idaho,83701
5,Clear,2016-05-16 11:53:00,43.0,,-,83,N/A,29.93,48.0,5:53 AM,,10.0,WNW,4.6,300,Boise,Idaho,83701
6,Clear,2016-05-16 12:53:00,42.1,,-,83,N/A,29.94,46.9,6:53 AM,,10.0,West,9.2,280,Boise,Idaho,83701
7,Clear,2016-05-16 13:53:00,43.0,,-,77,N/A,29.95,50.0,7:53 AM,,10.0,NW,6.9,310,Boise,Idaho,83701
8,Clear,2016-05-16 14:53:00,44.1,,-,71,N/A,29.96,53.1,8:53 AM,,10.0,WNW,11.5,300,Boise,Idaho,83701
9,Clear,2016-05-16 15:53:00,44.1,,-,67,N/A,29.97,55.0,9:53 AM,,10.0,WNW,15.0,300,Boise,Idaho,83701
10,Mostly Cloudy,2016-05-16 16:53:00,43.0,,19.6,59,N/A,29.98,57.0,10:53 AM,,10.0,WNW,16.1,300,Boise,Idaho,83701
11,Scattered Clouds,2016-05-16 17:53:00,43.0,,-,52,N/A,29.97,61.0,11:53 AM,,10.0,WNW,12.7,300,Boise,Idaho,83701
12,Partly Cloudy,2016-05-16 18:53:00,43.0,,21.9,48,N/A,29.96,63.0,12:53 PM,,10.0,WNW,13.8,290,Boise,Idaho,83701
13,Partly Cloudy,2016-05-16 19:53:00,42.1,,-,42,N/A,29.94,66.0,1:53 PM,,10.0,NW,13.8,320,Boise,Idaho,83701
14,Mostly Cloudy,2016-05-16 20:53:00,42.1,,23.0,42,N/A,29.94,66.0,2:53 PM,,10.0,NW,15.0,320,Boise,Idaho,83701
15,Mostly Cloudy,2016-05-16 21:53:00,41.0,,21.9,39,N/A,29.93,66.9,3:53 PM,,10.0,WNW,16.1,290,Boise,Idaho,83701
16,Clear,2016-05-16 22:53:00,41.0,,-,39,N/A,29.94,66.9,4:53 PM,,10.0,NNW,15.0,330,Boise,Idaho,83701
17,Scattered Clouds,2016-05-16 23:53:00,42.1,,-,45,N/A,29.96,64.0,5:53 PM,,10.0,ENE,8.1,60,Boise,Idaho,83701
18,Clear,2016-05-17 00:53:00,42.1,,-,45,N/A,29.96,64.0,6:53 PM,,10.0,NNW,9.2,340,Boise,Idaho,83701
19,Clear,2016-05-17 01:53:00,42.1,,-,46,N/A,29.96,63.0,7:53 PM,,10.0,NW,8.1,310,Boise,Idaho,83701
20,Clear,2016-05-17 02:53:00,43.0,,-,52,N/A,29.97,61.0,8:53 PM,,10.0,NW,6.9,310,Boise,Idaho,83701
21,Clear,2016-05-17 03:53:00,45.0,,-,62,N/A,29.99,57.9,9:53 PM,,10.0,NNW,4.6,330,Boise,Idaho,83701
22,Clear,2016-05-17 04:53:00,45.0,,-,67,N/A,30.01,55.9,10:53 PM,,10.0,Calm,Calm,0,Boise,Idaho,83701
23,Clear,2016-05-17 05:53:00,44.1,,-,71,N/A,30.02,53.1,11:53 PM,,10.0,SSW,3.5,210,Boise,Idaho,83701
0,Clear,2016-05-17 06:53:00,44.1,,-,71,N/A,30.03,53.1,12:53 AM,,10.0,Calm,Calm,0,Boise,Idaho,83701
1,Clear,2016-05-17 07:53:00,44.1,,-,80,N/A,30.04,50.0,1:53 AM,,10.0,Calm,Calm,0,Boise,Idaho,83701
2,Clear,2016-05-17 08:53:00,44.1,,-,80,N/A,30.05,50.0,2:53 AM,,10.0,Calm,Calm,0,Boise,Idaho,83701
3,Clear,2016-05-17 09:53:00,42.1,,-,83,N/A,30.06,46.9,3:53 AM,,10.0,SSW,3.5,210,Boise,Idaho,83701
4,Clear,2016-05-17 10:53:00,42.1,,-,80,N/A,30.06,48.0,4:53 AM,,10.0,Calm,Calm,0,Boise,Idaho,83701
5,Clear,2016-05-17 11:53:00,41.0,,-,86,N/A,30.08,45.0,5:53 AM,,10.0,Calm,Calm,0,Boise,Idaho,83701
6,Clear,2016-05-17 12:53:00,42.1,,-,86,N/A,30.10,46.0,6:53 AM,,10.0,Calm,Calm,0,Boise,Idaho,83701
7,Clear,2016-05-17 13:53:00,43.0,,-,80,N/A,30.12,48.9,7:53 AM,,10.0,Calm,Calm,0,Boise,Idaho,83701
8,Clear,2016-05-17 14:53:00,45.0,,-,74,N/A,30.13,53.1,8:53 AM,,10.0,Calm,Calm,0,Boise,Idaho,83701
9,Clear,2016-05-17 15:53:00,44.1,,-,62,N/A,30.13,57.0,9:53 AM,,10.0,WNW,5.8,290,Boise,Idaho,83701
10,Clear,2016-05-17 16:53:00,45.0,,-,56,N/A,30.13,61.0,10:53 AM,,10.0,WNW,8.1,290,Boise,Idaho,83701
11,Clear,2016-05-17 17:53:00,45.0,,-,48,N/A,30.12,64.9,11:53 AM,,10.0,NW,9.2,310,Boise,Idaho,83701
12,Clear,2016-05-17 18:53:00,45.0,,17.3,42,N/A,30.10,69.1,12:53 PM,,10.0,NNW,12.7,330,Boise,Idaho,83701
13,Clear,2016-05-17 19:53:00,44.1,,-,38,N/A,30.08,71.1,1:53 PM,,10.0,WNW,8.1,290,Boise,Idaho,83701
14,Clear,2016-05-17 20:53:00,42.1,,18.4,33,N/A,30.06,73.0,2:53 PM,,10.0,WNW,11.5,300,Boise,Idaho,83701
15,Clear,2016-05-17 21:53:00,43.0,,19.6,32,N/A,30.04,75.0,3:53 PM,,10.0,WNW,15.0,290,Boise,Idaho,83701
16,Clear,2016-05-17 22:53:00,41.0,,20.7,29,N/A,30.02,75.9,4:53 PM,,10.0,North,11.5,350,Boise,Idaho,83701
17,Clear,2016-05-17 23:53:00,39.0,,21.9,25,N/A,30.00,77.0,5:53 PM,,10.0,NW,13.8,310,Boise,Idaho,83701
18,Clear,2016-05-18 00:53:00,37.9,,20.7,25,N/A,30.00,75.9,6:53 PM,,10.0,NW,16.1,310,Boise,Idaho,83701
19,Clear,2016-05-18 01:53:00,35.1,,-,23,N/A,29.99,75.0,7:53 PM,,10.0,WNW,15.0,300,Boise,Idaho,83701
20,Clear,2016-05-18 02:53:00,35.1,,-,26,N/A,29.98,72.0,8:53 PM,,10.0,WNW,6.9,300,Boise,Idaho,83701
21,Clear,2016-05-18 03:53:00,37.0,,-,33,N/A,29.99,66.9,9:53 PM,,10.0,NNW,4.6,340,Boise,Idaho,83701
22,Clear,2016-05-18 04:53:00,41.0,,-,40,N/A,29.99,66.0,10:53 PM,,10.0,Calm,Calm,0,Boise,Idaho,83701
23,Clear,2016-05-18 05:53:00,39.9,,-,44,N/A,29.99,62.1,11:53 PM,,10.0,Calm,Calm,0,Boise,Idaho,83701
0,Clear,2016-05-18 06:53:00,42.1,,-,51,N/A,29.99,60.1,12:53 AM,,10.0,East,3.5,100,Boise,Idaho,83701
1,Clear,2016-05-18 07:53:00,42.1,,-,57,N/A,30.00,57.0,1:53 AM,,10.0,South,3.5,180,Boise,Idaho,83701
2,Clear,2016-05-18 08:53:00,43.0,,-,59,N/A,30.00,57.0,2:53 AM,,10.0,Calm,Calm,0,Boise,Idaho,83701
3,Clear,2016-05-18 09:53:00,43.0,,-,66,N/A,29.99,54.0,3:53 AM,,10.0,SE,3.5,130,Boise,Idaho,83701
4,Clear,2016-05-18 10:53:00,43.0,,-,66,N/A,30.00,54.0,4:53 AM,,10.0,Calm,Calm,0,Boise,Idaho,83701
5,Clear,2016-05-18 11:53:00,43.0,,-,66,N/A,30.00,54.0,5:53 AM,,10.0,Calm,Calm,0,Boise,Idaho,83701
6,Clear,2016-05-18 12:53:00,43.0,,-,69,N/A,30.01,53.1,6:53 AM,,10.0,SSE,5.8,160,Boise,Idaho,83701
7,Clear,2016-05-18 13:53:00,44.1,,-,64,N/A,30.02,55.9,7:53 AM,,10.0,ESE,4.6,120,Boise,Idaho,83701
8,Clear,2016-05-18 14:53:00,45.0,,-,56,N/A,30.02,61.0,8:53 AM,,10.0,Calm,Calm,0,Boise,Idaho,83701
9,Clear,2016-05-18 15:53:00,45.0,,-,52,N/A,30.02,63.0,9:53 AM,,10.0,Calm,Calm,0,Boise,Idaho,83701
10,Clear,2016-05-18 16:53:00,45.0,,-,43,N/A,30.01,68.0,10:53 AM,,10.0,West,6.9,280,Boise,Idaho,83701
11,Clear,2016-05-18 17:53:00,44.1,,-,38,N/A,29.99,71.1,11:53 AM,,10.0,WNW,5.8,300,Boise,Idaho,83701
12,Clear,2016-05-18 18:53:00,43.0,,-,34,N/A,29.97,73.0,12:53 PM,,10.0,NW,6.9,320,Boise,Idaho,83701
13,Clear,2016-05-18 19:04:00,44.6,,-,34,N/A,30.03,75.2,1:04 PM,,10.0,WNW,6.9,290,Boise,Idaho,83701
14,Clear,2016-05-18 19:05:00,44.6,,-,34,N/A,30.03,75.2,1:05 PM,,10.0,NW,8.1,310,Boise,Idaho,83701
15,Clear,2016-05-18 19:53:00,45.0,,-,34,N/A,29.95,75.0,1:53 PM,,10.0,Variable,5.8,0,Boise,Idaho,83701
16,Clear,2016-05-18 20:53:00,43.0,,-,30,N/A,29.92,77.0,2:53 PM,,10.0,NW,8.1,310,Boise,Idaho,83701
17,Clear,2016-05-18 21:53:00,39.9,,-,25,N/A,29.89,79.0,3:53 PM,,10.0,NW,11.5,310,Boise,Idaho,83701
18,Clear,2016-05-18 22:53:00,37.9,,-,22,N/A,29.86,80.1,4:53 PM,,10.0,WNW,6.9,300,Boise,Idaho,83701
19,Clear,2016-05-18 23:53:00,37.9,,-,22,N/A,29.82,80.1,5:53 PM,,10.0,North,5.8,10,Boise,Idaho,83701
20,Clear,2016-05-19 00:53:00,39.0,,-,23,N/A,29.79,80.1,6:53 PM,,10.0,WNW,3.5,300,Boise,Idaho,83701
21,Clear,2016-05-19 01:53:00,39.0,,-,25,N/A,29.77,78.1,7:53 PM,,10.0,North,5.8,360,Boise,Idaho,83701
22,Clear,2016-05-19 02:53:00,39.9,,-,27,N/A,29.75,75.9,8:53 PM,,10.0,ENE,5.8,70,Boise,Idaho,83701
23,Clear,2016-05-19 03:53:00,43.0,,-,38,N/A,29.75,70.0,9:53 PM,,10.0,ESE,4.6,120,Boise,Idaho,83701
24,Clear,2016-05-19 04:53:00,43.0,,-,42,N/A,29.72,66.9,10:53 PM,,10.0,ESE,5.8,120,Boise,Idaho,83701
25,Clear,2016-05-19 05:53:00,43.0,,-,42,N/A,29.69,66.9,11:53 PM,,10.0,SE,9.2,130,Boise,Idaho,83701
0,Clear,2016-05-19 06:53:00,42.1,,-,40,N/A,29.66,66.9,12:53 AM,,10.0,SE,10.4,130,Boise,Idaho,83701
1,Mostly Cloudy,2016-05-19 07:53:00,41.0,,-,37,N/A,29.63,68.0,1:53 AM,,10.0,ESE,10.4,120,Boise,Idaho,83701
2,Overcast,2016-05-19 08:53:00,42.1,,-,39,N/A,29.60,68.0,2:53 AM,,10.0,SE,13.8,130,Boise,Idaho,83701
3,Clear,2016-05-19 09:53:00,42.1,,-,42,N/A,29.61,66.0,3:53 AM,,10.0,SW,10.4,230,Boise,Idaho,83701
4,Clear,2016-05-19 10:53:00,46.0,,-,60,N/A,29.63,60.1,4:53 AM,,10.0,WNW,13.8,300,Boise,Idaho,83701
5,Light Rain,2016-05-19 11:53:00,48.9,Rain,25.3,77,0.01,29.65,55.9,5:53 AM,,8.0,NNW,17.3,330,Boise,Idaho,83701
6,Light Rain,2016-05-19 12:53:00,54.0,Rain,-,93,0.01,29.70,55.9,6:53 AM,,7.0,NW,9.2,310,Boise,Idaho,83701
7,Overcast,2016-05-19 13:53:00,52.0,,-,87,0.03,29.69,55.9,7:53 AM,,10.0,WNW,6.9,300,Boise,Idaho,83701
8,Rain,2016-05-19 14:53:00,52.0,Rain,20.7,93,0.04,29.74,54.0,8:53 AM,,3.0,WNW,10.4,300,Boise,Idaho,83701
9,Overcast,2016-05-19 15:53:00,52.0,,-,93,0.02,29.73,54.0,9:53 AM,,10.0,NNW,3.5,340,Boise,Idaho,83701
10,Overcast,2016-05-19 16:24:00,51.8,,-,94,N/A,29.77,53.6,10:24 AM,,10.0,WNW,8.1,290,Boise,Idaho,83701
11,Scattered Clouds,2016-05-19 16:53:00,50.0,,-,83,N/A,29.73,55.0,10:53 AM,,10.0,WNW,12.7,300,Boise,Idaho,83701
12,Scattered Clouds,2016-05-19 17:53:00,46.0,,-,65,N/A,29.73,57.9,11:53 AM,,10.0,NW,12.7,320,Boise,Idaho,83701
13,Clear,2016-05-19 18:53:00,39.0,,19.6,46,N/A,29.71,60.1,12:53 PM,,10.0,WNW,9.2,290,Boise,Idaho,83701
14,Clear,2016-05-19 19:53:00,39.0,,17.3,41,N/A,29.69,63.0,1:53 PM,,10.0,WNW,11.5,300,Boise,Idaho,83701
15,Partly Cloudy,2016-05-19 20:53:00,37.0,,20.7,36,N/A,29.69,64.9,2:53 PM,,10.0,WNW,13.8,300,Boise,Idaho,83701
16,Clear,2016-05-19 21:53:00,32.0,,20.7,29,N/A,29.68,64.9,3:53 PM,,10.0,NW,15.0,310,Boise,Idaho,83701
17,Clear,2016-05-19 22:53:00,30.0,,20.7,27,N/A,29.68,64.9,4:53 PM,,10.0,NNW,16.1,330,Boise,Idaho,83701
18,Clear,2016-05-19 23:53:00,28.9,,16.1,27,N/A,29.67,64.0,5:53 PM,,10.0,WNW,10.4,290,Boise,Idaho,83701
19,Clear,2016-05-20 00:53:00,28.9,,18.4,26,N/A,29.65,64.9,6:53 PM,,10.0,NNW,12.7,340,Boise,Idaho,83701
20,Scattered Clouds,2016-05-20 01:53:00,28.9,,-,29,N/A,29.66,62.1,7:53 PM,,10.0,NW,10.4,310,Boise,Idaho,83701
21,Clear,2016-05-20 02:53:00,30.0,,-,32,N/A,29.66,60.1,8:53 PM,,10.0,WNW,10.4,300,Boise,Idaho,83701
22,Clear,2016-05-20 03:53:00,30.9,,-,37,N/A,29.67,57.0,9:53 PM,,10.0,NNW,11.5,330,Boise,Idaho,83701
23,Clear,2016-05-20 04:53:00,32.0,,-,43,N/A,29.67,54.0,10:53 PM,,10.0,NNW,8.1,330,Boise,Idaho,83701
24,Clear,2016-05-20 05:53:00,33.1,,-,47,N/A,29.67,53.1,11:53 PM,,10.0,WNW,9.2,300,Boise,Idaho,83701
0,Clear,2016-05-20 06:53:00,33.1,,-,50,N/A,29.68,51.1,12:53 AM,,10.0,West,3.5,280,Boise,Idaho,83701
1,Partly Cloudy,2016-05-20 07:53:00,34.0,,-,54,N/A,29.66,50.0,1:53 AM,,10.0,Calm,Calm,0,Boise,Idaho,83701
2,Mostly Cloudy,2016-05-20 08:53:00,35.1,,-,59,N/A,29.65,48.9,2:53 AM,,10.0,West,5.8,280,Boise,Idaho,83701
3,Overcast,2016-05-20 09:53:00,35.1,,21.9,59,N/A,29.68,48.9,3:53 AM,,10.0,Variable,4.6,0,Boise,Idaho,83701
4,Light Rain,2016-05-20 10:53:00,39.0,Rain,-,74,0.00,29.66,46.9,4:53 AM,,10.0,WNW,10.4,290,Boise,Idaho,83701
5,Light Rain,2016-05-20 11:53:00,39.9,Rain,-,77,0.01,29.64,46.9,5:53 AM,,10.0,NNE,4.6,20,Boise,Idaho,83701
6,Overcast,2016-05-20 12:53:00,41.0,,-,83,0.01,29.63,46.0,6:53 AM,,10.0,West,8.1,270,Boise,Idaho,83701
7,Overcast,2016-05-20 13:53:00,39.9,,-,82,N/A,29.64,45.0,7:53 AM,,10.0,NNW,4.6,330,Boise,Idaho,83701
8,Overcast,2016-05-20 14:53:00,41.0,,-,80,N/A,29.61,46.9,8:53 AM,,10.0,West,4.6,270,Boise,Idaho,83701
9,Overcast,2016-05-20 15:53:00,39.9,,-,79,N/A,29.61,46.0,9:53 AM,,10.0,West,9.2,280,Boise,Idaho,83701
10,Overcast,2016-05-20 16:53:00,41.0,,-,83,N/A,29.63,46.0,10:53 AM,,10.0,NW,5.8,320,Boise,Idaho,83701
11,Overcast,2016-05-20 17:53:00,42.1,,-,80,N/A,29.62,48.0,11:53 AM,,10.0,North,3.5,360,Boise,Idaho,83701
12,Light Rain,2016-05-20 18:53:00,42.1,Rain,-,77,0.00,29.62,48.9,12:53 PM,,10.0,Calm,Calm,0,Boise,Idaho,83701
13,Light Rain,2016-05-20 19:05:00,42.8,Rain,-,82,0.00,29.63,48.2,1:05 PM,,4.0,Calm,Calm,0,Boise,Idaho,83701
14,Light Rain,2016-05-20 19:09:00,42.8,Rain,-,82,0.01,29.63,48.2,1:09 PM,,2.5,Calm,Calm,0,Boise,Idaho,83701
15,Light Rain,2016-05-20 19:16:00,42.8,Rain,-,82,0.01,29.63,48.2,1:16 PM,,4.0,Calm,Calm,0,Boise,Idaho,83701
16,Light Rain,2016-05-20 19:20:00,42.8,Rain,-,82,0.01,29.63,48.2,1:20 PM,,6.0,Calm,Calm,0,Boise,Idaho,83701
17,Light Rain,2016-05-20 19:28:00,44.6,Rain,-,87,0.01,29.63,48.2,1:28 PM,,10.0,SSW,3.5,210,Boise,Idaho,83701
18,Light Rain,2016-05-20 19:53:00,44.1,Rain,-,83,0.01,29.62,48.9,1:53 PM,,10.0,Calm,Calm,0,Boise,Idaho,83701
19,Overcast,2016-05-20 20:39:00,46.4,,-,93,N/A,29.63,48.2,2:39 PM,,10.0,West,6.9,260,Boise,Idaho,83701
20,Light Rain,2016-05-20 20:53:00,46.0,Rain,-,86,0.00,29.61,50.0,2:53 PM,,8.0,Calm,Calm,0,Boise,Idaho,83701
21,Overcast,2016-05-20 21:39:00,46.4,,-,82,0.00,29.62,51.8,3:39 PM,,10.0,SSE,3.5,160,Boise,Idaho,83701
22,Overcast,2016-05-20 21:53:00,46.9,,-,80,0.00,29.59,53.1,3:53 PM,,10.0,East,8.1,100,Boise,Idaho,83701
23,Mostly Cloudy,2016-05-20 22:19:00,46.4,,-,77,N/A,29.61,53.6,4:19 PM,,10.0,South,8.1,180,Boise,Idaho,83701
24,Mostly Cloudy,2016-05-20 22:53:00,46.0,,-,77,N/A,29.60,53.1,4:53 PM,,10.0,WSW,8.1,250,Boise,Idaho,83701
25,Mostly Cloudy,2016-05-20 23:01:00,46.4,,-,82,N/A,29.61,51.8,5:01 PM,,10.0,WNW,6.9,290,Boise,Idaho,83701
26,Overcast,2016-05-20 23:46:00,46.4,,-,82,N/A,29.63,51.8,5:46 PM,,10.0,West,11.5,280,Boise,Idaho,83701
27,Overcast,2016-05-20 23:53:00,46.0,,-,80,N/A,29.62,52.0,5:53 PM,,10.0,West,8.1,270,Boise,Idaho,83701
28,Overcast,2016-05-21 00:53:00,44.1,,-,77,N/A,29.65,51.1,6:53 PM,,10.0,West,9.2,280,Boise,Idaho,83701
29,Light Rain,2016-05-21 01:26:00,46.4,Rain,-,87,0.02,29.66,50.0,7:26 PM,,2.5,NNW,8.1,330,Boise,Idaho,83701
30,Light Rain,2016-05-21 01:33:00,46.4,Rain,-,87,0.02,29.66,50.0,7:33 PM,,9.0,NNW,8.1,330,Boise,Idaho,83701
31,Light Rain,2016-05-21 01:53:00,46.9,Rain,-,89,0.02,29.66,50.0,7:53 PM,,10.0,NNE,5.8,20,Boise,Idaho,83701
32,Clear,2016-05-21 02:53:00,46.9,,-,89,0.00,29.64,50.0,8:53 PM,,10.0,Calm,Calm,0,Boise,Idaho,83701
33,Clear,2016-05-21 03:53:00,46.9,,-,89,N/A,29.65,50.0,9:53 PM,,10.0,South,3.5,170,Boise,Idaho,83701
34,Clear,2016-05-21 04:53:00,46.9,,-,89,N/A,29.68,50.0,10:53 PM,,10.0,Calm,Calm,0,Boise,Idaho,83701
35,Clear,2016-05-21 05:53:00,46.9,,-,96,N/A,29.69,48.0,11:53 PM,,6.0,NW,5.8,310,Boise,Idaho,83701
0,Partly Cloudy,2016-05-21 06:53:00,46.9,,-,96,N/A,29.70,48.0,12:53 AM,,5.0,NNW,3.5,330,Boise,Idaho,83701
1,Mostly Cloudy,2016-05-21 07:53:00,46.9,,-,93,N/A,29.69,48.9,1:53 AM,,7.0,Calm,Calm,0,Boise,Idaho,83701
2,Overcast,2016-05-21 08:53:00,46.9,,-,96,N/A,29.69,48.0,2:53 AM,,5.0,Calm,Calm,0,Boise,Idaho,83701
3,Overcast,2016-05-21 09:53:00,46.9,,-,93,N/A,29.69,48.9,3:53 AM,,7.0,ENE,3.5,60,Boise,Idaho,83701
4,Mostly Cloudy,2016-05-21 10:53:00,46.9,,-,93,N/A,29.70,48.9,4:53 AM,,7.0,Calm,Calm,0,Boise,Idaho,83701
5,Overcast,2016-05-21 11:53:00,46.0,,-,90,N/A,29.71,48.9,5:53 AM,,8.0,Calm,Calm,0,Boise,Idaho,83701
6,Overcast,2016-05-21 12:53:00,42.1,,-,77,N/A,29.72,48.9,6:53 AM,,10.0,Calm,Calm,0,Boise,Idaho,83701
7,Partly Cloudy,2016-05-21 13:53:00,42.1,,-,77,N/A,29.74,48.9,7:53 AM,,10.0,SSW,5.8,200,Boise,Idaho,83701
8,Clear,2016-05-21 14:53:00,41.0,,-,66,N/A,29.74,52.0,8:53 AM,,10.0,South,11.5,190,Boise,Idaho,83701
9,Clear,2016-05-21 15:53:00,39.0,,-,59,N/A,29.75,53.1,9:53 AM,,10.0,SSW,4.6,210,Boise,Idaho,83701
10,Scattered Clouds,2016-05-21 16:53:00,39.0,,-,55,N/A,29.75,55.0,10:53 AM,,10.0,Calm,Calm,0,Boise,Idaho,83701
11,Overcast,2016-05-21 17:53:00,36.0,,-,49,N/A,29.76,55.0,11:53 AM,,10.0,South,3.5,180,Boise,Idaho,83701
12,Overcast,2016-05-21 18:53:00,36.0,,-,51,N/A,29.77,54.0,12:53 PM,,10.0,WNW,8.1,290,Boise,Idaho,83701
13,Light Rain,2016-05-21 19:53:00,39.0,Rain,-,51,0.00,29.78,57.0,1:53 PM,,10.0,West,13.8,260,Boise,Idaho,83701
14,Overcast,2016-05-21 20:53:00,34.0,,26.5,41,0.00,29.79,57.9,2:53 PM,,10.0,SW,17.3,230,Boise,Idaho,83701
15,Mostly Cloudy,2016-05-21 21:53:00,33.1,,21.9,42,N/A,29.81,55.9,3:53 PM,,10.0,South,15.0,190,Boise,Idaho,83701
16,Mostly Cloudy,2016-05-21 22:53:00,39.0,,-,53,0.00,29.83,55.9,4:53 PM,,10.0,Variable,5.8,0,Boise,Idaho,83701
17,Light Rain,2016-05-21 23:53:00,42.1,Rain,-,71,0.01,29.85,51.1,5:53 PM,,3.0,West,5.8,270,Boise,Idaho,83701
18,Light Rain,2016-05-22 00:53:00,41.0,Rain,-,71,0.01,29.86,50.0,6:53 PM,,10.0,North,4.6,360,Boise,Idaho,83701
19,Overcast,2016-05-22 01:53:00,43.0,,-,74,0.00,29.85,51.1,7:53 PM,,10.0,East,8.1,80,Boise,Idaho,83701
20,Overcast,2016-05-22 02:53:00,42.1,,-,71,N/A,29.86,51.1,8:53 PM,,10.0,SE,9.2,130,Boise,Idaho,83701
21,Light Rain,2016-05-22 03:53:00,41.0,Rain,-,68,0.00,29.88,51.1,9:53 PM,,10.0,SSE,8.1,160,Boise,Idaho,83701
22,Light Rain,2016-05-22 04:53:00,41.0,Rain,-,74,0.01,29.90,48.9,10:53 PM,,10.0,South,8.1,180,Boise,Idaho,83701
23,Clear,2016-05-22 05:53:00,41.0,,-,77,0.00,29.90,48.0,11:53 PM,,10.0,Calm,Calm,0,Boise,Idaho,83701
0,Clear,2016-05-22 06:53:00,42.1,,-,83,N/A,29.91,46.9,12:53 AM,,10.0,ESE,3.5,110,Boise,Idaho,83701
1,Overcast,2016-05-22 07:53:00,41.0,,-,80,N/A,29.92,46.9,1:53 AM,,10.0,South,3.5,170,Boise,Idaho,83701
2,Mostly Cloudy,2016-05-22 08:53:00,39.9,,-,74,N/A,29.92,48.0,2:53 AM,,10.0,Calm,Calm,0,Boise,Idaho,83701
3,Overcast,2016-05-22 09:53:00,39.0,,-,69,N/A,29.93,48.9,3:53 AM,,10.0,WSW,4.6,250,Boise,Idaho,83701
4,Mostly Cloudy,2016-05-22 10:53:00,39.0,,-,74,N/A,29.94,46.9,4:53 AM,,10.0,Calm,Calm,0,Boise,Idaho,83701
5,Mostly Cloudy,2016-05-22 11:53:00,39.0,,-,71,N/A,29.95,48.0,5:53 AM,,10.0,Calm,Calm,0,Boise,Idaho,83701
6,Overcast,2016-05-22 12:53:00,39.0,,-,71,N/A,29.96,48.0,6:53 AM,,10.0,Calm,Calm,0,Boise,Idaho,83701
7,Overcast,2016-05-22 13:53:00,37.9,,-,66,N/A,29.97,48.9,7:53 AM,,10.0,Variable,3.5,0,Boise,Idaho,83701
8,Overcast,2016-05-22 14:53:00,37.0,,-,61,N/A,29.98,50.0,8:53 AM,,10.0,WNW,3.5,300,Boise,Idaho,83701
9,Scattered Clouds,2016-05-22 15:53:00,37.9,,-,59,N/A,29.98,52.0,9:53 AM,,10.0,Calm,Calm,0,Boise,Idaho,83701
10,Scattered Clouds,2016-05-22 16:53:00,36.0,,-,49,N/A,29.98,55.0,10:53 AM,,10.0,NW,5.8,310,Boise,Idaho,83701
11,Partly Cloudy,2016-05-22 17:53:00,36.0,,-,49,N/A,29.97,55.0,11:53 AM,,10.0,Calm,Calm,0,Boise,Idaho,83701
12,Scattered Clouds,2016-05-22 18:53:00,34.0,,-,39,N/A,29.96,59.0,12:53 PM,,10.0,Variable,5.8,0,Boise,Idaho,83701
13,Scattered Clouds,2016-05-22 19:53:00,37.0,,-,46,N/A,29.95,57.9,1:53 PM,,10.0,NNW,12.7,340,Boise,Idaho,83701
14,Overcast,2016-05-22 20:53:00,33.1,,20.7,42,N/A,29.95,55.9,2:53 PM,,10.0,SSW,12.7,200,Boise,Idaho,83701
15,Scattered Clouds,2016-05-22 21:53:00,39.9,,17.3,53,0.01,29.94,57.0,3:53 PM,,10.0,South,12.7,170,Boise,Idaho,83701
16,Clear,2016-05-22 22:53:00,35.1,,-,41,N/A,29.93,59.0,4:53 PM,,10.0,SSW,6.9,200,Boise,Idaho,83701
17,Mostly Cloudy,2016-05-22 23:53:00,35.1,,-,41,N/A,29.91,59.0,5:53 PM,,10.0,SSW,15.0,210,Boise,Idaho,83701
18,Clear,2016-05-23 00:53:00,34.0,,-,39,N/A,29.90,59.0,6:53 PM,,10.0,SSW,9.2,210,Boise,Idaho,83701
19,Mostly Cloudy,2016-05-23 01:53:00,35.1,,-,41,N/A,29.89,59.0,7:53 PM,,10.0,South,8.1,190,Boise,Idaho,83701
20,Clear,2016-05-23 02:53:00,35.1,,-,44,N/A,29.89,57.0,8:53 PM,,10.0,South,4.6,180,Boise,Idaho,83701
21,Clear,2016-05-23 03:53:00,36.0,,-,52,N/A,29.91,53.1,9:53 PM,,10.0,SE,6.9,130,Boise,Idaho,83701
22,Clear,2016-05-23 04:53:00,36.0,,-,54,N/A,29.91,52.0,10:53 PM,,10.0,SE,8.1,130,Boise,Idaho,83701
23,Clear,2016-05-23 05:53:00,36.0,,-,54,N/A,29.90,52.0,11:53 PM,,10.0,ESE,6.9,120,Boise,Idaho,83701
0,Clear,2016-05-23 06:53:00,37.9,,-,66,N/A,29.91,48.9,12:53 AM,,10.0,ESE,6.9,110,Boise,Idaho,83701
1,Clear,2016-05-23 07:53:00,37.9,,-,71,N/A,29.90,46.9,1:53 AM,,10.0,SE,5.8,140,Boise,Idaho,83701
2,Clear,2016-05-23 08:53:00,37.9,,-,71,N/A,29.89,46.9,2:53 AM,,10.0,SE,6.9,130,Boise,Idaho,83701
3,Clear,2016-05-23 09:53:00,37.9,,-,73,N/A,29.88,46.0,3:53 AM,,10.0,SE,10.4,140,Boise,Idaho,83701
4,Clear,2016-05-23 10:53:00,37.9,,-,73,N/A,29.88,46.0,4:53 AM,,10.0,SE,9.2,130,Boise,Idaho,83701
5,Clear,2016-05-23 11:53:00,37.0,,-,74,N/A,29.89,45.0,5:53 AM,,10.0,SE,10.4,140,Boise,Idaho,83701
6,Clear,2016-05-23 12:53:00,37.0,,-,74,N/A,29.90,45.0,6:53 AM,,10.0,SE,9.2,140,Boise,Idaho,83701
7,Clear,2016-05-23 13:53:00,37.9,,-,66,N/A,29.89,48.9,7:53 AM,,10.0,SE,9.2,140,Boise,Idaho,83701
8,Clear,2016-05-23 14:53:00,37.0,,-,53,N/A,29.89,54.0,8:53 AM,,10.0,SE,8.1,140,Boise,Idaho,83701
9,Clear,2016-05-23 15:53:00,37.0,,-,47,N/A,29.89,57.0,9:53 AM,,10.0,East,4.6,100,Boise,Idaho,83701
10,Clear,2016-05-23 16:53:00,36.0,,-,41,N/A,29.88,60.1,10:53 AM,,10.0,West,5.8,270,Boise,Idaho,83701
11,Unknown,2016-05-23 17:53:00,36.0,,-,38,N/A,29.90,62.1,11:53 AM,,-9999.0,North,4.6,350,Boise,Idaho,83701
12,Unknown,2016-05-23 18:53:00,34.0,,-,33,N/A,29.88,64.0,12:53 PM,,10.0,Calm,Calm,0,Boise,Idaho,83701
13,Clear,2016-05-23 19:53:00,30.0,,-,26,N/A,29.86,66.0,1:53 PM,,10.0,West,9.2,260,Boise,Idaho,83701
14,Partly Cloudy,2016-05-23 20:53:00,30.9,,-,26,N/A,29.85,66.9,2:53 PM,,10.0,SW,9.2,230,Boise,Idaho,83701
15,Scattered Clouds,2016-05-23 21:53:00,32.0,,-,25,N/A,29.84,69.1,3:53 PM,,10.0,North,-9999.0,0,Boise,Idaho,83701
16,Clear,2016-05-23 22:53:00,32.0,,-,28,N/A,29.82,66.0,4:53 PM,,10.0,Calm,Calm,0,Boise,Idaho,83701
17,Clear,2016-05-23 23:53:00,30.9,,-,25,N/A,29.81,68.0,5:53 PM,,10.0,WSW,5.8,240,Boise,Idaho,83701
18,Clear,2016-05-24 00:53:00,32.0,,-,26,N/A,29.80,68.0,6:53 PM,,10.0,NNW,6.9,330,Boise,Idaho,83701
19,Clear,2016-05-24 01:53:00,33.1,,-,28,N/A,29.79,66.9,7:53 PM,,10.0,NW,8.1,320,Boise,Idaho,83701
20,Partly Cloudy,2016-05-24 02:53:00,32.0,,-,30,N/A,29.80,64.0,8:53 PM,,10.0,NW,6.9,320,Boise,Idaho,83701
21,Overcast,2016-05-24 03:53:00,33.1,,-,34,N/A,29.81,62.1,9:53 PM,,10.0,NNW,4.6,330,Boise,Idaho,83701
22,Overcast,2016-05-24 04:53:00,35.1,,-,41,N/A,29.82,59.0,10:53 PM,,10.0,North,5.8,360,Boise,Idaho,83701
23,Partly Cloudy,2016-05-24 05:53:00,35.1,,-,42,N/A,29.82,57.9,11:53 PM,,10.0,Calm,Calm,0,Boise,Idaho,83701
0,Mostly Cloudy,2016-05-24 06:53:00,36.0,,-,49,N/A,29.79,55.0,12:53 AM,,10.0,SE,3.5,140,Boise,Idaho,83701
1,Partly Cloudy,2016-05-24 07:53:00,39.0,,-,59,N/A,29.78,53.1,1:53 AM,,10.0,Calm,Calm,0,Boise,Idaho,83701
2,Clear,2016-05-24 08:53:00,37.0,,-,61,N/A,29.79,50.0,2:53 AM,,10.0,Calm,Calm,0,Boise,Idaho,83701
3,Clear,2016-05-24 09:53:00,37.9,,-,71,N/A,29.80,46.9,3:53 AM,,10.0,SSW,3.5,210,Boise,Idaho,83701
4,Clear,2016-05-24 10:53:00,39.0,,-,74,N/A,29.81,46.9,4:53 AM,,10.0,South,3.5,170,Boise,Idaho,83701
5,Clear,2016-05-24 11:53:00,37.0,,-,74,N/A,29.81,45.0,5:53 AM,,10.0,SSW,3.5,210,Boise,Idaho,83701
6,Clear,2016-05-24 12:53:00,39.9,,-,77,N/A,29.81,46.9,6:53 AM,,10.0,SW,3.5,220,Boise,Idaho,83701
7,Partly Cloudy,2016-05-24 13:53:00,41.0,,-,74,N/A,29.83,48.9,7:53 AM,,10.0,SW,3.5,230,Boise,Idaho,83701
8,Partly Cloudy,2016-05-24 14:53:00,41.0,,-,66,N/A,29.83,52.0,8:53 AM,,10.0,West,6.9,270,Boise,Idaho,83701
9,Scattered Clouds,2016-05-24 15:53:00,39.9,,-,55,N/A,29.83,55.9,9:53 AM,,10.0,Variable,4.6,0,Boise,Idaho,83701
10,Scattered Clouds,2016-05-24 16:53:00,41.0,,-,49,N/A,29.82,60.1,10:53 AM,,10.0,WNW,6.9,290,Boise,Idaho,83701
11,Mostly Cloudy,2016-05-24 17:53:00,41.0,,-,46,N/A,29.81,62.1,11:53 AM,,10.0,West,11.5,270,Boise,Idaho,83701
12,Clear,2016-05-24 18:53:00,39.9,,19.6,37,N/A,29.79,66.9,12:53 PM,,10.0,NW,12.7,310,Boise,Idaho,83701
13,Partly Cloudy,2016-05-24 19:53:00,36.0,,19.6,30,N/A,29.79,69.1,1:53 PM,,10.0,NW,12.7,310,Boise,Idaho,83701
14,Partly Cloudy,2016-05-24 20:53:00,33.1,,23.0,25,N/A,29.78,71.1,2:53 PM,,10.0,West,11.5,280,Boise,Idaho,83701
15,Partly Cloudy,2016-05-24 21:53:00,32.0,,19.6,24,N/A,29.78,71.1,3:53 PM,,10.0,WNW,9.2,300,Boise,Idaho,83701
16,Clear,2016-05-24 22:53:00,30.0,,19.6,21,N/A,29.77,72.0,4:53 PM,,10.0,NNW,10.4,330,Boise,Idaho,83701
17,Clear,2016-05-24 23:53:00,28.0,,21.9,20,N/A,29.77,71.1,5:53 PM,,10.0,NW,11.5,310,Boise,Idaho,83701
18,Partly Cloudy,2016-05-25 00:53:00,30.0,,-,22,N/A,29.77,71.1,6:53 PM,,10.0,WNW,17.3,300,Boise,Idaho,83701
19,Partly Cloudy,2016-05-25 01:53:00,32.0,,-,26,N/A,29.78,68.0,7:53 PM,,10.0,NW,18.4,310,Boise,Idaho,83701
20,Overcast,2016-05-25 02:53:00,33.1,,-,28,N/A,29.79,66.9,8:53 PM,,10.0,WNW,15.0,300,Boise,Idaho,83701
21,Overcast,2016-05-25 03:53:00,35.1,,-,34,N/A,29.81,64.0,9:53 PM,,10.0,NW,10.4,310,Boise,Idaho,83701
22,Overcast,2016-05-25 04:53:00,36.0,,-,38,N/A,29.82,62.1,10:53 PM,,10.0,NNW,6.9,330,Boise,Idaho,83701
23,Partly Cloudy,2016-05-25 05:53:00,37.9,,-,44,N/A,29.83,60.1,11:53 PM,,10.0,West,5.8,280,Boise,Idaho,83701
0,Mostly Cloudy,2016-05-25 06:53:00,37.9,,-,46,N/A,29.83,59.0,12:53 AM,,10.0,WNW,8.1,300,Boise,Idaho,83701
1,Mostly Cloudy,2016-05-25 07:53:00,39.0,,-,57,N/A,29.86,54.0,1:53 AM,,10.0,Calm,Calm,0,Boise,Idaho,83701
2,Scattered Clouds,2016-05-25 08:53:00,41.0,,-,64,N/A,29.87,53.1,2:53 AM,,10.0,NW,4.6,310,Boise,Idaho,83701
3,Scattered Clouds,2016-05-25 09:53:00,41.0,,-,64,N/A,29.88,53.1,3:53 AM,,10.0,Calm,Calm,0,Boise,Idaho,83701
4,Partly Cloudy,2016-05-25 10:53:00,41.0,,-,64,N/A,29.89,53.1,4:53 AM,,10.0,WNW,5.8,300,Boise,Idaho,83701
5,Clear,2016-05-25 11:53:00,41.0,,-,68,N/A,29.92,51.1,5:53 AM,,10.0,West,5.8,280,Boise,Idaho,83701
6,Clear,2016-05-25 12:53:00,42.1,,-,74,N/A,29.93,50.0,6:53 AM,,10.0,Calm,Calm,0,Boise,Idaho,83701
7,Clear,2016-05-25 13:53:00,42.1,,-,69,N/A,29.96,52.0,7:53 AM,,10.0,WNW,6.9,300,Boise,Idaho,83701
8,Clear,2016-05-25 14:53:00,42.1,,-,62,N/A,29.96,55.0,8:53 AM,,10.0,NW,4.6,310,Boise,Idaho,83701
9,Scattered Clouds,2016-05-25 15:53:00,42.1,,-,53,N/A,29.97,59.0,9:53 AM,,10.0,NNW,6.9,330,Boise,Idaho,83701
10,Clear,2016-05-25 16:53:00,39.9,,-,44,N/A,29.98,62.1,10:53 AM,,10.0,WNW,12.7,300,Boise,Idaho,83701
11,Clear,2016-05-25 17:53:00,37.9,,-,37,N/A,29.97,64.9,11:53 AM,,10.0,WNW,8.1,290,Boise,Idaho,83701
12,Clear,2016-05-25 18:53:00,37.0,,-,33,N/A,29.96,66.9,12:53 PM,,10.0,WNW,16.1,300,Boise,Idaho,83701
13,Scattered Clouds,2016-05-25 19:53:00,37.9,,25.3,33,N/A,29.95,68.0,1:53 PM,,10.0,NNW,17.3,330,Boise,Idaho,83701
14,Mostly Cloudy,2016-05-25 20:53:00,37.0,,23.0,30,N/A,29.94,70.0,2:53 PM,,10.0,WNW,13.8,300,Boise,Idaho,83701
15,Mostly Cloudy,2016-05-25 21:53:00,39.9,,-,32,N/A,29.93,71.1,3:53 PM,,10.0,North,17.3,10,Boise,Idaho,83701
16,Mostly Cloudy,2016-05-25 22:53:00,36.0,,-,28,N/A,29.94,71.1,4:53 PM,,10.0,North,10.4,350,Boise,Idaho,83701
17,Overcast,2016-05-25 23:18:00,39.9,,23.0,40,N/A,29.99,64.9,5:18 PM,,10.0,ENE,18.4,60,Boise,Idaho,83701
18,Mostly Cloudy,2016-05-25 23:53:00,37.9,,-,37,N/A,29.95,64.9,5:53 PM,,10.0,North,5.8,10,Boise,Idaho,83701
19,Clear,2016-05-26 00:53:00,39.0,,20.7,32,N/A,29.92,70.0,6:53 PM,,10.0,NW,9.2,310,Boise,Idaho,83701
20,Clear,2016-05-26 01:53:00,37.0,,-,31,N/A,29.91,69.1,7:53 PM,,10.0,WNW,6.9,300,Boise,Idaho,83701
21,Clear,2016-05-26 02:53:00,37.0,,-,32,N/A,29.92,68.0,8:53 PM,,10.0,WSW,5.8,250,Boise,Idaho,83701
22,Clear,2016-05-26 03:53:00,39.9,,-,41,N/A,29.93,64.0,9:53 PM,,10.0,Calm,Calm,0,Boise,Idaho,83701
23,Clear,2016-05-26 04:53:00,39.0,,-,41,N/A,29.94,63.0,10:53 PM,,10.0,Calm,Calm,0,Boise,Idaho,83701
24,Clear,2016-05-26 05:53:00,43.0,,-,64,N/A,29.95,55.0,11:53 PM,,10.0,ESE,5.8,120,Boise,Idaho,83701
0,Clear,2016-05-26 06:53:00,44.1,,-,69,N/A,29.95,54.0,12:53 AM,,10.0,SE,6.9,130,Boise,Idaho,83701
1,Clear,2016-05-26 07:53:00,43.0,,-,69,N/A,29.96,53.1,1:53 AM,,10.0,SSE,9.2,160,Boise,Idaho,83701
2,Clear,2016-05-26 08:53:00,41.0,,-,66,N/A,29.97,52.0,2:53 AM,,10.0,South,4.6,170,Boise,Idaho,83701
3,Clear,2016-05-26 09:53:00,41.0,,-,68,N/A,29.97,51.1,3:53 AM,,10.0,South,5.8,190,Boise,Idaho,83701
4,Clear,2016-05-26 10:53:00,41.0,,-,74,N/A,29.97,48.9,4:53 AM,,10.0,South,4.6,190,Boise,Idaho,83701
5,Clear,2016-05-26 11:53:00,41.0,,-,80,N/A,29.99,46.9,5:53 AM,,10.0,Calm,Calm,0,Boise,Idaho,83701
6,Clear,2016-05-26 12:53:00,39.9,,-,77,N/A,29.98,46.9,6:53 AM,,10.0,South,6.9,170,Boise,Idaho,83701
7,Clear,2016-05-26 13:53:00,42.1,,-,71,N/A,29.99,51.1,7:53 AM,,10.0,West,4.6,260,Boise,Idaho,83701
8,Clear,2016-05-26 14:53:00,42.1,,-,62,N/A,29.99,55.0,8:53 AM,,10.0,Calm,Calm,0,Boise,Idaho,83701
9,Clear,2016-05-26 15:53:00,42.1,,-,51,N/A,29.98,60.1,9:53 AM,,10.0,Variable,6.9,0,Boise,Idaho,83701
10,Clear,2016-05-26 16:53:00,42.1,,-,46,N/A,29.98,63.0,10:53 AM,,10.0,NW,8.1,320,Boise,Idaho,83701
11,Clear,2016-05-26 17:53:00,43.0,,-,42,N/A,29.97,66.9,11:53 AM,,10.0,WNW,9.2,290,Boise,Idaho,83701
12,Clear,2016-05-26 18:53:00,41.0,,18.4,35,N/A,29.96,70.0,12:53 PM,,10.0,WNW,15.0,290,Boise,Idaho,83701
13,Clear,2016-05-26 19:53:00,39.0,,21.9,29,N/A,29.94,73.0,1:53 PM,,10.0,WNW,17.3,300,Boise,Idaho,83701
14,Partly Cloudy,2016-05-26 20:53:00,32.0,,-,21,N/A,29.92,73.9,2:53 PM,,10.0,WNW,17.3,290,Boise,Idaho,83701
15,Mostly Cloudy,2016-05-26 21:53:00,34.0,,-,24,N/A,29.91,73.0,3:53 PM,,10.0,Variable,5.8,0,Boise,Idaho,83701
16,Mostly Cloudy,2016-05-26 22:53:00,35.1,,-,25,N/A,29.90,73.0,4:53 PM,,10.0,NW,12.7,310,Boise,Idaho,83701
17,Partly Cloudy,2016-05-26 23:53:00,34.0,,-,23,N/A,29.88,73.9,5:53 PM,,10.0,West,8.1,270,Boise,Idaho,83701
18,Clear,2016-05-27 00:53:00,34.0,,-,24,N/A,29.86,73.0,6:53 PM,,10.0,NNW,9.2,340,Boise,Idaho,83701
19,Clear,2016-05-27 01:53:00,34.0,,-,24,N/A,29.85,73.0,7:53 PM,,10.0,North,4.6,350,Boise,Idaho,83701
20,Clear,2016-05-27 02:53:00,35.1,,-,28,N/A,29.84,70.0,8:53 PM,,10.0,North,5.8,10,Boise,Idaho,83701
21,Partly Cloudy,2016-05-27 03:53:00,35.1,,-,30,N/A,29.84,68.0,9:53 PM,,10.0,NW,4.6,320,Boise,Idaho,83701
22,Clear,2016-05-27 04:53:00,39.0,,-,39,N/A,29.85,64.9,10:53 PM,,10.0,ENE,3.5,70,Boise,Idaho,83701
23,Clear,2016-05-27 05:53:00,37.9,,-,44,N/A,29.85,60.1,11:53 PM,,10.0,SE,4.6,130,Boise,Idaho,83701
0,Clear,2016-05-27 06:53:00,39.0,,-,51,N/A,29.85,57.0,12:53 AM,,10.0,SSE,8.1,160,Boise,Idaho,83701
1,Scattered Clouds,2016-05-27 07:53:00,39.9,,-,61,N/A,29.86,53.1,1:53 AM,,10.0,Calm,Calm,0,Boise,Idaho,83701
2,Clear,2016-05-27 08:53:00,41.0,,-,62,N/A,29.86,54.0,2:53 AM,,10.0,NNW,4.6,330,Boise,Idaho,83701
3,Clear,2016-05-27 09:53:00,39.9,,-,61,N/A,29.88,53.1,3:53 AM,,10.0,NW,6.9,310,Boise,Idaho,83701
4,Clear,2016-05-27 10:53:00,39.0,,-,63,N/A,29.90,51.1,4:53 AM,,10.0,NW,12.7,310,Boise,Idaho,83701
5,Mostly Cloudy,2016-05-27 11:53:00,37.9,,-,63,N/A,29.92,50.0,5:53 AM,,10.0,NW,9.2,310,Boise,Idaho,83701
6,Mostly Cloudy,2016-05-27 12:53:00,37.0,,-,61,N/A,29.94,50.0,6:53 AM,,10.0,WNW,12.7,300,Boise,Idaho,83701
7,Overcast,2016-05-27 13:53:00,36.0,,-,59,N/A,29.96,50.0,7:53 AM,,10.0,NW,13.8,320,Boise,Idaho,83701
8,Partly Cloudy,2016-05-27 14:53:00,36.0,,-,54,N/A,29.98,52.0,8:53 AM,,10.0,NW,13.8,320,Boise,Idaho,83701
9,Clear,2016-05-27 15:53:00,36.0,,-,49,N/A,29.97,55.0,9:53 AM,,10.0,NNW,10.4,330,Boise,Idaho,83701
10,Clear,2016-05-27 16:53:00,35.1,,-,44,N/A,29.97,57.0,10:53 AM,,10.0,NW,18.4,320,Boise,Idaho,83701
11,Clear,2016-05-27 17:53:00,34.0,,-,39,N/A,29.97,59.0,11:53 AM,,10.0,NNW,13.8,330,Boise,Idaho,83701
12,Clear,2016-05-27 18:53:00,34.0,,18.4,38,N/A,29.96,60.1,12:53 PM,,10.0,NNW,10.4,330,Boise,Idaho,83701
13,Clear,2016-05-27 19:53:00,32.0,,25.3,30,N/A,29.94,64.0,1:53 PM,,10.0,NW,16.1,320,Boise,Idaho,83701
14,Clear,2016-05-27 20:53:00,30.0,,-,27,N/A,29.92,64.9,2:53 PM,,10.0,NW,12.7,310,Boise,Idaho,83701
15,Clear,2016-05-27 21:53:00,28.9,,25.3,24,N/A,29.91,66.9,3:53 PM,,10.0,North,16.1,360,Boise,Idaho,83701
16,Clear,2016-05-27 22:53:00,30.0,,24.2,24,N/A,29.89,68.0,4:53 PM,,10.0,North,15.0,350,Boise,Idaho,83701
17,Clear,2016-05-27 23:53:00,30.0,,18.4,24,N/A,29.88,68.0,5:53 PM,,10.0,NNW,12.7,340,Boise,Idaho,83701
18,Clear,2016-05-28 00:53:00,23.0,,21.9,18,N/A,29.88,68.0,6:53 PM,,10.0,NNW,17.3,340,Boise,Idaho,83701
19,Clear,2016-05-28 01:53:00,23.0,,-,20,N/A,29.89,66.0,7:53 PM,,10.0,North,13.8,360,Boise,Idaho,83701
20,Clear,2016-05-28 02:53:00,26.1,,-,24,N/A,29.89,64.0,8:53 PM,,10.0,NNW,10.4,340,Boise,Idaho,83701
21,Clear,2016-05-28 03:53:00,27.0,,-,28,N/A,29.92,60.1,9:53 PM,,10.0,NNW,9.2,330,Boise,Idaho,83701
22,Clear,2016-05-28 04:53:00,28.0,,-,33,N/A,29.94,57.0,10:53 PM,,10.0,NW,8.1,310,Boise,Idaho,83701
23,Clear,2016-05-28 05:53:00,28.0,,-,37,N/A,29.95,54.0,11:53 PM,,10.0,NW,6.9,320,Boise,Idaho,83701
0,Clear,2016-05-28 06:53:00,30.0,,-,41,N/A,29.96,53.1,12:53 AM,,10.0,WNW,8.1,290,Boise,Idaho,83701
1,Clear,2016-05-28 07:53:00,30.9,,-,46,N/A,29.98,51.1,1:53 AM,,10.0,West,6.9,270,Boise,Idaho,83701
2,Clear,2016-05-28 08:53:00,32.0,,-,54,N/A,29.99,48.0,2:53 AM,,10.0,WNW,5.8,290,Boise,Idaho,83701
3,Clear,2016-05-28 09:53:00,30.9,,-,54,N/A,30.00,46.9,3:53 AM,,10.0,WNW,5.8,300,Boise,Idaho,83701
4,Clear,2016-05-28 10:53:00,32.0,,-,60,N/A,30.01,45.0,4:53 AM,,10.0,NNW,3.5,340,Boise,Idaho,83701
5,Clear,2016-05-28 11:53:00,30.9,,-,60,N/A,30.03,44.1,5:53 AM,,10.0,Calm,Calm,0,Boise,Idaho,83701
6,Clear,2016-05-28 12:53:00,30.9,,-,60,N/A,30.04,44.1,6:53 AM,,10.0,Calm,Calm,0,Boise,Idaho,83701
7,Clear,2016-05-28 13:53:00,30.9,,-,54,N/A,30.05,46.9,7:53 AM,,10.0,WNW,5.8,290,Boise,Idaho,83701
8,Clear,2016-05-28 14:53:00,32.0,,-,50,N/A,30.06,50.0,8:53 AM,,10.0,West,5.8,260,Boise,Idaho,83701
9,Clear,2016-05-28 15:53:00,32.0,,-,45,N/A,30.08,53.1,9:53 AM,,10.0,WNW,5.8,290,Boise,Idaho,83701
10,Clear,2016-05-28 16:53:00,33.1,,-,40,N/A,30.07,57.0,10:53 AM,,10.0,Variable,5.8,0,Boise,Idaho,83701
11,Clear,2016-05-28 17:53:00,28.9,,-,31,N/A,30.06,60.1,11:53 AM,,10.0,NNW,9.2,330,Boise,Idaho,83701
12,Clear,2016-05-28 18:53:00,28.9,,19.6,28,N/A,30.05,63.0,12:53 PM,,10.0,North,10.4,360,Boise,Idaho,83701
13,Clear,2016-05-28 19:53:00,28.0,,17.3,25,N/A,30.04,64.9,1:53 PM,,10.0,West,11.5,270,Boise,Idaho,83701
14,Clear,2016-05-28 20:53:00,25.0,,-,21,N/A,30.03,66.0,2:53 PM,,10.0,NW,9.2,320,Boise,Idaho,83701
15,Clear,2016-05-28 21:53:00,28.9,,-,24,N/A,30.01,66.9,3:53 PM,,10.0,WNW,8.1,300,Boise,Idaho,83701
16,Clear,2016-05-28 22:53:00,26.1,,-,20,N/A,29.99,69.1,4:53 PM,,10.0,North,8.1,350,Boise,Idaho,83701
17,Clear,2016-05-28 23:53:00,25.0,,-,19,N/A,29.98,69.1,5:53 PM,,10.0,NW,9.2,310,Boise,Idaho,83701
18,Clear,2016-05-29 00:53:00,24.1,,-,18,N/A,29.97,70.0,6:53 PM,,10.0,NNW,9.2,340,Boise,Idaho,83701
19,Clear,2016-05-29 01:53:00,28.0,,-,22,N/A,29.96,69.1,7:53 PM,,10.0,NNW,8.1,340,Boise,Idaho,83701
20,Clear,2016-05-29 02:53:00,28.9,,-,24,N/A,29.96,66.9,8:53 PM,,10.0,NW,6.9,320,Boise,Idaho,83701
21,Clear,2016-05-29 03:53:00,30.9,,-,30,N/A,29.97,63.0,9:53 PM,,10.0,WNW,5.8,300,Boise,Idaho,83701
22,Clear,2016-05-29 04:53:00,30.9,,-,36,N/A,29.99,57.9,10:53 PM,,10.0,SW,3.5,220,Boise,Idaho,83701
23,Clear,2016-05-29 05:53:00,33.1,,-,45,N/A,29.99,54.0,11:53 PM,,10.0,SE,8.1,140,Boise,Idaho,83701
0,Clear,2016-05-29 06:53:00,33.1,,-,42,N/A,29.99,55.9,12:53 AM,,10.0,SE,10.4,130,Boise,Idaho,83701
1,Clear,2016-05-29 07:53:00,36.0,,-,52,N/A,29.98,53.1,1:53 AM,,10.0,SE,6.9,130,Boise,Idaho,83701
2,Clear,2016-05-29 08:53:00,35.1,,-,49,N/A,29.98,54.0,2:53 AM,,10.0,ESE,5.8,120,Boise,Idaho,83701
3,Clear,2016-05-29 09:53:00,34.0,,-,50,N/A,29.98,52.0,3:53 AM,,10.0,ESE,4.6,120,Boise,Idaho,83701
4,Clear,2016-05-29 10:53:00,35.1,,-,54,N/A,29.99,51.1,4:53 AM,,10.0,SE,9.2,130,Boise,Idaho,83701
5,Clear,2016-05-29 11:53:00,34.0,,-,54,N/A,29.99,50.0,5:53 AM,,10.0,ESE,9.2,120,Boise,Idaho,83701
6,Haze,2016-05-29 12:03:00,34.0,,-,54,N/A,30.02,50.0,6:03 AM,,4.0,SE,8.1,130,Boise,Idaho,83701
7,Partly Cloudy,2016-05-29 12:25:00,34.0,,-,52,N/A,30.02,51.1,6:25 AM,,10.0,SE,9.2,130,Boise,Idaho,83701
8,Clear,2016-05-29 12:53:00,34.0,,-,50,N/A,29.99,52.0,6:53 AM,,10.0,SE,11.5,130,Boise,Idaho,83701
9,Clear,2016-05-29 13:53:00,34.0,,-,44,N/A,29.99,55.9,7:53 AM,,10.0,SE,9.2,130,Boise,Idaho,83701
10,Clear,2016-05-29 14:53:00,33.1,,-,34,N/A,29.99,62.1,8:53 AM,,10.0,ESE,12.7,120,Boise,Idaho,83701
11,Clear,2016-05-29 15:53:00,32.0,,-,27,N/A,29.99,66.9,9:53 AM,,10.0,ESE,11.5,120,Boise,Idaho,83701
12,Clear,2016-05-29 16:53:00,32.0,,-,23,N/A,29.97,72.0,10:53 AM,,10.0,ESE,10.4,110,Boise,Idaho,83701
13,Clear,2016-05-29 17:53:00,27.0,,19.6,16,N/A,29.95,75.9,11:53 AM,,10.0,SSE,9.2,160,Boise,Idaho,83701
14,Clear,2016-05-29 18:53:00,28.0,,-,17,N/A,29.93,77.0,12:53 PM,,10.0,SSE,10.4,160,Boise,Idaho,83701
15,Clear,2016-05-29 19:53:00,28.0,,-,16,N/A,29.91,78.1,1:53 PM,,10.0,West,5.8,260,Boise,Idaho,83701
16,Clear,2016-05-29 20:53:00,28.9,,-,16,N/A,29.90,79.0,2:53 PM,,10.0,NW,9.2,320,Boise,Idaho,83701
17,Clear,2016-05-29 21:53:00,30.9,,-,16,N/A,29.89,82.0,3:53 PM,,10.0,NW,11.5,310,Boise,Idaho,83701
18,Clear,2016-05-29 22:53:00,30.0,,-,17,N/A,29.88,78.1,4:53 PM,,10.0,NNW,11.5,340,Boise,Idaho,83701
19,Clear,2016-05-29 23:53:00,30.9,,-,17,N/A,29.88,79.0,5:53 PM,,10.0,North,6.9,10,Boise,Idaho,83701
20,Clear,2016-05-30 00:53:00,30.0,,17.3,17,N/A,29.86,79.0,6:53 PM,,10.0,WNW,11.5,300,Boise,Idaho,83701
21,Clear,2016-05-30 01:53:00,30.9,,-,18,N/A,29.86,78.1,7:53 PM,,10.0,NNW,8.1,340,Boise,Idaho,83701
22,Clear,2016-05-30 02:53:00,30.0,,-,19,N/A,29.86,75.0,8:53 PM,,10.0,North,4.6,360,Boise,Idaho,83701
23,Clear,2016-05-30 03:53:00,32.0,,-,22,N/A,29.87,73.0,9:53 PM,,10.0,NNW,3.5,340,Boise,Idaho,83701
24,Scattered Clouds,2016-05-30 04:53:00,35.1,,-,33,N/A,29.91,64.9,10:53 PM,,10.0,NNW,8.1,330,Boise,Idaho,83701
25,Scattered Clouds,2016-05-30 05:53:00,36.0,,-,34,N/A,29.92,64.9,11:53 PM,,10.0,NW,8.1,320,Boise,Idaho,83701
0,Clear,2016-05-30 06:53:00,37.9,,-,38,N/A,29.94,64.0,12:53 AM,,10.0,WNW,9.2,290,Boise,Idaho,83701
1,Clear,2016-05-30 07:53:00,41.0,,-,51,N/A,29.97,59.0,1:53 AM,,10.0,West,10.4,280,Boise,Idaho,83701
2,Clear,2016-05-30 08:53:00,39.9,,-,51,N/A,29.99,57.9,2:53 AM,,10.0,West,9.2,270,Boise,Idaho,83701
3,Clear,2016-05-30 09:53:00,37.0,,-,49,N/A,30.01,55.9,3:53 AM,,10.0,WNW,9.2,300,Boise,Idaho,83701
4,Clear,2016-05-30 10:53:00,36.0,,-,51,N/A,30.04,54.0,4:53 AM,,10.0,West,9.2,280,Boise,Idaho,83701
5,Clear,2016-05-30 11:53:00,36.0,,-,52,N/A,30.05,53.1,5:53 AM,,10.0,West,8.1,280,Boise,Idaho,83701
6,Clear,2016-05-30 12:53:00,37.9,,-,59,N/A,30.07,52.0,6:53 AM,,10.0,WNW,8.1,300,Boise,Idaho,83701
7,Clear,2016-05-30 13:53:00,39.0,,-,59,N/A,30.10,53.1,7:53 AM,,10.0,WNW,9.2,300,Boise,Idaho,83701
8,Clear,2016-05-30 14:53:00,39.9,,-,57,N/A,30.12,55.0,8:53 AM,,10.0,WNW,10.4,290,Boise,Idaho,83701
9,Clear,2016-05-30 15:53:00,39.9,,-,49,N/A,30.12,59.0,9:53 AM,,10.0,WNW,11.5,300,Boise,Idaho,83701
10,Clear,2016-05-30 16:53:00,39.0,,-,40,N/A,30.12,64.0,10:53 AM,,10.0,NW,11.5,320,Boise,Idaho,83701
11,Clear,2016-05-30 17:53:00,37.0,,20.7,34,N/A,30.11,66.0,11:53 AM,,10.0,NW,11.5,320,Boise,Idaho,83701
12,Clear,2016-05-30 18:53:00,37.0,,-,31,N/A,30.09,69.1,12:53 PM,,10.0,NW,12.7,310,Boise,Idaho,83701
13,Clear,2016-05-30 19:53:00,35.1,,23.0,27,N/A,30.08,71.1,1:53 PM,,10.0,NW,17.3,310,Boise,Idaho,83701
14,Clear,2016-05-30 20:53:00,34.0,,-,25,N/A,30.06,72.0,2:53 PM,,10.0,NNW,19.6,330,Boise,Idaho,83701
15,Clear,2016-05-30 21:53:00,32.0,,-,21,N/A,30.04,73.9,3:53 PM,,10.0,NW,16.1,310,Boise,Idaho,83701
16,Clear,2016-05-30 22:53:00,30.0,,24.2,19,N/A,30.03,75.0,4:53 PM,,10.0,NNW,16.1,330,Boise,Idaho,83701
17,Clear,2016-05-30 23:53:00,23.0,,-,14,N/A,30.02,75.0,5:53 PM,,10.0,WNW,17.3,300,Boise,Idaho,83701
18,Clear,2016-05-31 00:53:00,24.1,,-,15,N/A,30.01,75.0,6:53 PM,,10.0,NW,13.8,310,Boise,Idaho,83701
19,Clear,2016-05-31 01:53:00,24.1,,-,16,N/A,30.01,73.9,7:53 PM,,10.0,NW,15.0,320,Boise,Idaho,83701
20,Clear,2016-05-31 02:53:00,28.0,,-,20,N/A,30.01,71.1,8:53 PM,,10.0,WNW,10.4,300,Boise,Idaho,83701
21,Clear,2016-05-31 02:56:00,28.0,,-,20,N/A,30.06,71.1,8:56 PM,,10.0,WNW,10.4,290,Boise,Idaho,83701
22,Clear,2016-05-31 03:53:00,30.0,,-,25,N/A,30.03,66.9,9:53 PM,,10.0,South,3.5,170,Boise,Idaho,83701
23,Clear,2016-05-31 04:53:00,30.9,,-,29,N/A,30.03,64.0,10:53 PM,,10.0,Calm,Calm,0,Boise,Idaho,83701
24,Clear,2016-05-31 05:53:00,33.1,,-,33,N/A,30.02,63.0,11:53 PM,,10.0,West,6.9,280,Boise,Idaho,83701
0,Clear,2016-05-31 06:53:00,34.0,,-,36,N/A,30.02,61.0,12:53 AM,,10.0,ENE,5.8,60,Boise,Idaho,83701
1,Clear,2016-05-31 07:53:00,34.0,,-,41,N/A,30.02,57.9,1:53 AM,,10.0,Calm,Calm,0,Boise,Idaho,83701
2,Clear,2016-05-31 08:53:00,35.1,,-,53,N/A,30.04,52.0,2:53 AM,,10.0,SW,6.9,230,Boise,Idaho,83701
3,Clear,2016-05-31 09:53:00,37.0,,-,61,N/A,30.04,50.0,3:53 AM,,10.0,South,5.8,190,Boise,Idaho,83701
4,Clear,2016-05-31 10:53:00,37.0,,-,57,N/A,30.04,52.0,4:53 AM,,10.0,Variable,3.5,0,Boise,Idaho,83701
5,Clear,2016-05-31 11:53:00,37.0,,-,64,N/A,30.06,48.9,5:53 AM,,10.0,SW,3.5,230,Boise,Idaho,83701
6,Clear,2016-05-31 12:53:00,36.0,,-,63,N/A,30.07,48.0,6:53 AM,,10.0,South,3.5,170,Boise,Idaho,83701
7,Clear,2016-05-31 13:53:00,37.0,,-,55,N/A,30.08,53.1,7:53 AM,,10.0,SW,5.8,220,Boise,Idaho,83701
8,Clear,2016-05-31 14:53:00,37.0,,-,49,N/A,30.08,55.9,8:53 AM,,10.0,Variable,3.5,0,Boise,Idaho,83701
9,Clear,2016-05-31 15:53:00,35.1,,-,39,N/A,30.09,60.1,9:53 AM,,10.0,ESE,3.5,120,Boise,Idaho,83701
10,Clear,2016-05-31 16:53:00,36.0,,-,35,N/A,30.08,64.0,10:53 AM,,10.0,Variable,5.8,0,Boise,Idaho,83701
11,Clear,2016-05-31 17:53:00,34.0,,-,28,N/A,30.06,68.0,11:53 AM,,10.0,Variable,6.9,0,Boise,Idaho,83701
12,Clear,2016-05-31 18:53:00,27.0,,-,19,N/A,30.05,71.1,12:53 PM,,10.0,Calm,Calm,0,Boise,Idaho,83701
13,Clear,2016-05-31 19:53:00,26.1,,-,17,N/A,30.03,73.9,1:53 PM,,10.0,Variable,3.5,0,Boise,Idaho,83701
14,Clear,2016-05-31 20:42:00,21.0,,-,13,N/A,30.07,75.9,2:42 PM,,10.0,NNW,6.9,340,Boise,Idaho,83701
15,Clear,2016-05-31 20:53:00,21.0,,-,13,N/A,30.01,75.9,2:53 PM,,10.0,Variable,3.5,0,Boise,Idaho,83701
16,Clear,2016-05-31 21:53:00,17.1,,-,10,N/A,30.00,78.1,3:53 PM,,10.0,Variable,4.6,0,Boise,Idaho,83701
17,Clear,2016-05-31 22:53:00,19.0,,-,11,N/A,29.97,79.0,4:53 PM,,10.0,Variable,5.8,0,Boise,Idaho,83701
18,Clear,2016-05-31 23:53:00,19.0,,-,10,N/A,29.96,80.1,5:53 PM,,10.0,WNW,11.5,290,Boise,Idaho,83701
19,Clear,2016-06-01 00:53:00,21.0,,-,12,N/A,29.95,79.0,6:53 PM,,10.0,WNW,10.4,300,Boise,Idaho,83701
20,Clear,2016-06-01 01:53:00,21.9,,-,12,N/A,29.94,78.1,7:53 PM,,10.0,WNW,10.4,300,Boise,Idaho,83701
21,Clear,2016-06-01 02:53:00,23.0,,-,14,N/A,29.94,75.0,8:53 PM,,10.0,NW,6.9,310,Boise,Idaho,83701
22,Clear,2016-06-01 03:53:00,27.0,,-,20,N/A,29.95,70.0,9:53 PM,,10.0,South,3.5,180,Boise,Idaho,83701
23,Clear,2016-06-01 04:53:00,30.0,,-,26,N/A,29.95,66.0,10:53 PM,,10.0,Calm,Calm,0,Boise,Idaho,83701
24,Clear,2016-06-01 05:53:00,28.9,,-,28,N/A,29.95,63.0,11:53 PM,,10.0,SE,8.1,130,Boise,Idaho,83701
0,Clear,2016-06-01 06:53:00,28.9,,-,29,N/A,29.95,62.1,12:53 AM,,10.0,SE,9.2,130,Boise,Idaho,83701
1,Clear,2016-06-01 07:53:00,34.0,,-,41,N/A,29.94,57.9,1:53 AM,,10.0,ESE,5.8,110,Boise,Idaho,83701
2,Clear,2016-06-01 08:53:00,34.0,,-,42,N/A,29.93,57.0,2:53 AM,,10.0,SE,9.2,130,Boise,Idaho,83701
3,Clear,2016-06-01 09:53:00,34.0,,-,42,N/A,29.92,57.0,3:53 AM,,10.0,SE,9.2,130,Boise,Idaho,83701
4,Clear,2016-06-01 10:53:00,33.1,,-,40,N/A,29.91,57.0,4:53 AM,,10.0,SE,12.7,140,Boise,Idaho,83701
5,Clear,2016-06-01 11:53:00,34.0,,-,42,N/A,29.91,57.0,5:53 AM,,10.0,ESE,9.2,120,Boise,Idaho,83701
6,Clear,2016-06-01 12:53:00,34.0,,-,42,N/A,29.92,57.0,6:53 AM,,10.0,SE,8.1,130,Boise,Idaho,83701
7,Clear,2016-06-01 13:53:00,35.1,,-,38,N/A,29.93,61.0,7:53 AM,,10.0,SE,6.9,130,Boise,Idaho,83701
8,Clear,2016-06-01 14:10:00,35.1,,-,37,N/A,30.00,62.1,8:10 AM,,10.0,West,3.5,260,Boise,Idaho,83701
9,Clear,2016-06-01 14:53:00,35.1,,-,32,N/A,29.94,66.0,8:53 AM,,10.0,SE,6.9,140,Boise,Idaho,83701
10,Clear,2016-06-01 15:53:00,35.1,,-,27,N/A,29.93,71.1,9:53 AM,,10.0,SE,11.5,130,Boise,Idaho,83701
11,Clear,2016-06-01 16:53:00,33.1,,-,21,N/A,29.92,75.9,10:53 AM,,10.0,SE,12.7,130,Boise,Idaho,83701
12,Clear,2016-06-01 17:53:00,28.9,,-,15,N/A,29.89,81.0,11:53 AM,,10.0,ESE,13.8,120,Boise,Idaho,83701
13,Clear,2016-06-01 18:53:00,28.9,,18.4,13,N/A,29.88,84.9,12:53 PM,,10.0,South,12.7,170,Boise,Idaho,83701
14,Clear,2016-06-01 19:53:00,27.0,,18.4,11,N/A,29.86,87.1,1:53 PM,,10.0,SE,10.4,140,Boise,Idaho,83701
15,Clear,2016-06-01 20:53:00,27.0,,19.6,11,N/A,29.83,88.0,2:53 PM,,10.0,Variable,6.9,0,Boise,Idaho,83701
16,Clear,2016-06-01 21:53:00,28.0,,-,11,N/A,29.80,90.0,3:53 PM,,10.0,ESE,5.8,110,Boise,Idaho,83701
17,Clear,2016-06-01 22:53:00,27.0,,-,10,N/A,29.77,90.0,4:53 PM,,10.0,Variable,5.8,0,Boise,Idaho,83701
18,Clear,2016-06-01 23:53:00,28.0,,-,10,N/A,29.75,91.0,5:53 PM,,10.0,ENE,8.1,60,Boise,Idaho,83701
19,Clear,2016-06-02 00:53:00,28.9,,-,12,N/A,29.75,89.1,6:53 PM,,10.0,NE,5.8,50,Boise,Idaho,83701
20,Clear,2016-06-02 01:53:00,28.9,,-,12,N/A,29.74,89.1,7:53 PM,,10.0,ENE,6.9,70,Boise,Idaho,83701
21,Clear,2016-06-02 02:53:00,36.0,,-,17,N/A,29.74,84.9,8:53 PM,,10.0,NE,4.6,40,Boise,Idaho,83701
22,Clear,2016-06-02 03:53:00,36.0,,-,21,N/A,29.75,79.0,9:53 PM,,10.0,SE,6.9,140,Boise,Idaho,83701
23,Clear,2016-06-02 04:53:00,39.9,,-,28,N/A,29.76,75.0,10:53 PM,,10.0,SE,9.2,130,Boise,Idaho,83701
24,Clear,2016-06-02 05:53:00,41.0,,-,33,N/A,29.77,72.0,11:53 PM,,10.0,SE,8.1,130,Boise,Idaho,83701
0,Clear,2016-06-02 06:53:00,36.0,,-,31,N/A,29.79,68.0,12:53 AM,,10.0,ESE,4.6,120,Boise,Idaho,83701
1,Clear,2016-06-02 07:53:00,37.0,,-,37,N/A,29.81,64.0,1:53 AM,,10.0,SSW,4.6,200,Boise,Idaho,83701
2,Clear,2016-06-02 08:53:00,44.1,,-,47,N/A,29.83,64.9,2:53 AM,,10.0,Calm,Calm,0,Boise,Idaho,83701
3,Partly Cloudy,2016-06-02 09:53:00,44.1,,-,50,N/A,29.84,63.0,3:53 AM,,10.0,WSW,3.5,240,Boise,Idaho,83701
4,Clear,2016-06-02 10:53:00,45.0,,-,52,N/A,29.87,63.0,4:53 AM,,10.0,NE,3.5,40,Boise,Idaho,83701
5,Clear,2016-06-02 11:53:00,43.0,,-,52,N/A,29.89,61.0,5:53 AM,,10.0,Calm,Calm,0,Boise,Idaho,83701
6,Partly Cloudy,2016-06-02 12:53:00,43.0,,-,55,N/A,29.91,59.0,6:53 AM,,10.0,East,3.5,90,Boise,Idaho,83701
7,Clear,2016-06-02 13:53:00,44.1,,-,50,N/A,29.93,63.0,7:53 AM,,10.0,SE,3.5,130,Boise,Idaho,83701
8,Clear,2016-06-02 14:53:00,42.1,,-,40,N/A,29.96,66.9,8:53 AM,,10.0,Calm,Calm,0,Boise,Idaho,83701
9,Clear,2016-06-02 15:53:00,44.1,,-,39,N/A,29.97,70.0,9:53 AM,,10.0,NNE,5.8,20,Boise,Idaho,83701
10,Clear,2016-06-02 16:53:00,36.0,,-,24,N/A,29.98,75.0,10:53 AM,,10.0,NNW,10.4,340,Boise,Idaho,83701
11,Clear,2016-06-02 17:53:00,32.0,,-,19,N/A,29.99,78.1,11:53 AM,,10.0,NW,10.4,310,Boise,Idaho,83701
12,Clear,2016-06-02 18:53:00,30.9,,-,18,N/A,30.00,78.1,12:53 PM,,10.0,NNW,11.5,330,Boise,Idaho,83701
13,Clear,2016-06-02 19:53:00,34.0,,-,20,N/A,30.01,78.1,1:53 PM,,10.0,North,9.2,350,Boise,Idaho,83701
14,Clear,2016-06-02 20:53:00,32.0,,-,19,N/A,30.00,78.1,2:53 PM,,10.0,North,8.1,360,Boise,Idaho,83701
15,Clear,2016-06-02 21:53:00,33.1,,-,18,N/A,29.99,81.0,3:53 PM,,10.0,North,13.8,350,Boise,Idaho,83701
16,Clear,2016-06-02 22:53:00,30.0,,-,16,N/A,29.98,81.0,4:53 PM,,10.0,NW,8.1,320,Boise,Idaho,83701
17,Clear,2016-06-02 23:53:00,30.0,,-,16,N/A,29.97,81.0,5:53 PM,,10.0,North,11.5,350,Boise,Idaho,83701
18,Clear,2016-06-03 00:53:00,32.0,,-,17,N/A,29.97,81.0,6:53 PM,,10.0,NNW,8.1,340,Boise,Idaho,83701
19,Clear,2016-06-03 01:53:00,33.1,,-,18,N/A,29.97,80.1,7:53 PM,,10.0,NNE,5.8,20,Boise,Idaho,83701
20,Clear,2016-06-03 02:53:00,34.0,,-,20,N/A,29.97,78.1,8:53 PM,,10.0,ENE,5.8,60,Boise,Idaho,83701
21,Clear,2016-06-03 03:53:00,37.0,,-,27,N/A,30.00,73.0,9:53 PM,,10.0,NNW,4.6,340,Boise,Idaho,83701
22,Clear,2016-06-03 04:53:00,37.0,,-,30,N/A,30.02,70.0,10:53 PM,,10.0,WNW,4.6,290,Boise,Idaho,83701
23,Clear,2016-06-03 05:53:00,37.9,,-,33,N/A,30.04,68.0,11:53 PM,,10.0,Calm,Calm,0,Boise,Idaho,83701
0,Clear,2016-06-03 06:53:00,39.0,,-,40,N/A,30.07,64.0,12:53 AM,,10.0,Calm,Calm,0,Boise,Idaho,83701
1,Clear,2016-06-03 07:53:00,41.0,,-,48,N/A,30.09,61.0,1:53 AM,,10.0,Calm,Calm,0,Boise,Idaho,83701
2,Clear,2016-06-03 08:53:00,43.0,,-,55,N/A,30.10,59.0,2:53 AM,,10.0,SSW,6.9,200,Boise,Idaho,83701
3,Clear,2016-06-03 09:53:00,46.0,,-,65,N/A,30.12,57.9,3:53 AM,,10.0,WSW,4.6,240,Boise,Idaho,83701
4,Clear,2016-06-03 10:53:00,46.0,,-,67,N/A,30.13,57.0,4:53 AM,,10.0,Calm,Calm,0,Boise,Idaho,83701
5,Clear,2016-06-03 11:53:00,44.1,,-,64,N/A,30.14,55.9,5:53 AM,,10.0,SE,4.6,130,Boise,Idaho,83701
6,Clear,2016-06-03 12:53:00,42.1,,-,57,N/A,30.15,57.0,6:53 AM,,10.0,Calm,Calm,0,Boise,Idaho,83701
7,Clear,2016-06-03 13:53:00,46.0,,-,58,N/A,30.17,61.0,7:53 AM,,10.0,Calm,Calm,0,Boise,Idaho,83701
8,Clear,2016-06-03 14:53:00,48.0,,-,54,N/A,30.18,64.9,8:53 AM,,10.0,SW,3.5,230,Boise,Idaho,83701
9,Clear,2016-06-03 15:53:00,46.9,,-,45,N/A,30.19,69.1,9:53 AM,,10.0,WNW,5.8,300,Boise,Idaho,83701
10,Clear,2016-06-03 16:53:00,46.0,,-,37,N/A,30.20,73.9,10:53 AM,,10.0,WNW,9.2,290,Boise,Idaho,83701
11,Clear,2016-06-03 17:53:00,45.0,,-,34,N/A,30.20,75.0,11:53 AM,,10.0,NNW,13.8,340,Boise,Idaho,83701
12,Clear,2016-06-03 18:53:00,43.0,,19.6,29,N/A,30.19,78.1,12:53 PM,,10.0,WNW,13.8,300,Boise,Idaho,83701
13,Clear,2016-06-03 19:53:00,45.0,,-,29,N/A,30.18,80.1,1:53 PM,,10.0,WNW,11.5,300,Boise,Idaho,83701
14,Clear,2016-06-03 20:53:00,43.0,,19.6,25,N/A,30.15,82.0,2:53 PM,,10.0,WNW,11.5,290,Boise,Idaho,83701
15,Clear,2016-06-03 21:53:00,45.0,,-,25,N/A,30.13,84.9,3:53 PM,,10.0,NW,16.1,320,Boise,Idaho,83701
16,Clear,2016-06-03 22:53:00,43.0,,20.7,22,N/A,30.12,86.0,4:53 PM,,10.0,NW,10.4,320,Boise,Idaho,83701
17,Clear,2016-06-03 23:53:00,42.1,,-,21,N/A,30.11,86.0,5:53 PM,,10.0,NNW,11.5,330,Boise,Idaho,83701
18,Clear,2016-06-04 00:53:00,41.0,,-,21,N/A,30.09,84.9,6:53 PM,,10.0,West,10.4,280,Boise,Idaho,83701
19,Clear,2016-06-04 01:53:00,43.0,,-,24,N/A,30.07,84.0,7:53 PM,,10.0,WNW,10.4,300,Boise,Idaho,83701
20,Clear,2016-06-04 02:53:00,43.0,,-,25,N/A,30.07,82.0,8:53 PM,,10.0,WNW,10.4,300,Boise,Idaho,83701
21,Clear,2016-06-04 03:53:00,46.0,,-,33,N/A,30.08,77.0,9:53 PM,,10.0,WNW,4.6,290,Boise,Idaho,83701
22,Clear,2016-06-04 04:53:00,46.0,,-,36,N/A,30.09,75.0,10:53 PM,,10.0,Calm,Calm,0,Boise,Idaho,83701
23,Clear,2016-06-04 05:53:00,46.0,,-,47,N/A,30.10,66.9,11:53 PM,,10.0,WSW,3.5,250,Boise,Idaho,83701
0,Clear,2016-06-04 06:53:00,46.0,,-,45,N/A,30.10,68.0,12:53 AM,,10.0,SE,8.1,140,Boise,Idaho,83701
1,Clear,2016-06-04 07:53:00,45.0,,-,47,N/A,30.09,66.0,1:53 AM,,10.0,SE,6.9,140,Boise,Idaho,83701
2,Clear,2016-06-04 08:53:00,45.0,,-,48,N/A,30.09,64.9,2:53 AM,,10.0,SSE,8.1,150,Boise,Idaho,83701
3,Clear,2016-06-04 09:53:00,45.0,,-,53,N/A,30.09,62.1,3:53 AM,,10.0,SSE,5.8,150,Boise,Idaho,83701
4,Clear,2016-06-04 10:53:00,46.0,,-,54,N/A,30.08,63.0,4:53 AM,,10.0,South,4.6,180,Boise,Idaho,83701
5,Clear,2016-06-04 11:53:00,45.0,,-,56,N/A,30.09,61.0,5:53 AM,,10.0,South,10.4,180,Boise,Idaho,83701
6,Clear,2016-06-04 12:53:00,46.9,,-,62,N/A,30.10,60.1,6:53 AM,,10.0,SSE,5.8,150,Boise,Idaho,83701
7,Clear,2016-06-04 13:53:00,46.0,,-,47,N/A,30.11,66.9,7:53 AM,,10.0,SSE,8.1,150,Boise,Idaho,83701
8,Clear,2016-06-04 14:53:00,46.0,,-,40,N/A,30.11,72.0,8:53 AM,,10.0,ESE,9.2,120,Boise,Idaho,83701
9,Clear,2016-06-04 15:53:00,45.0,,-,33,N/A,30.11,75.9,9:53 AM,,10.0,ESE,6.9,120,Boise,Idaho,83701
10,Clear,2016-06-04 16:53:00,44.1,,-,28,N/A,30.09,80.1,10:53 AM,,10.0,Variable,5.8,0,Boise,Idaho,83701
11,Clear,2016-06-04 17:53:00,44.1,,-,26,N/A,30.09,82.0,11:53 AM,,10.0,Variable,3.5,0,Boise,Idaho,83701
12,Clear,2016-06-04 18:53:00,45.0,,-,25,N/A,30.07,84.9,12:53 PM,,10.0,WSW,4.6,240,Boise,Idaho,83701
13,Clear,2016-06-04 19:53:00,44.1,,-,22,N/A,30.04,88.0,1:53 PM,,10.0,Variable,4.6,0,Boise,Idaho,83701
14,Clear,2016-06-04 20:53:00,42.1,,-,20,N/A,30.02,88.0,2:53 PM,,10.0,West,6.9,280,Boise,Idaho,83701
15,Clear,2016-06-04 21:53:00,35.1,,-,15,N/A,30.00,89.1,3:53 PM,,10.0,North,-9999.0,0,Boise,Idaho,83701
16,Clear,2016-06-04 22:53:00,37.0,,-,15,N/A,29.98,91.0,4:53 PM,,10.0,NNW,11.5,330,Boise,Idaho,83701
17,Clear,2016-06-04 23:53:00,33.1,,-,12,N/A,29.95,91.9,5:53 PM,,10.0,North,8.1,10,Boise,Idaho,83701
18,Clear,2016-06-05 00:53:00,30.0,,-,11,N/A,29.93,91.0,6:53 PM,,10.0,Variable,4.6,0,Boise,Idaho,83701
19,Clear,2016-06-05 01:53:00,30.0,,-,12,N/A,29.92,90.0,7:53 PM,,10.0,West,8.1,280,Boise,Idaho,83701
20,Clear,2016-06-05 02:53:00,35.1,,-,16,N/A,29.91,87.1,8:53 PM,,10.0,West,4.6,280,Boise,Idaho,83701
21,Clear,2016-06-05 03:53:00,43.0,,-,24,N/A,29.91,82.9,9:53 PM,,10.0,West,3.5,260,Boise,Idaho,83701
22,Clear,2016-06-05 04:53:00,44.1,,-,29,N/A,29.91,79.0,10:53 PM,,10.0,Calm,Calm,0,Boise,Idaho,83701
23,Clear,2016-06-05 05:53:00,44.1,,-,38,N/A,29.91,71.1,11:53 PM,,10.0,ESE,5.8,120,Boise,Idaho,83701
0,Clear,2016-06-05 06:53:00,48.0,,-,44,N/A,29.90,71.1,12:53 AM,,10.0,SE,5.8,130,Boise,Idaho,83701
1,Clear,2016-06-05 07:53:00,48.0,,-,46,N/A,29.89,70.0,1:53 AM,,10.0,SE,6.9,140,Boise,Idaho,83701
2,Clear,2016-06-05 08:53:00,48.9,,-,50,N/A,29.89,68.0,2:53 AM,,10.0,SE,5.8,130,Boise,Idaho,83701
3,Clear,2016-06-05 09:53:00,48.0,,-,51,N/A,29.88,66.9,3:53 AM,,10.0,SE,6.9,140,Boise,Idaho,83701
4,Clear,2016-06-05 10:53:00,48.0,,-,52,N/A,29.87,66.0,4:53 AM,,10.0,SE,8.1,130,Boise,Idaho,83701
5,Clear,2016-06-05 11:53:00,48.0,,-,58,N/A,29.88,63.0,5:53 AM,,10.0,SSW,4.6,200,Boise,Idaho,83701
6,Clear,2016-06-05 12:53:00,48.9,,-,56,N/A,29.89,64.9,6:53 AM,,10.0,SE,4.6,130,Boise,Idaho,83701
7,Clear,2016-06-05 13:53:00,48.9,,-,47,N/A,29.89,70.0,7:53 AM,,10.0,Calm,Calm,0,Boise,Idaho,83701
8,Clear,2016-06-05 14:53:00,48.0,,-,38,N/A,29.89,75.0,8:53 AM,,10.0,South,3.5,170,Boise,Idaho,83701
9,Clear,2016-06-05 15:53:00,48.0,,-,32,N/A,29.88,80.1,9:53 AM,,10.0,Calm,Calm,0,Boise,Idaho,83701
10,Clear,2016-06-05 16:53:00,48.0,,-,29,N/A,29.88,82.9,10:53 AM,,10.0,Calm,Calm,0,Boise,Idaho,83701
11,Clear,2016-06-05 17:53:00,48.0,,-,27,N/A,29.86,86.0,11:53 AM,,10.0,Calm,Calm,0,Boise,Idaho,83701
12,Clear,2016-06-05 18:53:00,46.9,,-,22,N/A,29.84,91.0,12:53 PM,,10.0,West,5.8,270,Boise,Idaho,83701
13,Clear,2016-06-05 19:53:00,45.0,,-,19,N/A,29.81,93.0,1:53 PM,,10.0,NE,6.9,50,Boise,Idaho,83701
14,Clear,2016-06-05 20:53:00,45.0,,-,18,N/A,29.79,93.9,2:53 PM,,10.0,NW,6.9,310,Boise,Idaho,83701
15,Clear,2016-06-05 21:53:00,45.0,,-,17,N/A,29.76,96.1,3:53 PM,,10.0,WNW,10.4,290,Boise,Idaho,83701
16,Clear,2016-06-05 22:53:00,43.0,,-,17,N/A,29.73,95.0,4:53 PM,,10.0,WNW,11.5,300,Boise,Idaho,83701
17,Clear,2016-06-05 23:53:00,43.0,,-,17,N/A,29.73,93.9,5:53 PM,,10.0,WNW,13.8,300,Boise,Idaho,83701
18,Clear,2016-06-06 00:53:00,45.0,,-,19,N/A,29.71,93.0,6:53 PM,,10.0,WNW,16.1,300,Boise,Idaho,83701
19,Clear,2016-06-06 01:53:00,48.0,,-,24,N/A,29.70,90.0,7:53 PM,,10.0,NW,11.5,310,Boise,Idaho,83701
20,Clear,2016-06-06 02:53:00,53.1,,-,31,N/A,29.75,87.1,8:53 PM,,10.0,West,5.8,280,Boise,Idaho,83701
21,Clear,2016-06-06 03:53:00,55.0,,-,37,N/A,29.75,84.0,9:53 PM,,10.0,Calm,Calm,0,Boise,Idaho,83701
22,Scattered Clouds,2016-06-06 04:32:00,44.1,,31.1,25,N/A,29.91,82.9,10:32 PM,,7.0,SSW,21.9,200,Boise,Idaho,83701
23,Mostly Cloudy,2016-06-06 04:53:00,46.0,,-,29,N/A,29.81,81.0,10:53 PM,,8.0,SSW,4.6,200,Boise,Idaho,83701
24,Mostly Cloudy,2016-06-06 05:10:00,46.0,Thunderstorm,-,29,N/A,29.92,81.0,11:10 PM,,10.0,Calm,Calm,0,Boise,Idaho,83701
25,Partly Cloudy,2016-06-06 05:33:00,46.9,,-,33,N/A,29.91,78.1,11:33 PM,,10.0,North,8.1,360,Boise,Idaho,83701
26,Clear,2016-06-06 05:53:00,46.9,,-,32,N/A,29.83,79.0,11:53 PM,,10.0,NE,6.9,40,Boise,Idaho,83701
0,Partly Cloudy,2016-06-06 06:53:00,46.9,,-,33,N/A,29.81,78.1,12:53 AM,,10.0,SSE,3.5,150,Boise,Idaho,83701
1,Partly Cloudy,2016-06-06 07:53:00,48.0,,-,36,N/A,29.76,77.0,1:53 AM,,10.0,North,11.5,10,Boise,Idaho,83701
2,Partly Cloudy,2016-06-06 08:53:00,46.9,,-,34,N/A,29.76,77.0,2:53 AM,,10.0,NW,10.4,320,Boise,Idaho,83701
3,Clear,2016-06-06 09:53:00,45.0,,-,32,N/A,29.78,77.0,3:53 AM,,10.0,Calm,Calm,0,Boise,Idaho,83701
4,Clear,2016-06-06 10:53:00,46.9,,-,41,N/A,29.75,72.0,4:53 AM,,10.0,Variable,5.8,0,Boise,Idaho,83701
5,Clear,2016-06-06 11:53:00,46.0,,-,44,N/A,29.75,69.1,5:53 AM,,10.0,SSE,6.9,160,Boise,Idaho,83701
6,Clear,2016-06-06 12:53:00,48.0,,-,44,N/A,29.78,71.1,6:53 AM,,10.0,West,4.6,260,Boise,Idaho,83701
7,Clear,2016-06-06 13:53:00,48.0,,-,41,N/A,29.78,73.0,7:53 AM,,10.0,Calm,Calm,0,Boise,Idaho,83701
8,Clear,2016-06-06 14:53:00,46.0,,-,33,N/A,29.78,77.0,8:53 AM,,10.0,WNW,5.8,290,Boise,Idaho,83701
9,Clear,2016-06-06 15:53:00,48.0,,-,35,N/A,29.80,78.1,9:53 AM,,10.0,North,4.6,360,Boise,Idaho,83701
10,Clear,2016-06-06 16:53:00,46.9,,-,29,N/A,29.81,82.0,10:53 AM,,10.0,SW,8.1,230,Boise,Idaho,83701
11,Clear,2016-06-06 17:53:00,48.0,,-,29,N/A,29.79,82.9,11:53 AM,,10.0,WSW,6.9,250,Boise,Idaho,83701
12,Clear,2016-06-06 18:53:00,48.0,,-,26,N/A,29.76,87.1,12:53 PM,,10.0,NNW,6.9,330,Boise,Idaho,83701
13,Clear,2016-06-06 19:53:00,48.9,,-,24,N/A,29.73,90.0,1:53 PM,,10.0,Variable,6.9,0,Boise,Idaho,83701
14,Clear,2016-06-06 20:53:00,44.1,,-,20,N/A,29.72,91.0,2:53 PM,,10.0,NNW,11.5,330,Boise,Idaho,83701
15,Clear,2016-06-06 21:53:00,46.9,,-,21,N/A,29.70,91.9,3:53 PM,,10.0,Variable,5.8,0,Boise,Idaho,83701
16,Clear,2016-06-06 22:53:00,48.0,,-,22,N/A,29.68,91.9,4:53 PM,,10.0,West,9.2,280,Boise,Idaho,83701
17,Clear,2016-06-06 23:53:00,46.9,,-,20,N/A,29.65,93.9,5:53 PM,,10.0,NW,4.6,320,Boise,Idaho,83701
18,Clear,2016-06-07 00:53:00,46.9,,-,20,N/A,29.64,93.9,6:53 PM,,10.0,Variable,3.5,0,Boise,Idaho,83701
19,Clear,2016-06-07 01:53:00,45.0,,-,20,N/A,29.65,91.0,7:53 PM,,10.0,ENE,15.0,60,Boise,Idaho,83701
20,Clear,2016-06-07 02:53:00,42.1,,-,21,N/A,29.65,87.1,8:53 PM,,10.0,NE,15.0,50,Boise,Idaho,83701
21,Clear,2016-06-07 03:53:00,42.1,,20.7,22,N/A,29.65,84.9,9:53 PM,,10.0,NE,10.4,40,Boise,Idaho,83701
22,Clear,2016-06-07 04:53:00,42.1,,-,24,N/A,29.66,82.9,10:53 PM,,10.0,ENE,5.8,70,Boise,Idaho,83701
23,Clear,2016-06-07 05:53:00,42.1,,-,25,N/A,29.68,81.0,11:53 PM,,10.0,ESE,8.1,110,Boise,Idaho,83701
0,Clear,2016-06-07 06:53:00,43.0,,-,27,N/A,29.69,80.1,12:53 AM,,10.0,ESE,9.2,110,Boise,Idaho,83701
1,Clear,2016-06-07 07:53:00,46.0,,-,36,N/A,29.72,75.0,1:53 AM,,10.0,NNW,4.6,340,Boise,Idaho,83701
2,Clear,2016-06-07 08:53:00,46.9,,-,39,N/A,29.73,73.0,2:53 AM,,10.0,NW,3.5,320,Boise,Idaho,83701
3,Clear,2016-06-07 09:53:00,46.0,,-,41,N/A,29.72,71.1,3:53 AM,,10.0,SE,4.6,130,Boise,Idaho,83701
4,Clear,2016-06-07 10:53:00,46.9,,-,47,N/A,29.73,68.0,4:53 AM,,10.0,SE,9.2,130,Boise,Idaho,83701
5,Clear,2016-06-07 11:53:00,46.0,,-,42,N/A,29.73,70.0,5:53 AM,,10.0,SE,12.7,130,Boise,Idaho,83701
6,Clear,2016-06-07 12:53:00,46.9,,-,45,N/A,29.73,69.1,6:53 AM,,10.0,ESE,10.4,110,Boise,Idaho,83701
7,Clear,2016-06-07 13:53:00,46.0,,-,37,N/A,29.74,73.9,7:53 AM,,10.0,ESE,8.1,120,Boise,Idaho,83701
8,Clear,2016-06-07 14:53:00,50.0,,-,40,N/A,29.76,75.9,8:53 AM,,10.0,NNW,4.6,340,Boise,Idaho,83701
9,Partly Cloudy,2016-06-07 15:53:00,48.9,,-,36,N/A,29.77,78.1,9:53 AM,,10.0,NNW,8.1,330,Boise,Idaho,83701
10,Thunderstorm,2016-06-07 16:05:00,48.0,Thunderstorm,-,34,N/A,29.87,79.0,10:05 AM,,10.0,NNW,9.2,340,Boise,Idaho,83701
11,Mostly Cloudy,2016-06-07 16:20:00,48.9,,-,37,N/A,29.87,77.0,10:20 AM,,10.0,NNW,9.2,330,Boise,Idaho,83701
12,Partly Cloudy,2016-06-07 16:53:00,51.1,,-,40,N/A,29.78,77.0,10:53 AM,,10.0,North,5.8,10,Boise,Idaho,83701
13,Overcast,2016-06-07 17:53:00,51.1,,-,36,N/A,29.77,80.1,11:53 AM,,10.0,North,6.9,10,Boise,Idaho,83701
14,Clear,2016-06-07 18:53:00,48.9,,-,31,N/A,29.75,82.9,12:53 PM,,10.0,Calm,Calm,0,Boise,Idaho,83701
15,Clear,2016-06-07 19:53:00,46.9,,-,22,N/A,29.73,91.0,1:53 PM,,10.0,North,8.1,10,Boise,Idaho,83701
16,Clear,2016-06-07 20:46:00,48.0,,-,23,N/A,29.82,91.0,2:46 PM,,10.0,Variable,6.9,0,Boise,Idaho,83701
17,Clear,2016-06-07 20:53:00,46.9,,-,21,N/A,29.72,91.9,2:53 PM,,10.0,NNW,9.2,340,Boise,Idaho,83701
18,Clear,2016-06-07 21:53:00,45.0,,-,18,N/A,29.70,93.9,3:53 PM,,10.0,NNW,10.4,340,Boise,Idaho,83701
19,Clear,2016-06-07 22:53:00,39.9,,-,15,N/A,29.69,93.9,4:53 PM,,10.0,WNW,10.4,290,Boise,Idaho,83701
20,Clear,2016-06-07 23:53:00,36.0,,-,13,N/A,29.66,93.9,5:53 PM,,10.0,WNW,8.1,290,Boise,Idaho,83701
21,Clear,2016-06-08 00:53:00,41.0,,-,16,N/A,29.66,93.9,6:53 PM,,10.0,North,6.9,10,Boise,Idaho,83701
22,Clear,2016-06-08 01:53:00,41.0,,-,17,N/A,29.67,91.0,7:53 PM,,10.0,NNW,6.9,340,Boise,Idaho,83701
23,Clear,2016-06-08 02:53:00,44.1,,-,21,N/A,29.66,89.1,8:53 PM,,10.0,North,4.6,360,Boise,Idaho,83701
24,Clear,2016-06-08 03:28:00,46.9,,-,26,N/A,29.78,86.0,9:28 PM,,10.0,ENE,3.5,60,Boise,Idaho,83701
25,Clear,2016-06-08 03:53:00,46.0,,-,26,N/A,29.71,84.9,9:53 PM,,10.0,WNW,13.8,290,Boise,Idaho,83701
26,Clear,2016-06-08 04:53:00,48.0,,-,31,N/A,29.73,81.0,10:53 PM,,10.0,North,5.8,10,Boise,Idaho,83701
27,Clear,2016-06-08 05:53:00,46.9,,-,31,N/A,29.73,80.1,11:53 PM,,10.0,WSW,3.5,250,Boise,Idaho,83701
0,Clear,2016-06-08 06:53:00,48.0,,-,38,N/A,29.73,75.0,12:53 AM,,10.0,Calm,Calm,0,Boise,Idaho,83701
1,Clear,2016-06-08 07:53:00,48.0,,-,40,N/A,29.71,73.9,1:53 AM,,10.0,SSE,4.6,160,Boise,Idaho,83701
2,Clear,2016-06-08 08:53:00,48.9,,-,44,N/A,29.72,72.0,2:53 AM,,10.0,SSE,4.6,150,Boise,Idaho,83701
3,Clear,2016-06-08 09:53:00,50.0,,-,46,N/A,29.73,72.0,3:53 AM,,10.0,SSE,8.1,160,Boise,Idaho,83701
4,Clear,2016-06-08 10:53:00,50.0,,-,51,N/A,29.73,69.1,4:53 AM,,10.0,SE,5.8,130,Boise,Idaho,83701
5,Clear,2016-06-08 11:53:00,50.0,,-,51,N/A,29.72,69.1,5:53 AM,,10.0,SE,9.2,130,Boise,Idaho,83701
6,Clear,2016-06-08 12:53:00,50.0,,-,49,N/A,29.73,70.0,6:53 AM,,10.0,SE,13.8,140,Boise,Idaho,83701
7,Partly Cloudy,2016-06-08 13:53:00,50.0,,-,43,N/A,29.74,73.9,7:53 AM,,10.0,ESE,10.4,120,Boise,Idaho,83701
8,Clear,2016-06-08 14:53:00,48.9,,-,35,N/A,29.75,79.0,8:53 AM,,10.0,ESE,11.5,120,Boise,Idaho,83701
9,Clear,2016-06-08 15:53:00,50.0,,-,32,N/A,29.74,82.9,9:53 AM,,10.0,SE,11.5,130,Boise,Idaho,83701
10,Clear,2016-06-08 16:53:00,48.0,,-,27,N/A,29.72,86.0,10:53 AM,,10.0,ENE,10.4,70,Boise,Idaho,83701
11,Clear,2016-06-08 17:53:00,45.0,,-,21,N/A,29.70,90.0,11:53 AM,,10.0,ENE,11.5,70,Boise,Idaho,83701
12,Clear,2016-06-08 18:53:00,42.1,,-,17,N/A,29.68,93.0,12:53 PM,,10.0,SSW,6.9,200,Boise,Idaho,83701
13,Clear,2016-06-08 19:53:00,42.1,,-,15,N/A,29.65,96.1,1:53 PM,,10.0,SE,8.1,130,Boise,Idaho,83701
14,Partly Cloudy,2016-06-08 20:53:00,42.1,,-,16,N/A,29.62,95.0,2:53 PM,,10.0,Variable,3.5,0,Boise,Idaho,83701
15,Scattered Clouds,2016-06-08 21:53:00,46.0,,-,18,N/A,29.60,96.1,3:53 PM,,10.0,West,8.1,260,Boise,Idaho,83701
16,Clear,2016-06-08 22:53:00,28.0,,28.8,8,N/A,29.57,100.9,4:53 PM,,10.0,SSW,19.6,200,Boise,Idaho,83701
17,Clear,2016-06-08 23:53:00,30.0,,24.2,9,N/A,29.55,100.0,5:53 PM,,10.0,WSW,13.8,240,Boise,Idaho,83701
18,Clear,2016-06-09 00:53:00,18.0,,-,6,N/A,29.54,98.1,6:53 PM,,10.0,WSW,16.1,240,Boise,Idaho,83701
19,Clear,2016-06-09 01:53:00,19.9,,-,7,N/A,29.54,95.0,7:53 PM,,10.0,WSW,9.2,240,Boise,Idaho,83701
20,Clear,2016-06-09 02:25:00,33.1,,24.2,14,N/A,29.67,89.1,8:25 PM,,9.0,West,13.8,280,Boise,Idaho,83701
21,Clear,2016-06-09 02:53:00,33.1,,29.9,15,N/A,29.58,87.1,8:53 PM,,10.0,WNW,18.4,300,Boise,Idaho,83701
22,Clear,2016-06-09 03:53:00,37.9,,25.3,21,N/A,29.60,82.0,9:53 PM,,10.0,NNW,13.8,340,Boise,Idaho,83701
23,Clear,2016-06-09 04:53:00,41.0,,-,27,N/A,29.61,78.1,10:53 PM,,10.0,WNW,8.1,300,Boise,Idaho,83701
24,Clear,2016-06-09 05:53:00,44.1,,-,34,N/A,29.63,73.9,11:53 PM,,10.0,West,12.7,280,Boise,Idaho,83701
0,Unknown,2016-06-09 06:53:00,46.0,,-,40,N/A,29.65,72.0,12:53 AM,,-9999.0,North,-9999.0,0,Boise,Idaho,83701
1,Clear,2016-06-09 07:53:00,46.9,,-,45,N/A,29.68,69.1,1:53 AM,,10.0,WNW,8.1,300,Boise,Idaho,83701
2,Clear,2016-06-09 08:53:00,46.9,,-,49,N/A,29.71,66.9,2:53 AM,,10.0,West,15.0,280,Boise,Idaho,83701
3,Clear,2016-06-09 09:53:00,45.0,,-,48,N/A,29.73,64.9,3:53 AM,,10.0,WNW,12.7,300,Boise,Idaho,83701
4,Clear,2016-06-09 10:53:00,44.1,,-,48,N/A,29.75,64.0,4:53 AM,,10.0,WNW,11.5,300,Boise,Idaho,83701
5,Clear,2016-06-09 11:01:00,44.1,,-,48,N/A,29.86,64.0,5:01 AM,,10.0,WNW,12.7,300,Boise,Idaho,83701
6,Clear,2016-06-09 11:53:00,42.1,,-,48,N/A,29.77,62.1,5:53 AM,,10.0,WNW,8.1,300,Boise,Idaho,83701
7,Clear,2016-06-09 12:53:00,39.9,,-,44,N/A,29.78,62.1,6:53 AM,,10.0,WNW,13.8,300,Boise,Idaho,83701
8,Clear,2016-06-09 13:53:00,41.0,,-,45,N/A,29.80,63.0,7:53 AM,,10.0,NW,13.8,320,Boise,Idaho,83701
9,Clear,2016-06-09 14:53:00,42.1,,-,45,N/A,29.83,64.0,8:53 AM,,10.0,WNW,12.7,300,Boise,Idaho,83701
10,Clear,2016-06-09 15:53:00,43.0,,-,43,N/A,29.84,66.0,9:53 AM,,10.0,NNW,8.1,330,Boise,Idaho,83701
11,Clear,2016-06-09 16:53:00,43.0,,-,38,N/A,29.84,70.0,10:53 AM,,10.0,WNW,8.1,300,Boise,Idaho,83701
12,Clear,2016-06-09 17:53:00,43.0,,-,33,N/A,29.83,73.9,11:53 AM,,10.0,NNW,11.5,330,Boise,Idaho,83701
13,Clear,2016-06-09 18:53:00,39.9,,-,27,N/A,29.81,75.9,12:53 PM,,10.0,NNW,11.5,340,Boise,Idaho,83701
14,Clear,2016-06-09 19:53:00,39.0,,19.6,25,N/A,29.79,78.1,1:53 PM,,10.0,NNW,9.2,340,Boise,Idaho,83701
15,Clear,2016-06-09 20:53:00,39.9,,-,24,N/A,29.78,80.1,2:53 PM,,10.0,NW,12.7,320,Boise,Idaho,83701
16,Clear,2016-06-09 21:53:00,39.9,,21.9,23,N/A,29.76,81.0,3:53 PM,,10.0,NNW,10.4,330,Boise,Idaho,83701
17,Clear,2016-06-09 22:53:00,39.9,,-,22,N/A,29.75,82.0,4:53 PM,,10.0,NW,13.8,310,Boise,Idaho,83701
18,Clear,2016-06-09 23:53:00,37.9,,-,21,N/A,29.73,82.0,5:53 PM,,10.0,NE,6.9,40,Boise,Idaho,83701
19,Clear,2016-06-10 00:53:00,37.0,,-,20,N/A,29.70,82.0,6:53 PM,,10.0,NNW,5.8,340,Boise,Idaho,83701
20,Clear,2016-06-10 01:53:00,37.0,,-,21,N/A,29.69,81.0,7:53 PM,,10.0,WNW,11.5,300,Boise,Idaho,83701
21,Clear,2016-06-10 02:53:00,37.9,,-,23,N/A,29.69,79.0,8:53 PM,,10.0,NNW,6.9,340,Boise,Idaho,83701
22,Clear,2016-06-10 03:53:00,39.9,,-,27,N/A,29.69,75.9,9:53 PM,,10.0,North,4.6,350,Boise,Idaho,83701
23,Clear,2016-06-10 04:53:00,41.0,,-,30,N/A,29.68,73.9,10:53 PM,,10.0,NNW,3.5,330,Boise,Idaho,83701
24,Clear,2016-06-10 05:53:00,41.0,,-,35,N/A,29.68,70.0,11:53 PM,,10.0,South,5.8,170,Boise,Idaho,83701
0,Clear,2016-06-10 06:53:00,42.1,,-,40,N/A,29.68,66.9,12:53 AM,,10.0,SSE,8.1,160,Boise,Idaho,83701
1,Clear,2016-06-10 07:53:00,41.0,,-,37,N/A,29.68,68.0,1:53 AM,,10.0,SSE,8.1,150,Boise,Idaho,83701
2,Clear,2016-06-10 08:53:00,43.0,,-,45,N/A,29.68,64.9,2:53 AM,,10.0,SSE,5.8,150,Boise,Idaho,83701
3,Clear,2016-06-10 09:53:00,43.0,,-,46,N/A,29.68,64.0,3:53 AM,,10.0,SE,10.4,140,Boise,Idaho,83701
4,Clear,2016-06-10 10:53:00,42.1,,-,45,N/A,29.70,64.0,4:53 AM,,10.0,SE,13.8,130,Boise,Idaho,83701
5,Clear,2016-06-10 11:53:00,43.0,,-,48,N/A,29.71,63.0,5:53 AM,,10.0,SE,10.4,130,Boise,Idaho,83701
6,Clear,2016-06-10 12:53:00,43.0,,-,48,N/A,29.74,63.0,6:53 AM,,10.0,SE,9.2,140,Boise,Idaho,83701
7,Clear,2016-06-10 13:53:00,43.0,,-,43,N/A,29.75,66.0,7:53 AM,,10.0,SE,6.9,130,Boise,Idaho,83701
8,Clear,2016-06-10 14:53:00,39.9,,-,30,N/A,29.77,73.0,8:53 AM,,10.0,WNW,6.9,290,Boise,Idaho,83701
9,Clear,2016-06-10 15:53:00,39.0,,-,29,N/A,29.78,73.0,9:53 AM,,10.0,Calm,Calm,0,Boise,Idaho,83701
10,Clear,2016-06-10 16:53:00,39.0,,-,27,N/A,29.77,75.0,10:53 AM,,10.0,NNW,4.6,330,Boise,Idaho,83701
11,Clear,2016-06-10 17:53:00,39.9,,-,25,N/A,29.77,78.1,11:53 AM,,10.0,Variable,5.8,0,Boise,Idaho,83701
12,Clear,2016-06-10 18:53:00,37.9,,-,23,N/A,29.77,79.0,12:53 PM,,10.0,NW,9.2,310,Boise,Idaho,83701
13,Clear,2016-06-10 19:53:00,37.9,,-,21,N/A,29.75,81.0,1:53 PM,,10.0,NNE,6.9,30,Boise,Idaho,83701
14,Clear,2016-06-10 20:53:00,37.9,,-,21,N/A,29.74,82.0,2:53 PM,,10.0,North,-9999.0,0,Boise,Idaho,83701
15,Clear,2016-06-10 21:53:00,39.9,,-,23,N/A,29.73,81.0,3:53 PM,,10.0,WNW,21.9,300,Boise,Idaho,83701
16,Clear,2016-06-10 22:53:00,43.0,,29.9,25,N/A,29.74,82.0,4:53 PM,,10.0,NW,18.4,320,Boise,Idaho,83701
17,Clear,2016-06-10 23:53:00,41.0,,-,25,N/A,29.74,80.1,5:53 PM,,10.0,NW,19.6,320,Boise,Idaho,83701
18,Clear,2016-06-11 00:53:00,39.9,,23.0,25,N/A,29.74,78.1,6:53 PM,,10.0,NW,19.6,310,Boise,Idaho,83701
19,Clear,2016-06-11 01:53:00,45.0,,28.8,38,N/A,29.78,72.0,7:53 PM,,10.0,NW,20.7,310,Boise,Idaho,83701
20,Clear,2016-06-11 02:53:00,42.1,,-,39,N/A,29.78,68.0,8:53 PM,,10.0,NW,17.3,320,Boise,Idaho,83701
21,Partly Cloudy,2016-06-11 03:53:00,42.1,,-,39,N/A,29.79,68.0,9:53 PM,,10.0,NW,11.5,320,Boise,Idaho,83701
22,Clear,2016-06-11 04:53:00,43.0,,-,43,N/A,29.82,66.0,10:53 PM,,10.0,West,9.2,270,Boise,Idaho,83701
23,Clear,2016-06-11 05:53:00,45.0,,-,53,N/A,29.84,62.1,11:53 PM,,10.0,West,11.5,280,Boise,Idaho,83701
0,Clear,2016-06-11 06:53:00,44.1,,-,58,N/A,29.88,59.0,12:53 AM,,10.0,WNW,16.1,290,Boise,Idaho,83701
1,Clear,2016-06-11 07:53:00,41.0,,29.9,57,N/A,29.93,55.9,1:53 AM,,10.0,WNW,23.0,300,Boise,Idaho,83701
2,Clear,2016-06-11 08:53:00,39.9,,27.6,59,N/A,29.96,54.0,2:53 AM,,10.0,NW,18.4,320,Boise,Idaho,83701
3,Clear,2016-06-11 09:53:00,39.9,,-,61,N/A,29.97,53.1,3:53 AM,,10.0,NW,11.5,320,Boise,Idaho,83701
4,Clear,2016-06-11 10:53:00,39.9,,-,63,N/A,29.98,52.0,4:53 AM,,10.0,West,11.5,280,Boise,Idaho,83701
5,Clear,2016-06-11 11:53:00,39.0,,-,63,N/A,30.01,51.1,5:53 AM,,10.0,NW,19.6,310,Boise,Idaho,83701
6,Clear,2016-06-11 12:53:00,35.1,,-,54,N/A,30.04,51.1,6:53 AM,,10.0,NW,11.5,320,Boise,Idaho,83701
7,Clear,2016-06-11 13:53:00,36.0,,-,56,N/A,30.06,51.1,7:53 AM,,10.0,WNW,17.3,300,Boise,Idaho,83701
8,Clear,2016-06-11 14:53:00,37.0,,-,57,N/A,30.08,52.0,8:53 AM,,10.0,WNW,13.8,300,Boise,Idaho,83701
9,Clear,2016-06-11 15:53:00,37.9,,-,51,N/A,30.07,55.9,9:53 AM,,10.0,WNW,12.7,290,Boise,Idaho,83701
10,Clear,2016-06-11 16:53:00,39.0,,-,48,N/A,30.07,59.0,10:53 AM,,10.0,WNW,10.4,290,Boise,Idaho,83701
11,Clear,2016-06-11 17:53:00,37.9,,20.7,40,N/A,30.07,63.0,11:53 AM,,10.0,NW,12.7,310,Boise,Idaho,83701
12,Clear,2016-06-11 18:53:00,34.0,,26.5,30,N/A,30.07,66.0,12:53 PM,,10.0,NW,17.3,320,Boise,Idaho,83701
13,Clear,2016-06-11 19:53:00,28.0,,21.9,22,N/A,30.06,68.0,1:53 PM,,10.0,NW,16.1,310,Boise,Idaho,83701
14,Clear,2016-06-11 20:53:00,28.0,,23.0,22,N/A,30.06,68.0,2:53 PM,,10.0,NW,18.4,310,Boise,Idaho,83701
15,Clear,2016-06-11 21:53:00,27.0,,25.3,21,N/A,30.05,69.1,3:53 PM,,10.0,WNW,12.7,300,Boise,Idaho,83701
16,Clear,2016-06-11 22:53:00,18.0,,25.3,13,N/A,30.04,71.1,4:53 PM,,10.0,NNW,17.3,330,Boise,Idaho,83701
17,Clear,2016-06-11 23:53:00,17.1,,-,13,N/A,30.04,71.1,5:53 PM,,10.0,NNW,19.6,340,Boise,Idaho,83701
18,Clear,2016-06-12 00:53:00,19.0,,-,15,N/A,30.05,68.0,6:53 PM,,10.0,NW,13.8,320,Boise,Idaho,83701
19,Clear,2016-06-12 01:53:00,21.0,,-,16,N/A,30.05,69.1,7:53 PM,,10.0,WNW,17.3,300,Boise,Idaho,83701
20,Clear,2016-06-12 02:53:00,25.0,,23.0,21,N/A,30.06,66.9,8:53 PM,,10.0,NW,16.1,310,Boise,Idaho,83701
21,Clear,2016-06-12 03:53:00,26.1,,-,25,N/A,30.08,63.0,9:53 PM,,10.0,NNW,10.4,330,Boise,Idaho,83701
22,Clear,2016-06-12 04:53:00,27.0,,-,28,N/A,30.09,60.1,10:53 PM,,10.0,NNW,5.8,340,Boise,Idaho,83701
23,Clear,2016-06-12 05:53:00,28.9,,-,34,N/A,30.09,57.0,11:53 PM,,10.0,NNW,4.6,330,Boise,Idaho,83701
0,Clear,2016-06-12 06:53:00,32.0,,-,45,N/A,30.09,53.1,12:53 AM,,10.0,SSW,4.6,210,Boise,Idaho,83701
1,Clear,2016-06-12 07:53:00,34.0,,-,48,N/A,30.10,53.1,1:53 AM,,10.0,West,8.1,270,Boise,Idaho,83701
2,Clear,2016-06-12 08:53:00,34.0,,-,54,N/A,30.12,50.0,2:53 AM,,10.0,SSE,5.8,150,Boise,Idaho,83701
3,Clear,2016-06-12 09:53:00,34.0,,-,58,N/A,30.12,48.0,3:53 AM,,10.0,SSW,3.5,200,Boise,Idaho,83701
4,Clear,2016-06-12 10:53:00,34.0,,-,58,N/A,30.13,48.0,4:53 AM,,10.0,Calm,Calm,0,Boise,Idaho,83701
5,Clear,2016-06-12 11:53:00,33.1,,-,63,N/A,30.15,45.0,5:53 AM,,10.0,SSW,3.5,200,Boise,Idaho,83701
6,Clear,2016-06-12 12:53:00,34.0,,-,61,N/A,30.17,46.9,6:53 AM,,10.0,WSW,3.5,240,Boise,Idaho,83701
7,Clear,2016-06-12 13:53:00,35.1,,-,59,N/A,30.17,48.9,7:53 AM,,10.0,Calm,Calm,0,Boise,Idaho,83701
8,Clear,2016-06-12 14:53:00,36.0,,-,54,N/A,30.18,52.0,8:53 AM,,10.0,Variable,3.5,0,Boise,Idaho,83701
9,Clear,2016-06-12 15:53:00,36.0,,-,45,N/A,30.18,57.0,9:53 AM,,10.0,WNW,6.9,300,Boise,Idaho,83701
10,Clear,2016-06-12 16:53:00,37.0,,-,41,N/A,30.17,61.0,10:53 AM,,10.0,North,6.9,360,Boise,Idaho,83701
11,Clear,2016-06-12 17:53:00,35.1,,-,34,N/A,30.15,64.0,11:53 AM,,10.0,West,6.9,260,Boise,Idaho,83701
12,Clear,2016-06-12 18:53:00,33.1,,-,27,N/A,30.14,68.0,12:53 PM,,10.0,Variable,3.5,0,Boise,Idaho,83701
13,Clear,2016-06-12 19:53:00,30.0,,-,21,N/A,30.11,72.0,1:53 PM,,10.0,West,8.1,270,Boise,Idaho,83701
14,Clear,2016-06-12 20:53:00,27.0,,-,18,N/A,30.10,73.9,2:53 PM,,10.0,West,10.4,270,Boise,Idaho,83701
15,Clear,2016-06-12 21:53:00,23.0,,-,14,N/A,30.08,75.0,3:53 PM,,10.0,NNW,6.9,340,Boise,Idaho,83701
16,Clear,2016-06-12 22:53:00,21.0,,-,12,N/A,30.06,77.0,4:53 PM,,10.0,NW,9.2,320,Boise,Idaho,83701
17,Clear,2016-06-12 23:53:00,23.0,,-,13,N/A,30.05,77.0,5:53 PM,,10.0,Variable,4.6,0,Boise,Idaho,83701
18,Clear,2016-06-13 00:53:00,21.9,,-,13,N/A,30.03,77.0,6:53 PM,,10.0,NW,8.1,320,Boise,Idaho,83701
19,Clear,2016-06-13 01:53:00,16.0,,-,10,N/A,30.03,75.9,7:53 PM,,10.0,WNW,8.1,290,Boise,Idaho,83701
20,Clear,2016-06-13 02:53:00,19.0,,-,13,N/A,30.02,73.9,8:53 PM,,10.0,West,5.8,270,Boise,Idaho,83701
21,Clear,2016-06-13 03:53:00,23.0,,-,17,N/A,30.03,70.0,9:53 PM,,10.0,WSW,3.5,250,Boise,Idaho,83701
22,Clear,2016-06-13 04:53:00,26.1,,-,21,N/A,30.02,66.9,10:53 PM,,10.0,NE,4.6,40,Boise,Idaho,83701
23,Clear,2016-06-13 05:53:00,23.0,,-,23,N/A,30.01,61.0,11:53 PM,,10.0,SSE,3.5,150,Boise,Idaho,83701
0,Clear,2016-06-13 06:53:00,27.0,,-,31,N/A,30.00,57.9,12:53 AM,,10.0,ESE,9.2,120,Boise,Idaho,83701
1,Clear,2016-06-13 07:53:00,28.0,,-,34,N/A,29.99,55.9,1:53 AM,,10.0,SE,9.2,140,Boise,Idaho,83701
2,Clear,2016-06-13 08:53:00,28.9,,-,36,N/A,29.97,55.9,2:53 AM,,10.0,ESE,6.9,120,Boise,Idaho,83701
3,Clear,2016-06-13 09:53:00,30.0,,-,40,N/A,29.96,54.0,3:53 AM,,10.0,SE,3.5,130,Boise,Idaho,83701
4,Clear,2016-06-13 10:53:00,30.0,,-,40,N/A,29.95,54.0,4:53 AM,,10.0,ESE,10.4,120,Boise,Idaho,83701
5,Clear,2016-06-13 11:53:00,28.9,,-,40,N/A,29.96,53.1,5:53 AM,,10.0,SE,10.4,130,Boise,Idaho,83701
6,Clear,2016-06-13 12:53:00,28.9,,-,37,N/A,29.96,55.0,6:53 AM,,10.0,ESE,10.4,120,Boise,Idaho,83701
7,Clear,2016-06-13 13:53:00,30.0,,-,32,N/A,29.95,60.1,7:53 AM,,10.0,SE,11.5,130,Boise,Idaho,83701
8,Clear,2016-06-13 14:53:00,28.9,,-,27,N/A,29.95,64.0,8:53 AM,,10.0,SE,9.2,130,Boise,Idaho,83701
9,Clear,2016-06-13 15:53:00,28.0,,-,20,N/A,29.94,71.1,9:53 AM,,10.0,ESE,12.7,120,Boise,Idaho,83701
10,Clear,2016-06-13 16:53:00,28.0,,-,18,N/A,29.91,73.9,10:53 AM,,10.0,ESE,8.1,120,Boise,Idaho,83701
11,Clear,2016-06-13 17:53:00,19.9,,-,11,N/A,29.89,79.0,11:53 AM,,10.0,South,10.4,180,Boise,Idaho,83701
12,Clear,2016-06-13 18:53:00,17.1,,-,9,N/A,29.86,82.0,12:53 PM,,10.0,ENE,6.9,70,Boise,Idaho,83701
13,Clear,2016-06-13 19:53:00,17.1,,-,9,N/A,29.83,82.0,1:53 PM,,10.0,WNW,5.8,290,Boise,Idaho,83701
14,Clear,2016-06-13 20:53:00,18.0,,20.7,9,N/A,29.80,84.0,2:53 PM,,10.0,Variable,6.9,0,Boise,Idaho,83701
15,Clear,2016-06-13 21:53:00,19.9,,19.6,9,N/A,29.77,86.0,3:53 PM,,10.0,WNW,15.0,300,Boise,Idaho,83701
16,Clear,2016-06-13 22:53:00,19.9,,-,9,N/A,29.73,86.0,4:53 PM,,10.0,North,-9999.0,0,Boise,Idaho,83701
17,Clear,2016-06-13 23:15:00,21.9,,-,10,N/A,29.79,84.9,5:15 PM,,10.0,NNW,10.4,340,Boise,Idaho,83701
18,Clear,2016-06-13 23:53:00,21.9,,-,10,N/A,29.71,84.9,5:53 PM,,10.0,North,8.1,350,Boise,Idaho,83701
19,Clear,2016-06-14 00:53:00,23.0,,-,11,N/A,29.68,84.0,6:53 PM,,10.0,NNW,9.2,340,Boise,Idaho,83701
20,Clear,2016-06-14 01:53:00,28.0,,-,14,N/A,29.67,82.9,7:53 PM,,10.0,NNW,9.2,330,Boise,Idaho,83701
21,Clear,2016-06-14 02:53:00,30.9,,-,18,N/A,29.68,78.1,8:53 PM,,10.0,NNW,11.5,340,Boise,Idaho,83701
22,Clear,2016-06-14 03:53:00,30.9,,-,21,N/A,29.67,73.9,9:53 PM,,10.0,North,5.8,360,Boise,Idaho,83701
23,Clear,2016-06-14 04:53:00,30.9,,-,21,N/A,29.67,73.0,10:53 PM,,10.0,West,6.9,280,Boise,Idaho,83701
24,Clear,2016-06-14 05:53:00,37.9,,-,33,N/A,29.67,68.0,11:53 PM,,10.0,NNW,11.5,340,Boise,Idaho,83701
0,Partly Cloudy,2016-06-14 06:53:00,39.9,,-,38,N/A,29.69,66.0,12:53 AM,,10.0,West,11.5,270,Boise,Idaho,83701
1,Scattered Clouds,2016-06-14 07:53:00,41.0,,-,43,N/A,29.72,64.0,1:53 AM,,10.0,West,12.7,280,Boise,Idaho,83701
2,Scattered Clouds,2016-06-14 08:53:00,42.1,,-,48,N/A,29.72,62.1,2:53 AM,,10.0,WNW,12.7,300,Boise,Idaho,83701
3,Partly Cloudy,2016-06-14 09:53:00,42.1,,-,51,N/A,29.71,60.1,3:53 AM,,10.0,NW,12.7,320,Boise,Idaho,83701
4,Mostly Cloudy,2016-06-14 10:53:00,42.1,,-,53,N/A,29.74,59.0,4:53 AM,,10.0,NW,16.1,320,Boise,Idaho,83701
5,Mostly Cloudy,2016-06-14 11:53:00,41.0,,26.5,51,N/A,29.76,59.0,5:53 AM,,10.0,NNW,17.3,330,Boise,Idaho,83701
6,Mostly Cloudy,2016-06-14 12:53:00,39.0,,-,48,N/A,29.75,59.0,6:53 AM,,10.0,NNW,13.8,330,Boise,Idaho,83701
7,Overcast,2016-06-14 13:53:00,39.0,,-,46,N/A,29.78,60.1,7:53 AM,,10.0,NW,11.5,320,Boise,Idaho,83701
8,Overcast,2016-06-14 14:53:00,41.0,,33.4,59,N/A,29.84,55.0,8:53 AM,,8.0,NW,20.7,320,Boise,Idaho,83701
9,Overcast,2016-06-14 15:53:00,44.1,,-,77,0.00,29.87,51.1,9:53 AM,,10.0,NNW,11.5,330,Boise,Idaho,83701
10,Light Rain,2016-06-14 16:53:00,45.0,Rain,-,83,0.03,29.89,50.0,10:53 AM,,10.0,NNW,8.1,330,Boise,Idaho,83701
11,Overcast,2016-06-14 17:53:00,46.0,,-,83,0.01,29.91,51.1,11:53 AM,,10.0,NNW,6.9,330,Boise,Idaho,83701
12,Overcast,2016-06-14 18:53:00,42.1,,-,62,0.00,29.91,55.0,12:53 PM,,10.0,North,9.2,360,Boise,Idaho,83701
13,Overcast,2016-06-14 19:53:00,36.0,,-,42,N/A,29.89,59.0,1:53 PM,,10.0,NE,9.2,40,Boise,Idaho,83701
14,Scattered Clouds,2016-06-14 20:53:00,36.0,,-,38,N/A,29.88,62.1,2:53 PM,,10.0,Variable,5.8,0,Boise,Idaho,83701
15,Clear,2016-06-14 21:53:00,35.1,,17.3,33,N/A,29.86,64.9,3:53 PM,,10.0,NNE,12.7,20,Boise,Idaho,83701
16,Clear,2016-06-14 22:53:00,34.0,,19.6,30,N/A,29.83,66.0,4:53 PM,,10.0,North,11.5,350,Boise,Idaho,83701
17,Clear,2016-06-14 22:59:00,34.0,,19.6,32,N/A,29.88,64.9,4:59 PM,,10.0,NW,6.9,320,Boise,Idaho,83701
18,Clear,2016-06-14 23:53:00,30.9,,-,28,N/A,29.82,64.9,5:53 PM,,10.0,North,8.1,10,Boise,Idaho,83701
19,Clear,2016-06-15 00:53:00,28.9,,-,24,N/A,29.81,66.9,6:53 PM,,10.0,North,9.2,10,Boise,Idaho,83701
20,Clear,2016-06-15 01:53:00,23.0,,-,20,N/A,29.81,66.0,7:53 PM,,10.0,NW,8.1,320,Boise,Idaho,83701
21,Partly Cloudy,2016-06-15 02:53:00,23.0,,-,21,N/A,29.81,64.0,8:53 PM,,10.0,Calm,Calm,0,Boise,Idaho,83701
22,Scattered Clouds,2016-06-15 03:53:00,27.0,,-,27,N/A,29.81,61.0,9:53 PM,,10.0,NNW,5.8,340,Boise,Idaho,83701
23,Clear,2016-06-15 04:53:00,30.9,,-,36,N/A,29.82,57.9,10:53 PM,,10.0,North,5.8,360,Boise,Idaho,83701
24,Clear,2016-06-15 05:53:00,30.9,,-,40,N/A,29.83,55.0,11:53 PM,,10.0,South,3.5,190,Boise,Idaho,83701
0,Clear,2016-06-15 06:53:00,36.0,,-,56,N/A,29.84,51.1,12:53 AM,,10.0,SSW,6.9,210,Boise,Idaho,83701
1,Clear,2016-06-15 07:53:00,36.0,,-,59,N/A,29.83,50.0,1:53 AM,,10.0,SSW,5.8,210,Boise,Idaho,83701
2,Clear,2016-06-15 08:53:00,36.0,,-,61,N/A,29.83,48.9,2:53 AM,,10.0,Calm,Calm,0,Boise,Idaho,83701
3,Clear,2016-06-15 09:53:00,35.1,,-,61,N/A,29.82,48.0,3:53 AM,,10.0,South,4.6,170,Boise,Idaho,83701
4,Clear,2016-06-15 10:53:00,35.1,,-,66,N/A,29.82,46.0,4:53 AM,,10.0,Calm,Calm,0,Boise,Idaho,83701
5,Clear,2016-06-15 11:53:00,34.0,,-,68,N/A,29.82,44.1,5:53 AM,,10.0,SW,4.6,230,Boise,Idaho,83701
6,Clear,2016-06-15 12:53:00,34.0,,-,63,N/A,29.81,46.0,6:53 AM,,10.0,SW,3.5,220,Boise,Idaho,83701
7,Clear,2016-06-15 13:53:00,36.0,,-,66,N/A,29.83,46.9,7:53 AM,,10.0,West,5.8,270,Boise,Idaho,83701
8,Clear,2016-06-15 14:53:00,37.9,,-,66,N/A,29.83,48.9,8:53 AM,,10.0,Calm,Calm,0,Boise,Idaho,83701
9,Clear,2016-06-15 15:53:00,37.9,,-,61,N/A,29.82,51.1,9:53 AM,,10.0,Calm,Calm,0,Boise,Idaho,83701
10,Clear,2016-06-15 16:53:00,37.9,,-,51,N/A,29.81,55.9,10:53 AM,,10.0,Variable,5.8,0,Boise,Idaho,83701
11,Clear,2016-06-15 17:53:00,37.9,,-,47,N/A,29.80,57.9,11:53 AM,,10.0,NW,8.1,320,Boise,Idaho,83701
12,Partly Cloudy,2016-06-15 18:53:00,37.9,,-,46,N/A,29.80,59.0,12:53 PM,,10.0,NW,8.1,310,Boise,Idaho,83701
13,Overcast,2016-06-15 19:53:00,37.9,,-,46,N/A,29.81,59.0,1:53 PM,,10.0,WNW,3.5,290,Boise,Idaho,83701
14,Overcast,2016-06-15 20:53:00,37.9,,-,44,N/A,29.78,60.1,2:53 PM,,10.0,Calm,Calm,0,Boise,Idaho,83701
15,Overcast,2016-06-15 21:53:00,36.0,,-,38,N/A,29.77,62.1,3:53 PM,,10.0,ESE,4.6,110,Boise,Idaho,83701
16,Overcast,2016-06-15 22:53:00,36.0,,-,39,N/A,29.78,61.0,4:53 PM,,10.0,West,8.1,280,Boise,Idaho,83701
17,Light Rain,2016-06-15 23:53:00,44.1,Rain,-,60,0.00,29.79,57.9,5:53 PM,,10.0,North,6.9,10,Boise,Idaho,83701
18,Light Rain,2016-06-16 00:53:00,48.0,Rain,-,80,0.02,29.80,54.0,6:53 PM,,10.0,North,6.9,10,Boise,Idaho,83701
19,Light Rain,2016-06-16 01:53:00,44.1,Rain,-,74,0.00,29.86,52.0,7:53 PM,,10.0,WNW,12.7,300,Boise,Idaho,83701
20,Light Rain,2016-06-16 02:53:00,45.0,Rain,-,83,0.04,29.89,50.0,8:53 PM,,10.0,NW,6.9,320,Boise,Idaho,83701
21,Light Rain,2016-06-16 03:53:00,46.9,Rain,-,89,0.03,29.90,50.0,9:53 PM,,10.0,Calm,Calm,0,Boise,Idaho,83701
22,Overcast,2016-06-16 04:53:00,45.0,,-,83,0.01,29.90,50.0,10:53 PM,,10.0,South,3.5,170,Boise,Idaho,83701
23,Light Rain,2016-06-16 05:53:00,46.0,Rain,-,86,0.00,29.90,50.0,11:53 PM,,10.0,SSE,3.5,160,Boise,Idaho,83701
0,Overcast,2016-06-16 06:53:00,45.0,,-,89,0.00,29.92,48.0,12:53 AM,,10.0,South,5.8,190,Boise,Idaho,83701
1,Clear,2016-06-16 07:53:00,45.0,,-,86,N/A,29.91,48.9,1:53 AM,,10.0,East,3.5,100,Boise,Idaho,83701
2,Scattered Clouds,2016-06-16 08:53:00,43.0,,-,89,N/A,29.93,46.0,2:53 AM,,10.0,SSE,6.9,150,Boise,Idaho,83701
3,Overcast,2016-06-16 09:53:00,44.1,,-,90,N/A,29.94,46.9,3:53 AM,,10.0,SSE,4.6,160,Boise,Idaho,83701
4,Overcast,2016-06-16 10:53:00,43.0,,-,86,N/A,29.95,46.9,4:53 AM,,10.0,ESE,5.8,110,Boise,Idaho,83701
5,Scattered Clouds,2016-06-16 11:53:00,43.0,,-,86,N/A,29.97,46.9,5:53 AM,,10.0,SE,6.9,130,Boise,Idaho,83701
6,Overcast,2016-06-16 12:53:00,44.1,,-,90,N/A,30.00,46.9,6:53 AM,,10.0,SE,6.9,140,Boise,Idaho,83701
7,Mostly Cloudy,2016-06-16 13:53:00,44.1,,-,80,N/A,30.01,50.0,7:53 AM,,10.0,SE,8.1,140,Boise,Idaho,83701
8,Scattered Clouds,2016-06-16 14:53:00,42.1,,-,66,N/A,30.03,53.1,8:53 AM,,10.0,SSE,5.8,150,Boise,Idaho,83701
9,Mostly Cloudy,2016-06-16 15:53:00,39.0,,-,55,N/A,30.04,55.0,9:53 AM,,10.0,SSE,3.5,150,Boise,Idaho,83701
10,Overcast,2016-06-16 16:53:00,37.9,,-,51,N/A,30.04,55.9,10:53 AM,,10.0,South,4.6,180,Boise,Idaho,83701
11,Light Rain,2016-06-16 17:53:00,37.9,Rain,-,53,0.00,30.07,55.0,11:53 AM,,10.0,SE,10.4,130,Boise,Idaho,83701
12,Light Rain,2016-06-16 18:53:00,39.9,Rain,25.3,55,0.00,30.08,55.9,12:53 PM,,10.0,West,12.7,260,Boise,Idaho,83701
13,Mostly Cloudy,2016-06-16 19:53:00,43.0,,-,62,0.04,30.10,55.9,1:53 PM,,10.0,Variable,4.6,0,Boise,Idaho,83701
14,Clear,2016-06-16 20:53:00,39.9,,-,49,N/A,30.09,59.0,2:53 PM,,10.0,Variable,3.5,0,Boise,Idaho,83701
15,Clear,2016-06-16 21:53:00,37.0,,-,39,N/A,30.09,62.1,3:53 PM,,10.0,North,-9999.0,0,Boise,Idaho,83701
16,Clear,2016-06-16 22:18:00,37.0,,-,37,N/A,30.11,64.0,4:18 PM,,10.0,Variable,4.6,0,Boise,Idaho,83701
17,Clear,2016-06-16 22:53:00,36.0,,-,35,N/A,30.08,64.0,4:53 PM,,10.0,Variable,5.8,0,Boise,Idaho,83701
18,Clear,2016-06-16 23:53:00,35.1,,-,32,N/A,30.07,66.0,5:53 PM,,10.0,NE,8.1,50,Boise,Idaho,83701
19,Clear,2016-06-17 00:53:00,33.1,,-,31,N/A,30.07,64.9,6:53 PM,,10.0,Calm,Calm,0,Boise,Idaho,83701
20,Clear,2016-06-17 01:53:00,30.9,,-,28,N/A,30.06,64.9,7:53 PM,,10.0,NNW,5.8,330,Boise,Idaho,83701
21,Clear,2016-06-17 02:53:00,34.0,,-,34,N/A,30.06,63.0,8:53 PM,,10.0,North,4.6,10,Boise,Idaho,83701
22,Clear,2016-06-17 03:53:00,34.0,,-,35,N/A,30.04,62.1,9:53 PM,,10.0,ENE,8.1,60,Boise,Idaho,83701
23,Clear,2016-06-17 04:53:00,32.0,,-,32,N/A,30.04,62.1,10:53 PM,,10.0,ENE,6.9,60,Boise,Idaho,83701
24,Clear,2016-06-17 05:53:00,37.0,,-,53,N/A,30.06,54.0,11:53 PM,,10.0,South,4.6,190,Boise,Idaho,83701
0,Clear,2016-06-17 06:53:00,37.0,,-,55,N/A,30.06,53.1,12:53 AM,,10.0,SSW,5.8,200,Boise,Idaho,83701
1,Clear,2016-06-17 07:53:00,37.9,,-,59,N/A,30.06,52.0,1:53 AM,,10.0,SE,4.6,130,Boise,Idaho,83701
2,Clear,2016-06-17 08:53:00,37.0,,-,57,N/A,30.05,52.0,2:53 AM,,10.0,SE,4.6,130,Boise,Idaho,83701
3,Clear,2016-06-17 09:53:00,37.9,,-,63,N/A,30.04,50.0,3:53 AM,,10.0,SSE,4.6,160,Boise,Idaho,83701
4,Clear,2016-06-17 10:53:00,37.0,,-,61,N/A,30.04,50.0,4:53 AM,,10.0,SE,6.9,140,Boise,Idaho,83701
5,Clear,2016-06-17 11:53:00,37.0,,-,57,N/A,30.04,52.0,5:53 AM,,10.0,SE,6.9,140,Boise,Idaho,83701
6,Clear,2016-06-17 12:53:00,37.0,,-,57,N/A,30.04,52.0,6:53 AM,,10.0,Calm,Calm,0,Boise,Idaho,83701
7,Clear,2016-06-17 13:53:00,39.9,,-,61,N/A,30.06,53.1,7:53 AM,,10.0,Calm,Calm,0,Boise,Idaho,83701
8,Scattered Clouds,2016-06-17 14:53:00,39.0,,-,55,N/A,30.06,55.0,8:53 AM,,10.0,Calm,Calm,0,Boise,Idaho,83701
9,Clear,2016-06-17 15:53:00,39.0,,-,49,N/A,30.06,57.9,9:53 AM,,10.0,Calm,Calm,0,Boise,Idaho,83701
10,Clear,2016-06-17 16:53:00,39.9,,-,41,N/A,30.03,64.0,10:53 AM,,10.0,North,5.8,350,Boise,Idaho,83701
11,Clear,2016-06-17 17:53:00,37.0,,-,34,N/A,30.03,66.0,11:53 AM,,10.0,Variable,4.6,0,Boise,Idaho,83701
12,Clear,2016-06-17 18:53:00,36.0,,-,30,N/A,30.01,69.1,12:53 PM,,10.0,NW,6.9,310,Boise,Idaho,83701
13,Clear,2016-06-17 19:53:00,35.1,,-,25,N/A,29.99,73.0,1:53 PM,,10.0,NW,4.6,320,Boise,Idaho,83701
14,Clear,2016-06-17 20:53:00,33.1,,-,22,N/A,29.97,75.0,2:53 PM,,10.0,ENE,4.6,60,Boise,Idaho,83701
15,Clear,2016-06-17 21:53:00,35.1,,-,21,N/A,29.95,78.1,3:53 PM,,10.0,NE,9.2,40,Boise,Idaho,83701
16,Clear,2016-06-17 22:53:00,35.1,,-,20,N/A,29.93,79.0,4:53 PM,,10.0,WNW,6.9,300,Boise,Idaho,83701
17,Clear,2016-06-17 23:53:00,33.1,,17.3,18,N/A,29.90,81.0,5:53 PM,,10.0,NW,10.4,320,Boise,Idaho,83701
18,Clear,2016-06-18 00:53:00,32.0,,-,17,N/A,29.89,81.0,6:53 PM,,10.0,NW,8.1,320,Boise,Idaho,83701
19,Clear,2016-06-18 01:53:00,30.9,,-,17,N/A,29.88,79.0,7:53 PM,,10.0,NNE,9.2,20,Boise,Idaho,83701
20,Clear,2016-06-18 02:53:00,33.1,,-,19,N/A,29.87,78.1,8:53 PM,,10.0,North,4.6,10,Boise,Idaho,83701
21,Clear,2016-06-18 03:53:00,34.0,,-,22,N/A,29.87,75.0,9:53 PM,,10.0,Calm,Calm,0,Boise,Idaho,83701
22,Clear,2016-06-18 04:53:00,37.9,,-,30,N/A,29.87,71.1,10:53 PM,,10.0,Calm,Calm,0,Boise,Idaho,83701
23,Clear,2016-06-18 05:53:00,39.9,,-,36,N/A,29.89,68.0,11:53 PM,,10.0,WNW,12.7,300,Boise,Idaho,83701
0,Clear,2016-06-18 06:53:00,41.0,,-,43,N/A,29.91,64.0,12:53 AM,,10.0,WNW,10.4,300,Boise,Idaho,83701
1,Clear,2016-06-18 07:53:00,42.1,,-,48,N/A,29.90,62.1,1:53 AM,,10.0,WNW,10.4,300,Boise,Idaho,83701
2,Clear,2016-06-18 08:53:00,42.1,,-,51,N/A,29.91,60.1,2:53 AM,,10.0,NW,9.2,310,Boise,Idaho,83701
3,Clear,2016-06-18 09:53:00,43.0,,-,53,N/A,29.92,60.1,3:53 AM,,10.0,WNW,6.9,300,Boise,Idaho,83701
4,Clear,2016-06-18 10:53:00,42.1,,-,57,N/A,29.91,57.0,4:53 AM,,10.0,NNW,5.8,330,Boise,Idaho,83701
5,Clear,2016-06-18 11:53:00,43.0,,-,59,N/A,29.92,57.0,5:53 AM,,10.0,Calm,Calm,0,Boise,Idaho,83701
6,Clear,2016-06-18 12:53:00,43.0,,-,64,N/A,29.94,55.0,6:53 AM,,10.0,South,4.6,170,Boise,Idaho,83701
7,Clear,2016-06-18 13:53:00,44.1,,-,55,N/A,29.92,60.1,7:53 AM,,10.0,ESE,6.9,120,Boise,Idaho,83701
8,Clear,2016-06-18 14:53:00,43.0,,-,46,N/A,29.92,64.0,8:53 AM,,10.0,SSE,8.1,150,Boise,Idaho,83701
9,Clear,2016-06-18 15:53:00,41.0,,-,35,N/A,29.92,70.0,9:53 AM,,10.0,SSE,10.4,150,Boise,Idaho,83701
10,Clear,2016-06-18 16:53:00,39.0,,-,26,N/A,29.92,75.9,10:53 AM,,10.0,SSE,12.7,150,Boise,Idaho,83701
11,Clear,2016-06-18 17:53:00,37.9,,-,21,N/A,29.93,81.0,11:53 AM,,10.0,South,12.7,190,Boise,Idaho,83701
12,Overcast,2016-06-18 18:29:00,46.0,,31.1,40,N/A,30.07,72.0,12:29 PM,,10.0,WNW,23.0,300,Boise,Idaho,83701
13,Mostly Cloudy,2016-06-18 18:53:00,45.0,,36.8,41,N/A,30.04,70.0,12:53 PM,,10.0,WNW,27.6,300,Boise,Idaho,83701
14,Mostly Cloudy,2016-06-18 19:53:00,43.0,,27.6,36,N/A,30.08,71.1,1:53 PM,,10.0,WNW,17.3,300,Boise,Idaho,83701
15,Clear,2016-06-18 20:45:00,43.0,,24.2,32,N/A,30.13,75.0,2:45 PM,,10.0,WNW,15.0,290,Boise,Idaho,83701
16,Clear,2016-06-18 20:53:00,43.0,,19.6,32,N/A,30.08,75.0,2:53 PM,,10.0,NW,10.4,310,Boise,Idaho,83701
17,Partly Cloudy,2016-06-18 21:53:00,44.1,,24.2,35,N/A,30.08,73.0,3:53 PM,,10.0,North,18.4,350,Boise,Idaho,83701
18,Scattered Clouds,2016-06-18 22:53:00,43.0,,27.6,33,N/A,30.10,73.9,4:53 PM,,10.0,NNW,21.9,330,Boise,Idaho,83701
19,Clear,2016-06-18 23:53:00,37.9,,27.6,28,N/A,30.10,73.0,5:53 PM,,10.0,NNW,20.7,330,Boise,Idaho,83701
20,Clear,2016-06-19 00:53:00,33.1,,32.2,25,N/A,30.14,71.1,6:53 PM,,10.0,NW,25.3,320,Boise,Idaho,83701
21,Clear,2016-06-19 01:53:00,33.1,,39.1,26,N/A,30.14,69.1,7:53 PM,,10.0,NW,27.6,310,Boise,Idaho,83701
22,Clear,2016-06-19 02:53:00,33.1,,-,29,N/A,30.18,66.0,8:53 PM,,10.0,NW,19.6,320,Boise,Idaho,83701
23,Clear,2016-06-19 03:53:00,33.1,,-,33,N/A,30.20,63.0,9:53 PM,,10.0,NW,17.3,310,Boise,Idaho,83701
24,Clear,2016-06-19 04:53:00,34.0,,-,36,N/A,30.22,61.0,10:53 PM,,10.0,WNW,12.7,300,Boise,Idaho,83701
25,Clear,2016-06-19 05:53:00,35.1,,-,41,N/A,30.23,59.0,11:53 PM,,10.0,NW,6.9,320,Boise,Idaho,83701
0,Clear,2016-06-19 06:53:00,35.1,,-,47,N/A,30.23,55.0,12:53 AM,,10.0,NW,9.2,320,Boise,Idaho,83701
1,Clear,2016-06-19 07:53:00,36.0,,-,49,N/A,30.24,55.0,1:53 AM,,10.0,NNW,9.2,330,Boise,Idaho,83701
2,Clear,2016-06-19 08:53:00,36.0,,-,52,N/A,30.25,53.1,2:53 AM,,10.0,WNW,8.1,300,Boise,Idaho,83701
3,Clear,2016-06-19 09:53:00,36.0,,-,59,N/A,30.28,50.0,3:53 AM,,10.0,West,8.1,280,Boise,Idaho,83701
4,Clear,2016-06-19 10:53:00,36.0,,-,63,N/A,30.29,48.0,4:53 AM,,10.0,West,3.5,280,Boise,Idaho,83701
5,Clear,2016-06-19 11:53:00,36.0,,-,68,N/A,30.31,46.0,5:53 AM,,10.0,West,3.5,270,Boise,Idaho,83701
6,Clear,2016-06-19 12:53:00,36.0,,-,73,N/A,30.33,44.1,6:53 AM,,10.0,South,4.6,170,Boise,Idaho,83701
7,Clear,2016-06-19 13:53:00,36.0,,-,66,N/A,30.34,46.9,7:53 AM,,10.0,WSW,4.6,250,Boise,Idaho,83701
8,Clear,2016-06-19 14:53:00,36.0,,-,54,N/A,30.34,52.0,8:53 AM,,10.0,Calm,Calm,0,Boise,Idaho,83701
9,Clear,2016-06-19 15:53:00,37.0,,-,49,N/A,30.34,55.9,9:53 AM,,10.0,Variable,4.6,0,Boise,Idaho,83701
10,Clear,2016-06-19 16:53:00,39.0,,-,44,N/A,30.32,61.0,10:53 AM,,10.0,NW,8.1,320,Boise,Idaho,83701
11,Clear,2016-06-19 17:53:00,36.0,,-,34,N/A,30.30,64.9,11:53 AM,,10.0,Variable,5.8,0,Boise,Idaho,83701
12,Clear,2016-06-19 18:53:00,35.1,,-,30,N/A,30.28,68.0,12:53 PM,,10.0,West,9.2,270,Boise,Idaho,83701
13,Clear,2016-06-19 19:53:00,32.0,,-,25,N/A,30.26,70.0,1:53 PM,,10.0,WNW,5.8,290,Boise,Idaho,83701
14,Clear,2016-06-19 20:53:00,30.9,,-,21,N/A,30.22,73.0,2:53 PM,,10.0,Variable,3.5,0,Boise,Idaho,83701
15,Clear,2016-06-19 21:53:00,21.9,,-,14,N/A,30.19,75.0,3:53 PM,,10.0,Variable,5.8,0,Boise,Idaho,83701
16,Clear,2016-06-19 22:53:00,19.9,,-,12,N/A,30.17,77.0,4:53 PM,,10.0,Variable,5.8,0,Boise,Idaho,83701
17,Clear,2016-06-19 23:53:00,24.1,,-,13,N/A,30.15,79.0,5:53 PM,,10.0,North,8.1,350,Boise,Idaho,83701
18,Clear,2016-06-20 00:53:00,28.0,,-,15,N/A,30.13,80.1,6:53 PM,,10.0,NNW,9.2,330,Boise,Idaho,83701
19,Clear,2016-06-20 01:53:00,28.0,,-,16,N/A,30.11,78.1,7:53 PM,,10.0,West,8.1,270,Boise,Idaho,83701
20,Clear,2016-06-20 02:53:00,28.9,,-,17,N/A,30.10,77.0,8:53 PM,,10.0,West,8.1,270,Boise,Idaho,83701
21,Clear,2016-06-20 03:53:00,27.0,,-,19,N/A,30.11,71.1,9:53 PM,,10.0,NW,5.8,310,Boise,Idaho,83701
22,Clear,2016-06-20 04:53:00,28.0,,-,22,N/A,30.12,68.0,10:53 PM,,10.0,NNW,3.5,330,Boise,Idaho,83701
23,Clear,2016-06-20 05:53:00,32.0,,-,30,N/A,30.10,64.0,11:53 PM,,10.0,South,3.5,170,Boise,Idaho,83701
0,Clear,2016-06-20 06:53:00,33.1,,-,34,N/A,30.10,62.1,12:53 AM,,10.0,SE,9.2,140,Boise,Idaho,83701
1,Clear,2016-06-20 07:53:00,32.0,,-,35,N/A,30.09,60.1,1:53 AM,,10.0,SE,9.2,140,Boise,Idaho,83701
2,Clear,2016-06-20 08:53:00,32.0,,-,36,N/A,30.07,59.0,2:53 AM,,10.0,Calm,Calm,0,Boise,Idaho,83701
3,Clear,2016-06-20 09:53:00,32.0,,-,36,N/A,30.06,59.0,3:53 AM,,10.0,SE,4.6,130,Boise,Idaho,83701
4,Clear,2016-06-20 10:53:00,30.9,,-,35,N/A,30.05,59.0,4:53 AM,,10.0,South,5.8,170,Boise,Idaho,83701
5,Clear,2016-06-20 11:53:00,32.0,,-,37,N/A,30.06,57.9,5:53 AM,,10.0,SSE,10.4,150,Boise,Idaho,83701
6,Clear,2016-06-20 12:53:00,32.0,,-,36,N/A,30.07,59.0,6:53 AM,,10.0,SE,13.8,140,Boise,Idaho,83701
7,Clear,2016-06-20 13:53:00,33.1,,-,31,N/A,30.06,64.9,7:53 AM,,10.0,ESE,12.7,120,Boise,Idaho,83701
8,Clear,2016-06-20 14:53:00,32.0,,-,24,N/A,30.06,71.1,8:53 AM,,10.0,SE,10.4,140,Boise,Idaho,83701
9,Clear,2016-06-20 15:53:00,30.9,,-,20,N/A,30.06,75.0,9:53 AM,,10.0,SE,9.2,130,Boise,Idaho,83701
10,Clear,2016-06-20 16:53:00,28.9,,-,17,N/A,30.05,78.1,10:53 AM,,10.0,SSE,6.9,160,Boise,Idaho,83701
11,Clear,2016-06-20 17:53:00,32.0,,-,16,N/A,30.04,82.0,11:53 AM,,10.0,SSE,5.8,150,Boise,Idaho,83701
12,Clear,2016-06-20 18:53:00,32.0,,-,14,N/A,30.01,86.0,12:53 PM,,10.0,SW,4.6,230,Boise,Idaho,83701
13,Clear,2016-06-20 19:53:00,34.0,,-,14,N/A,29.99,90.0,1:53 PM,,10.0,Variable,6.9,0,Boise,Idaho,83701
14,Clear,2016-06-20 20:53:00,34.0,,-,13,N/A,29.96,91.9,2:53 PM,,10.0,NNE,8.1,20,Boise,Idaho,83701
15,Clear,2016-06-20 21:53:00,30.0,,-,10,N/A,29.94,93.9,3:53 PM,,10.0,NNW,13.8,340,Boise,Idaho,83701
16,Clear,2016-06-20 22:53:00,28.9,,-,10,N/A,29.91,93.9,4:53 PM,,10.0,NNW,10.4,330,Boise,Idaho,83701
17,Clear,2016-06-20 23:53:00,28.9,,-,10,N/A,29.89,95.0,5:53 PM,,10.0,North,8.1,360,Boise,Idaho,83701
18,Clear,2016-06-21 00:53:00,28.9,,-,10,N/A,29.87,95.0,6:53 PM,,10.0,NNW,9.2,340,Boise,Idaho,83701
19,Clear,2016-06-21 01:53:00,27.0,,-,9,N/A,29.86,93.0,7:53 PM,,10.0,NNW,9.2,340,Boise,Idaho,83701
20,Clear,2016-06-21 02:53:00,32.0,,-,13,N/A,29.85,89.1,8:53 PM,,10.0,NNW,11.5,330,Boise,Idaho,83701
21,Clear,2016-06-21 03:53:00,30.9,,-,15,N/A,29.86,82.9,9:53 PM,,10.0,NNW,9.2,340,Boise,Idaho,83701
22,Clear,2016-06-21 04:53:00,33.1,,-,18,N/A,29.88,80.1,10:53 PM,,10.0,West,9.2,280,Boise,Idaho,83701
23,Clear,2016-06-21 05:53:00,37.9,,-,26,N/A,29.89,75.0,11:53 PM,,10.0,Calm,Calm,0,Boise,Idaho,83701
0,Clear,2016-06-21 06:53:00,37.9,,-,30,N/A,29.91,71.1,12:53 AM,,10.0,Calm,Calm,0,Boise,Idaho,83701
1,Clear,2016-06-21 07:53:00,37.0,,-,36,N/A,29.92,64.9,1:53 AM,,10.0,WSW,6.9,250,Boise,Idaho,83701
2,Clear,2016-06-21 08:53:00,43.0,,-,43,N/A,29.94,66.0,2:53 AM,,10.0,West,12.7,280,Boise,Idaho,83701
3,Clear,2016-06-21 09:53:00,44.1,,-,48,N/A,29.97,64.0,3:53 AM,,10.0,Calm,Calm,0,Boise,Idaho,83701
4,Clear,2016-06-21 10:53:00,44.1,,-,52,N/A,29.99,62.1,4:53 AM,,10.0,WSW,3.5,240,Boise,Idaho,83701
5,Clear,2016-06-21 11:53:00,44.1,,-,55,N/A,30.02,60.1,5:53 AM,,10.0,NNW,3.5,330,Boise,Idaho,83701
6,Clear,2016-06-21 12:53:00,43.0,,-,53,N/A,30.05,60.1,6:53 AM,,10.0,WSW,3.5,240,Boise,Idaho,83701
7,Clear,2016-06-21 13:53:00,43.0,,-,45,N/A,30.07,64.9,7:53 AM,,10.0,NW,6.9,320,Boise,Idaho,83701
8,Clear,2016-06-21 14:53:00,41.0,,-,36,N/A,30.09,69.1,8:53 AM,,10.0,NNW,15.0,330,Boise,Idaho,83701
9,Clear,2016-06-21 15:53:00,39.9,,-,33,N/A,30.12,70.0,9:53 AM,,10.0,NW,17.3,320,Boise,Idaho,83701
10,Clear,2016-06-21 16:53:00,42.1,,23.0,33,N/A,30.12,73.0,10:53 AM,,10.0,WNW,15.0,290,Boise,Idaho,83701
11,Clear,2016-06-21 17:53:00,37.0,,-,25,N/A,30.12,75.0,11:53 AM,,10.0,WNW,15.0,290,Boise,Idaho,83701
12,Clear,2016-06-21 18:53:00,37.0,,21.9,24,N/A,30.12,75.9,12:53 PM,,10.0,NW,13.8,320,Boise,Idaho,83701
13,Clear,2016-06-21 19:53:00,28.0,,-,16,N/A,30.12,78.1,1:53 PM,,10.0,West,9.2,280,Boise,Idaho,83701
14,Clear,2016-06-21 20:53:00,28.9,,-,15,N/A,30.09,80.1,2:53 PM,,10.0,WNW,10.4,290,Boise,Idaho,83701
15,Clear,2016-06-21 21:53:00,30.0,,-,16,N/A,30.07,81.0,3:53 PM,,10.0,North,8.1,10,Boise,Idaho,83701
16,Clear,2016-06-21 22:53:00,27.0,,18.4,13,N/A,30.04,82.0,4:53 PM,,10.0,North,12.7,350,Boise,Idaho,83701
17,Clear,2016-06-21 23:53:00,25.0,,-,12,N/A,30.02,82.0,5:53 PM,,10.0,WNW,10.4,300,Boise,Idaho,83701
18,Clear,2016-06-22 00:53:00,25.0,,-,12,N/A,30.00,82.0,6:53 PM,,10.0,NW,12.7,310,Boise,Idaho,83701
19,Clear,2016-06-22 01:53:00,25.0,,-,12,N/A,29.98,82.0,7:53 PM,,10.0,NNW,9.2,330,Boise,Idaho,83701
20,Clear,2016-06-22 02:53:00,27.0,,-,15,N/A,29.97,79.0,8:53 PM,,10.0,NNW,6.9,340,Boise,Idaho,83701
21,Clear,2016-06-22 03:53:00,28.0,,-,18,N/A,29.97,75.0,9:53 PM,,10.0,North,5.8,350,Boise,Idaho,83701
22,Clear,2016-06-22 04:53:00,32.0,,-,24,N/A,29.97,71.1,10:53 PM,,10.0,NE,3.5,50,Boise,Idaho,83701
23,Clear,2016-06-22 05:53:00,30.0,,-,24,N/A,29.97,68.0,11:53 PM,,10.0,SE,8.1,140,Boise,Idaho,83701
0,Clear,2016-06-22 06:53:00,28.9,,-,27,N/A,29.97,64.0,12:53 AM,,10.0,South,4.6,170,Boise,Idaho,83701
1,Clear,2016-06-22 07:53:00,32.0,,-,28,N/A,29.96,66.0,1:53 AM,,10.0,SE,8.1,140,Boise,Idaho,83701
2,Clear,2016-06-22 08:53:00,33.1,,-,34,N/A,29.96,62.1,2:53 AM,,10.0,SE,6.9,130,Boise,Idaho,83701
3,Clear,2016-06-22 09:53:00,33.1,,-,36,N/A,29.96,60.1,3:53 AM,,10.0,SE,11.5,140,Boise,Idaho,83701
4,Clear,2016-06-22 10:53:00,33.1,,-,39,N/A,29.96,57.9,4:53 AM,,10.0,SE,3.5,130,Boise,Idaho,83701
5,Clear,2016-06-22 11:53:00,33.1,,-,40,N/A,29.96,57.0,5:53 AM,,10.0,South,8.1,190,Boise,Idaho,83701
6,Clear,2016-06-22 12:53:00,33.1,,-,39,N/A,29.98,57.9,6:53 AM,,10.0,South,5.8,170,Boise,Idaho,83701
7,Clear,2016-06-22 13:53:00,34.0,,-,36,N/A,29.97,61.0,7:53 AM,,10.0,Calm,Calm,0,Boise,Idaho,83701
8,Clear,2016-06-22 14:53:00,34.0,,-,30,N/A,29.97,66.9,8:53 AM,,10.0,Calm,Calm,0,Boise,Idaho,83701
9,Clear,2016-06-22 15:53:00,32.0,,-,23,N/A,29.96,72.0,9:53 AM,,10.0,SE,3.5,130,Boise,Idaho,83701
10,Clear,2016-06-22 16:53:00,34.0,,-,22,N/A,29.95,75.9,10:53 AM,,10.0,West,6.9,260,Boise,Idaho,83701
11,Clear,2016-06-22 17:53:00,34.0,,-,20,N/A,29.94,79.0,11:53 AM,,10.0,Calm,Calm,0,Boise,Idaho,83701
12,Clear,2016-06-22 18:53:00,36.0,,-,20,N/A,29.92,81.0,12:53 PM,,10.0,Variable,4.6,0,Boise,Idaho,83701
13,Clear,2016-06-22 19:53:00,35.1,,-,16,N/A,29.88,86.0,1:53 PM,,10.0,North,5.8,360,Boise,Idaho,83701
14,Clear,2016-06-22 20:53:00,33.1,,-,15,N/A,29.86,87.1,2:53 PM,,10.0,Variable,3.5,0,Boise,Idaho,83701
15,Clear,2016-06-22 21:53:00,30.9,,-,12,N/A,29.83,91.0,3:53 PM,,10.0,NE,6.9,40,Boise,Idaho,83701
16,Clear,2016-06-22 22:53:00,33.1,,-,12,N/A,29.80,91.9,4:53 PM,,10.0,WNW,8.1,300,Boise,Idaho,83701
17,Clear,2016-06-22 23:53:00,30.9,,-,11,N/A,29.78,91.9,5:53 PM,,10.0,North,5.8,10,Boise,Idaho,83701
18,Clear,2016-06-23 00:53:00,30.9,,-,11,N/A,29.76,91.9,6:53 PM,,10.0,North,10.4,350,Boise,Idaho,83701
19,Clear,2016-06-23 01:53:00,30.9,,-,12,N/A,29.75,91.0,7:53 PM,,10.0,North,9.2,350,Boise,Idaho,83701
20,Clear,2016-06-23 02:53:00,33.1,,-,14,N/A,29.73,88.0,8:53 PM,,10.0,North,6.9,360,Boise,Idaho,83701
21,Clear,2016-06-23 03:53:00,35.1,,-,18,N/A,29.73,82.9,9:53 PM,,10.0,NNE,5.8,20,Boise,Idaho,83701
22,Clear,2016-06-23 04:53:00,36.0,,-,20,N/A,29.73,80.1,10:53 PM,,10.0,ESE,5.8,120,Boise,Idaho,83701
23,Clear,2016-06-23 05:53:00,37.0,,-,26,N/A,29.73,73.9,11:53 PM,,10.0,South,3.5,170,Boise,Idaho,83701
0,Clear,2016-06-23 06:53:00,37.0,,-,27,N/A,29.74,73.0,12:53 AM,,10.0,SSE,8.1,160,Boise,Idaho,83701
1,Clear,2016-06-23 07:53:00,39.0,,-,31,N/A,29.74,71.1,1:53 AM,,10.0,SE,10.4,130,Boise,Idaho,83701
2,Clear,2016-06-23 08:53:00,39.0,,-,35,N/A,29.75,68.0,2:53 AM,,10.0,SE,5.8,130,Boise,Idaho,83701
3,Clear,2016-06-23 09:53:00,39.0,,-,36,N/A,29.75,66.9,3:53 AM,,10.0,SE,8.1,130,Boise,Idaho,83701
4,Clear,2016-06-23 10:53:00,39.0,,-,39,N/A,29.78,64.9,4:53 AM,,10.0,SSW,5.8,210,Boise,Idaho,83701
5,Clear,2016-06-23 11:53:00,41.0,,-,45,N/A,29.81,63.0,5:53 AM,,10.0,South,3.5,180,Boise,Idaho,83701
6,Clear,2016-06-23 12:53:00,42.1,,-,43,N/A,29.84,64.9,6:53 AM,,10.0,Calm,Calm,0,Boise,Idaho,83701
7,Clear,2016-06-23 13:53:00,42.1,,-,40,N/A,29.86,66.9,7:53 AM,,10.0,Calm,Calm,0,Boise,Idaho,83701
8,Clear,2016-06-23 14:53:00,42.1,,-,34,N/A,29.88,72.0,8:53 AM,,10.0,NNW,9.2,330,Boise,Idaho,83701
9,Clear,2016-06-23 15:53:00,39.9,,-,27,N/A,29.89,75.9,9:53 AM,,10.0,NNW,11.5,330,Boise,Idaho,83701
10,Clear,2016-06-23 16:17:00,41.0,,-,28,N/A,29.98,77.0,10:17 AM,,10.0,NW,10.4,310,Boise,Idaho,83701
11,Clear,2016-06-23 16:53:00,39.0,,-,25,N/A,29.89,78.1,10:53 AM,,10.0,WNW,10.4,300,Boise,Idaho,83701
12,Clear,2016-06-23 17:53:00,37.9,,-,22,N/A,29.90,80.1,11:53 AM,,10.0,NNW,12.7,330,Boise,Idaho,83701
13,Clear,2016-06-23 18:53:00,37.9,,18.4,20,N/A,29.89,82.9,12:53 PM,,10.0,North,6.9,10,Boise,Idaho,83701
14,Clear,2016-06-23 19:53:00,37.9,,-,19,N/A,29.87,84.9,1:53 PM,,10.0,West,6.9,280,Boise,Idaho,83701
15,Clear,2016-06-23 20:53:00,37.0,,23.0,18,N/A,29.86,86.0,2:53 PM,,10.0,NNW,8.1,330,Boise,Idaho,83701
16,Clear,2016-06-23 21:53:00,37.9,,-,18,N/A,29.84,87.1,3:53 PM,,10.0,WNW,10.4,300,Boise,Idaho,83701
17,Clear,2016-06-23 22:53:00,37.0,,-,17,N/A,29.82,87.1,4:53 PM,,10.0,Variable,3.5,0,Boise,Idaho,83701
18,Clear,2016-06-23 23:53:00,37.9,,-,16,N/A,29.80,89.1,5:53 PM,,10.0,North,10.4,10,Boise,Idaho,83701
19,Clear,2016-06-24 00:53:00,37.0,,-,16,N/A,29.77,88.0,6:53 PM,,10.0,North,13.8,350,Boise,Idaho,83701
20,Clear,2016-06-24 01:53:00,37.9,,-,18,N/A,29.77,86.0,7:53 PM,,10.0,NNW,15.0,330,Boise,Idaho,83701
21,Clear,2016-06-24 02:53:00,39.0,,-,21,N/A,29.77,82.9,8:53 PM,,10.0,NW,13.8,320,Boise,Idaho,83701
22,Clear,2016-06-24 03:53:00,39.0,,-,23,N/A,29.78,80.1,9:53 PM,,10.0,NW,12.7,320,Boise,Idaho,83701
23,Clear,2016-06-24 04:53:00,41.0,,-,29,N/A,29.79,75.9,10:53 PM,,10.0,North,8.1,360,Boise,Idaho,83701
24,Clear,2016-06-24 05:53:00,39.9,,-,29,N/A,29.79,73.9,11:53 PM,,10.0,North,3.5,10,Boise,Idaho,83701
0,Clear,2016-06-24 06:53:00,41.0,,-,34,N/A,29.79,71.1,12:53 AM,,10.0,West,5.8,270,Boise,Idaho,83701
1,Clear,2016-06-24 07:53:00,44.1,,-,40,N/A,29.80,69.1,1:53 AM,,10.0,WNW,8.1,290,Boise,Idaho,83701
2,Clear,2016-06-24 08:53:00,46.0,,-,48,N/A,29.81,66.0,2:53 AM,,10.0,West,5.8,260,Boise,Idaho,83701
3,Partly Cloudy,2016-06-24 10:53:00,45.0,,-,52,N/A,29.88,63.0,4:53 AM,,10.0,WNW,9.2,300,Boise,Idaho,83701
4,Clear,2016-06-24 11:53:00,46.0,,-,58,N/A,29.92,61.0,5:53 AM,,10.0,West,10.4,280,Boise,Idaho,83701
5,Clear,2016-06-24 12:53:00,46.0,,-,62,N/A,29.95,59.0,6:53 AM,,10.0,NW,6.9,310,Boise,Idaho,83701
6,Clear,2016-06-24 13:53:00,46.0,,-,56,N/A,29.98,62.1,7:53 AM,,10.0,NW,10.4,320,Boise,Idaho,83701
7,Clear,2016-06-24 14:53:00,46.0,,-,50,N/A,30.01,64.9,8:53 AM,,10.0,NW,13.8,320,Boise,Idaho,83701
8,Partly Cloudy,2016-06-24 15:53:00,39.9,,-,36,N/A,30.02,68.0,9:53 AM,,10.0,North,-9999.0,0,Boise,Idaho,83701
9,Scattered Clouds,2016-06-24 16:53:00,35.1,,27.6,30,N/A,30.04,68.0,10:53 AM,,10.0,West,17.3,280,Boise,Idaho,83701
10,Clear,2016-06-24 17:53:00,37.0,,28.8,32,N/A,30.06,68.0,11:53 AM,,10.0,West,11.5,270,Boise,Idaho,83701
11,Partly Cloudy,2016-06-24 18:53:00,35.1,,28.8,28,N/A,30.07,70.0,12:53 PM,,10.0,NW,19.6,310,Boise,Idaho,83701
12,Partly Cloudy,2016-06-24 19:53:00,35.1,,23.0,28,N/A,30.07,70.0,1:53 PM,,10.0,NNW,17.3,340,Boise,Idaho,83701
13,Clear,2016-06-24 20:53:00,33.1,,25.3,25,N/A,30.08,71.1,2:53 PM,,10.0,NNW,17.3,330,Boise,Idaho,83701
14,Clear,2016-06-24 21:53:00,30.0,,29.9,20,N/A,30.07,73.0,3:53 PM,,10.0,NNW,12.7,330,Boise,Idaho,83701
15,Clear,2016-06-24 22:53:00,28.0,,29.9,19,N/A,30.07,73.0,4:53 PM,,10.0,NNW,23.0,330,Boise,Idaho,83701
16,Clear,2016-06-24 23:53:00,26.1,,25.3,17,N/A,30.07,73.0,5:53 PM,,10.0,NNW,15.0,340,Boise,Idaho,83701
17,Clear,2016-06-25 00:53:00,27.0,,24.2,18,N/A,30.07,73.0,6:53 PM,,10.0,NNW,18.4,340,Boise,Idaho,83701
18,Clear,2016-06-25 01:53:00,26.1,,-,18,N/A,30.07,72.0,7:53 PM,,10.0,NNW,12.7,340,Boise,Idaho,83701
19,Clear,2016-06-25 02:53:00,26.1,,-,19,N/A,30.08,70.0,8:53 PM,,10.0,NNW,12.7,340,Boise,Idaho,83701
20,Clear,2016-06-25 03:53:00,28.0,,-,24,N/A,30.09,66.0,9:53 PM,,10.0,NNW,11.5,340,Boise,Idaho,83701
21,Clear,2016-06-25 04:53:00,28.0,,-,26,N/A,30.12,64.0,10:53 PM,,10.0,North,13.8,350,Boise,Idaho,83701
22,Clear,2016-06-25 05:53:00,28.0,,-,28,N/A,30.14,62.1,11:53 PM,,10.0,NNW,9.2,340,Boise,Idaho,83701
0,Clear,2016-06-25 06:53:00,28.0,,-,29,N/A,30.15,61.0,12:53 AM,,10.0,WNW,6.9,290,Boise,Idaho,83701
1,Clear,2016-06-25 07:53:00,28.9,,-,33,N/A,30.17,57.9,1:53 AM,,10.0,West,8.1,280,Boise,Idaho,83701
2,Clear,2016-06-25 08:53:00,32.0,,-,43,N/A,30.17,54.0,2:53 AM,,10.0,West,4.6,260,Boise,Idaho,83701
3,Clear,2016-06-25 09:53:00,33.1,,-,49,N/A,30.18,52.0,3:53 AM,,10.0,NW,3.5,310,Boise,Idaho,83701
4,Clear,2016-06-25 10:53:00,33.1,,-,52,N/A,30.19,50.0,4:53 AM,,10.0,Calm,Calm,0,Boise,Idaho,83701
5,Clear,2016-06-25 11:53:00,32.0,,-,54,N/A,30.20,48.0,5:53 AM,,10.0,SSE,4.6,160,Boise,Idaho,83701
6,Clear,2016-06-25 12:53:00,35.1,,-,61,N/A,30.22,48.0,6:53 AM,,10.0,South,3.5,190,Boise,Idaho,83701
7,Clear,2016-06-25 13:53:00,37.0,,-,57,N/A,30.23,52.0,7:53 AM,,10.0,WSW,3.5,240,Boise,Idaho,83701
8,Clear,2016-06-25 14:53:00,35.1,,-,44,N/A,30.22,57.0,8:53 AM,,10.0,SW,5.8,220,Boise,Idaho,83701
9,Clear,2016-06-25 15:53:00,37.0,,-,42,N/A,30.23,60.1,9:53 AM,,10.0,Variable,4.6,0,Boise,Idaho,83701
10,Clear,2016-06-25 16:53:00,35.1,,-,33,N/A,30.22,64.9,10:53 AM,,10.0,Variable,5.8,0,Boise,Idaho,83701
11,Clear,2016-06-25 17:53:00,33.1,,-,29,N/A,30.21,66.0,11:53 AM,,10.0,WNW,5.8,290,Boise,Idaho,83701
12,Clear,2016-06-25 18:53:00,30.9,,-,24,N/A,30.19,69.1,12:53 PM,,10.0,Calm,Calm,0,Boise,Idaho,83701
13,Clear,2016-06-25 19:53:00,28.9,,-,20,N/A,30.17,72.0,1:53 PM,,10.0,ENE,5.8,70,Boise,Idaho,83701
14,Clear,2016-06-25 20:53:00,26.1,,-,16,N/A,30.15,75.9,2:53 PM,,10.0,North,4.6,10,Boise,Idaho,83701
15,Clear,2016-06-25 21:53:00,23.0,,-,13,N/A,30.13,77.0,3:53 PM,,10.0,Variable,4.6,0,Boise,Idaho,83701
16,Clear,2016-06-25 22:53:00,25.0,,-,14,N/A,30.09,79.0,4:53 PM,,10.0,Calm,Calm,0,Boise,Idaho,83701
17,Clear,2016-06-25 23:53:00,25.0,,-,14,N/A,30.08,79.0,5:53 PM,,10.0,WNW,8.1,290,Boise,Idaho,83701
18,Clear,2016-06-26 00:53:00,21.9,,-,12,N/A,30.07,79.0,6:53 PM,,10.0,West,8.1,280,Boise,Idaho,83701
19,Clear,2016-06-26 01:53:00,24.1,,-,13,N/A,30.05,80.1,7:53 PM,,10.0,NW,6.9,310,Boise,Idaho,83701
20,Clear,2016-06-26 02:53:00,32.0,,-,19,N/A,30.05,77.0,8:53 PM,,10.0,West,6.9,270,Boise,Idaho,83701
21,Clear,2016-06-26 03:53:00,34.0,,-,25,N/A,30.06,72.0,9:53 PM,,10.0,Calm,Calm,0,Boise,Idaho,83701
22,Clear,2016-06-26 04:53:00,34.0,,-,27,N/A,30.06,70.0,10:53 PM,,10.0,NE,4.6,50,Boise,Idaho,83701
23,Clear,2016-06-26 05:53:00,30.9,,-,29,N/A,30.07,64.0,11:53 PM,,10.0,SE,3.5,130,Boise,Idaho,83701
0,Clear,2016-06-26 06:53:00,30.9,,-,31,N/A,30.06,62.1,12:53 AM,,10.0,SE,4.6,140,Boise,Idaho,83701
1,Clear,2016-06-26 07:53:00,32.0,,-,34,N/A,30.06,61.0,1:53 AM,,10.0,SE,4.6,130,Boise,Idaho,83701
2,Clear,2016-06-26 08:53:00,32.0,,-,36,N/A,30.06,59.0,2:53 AM,,10.0,ESE,4.6,120,Boise,Idaho,83701
3,Clear,2016-06-26 09:53:00,32.0,,-,36,N/A,30.06,59.0,3:53 AM,,10.0,SE,5.8,140,Boise,Idaho,83701
4,Clear,2016-06-26 10:53:00,30.9,,-,36,N/A,30.07,57.9,4:53 AM,,10.0,SE,9.2,130,Boise,Idaho,83701
5,Clear,2016-06-26 11:53:00,30.9,,-,37,N/A,30.08,57.0,5:53 AM,,10.0,SE,9.2,130,Boise,Idaho,83701
6,Clear,2016-06-26 12:53:00,30.9,,-,37,N/A,30.10,57.0,6:53 AM,,10.0,SE,4.6,140,Boise,Idaho,83701
7,Clear,2016-06-26 13:53:00,33.1,,-,34,N/A,30.10,62.1,7:53 AM,,10.0,Calm,Calm,0,Boise,Idaho,83701
8,Clear,2016-06-26 14:53:00,35.1,,-,30,N/A,30.11,68.0,8:53 AM,,10.0,ENE,3.5,70,Boise,Idaho,83701
9,Clear,2016-06-26 15:53:00,30.9,,-,22,N/A,30.12,72.0,9:53 AM,,10.0,ESE,3.5,120,Boise,Idaho,83701
10,Clear,2016-06-26 16:53:00,30.9,,-,19,N/A,30.11,75.9,10:53 AM,,10.0,WNW,5.8,300,Boise,Idaho,83701
11,Clear,2016-06-26 17:53:00,30.9,,-,18,N/A,30.10,78.1,11:53 AM,,10.0,Calm,Calm,0,Boise,Idaho,83701
12,Clear,2016-06-26 18:53:00,30.9,,-,15,N/A,30.08,82.9,12:53 PM,,10.0,Variable,3.5,0,Boise,Idaho,83701
13,Clear,2016-06-26 19:53:00,33.1,,-,15,N/A,30.06,86.0,1:53 PM,,10.0,Variable,4.6,0,Boise,Idaho,83701
14,Clear,2016-06-26 20:53:00,33.1,,-,15,N/A,30.05,87.1,2:53 PM,,10.0,Variable,6.9,0,Boise,Idaho,83701
15,Clear,2016-06-26 21:53:00,33.1,,-,13,N/A,30.03,90.0,3:53 PM,,10.0,Variable,5.8,0,Boise,Idaho,83701
16,Clear,2016-06-26 22:53:00,34.0,,-,13,N/A,30.00,91.0,4:53 PM,,10.0,North,4.6,10,Boise,Idaho,83701
17,Clear,2016-06-26 23:53:00,30.0,,-,11,N/A,29.99,91.0,5:53 PM,,10.0,NW,5.8,310,Boise,Idaho,83701
18,Clear,2016-06-27 00:53:00,28.9,,-,11,N/A,29.98,91.9,6:53 PM,,10.0,West,10.4,270,Boise,Idaho,83701
19,Clear,2016-06-27 01:53:00,33.1,,-,12,N/A,29.97,91.9,7:53 PM,,10.0,NW,9.2,310,Boise,Idaho,83701
20,Clear,2016-06-27 02:53:00,35.1,,-,15,N/A,29.96,88.0,8:53 PM,,10.0,NW,6.9,310,Boise,Idaho,83701
21,Clear,2016-06-27 03:53:00,37.9,,-,19,N/A,29.96,84.0,9:53 PM,,10.0,WNW,4.6,290,Boise,Idaho,83701
22,Clear,2016-06-27 04:53:00,39.9,,-,25,N/A,29.98,79.0,10:53 PM,,10.0,NW,3.5,310,Boise,Idaho,83701
23,Clear,2016-06-27 05:53:00,35.1,,-,24,N/A,29.98,73.9,11:53 PM,,10.0,South,4.6,170,Boise,Idaho,83701
0,Clear,2016-06-27 06:53:00,32.0,,-,23,N/A,29.98,72.0,12:53 AM,,10.0,South,4.6,180,Boise,Idaho,83701
1,Clear,2016-06-27 07:53:00,34.0,,-,26,N/A,29.98,71.1,1:53 AM,,10.0,South,5.8,170,Boise,Idaho,83701
2,Clear,2016-06-27 08:53:00,34.0,,-,27,N/A,29.99,69.1,2:53 AM,,10.0,Calm,Calm,0,Boise,Idaho,83701
3,Clear,2016-06-27 09:53:00,37.0,,-,33,N/A,29.99,66.9,3:53 AM,,10.0,ESE,3.5,120,Boise,Idaho,83701
4,Clear,2016-06-27 10:53:00,35.1,,-,31,N/A,30.00,66.9,4:53 AM,,10.0,SSE,3.5,150,Boise,Idaho,83701
5,Clear,2016-06-27 11:53:00,36.0,,-,33,N/A,30.01,66.0,5:53 AM,,10.0,SE,8.1,130,Boise,Idaho,83701
6,Clear,2016-06-27 12:53:00,36.0,,-,33,N/A,30.02,66.0,6:53 AM,,10.0,ESE,6.9,120,Boise,Idaho,83701
7,Clear,2016-06-27 13:53:00,36.0,,-,28,N/A,30.03,71.1,7:53 AM,,10.0,SE,3.5,140,Boise,Idaho,83701
8,Clear,2016-06-27 14:53:00,37.0,,-,24,N/A,30.04,75.9,8:53 AM,,10.0,East,4.6,100,Boise,Idaho,83701
9,Clear,2016-06-27 15:53:00,35.1,,-,19,N/A,30.04,81.0,9:53 AM,,10.0,East,10.4,100,Boise,Idaho,83701
10,Clear,2016-06-27 16:53:00,30.9,,-,14,N/A,30.03,84.9,10:53 AM,,10.0,SE,8.1,140,Boise,Idaho,83701
11,Clear,2016-06-27 17:53:00,28.9,,-,12,N/A,30.01,89.1,11:53 AM,,10.0,SSE,6.9,150,Boise,Idaho,83701
12,Clear,2016-06-27 18:53:00,33.1,,-,12,N/A,29.99,91.9,12:53 PM,,10.0,Variable,4.6,0,Boise,Idaho,83701
13,Clear,2016-06-27 19:53:00,32.0,,-,11,N/A,29.97,93.9,1:53 PM,,10.0,West,6.9,260,Boise,Idaho,83701
14,Clear,2016-06-27 20:53:00,33.1,,-,11,N/A,29.94,96.1,2:53 PM,,10.0,Variable,6.9,0,Boise,Idaho,83701
15,Clear,2016-06-27 21:53:00,33.1,,-,10,N/A,29.92,98.1,3:53 PM,,10.0,North,6.9,360,Boise,Idaho,83701
16,Clear,2016-06-27 22:53:00,27.0,,-,8,N/A,29.90,99.0,4:53 PM,,10.0,WNW,10.4,300,Boise,Idaho,83701
17,Clear,2016-06-27 23:53:00,28.9,,-,8,N/A,29.88,99.0,5:53 PM,,10.0,North,12.7,350,Boise,Idaho,83701
18,Clear,2016-06-28 00:53:00,34.0,,-,10,N/A,29.86,99.0,6:53 PM,,10.0,NNW,15.0,330,Boise,Idaho,83701
19,Clear,2016-06-28 01:53:00,32.0,,-,10,N/A,29.86,97.0,7:53 PM,,10.0,NNW,13.8,330,Boise,Idaho,83701
20,Clear,2016-06-28 02:53:00,33.1,,-,12,N/A,29.86,93.9,8:53 PM,,10.0,NNW,9.2,340,Boise,Idaho,83701
21,Clear,2016-06-28 03:53:00,35.1,,-,16,N/A,29.86,86.0,9:53 PM,,10.0,NNW,6.9,330,Boise,Idaho,83701
22,Clear,2016-06-28 04:53:00,32.0,,-,15,N/A,29.87,84.0,10:53 PM,,10.0,NE,3.5,40,Boise,Idaho,83701
23,Clear,2016-06-28 05:53:00,33.1,,-,19,N/A,29.87,78.1,11:53 PM,,10.0,South,4.6,180,Boise,Idaho,83701
0,Clear,2016-06-28 06:53:00,39.0,,-,25,N/A,29.88,78.1,12:53 AM,,10.0,Calm,Calm,0,Boise,Idaho,83701
1,Clear,2016-06-28 07:53:00,46.9,,-,44,N/A,29.90,70.0,1:53 AM,,10.0,South,4.6,180,Boise,Idaho,83701
2,Clear,2016-06-28 08:53:00,48.9,,-,47,N/A,29.91,70.0,2:53 AM,,10.0,SSW,3.5,210,Boise,Idaho,83701
3,Clear,2016-06-28 09:53:00,48.0,,-,51,N/A,29.92,66.9,3:53 AM,,10.0,Calm,Calm,0,Boise,Idaho,83701
4,Clear,2016-06-28 10:53:00,46.9,,-,49,N/A,29.92,66.9,4:53 AM,,10.0,WSW,3.5,240,Boise,Idaho,83701
5,Clear,2016-06-28 11:53:00,46.9,,-,54,N/A,29.94,64.0,5:53 AM,,10.0,South,4.6,180,Boise,Idaho,83701
6,Clear,2016-06-28 12:53:00,46.9,,-,52,N/A,29.96,64.9,6:53 AM,,10.0,Calm,Calm,0,Boise,Idaho,83701
7,Clear,2016-06-28 13:53:00,48.0,,-,49,N/A,29.97,68.0,7:53 AM,,10.0,Calm,Calm,0,Boise,Idaho,83701
8,Clear,2016-06-28 14:53:00,48.0,,-,43,N/A,29.98,72.0,8:53 AM,,10.0,Calm,Calm,0,Boise,Idaho,83701
9,Clear,2016-06-28 15:53:00,46.9,,-,32,N/A,29.98,79.0,9:53 AM,,10.0,North,6.9,360,Boise,Idaho,83701
10,Clear,2016-06-28 16:53:00,46.0,,-,28,N/A,29.98,82.0,10:53 AM,,10.0,NW,9.2,320,Boise,Idaho,83701
11,Clear,2016-06-28 17:53:00,46.0,,-,24,N/A,29.97,87.1,11:53 AM,,10.0,North,10.4,350,Boise,Idaho,83701
12,Clear,2016-06-28 18:53:00,45.0,,-,21,N/A,29.96,90.0,12:53 PM,,10.0,NW,10.4,310,Boise,Idaho,83701
13,Clear,2016-06-28 19:53:00,45.0,,-,18,N/A,29.93,95.0,1:53 PM,,10.0,NNW,11.5,330,Boise,Idaho,83701
14,Clear,2016-06-28 20:53:00,46.0,,19.6,18,N/A,29.91,97.0,2:53 PM,,10.0,WNW,12.7,290,Boise,Idaho,83701
15,Clear,2016-06-28 21:53:00,44.1,,-,16,N/A,29.89,98.1,3:53 PM,,10.0,NW,10.4,310,Boise,Idaho,83701
16,Clear,2016-06-28 22:53:00,39.0,,18.4,12,N/A,29.87,100.0,4:53 PM,,10.0,NNW,8.1,340,Boise,Idaho,83701
17,Clear,2016-06-28 23:53:00,30.9,,17.3,9,N/A,29.86,99.0,5:53 PM,,10.0,West,6.9,280,Boise,Idaho,83701
18,Clear,2016-06-29 00:53:00,32.0,,-,10,N/A,29.84,99.0,6:53 PM,,10.0,NW,9.2,310,Boise,Idaho,83701
19,Clear,2016-06-29 01:53:00,36.0,,-,11,N/A,29.83,98.1,7:53 PM,,10.0,NNW,10.4,340,Boise,Idaho,83701
20,Clear,2016-06-29 02:53:00,33.1,,-,12,N/A,29.83,93.9,8:53 PM,,10.0,NNW,6.9,340,Boise,Idaho,83701
21,Clear,2016-06-29 03:53:00,37.0,,-,16,N/A,29.83,89.1,9:53 PM,,10.0,North,5.8,10,Boise,Idaho,83701
22,Clear,2016-06-29 04:53:00,33.1,,-,16,N/A,29.84,84.0,10:53 PM,,10.0,South,3.5,190,Boise,Idaho,83701
23,Clear,2016-06-29 05:53:00,36.0,,-,20,N/A,29.85,80.1,11:53 PM,,10.0,SSW,3.5,200,Boise,Idaho,83701
0,Clear,2016-06-29 06:53:00,36.0,,-,23,N/A,29.85,77.0,12:53 AM,,10.0,SE,6.9,130,Boise,Idaho,83701
1,Clear,2016-06-29 07:53:00,39.9,,-,27,N/A,29.86,75.9,1:53 AM,,10.0,SSW,8.1,200,Boise,Idaho,83701
2,Clear,2016-06-29 08:53:00,46.9,,-,41,N/A,29.86,72.0,2:53 AM,,10.0,SSE,3.5,160,Boise,Idaho,83701
3,Clear,2016-06-29 09:53:00,46.9,,-,45,N/A,29.86,69.1,3:53 AM,,10.0,South,3.5,180,Boise,Idaho,83701
4,Clear,2016-06-29 10:53:00,48.0,,-,51,N/A,29.87,66.9,4:53 AM,,10.0,SSW,3.5,210,Boise,Idaho,83701
5,Clear,2016-06-29 11:53:00,48.0,,-,52,N/A,29.89,66.0,5:53 AM,,10.0,South,4.6,180,Boise,Idaho,83701
6,Clear,2016-06-29 12:53:00,48.0,,-,51,N/A,29.90,66.9,6:53 AM,,10.0,South,4.6,190,Boise,Idaho,83701
7,Clear,2016-06-29 13:53:00,48.0,,-,43,N/A,29.90,72.0,7:53 AM,,10.0,SW,4.6,230,Boise,Idaho,83701
8,Clear,2016-06-29 14:53:00,46.9,,-,38,N/A,29.92,73.9,8:53 AM,,10.0,Calm,Calm,0,Boise,Idaho,83701
9,Clear,2016-06-29 15:53:00,46.9,,-,31,N/A,29.91,80.1,9:53 AM,,10.0,Calm,Calm,0,Boise,Idaho,83701
10,Clear,2016-06-29 16:53:00,48.0,,-,28,N/A,29.91,84.0,10:53 AM,,10.0,West,5.8,280,Boise,Idaho,83701
11,Clear,2016-06-29 17:53:00,46.9,,-,26,N/A,29.90,86.0,11:53 AM,,10.0,West,4.6,260,Boise,Idaho,83701
12,Clear,2016-06-29 18:53:00,44.1,,-,20,N/A,29.89,90.0,12:53 PM,,10.0,WSW,8.1,250,Boise,Idaho,83701
13,Clear,2016-06-29 19:53:00,46.0,,-,20,N/A,29.87,93.0,1:53 PM,,10.0,Variable,4.6,0,Boise,Idaho,83701
14,Clear,2016-06-29 20:53:00,46.0,,-,19,N/A,29.85,93.9,2:53 PM,,10.0,West,4.6,280,Boise,Idaho,83701
15,Clear,2016-06-29 21:53:00,44.1,,-,16,N/A,29.81,98.1,3:53 PM,,10.0,NW,5.8,310,Boise,Idaho,83701
16,Clear,2016-06-29 22:53:00,41.0,,-,13,N/A,29.79,100.9,4:53 PM,,10.0,Variable,5.8,0,Boise,Idaho,83701
17,Clear,2016-06-29 23:53:00,41.0,,-,13,N/A,29.77,100.9,5:53 PM,,10.0,NW,6.9,310,Boise,Idaho,83701
18,Clear,2016-06-30 00:53:00,43.0,,-,14,N/A,29.75,100.0,6:53 PM,,10.0,NNW,6.9,340,Boise,Idaho,83701
19,Clear,2016-06-30 01:53:00,43.0,,-,16,N/A,29.75,97.0,7:53 PM,,10.0,NNW,10.4,330,Boise,Idaho,83701
20,Clear,2016-06-30 02:53:00,42.1,,-,18,N/A,29.75,91.9,8:53 PM,,10.0,NNW,9.2,340,Boise,Idaho,83701
21,Clear,2016-06-30 03:53:00,43.0,,-,20,N/A,29.75,89.1,9:53 PM,,10.0,Calm,Calm,0,Boise,Idaho,83701
22,Clear,2016-06-30 04:53:00,45.0,,-,23,N/A,29.75,87.1,10:53 PM,,10.0,North,3.5,360,Boise,Idaho,83701
23,Haze,2016-06-30 05:53:00,48.0,,47.2,28,N/A,29.81,84.9,11:53 PM,,4.0,West,33.4,260,Boise,Idaho,83701
0,Haze,2016-06-30 06:05:00,46.9,Thunderstorm,39.1,27,N/A,29.91,84.0,12:05 AM,,5.0,West,26.5,280,Boise,Idaho,83701
1,Overcast,2016-06-30 06:20:00,46.0,,36.8,26,N/A,29.89,84.9,12:20 AM,,10.0,NW,28.8,310,Boise,Idaho,83701
2,Clear,2016-06-30 06:53:00,46.9,,-,27,N/A,29.80,84.0,12:53 AM,,10.0,NNE,17.3,30,Boise,Idaho,83701
3,Clear,2016-06-30 07:00:00,46.0,,20.7,26,N/A,29.91,84.9,1:00 AM,,10.0,NNE,16.1,20,Boise,Idaho,83701
4,Clear,2016-06-30 07:53:00,39.9,,-,18,0.00,29.77,88.0,1:53 AM,,10.0,NE,6.9,40,Boise,Idaho,83701
5,Clear,2016-06-30 08:33:00,48.9,,26.5,35,N/A,29.91,79.0,2:33 AM,,10.0,SSW,16.1,210,Boise,Idaho,83701
6,Clear,2016-06-30 08:53:00,50.0,,-,39,N/A,29.81,77.0,2:53 AM,,10.0,WSW,12.7,250,Boise,Idaho,83701
7,Partly Cloudy,2016-06-30 09:53:00,50.0,,-,43,0.00,29.82,73.9,3:53 AM,,10.0,SW,8.1,220,Boise,Idaho,83701
8,Clear,2016-06-30 10:53:00,50.0,,-,44,N/A,29.82,73.0,4:53 AM,,10.0,Variable,3.5,0,Boise,Idaho,83701
9,Partly Cloudy,2016-06-30 11:53:00,50.0,,-,47,N/A,29.83,71.1,5:53 AM,,10.0,East,5.8,90,Boise,Idaho,83701
10,Partly Cloudy,2016-06-30 12:53:00,50.0,,-,49,N/A,29.86,70.0,6:53 AM,,10.0,WSW,4.6,250,Boise,Idaho,83701
11,Partly Cloudy,2016-06-30 13:53:00,48.9,,-,44,N/A,29.88,72.0,7:53 AM,,10.0,SW,6.9,230,Boise,Idaho,83701
12,Clear,2016-06-30 14:53:00,48.9,,-,42,N/A,29.89,73.0,8:53 AM,,10.0,West,4.6,260,Boise,Idaho,83701
13,Clear,2016-06-30 15:53:00,48.9,,-,38,N/A,29.90,75.9,9:53 AM,,10.0,Variable,3.5,0,Boise,Idaho,83701
14,Clear,2016-06-30 16:53:00,48.9,,-,34,N/A,29.90,80.1,10:53 AM,,10.0,West,6.9,280,Boise,Idaho,83701
15,Clear,2016-06-30 17:53:00,50.0,,-,30,N/A,29.89,84.9,11:53 AM,,10.0,NW,5.8,310,Boise,Idaho,83701
16,Clear,2016-06-30 18:53:00,48.0,,-,24,N/A,29.87,89.1,12:53 PM,,10.0,West,9.2,260,Boise,Idaho,83701
17,Clear,2016-06-30 19:53:00,46.9,,-,21,N/A,29.83,91.9,1:53 PM,,10.0,NW,9.2,320,Boise,Idaho,83701
18,Clear,2016-06-30 20:53:00,46.0,,-,20,N/A,29.82,93.0,2:53 PM,,10.0,West,9.2,270,Boise,Idaho,83701
19,Clear,2016-06-30 21:53:00,46.0,,-,19,N/A,29.79,95.0,3:53 PM,,10.0,West,9.2,280,Boise,Idaho,83701
20,Clear,2016-06-30 22:53:00,45.0,,-,18,N/A,29.77,95.0,4:53 PM,,10.0,West,12.7,270,Boise,Idaho,83701
21,Clear,2016-06-30 23:53:00,45.0,,-,17,N/A,29.75,97.0,5:53 PM,,10.0,NW,12.7,310,Boise,Idaho,83701
22,Clear,2016-07-01 00:53:00,44.1,,-,17,N/A,29.74,95.0,6:53 PM,,10.0,WNW,11.5,290,Boise,Idaho,83701
23,Clear,2016-07-01 01:53:00,41.0,,-,15,N/A,29.75,95.0,7:53 PM,,10.0,WNW,12.7,300,Boise,Idaho,83701
24,Clear,2016-07-01 02:53:00,42.1,,-,18,N/A,29.76,91.9,8:53 PM,,10.0,WNW,11.5,290,Boise,Idaho,83701
25,Clear,2016-07-01 03:53:00,45.0,,-,23,N/A,29.78,87.1,9:53 PM,,10.0,WNW,5.8,290,Boise,Idaho,83701
26,Clear,2016-07-01 04:53:00,45.0,,-,26,N/A,29.83,82.9,10:53 PM,,10.0,West,6.9,260,Boise,Idaho,83701
27,Clear,2016-07-01 05:17:00,46.0,,-,27,N/A,29.95,82.9,11:17 PM,,10.0,South,12.7,190,Boise,Idaho,83701
28,Clear,2016-07-01 05:53:00,46.0,,-,30,N/A,29.86,80.1,11:53 PM,,10.0,South,3.5,170,Boise,Idaho,83701
0,Clear,2016-07-01 06:53:00,46.9,,-,36,N/A,29.88,75.9,12:53 AM,,10.0,WSW,6.9,250,Boise,Idaho,83701
1,Clear,2016-07-01 07:53:00,50.0,,-,43,N/A,29.87,73.9,1:53 AM,,10.0,South,12.7,180,Boise,Idaho,83701
2,Clear,2016-07-01 08:53:00,50.0,,-,46,N/A,29.87,72.0,2:53 AM,,10.0,East,5.8,90,Boise,Idaho,83701
3,Clear,2016-07-01 09:53:00,48.9,,-,47,N/A,29.87,70.0,3:53 AM,,10.0,WSW,3.5,250,Boise,Idaho,83701
4,Clear,2016-07-01 10:53:00,48.9,,-,47,N/A,29.87,70.0,4:53 AM,,10.0,ESE,5.8,110,Boise,Idaho,83701
5,Clear,2016-07-01 11:53:00,48.0,,-,49,N/A,29.87,68.0,5:53 AM,,10.0,SE,4.6,130,Boise,Idaho,83701
6,Clear,2016-07-01 12:53:00,48.9,,-,54,N/A,29.88,66.0,6:53 AM,,10.0,SE,6.9,140,Boise,Idaho,83701
7,Clear,2016-07-01 13:53:00,48.9,,-,44,N/A,29.89,72.0,7:53 AM,,10.0,South,5.8,170,Boise,Idaho,83701
8,Clear,2016-07-01 14:53:00,46.9,,-,38,N/A,29.90,73.9,8:53 AM,,10.0,WSW,4.6,250,Boise,Idaho,83701
9,Clear,2016-07-01 15:53:00,43.0,,-,29,N/A,29.90,78.1,9:53 AM,,10.0,Variable,5.8,0,Boise,Idaho,83701
10,Clear,2016-07-01 16:53:00,42.1,,-,24,N/A,29.90,82.0,10:53 AM,,10.0,SW,9.2,220,Boise,Idaho,83701
11,Clear,2016-07-01 17:53:00,44.1,,-,25,N/A,29.90,84.0,11:53 AM,,10.0,West,10.4,280,Boise,Idaho,83701
12,Clear,2016-07-01 18:53:00,44.1,,-,23,N/A,29.89,86.0,12:53 PM,,10.0,West,10.4,270,Boise,Idaho,83701
13,Clear,2016-07-01 19:53:00,45.0,,-,23,N/A,29.88,87.1,1:53 PM,,10.0,West,6.9,260,Boise,Idaho,83701
14,Clear,2016-07-01 20:53:00,45.0,,-,22,N/A,29.86,88.0,2:53 PM,,10.0,Variable,4.6,0,Boise,Idaho,83701
15,Clear,2016-07-01 21:53:00,42.1,,17.3,18,N/A,29.83,91.0,3:53 PM,,10.0,NW,8.1,310,Boise,Idaho,83701
16,Clear,2016-07-01 22:53:00,35.1,,-,13,N/A,29.80,93.9,4:53 PM,,10.0,NW,11.5,320,Boise,Idaho,83701
17,Clear,2016-07-01 23:53:00,26.1,,21.9,9,N/A,29.78,93.9,5:53 PM,,10.0,NW,13.8,310,Boise,Idaho,83701
18,Clear,2016-07-02 00:53:00,16.0,,-,6,N/A,29.77,93.0,6:53 PM,,10.0,NNW,11.5,340,Boise,Idaho,83701
19,Clear,2016-07-02 01:53:00,18.0,,-,7,N/A,29.76,91.9,7:53 PM,,10.0,NW,11.5,310,Boise,Idaho,83701
20,Clear,2016-07-02 02:53:00,24.1,,-,9,N/A,29.76,90.0,8:53 PM,,10.0,WNW,8.1,300,Boise,Idaho,83701
21,Clear,2016-07-02 03:53:00,37.0,,-,19,N/A,29.78,84.0,9:53 PM,,10.0,WNW,4.6,290,Boise,Idaho,83701
22,Clear,2016-07-02 04:53:00,32.0,,-,17,N/A,29.78,81.0,10:53 PM,,10.0,Calm,Calm,0,Boise,Idaho,83701
23,Clear,2016-07-02 05:53:00,35.1,,-,22,N/A,29.79,77.0,11:53 PM,,10.0,SSE,3.5,160,Boise,Idaho,83701
0,Clear,2016-07-02 06:53:00,41.0,,-,30,N/A,29.80,73.9,12:53 AM,,10.0,West,5.8,260,Boise,Idaho,83701
1,Clear,2016-07-02 07:53:00,39.9,,-,33,N/A,29.81,70.0,1:53 AM,,10.0,WNW,4.6,290,Boise,Idaho,83701
2,Clear,2016-07-02 08:53:00,41.0,,-,40,N/A,29.83,66.0,2:53 AM,,10.0,Calm,Calm,0,Boise,Idaho,83701
3,Clear,2016-07-02 09:53:00,39.9,,-,38,N/A,29.84,66.0,3:53 AM,,10.0,Calm,Calm,0,Boise,Idaho,83701
4,Clear,2016-07-02 10:53:00,39.0,,-,40,N/A,29.86,64.0,4:53 AM,,10.0,Calm,Calm,0,Boise,Idaho,83701
5,Clear,2016-07-02 11:53:00,39.0,,-,46,N/A,29.87,60.1,5:53 AM,,10.0,Calm,Calm,0,Boise,Idaho,83701
6,Clear,2016-07-02 12:53:00,39.0,,-,44,N/A,29.88,61.0,6:53 AM,,10.0,SSE,4.6,150,Boise,Idaho,83701
7,Clear,2016-07-02 13:53:00,39.9,,-,40,N/A,29.88,64.9,7:53 AM,,10.0,South,3.5,170,Boise,Idaho,83701
8,Clear,2016-07-02 14:53:00,37.9,,-,29,N/A,29.88,72.0,8:53 AM,,10.0,Calm,Calm,0,Boise,Idaho,83701
9,Clear,2016-07-02 15:53:00,39.9,,-,27,N/A,29.89,75.9,9:53 AM,,10.0,WNW,8.1,300,Boise,Idaho,83701
10,Clear,2016-07-02 16:53:00,42.1,,-,27,N/A,29.89,79.0,10:53 AM,,10.0,WNW,6.9,300,Boise,Idaho,83701
11,Clear,2016-07-02 17:53:00,41.0,,-,23,N/A,29.89,82.9,11:53 AM,,10.0,WSW,5.8,250,Boise,Idaho,83701
12,Clear,2016-07-02 18:53:00,39.9,,-,20,N/A,29.88,86.0,12:53 PM,,10.0,WNW,8.1,300,Boise,Idaho,83701
13,Clear,2016-07-02 19:53:00,36.0,,-,15,N/A,29.87,89.1,1:53 PM,,10.0,West,9.2,280,Boise,Idaho,83701
14,Clear,2016-07-02 20:53:00,37.0,,-,15,N/A,29.85,90.0,2:53 PM,,10.0,NNW,8.1,340,Boise,Idaho,83701
15,Clear,2016-07-02 21:53:00,28.9,,19.6,10,N/A,29.83,93.0,3:53 PM,,10.0,NNW,13.8,330,Boise,Idaho,83701
16,Clear,2016-07-02 22:53:00,30.9,,-,10,N/A,29.82,95.0,4:53 PM,,10.0,North,13.8,10,Boise,Idaho,83701
17,Clear,2016-07-02 23:53:00,35.1,,-,13,N/A,29.81,91.9,5:53 PM,,10.0,North,10.4,360,Boise,Idaho,83701
18,Clear,2016-07-03 00:53:00,36.0,,-,15,N/A,29.79,90.0,6:53 PM,,10.0,North,8.1,360,Boise,Idaho,83701
19,Clear,2016-07-03 01:53:00,36.0,,-,15,N/A,29.77,90.0,7:53 PM,,10.0,NNE,3.5,20,Boise,Idaho,83701
20,Clear,2016-07-03 02:53:00,42.1,,-,21,N/A,29.77,87.1,8:53 PM,,10.0,West,5.8,270,Boise,Idaho,83701
21,Clear,2016-07-03 03:53:00,48.9,,-,31,N/A,29.79,82.0,9:53 PM,,10.0,WSW,4.6,240,Boise,Idaho,83701
22,Clear,2016-07-03 04:53:00,48.9,,-,34,N/A,29.80,80.1,10:53 PM,,10.0,West,3.5,280,Boise,Idaho,83701
23,Clear,2016-07-03 05:53:00,50.0,,-,40,N/A,29.81,75.9,11:53 PM,,10.0,Calm,Calm,0,Boise,Idaho,83701
0,Clear,2016-07-03 06:53:00,46.9,,-,39,N/A,29.81,73.0,12:53 AM,,10.0,SE,4.6,140,Boise,Idaho,83701
1,Clear,2016-07-03 07:53:00,42.1,,-,32,N/A,29.80,73.9,1:53 AM,,10.0,SSE,3.5,160,Boise,Idaho,83701
2,Clear,2016-07-03 08:53:00,43.0,,-,33,N/A,29.81,73.9,2:53 AM,,10.0,SSW,3.5,210,Boise,Idaho,83701
3,Clear,2016-07-03 09:53:00,48.0,,-,44,N/A,29.82,71.1,3:53 AM,,10.0,SSW,4.6,200,Boise,Idaho,83701
4,Clear,2016-07-03 10:53:00,48.9,,-,45,N/A,29.82,71.1,4:53 AM,,10.0,South,4.6,190,Boise,Idaho,83701
5,Clear,2016-07-03 11:53:00,51.1,,-,53,N/A,29.84,69.1,5:53 AM,,10.0,Calm,Calm,0,Boise,Idaho,83701
6,Clear,2016-07-03 12:53:00,51.1,,-,57,N/A,29.86,66.9,6:53 AM,,10.0,SW,3.5,230,Boise,Idaho,83701
7,Clear,2016-07-03 13:53:00,52.0,,-,53,N/A,29.88,70.0,7:53 AM,,10.0,West,3.5,270,Boise,Idaho,83701
8,Clear,2016-07-03 14:53:00,50.0,,-,44,N/A,29.88,73.0,8:53 AM,,10.0,WNW,6.9,290,Boise,Idaho,83701
9,Clear,2016-07-03 15:53:00,48.9,,-,37,N/A,29.89,77.0,9:53 AM,,10.0,NW,9.2,320,Boise,Idaho,83701
10,Clear,2016-07-03 16:53:00,48.0,,-,31,N/A,29.90,81.0,10:53 AM,,10.0,WNW,12.7,300,Boise,Idaho,83701
11,Clear,2016-07-03 17:53:00,46.9,,-,26,N/A,29.90,86.0,11:53 AM,,10.0,NNW,9.2,330,Boise,Idaho,83701
12,Clear,2016-07-03 18:53:00,46.0,,-,25,N/A,29.90,86.0,12:53 PM,,10.0,North,-9999.0,0,Boise,Idaho,83701
13,Clear,2016-07-03 19:53:00,45.0,,20.7,22,N/A,29.87,89.1,1:53 PM,,10.0,NW,11.5,310,Boise,Idaho,83701
14,Clear,2016-07-03 20:53:00,44.1,,20.7,20,N/A,29.86,90.0,2:53 PM,,10.0,NW,12.7,320,Boise,Idaho,83701
15,Clear,2016-07-03 21:53:00,41.0,,20.7,17,N/A,29.83,91.0,3:53 PM,,10.0,NW,13.8,310,Boise,Idaho,83701
16,Clear,2016-07-03 22:53:00,41.0,,17.3,16,N/A,29.81,93.0,4:53 PM,,10.0,NNW,10.4,340,Boise,Idaho,83701
17,Clear,2016-07-03 23:53:00,39.0,,-,16,N/A,29.79,91.9,5:53 PM,,10.0,NNW,9.2,340,Boise,Idaho,83701
18,Clear,2016-07-04 00:53:00,37.0,,-,15,N/A,29.77,91.9,6:53 PM,,10.0,NNW,10.4,330,Boise,Idaho,83701
19,Clear,2016-07-04 01:53:00,37.0,,-,15,N/A,29.76,91.9,7:53 PM,,10.0,NNW,8.1,340,Boise,Idaho,83701
20,Clear,2016-07-04 02:53:00,39.0,,-,17,N/A,29.76,89.1,8:53 PM,,10.0,NNW,8.1,340,Boise,Idaho,83701
21,Clear,2016-07-04 03:53:00,39.0,,-,20,N/A,29.76,84.9,9:53 PM,,10.0,WNW,6.9,300,Boise,Idaho,83701
22,Clear,2016-07-04 04:53:00,41.0,,-,24,N/A,29.79,81.0,10:53 PM,,10.0,NW,9.2,320,Boise,Idaho,83701
23,Clear,2016-07-04 05:53:00,39.9,,-,25,N/A,29.80,79.0,11:53 PM,,10.0,NW,12.7,320,Boise,Idaho,83701
0,Clear,2016-07-04 06:53:00,39.9,,-,27,N/A,29.82,75.9,12:53 AM,,10.0,West,9.2,280,Boise,Idaho,83701
1,Clear,2016-07-04 07:53:00,39.0,,-,31,N/A,29.84,71.1,1:53 AM,,10.0,West,13.8,280,Boise,Idaho,83701
2,Clear,2016-07-04 08:53:00,37.9,,-,33,N/A,29.87,68.0,2:53 AM,,10.0,West,9.2,280,Boise,Idaho,83701
3,Clear,2016-07-04 09:53:00,37.9,,-,36,N/A,29.88,66.0,3:53 AM,,10.0,West,9.2,270,Boise,Idaho,83701
4,Clear,2016-07-04 10:53:00,36.0,,-,35,N/A,29.90,64.0,4:53 AM,,10.0,West,9.2,280,Boise,Idaho,83701
5,Scattered Clouds,2016-07-04 11:53:00,35.1,,-,35,N/A,29.92,63.0,5:53 AM,,10.0,West,6.9,280,Boise,Idaho,83701
6,Mostly Cloudy,2016-07-04 12:53:00,36.0,,-,38,N/A,29.94,62.1,6:53 AM,,10.0,NW,6.9,310,Boise,Idaho,83701
7,Mostly Cloudy,2016-07-04 13:53:00,37.9,,-,40,N/A,29.95,63.0,7:53 AM,,10.0,WNW,9.2,290,Boise,Idaho,83701
8,Clear,2016-07-04 14:53:00,39.0,,-,37,N/A,29.96,66.0,8:53 AM,,10.0,NW,13.8,320,Boise,Idaho,83701
9,Scattered Clouds,2016-07-04 15:53:00,39.9,,-,35,N/A,29.96,69.1,9:53 AM,,10.0,NW,16.1,310,Boise,Idaho,83701
10,Clear,2016-07-04 16:53:00,39.0,,-,30,N/A,29.96,72.0,10:53 AM,,10.0,WNW,13.8,290,Boise,Idaho,83701
11,Clear,2016-07-04 17:53:00,36.0,,-,25,N/A,29.96,73.9,11:53 AM,,10.0,WNW,9.2,300,Boise,Idaho,83701
12,Clear,2016-07-04 18:53:00,36.0,,17.3,22,N/A,29.94,78.1,12:53 PM,,10.0,NNW,12.7,340,Boise,Idaho,83701
13,Clear,2016-07-04 19:53:00,32.0,,-,18,N/A,29.93,79.0,1:53 PM,,10.0,NNW,9.2,330,Boise,Idaho,83701
14,Clear,2016-07-04 20:53:00,25.0,,18.4,12,N/A,29.91,82.9,2:53 PM,,10.0,NNW,15.0,330,Boise,Idaho,83701
15,Clear,2016-07-04 21:53:00,26.1,,-,12,N/A,29.88,84.9,3:53 PM,,10.0,NNW,12.7,340,Boise,Idaho,83701
16,Clear,2016-07-04 22:53:00,25.0,,-,11,N/A,29.86,84.9,4:53 PM,,10.0,NW,11.5,320,Boise,Idaho,83701
17,Clear,2016-07-04 23:53:00,23.0,,23.0,10,N/A,29.84,84.9,5:53 PM,,10.0,North,16.1,350,Boise,Idaho,83701
18,Clear,2016-07-05 00:53:00,24.1,,-,11,N/A,29.82,84.9,6:53 PM,,10.0,NNW,11.5,340,Boise,Idaho,83701
19,Clear,2016-07-05 01:53:00,25.0,,-,12,N/A,29.81,84.0,7:53 PM,,10.0,North,9.2,350,Boise,Idaho,83701
20,Clear,2016-07-05 02:53:00,28.0,,-,14,N/A,29.81,82.0,8:53 PM,,10.0,NNW,9.2,340,Boise,Idaho,83701
21,Clear,2016-07-05 03:53:00,32.0,,27.6,19,N/A,29.83,77.0,9:53 PM,,10.0,NNW,18.4,330,Boise,Idaho,83701
22,Clear,2016-07-05 04:53:00,30.0,,-,19,N/A,29.85,75.0,10:53 PM,,10.0,NNW,13.8,340,Boise,Idaho,83701
23,Clear,2016-07-05 05:53:00,30.0,,-,20,N/A,29.86,73.0,11:53 PM,,10.0,NW,10.4,310,Boise,Idaho,83701
0,Clear,2016-07-05 06:53:00,33.1,,-,26,N/A,29.87,70.0,12:53 AM,,10.0,WNW,11.5,300,Boise,Idaho,83701
1,Clear,2016-07-05 07:53:00,35.1,,-,30,N/A,29.88,68.0,1:53 AM,,10.0,WNW,11.5,300,Boise,Idaho,83701
2,Clear,2016-07-05 08:53:00,37.0,,-,34,N/A,29.88,66.0,2:53 AM,,10.0,WNW,9.2,290,Boise,Idaho,83701
3,Clear,2016-07-05 09:53:00,37.9,,-,38,N/A,29.89,64.0,3:53 AM,,10.0,West,6.9,270,Boise,Idaho,83701
4,Clear,2016-07-05 10:53:00,37.0,,-,41,N/A,29.91,61.0,4:53 AM,,10.0,West,5.8,280,Boise,Idaho,83701
5,Clear,2016-07-05 11:53:00,37.9,,-,47,N/A,29.93,57.9,5:53 AM,,10.0,SW,4.6,220,Boise,Idaho,83701
6,Clear,2016-07-05 12:53:00,37.9,,-,47,N/A,29.94,57.9,6:53 AM,,10.0,SW,3.5,230,Boise,Idaho,83701
7,Clear,2016-07-05 13:53:00,37.9,,-,44,N/A,29.96,60.1,7:53 AM,,10.0,WNW,5.8,290,Boise,Idaho,83701
8,Clear,2016-07-05 14:53:00,37.9,,-,40,N/A,29.96,63.0,8:53 AM,,10.0,Calm,Calm,0,Boise,Idaho,83701
9,Clear,2016-07-05 15:53:00,36.0,,-,33,N/A,29.97,66.0,9:53 AM,,10.0,Calm,Calm,0,Boise,Idaho,83701
10,Clear,2016-07-05 16:53:00,33.1,,-,27,N/A,29.96,68.0,10:53 AM,,10.0,NW,9.2,310,Boise,Idaho,83701
11,Clear,2016-07-05 17:53:00,33.1,,-,24,N/A,29.95,72.0,11:53 AM,,10.0,NW,4.6,310,Boise,Idaho,83701
12,Clear,2016-07-05 18:53:00,30.9,,-,20,N/A,29.94,75.0,12:53 PM,,10.0,Variable,5.8,0,Boise,Idaho,83701
13,Clear,2016-07-05 19:53:00,30.0,,23.0,17,N/A,29.91,78.1,1:53 PM,,10.0,NNW,13.8,340,Boise,Idaho,83701
14,Clear,2016-07-05 20:53:00,32.0,,23.0,17,N/A,29.89,80.1,2:53 PM,,10.0,NW,15.0,320,Boise,Idaho,83701
15,Clear,2016-07-05 21:53:00,32.0,,18.4,17,N/A,29.86,81.0,3:53 PM,,10.0,North,8.1,350,Boise,Idaho,83701
16,Clear,2016-07-05 22:53:00,30.9,,21.9,16,N/A,29.84,82.0,4:53 PM,,10.0,NW,11.5,320,Boise,Idaho,83701
17,Clear,2016-07-05 23:53:00,30.0,,-,16,N/A,29.83,80.1,5:53 PM,,10.0,North,12.7,10,Boise,Idaho,83701
18,Clear,2016-07-06 00:53:00,30.0,,-,16,N/A,29.81,80.1,6:53 PM,,10.0,North,15.0,360,Boise,Idaho,83701
19,Clear,2016-07-06 01:53:00,27.0,,23.0,14,N/A,29.79,81.0,7:53 PM,,10.0,NNW,13.8,330,Boise,Idaho,83701
20,Clear,2016-07-06 02:53:00,25.0,,-,14,N/A,29.78,79.0,8:53 PM,,10.0,NNW,6.9,330,Boise,Idaho,83701
21,Clear,2016-07-06 03:53:00,27.0,,-,16,N/A,29.78,75.9,9:53 PM,,10.0,NW,3.5,310,Boise,Idaho,83701
22,Clear,2016-07-06 04:53:00,32.0,,-,23,N/A,29.80,72.0,10:53 PM,,10.0,WNW,4.6,290,Boise,Idaho,83701
23,Clear,2016-07-06 05:53:00,35.1,,-,28,N/A,29.81,70.0,11:53 PM,,10.0,NW,11.5,310,Boise,Idaho,83701
0,Clear,2016-07-06 06:53:00,35.1,,-,30,N/A,29.82,68.0,12:53 AM,,10.0,WNW,6.9,290,Boise,Idaho,83701
1,Clear,2016-07-06 07:53:00,36.0,,-,33,N/A,29.83,66.0,1:53 AM,,10.0,West,8.1,280,Boise,Idaho,83701
2,Partly Cloudy,2016-07-06 08:53:00,39.9,,-,43,N/A,29.84,63.0,2:53 AM,,10.0,West,9.2,280,Boise,Idaho,83701
3,Clear,2016-07-06 09:53:00,39.9,,-,44,N/A,29.86,62.1,3:53 AM,,10.0,West,4.6,270,Boise,Idaho,83701
4,Clear,2016-07-06 10:53:00,39.9,,-,46,N/A,29.87,61.0,4:53 AM,,10.0,West,8.1,280,Boise,Idaho,83701
5,Partly Cloudy,2016-07-06 11:53:00,39.9,,-,49,N/A,29.89,59.0,5:53 AM,,10.0,WNW,5.8,300,Boise,Idaho,83701
6,Clear,2016-07-06 12:53:00,39.0,,-,49,N/A,29.92,57.9,6:53 AM,,10.0,NW,5.8,310,Boise,Idaho,83701
7,Mostly Cloudy,2016-07-06 13:53:00,39.9,,-,44,N/A,29.93,62.1,7:53 AM,,10.0,WNW,6.9,300,Boise,Idaho,83701
8,Clear,2016-07-06 14:53:00,39.0,,-,41,N/A,29.95,63.0,8:53 AM,,10.0,NW,8.1,310,Boise,Idaho,83701
9,Clear,2016-07-06 14:58:00,39.0,,-,41,N/A,30.01,63.0,8:58 AM,,10.0,WNW,9.2,300,Boise,Idaho,83701
10,Clear,2016-07-06 15:53:00,41.0,,-,40,N/A,29.95,66.0,9:53 AM,,10.0,NNW,13.8,330,Boise,Idaho,83701
11,Clear,2016-07-06 16:53:00,39.9,,-,35,N/A,29.94,69.1,10:53 AM,,10.0,NW,15.0,310,Boise,Idaho,83701
12,Clear,2016-07-06 17:53:00,37.9,,-,31,N/A,29.94,70.0,11:53 AM,,10.0,WNW,11.5,290,Boise,Idaho,83701
13,Clear,2016-07-06 18:53:00,39.0,,-,29,N/A,29.94,73.0,12:53 PM,,10.0,WNW,9.2,290,Boise,Idaho,83701
14,Clear,2016-07-06 19:53:00,37.9,,-,28,N/A,29.93,73.0,1:53 PM,,10.0,North,-9999.0,0,Boise,Idaho,83701
15,Clear,2016-07-06 20:53:00,36.0,,-,23,N/A,29.92,75.9,2:53 PM,,10.0,North,-9999.0,0,Boise,Idaho,83701
16,Clear,2016-07-06 21:53:00,34.0,,-,22,N/A,29.91,75.9,3:53 PM,,10.0,NNW,12.7,340,Boise,Idaho,83701
17,Clear,2016-07-06 22:53:00,33.1,,20.7,19,N/A,29.89,78.1,4:53 PM,,10.0,North,13.8,360,Boise,Idaho,83701
18,Clear,2016-07-06 23:53:00,35.1,,-,23,N/A,29.88,75.9,5:53 PM,,10.0,North,10.4,360,Boise,Idaho,83701
19,Clear,2016-07-07 00:53:00,36.0,,-,22,N/A,29.87,78.1,6:53 PM,,10.0,NNW,9.2,340,Boise,Idaho,83701
20,Clear,2016-07-07 01:53:00,35.1,,-,21,N/A,29.86,78.1,7:53 PM,,10.0,NNW,12.7,340,Boise,Idaho,83701
21,Clear,2016-07-07 02:53:00,34.0,,-,22,N/A,29.86,75.9,8:53 PM,,10.0,NNW,8.1,330,Boise,Idaho,83701
22,Clear,2016-07-07 03:53:00,35.1,,-,25,N/A,29.86,73.0,9:53 PM,,10.0,NW,3.5,320,Boise,Idaho,83701
23,Clear,2016-07-07 04:53:00,35.1,,-,31,N/A,29.88,66.9,10:53 PM,,10.0,SW,3.5,230,Boise,Idaho,83701
24,Clear,2016-07-07 05:53:00,39.0,,-,36,N/A,29.88,66.9,11:53 PM,,10.0,WNW,4.6,290,Boise,Idaho,83701
0,Clear,2016-07-07 06:53:00,36.0,,-,37,N/A,29.89,63.0,12:53 AM,,10.0,SE,5.8,140,Boise,Idaho,83701
1,Clear,2016-07-07 07:53:00,35.1,,-,37,N/A,29.88,62.1,1:53 AM,,10.0,ESE,6.9,120,Boise,Idaho,83701
2,Clear,2016-07-07 08:53:00,34.0,,-,38,N/A,29.89,60.1,2:53 AM,,10.0,SSE,5.8,150,Boise,Idaho,83701
3,Clear,2016-07-07 09:53:00,34.0,,-,39,N/A,29.90,59.0,3:53 AM,,10.0,SE,5.8,130,Boise,Idaho,83701
4,Clear,2016-07-07 10:53:00,34.0,,-,41,N/A,29.91,57.9,4:53 AM,,10.0,SE,8.1,140,Boise,Idaho,83701
5,Clear,2016-07-07 11:53:00,35.1,,-,45,N/A,29.92,55.9,5:53 AM,,10.0,SE,6.9,130,Boise,Idaho,83701
6,Clear,2016-07-07 12:53:00,36.0,,-,45,N/A,29.92,57.0,6:53 AM,,10.0,ESE,9.2,120,Boise,Idaho,83701
7,Clear,2016-07-07 13:53:00,35.1,,-,35,N/A,29.93,63.0,7:53 AM,,10.0,ESE,9.2,120,Boise,Idaho,83701
8,Clear,2016-07-07 14:53:00,34.0,,-,30,N/A,29.94,66.9,8:53 AM,,10.0,SE,9.2,140,Boise,Idaho,83701
9,Clear,2016-07-07 15:53:00,33.1,,-,24,N/A,29.94,72.0,9:53 AM,,10.0,SE,8.1,140,Boise,Idaho,83701
10,Clear,2016-07-07 16:53:00,33.1,,-,21,N/A,29.92,75.9,10:53 AM,,10.0,South,6.9,170,Boise,Idaho,83701
11,Clear,2016-07-07 17:53:00,30.9,,-,16,N/A,29.90,81.0,11:53 AM,,10.0,SSE,4.6,150,Boise,Idaho,83701
12,Clear,2016-07-07 18:53:00,30.9,,-,15,N/A,29.88,82.9,12:53 PM,,10.0,South,8.1,170,Boise,Idaho,83701
13,Clear,2016-07-07 19:53:00,32.0,,-,14,N/A,29.85,87.1,1:53 PM,,10.0,Variable,4.6,0,Boise,Idaho,83701
14,Clear,2016-07-07 20:53:00,32.0,,-,14,N/A,29.83,87.1,2:53 PM,,10.0,SSE,6.9,150,Boise,Idaho,83701
15,Clear,2016-07-07 21:53:00,33.1,,-,14,N/A,29.81,89.1,3:53 PM,,10.0,South,9.2,180,Boise,Idaho,83701
16,Clear,2016-07-07 22:53:00,34.0,,-,14,N/A,29.78,90.0,4:53 PM,,10.0,North,12.7,350,Boise,Idaho,83701
17,Clear,2016-07-07 23:53:00,34.0,,-,14,N/A,29.76,89.1,5:53 PM,,10.0,North,8.1,360,Boise,Idaho,83701
18,Clear,2016-07-08 00:53:00,35.1,,-,15,N/A,29.74,89.1,6:53 PM,,10.0,North,6.9,10,Boise,Idaho,83701
19,Clear,2016-07-08 01:53:00,36.0,,-,16,N/A,29.72,87.1,7:53 PM,,10.0,North,8.1,10,Boise,Idaho,83701
20,Clear,2016-07-08 02:53:00,36.0,,-,17,N/A,29.71,84.9,8:53 PM,,10.0,NE,8.1,50,Boise,Idaho,83701
21,Clear,2016-07-08 03:53:00,35.1,,-,18,N/A,29.71,82.0,9:53 PM,,10.0,South,3.5,170,Boise,Idaho,83701
22,Clear,2016-07-08 04:53:00,36.0,,-,21,N/A,29.72,79.0,10:53 PM,,10.0,ESE,3.5,120,Boise,Idaho,83701
23,Clear,2016-07-08 05:53:00,37.0,,-,25,N/A,29.71,75.0,11:53 PM,,10.0,Calm,Calm,0,Boise,Idaho,83701
0,Clear,2016-07-08 06:53:00,39.0,,-,28,N/A,29.71,73.9,12:53 AM,,10.0,South,9.2,170,Boise,Idaho,83701
1,Clear,2016-07-08 07:53:00,35.1,,-,26,N/A,29.72,72.0,1:53 AM,,10.0,ESE,8.1,110,Boise,Idaho,83701
2,Clear,2016-07-08 08:53:00,39.9,,-,32,N/A,29.72,71.1,2:53 AM,,10.0,ESE,6.9,120,Boise,Idaho,83701
3,Clear,2016-07-08 09:53:00,39.0,,-,33,N/A,29.73,69.1,3:53 AM,,10.0,Variable,6.9,0,Boise,Idaho,83701
4,Clear,2016-07-08 10:53:00,42.1,,-,46,N/A,29.76,63.0,4:53 AM,,10.0,SW,6.9,220,Boise,Idaho,83701
5,Clear,2016-07-08 11:53:00,45.0,,-,53,N/A,29.79,62.1,5:53 AM,,10.0,Calm,Calm,0,Boise,Idaho,83701
6,Clear,2016-07-08 12:53:00,46.9,,-,58,N/A,29.81,62.1,6:53 AM,,10.0,NW,3.5,310,Boise,Idaho,83701
7,Clear,2016-07-08 13:53:00,46.9,,-,58,N/A,29.83,62.1,7:53 AM,,10.0,WSW,4.6,240,Boise,Idaho,83701
8,Clear,2016-07-08 14:53:00,48.0,,-,54,N/A,29.84,64.9,8:53 AM,,10.0,Calm,Calm,0,Boise,Idaho,83701
9,Clear,2016-07-08 15:53:00,46.9,,-,44,N/A,29.86,70.0,9:53 AM,,10.0,Calm,Calm,0,Boise,Idaho,83701
10,Clear,2016-07-08 16:53:00,46.0,,-,37,N/A,29.85,73.9,10:53 AM,,10.0,Calm,Calm,0,Boise,Idaho,83701
11,Clear,2016-07-08 17:53:00,44.1,,-,29,N/A,29.84,79.0,11:53 AM,,10.0,NW,8.1,310,Boise,Idaho,83701
12,Clear,2016-07-08 18:53:00,41.0,,-,23,N/A,29.83,82.0,12:53 PM,,10.0,NNW,13.8,330,Boise,Idaho,83701
13,Clear,2016-07-08 19:53:00,44.1,,-,26,N/A,29.82,82.0,1:53 PM,,10.0,NNW,10.4,330,Boise,Idaho,83701
14,Clear,2016-07-08 20:53:00,42.1,,-,23,N/A,29.79,84.0,2:53 PM,,10.0,North,9.2,350,Boise,Idaho,83701
15,Clear,2016-07-08 21:53:00,42.1,,-,21,N/A,29.78,86.0,3:53 PM,,10.0,NNE,6.9,20,Boise,Idaho,83701
16,Clear,2016-07-08 22:53:00,39.9,,-,18,N/A,29.76,88.0,4:53 PM,,10.0,North,6.9,360,Boise,Idaho,83701
17,Clear,2016-07-08 23:53:00,41.0,,-,19,N/A,29.76,88.0,5:53 PM,,10.0,NW,9.2,310,Boise,Idaho,83701
18,Partly Cloudy,2016-07-09 00:53:00,46.9,,34.5,27,N/A,29.78,84.0,6:53 PM,,7.0,NW,27.6,310,Boise,Idaho,83701
19,Clear,2016-07-09 01:53:00,46.0,,-,31,N/A,29.81,79.0,7:53 PM,,10.0,NNW,19.6,330,Boise,Idaho,83701
20,Clear,2016-07-09 02:53:00,45.0,,-,32,N/A,29.81,77.0,8:53 PM,,10.0,NNW,15.0,340,Boise,Idaho,83701
21,Clear,2016-07-09 03:53:00,44.1,,-,32,N/A,29.81,75.9,9:53 PM,,10.0,NNW,11.5,330,Boise,Idaho,83701
22,Clear,2016-07-09 04:53:00,45.0,,-,34,N/A,29.81,75.0,10:53 PM,,10.0,NNW,10.4,340,Boise,Idaho,83701
23,Clear,2016-07-09 05:53:00,45.0,,-,38,N/A,29.80,72.0,11:53 PM,,10.0,NW,5.8,310,Boise,Idaho,83701
0,Clear,2016-07-09 06:53:00,46.0,,-,40,N/A,29.81,72.0,12:53 AM,,10.0,WNW,3.5,290,Boise,Idaho,83701
1,Clear,2016-07-09 07:53:00,46.9,,-,45,N/A,29.81,69.1,1:53 AM,,10.0,West,5.8,270,Boise,Idaho,83701
2,Clear,2016-07-09 08:53:00,48.0,,-,49,N/A,29.82,68.0,2:53 AM,,10.0,WNW,10.4,300,Boise,Idaho,83701
3,Clear,2016-07-09 09:53:00,48.9,,-,52,N/A,29.84,66.9,3:53 AM,,10.0,Calm,Calm,0,Boise,Idaho,83701
4,Clear,2016-07-09 10:53:00,48.9,,-,54,N/A,29.86,66.0,4:53 AM,,10.0,West,3.5,280,Boise,Idaho,83701
5,Clear,2016-07-09 11:53:00,48.0,,-,56,N/A,29.88,64.0,5:53 AM,,10.0,Calm,Calm,0,Boise,Idaho,83701
6,Clear,2016-07-09 12:53:00,46.9,,-,56,N/A,29.91,63.0,6:53 AM,,10.0,Calm,Calm,0,Boise,Idaho,83701
7,Scattered Clouds,2016-07-09 13:53:00,48.0,,-,52,N/A,29.92,66.0,7:53 AM,,10.0,Calm,Calm,0,Boise,Idaho,83701
8,Overcast,2016-07-09 14:53:00,50.0,,-,49,N/A,29.93,70.0,8:53 AM,,10.0,Calm,Calm,0,Boise,Idaho,83701
9,Overcast,2016-07-09 15:53:00,50.0,,-,47,N/A,29.93,71.1,9:53 AM,,10.0,WNW,8.1,300,Boise,Idaho,83701
10,Mostly Cloudy,2016-07-09 16:53:00,48.0,,-,41,N/A,29.93,73.0,10:53 AM,,10.0,NW,10.4,320,Boise,Idaho,83701
11,Mostly Cloudy,2016-07-09 17:53:00,46.9,,-,37,N/A,29.92,75.0,11:53 AM,,10.0,NW,8.1,310,Boise,Idaho,83701
12,Overcast,2016-07-09 18:53:00,48.0,,-,38,0.00,29.91,75.0,12:53 PM,,10.0,NW,4.6,320,Boise,Idaho,83701
13,Overcast,2016-07-09 19:53:00,48.9,,-,40,0.00,29.91,75.0,1:53 PM,,10.0,West,5.8,260,Boise,Idaho,83701
14,Overcast,2016-07-09 20:53:00,48.9,,-,37,N/A,29.89,77.0,2:53 PM,,10.0,NE,4.6,50,Boise,Idaho,83701
15,Mostly Cloudy,2016-07-09 21:53:00,43.0,,-,26,N/A,29.84,81.0,3:53 PM,,10.0,NE,9.2,50,Boise,Idaho,83701
16,Clear,2016-07-09 22:53:00,41.0,,-,23,N/A,29.81,82.9,4:53 PM,,10.0,NW,6.9,310,Boise,Idaho,83701
17,Clear,2016-07-09 23:53:00,42.1,,-,23,N/A,29.78,84.0,5:53 PM,,10.0,North,8.1,10,Boise,Idaho,83701
18,Clear,2016-07-10 00:53:00,45.0,,-,26,N/A,29.76,82.9,6:53 PM,,10.0,NW,16.1,310,Boise,Idaho,83701
19,Partly Cloudy,2016-07-10 01:53:00,48.0,,-,32,N/A,29.76,80.1,7:53 PM,,10.0,NW,19.6,310,Boise,Idaho,83701
20,Partly Cloudy,2016-07-10 02:53:00,46.0,,-,33,N/A,29.76,77.0,8:53 PM,,10.0,NW,12.7,310,Boise,Idaho,83701
21,Scattered Clouds,2016-07-10 03:53:00,48.9,,-,42,N/A,29.78,73.0,9:53 PM,,10.0,West,11.5,280,Boise,Idaho,83701
22,Scattered Clouds,2016-07-10 04:53:00,48.9,,-,42,N/A,29.77,73.0,10:53 PM,,10.0,NNW,3.5,340,Boise,Idaho,83701
23,Clear,2016-07-10 05:53:00,48.0,,-,44,N/A,29.75,71.1,11:53 PM,,10.0,NW,8.1,320,Boise,Idaho,83701
0,Clear,2016-07-10 06:53:00,48.0,,-,47,N/A,29.77,69.1,12:53 AM,,10.0,WNW,9.2,290,Boise,Idaho,83701
1,Clear,2016-07-10 07:53:00,51.1,,-,61,N/A,29.78,64.9,1:53 AM,,10.0,WSW,3.5,250,Boise,Idaho,83701
2,Partly Cloudy,2016-07-10 08:53:00,52.0,,-,70,N/A,29.77,62.1,2:53 AM,,10.0,West,9.2,260,Boise,Idaho,83701
3,Clear,2016-07-10 09:53:00,51.1,,-,72,N/A,29.78,60.1,3:53 AM,,10.0,West,6.9,280,Boise,Idaho,83701
4,Mostly Cloudy,2016-07-10 10:53:00,51.1,,-,75,N/A,29.78,59.0,4:53 AM,,10.0,WNW,11.5,300,Boise,Idaho,83701
5,Clear,2016-07-10 11:53:00,48.9,,-,72,N/A,29.78,57.9,5:53 AM,,10.0,NW,8.1,310,Boise,Idaho,83701
6,Clear,2016-07-10 12:53:00,50.0,,-,77,N/A,29.81,57.0,6:53 AM,,10.0,West,8.1,270,Boise,Idaho,83701
7,Unknown,2016-07-10 13:28:00,48.0,Thunderstorm,41.4,75,N/A,29.93,55.9,7:28 AM,,5.0,West,29.9,270,Boise,Idaho,83701
8,Light Rain,2016-07-10 13:49:00,48.2,Rain,34.5,88,0.02,29.93,51.8,7:49 AM,,6.0,WNW,25.3,300,Boise,Idaho,83701
9,Light Rain,2016-07-10 13:53:00,48.9,Rain,34.5,89,0.03,29.88,52.0,7:53 AM,,6.0,NW,23.0,310,Boise,Idaho,83701
10,Overcast,2016-07-10 14:53:00,50.0,,-,89,0.01,29.91,53.1,8:53 AM,,10.0,NW,13.8,320,Boise,Idaho,83701
11,Rain,2016-07-10 15:26:00,48.9,Rain,-,89,0.02,29.99,52.0,9:26 AM,,2.5,WNW,10.4,290,Boise,Idaho,83701
12,Rain,2016-07-10 15:35:00,50.0,Rain,-,93,0.05,30.00,52.0,9:35 AM,,3.0,West,8.1,280,Boise,Idaho,83701
13,Rain,2016-07-10 15:53:00,50.0,Rain,-,93,0.10,29.94,52.0,9:53 AM,,3.0,NW,9.2,310,Boise,Idaho,83701
14,Rain,2016-07-10 16:00:00,48.9,Rain,-,89,0.02,29.99,52.0,10:00 AM,,2.5,NNW,9.2,330,Boise,Idaho,83701
15,Light Rain,2016-07-10 16:06:00,50.0,Rain,-,93,0.02,29.98,52.0,10:06 AM,,4.0,North,8.1,350,Boise,Idaho,83701
16,Overcast,2016-07-10 16:53:00,51.1,,-,93,0.06,29.91,53.1,10:53 AM,,10.0,Variable,4.6,0,Boise,Idaho,83701
17,Scattered Clouds,2016-07-10 17:53:00,51.1,,-,81,N/A,29.91,57.0,11:53 AM,,10.0,West,5.8,270,Boise,Idaho,83701
18,Overcast,2016-07-10 18:53:00,48.0,,-,67,N/A,29.93,59.0,12:53 PM,,10.0,NW,4.6,310,Boise,Idaho,83701
19,Light Rain,2016-07-10 19:53:00,48.9,Rain,-,80,0.04,29.94,55.0,1:53 PM,,8.0,North,4.6,350,Boise,Idaho,83701
20,Light Rain,2016-07-10 20:53:00,48.9,Rain,-,74,0.00,29.95,57.0,2:53 PM,,10.0,NW,5.8,310,Boise,Idaho,83701
21,Light Rain,2016-07-10 21:53:00,53.1,Rain,-,87,0.04,29.98,57.0,3:53 PM,,3.0,WNW,15.0,290,Boise,Idaho,83701
22,Light Rain,2016-07-10 22:00:00,51.1,Rain,-,81,0.00,30.01,57.0,4:00 PM,,10.0,WNW,15.0,290,Boise,Idaho,83701
23,Clear,2016-07-10 22:53:00,50.0,,-,77,0.00,29.99,57.0,4:53 PM,,10.0,NNW,15.0,330,Boise,Idaho,83701
24,Overcast,2016-07-10 23:53:00,46.9,,-,77,0.00,30.01,54.0,5:53 PM,,10.0,North,9.2,350,Boise,Idaho,83701
25,Overcast,2016-07-11 00:53:00,46.0,,-,72,0.00,30.00,55.0,6:53 PM,,10.0,NNE,3.5,30,Boise,Idaho,83701
26,Scattered Clouds,2016-07-11 01:53:00,44.1,,-,64,0.00,30.00,55.9,7:53 PM,,10.0,WSW,3.5,240,Boise,Idaho,83701
27,Clear,2016-07-11 02:53:00,46.0,,-,69,N/A,30.00,55.9,8:53 PM,,10.0,West,9.2,280,Boise,Idaho,83701
28,Mostly Cloudy,2016-07-11 03:53:00,46.0,,-,75,N/A,30.02,54.0,9:53 PM,,10.0,Calm,Calm,0,Boise,Idaho,83701
29,Clear,2016-07-11 04:53:00,46.9,,-,77,N/A,30.04,54.0,10:53 PM,,10.0,Calm,Calm,0,Boise,Idaho,83701
30,Clear,2016-07-11 05:53:00,48.0,,-,83,N/A,30.04,53.1,11:53 PM,,10.0,ENE,5.8,60,Boise,Idaho,83701
0,Clear,2016-07-11 06:53:00,46.9,,-,83,N/A,30.04,52.0,12:53 AM,,10.0,ENE,5.8,60,Boise,Idaho,83701
1,Clear,2016-07-11 07:53:00,46.9,,-,86,N/A,30.06,51.1,1:53 AM,,10.0,East,4.6,90,Boise,Idaho,83701
2,Clear,2016-07-11 08:53:00,45.0,,-,83,N/A,30.06,50.0,2:53 AM,,10.0,SE,5.8,140,Boise,Idaho,83701
3,Clear,2016-07-11 09:53:00,45.0,,-,86,N/A,30.08,48.9,3:53 AM,,10.0,ESE,6.9,120,Boise,Idaho,83701
4,Clear,2016-07-11 10:53:00,44.1,,-,90,N/A,30.09,46.9,4:53 AM,,10.0,South,4.6,190,Boise,Idaho,83701
5,Clear,2016-07-11 11:53:00,43.0,,-,86,N/A,30.11,46.9,5:53 AM,,10.0,SSE,4.6,160,Boise,Idaho,83701
6,Clear,2016-07-11 12:53:00,45.0,,-,89,N/A,30.11,48.0,6:53 AM,,10.0,ESE,3.5,110,Boise,Idaho,83701
7,Clear,2016-07-11 13:53:00,46.0,,-,83,N/A,30.12,51.1,7:53 AM,,10.0,Calm,Calm,0,Boise,Idaho,83701
8,Clear,2016-07-11 14:53:00,46.0,,-,72,N/A,30.11,55.0,8:53 AM,,10.0,Calm,Calm,0,Boise,Idaho,83701
9,Clear,2016-07-11 15:53:00,46.0,,-,65,N/A,30.11,57.9,9:53 AM,,10.0,Variable,4.6,0,Boise,Idaho,83701
10,Clear,2016-07-11 16:53:00,44.1,,-,55,N/A,30.10,60.1,10:53 AM,,10.0,NW,4.6,310,Boise,Idaho,83701
11,Clear,2016-07-11 17:53:00,44.1,,-,50,N/A,30.09,63.0,11:53 AM,,10.0,Variable,3.5,0,Boise,Idaho,83701
12,Clear,2016-07-11 18:53:00,39.9,,-,38,N/A,30.07,66.0,12:53 PM,,10.0,NNE,5.8,20,Boise,Idaho,83701
13,Clear,2016-07-11 19:53:00,37.0,,-,33,N/A,30.06,66.9,1:53 PM,,10.0,East,4.6,90,Boise,Idaho,83701
14,Clear,2016-07-11 20:53:00,37.9,,-,31,N/A,30.03,70.0,2:53 PM,,10.0,Variable,5.8,0,Boise,Idaho,83701
15,Clear,2016-07-11 21:53:00,36.0,,-,28,N/A,30.02,71.1,3:53 PM,,10.0,NNW,6.9,340,Boise,Idaho,83701
16,Clear,2016-07-11 22:53:00,33.1,,-,24,N/A,29.99,72.0,4:53 PM,,10.0,Variable,5.8,0,Boise,Idaho,83701
17,Clear,2016-07-11 23:53:00,36.0,,-,25,N/A,29.96,73.9,5:53 PM,,10.0,North,8.1,350,Boise,Idaho,83701
18,Clear,2016-07-12 00:53:00,39.0,,-,28,N/A,29.94,73.9,6:53 PM,,10.0,NW,6.9,320,Boise,Idaho,83701
19,Clear,2016-07-12 01:53:00,37.0,,-,26,N/A,29.93,73.9,7:53 PM,,10.0,NW,9.2,310,Boise,Idaho,83701
20,Clear,2016-07-12 02:53:00,35.1,,-,27,N/A,29.92,71.1,8:53 PM,,10.0,WNW,6.9,300,Boise,Idaho,83701
21,Clear,2016-07-12 03:53:00,37.0,,-,31,N/A,29.91,69.1,9:53 PM,,10.0,West,4.6,280,Boise,Idaho,83701
22,Clear,2016-07-12 04:53:00,41.0,,-,40,N/A,29.91,66.0,10:53 PM,,10.0,NNE,4.6,20,Boise,Idaho,83701
23,Clear,2016-07-12 05:53:00,41.0,,-,48,N/A,29.91,61.0,11:53 PM,,10.0,SSE,4.6,160,Boise,Idaho,83701
0,Clear,2016-07-12 06:53:00,45.0,,-,60,N/A,29.90,59.0,12:53 AM,,10.0,SE,8.1,140,Boise,Idaho,83701
1,Clear,2016-07-12 07:53:00,45.0,,-,62,N/A,29.89,57.9,1:53 AM,,10.0,SE,6.9,140,Boise,Idaho,83701
2,Clear,2016-07-12 08:53:00,46.0,,-,69,N/A,29.88,55.9,2:53 AM,,10.0,North,3.5,350,Boise,Idaho,83701
3,Clear,2016-07-12 09:53:00,44.1,,-,62,N/A,29.88,57.0,3:53 AM,,10.0,Calm,Calm,0,Boise,Idaho,83701
4,Clear,2016-07-12 10:53:00,44.1,,-,64,N/A,29.87,55.9,4:53 AM,,10.0,SE,5.8,130,Boise,Idaho,83701
5,Clear,2016-07-12 11:53:00,43.0,,-,62,N/A,29.88,55.9,5:53 AM,,10.0,SE,8.1,130,Boise,Idaho,83701
6,Clear,2016-07-12 12:53:00,43.0,,-,62,N/A,29.88,55.9,6:53 AM,,10.0,SE,9.2,140,Boise,Idaho,83701
7,Clear,2016-07-12 13:53:00,43.0,,-,52,N/A,29.88,61.0,7:53 AM,,10.0,SE,8.1,140,Boise,Idaho,83701
8,Clear,2016-07-12 14:53:00,42.1,,-,43,N/A,29.89,64.9,8:53 AM,,10.0,ESE,3.5,110,Boise,Idaho,83701
9,Clear,2016-07-12 15:53:00,46.0,,-,47,N/A,29.89,66.9,9:53 AM,,10.0,NW,5.8,310,Boise,Idaho,83701
10,Clear,2016-07-12 16:53:00,44.1,,-,38,N/A,29.88,71.1,10:53 AM,,10.0,Variable,4.6,0,Boise,Idaho,83701
11,Clear,2016-07-12 17:53:00,39.0,,-,26,N/A,29.87,75.9,11:53 AM,,10.0,Calm,Calm,0,Boise,Idaho,83701
12,Clear,2016-07-12 18:53:00,39.9,,-,25,N/A,29.86,79.0,12:53 PM,,10.0,North,-9999.0,0,Boise,Idaho,83701
13,Clear,2016-07-12 19:53:00,43.0,,19.6,27,N/A,29.86,80.1,1:53 PM,,10.0,WNW,9.2,300,Boise,Idaho,83701
14,Clear,2016-07-12 20:53:00,41.0,,-,24,N/A,29.85,81.0,2:53 PM,,10.0,North,-9999.0,0,Boise,Idaho,83701
15,Clear,2016-07-12 21:53:00,36.0,,-,19,N/A,29.83,82.0,3:53 PM,,10.0,Variable,6.9,0,Boise,Idaho,83701
16,Clear,2016-07-12 22:53:00,35.1,,-,18,N/A,29.83,82.9,4:53 PM,,10.0,NW,10.4,310,Boise,Idaho,83701
17,Partly Cloudy,2016-07-12 23:53:00,37.0,,-,20,N/A,29.83,82.0,5:53 PM,,10.0,WNW,13.8,300,Boise,Idaho,83701
18,Mostly Cloudy,2016-07-13 00:22:00,39.0,,31.1,23,N/A,29.89,80.1,6:22 PM,,10.0,North,20.7,360,Boise,Idaho,83701
19,Clear,2016-07-13 00:53:00,39.0,,-,23,N/A,29.83,80.1,6:53 PM,,10.0,North,16.1,10,Boise,Idaho,83701
20,Clear,2016-07-13 01:53:00,37.9,,21.9,23,N/A,29.85,79.0,7:53 PM,,10.0,NNW,17.3,330,Boise,Idaho,83701
21,Clear,2016-07-13 02:53:00,39.0,,-,25,N/A,29.88,77.0,8:53 PM,,10.0,NNW,11.5,330,Boise,Idaho,83701
22,Clear,2016-07-13 03:53:00,39.9,,-,31,N/A,29.92,72.0,9:53 PM,,10.0,NW,9.2,310,Boise,Idaho,83701
23,Clear,2016-07-13 04:53:00,39.9,,-,35,N/A,29.95,69.1,10:53 PM,,10.0,NNW,9.2,340,Boise,Idaho,83701
24,Clear,2016-07-13 05:53:00,41.0,,-,39,N/A,29.97,66.9,11:53 PM,,10.0,NW,9.2,310,Boise,Idaho,83701
0,Clear,2016-07-13 06:53:00,43.0,,-,48,N/A,29.99,63.0,12:53 AM,,10.0,West,6.9,260,Boise,Idaho,83701
1,Clear,2016-07-13 07:53:00,45.0,,-,60,N/A,30.01,59.0,1:53 AM,,10.0,WNW,6.9,290,Boise,Idaho,83701
2,Clear,2016-07-13 08:53:00,45.0,,-,62,N/A,30.03,57.9,2:53 AM,,10.0,West,4.6,270,Boise,Idaho,83701
3,Clear,2016-07-13 09:53:00,45.0,,-,67,N/A,30.04,55.9,3:53 AM,,10.0,West,3.5,260,Boise,Idaho,83701
4,Clear,2016-07-13 10:53:00,46.0,,-,75,N/A,30.06,54.0,4:53 AM,,10.0,Calm,Calm,0,Boise,Idaho,83701
5,Clear,2016-07-13 11:53:00,46.0,,-,75,N/A,30.08,54.0,5:53 AM,,10.0,Calm,Calm,0,Boise,Idaho,83701
6,Clear,2016-07-13 12:53:00,46.0,,-,77,N/A,30.10,53.1,6:53 AM,,9.0,SW,3.5,230,Boise,Idaho,83701
7,Clear,2016-07-13 13:53:00,46.9,,-,72,N/A,30.12,55.9,7:53 AM,,10.0,SSW,4.6,210,Boise,Idaho,83701
8,Clear,2016-07-13 14:53:00,46.9,,-,64,N/A,30.14,59.0,8:53 AM,,10.0,Calm,Calm,0,Boise,Idaho,83701
9,Clear,2016-07-13 15:53:00,46.9,,-,54,N/A,30.15,64.0,9:53 AM,,10.0,North,3.5,350,Boise,Idaho,83701
10,Clear,2016-07-13 16:53:00,45.0,,-,43,N/A,30.14,68.0,10:53 AM,,10.0,Variable,3.5,0,Boise,Idaho,83701
11,Clear,2016-07-13 17:53:00,44.1,,-,37,N/A,30.13,72.0,11:53 AM,,10.0,WNW,6.9,290,Boise,Idaho,83701
12,Clear,2016-07-13 18:53:00,39.0,,-,26,N/A,30.12,75.9,12:53 PM,,10.0,NNW,8.1,330,Boise,Idaho,83701
13,Clear,2016-07-13 19:53:00,39.0,,-,25,N/A,30.12,78.1,1:53 PM,,10.0,WNW,8.1,290,Boise,Idaho,83701
14,Clear,2016-07-13 20:53:00,39.0,,-,24,N/A,30.10,79.0,2:53 PM,,10.0,Variable,3.5,0,Boise,Idaho,83701
15,Clear,2016-07-13 21:53:00,39.0,,-,23,N/A,30.09,80.1,3:53 PM,,10.0,NW,11.5,310,Boise,Idaho,83701
16,Clear,2016-07-13 22:53:00,37.0,,-,20,N/A,30.07,82.0,4:53 PM,,10.0,NW,9.2,310,Boise,Idaho,83701
17,Clear,2016-07-13 23:53:00,35.1,,-,18,N/A,30.06,82.0,5:53 PM,,10.0,NW,10.4,310,Boise,Idaho,83701
18,Clear,2016-07-14 00:53:00,37.0,,-,19,N/A,30.04,82.9,6:53 PM,,10.0,NNW,9.2,340,Boise,Idaho,83701
19,Clear,2016-07-14 01:53:00,36.0,,-,19,N/A,30.04,82.0,7:53 PM,,10.0,NW,10.4,310,Boise,Idaho,83701
20,Clear,2016-07-14 02:53:00,37.9,,-,24,N/A,30.04,78.1,8:53 PM,,10.0,NNW,9.2,330,Boise,Idaho,83701
21,Clear,2016-07-14 03:53:00,39.0,,-,27,N/A,30.04,75.0,9:53 PM,,10.0,WNW,3.5,290,Boise,Idaho,83701
22,Clear,2016-07-14 04:53:00,42.1,,-,34,N/A,30.05,72.0,10:53 PM,,10.0,North,3.5,350,Boise,Idaho,83701
23,Clear,2016-07-14 05:53:00,39.9,,-,40,N/A,30.05,64.9,11:53 PM,,10.0,SSE,5.8,150,Boise,Idaho,83701
0,Clear,2016-07-14 06:53:00,37.0,,-,38,N/A,30.04,63.0,12:53 AM,,10.0,South,4.6,190,Boise,Idaho,83701
1,Clear,2016-07-14 07:53:00,43.0,,-,50,N/A,30.04,62.1,1:53 AM,,10.0,SSW,4.6,200,Boise,Idaho,83701
2,Clear,2016-07-14 08:53:00,42.1,,-,46,N/A,30.04,63.0,2:53 AM,,10.0,SSE,3.5,150,Boise,Idaho,83701
3,Clear,2016-07-14 09:53:00,39.0,,-,41,N/A,30.04,63.0,3:53 AM,,10.0,SE,6.9,130,Boise,Idaho,83701
4,Clear,2016-07-14 10:53:00,36.0,,-,38,N/A,30.05,62.1,4:53 AM,,10.0,SSE,8.1,160,Boise,Idaho,83701
5,Clear,2016-07-14 11:53:00,36.0,,-,38,N/A,30.06,62.1,5:53 AM,,10.0,SE,10.4,140,Boise,Idaho,83701
6,Clear,2016-07-14 12:53:00,37.0,,-,46,N/A,30.07,57.9,6:53 AM,,10.0,South,3.5,180,Boise,Idaho,83701
7,Clear,2016-07-14 13:53:00,39.0,,-,43,N/A,30.08,62.1,7:53 AM,,10.0,South,3.5,170,Boise,Idaho,83701
8,Clear,2016-07-14 14:53:00,39.0,,-,36,N/A,30.09,66.9,8:53 AM,,10.0,East,3.5,80,Boise,Idaho,83701
9,Clear,2016-07-14 15:53:00,41.0,,-,34,N/A,30.09,71.1,9:53 AM,,10.0,Calm,Calm,0,Boise,Idaho,83701
10,Clear,2016-07-14 16:53:00,42.1,,-,31,N/A,30.09,75.0,10:53 AM,,10.0,Calm,Calm,0,Boise,Idaho,83701
11,Clear,2016-07-14 17:53:00,42.1,,-,28,N/A,30.09,78.1,11:53 AM,,10.0,WNW,8.1,300,Boise,Idaho,83701
12,Clear,2016-07-14 18:53:00,42.1,,-,24,N/A,30.07,82.0,12:53 PM,,10.0,West,6.9,270,Boise,Idaho,83701
13,Clear,2016-07-14 19:53:00,41.0,,-,20,N/A,30.04,86.0,1:53 PM,,10.0,NW,8.1,310,Boise,Idaho,83701
14,Clear,2016-07-14 20:53:00,36.0,,-,16,N/A,30.01,88.0,2:53 PM,,10.0,WNW,12.7,300,Boise,Idaho,83701
15,Clear,2016-07-14 21:53:00,37.0,,-,15,N/A,29.98,91.0,3:53 PM,,10.0,North,10.4,350,Boise,Idaho,83701
16,Clear,2016-07-14 22:53:00,33.1,,-,13,N/A,29.96,91.0,4:53 PM,,10.0,NW,12.7,310,Boise,Idaho,83701
17,Clear,2016-07-14 23:53:00,30.9,,19.6,12,N/A,29.94,90.0,5:53 PM,,10.0,NNW,8.1,330,Boise,Idaho,83701
18,Clear,2016-07-15 00:53:00,30.0,,-,11,N/A,29.92,91.0,6:53 PM,,10.0,NNW,11.5,330,Boise,Idaho,83701
19,Clear,2016-07-15 01:53:00,32.0,,-,13,N/A,29.90,90.0,7:53 PM,,10.0,NW,9.2,320,Boise,Idaho,83701
20,Clear,2016-07-15 02:53:00,33.1,,-,15,N/A,29.88,87.1,8:53 PM,,10.0,NNW,4.6,330,Boise,Idaho,83701
21,Clear,2016-07-15 03:53:00,37.9,,-,22,N/A,29.88,80.1,9:53 PM,,10.0,SW,4.6,220,Boise,Idaho,83701
22,Clear,2016-07-15 04:53:00,37.0,,-,24,N/A,29.89,77.0,10:53 PM,,10.0,ESE,3.5,110,Boise,Idaho,83701
23,Clear,2016-07-15 05:53:00,36.0,,-,26,N/A,29.88,73.0,11:53 PM,,10.0,SE,5.8,130,Boise,Idaho,83701
0,Clear,2016-07-15 06:53:00,37.0,,-,30,N/A,29.89,70.0,12:53 AM,,10.0,ESE,5.8,110,Boise,Idaho,83701
1,Clear,2016-07-15 07:53:00,37.9,,-,32,N/A,29.88,69.1,1:53 AM,,10.0,SE,6.9,130,Boise,Idaho,83701
2,Clear,2016-07-15 08:53:00,37.9,,-,33,N/A,29.88,68.0,2:53 AM,,10.0,SE,9.2,140,Boise,Idaho,83701
3,Clear,2016-07-15 09:53:00,37.0,,-,33,N/A,29.88,66.9,3:53 AM,,10.0,SSE,5.8,150,Boise,Idaho,83701
4,Clear,2016-07-15 10:53:00,37.9,,-,37,N/A,29.89,64.9,4:53 AM,,10.0,SSE,4.6,150,Boise,Idaho,83701
5,Clear,2016-07-15 11:53:00,37.9,,-,38,N/A,29.89,64.0,5:53 AM,,10.0,SSE,8.1,160,Boise,Idaho,83701
6,Clear,2016-07-15 12:53:00,39.9,,-,43,N/A,29.90,63.0,6:53 AM,,10.0,South,5.8,190,Boise,Idaho,83701
7,Clear,2016-07-15 13:53:00,45.0,,-,48,N/A,29.91,64.9,7:53 AM,,10.0,SSE,3.5,160,Boise,Idaho,83701
8,Clear,2016-07-15 14:53:00,45.0,,-,43,N/A,29.91,68.0,8:53 AM,,10.0,Variable,3.5,0,Boise,Idaho,83701
9,Clear,2016-07-15 15:53:00,46.9,,-,42,N/A,29.92,71.1,9:53 AM,,10.0,WNW,4.6,300,Boise,Idaho,83701
10,Clear,2016-07-15 16:53:00,46.0,,-,36,N/A,29.91,75.0,10:53 AM,,10.0,West,8.1,280,Boise,Idaho,83701
11,Clear,2016-07-15 17:53:00,43.0,,-,28,N/A,29.90,79.0,11:53 AM,,10.0,NNW,12.7,330,Boise,Idaho,83701
12,Clear,2016-07-15 18:53:00,39.9,,-,22,N/A,29.88,82.9,12:53 PM,,10.0,NW,13.8,310,Boise,Idaho,83701
13,Clear,2016-07-15 19:53:00,37.9,,-,18,N/A,29.86,86.0,1:53 PM,,10.0,NW,16.1,320,Boise,Idaho,83701
14,Clear,2016-07-15 20:53:00,34.0,,-,15,N/A,29.84,88.0,2:53 PM,,10.0,NNW,16.1,330,Boise,Idaho,83701
15,Clear,2016-07-15 21:53:00,35.1,,-,15,N/A,29.82,89.1,3:53 PM,,10.0,NNW,17.3,340,Boise,Idaho,83701
16,Clear,2016-07-15 22:53:00,32.0,,-,13,N/A,29.80,89.1,4:53 PM,,10.0,NNW,13.8,340,Boise,Idaho,83701
17,Clear,2016-07-15 23:53:00,30.0,,-,12,N/A,29.78,89.1,5:53 PM,,10.0,North,16.1,360,Boise,Idaho,83701
18,Clear,2016-07-16 00:53:00,27.0,,-,11,N/A,29.76,89.1,6:53 PM,,10.0,North,11.5,360,Boise,Idaho,83701
19,Clear,2016-07-16 01:53:00,28.0,,-,12,N/A,29.75,88.0,7:53 PM,,10.0,NNW,10.4,330,Boise,Idaho,83701
20,Clear,2016-07-16 02:53:00,28.0,,-,13,N/A,29.75,84.0,8:53 PM,,10.0,NW,15.0,320,Boise,Idaho,83701
21,Clear,2016-07-16 03:53:00,34.0,,-,20,N/A,29.77,79.0,9:53 PM,,10.0,NW,10.4,310,Boise,Idaho,83701
22,Clear,2016-07-16 04:53:00,30.9,,-,19,N/A,29.80,75.9,10:53 PM,,10.0,NNW,11.5,330,Boise,Idaho,83701
23,Clear,2016-07-16 05:53:00,30.9,,-,21,N/A,29.81,73.0,11:53 PM,,10.0,WNW,10.4,300,Boise,Idaho,83701
0,Clear,2016-07-16 06:53:00,35.1,,-,28,N/A,29.82,70.0,12:53 AM,,10.0,West,11.5,280,Boise,Idaho,83701
1,Clear,2016-07-16 07:53:00,37.9,,-,36,N/A,29.83,66.0,1:53 AM,,10.0,North,-9999.0,0,Boise,Idaho,83701
2,Clear,2016-07-16 08:53:00,37.9,,-,41,N/A,29.84,62.1,2:53 AM,,10.0,SW,4.6,220,Boise,Idaho,83701
3,Clear,2016-07-16 09:53:00,39.0,,-,43,N/A,29.85,62.1,3:53 AM,,10.0,West,9.2,270,Boise,Idaho,83701
4,Clear,2016-07-16 10:53:00,37.9,,-,46,N/A,29.88,59.0,4:53 AM,,10.0,NW,9.2,310,Boise,Idaho,83701
5,Clear,2016-07-16 11:53:00,39.0,,-,51,N/A,29.89,57.0,5:53 AM,,10.0,NNW,6.9,340,Boise,Idaho,83701
6,Clear,2016-07-16 12:53:00,37.9,,-,51,N/A,29.91,55.9,6:53 AM,,10.0,SSE,4.6,160,Boise,Idaho,83701
7,Clear,2016-07-16 13:53:00,39.0,,-,46,N/A,29.92,60.1,7:53 AM,,10.0,Calm,Calm,0,Boise,Idaho,83701
8,Clear,2016-07-16 14:53:00,39.0,,-,43,N/A,29.93,62.1,8:53 AM,,10.0,Calm,Calm,0,Boise,Idaho,83701
9,Clear,2016-07-16 15:53:00,39.9,,-,37,N/A,29.93,66.9,9:53 AM,,10.0,WNW,5.8,290,Boise,Idaho,83701
10,Clear,2016-07-16 16:53:00,41.0,,-,35,N/A,29.93,70.0,10:53 AM,,10.0,NW,6.9,320,Boise,Idaho,83701
11,Clear,2016-07-16 17:53:00,39.0,,19.6,28,N/A,29.91,73.9,11:53 AM,,10.0,NW,10.4,310,Boise,Idaho,83701
12,Clear,2016-07-16 18:53:00,37.9,,-,26,N/A,29.91,75.0,12:53 PM,,10.0,NW,13.8,310,Boise,Idaho,83701
13,Clear,2016-07-16 19:53:00,34.0,,-,20,N/A,29.90,78.1,1:53 PM,,10.0,NW,13.8,320,Boise,Idaho,83701
14,Clear,2016-07-16 20:53:00,34.0,,-,19,N/A,29.88,80.1,2:53 PM,,10.0,NW,15.0,320,Boise,Idaho,83701
15,Clear,2016-07-16 21:53:00,34.0,,-,19,N/A,29.86,80.1,3:53 PM,,10.0,NNW,9.2,330,Boise,Idaho,83701
16,Clear,2016-07-16 22:53:00,32.0,,17.3,17,N/A,29.86,81.0,4:53 PM,,10.0,Variable,6.9,0,Boise,Idaho,83701
17,Clear,2016-07-16 23:53:00,28.9,,20.7,14,N/A,29.83,82.9,5:53 PM,,10.0,NW,11.5,320,Boise,Idaho,83701
18,Clear,2016-07-17 00:53:00,26.1,,-,13,N/A,29.82,82.9,6:53 PM,,10.0,NNW,13.8,340,Boise,Idaho,83701
19,Clear,2016-07-17 01:53:00,25.0,,-,12,N/A,29.81,82.0,7:53 PM,,10.0,NNW,11.5,340,Boise,Idaho,83701
20,Clear,2016-07-17 02:53:00,26.1,,-,14,N/A,29.81,80.1,8:53 PM,,10.0,NW,3.5,320,Boise,Idaho,83701
21,Clear,2016-07-17 03:53:00,28.9,,-,18,N/A,29.80,75.0,9:53 PM,,10.0,NW,6.9,310,Boise,Idaho,83701
22,Clear,2016-07-17 04:53:00,32.0,,-,23,N/A,29.80,72.0,10:53 PM,,10.0,North,4.6,10,Boise,Idaho,83701
23,Clear,2016-07-17 05:53:00,33.1,,-,29,N/A,29.81,66.0,11:53 PM,,10.0,South,8.1,190,Boise,Idaho,83701
0,Clear,2016-07-17 06:53:00,32.0,,-,26,N/A,29.81,68.0,12:53 AM,,10.0,South,5.8,180,Boise,Idaho,83701
1,Clear,2016-07-17 07:53:00,33.1,,-,31,N/A,29.82,64.9,1:53 AM,,10.0,ESE,5.8,110,Boise,Idaho,83701
2,Clear,2016-07-17 08:53:00,35.1,,-,35,N/A,29.81,63.0,2:53 AM,,10.0,SE,5.8,130,Boise,Idaho,83701
3,Clear,2016-07-17 09:53:00,36.0,,-,38,N/A,29.81,62.1,3:53 AM,,10.0,SE,9.2,130,Boise,Idaho,83701
4,Clear,2016-07-17 10:53:00,35.1,,-,39,N/A,29.82,60.1,4:53 AM,,10.0,South,8.1,180,Boise,Idaho,83701
5,Clear,2016-07-17 11:53:00,35.1,,-,41,N/A,29.82,59.0,5:53 AM,,10.0,South,5.8,170,Boise,Idaho,83701
6,Clear,2016-07-17 12:53:00,35.1,,-,38,N/A,29.83,61.0,6:53 AM,,10.0,South,10.4,170,Boise,Idaho,83701
7,Clear,2016-07-17 13:53:00,36.0,,-,37,N/A,29.83,63.0,7:53 AM,,10.0,Calm,Calm,0,Boise,Idaho,83701
8,Clear,2016-07-17 14:53:00,37.0,,-,32,N/A,29.83,68.0,8:53 AM,,10.0,Calm,Calm,0,Boise,Idaho,83701
9,Clear,2016-07-17 15:53:00,39.0,,-,31,N/A,29.84,71.1,9:53 AM,,10.0,Calm,Calm,0,Boise,Idaho,83701
10,Clear,2016-07-17 16:53:00,37.9,,-,25,N/A,29.82,75.9,10:53 AM,,10.0,Variable,3.5,0,Boise,Idaho,83701
11,Clear,2016-07-17 17:53:00,35.1,,-,20,N/A,29.81,79.0,11:53 AM,,10.0,East,5.8,80,Boise,Idaho,83701
12,Clear,2016-07-17 18:53:00,28.0,,-,13,N/A,29.78,84.9,12:53 PM,,10.0,South,11.5,170,Boise,Idaho,83701
13,Clear,2016-07-17 19:53:00,26.1,,18.4,10,N/A,29.76,90.0,1:53 PM,,10.0,South,12.7,190,Boise,Idaho,83701
14,Clear,2016-07-17 20:53:00,24.1,,-,9,N/A,29.73,91.0,2:53 PM,,10.0,East,10.4,100,Boise,Idaho,83701
15,Clear,2016-07-17 21:53:00,24.1,,-,9,N/A,29.71,91.9,3:53 PM,,10.0,SW,4.6,220,Boise,Idaho,83701
16,Clear,2016-07-17 22:53:00,25.0,,-,9,N/A,29.70,91.9,4:53 PM,,10.0,Variable,4.6,0,Boise,Idaho,83701
17,Clear,2016-07-17 23:53:00,26.1,,-,9,N/A,29.68,93.9,5:53 PM,,10.0,WNW,9.2,290,Boise,Idaho,83701
18,Clear,2016-07-18 00:53:00,27.0,,-,9,N/A,29.67,93.9,6:53 PM,,10.0,NNE,8.1,20,Boise,Idaho,83701
19,Clear,2016-07-18 01:53:00,28.9,,-,10,N/A,29.67,93.0,7:53 PM,,10.0,NNW,5.8,340,Boise,Idaho,83701
20,Clear,2016-07-18 02:53:00,30.9,,-,13,N/A,29.68,88.0,8:53 PM,,10.0,NW,6.9,320,Boise,Idaho,83701
21,Clear,2016-07-18 03:53:00,37.0,,-,19,N/A,29.69,82.9,9:53 PM,,10.0,NNW,9.2,330,Boise,Idaho,83701
22,Clear,2016-07-18 04:53:00,39.0,,-,22,N/A,29.69,81.0,10:53 PM,,10.0,West,6.9,280,Boise,Idaho,83701
23,Clear,2016-07-18 05:53:00,41.0,,-,29,N/A,29.68,75.9,11:53 PM,,10.0,Calm,Calm,0,Boise,Idaho,83701
0,Clear,2016-07-18 06:53:00,46.0,,-,41,N/A,29.68,71.1,12:53 AM,,10.0,SW,6.9,230,Boise,Idaho,83701
1,Clear,2016-07-18 07:53:00,48.9,,-,54,N/A,29.73,66.0,1:53 AM,,10.0,SSW,4.6,210,Boise,Idaho,83701
2,Clear,2016-07-18 08:53:00,48.0,,-,52,N/A,29.74,66.0,2:53 AM,,10.0,Calm,Calm,0,Boise,Idaho,83701
3,Clear,2016-07-18 09:53:00,46.9,,-,52,N/A,29.75,64.9,3:53 AM,,10.0,Calm,Calm,0,Boise,Idaho,83701
4,Clear,2016-07-18 10:53:00,46.0,,-,52,N/A,29.78,64.0,4:53 AM,,10.0,Calm,Calm,0,Boise,Idaho,83701
5,Clear,2016-07-18 11:53:00,45.0,,-,50,N/A,29.79,64.0,5:53 AM,,10.0,SSW,3.5,210,Boise,Idaho,83701
6,Clear,2016-07-18 12:53:00,46.0,,-,54,N/A,29.82,63.0,6:53 AM,,10.0,South,4.6,190,Boise,Idaho,83701
7,Clear,2016-07-18 13:53:00,45.0,,-,47,N/A,29.83,66.0,7:53 AM,,10.0,ESE,5.8,120,Boise,Idaho,83701
8,Clear,2016-07-18 14:53:00,39.9,,-,31,N/A,29.85,72.0,8:53 AM,,10.0,South,5.8,170,Boise,Idaho,83701
9,Clear,2016-07-18 15:53:00,41.0,,-,27,N/A,29.86,78.1,9:53 AM,,10.0,Calm,Calm,0,Boise,Idaho,83701
10,Clear,2016-07-18 16:53:00,42.1,,-,24,N/A,29.85,82.0,10:53 AM,,10.0,Calm,Calm,0,Boise,Idaho,83701
11,Clear,2016-07-18 17:53:00,37.0,,-,18,N/A,29.86,84.9,11:53 AM,,10.0,North,-9999.0,0,Boise,Idaho,83701
12,Clear,2016-07-18 18:53:00,33.1,,-,14,N/A,29.85,88.0,12:53 PM,,10.0,North,-9999.0,0,Boise,Idaho,83701
13,Clear,2016-07-18 19:53:00,32.0,,-,13,N/A,29.84,89.1,1:53 PM,,10.0,NNW,5.8,340,Boise,Idaho,83701
14,Clear,2016-07-18 20:53:00,30.0,,-,11,N/A,29.82,91.9,2:53 PM,,10.0,WNW,12.7,290,Boise,Idaho,83701
15,Clear,2016-07-18 21:53:00,28.9,,-,11,N/A,29.80,91.9,3:53 PM,,10.0,West,8.1,280,Boise,Idaho,83701
16,Clear,2016-07-18 22:53:00,26.1,,-,9,N/A,29.78,93.9,4:53 PM,,10.0,NW,6.9,320,Boise,Idaho,83701
17,Clear,2016-07-18 23:53:00,26.1,,-,9,N/A,29.77,93.9,5:53 PM,,10.0,West,10.4,280,Boise,Idaho,83701
18,Clear,2016-07-19 00:53:00,27.0,,-,9,N/A,29.76,93.9,6:53 PM,,10.0,NNW,6.9,330,Boise,Idaho,83701
19,Clear,2016-07-19 01:53:00,27.0,,-,10,N/A,29.76,91.9,7:53 PM,,10.0,North,5.8,360,Boise,Idaho,83701
20,Clear,2016-07-19 02:53:00,28.9,,-,12,N/A,29.75,89.1,8:53 PM,,10.0,North,3.5,350,Boise,Idaho,83701
21,Clear,2016-07-19 03:53:00,27.0,,-,11,N/A,29.76,87.1,9:53 PM,,10.0,Calm,Calm,0,Boise,Idaho,83701
22,Clear,2016-07-19 04:53:00,33.1,,-,19,N/A,29.80,79.0,10:53 PM,,10.0,NW,4.6,310,Boise,Idaho,83701
23,Clear,2016-07-19 05:53:00,45.0,,-,35,N/A,29.83,73.9,11:53 PM,,10.0,NW,15.0,320,Boise,Idaho,83701
0,Clear,2016-07-19 06:53:00,46.9,,-,41,N/A,29.85,72.0,12:53 AM,,10.0,West,12.7,280,Boise,Idaho,83701
1,Clear,2016-07-19 07:53:00,46.0,,-,47,N/A,29.88,66.9,1:53 AM,,10.0,WNW,6.9,300,Boise,Idaho,83701
2,Clear,2016-07-19 08:53:00,46.0,,-,48,N/A,29.90,66.0,2:53 AM,,10.0,West,6.9,270,Boise,Idaho,83701
3,Clear,2016-07-19 09:53:00,46.0,,-,52,N/A,29.92,64.0,3:53 AM,,10.0,NW,4.6,310,Boise,Idaho,83701
4,Clear,2016-07-19 10:53:00,45.0,,-,53,N/A,29.94,62.1,4:53 AM,,10.0,South,3.5,170,Boise,Idaho,83701
5,Clear,2016-07-19 11:53:00,45.0,,-,57,N/A,29.95,60.1,5:53 AM,,10.0,SE,4.6,140,Boise,Idaho,83701
6,Clear,2016-07-19 12:53:00,39.9,,-,51,N/A,29.96,57.9,6:53 AM,,10.0,ESE,4.6,120,Boise,Idaho,83701
7,Clear,2016-07-19 13:53:00,39.9,,-,44,N/A,29.97,62.1,7:53 AM,,10.0,SE,4.6,140,Boise,Idaho,83701
8,Clear,2016-07-19 14:53:00,43.0,,-,42,N/A,29.98,66.9,8:53 AM,,10.0,Calm,Calm,0,Boise,Idaho,83701
9,Clear,2016-07-19 15:53:00,46.0,,-,40,N/A,29.97,72.0,9:53 AM,,10.0,Variable,3.5,0,Boise,Idaho,83701
10,Clear,2016-07-19 16:53:00,48.0,,-,36,N/A,29.97,77.0,10:53 AM,,10.0,North,6.9,10,Boise,Idaho,83701
11,Clear,2016-07-19 17:53:00,45.0,,-,29,N/A,29.96,80.1,11:53 AM,,10.0,Variable,3.5,0,Boise,Idaho,83701
12,Clear,2016-07-19 18:53:00,39.9,,-,21,N/A,29.95,84.0,12:53 PM,,10.0,Variable,3.5,0,Boise,Idaho,83701
13,Clear,2016-07-19 19:53:00,35.1,,-,15,N/A,29.93,88.0,1:53 PM,,10.0,North,6.9,10,Boise,Idaho,83701
14,Clear,2016-07-19 20:53:00,32.0,,-,13,N/A,29.91,89.1,2:53 PM,,10.0,WNW,6.9,300,Boise,Idaho,83701
15,Clear,2016-07-19 21:53:00,30.9,,-,12,N/A,29.90,90.0,3:53 PM,,10.0,North,11.5,10,Boise,Idaho,83701
16,Clear,2016-07-19 22:53:00,30.9,,-,11,N/A,29.87,91.9,4:53 PM,,10.0,NNW,9.2,340,Boise,Idaho,83701
17,Clear,2016-07-19 23:53:00,30.0,,18.4,11,N/A,29.86,91.0,5:53 PM,,10.0,North,9.2,360,Boise,Idaho,83701
18,Clear,2016-07-20 00:53:00,28.0,,-,11,N/A,29.85,90.0,6:53 PM,,10.0,NNW,10.4,330,Boise,Idaho,83701
19,Clear,2016-07-20 01:53:00,30.0,,-,12,N/A,29.83,89.1,7:53 PM,,10.0,NNW,9.2,340,Boise,Idaho,83701
20,Clear,2016-07-20 02:53:00,34.0,,-,16,N/A,29.83,84.9,8:53 PM,,10.0,NNW,8.1,330,Boise,Idaho,83701
21,Clear,2016-07-20 03:53:00,33.1,,-,18,N/A,29.83,80.1,9:53 PM,,10.0,NW,6.9,320,Boise,Idaho,83701
22,Clear,2016-07-20 04:53:00,34.0,,-,20,N/A,29.84,79.0,10:53 PM,,10.0,West,3.5,260,Boise,Idaho,83701
23,Clear,2016-07-20 05:53:00,39.0,,-,29,N/A,29.85,73.0,11:53 PM,,10.0,West,6.9,270,Boise,Idaho,83701
0,Clear,2016-07-20 06:53:00,46.0,,-,44,N/A,29.86,69.1,12:53 AM,,10.0,West,4.6,260,Boise,Idaho,83701
1,Clear,2016-07-20 07:53:00,46.9,,-,54,N/A,29.88,64.0,1:53 AM,,10.0,Calm,Calm,0,Boise,Idaho,83701
2,Clear,2016-07-20 08:53:00,46.9,,-,54,N/A,29.90,64.0,2:53 AM,,10.0,West,6.9,280,Boise,Idaho,83701
3,Clear,2016-07-20 09:53:00,46.0,,-,54,N/A,29.92,63.0,3:53 AM,,10.0,West,4.6,280,Boise,Idaho,83701
4,Clear,2016-07-20 10:53:00,46.0,,-,58,N/A,29.93,61.0,4:53 AM,,10.0,NW,4.6,310,Boise,Idaho,83701
5,Clear,2016-07-20 11:53:00,46.9,,-,60,N/A,29.94,61.0,5:53 AM,,10.0,Calm,Calm,0,Boise,Idaho,83701
6,Clear,2016-07-20 12:53:00,46.9,,-,62,N/A,29.96,60.1,6:53 AM,,10.0,Calm,Calm,0,Boise,Idaho,83701
7,Clear,2016-07-20 13:53:00,48.0,,-,60,N/A,29.99,62.1,7:53 AM,,10.0,Calm,Calm,0,Boise,Idaho,83701
8,Clear,2016-07-20 14:53:00,48.0,,-,52,N/A,30.00,66.0,8:53 AM,,10.0,NW,3.5,320,Boise,Idaho,83701
9,Clear,2016-07-20 15:53:00,48.0,,-,46,N/A,30.01,70.0,9:53 AM,,10.0,NW,8.1,320,Boise,Idaho,83701
10,Clear,2016-07-20 16:53:00,48.9,,-,41,N/A,30.01,73.9,10:53 AM,,10.0,NW,8.1,320,Boise,Idaho,83701
11,Clear,2016-07-20 17:53:00,50.0,,-,36,N/A,30.02,79.0,11:53 AM,,10.0,NW,6.9,320,Boise,Idaho,83701
12,Clear,2016-07-20 18:53:00,48.0,,-,31,N/A,30.01,81.0,12:53 PM,,10.0,NNW,9.2,330,Boise,Idaho,83701
13,Clear,2016-07-20 19:53:00,45.0,,-,25,N/A,30.00,84.0,1:53 PM,,10.0,NW,4.6,320,Boise,Idaho,83701
14,Clear,2016-07-20 20:53:00,39.9,,-,18,N/A,29.97,88.0,2:53 PM,,10.0,Variable,4.6,0,Boise,Idaho,83701
15,Clear,2016-07-20 21:53:00,37.9,,-,16,N/A,29.96,90.0,3:53 PM,,10.0,NNW,8.1,340,Boise,Idaho,83701
16,Clear,2016-07-20 22:53:00,37.0,,-,16,N/A,29.95,89.1,4:53 PM,,10.0,North,-9999.0,0,Boise,Idaho,83701
17,Clear,2016-07-20 23:53:00,36.0,,-,14,N/A,29.93,91.0,5:53 PM,,10.0,NE,6.9,50,Boise,Idaho,83701
18,Clear,2016-07-21 00:53:00,34.0,,-,14,N/A,29.91,90.0,6:53 PM,,10.0,NNW,9.2,340,Boise,Idaho,83701
19,Clear,2016-07-21 01:53:00,36.0,,-,15,N/A,29.90,90.0,7:53 PM,,10.0,North,6.9,350,Boise,Idaho,83701
20,Clear,2016-07-21 02:53:00,35.1,,-,16,N/A,29.90,87.1,8:53 PM,,10.0,North,5.8,360,Boise,Idaho,83701
21,Clear,2016-07-21 03:53:00,36.0,,-,19,N/A,29.91,82.0,9:53 PM,,10.0,NNW,3.5,330,Boise,Idaho,83701
22,Clear,2016-07-21 04:53:00,37.9,,-,24,N/A,29.92,78.1,10:53 PM,,10.0,SE,3.5,130,Boise,Idaho,83701
23,Clear,2016-07-21 05:53:00,37.0,,-,26,N/A,29.91,73.9,11:53 PM,,10.0,South,3.5,180,Boise,Idaho,83701
0,Clear,2016-07-21 06:53:00,37.0,,-,27,N/A,29.92,73.0,12:53 AM,,10.0,SE,5.8,130,Boise,Idaho,83701
1,Clear,2016-07-21 07:53:00,37.0,,-,28,N/A,29.91,72.0,1:53 AM,,10.0,ESE,5.8,120,Boise,Idaho,83701
2,Clear,2016-07-21 08:53:00,37.0,,-,30,N/A,29.91,70.0,2:53 AM,,10.0,SE,10.4,140,Boise,Idaho,83701
3,Clear,2016-07-21 09:53:00,41.0,,-,40,N/A,29.93,66.0,3:53 AM,,10.0,NNE,3.5,20,Boise,Idaho,83701
4,Clear,2016-07-21 10:53:00,39.9,,-,38,N/A,29.93,66.0,4:53 AM,,10.0,ESE,3.5,120,Boise,Idaho,83701
5,Clear,2016-07-21 11:53:00,37.0,,-,36,N/A,29.94,64.9,5:53 AM,,10.0,SSE,4.6,150,Boise,Idaho,83701
6,Clear,2016-07-21 12:53:00,37.0,,-,34,N/A,29.95,66.0,6:53 AM,,10.0,Calm,Calm,0,Boise,Idaho,83701
7,Clear,2016-07-21 13:53:00,37.9,,-,33,N/A,29.98,68.0,7:53 AM,,10.0,SSW,5.8,200,Boise,Idaho,83701
8,Clear,2016-07-21 14:53:00,39.9,,-,31,N/A,29.98,72.0,8:53 AM,,10.0,East,5.8,100,Boise,Idaho,83701
9,Clear,2016-07-21 15:53:00,39.0,,-,25,N/A,29.97,78.1,9:53 AM,,10.0,Calm,Calm,0,Boise,Idaho,83701
10,Clear,2016-07-21 16:53:00,43.0,,-,25,N/A,29.97,82.0,10:53 AM,,10.0,NNE,5.8,20,Boise,Idaho,83701
11,Clear,2016-07-21 17:53:00,39.0,,-,18,N/A,29.96,88.0,11:53 AM,,10.0,Variable,3.5,0,Boise,Idaho,83701
12,Clear,2016-07-21 18:53:00,39.0,,-,16,N/A,29.93,91.9,12:53 PM,,10.0,Variable,4.6,0,Boise,Idaho,83701
13,Clear,2016-07-21 19:53:00,37.0,,-,14,N/A,29.91,93.9,1:53 PM,,10.0,Variable,5.8,0,Boise,Idaho,83701
14,Clear,2016-07-21 20:53:00,39.0,,-,14,N/A,29.88,96.1,2:53 PM,,10.0,NW,8.1,310,Boise,Idaho,83701
15,Clear,2016-07-21 21:53:00,37.9,,-,12,N/A,29.86,99.0,3:53 PM,,10.0,North,5.8,10,Boise,Idaho,83701
16,Clear,2016-07-21 22:53:00,36.0,,-,11,N/A,29.84,99.0,4:53 PM,,10.0,NW,9.2,320,Boise,Idaho,83701
17,Clear,2016-07-21 23:53:00,32.0,,-,10,N/A,29.82,99.0,5:53 PM,,10.0,NNW,11.5,340,Boise,Idaho,83701
18,Clear,2016-07-22 00:53:00,28.9,,-,8,N/A,29.79,99.0,6:53 PM,,10.0,NNW,10.4,340,Boise,Idaho,83701
19,Clear,2016-07-22 01:53:00,32.0,,-,10,N/A,29.78,98.1,7:53 PM,,10.0,NNW,6.9,340,Boise,Idaho,83701
20,Clear,2016-07-22 02:53:00,34.0,,-,12,N/A,29.79,93.0,8:53 PM,,10.0,NNW,4.6,330,Boise,Idaho,83701
21,Clear,2016-07-22 03:53:00,37.9,,-,18,N/A,29.81,86.0,9:53 PM,,10.0,West,10.4,260,Boise,Idaho,83701
22,Clear,2016-07-22 04:53:00,43.0,,-,24,N/A,29.82,82.9,10:53 PM,,10.0,SW,5.8,230,Boise,Idaho,83701
23,Clear,2016-07-22 05:53:00,41.0,,-,26,N/A,29.82,79.0,11:53 PM,,10.0,SSW,4.6,210,Boise,Idaho,83701
0,Clear,2016-07-22 06:53:00,39.9,,-,26,N/A,29.84,77.0,12:53 AM,,10.0,Calm,Calm,0,Boise,Idaho,83701
1,Clear,2016-07-22 07:53:00,41.0,,-,29,N/A,29.86,75.0,1:53 AM,,10.0,Calm,Calm,0,Boise,Idaho,83701
2,Clear,2016-07-22 08:53:00,39.0,,-,28,N/A,29.87,73.9,2:53 AM,,10.0,SE,3.5,130,Boise,Idaho,83701
3,Clear,2016-07-22 09:53:00,39.0,,-,31,N/A,29.90,71.1,3:53 AM,,10.0,SE,4.6,130,Boise,Idaho,83701
4,Clear,2016-07-22 10:53:00,37.0,,-,29,N/A,29.91,71.1,4:53 AM,,10.0,Variable,3.5,0,Boise,Idaho,83701
5,Clear,2016-07-22 11:53:00,37.0,,-,27,N/A,29.94,73.0,5:53 AM,,10.0,WNW,4.6,300,Boise,Idaho,83701
6,Clear,2016-07-22 12:53:00,37.9,,-,27,N/A,29.95,73.9,6:53 AM,,10.0,NW,4.6,310,Boise,Idaho,83701
7,Clear,2016-07-22 13:53:00,41.0,,-,29,N/A,29.98,75.0,7:53 AM,,10.0,NNW,3.5,340,Boise,Idaho,83701
8,Clear,2016-07-22 14:53:00,42.1,,-,29,N/A,30.01,77.0,8:53 AM,,10.0,NW,11.5,310,Boise,Idaho,83701
9,Clear,2016-07-22 15:53:00,39.9,,-,25,N/A,30.04,78.1,9:53 AM,,10.0,NNW,10.4,340,Boise,Idaho,83701
10,Clear,2016-07-22 16:53:00,42.1,,-,27,N/A,30.04,79.0,10:53 AM,,10.0,NNW,8.1,330,Boise,Idaho,83701
11,Clear,2016-07-22 17:53:00,43.0,,-,26,N/A,30.04,81.0,11:53 AM,,10.0,NW,5.8,320,Boise,Idaho,83701
12,Clear,2016-07-22 18:53:00,45.0,,17.3,25,N/A,30.03,84.9,12:53 PM,,10.0,NNW,11.5,340,Boise,Idaho,83701
13,Clear,2016-07-22 19:53:00,42.1,,20.7,21,N/A,30.02,86.0,1:53 PM,,10.0,WNW,15.0,290,Boise,Idaho,83701
14,Clear,2016-07-22 20:53:00,44.1,,21.9,22,N/A,30.01,88.0,2:53 PM,,10.0,NW,16.1,310,Boise,Idaho,83701
15,Clear,2016-07-22 21:53:00,42.1,,-,19,N/A,29.99,89.1,3:53 PM,,10.0,NW,12.7,310,Boise,Idaho,83701
16,Clear,2016-07-22 22:53:00,39.0,,20.7,17,N/A,29.98,89.1,4:53 PM,,10.0,NNW,13.8,330,Boise,Idaho,83701
17,Clear,2016-07-22 23:53:00,39.0,,19.6,17,N/A,29.96,90.0,5:53 PM,,10.0,NNW,15.0,330,Boise,Idaho,83701
18,Clear,2016-07-23 00:53:00,37.0,,-,16,N/A,29.94,88.0,6:53 PM,,10.0,NNW,13.8,330,Boise,Idaho,83701
19,Clear,2016-07-23 01:53:00,32.0,,-,14,N/A,29.93,88.0,7:53 PM,,10.0,NNW,12.7,330,Boise,Idaho,83701
20,Clear,2016-07-23 02:53:00,28.9,,-,13,N/A,29.93,84.9,8:53 PM,,10.0,NW,10.4,320,Boise,Idaho,83701
21,Clear,2016-07-23 03:53:00,33.1,,-,19,N/A,29.94,79.0,9:53 PM,,10.0,NNW,5.8,340,Boise,Idaho,83701
22,Clear,2016-07-23 04:53:00,43.0,,-,30,N/A,29.97,77.0,10:53 PM,,10.0,NNW,15.0,340,Boise,Idaho,83701
23,Clear,2016-07-23 05:53:00,42.1,,-,31,N/A,29.99,75.0,11:53 PM,,10.0,NW,10.4,310,Boise,Idaho,83701
0,Clear,2016-07-23 06:53:00,39.9,,-,31,N/A,30.00,72.0,12:53 AM,,10.0,NW,11.5,310,Boise,Idaho,83701
1,Clear,2016-07-23 07:53:00,42.1,,-,39,N/A,30.02,68.0,1:53 AM,,10.0,West,9.2,280,Boise,Idaho,83701
2,Clear,2016-07-23 08:53:00,43.0,,-,45,N/A,30.03,64.9,2:53 AM,,10.0,West,11.5,280,Boise,Idaho,83701
3,Clear,2016-07-23 09:53:00,42.1,,-,46,N/A,30.04,63.0,3:53 AM,,10.0,WNW,10.4,290,Boise,Idaho,83701
4,Clear,2016-07-23 10:53:00,41.0,,-,48,N/A,30.04,61.0,4:53 AM,,10.0,WNW,5.8,290,Boise,Idaho,83701
5,Clear,2016-07-23 11:53:00,41.0,,-,55,N/A,30.06,57.0,5:53 AM,,10.0,Calm,Calm,0,Boise,Idaho,83701
6,Clear,2016-07-23 12:53:00,41.0,,-,55,N/A,30.08,57.0,6:53 AM,,10.0,SSW,3.5,200,Boise,Idaho,83701
7,Clear,2016-07-23 13:53:00,42.1,,-,51,N/A,30.09,60.1,7:53 AM,,10.0,West,4.6,270,Boise,Idaho,83701
8,Clear,2016-07-23 14:53:00,43.0,,-,48,N/A,30.11,63.0,8:53 AM,,10.0,NW,5.8,310,Boise,Idaho,83701
9,Clear,2016-07-23 15:53:00,42.1,,-,42,N/A,30.12,66.0,9:53 AM,,10.0,NW,8.1,320,Boise,Idaho,83701
10,Clear,2016-07-23 16:53:00,44.1,,-,40,N/A,30.12,69.1,10:53 AM,,10.0,NW,8.1,320,Boise,Idaho,83701
11,Clear,2016-07-23 17:53:00,39.9,,-,30,N/A,30.11,73.0,11:53 AM,,10.0,NW,8.1,310,Boise,Idaho,83701
12,Clear,2016-07-23 18:53:00,37.9,,-,25,N/A,30.08,75.9,12:53 PM,,10.0,WNW,5.8,290,Boise,Idaho,83701
13,Clear,2016-07-23 19:53:00,34.0,,-,20,N/A,30.07,79.0,1:53 PM,,10.0,NW,10.4,320,Boise,Idaho,83701
14,Clear,2016-07-23 20:53:00,30.0,,-,15,N/A,30.05,82.0,2:53 PM,,10.0,NW,12.7,310,Boise,Idaho,83701
15,Clear,2016-07-23 21:53:00,24.1,,19.6,12,N/A,30.02,82.0,3:53 PM,,10.0,WNW,15.0,290,Boise,Idaho,83701
16,Clear,2016-07-23 22:53:00,28.9,,19.6,14,N/A,30.00,84.0,4:53 PM,,10.0,North,16.1,350,Boise,Idaho,83701
17,Clear,2016-07-23 23:53:00,21.9,,21.9,10,N/A,30.00,84.9,5:53 PM,,10.0,NNW,13.8,330,Boise,Idaho,83701
18,Clear,2016-07-24 00:53:00,28.0,,-,13,N/A,29.98,84.9,6:53 PM,,10.0,NNW,18.4,330,Boise,Idaho,83701
19,Clear,2016-07-24 01:53:00,32.0,,-,16,N/A,29.96,82.9,7:53 PM,,10.0,NNW,11.5,340,Boise,Idaho,83701
20,Clear,2016-07-24 02:53:00,30.9,,-,16,N/A,29.96,81.0,8:53 PM,,10.0,WNW,8.1,300,Boise,Idaho,83701
21,Clear,2016-07-24 03:53:00,32.0,,-,19,N/A,29.96,78.1,9:53 PM,,10.0,West,3.5,260,Boise,Idaho,83701
22,Clear,2016-07-24 04:53:00,34.0,,-,22,N/A,29.98,75.0,10:53 PM,,10.0,NW,4.6,310,Boise,Idaho,83701
23,Clear,2016-07-24 05:53:00,36.0,,-,28,N/A,29.98,71.1,11:53 PM,,10.0,Calm,Calm,0,Boise,Idaho,83701
0,Clear,2016-07-24 06:53:00,37.0,,-,31,N/A,29.98,69.1,12:53 AM,,10.0,NW,3.5,320,Boise,Idaho,83701
1,Clear,2016-07-24 07:53:00,34.0,,-,32,N/A,29.98,64.9,1:53 AM,,10.0,South,4.6,170,Boise,Idaho,83701
2,Clear,2016-07-24 08:53:00,37.9,,-,38,N/A,29.97,64.0,2:53 AM,,10.0,Calm,Calm,0,Boise,Idaho,83701
3,Clear,2016-07-24 09:53:00,42.1,,-,48,N/A,29.98,62.1,3:53 AM,,10.0,South,3.5,180,Boise,Idaho,83701
4,Clear,2016-07-24 10:53:00,42.1,,-,51,N/A,29.98,60.1,4:53 AM,,10.0,South,3.5,190,Boise,Idaho,83701
5,Clear,2016-07-24 11:53:00,41.0,,-,51,N/A,29.99,59.0,5:53 AM,,10.0,SSW,3.5,210,Boise,Idaho,83701
6,Clear,2016-07-24 12:53:00,39.9,,-,51,N/A,30.00,57.9,6:53 AM,,10.0,Calm,Calm,0,Boise,Idaho,83701
7,Clear,2016-07-24 13:53:00,41.0,,-,46,N/A,30.01,62.1,7:53 AM,,10.0,SSE,3.5,160,Boise,Idaho,83701
8,Clear,2016-07-24 14:53:00,39.9,,-,38,N/A,30.01,66.0,8:53 AM,,10.0,South,3.5,190,Boise,Idaho,83701
9,Clear,2016-07-24 15:53:00,42.1,,-,38,N/A,30.02,69.1,9:53 AM,,10.0,Variable,4.6,0,Boise,Idaho,83701
10,Clear,2016-07-24 16:53:00,42.1,,-,33,N/A,30.02,73.0,10:53 AM,,10.0,WNW,3.5,300,Boise,Idaho,83701
11,Clear,2016-07-24 17:53:00,42.1,,-,27,N/A,30.01,79.0,11:53 AM,,10.0,North,4.6,360,Boise,Idaho,83701
12,Clear,2016-07-24 18:53:00,42.1,,-,24,N/A,30.00,82.0,12:53 PM,,10.0,Variable,4.6,0,Boise,Idaho,83701
13,Clear,2016-07-24 19:53:00,37.9,,-,18,N/A,29.98,86.0,1:53 PM,,10.0,NW,5.8,320,Boise,Idaho,83701
14,Clear,2016-07-24 20:53:00,36.0,,-,15,N/A,29.95,90.0,2:53 PM,,10.0,NW,8.1,320,Boise,Idaho,83701
15,Clear,2016-07-24 21:53:00,33.1,,-,14,N/A,29.94,89.1,3:53 PM,,10.0,North,-9999.0,0,Boise,Idaho,83701
16,Clear,2016-07-24 22:53:00,32.0,,-,12,N/A,29.91,91.0,4:53 PM,,10.0,North,6.9,350,Boise,Idaho,83701
17,Clear,2016-07-24 23:53:00,30.9,,-,11,N/A,29.90,91.9,5:53 PM,,10.0,NW,8.1,320,Boise,Idaho,83701
18,Clear,2016-07-25 00:53:00,30.9,,-,12,N/A,29.88,91.0,6:53 PM,,10.0,NW,6.9,320,Boise,Idaho,83701
19,Clear,2016-07-25 01:53:00,33.1,,-,13,N/A,29.87,90.0,7:53 PM,,10.0,West,10.4,270,Boise,Idaho,83701
20,Clear,2016-07-25 02:53:00,36.0,,-,17,N/A,29.87,86.0,8:53 PM,,10.0,West,5.8,280,Boise,Idaho,83701
21,Clear,2016-07-25 03:53:00,39.9,,-,24,N/A,29.88,80.1,9:53 PM,,10.0,Calm,Calm,0,Boise,Idaho,83701
22,Clear,2016-07-25 04:53:00,39.9,,-,26,N/A,29.88,77.0,10:53 PM,,10.0,Calm,Calm,0,Boise,Idaho,83701
23,Clear,2016-07-25 05:53:00,37.0,,-,24,N/A,29.88,75.9,11:53 PM,,10.0,ESE,4.6,120,Boise,Idaho,83701
0,Clear,2016-07-25 06:53:00,36.0,,-,29,N/A,29.88,70.0,12:53 AM,,10.0,SE,4.6,130,Boise,Idaho,83701
1,Clear,2016-07-25 07:53:00,35.1,,-,29,N/A,29.88,69.1,1:53 AM,,10.0,SE,8.1,130,Boise,Idaho,83701
2,Clear,2016-07-25 08:53:00,34.0,,-,27,N/A,29.88,69.1,2:53 AM,,10.0,ESE,8.1,120,Boise,Idaho,83701
3,Clear,2016-07-25 09:53:00,35.1,,-,31,N/A,29.89,66.9,3:53 AM,,10.0,ESE,8.1,120,Boise,Idaho,83701
4,Clear,2016-07-25 10:53:00,36.0,,-,33,N/A,29.89,66.0,4:53 AM,,10.0,SE,10.4,140,Boise,Idaho,83701
5,Clear,2016-07-25 11:53:00,36.0,,-,34,N/A,29.91,64.9,5:53 AM,,10.0,SSE,6.9,150,Boise,Idaho,83701
6,Clear,2016-07-25 12:53:00,37.0,,-,37,N/A,29.93,64.0,6:53 AM,,10.0,SE,3.5,140,Boise,Idaho,83701
7,Clear,2016-07-25 13:53:00,39.0,,-,35,N/A,29.94,68.0,7:53 AM,,10.0,SE,3.5,130,Boise,Idaho,83701
8,Clear,2016-07-25 14:53:00,42.1,,-,31,N/A,29.94,75.0,8:53 AM,,10.0,Calm,Calm,0,Boise,Idaho,83701
9,Clear,2016-07-25 15:53:00,37.0,,-,22,N/A,29.95,79.0,9:53 AM,,10.0,SSW,5.8,210,Boise,Idaho,83701
10,Clear,2016-07-25 16:53:00,39.0,,-,20,N/A,29.94,84.0,10:53 AM,,10.0,Variable,3.5,0,Boise,Idaho,83701
11,Clear,2016-07-25 17:53:00,41.0,,-,21,N/A,29.94,84.9,11:53 AM,,10.0,West,5.8,270,Boise,Idaho,83701
12,Clear,2016-07-25 18:53:00,41.0,,-,20,N/A,29.93,87.1,12:53 PM,,10.0,Calm,Calm,0,Boise,Idaho,83701
13,Clear,2016-07-25 19:53:00,39.9,,-,16,N/A,29.90,91.9,1:53 PM,,10.0,Variable,5.8,0,Boise,Idaho,83701
14,Clear,2016-07-25 20:53:00,41.0,,-,16,N/A,29.88,93.9,2:53 PM,,10.0,WNW,8.1,300,Boise,Idaho,83701
15,Clear,2016-07-25 21:53:00,37.0,,-,12,N/A,29.86,97.0,3:53 PM,,10.0,NNW,6.9,330,Boise,Idaho,83701
16,Clear,2016-07-25 22:53:00,33.1,,-,10,N/A,29.84,98.1,4:53 PM,,10.0,North,5.8,350,Boise,Idaho,83701
17,Clear,2016-07-25 23:53:00,28.9,,-,8,N/A,29.82,99.0,5:53 PM,,10.0,North,8.1,350,Boise,Idaho,83701
18,Clear,2016-07-26 00:53:00,30.0,,-,9,N/A,29.81,99.0,6:53 PM,,10.0,WNW,6.9,290,Boise,Idaho,83701
19,Clear,2016-07-26 01:53:00,28.0,,-,8,N/A,29.79,98.1,7:53 PM,,10.0,NNW,9.2,330,Boise,Idaho,83701
20,Clear,2016-07-26 02:53:00,32.0,,-,12,N/A,29.79,93.0,8:53 PM,,10.0,North,3.5,10,Boise,Idaho,83701
21,Clear,2016-07-26 03:53:00,34.0,,-,15,N/A,29.79,88.0,9:53 PM,,10.0,Calm,Calm,0,Boise,Idaho,83701
22,Clear,2016-07-26 04:53:00,37.0,,-,19,N/A,29.80,84.0,10:53 PM,,10.0,Calm,Calm,0,Boise,Idaho,83701
23,Clear,2016-07-26 05:53:00,37.9,,-,23,N/A,29.81,79.0,11:53 PM,,10.0,South,3.5,190,Boise,Idaho,83701
0,Clear,2016-07-26 06:53:00,30.9,,-,19,N/A,29.82,77.0,12:53 AM,,10.0,SE,5.8,140,Boise,Idaho,83701
1,Clear,2016-07-26 07:53:00,34.0,,-,22,N/A,29.82,75.0,1:53 AM,,10.0,SE,6.9,130,Boise,Idaho,83701
2,Clear,2016-07-26 08:53:00,37.9,,-,27,N/A,29.83,73.9,2:53 AM,,10.0,South,4.6,170,Boise,Idaho,83701
3,Clear,2016-07-26 09:53:00,41.0,,-,33,N/A,29.85,72.0,3:53 AM,,10.0,South,3.5,170,Boise,Idaho,83701
4,Clear,2016-07-26 10:53:00,35.1,,-,28,N/A,29.85,70.0,4:53 AM,,10.0,South,6.9,180,Boise,Idaho,83701
5,Clear,2016-07-26 11:53:00,36.0,,-,30,N/A,29.86,69.1,5:53 AM,,10.0,SSE,6.9,160,Boise,Idaho,83701
6,Clear,2016-07-26 12:53:00,35.1,,-,30,N/A,29.87,68.0,6:53 AM,,10.0,South,8.1,170,Boise,Idaho,83701
7,Clear,2016-07-26 13:53:00,35.1,,-,26,N/A,29.89,72.0,7:53 AM,,10.0,South,6.9,190,Boise,Idaho,83701
8,Clear,2016-07-26 14:53:00,37.0,,-,24,N/A,29.90,75.9,8:53 AM,,9.0,SSE,4.6,150,Boise,Idaho,83701
9,Clear,2016-07-26 15:53:00,37.9,,-,21,N/A,29.91,81.0,9:53 AM,,10.0,East,5.8,100,Boise,Idaho,83701
10,Clear,2016-07-26 16:53:00,42.1,,-,23,N/A,29.90,84.0,10:53 AM,,10.0,WNW,6.9,290,Boise,Idaho,83701
11,Clear,2016-07-26 17:53:00,44.1,,-,24,N/A,29.91,84.9,11:53 AM,,10.0,West,4.6,280,Boise,Idaho,83701
12,Clear,2016-07-26 18:53:00,43.0,,-,20,N/A,29.90,89.1,12:53 PM,,10.0,Variable,5.8,0,Boise,Idaho,83701
13,Clear,2016-07-26 19:53:00,41.0,,-,16,N/A,29.88,93.0,1:53 PM,,10.0,NW,5.8,310,Boise,Idaho,83701
14,Clear,2016-07-26 20:53:00,44.1,,-,17,N/A,29.87,95.0,2:53 PM,,10.0,WNW,11.5,300,Boise,Idaho,83701
15,Clear,2016-07-26 21:53:00,43.0,,-,15,N/A,29.85,98.1,3:53 PM,,10.0,WNW,16.1,300,Boise,Idaho,83701
16,Clear,2016-07-26 22:53:00,41.0,,-,14,N/A,29.83,98.1,4:53 PM,,10.0,North,10.4,350,Boise,Idaho,83701
17,Clear,2016-07-26 23:53:00,39.0,,23.0,13,N/A,29.81,99.0,5:53 PM,,10.0,NW,15.0,310,Boise,Idaho,83701
18,Clear,2016-07-27 00:53:00,39.0,,-,13,N/A,29.81,98.1,6:53 PM,,10.0,North,12.7,350,Boise,Idaho,83701
19,Clear,2016-07-27 01:53:00,37.0,,-,12,N/A,29.80,97.0,7:53 PM,,10.0,NNW,11.5,330,Boise,Idaho,83701
20,Clear,2016-07-27 02:53:00,37.9,,-,15,N/A,29.81,93.0,8:53 PM,,10.0,NW,5.8,320,Boise,Idaho,83701
21,Clear,2016-07-27 03:53:00,43.0,,-,21,N/A,29.81,88.0,9:53 PM,,10.0,NE,5.8,40,Boise,Idaho,83701
22,Clear,2016-07-27 04:53:00,39.9,,-,20,N/A,29.83,86.0,10:53 PM,,10.0,Calm,Calm,0,Boise,Idaho,83701
23,Clear,2016-07-27 05:53:00,44.1,,-,28,N/A,29.85,80.1,11:53 PM,,10.0,SW,5.8,220,Boise,Idaho,83701
0,Clear,2016-07-27 06:53:00,46.9,,-,34,N/A,29.86,77.0,12:53 AM,,10.0,Calm,Calm,0,Boise,Idaho,83701
1,Clear,2016-07-27 07:53:00,48.9,,-,42,N/A,29.86,73.0,1:53 AM,,10.0,South,4.6,180,Boise,Idaho,83701
2,Clear,2016-07-27 08:53:00,52.0,,-,49,N/A,29.87,72.0,2:53 AM,,10.0,South,5.8,180,Boise,Idaho,83701
3,Clear,2016-07-27 09:53:00,51.1,,-,51,N/A,29.88,70.0,3:53 AM,,10.0,South,4.6,180,Boise,Idaho,83701
4,Clear,2016-07-27 10:53:00,50.0,,-,52,N/A,29.90,68.0,4:53 AM,,10.0,South,3.5,180,Boise,Idaho,83701
5,Clear,2016-07-27 11:53:00,43.0,,-,39,N/A,29.91,69.1,5:53 AM,,10.0,SE,8.1,140,Boise,Idaho,83701
6,Clear,2016-07-27 12:53:00,41.0,,-,36,N/A,29.93,69.1,6:53 AM,,9.0,SSE,9.2,160,Boise,Idaho,83701
7,Clear,2016-07-27 13:53:00,41.0,,-,33,N/A,29.95,72.0,7:53 AM,,10.0,South,9.2,170,Boise,Idaho,83701
8,Haze,2016-07-27 14:53:00,42.1,,-,30,N/A,29.96,75.9,8:53 AM,,6.0,ESE,4.6,120,Boise,Idaho,83701
9,Haze,2016-07-27 15:53:00,43.0,,-,26,N/A,29.96,81.0,9:53 AM,,5.0,Variable,3.5,0,Boise,Idaho,83701
10,Clear,2016-07-27 16:53:00,43.0,,-,22,N/A,29.96,86.0,10:53 AM,,10.0,SW,8.1,220,Boise,Idaho,83701
11,Clear,2016-07-27 17:53:00,46.9,,-,23,N/A,29.96,89.1,11:53 AM,,10.0,Variable,5.8,0,Boise,Idaho,83701
12,Clear,2016-07-27 18:53:00,46.9,,-,22,N/A,29.94,91.0,12:53 PM,,10.0,WNW,8.1,290,Boise,Idaho,83701
13,Clear,2016-07-27 19:53:00,45.0,,-,18,N/A,29.91,93.9,1:53 PM,,10.0,Calm,Calm,0,Boise,Idaho,83701
14,Clear,2016-07-27 20:53:00,44.1,,-,17,N/A,29.89,96.1,2:53 PM,,10.0,Variable,4.6,0,Boise,Idaho,83701
15,Clear,2016-07-27 21:53:00,42.1,,-,15,N/A,29.87,98.1,3:53 PM,,10.0,North,8.1,350,Boise,Idaho,83701
16,Clear,2016-07-27 22:53:00,42.1,,18.4,14,N/A,29.85,100.0,4:53 PM,,10.0,NW,11.5,310,Boise,Idaho,83701
17,Clear,2016-07-27 23:53:00,37.9,,-,12,N/A,29.83,100.0,5:53 PM,,10.0,NW,15.0,320,Boise,Idaho,83701
18,Clear,2016-07-28 00:53:00,37.9,,-,12,N/A,29.82,99.0,6:53 PM,,10.0,NNW,13.8,330,Boise,Idaho,83701
19,Clear,2016-07-28 01:53:00,39.0,,-,13,N/A,29.81,97.0,7:53 PM,,10.0,NNW,12.7,330,Boise,Idaho,83701
20,Clear,2016-07-28 02:53:00,41.0,,-,16,N/A,29.82,93.0,8:53 PM,,10.0,NW,9.2,320,Boise,Idaho,83701
21,Clear,2016-07-28 03:53:00,43.0,,-,21,N/A,29.82,87.1,9:53 PM,,10.0,NNW,6.9,330,Boise,Idaho,83701
22,Clear,2016-07-28 04:53:00,46.0,,-,26,N/A,29.84,84.0,10:53 PM,,10.0,West,4.6,260,Boise,Idaho,83701
23,Clear,2016-07-28 05:53:00,46.0,,-,30,N/A,29.86,80.1,11:53 PM,,10.0,SE,3.5,140,Boise,Idaho,83701
0,Clear,2016-07-28 06:53:00,45.0,,-,34,N/A,29.87,75.0,12:53 AM,,10.0,SSW,4.6,210,Boise,Idaho,83701
1,Clear,2016-07-28 07:53:00,46.9,,-,39,N/A,29.88,73.0,1:53 AM,,10.0,SSW,4.6,200,Boise,Idaho,83701
2,Clear,2016-07-28 08:53:00,48.0,,-,44,N/A,29.89,71.1,2:53 AM,,10.0,SSW,4.6,200,Boise,Idaho,83701
3,Clear,2016-07-28 09:53:00,46.9,,-,44,N/A,29.91,70.0,3:53 AM,,10.0,Calm,Calm,0,Boise,Idaho,83701
4,Clear,2016-07-28 10:53:00,46.0,,-,42,N/A,29.92,70.0,4:53 AM,,10.0,Calm,Calm,0,Boise,Idaho,83701
5,Clear,2016-07-28 11:53:00,45.0,,-,47,N/A,29.94,66.0,5:53 AM,,10.0,Calm,Calm,0,Boise,Idaho,83701
6,Clear,2016-07-28 12:53:00,46.0,,-,45,N/A,29.96,68.0,6:53 AM,,10.0,Calm,Calm,0,Boise,Idaho,83701
7,Clear,2016-07-28 13:53:00,46.0,,-,41,N/A,29.97,71.1,7:53 AM,,10.0,Calm,Calm,0,Boise,Idaho,83701
8,Clear,2016-07-28 14:53:00,46.0,,-,38,N/A,29.98,73.0,8:53 AM,,10.0,SE,3.5,140,Boise,Idaho,83701
9,Clear,2016-07-28 15:53:00,46.9,,-,34,N/A,29.98,77.0,9:53 AM,,10.0,WNW,4.6,290,Boise,Idaho,83701
10,Clear,2016-07-28 16:53:00,46.9,,-,29,N/A,29.98,82.0,10:53 AM,,10.0,Variable,5.8,0,Boise,Idaho,83701
11,Clear,2016-07-28 17:53:00,48.0,,-,27,N/A,29.98,86.0,11:53 AM,,10.0,WNW,9.2,300,Boise,Idaho,83701
12,Clear,2016-07-28 18:53:00,46.9,,-,23,N/A,29.97,90.0,12:53 PM,,10.0,NW,9.2,320,Boise,Idaho,83701
13,Clear,2016-07-28 19:53:00,39.9,,-,15,N/A,29.94,95.0,1:53 PM,,10.0,NW,10.4,310,Boise,Idaho,83701
14,Clear,2016-07-28 20:53:00,41.0,,-,14,N/A,29.92,97.0,2:53 PM,,10.0,NW,11.5,320,Boise,Idaho,83701
15,Clear,2016-07-28 21:53:00,39.0,,18.4,13,N/A,29.90,98.1,3:53 PM,,10.0,NW,11.5,310,Boise,Idaho,83701
16,Clear,2016-07-28 22:53:00,37.9,,20.7,12,N/A,29.88,99.0,4:53 PM,,10.0,North,15.0,350,Boise,Idaho,83701
17,Clear,2016-07-28 23:53:00,37.0,,21.9,12,N/A,29.87,98.1,5:53 PM,,10.0,NW,9.2,320,Boise,Idaho,83701
18,Clear,2016-07-29 00:53:00,30.9,,-,9,N/A,29.84,98.1,6:53 PM,,10.0,NNW,12.7,340,Boise,Idaho,83701
19,Clear,2016-07-29 01:53:00,32.0,,-,10,N/A,29.83,97.0,7:53 PM,,10.0,NNW,8.1,330,Boise,Idaho,83701
20,Clear,2016-07-29 02:53:00,37.0,,-,15,N/A,29.82,91.9,8:53 PM,,10.0,NNW,6.9,340,Boise,Idaho,83701
21,Clear,2016-07-29 03:53:00,39.0,,-,18,N/A,29.83,87.1,9:53 PM,,10.0,NE,4.6,50,Boise,Idaho,83701
22,Clear,2016-07-29 04:53:00,41.0,,-,24,N/A,29.84,81.0,10:53 PM,,10.0,WSW,6.9,240,Boise,Idaho,83701
23,Clear,2016-07-29 05:53:00,44.1,,-,28,N/A,29.84,80.1,11:53 PM,,10.0,Calm,Calm,0,Boise,Idaho,83701
0,Clear,2016-07-29 06:53:00,39.9,,-,27,N/A,29.86,75.9,12:53 AM,,10.0,Calm,Calm,0,Boise,Idaho,83701
1,Clear,2016-07-29 07:53:00,36.0,,-,24,N/A,29.84,75.0,1:53 AM,,10.0,SSE,6.9,150,Boise,Idaho,83701
2,Clear,2016-07-29 08:53:00,42.1,,-,34,N/A,29.85,72.0,2:53 AM,,10.0,South,5.8,190,Boise,Idaho,83701
3,Clear,2016-07-29 09:53:00,48.0,,-,46,N/A,29.86,70.0,3:53 AM,,10.0,South,3.5,180,Boise,Idaho,83701
4,Clear,2016-07-29 10:53:00,46.0,,-,44,N/A,29.87,69.1,4:53 AM,,10.0,SW,3.5,220,Boise,Idaho,83701
5,Clear,2016-07-29 11:53:00,41.0,,-,36,N/A,29.87,69.1,5:53 AM,,10.0,SSE,6.9,150,Boise,Idaho,83701
6,Clear,2016-07-29 12:53:00,41.0,,-,39,N/A,29.88,66.9,6:53 AM,,10.0,SE,3.5,140,Boise,Idaho,83701
7,Haze,2016-07-29 13:53:00,41.0,,-,33,N/A,29.88,72.0,7:53 AM,,3.0,SSE,6.9,150,Boise,Idaho,83701
8,Haze,2016-07-29 14:53:00,42.1,,-,29,N/A,29.89,77.0,8:53 AM,,3.0,Calm,Calm,0,Boise,Idaho,83701
9,Clear,2016-07-29 15:53:00,46.9,,-,31,N/A,29.89,80.1,9:53 AM,,7.0,Calm,Calm,0,Boise,Idaho,83701
10,Clear,2016-07-29 16:53:00,44.1,,-,25,N/A,29.89,84.0,10:53 AM,,10.0,WNW,5.8,290,Boise,Idaho,83701
11,Clear,2016-07-29 17:53:00,45.0,,-,23,N/A,29.88,87.1,11:53 AM,,10.0,NNW,5.8,330,Boise,Idaho,83701
12,Clear,2016-07-29 18:53:00,46.0,,-,21,N/A,29.87,91.0,12:53 PM,,10.0,West,9.2,280,Boise,Idaho,83701
13,Clear,2016-07-29 19:53:00,42.1,,17.3,15,N/A,29.84,96.1,1:53 PM,,10.0,NNW,6.9,340,Boise,Idaho,83701
14,Clear,2016-07-29 20:53:00,41.0,,-,15,N/A,29.82,96.1,2:53 PM,,10.0,NW,8.1,310,Boise,Idaho,83701
15,Clear,2016-07-29 21:53:00,39.9,,-,13,N/A,29.79,98.1,3:53 PM,,10.0,WNW,10.4,300,Boise,Idaho,83701
16,Clear,2016-07-29 22:53:00,37.9,,21.9,12,N/A,29.76,99.0,4:53 PM,,10.0,North,16.1,360,Boise,Idaho,83701
17,Clear,2016-07-29 23:53:00,37.9,,-,12,N/A,29.74,100.0,5:53 PM,,10.0,NNW,18.4,340,Boise,Idaho,83701
18,Clear,2016-07-30 00:53:00,35.1,,-,11,N/A,29.72,99.0,6:53 PM,,10.0,NNW,11.5,330,Boise,Idaho,83701
19,Clear,2016-07-30 01:53:00,36.0,,-,11,N/A,29.70,98.1,7:53 PM,,10.0,NW,8.1,320,Boise,Idaho,83701
20,Clear,2016-07-30 02:53:00,37.9,,-,14,N/A,29.69,95.0,8:53 PM,,10.0,West,3.5,270,Boise,Idaho,83701
21,Clear,2016-07-30 03:53:00,43.0,,-,21,N/A,29.70,88.0,9:53 PM,,10.0,WSW,4.6,240,Boise,Idaho,83701
22,Clear,2016-07-30 04:53:00,42.1,,-,22,N/A,29.71,84.9,10:53 PM,,10.0,Calm,Calm,0,Boise,Idaho,83701
23,Clear,2016-07-30 05:53:00,37.9,,-,21,N/A,29.71,81.0,11:53 PM,,10.0,SE,6.9,130,Boise,Idaho,83701
0,Clear,2016-07-30 06:53:00,35.1,,-,20,N/A,29.71,79.0,12:53 AM,,10.0,SSE,10.4,150,Boise,Idaho,83701
1,Clear,2016-07-30 07:53:00,36.0,,-,23,N/A,29.71,77.0,1:53 AM,,10.0,SE,9.2,130,Boise,Idaho,83701
2,Clear,2016-07-30 08:53:00,37.0,,-,26,N/A,29.70,73.9,2:53 AM,,10.0,ESE,5.8,110,Boise,Idaho,83701
3,Clear,2016-07-30 09:53:00,36.0,,-,26,N/A,29.70,73.0,3:53 AM,,10.0,South,5.8,190,Boise,Idaho,83701
4,Clear,2016-07-30 10:53:00,36.0,,-,26,N/A,29.69,73.0,4:53 AM,,10.0,South,6.9,170,Boise,Idaho,83701
5,Clear,2016-07-30 11:53:00,36.0,,-,29,N/A,29.70,70.0,5:53 AM,,7.0,SE,5.8,140,Boise,Idaho,83701
6,Haze,2016-07-30 12:53:00,37.9,,-,31,N/A,29.71,70.0,6:53 AM,,5.0,Calm,Calm,0,Boise,Idaho,83701
7,Haze,2016-07-30 13:27:00,37.9,,-,30,N/A,29.83,71.1,7:27 AM,,2.5,SE,8.1,130,Boise,Idaho,83701
8,Haze,2016-07-30 13:36:00,37.0,,-,28,N/A,29.83,72.0,7:36 AM,,5.0,SE,9.2,140,Boise,Idaho,83701
9,Haze,2016-07-30 13:53:00,37.0,,-,27,N/A,29.72,73.0,7:53 AM,,5.0,SE,6.9,130,Boise,Idaho,83701
10,Haze,2016-07-30 14:00:00,37.9,,-,27,N/A,29.83,73.9,8:00 AM,,2.5,ESE,5.8,120,Boise,Idaho,83701
11,Haze,2016-07-30 14:37:00,37.9,,-,24,N/A,29.84,77.0,8:37 AM,,3.0,Calm,Calm,0,Boise,Idaho,83701
12,Haze,2016-07-30 14:53:00,37.9,,-,23,N/A,29.73,79.0,8:53 AM,,3.0,Calm,Calm,0,Boise,Idaho,83701
13,Haze,2016-07-30 15:00:00,39.0,,-,23,N/A,29.84,80.1,9:00 AM,,2.5,Calm,Calm,0,Boise,Idaho,83701
14,Haze,2016-07-30 15:08:00,39.9,,-,25,N/A,29.84,79.0,9:08 AM,,3.0,Calm,Calm,0,Boise,Idaho,83701
15,Haze,2016-07-30 15:53:00,39.0,,-,21,N/A,29.74,82.9,9:53 AM,,3.0,Calm,Calm,0,Boise,Idaho,83701
16,Haze,2016-07-30 16:53:00,42.1,,-,21,N/A,29.74,86.0,10:53 AM,,5.0,WNW,9.2,290,Boise,Idaho,83701
17,Clear,2016-07-30 17:53:00,43.0,,-,21,N/A,29.74,88.0,11:53 AM,,10.0,WNW,6.9,300,Boise,Idaho,83701
18,Clear,2016-07-30 18:53:00,44.1,,-,19,N/A,29.74,91.9,12:53 PM,,10.0,NNW,9.2,330,Boise,Idaho,83701
19,Clear,2016-07-30 19:53:00,44.1,,-,17,N/A,29.72,95.0,1:53 PM,,10.0,WNW,9.2,300,Boise,Idaho,83701
20,Clear,2016-07-30 20:53:00,42.1,,17.3,15,N/A,29.70,97.0,2:53 PM,,10.0,North,11.5,350,Boise,Idaho,83701
21,Clear,2016-07-30 21:53:00,41.0,,-,14,N/A,29.68,98.1,3:53 PM,,10.0,North,11.5,350,Boise,Idaho,83701
22,Clear,2016-07-30 22:53:00,39.0,,20.7,12,N/A,29.65,100.0,4:53 PM,,10.0,North,12.7,350,Boise,Idaho,83701
23,Clear,2016-07-30 23:53:00,37.0,,20.7,12,N/A,29.63,99.0,5:53 PM,,10.0,WNW,12.7,300,Boise,Idaho,83701
24,Clear,2016-07-31 00:53:00,34.0,,-,10,N/A,29.62,99.0,6:53 PM,,10.0,North,12.7,350,Boise,Idaho,83701
25,Clear,2016-07-31 01:53:00,28.0,,-,9,N/A,29.61,97.0,7:53 PM,,10.0,NNW,9.2,330,Boise,Idaho,83701
26,Clear,2016-07-31 02:53:00,28.0,,-,10,N/A,29.61,93.0,8:53 PM,,10.0,WNW,4.6,300,Boise,Idaho,83701
27,Clear,2016-07-31 03:53:00,34.0,,-,14,N/A,29.62,89.1,9:53 PM,,10.0,WNW,6.9,300,Boise,Idaho,83701
28,Clear,2016-07-31 04:53:00,37.0,,-,18,N/A,29.65,84.9,10:53 PM,,10.0,West,3.5,270,Boise,Idaho,83701
29,Clear,2016-07-31 05:53:00,37.0,,-,21,N/A,29.67,81.0,11:53 PM,,10.0,WNW,4.6,290,Boise,Idaho,83701
0,Clear,2016-07-31 06:53:00,39.0,,-,29,N/A,29.68,73.0,12:53 AM,,10.0,South,3.5,180,Boise,Idaho,83701
1,Clear,2016-07-31 07:53:00,44.1,,-,35,N/A,29.69,73.0,1:53 AM,,10.0,SSW,3.5,210,Boise,Idaho,83701
2,Clear,2016-07-31 08:53:00,45.0,,-,39,N/A,29.70,71.1,2:53 AM,,10.0,Calm,Calm,0,Boise,Idaho,83701
3,Clear,2016-07-31 09:53:00,39.0,,-,33,N/A,29.72,69.1,3:53 AM,,10.0,West,5.8,260,Boise,Idaho,83701
4,Clear,2016-07-31 10:53:00,37.0,,-,34,N/A,29.73,66.0,4:53 AM,,10.0,NW,3.5,310,Boise,Idaho,83701
5,Clear,2016-07-31 11:53:00,36.0,,-,35,N/A,29.76,64.0,5:53 AM,,10.0,Calm,Calm,0,Boise,Idaho,83701
6,Clear,2016-07-31 12:53:00,36.0,,-,37,N/A,29.79,63.0,6:53 AM,,10.0,Calm,Calm,0,Boise,Idaho,83701
7,Clear,2016-07-31 13:53:00,35.1,,-,31,N/A,29.82,66.9,7:53 AM,,10.0,Calm,Calm,0,Boise,Idaho,83701
8,Clear,2016-07-31 14:53:00,37.9,,-,30,N/A,29.83,71.1,8:53 AM,,10.0,Variable,3.5,0,Boise,Idaho,83701
9,Clear,2016-07-31 15:53:00,28.9,,-,18,N/A,29.84,75.9,9:53 AM,,10.0,NNW,11.5,330,Boise,Idaho,83701
10,Clear,2016-07-31 16:53:00,30.0,,-,17,N/A,29.86,78.1,10:53 AM,,10.0,NNW,10.4,330,Boise,Idaho,83701
11,Clear,2016-07-31 17:53:00,30.0,,-,15,N/A,29.86,82.0,11:53 AM,,10.0,WNW,13.8,290,Boise,Idaho,83701
12,Clear,2016-07-31 18:53:00,25.0,,19.6,12,N/A,29.86,84.0,12:53 PM,,10.0,WNW,13.8,300,Boise,Idaho,83701
13,Clear,2016-07-31 19:53:00,25.0,,-,11,N/A,29.85,86.0,1:53 PM,,10.0,NW,13.8,320,Boise,Idaho,83701
14,Clear,2016-07-31 20:53:00,23.0,,-,10,N/A,29.83,87.1,2:53 PM,,10.0,NNW,8.1,340,Boise,Idaho,83701
15,Clear,2016-07-31 21:53:00,21.9,,-,8,N/A,29.82,90.0,3:53 PM,,10.0,NW,11.5,310,Boise,Idaho,83701
16,Clear,2016-07-31 22:53:00,23.0,,19.6,9,N/A,29.80,90.0,4:53 PM,,10.0,NNW,9.2,330,Boise,Idaho,83701
17,Clear,2016-07-31 23:53:00,23.0,,-,8,N/A,29.77,91.9,5:53 PM,,10.0,NNW,11.5,340,Boise,Idaho,83701
18,Clear,2016-08-01 00:53:00,15.1,,-,6,N/A,29.76,91.0,6:53 PM,,10.0,NW,15.0,320,Boise,Idaho,83701
19,Clear,2016-08-01 01:53:00,18.0,,-,7,N/A,29.75,90.0,7:53 PM,,10.0,NNW,10.4,340,Boise,Idaho,83701
20,Clear,2016-08-01 02:53:00,21.0,,-,9,N/A,29.74,86.0,8:53 PM,,10.0,NNW,6.9,340,Boise,Idaho,83701
21,Clear,2016-08-01 03:53:00,25.0,,-,12,N/A,29.76,82.9,9:53 PM,,10.0,West,8.1,280,Boise,Idaho,83701
22,Clear,2016-08-01 04:53:00,28.9,,-,18,N/A,29.78,75.9,10:53 PM,,10.0,WNW,5.8,300,Boise,Idaho,83701
23,Clear,2016-08-01 05:53:00,28.9,,-,19,N/A,29.80,73.9,11:53 PM,,10.0,WNW,3.5,290,Boise,Idaho,83701
0,Clear,2016-08-01 06:53:00,32.0,,-,27,N/A,29.82,66.9,12:53 AM,,10.0,SSW,3.5,210,Boise,Idaho,83701
1,Clear,2016-08-01 07:53:00,34.0,,-,30,N/A,29.84,66.0,1:53 AM,,10.0,South,3.5,170,Boise,Idaho,83701
2,Clear,2016-08-01 08:53:00,36.0,,-,35,N/A,29.86,64.0,2:53 AM,,10.0,SSW,4.6,200,Boise,Idaho,83701
3,Clear,2016-08-01 09:53:00,36.0,,-,34,N/A,29.87,64.9,3:53 AM,,10.0,WNW,4.6,290,Boise,Idaho,83701
4,Clear,2016-08-01 10:53:00,36.0,,-,38,N/A,29.89,62.1,4:53 AM,,10.0,WNW,3.5,290,Boise,Idaho,83701
5,Clear,2016-08-01 11:53:00,37.0,,-,42,N/A,29.90,60.1,5:53 AM,,10.0,Calm,Calm,0,Boise,Idaho,83701
6,Clear,2016-08-01 12:53:00,36.0,,-,45,N/A,29.92,57.0,6:53 AM,,10.0,SSW,3.5,200,Boise,Idaho,83701
7,Clear,2016-08-01 13:53:00,36.0,,-,41,N/A,29.94,60.1,7:53 AM,,10.0,SSE,3.5,160,Boise,Idaho,83701
8,Clear,2016-08-01 14:53:00,36.0,,-,34,N/A,29.95,64.9,8:53 AM,,10.0,WSW,4.6,250,Boise,Idaho,83701
9,Clear,2016-08-01 15:53:00,36.0,,-,30,N/A,29.96,69.1,9:53 AM,,10.0,West,4.6,280,Boise,Idaho,83701
10,Clear,2016-08-01 16:53:00,35.1,,-,25,N/A,29.96,73.0,10:53 AM,,10.0,West,6.9,270,Boise,Idaho,83701
11,Clear,2016-08-01 17:53:00,37.0,,18.4,23,N/A,29.96,78.1,11:53 AM,,10.0,NW,8.1,320,Boise,Idaho,83701
12,Clear,2016-08-01 18:53:00,35.1,,-,18,N/A,29.95,82.9,12:53 PM,,10.0,WNW,10.4,290,Boise,Idaho,83701
13,Clear,2016-08-01 19:53:00,33.1,,-,15,N/A,29.93,87.1,1:53 PM,,10.0,NW,12.7,310,Boise,Idaho,83701
14,Clear,2016-08-01 20:53:00,28.0,,18.4,11,N/A,29.91,89.1,2:53 PM,,10.0,WNW,6.9,300,Boise,Idaho,83701
15,Clear,2016-08-01 21:53:00,26.1,,-,9,N/A,29.88,91.9,3:53 PM,,10.0,NW,9.2,310,Boise,Idaho,83701
16,Clear,2016-08-01 22:53:00,28.0,,17.3,10,N/A,29.87,93.0,4:53 PM,,10.0,NW,11.5,320,Boise,Idaho,83701
17,Clear,2016-08-01 23:53:00,30.0,,-,11,N/A,29.86,93.0,5:53 PM,,10.0,NW,13.8,320,Boise,Idaho,83701
18,Clear,2016-08-02 00:53:00,30.0,,-,11,N/A,29.85,93.0,6:53 PM,,10.0,NNW,10.4,330,Boise,Idaho,83701
19,Clear,2016-08-02 01:53:00,28.0,,-,10,N/A,29.84,91.9,7:53 PM,,10.0,NNW,9.2,340,Boise,Idaho,83701
20,Clear,2016-08-02 02:53:00,30.0,,-,13,N/A,29.84,87.1,8:53 PM,,10.0,NNW,5.8,340,Boise,Idaho,83701
21,Clear,2016-08-02 03:53:00,30.9,,-,14,N/A,29.84,84.9,9:53 PM,,10.0,Variable,3.5,0,Boise,Idaho,83701
22,Clear,2016-08-02 04:53:00,32.0,,-,19,N/A,29.84,78.1,10:53 PM,,10.0,SSW,5.8,200,Boise,Idaho,83701
23,Clear,2016-08-02 05:53:00,32.0,,-,21,N/A,29.85,73.9,11:53 PM,,10.0,South,5.8,180,Boise,Idaho,83701
0,Clear,2016-08-02 06:53:00,28.9,,-,19,N/A,29.85,73.9,12:53 AM,,10.0,SE,8.1,130,Boise,Idaho,83701
1,Clear,2016-08-02 07:53:00,32.0,,-,22,N/A,29.85,73.0,1:53 AM,,10.0,ESE,5.8,120,Boise,Idaho,83701
2,Clear,2016-08-02 08:53:00,33.1,,-,25,N/A,29.83,71.1,2:53 AM,,10.0,SE,5.8,140,Boise,Idaho,83701
3,Clear,2016-08-02 09:53:00,32.0,,-,23,N/A,29.82,72.0,3:53 AM,,10.0,ESE,8.1,110,Boise,Idaho,83701
4,Clear,2016-08-02 10:53:00,30.9,,-,24,N/A,29.83,70.0,4:53 AM,,9.0,ESE,6.9,120,Boise,Idaho,83701
5,Haze,2016-08-02 11:53:00,32.0,,-,25,N/A,29.83,70.0,5:53 AM,,4.0,ESE,9.2,120,Boise,Idaho,83701
6,Haze,2016-08-02 12:31:00,32.0,,-,25,N/A,29.94,69.1,6:31 AM,,2.0,SE,10.4,130,Boise,Idaho,83701
7,Haze,2016-08-02 12:44:00,33.1,,-,27,N/A,29.95,68.0,6:44 AM,,1.8,ESE,5.8,110,Boise,Idaho,83701
8,Haze,2016-08-02 12:53:00,32.0,,-,25,N/A,29.86,69.1,6:53 AM,,1.8,Calm,Calm,0,Boise,Idaho,83701
9,Haze,2016-08-02 13:10:00,37.0,,-,36,N/A,29.96,64.9,7:10 AM,,3.0,NW,4.6,310,Boise,Idaho,83701
10,Haze,2016-08-02 13:26:00,33.1,,-,29,N/A,29.97,66.0,7:26 AM,,1.8,Variable,3.5,0,Boise,Idaho,83701
11,Haze,2016-08-02 13:53:00,33.1,,-,27,N/A,29.89,68.0,7:53 AM,,1.2,South,9.2,170,Boise,Idaho,83701
12,Haze,2016-08-02 14:00:00,37.9,,-,34,N/A,29.99,66.9,8:00 AM,,2.0,SSE,10.4,160,Boise,Idaho,83701
13,Haze,2016-08-02 14:10:00,39.0,,-,36,N/A,30.00,66.9,8:10 AM,,3.0,SE,10.4,130,Boise,Idaho,83701
14,Haze,2016-08-02 14:14:00,39.0,,-,36,N/A,30.00,66.9,8:14 AM,,2.5,ESE,10.4,120,Boise,Idaho,83701
15,Haze,2016-08-02 14:39:00,39.0,,-,33,N/A,30.00,69.1,8:39 AM,,4.0,ESE,12.7,110,Boise,Idaho,83701
16,Haze,2016-08-02 14:53:00,39.0,,-,31,N/A,29.91,71.1,8:53 AM,,5.0,ESE,12.7,110,Boise,Idaho,83701
17,Haze,2016-08-02 15:50:00,33.8,,-,20,N/A,30.01,78.8,9:50 AM,,2.0,ESE,6.9,110,Boise,Idaho,83701
18,Haze,2016-08-02 15:53:00,34.0,,-,20,N/A,29.91,78.1,9:53 AM,,2.0,ESE,6.9,110,Boise,Idaho,83701
19,Smoke,2016-08-02 16:19:00,33.1,,-,18,N/A,30.01,81.0,10:19 AM,,3.0,Calm,Calm,0,Boise,Idaho,83701
20,Smoke,2016-08-02 16:53:00,32.0,,-,15,N/A,29.91,84.0,10:53 AM,,6.0,NNW,5.8,340,Boise,Idaho,83701
21,Smoke,2016-08-02 17:53:00,32.0,,-,14,N/A,29.91,87.1,11:53 AM,,8.0,North,-9999.0,0,Boise,Idaho,83701
22,Smoke,2016-08-02 18:53:00,32.0,,-,14,N/A,29.91,88.0,12:53 PM,,10.0,WNW,12.7,290,Boise,Idaho,83701
23,Clear,2016-08-02 19:53:00,33.1,,18.4,13,N/A,29.88,91.0,1:53 PM,,10.0,North,12.7,350,Boise,Idaho,83701
24,Clear,2016-08-02 20:53:00,35.1,,-,13,N/A,29.86,93.0,2:53 PM,,10.0,North,11.5,350,Boise,Idaho,83701
25,Clear,2016-08-02 21:53:00,34.0,,-,12,N/A,29.83,93.9,3:53 PM,,10.0,North,9.2,360,Boise,Idaho,83701
26,Clear,2016-08-02 22:53:00,35.1,,18.4,13,N/A,29.81,93.9,4:53 PM,,10.0,NW,8.1,310,Boise,Idaho,83701
27,Clear,2016-08-02 23:53:00,36.0,,-,13,N/A,29.80,93.9,5:53 PM,,10.0,West,9.2,280,Boise,Idaho,83701
28,Clear,2016-08-03 00:53:00,35.1,,-,13,N/A,29.79,93.9,6:53 PM,,10.0,North,10.4,350,Boise,Idaho,83701
29,Clear,2016-08-03 01:53:00,28.9,,-,11,N/A,29.80,91.9,7:53 PM,,10.0,NNW,15.0,340,Boise,Idaho,83701
30,Clear,2016-08-03 02:53:00,27.0,,21.9,11,N/A,29.81,88.0,8:53 PM,,10.0,WNW,16.1,300,Boise,Idaho,83701
31,Clear,2016-08-03 03:53:00,32.0,,-,17,N/A,29.85,80.1,9:53 PM,,10.0,NW,15.0,310,Boise,Idaho,83701
32,Clear,2016-08-03 04:53:00,35.1,,-,23,N/A,29.88,75.9,10:53 PM,,10.0,WNW,13.8,300,Boise,Idaho,83701
33,Clear,2016-08-03 05:53:00,37.0,,-,26,N/A,29.91,73.9,11:53 PM,,10.0,WNW,18.4,300,Boise,Idaho,83701
0,Clear,2016-08-03 06:53:00,37.0,,-,29,N/A,29.95,71.1,12:53 AM,,10.0,WNW,21.9,300,Boise,Idaho,83701
1,Clear,2016-08-03 07:53:00,36.0,,-,32,N/A,29.99,66.9,1:53 AM,,10.0,WNW,15.0,300,Boise,Idaho,83701
2,Clear,2016-08-03 08:53:00,37.0,,-,37,N/A,30.00,64.0,2:53 AM,,10.0,WNW,15.0,300,Boise,Idaho,83701
3,Clear,2016-08-03 09:53:00,37.0,,-,42,N/A,30.02,60.1,3:53 AM,,10.0,WNW,11.5,300,Boise,Idaho,83701
4,Clear,2016-08-03 10:53:00,37.9,,-,47,N/A,30.05,57.9,4:53 AM,,10.0,West,5.8,280,Boise,Idaho,83701
5,Clear,2016-08-03 11:53:00,37.9,,-,53,N/A,30.08,55.0,5:53 AM,,10.0,West,5.8,280,Boise,Idaho,83701
6,Clear,2016-08-03 12:53:00,39.0,,-,59,N/A,30.11,53.1,6:53 AM,,10.0,WNW,3.5,300,Boise,Idaho,83701
7,Clear,2016-08-03 13:53:00,39.9,,-,55,N/A,30.14,55.9,7:53 AM,,10.0,WNW,9.2,300,Boise,Idaho,83701
8,Clear,2016-08-03 14:53:00,39.9,,-,51,N/A,30.16,57.9,8:53 AM,,10.0,NW,10.4,310,Boise,Idaho,83701
9,Clear,2016-08-03 15:53:00,39.0,,-,44,N/A,30.16,61.0,9:53 AM,,10.0,WNW,9.2,300,Boise,Idaho,83701
10,Clear,2016-08-03 16:53:00,37.9,,-,38,N/A,30.15,64.0,10:53 AM,,10.0,NW,16.1,320,Boise,Idaho,83701
11,Clear,2016-08-03 17:53:00,37.0,,-,33,N/A,30.14,66.9,11:53 AM,,10.0,NW,11.5,310,Boise,Idaho,83701
12,Clear,2016-08-03 18:53:00,37.0,,-,29,N/A,30.12,71.1,12:53 PM,,10.0,NW,15.0,310,Boise,Idaho,83701
13,Clear,2016-08-03 19:53:00,37.0,,21.9,28,N/A,30.11,72.0,1:53 PM,,10.0,WNW,15.0,300,Boise,Idaho,83701
14,Clear,2016-08-03 20:53:00,33.1,,-,20,N/A,30.09,77.0,2:53 PM,,10.0,NW,12.7,320,Boise,Idaho,83701
15,Clear,2016-08-03 21:53:00,30.0,,20.7,17,N/A,30.07,79.0,3:53 PM,,10.0,NW,12.7,310,Boise,Idaho,83701
16,Clear,2016-08-03 22:53:00,28.9,,21.9,16,N/A,30.05,79.0,4:53 PM,,10.0,WNW,16.1,300,Boise,Idaho,83701
17,Clear,2016-08-03 23:53:00,30.0,,-,16,N/A,30.03,80.1,5:53 PM,,10.0,WNW,15.0,300,Boise,Idaho,83701
18,Clear,2016-08-04 00:53:00,28.9,,21.9,15,N/A,30.02,80.1,6:53 PM,,10.0,WNW,16.1,300,Boise,Idaho,83701
19,Clear,2016-08-04 01:53:00,30.9,,-,17,N/A,29.99,79.0,7:53 PM,,10.0,West,13.8,280,Boise,Idaho,83701
20,Clear,2016-08-04 02:53:00,34.0,,-,21,N/A,29.99,77.0,8:53 PM,,10.0,WNW,10.4,300,Boise,Idaho,83701
21,Clear,2016-08-04 03:53:00,36.0,,-,28,N/A,30.01,71.1,9:53 PM,,10.0,WNW,3.5,290,Boise,Idaho,83701
22,Clear,2016-08-04 04:53:00,37.9,,-,31,N/A,30.00,70.0,10:53 PM,,10.0,WNW,4.6,300,Boise,Idaho,83701
23,Clear,2016-08-04 05:53:00,39.9,,-,36,N/A,30.00,68.0,11:53 PM,,10.0,WSW,4.6,250,Boise,Idaho,83701
0,Clear,2016-08-04 06:53:00,39.0,,-,36,N/A,30.00,66.9,12:53 AM,,10.0,WNW,5.8,290,Boise,Idaho,83701
1,Clear,2016-08-04 07:53:00,39.9,,-,40,N/A,30.00,64.9,1:53 AM,,10.0,Calm,Calm,0,Boise,Idaho,83701
2,Clear,2016-08-04 08:53:00,39.9,,-,47,N/A,29.99,60.1,2:53 AM,,10.0,Calm,Calm,0,Boise,Idaho,83701
3,Clear,2016-08-04 09:53:00,39.0,,-,49,N/A,29.99,57.9,3:53 AM,,10.0,South,5.8,180,Boise,Idaho,83701
4,Clear,2016-08-04 10:53:00,39.9,,-,53,N/A,29.99,57.0,4:53 AM,,10.0,SSW,3.5,200,Boise,Idaho,83701
5,Clear,2016-08-04 11:53:00,39.9,,-,55,N/A,30.00,55.9,5:53 AM,,10.0,South,3.5,180,Boise,Idaho,83701
6,Clear,2016-08-04 12:53:00,39.9,,-,55,N/A,30.01,55.9,6:53 AM,,10.0,SSW,6.9,200,Boise,Idaho,83701
7,Clear,2016-08-04 13:53:00,41.0,,-,49,N/A,30.02,60.1,7:53 AM,,10.0,South,6.9,180,Boise,Idaho,83701
8,Clear,2016-08-04 14:53:00,36.0,,-,33,N/A,30.02,66.0,8:53 AM,,10.0,SSE,12.7,160,Boise,Idaho,83701
9,Clear,2016-08-04 15:53:00,37.0,,-,30,N/A,30.03,70.0,9:53 AM,,10.0,South,12.7,170,Boise,Idaho,83701
10,Haze,2016-08-04 16:53:00,37.9,,-,28,N/A,30.02,73.0,10:53 AM,,6.0,South,6.9,180,Boise,Idaho,83701
11,Haze,2016-08-04 17:53:00,39.0,,-,26,N/A,30.01,75.9,11:53 AM,,6.0,WSW,9.2,250,Boise,Idaho,83701
12,Haze,2016-08-04 18:53:00,39.0,,-,24,N/A,29.99,79.0,12:53 PM,,6.0,North,-9999.0,0,Boise,Idaho,83701
13,Clear,2016-08-04 19:53:00,37.9,,-,20,N/A,29.96,82.9,1:53 PM,,7.0,North,-9999.0,0,Boise,Idaho,83701
14,Clear,2016-08-04 20:53:00,36.0,,-,17,N/A,29.93,84.9,2:53 PM,,8.0,West,5.8,280,Boise,Idaho,83701
15,Clear,2016-08-04 21:53:00,37.9,,-,18,N/A,29.91,86.0,3:53 PM,,9.0,West,8.1,260,Boise,Idaho,83701
16,Clear,2016-08-04 22:53:00,36.0,,-,16,N/A,29.88,88.0,4:53 PM,,10.0,NW,4.6,310,Boise,Idaho,83701
17,Clear,2016-08-04 23:53:00,35.1,,-,15,N/A,29.86,89.1,5:53 PM,,10.0,North,8.1,360,Boise,Idaho,83701
18,Clear,2016-08-05 00:53:00,36.0,,-,16,N/A,29.83,88.0,6:53 PM,,10.0,NNW,5.8,330,Boise,Idaho,83701
19,Clear,2016-08-05 01:53:00,36.0,,-,17,N/A,29.82,86.0,7:53 PM,,10.0,NW,9.2,310,Boise,Idaho,83701
20,Clear,2016-08-05 02:53:00,36.0,,-,19,N/A,29.81,82.0,8:53 PM,,10.0,WNW,6.9,300,Boise,Idaho,83701
21,Clear,2016-08-05 03:53:00,39.0,,-,25,N/A,29.81,78.1,9:53 PM,,10.0,NNE,3.5,30,Boise,Idaho,83701
22,Clear,2016-08-05 04:53:00,37.0,,-,26,N/A,29.82,73.9,10:53 PM,,10.0,Calm,Calm,0,Boise,Idaho,83701
23,Clear,2016-08-05 05:53:00,37.9,,-,29,N/A,29.81,72.0,11:53 PM,,10.0,SE,8.1,140,Boise,Idaho,83701
0,Clear,2016-08-05 06:53:00,36.0,,-,27,N/A,29.80,72.0,12:53 AM,,10.0,SSE,4.6,160,Boise,Idaho,83701
1,Clear,2016-08-05 07:53:00,39.9,,-,32,N/A,29.78,71.1,1:53 AM,,10.0,NNE,3.5,30,Boise,Idaho,83701
2,Clear,2016-08-05 08:53:00,35.1,,-,27,N/A,29.78,71.1,2:53 AM,,10.0,ESE,6.9,110,Boise,Idaho,83701
3,Clear,2016-08-05 09:53:00,35.1,,-,27,N/A,29.78,71.1,3:53 AM,,9.0,SE,9.2,140,Boise,Idaho,83701
4,Clear,2016-08-05 10:53:00,34.0,,-,26,N/A,29.78,71.1,4:53 AM,,9.0,ESE,6.9,120,Boise,Idaho,83701
5,Clear,2016-08-05 11:53:00,35.1,,-,28,N/A,29.76,70.0,5:53 AM,,7.0,ESE,6.9,110,Boise,Idaho,83701
6,Haze,2016-08-05 12:53:00,35.1,,-,28,N/A,29.78,70.0,6:53 AM,,4.0,Variable,3.5,0,Boise,Idaho,83701
7,Haze,2016-08-05 13:53:00,42.1,,-,39,N/A,29.78,68.0,7:53 AM,,3.0,NW,6.9,310,Boise,Idaho,83701
8,Haze,2016-08-05 14:53:00,32.0,,24.2,21,N/A,29.80,75.0,8:53 AM,,3.0,SE,8.1,140,Boise,Idaho,83701
9,Haze,2016-08-05 15:37:00,32.0,,-,20,N/A,29.87,75.9,9:37 AM,,2.5,ESE,11.5,110,Boise,Idaho,83701
10,Haze,2016-08-05 15:53:00,32.0,,-,19,N/A,29.77,77.0,9:53 AM,,2.0,ESE,11.5,110,Boise,Idaho,83701
11,Haze,2016-08-05 15:56:00,32.0,,-,19,N/A,29.87,77.0,9:56 AM,,3.0,ESE,12.7,110,Boise,Idaho,83701
12,Haze,2016-08-05 16:53:00,30.9,,-,16,N/A,29.80,82.0,10:53 AM,,4.0,ESE,9.2,120,Boise,Idaho,83701
13,Haze,2016-08-05 17:53:00,30.9,,-,14,N/A,29.78,84.9,11:53 AM,,3.0,SSE,5.8,160,Boise,Idaho,83701
14,Haze,2016-08-05 18:53:00,30.9,,-,13,N/A,29.77,88.0,12:53 PM,,4.0,Calm,Calm,0,Boise,Idaho,83701
15,Clear,2016-08-05 19:53:00,35.1,,-,13,N/A,29.74,91.9,1:53 PM,,10.0,ESE,11.5,120,Boise,Idaho,83701
16,Clear,2016-08-05 20:53:00,36.0,,20.7,12,N/A,29.70,96.1,2:53 PM,,10.0,East,16.1,100,Boise,Idaho,83701
17,Clear,2016-08-05 21:53:00,37.0,,-,13,N/A,29.67,96.1,3:53 PM,,10.0,East,12.7,80,Boise,Idaho,83701
18,Clear,2016-08-05 22:53:00,37.9,,26.5,15,N/A,29.68,93.0,4:53 PM,,10.0,WSW,20.7,250,Boise,Idaho,83701
19,Light Rain,2016-08-05 23:53:00,42.1,Rain,31.1,21,0.00,29.72,86.0,5:53 PM,,5.0,SSW,23.0,210,Boise,Idaho,83701
20,Mostly Cloudy,2016-08-06 00:53:00,39.9,,-,19,0.00,29.69,87.1,6:53 PM,,10.0,South,4.6,170,Boise,Idaho,83701
21,Clear,2016-08-06 01:53:00,43.0,,-,22,N/A,29.69,86.0,7:53 PM,,10.0,East,6.9,80,Boise,Idaho,83701
22,Partly Cloudy,2016-08-06 02:53:00,39.9,,-,20,N/A,29.68,86.0,8:53 PM,,8.0,SE,9.2,140,Boise,Idaho,83701
23,Clear,2016-08-06 03:53:00,39.9,,-,23,N/A,29.71,81.0,9:53 PM,,10.0,SSE,4.6,160,Boise,Idaho,83701
24,Clear,2016-08-06 04:53:00,39.9,,-,25,N/A,29.69,79.0,10:53 PM,,10.0,ESE,5.8,110,Boise,Idaho,83701
25,Clear,2016-08-06 05:53:00,42.1,,-,28,N/A,29.68,78.1,11:53 PM,,10.0,SE,5.8,140,Boise,Idaho,83701
0,Clear,2016-08-06 06:53:00,42.1,,-,30,N/A,29.68,75.9,12:53 AM,,10.0,SE,8.1,140,Boise,Idaho,83701
1,Partly Cloudy,2016-08-06 07:53:00,42.1,,-,30,N/A,29.69,75.9,1:53 AM,,10.0,SE,6.9,140,Boise,Idaho,83701
2,Clear,2016-08-06 08:53:00,43.0,Thunderstorm,-,32,0.00,29.70,75.0,2:53 AM,,10.0,ESE,8.1,120,Boise,Idaho,83701
3,Light Rain,2016-08-06 09:14:00,45.0,Rain,-,34,0.00,29.79,75.0,3:14 AM,,10.0,ENE,12.7,60,Boise,Idaho,83701
4,Clear,2016-08-06 09:44:00,46.9,,-,39,0.00,29.77,73.0,3:44 AM,,10.0,SE,11.5,130,Boise,Idaho,83701
5,Clear,2016-08-06 09:53:00,46.9,,-,41,0.00,29.67,72.0,3:53 AM,,10.0,North,-9999.0,0,Boise,Idaho,83701
6,Clear,2016-08-06 10:53:00,46.0,,-,44,N/A,29.71,69.1,4:53 AM,,10.0,SW,4.6,230,Boise,Idaho,83701
7,Clear,2016-08-06 11:53:00,45.0,,-,43,N/A,29.75,68.0,5:53 AM,,10.0,East,6.9,100,Boise,Idaho,83701
8,Clear,2016-08-06 12:53:00,46.0,,-,45,N/A,29.75,68.0,6:53 AM,,10.0,Calm,Calm,0,Boise,Idaho,83701
9,Clear,2016-08-06 13:53:00,46.0,,-,45,N/A,29.75,68.0,7:53 AM,,10.0,SSE,4.6,150,Boise,Idaho,83701
10,Clear,2016-08-06 14:53:00,45.0,,-,35,N/A,29.76,73.9,8:53 AM,,10.0,SSW,8.1,200,Boise,Idaho,83701
11,Clear,2016-08-06 15:03:00,45.0,Thunderstorm,-,37,N/A,29.84,73.0,9:03 AM,,10.0,Calm,Calm,0,Boise,Idaho,83701
12,Clear,2016-08-06 15:18:00,45.0,,-,38,N/A,29.84,72.0,9:18 AM,,10.0,West,6.9,280,Boise,Idaho,83701
13,Clear,2016-08-06 15:53:00,45.0,,-,34,N/A,29.77,75.0,9:53 AM,,10.0,SSW,6.9,200,Boise,Idaho,83701
14,Clear,2016-08-06 16:53:00,44.1,,-,29,N/A,29.77,79.0,10:53 AM,,10.0,Variable,3.5,0,Boise,Idaho,83701
15,Clear,2016-08-06 17:53:00,44.1,,-,25,N/A,29.75,82.9,11:53 AM,,10.0,Calm,Calm,0,Boise,Idaho,83701
16,Clear,2016-08-06 18:53:00,43.0,,-,21,N/A,29.73,87.1,12:53 PM,,10.0,Variable,4.6,0,Boise,Idaho,83701
17,Clear,2016-08-06 19:53:00,42.1,,-,19,N/A,29.70,89.1,1:53 PM,,10.0,WSW,5.8,240,Boise,Idaho,83701
18,Clear,2016-08-06 20:53:00,42.1,,-,18,N/A,29.69,91.0,2:53 PM,,10.0,West,8.1,270,Boise,Idaho,83701
19,Clear,2016-08-06 21:53:00,42.1,,-,18,N/A,29.69,91.9,3:53 PM,,10.0,WNW,8.1,290,Boise,Idaho,83701
20,Clear,2016-08-06 22:53:00,39.0,,17.3,16,N/A,29.67,91.9,4:53 PM,,10.0,West,10.4,280,Boise,Idaho,83701
21,Clear,2016-08-06 23:53:00,39.0,,-,15,N/A,29.67,93.0,5:53 PM,,10.0,NW,12.7,310,Boise,Idaho,83701
22,Clear,2016-08-07 00:53:00,39.0,,-,16,N/A,29.65,91.9,6:53 PM,,10.0,NNW,11.5,330,Boise,Idaho,83701
23,Clear,2016-08-07 01:53:00,39.0,,-,17,N/A,29.65,90.0,7:53 PM,,10.0,NNW,9.2,330,Boise,Idaho,83701
24,Clear,2016-08-07 02:53:00,44.1,,-,23,N/A,29.65,86.0,8:53 PM,,10.0,NW,9.2,320,Boise,Idaho,83701
25,Clear,2016-08-07 03:53:00,43.0,,-,24,N/A,29.65,82.9,9:53 PM,,10.0,WNW,5.8,300,Boise,Idaho,83701
26,Clear,2016-08-07 04:53:00,45.0,,-,29,N/A,29.64,80.1,10:53 PM,,10.0,Calm,Calm,0,Boise,Idaho,83701
27,Clear,2016-08-07 05:53:00,44.1,,-,34,N/A,29.64,73.9,11:53 PM,,10.0,South,3.5,170,Boise,Idaho,83701
0,Clear,2016-08-07 06:53:00,44.1,,-,37,N/A,29.65,72.0,12:53 AM,,10.0,SSW,4.6,210,Boise,Idaho,83701
1,Clear,2016-08-07 07:53:00,48.0,,-,43,N/A,29.65,72.0,1:53 AM,,10.0,West,5.8,280,Boise,Idaho,83701
2,Clear,2016-08-07 08:53:00,46.9,,-,47,N/A,29.63,68.0,2:53 AM,,10.0,South,5.8,190,Boise,Idaho,83701
3,Clear,2016-08-07 09:53:00,39.9,,-,40,N/A,29.62,64.9,3:53 AM,,10.0,SW,6.9,220,Boise,Idaho,83701
4,Clear,2016-08-07 10:53:00,46.0,,-,48,N/A,29.62,66.0,4:53 AM,,10.0,Calm,Calm,0,Boise,Idaho,83701
5,Clear,2016-08-07 11:53:00,44.1,,-,47,N/A,29.62,64.9,5:53 AM,,9.0,WSW,8.1,250,Boise,Idaho,83701
6,Scattered Clouds,2016-08-07 12:53:00,46.0,,-,50,N/A,29.66,64.9,6:53 AM,,10.0,East,11.5,90,Boise,Idaho,83701
7,Scattered Clouds,2016-08-07 13:20:00,44.1,Thunderstorm,-,45,N/A,29.77,66.0,7:20 AM,,10.0,West,11.5,260,Boise,Idaho,83701
8,Partly Cloudy,2016-08-07 13:35:00,44.1,,-,45,N/A,29.80,66.0,7:35 AM,,10.0,WNW,6.9,300,Boise,Idaho,83701
9,Scattered Clouds,2016-08-07 13:49:00,42.8,Thunderstorm,-,43,N/A,29.80,66.2,7:49 AM,,10.0,North,10.4,10,Boise,Idaho,83701
10,Partly Cloudy,2016-08-07 13:53:00,43.0,Thunderstorm,-,42,N/A,29.72,66.9,7:53 AM,,10.0,North,9.2,10,Boise,Idaho,83701
11,Partly Cloudy,2016-08-07 14:04:00,44.1,,-,44,N/A,29.84,66.9,8:04 AM,,10.0,NNE,5.8,20,Boise,Idaho,83701
12,Clear,2016-08-07 14:53:00,44.1,,-,39,N/A,29.74,70.0,8:53 AM,,10.0,North,6.9,360,Boise,Idaho,83701
13,Clear,2016-08-07 15:53:00,41.0,,-,29,N/A,29.74,75.0,9:53 AM,,10.0,NW,12.7,310,Boise,Idaho,83701
14,Clear,2016-08-07 16:53:00,42.1,,-,29,N/A,29.75,77.0,10:53 AM,,10.0,WNW,17.3,290,Boise,Idaho,83701
15,Clear,2016-08-07 17:53:00,42.1,,-,25,N/A,29.75,81.0,11:53 AM,,10.0,North,10.4,350,Boise,Idaho,83701
16,Clear,2016-08-07 18:53:00,39.0,,23.0,20,N/A,29.75,84.9,12:53 PM,,10.0,WNW,12.7,300,Boise,Idaho,83701
17,Clear,2016-08-07 19:53:00,37.9,,20.7,18,N/A,29.75,86.0,1:53 PM,,10.0,NW,8.1,310,Boise,Idaho,83701
18,Clear,2016-08-07 20:53:00,37.9,,-,18,N/A,29.75,86.0,2:53 PM,,10.0,NNW,9.2,330,Boise,Idaho,83701
19,Clear,2016-08-07 21:53:00,37.0,,-,16,N/A,29.73,88.0,3:53 PM,,10.0,NNW,12.7,330,Boise,Idaho,83701
20,Clear,2016-08-07 22:53:00,36.0,,17.3,15,N/A,29.71,89.1,4:53 PM,,10.0,NNW,11.5,330,Boise,Idaho,83701
21,Clear,2016-08-07 23:53:00,35.1,,-,15,N/A,29.70,88.0,5:53 PM,,10.0,Variable,6.9,0,Boise,Idaho,83701
22,Clear,2016-08-08 00:53:00,35.1,,-,15,N/A,29.68,88.0,6:53 PM,,10.0,Variable,3.5,0,Boise,Idaho,83701
23,Clear,2016-08-08 01:53:00,35.1,,-,16,N/A,29.68,86.0,7:53 PM,,10.0,North,8.1,360,Boise,Idaho,83701
24,Clear,2016-08-08 02:53:00,36.0,,-,19,N/A,29.67,82.9,8:53 PM,,10.0,Variable,5.8,0,Boise,Idaho,83701
25,Clear,2016-08-08 03:53:00,35.1,,-,19,N/A,29.68,81.0,9:53 PM,,10.0,NE,4.6,50,Boise,Idaho,83701
26,Clear,2016-08-08 04:53:00,34.0,,-,22,N/A,29.69,75.0,10:53 PM,,10.0,Calm,Calm,0,Boise,Idaho,83701
27,Clear,2016-08-08 05:53:00,36.0,,-,28,N/A,29.70,71.1,11:53 PM,,10.0,South,4.6,190,Boise,Idaho,83701
0,Clear,2016-08-08 06:53:00,37.9,,-,27,N/A,29.71,73.9,12:53 AM,,10.0,West,4.6,280,Boise,Idaho,83701
1,Clear,2016-08-08 07:53:00,42.1,,-,40,N/A,29.74,66.9,1:53 AM,,10.0,West,6.9,260,Boise,Idaho,83701
2,Clear,2016-08-08 08:53:00,45.0,,-,52,N/A,29.77,63.0,2:53 AM,,10.0,Variable,3.5,0,Boise,Idaho,83701
3,Clear,2016-08-08 09:53:00,43.0,,-,52,N/A,29.78,61.0,3:53 AM,,10.0,SSW,3.5,210,Boise,Idaho,83701
4,Clear,2016-08-08 10:53:00,42.1,,-,51,N/A,29.80,60.1,4:53 AM,,10.0,NW,8.1,310,Boise,Idaho,83701
5,Clear,2016-08-08 11:53:00,42.1,,-,51,N/A,29.81,60.1,5:53 AM,,10.0,WNW,5.8,290,Boise,Idaho,83701
6,Clear,2016-08-08 12:53:00,43.0,,-,59,N/A,29.83,57.0,6:53 AM,,10.0,WNW,6.9,300,Boise,Idaho,83701
7,Clear,2016-08-08 13:53:00,43.0,,-,55,N/A,29.84,59.0,7:53 AM,,10.0,NW,4.6,310,Boise,Idaho,83701
8,Clear,2016-08-08 14:53:00,43.0,,-,45,N/A,29.85,64.9,8:53 AM,,10.0,NNW,6.9,340,Boise,Idaho,83701
9,Clear,2016-08-08 15:53:00,42.1,,-,39,N/A,29.85,68.0,9:53 AM,,10.0,NW,13.8,320,Boise,Idaho,83701
10,Clear,2016-08-08 16:53:00,41.0,,-,35,N/A,29.86,70.0,10:53 AM,,10.0,WNW,17.3,300,Boise,Idaho,83701
11,Clear,2016-08-08 17:53:00,41.0,,-,33,N/A,29.86,72.0,11:53 AM,,10.0,NNW,12.7,330,Boise,Idaho,83701
12,Clear,2016-08-08 18:53:00,39.0,,19.6,27,N/A,29.83,75.0,12:53 PM,,10.0,NW,12.7,320,Boise,Idaho,83701
13,Clear,2016-08-08 19:53:00,34.0,,-,20,N/A,29.81,78.1,1:53 PM,,10.0,NNW,13.8,330,Boise,Idaho,83701
14,Clear,2016-08-08 20:53:00,36.0,,-,20,N/A,29.79,80.1,2:53 PM,,10.0,NW,15.0,310,Boise,Idaho,83701
15,Clear,2016-08-08 21:53:00,37.0,,19.6,21,N/A,29.76,81.0,3:53 PM,,10.0,NNW,13.8,340,Boise,Idaho,83701
16,Clear,2016-08-08 22:53:00,37.0,,21.9,19,N/A,29.74,82.9,4:53 PM,,10.0,NNW,16.1,330,Boise,Idaho,83701
17,Clear,2016-08-08 23:53:00,33.1,,-,16,N/A,29.72,84.0,5:53 PM,,10.0,North,13.8,350,Boise,Idaho,83701
18,Clear,2016-08-09 00:53:00,28.9,,-,14,N/A,29.70,84.0,6:53 PM,,10.0,NW,15.0,320,Boise,Idaho,83701
19,Clear,2016-08-09 01:53:00,28.9,,-,14,N/A,29.70,82.0,7:53 PM,,10.0,NNW,11.5,340,Boise,Idaho,83701
20,Clear,2016-08-09 02:53:00,30.9,,-,18,N/A,29.70,78.1,8:53 PM,,10.0,NW,8.1,310,Boise,Idaho,83701
21,Clear,2016-08-09 03:53:00,32.0,,-,21,N/A,29.70,75.0,9:53 PM,,10.0,North,6.9,10,Boise,Idaho,83701
22,Clear,2016-08-09 04:53:00,32.0,,-,22,N/A,29.71,73.0,10:53 PM,,10.0,Calm,Calm,0,Boise,Idaho,83701
23,Clear,2016-08-09 05:53:00,39.9,,-,35,N/A,29.73,69.1,11:53 PM,,10.0,West,9.2,270,Boise,Idaho,83701
0,Clear,2016-08-09 06:53:00,41.0,,-,42,N/A,29.76,64.9,12:53 AM,,10.0,WNW,13.8,300,Boise,Idaho,83701
1,Clear,2016-08-09 07:53:00,41.0,,-,45,N/A,29.77,63.0,1:53 AM,,10.0,WNW,12.7,290,Boise,Idaho,83701
2,Clear,2016-08-09 08:53:00,42.1,,-,50,N/A,29.78,61.0,2:53 AM,,10.0,WNW,9.2,300,Boise,Idaho,83701
3,Clear,2016-08-09 09:53:00,42.1,,-,48,N/A,29.80,62.1,3:53 AM,,10.0,WNW,12.7,300,Boise,Idaho,83701
4,Clear,2016-08-09 10:53:00,43.0,,-,55,N/A,29.81,59.0,4:53 AM,,10.0,NW,12.7,310,Boise,Idaho,83701
5,Partly Cloudy,2016-08-09 11:53:00,43.0,,-,55,N/A,29.82,59.0,5:53 AM,,10.0,NNW,9.2,340,Boise,Idaho,83701
6,Mostly Cloudy,2016-08-09 12:53:00,44.1,,-,60,N/A,29.85,57.9,6:53 AM,,10.0,NW,9.2,320,Boise,Idaho,83701
7,Mostly Cloudy,2016-08-09 13:53:00,42.1,,-,56,N/A,29.87,57.9,7:53 AM,,10.0,NW,15.0,320,Boise,Idaho,83701
8,Partly Cloudy,2016-08-09 14:53:00,41.0,,-,53,N/A,29.90,57.9,8:53 AM,,10.0,NW,12.7,320,Boise,Idaho,83701
9,Clear,2016-08-09 15:53:00,42.1,,-,48,N/A,29.91,62.1,9:53 AM,,10.0,NW,12.7,320,Boise,Idaho,83701
10,Clear,2016-08-09 16:53:00,42.1,,-,45,N/A,29.91,64.0,10:53 AM,,10.0,WNW,15.0,290,Boise,Idaho,83701
11,Clear,2016-08-09 17:53:00,41.0,,-,40,N/A,29.91,66.0,11:53 AM,,10.0,NW,5.8,320,Boise,Idaho,83701
12,Clear,2016-08-09 18:53:00,39.0,,19.6,36,N/A,29.92,66.9,12:53 PM,,10.0,WNW,11.5,300,Boise,Idaho,83701
13,Clear,2016-08-09 19:53:00,39.0,,23.0,31,N/A,29.92,71.1,1:53 PM,,10.0,WNW,16.1,300,Boise,Idaho,83701
14,Partly Cloudy,2016-08-09 20:53:00,35.1,,27.6,27,N/A,29.91,71.1,2:53 PM,,10.0,WNW,8.1,300,Boise,Idaho,83701
15,Clear,2016-08-09 21:53:00,37.0,,25.3,28,N/A,29.91,72.0,3:53 PM,,10.0,WNW,9.2,290,Boise,Idaho,83701
16,Clear,2016-08-09 22:53:00,37.0,,19.6,26,N/A,29.89,73.9,4:53 PM,,10.0,NW,12.7,320,Boise,Idaho,83701
17,Partly Cloudy,2016-08-09 23:53:00,37.0,,-,26,N/A,29.88,73.9,5:53 PM,,10.0,NNW,15.0,340,Boise,Idaho,83701
18,Clear,2016-08-10 00:53:00,35.1,,-,24,N/A,29.88,73.9,6:53 PM,,10.0,NNW,13.8,340,Boise,Idaho,83701
19,Clear,2016-08-10 01:53:00,36.0,,-,26,N/A,29.88,73.0,7:53 PM,,10.0,NNW,16.1,340,Boise,Idaho,83701
20,Clear,2016-08-10 02:53:00,35.1,,-,29,N/A,29.90,69.1,8:53 PM,,10.0,NNW,11.5,340,Boise,Idaho,83701
21,Clear,2016-08-10 03:53:00,37.0,,-,33,N/A,29.91,66.9,9:53 PM,,10.0,North,8.1,350,Boise,Idaho,83701
22,Clear,2016-08-10 04:53:00,37.0,,-,34,N/A,29.91,66.0,10:53 PM,,10.0,NW,3.5,310,Boise,Idaho,83701
23,Clear,2016-08-10 05:53:00,39.0,,-,41,N/A,29.92,63.0,11:53 PM,,10.0,WNW,5.8,300,Boise,Idaho,83701
0,Clear,2016-08-10 06:53:00,39.0,,-,46,N/A,29.92,60.1,12:53 AM,,10.0,WNW,5.8,300,Boise,Idaho,83701
1,Clear,2016-08-10 07:53:00,39.9,,-,55,N/A,29.94,55.9,1:53 AM,,10.0,SSE,5.8,150,Boise,Idaho,83701
2,Clear,2016-08-10 08:53:00,41.0,,-,62,N/A,29.94,54.0,2:53 AM,,10.0,WNW,6.9,300,Boise,Idaho,83701
3,Clear,2016-08-10 09:53:00,39.9,,-,59,N/A,29.95,54.0,3:53 AM,,10.0,Calm,Calm,0,Boise,Idaho,83701
4,Clear,2016-08-10 10:53:00,39.9,,-,59,N/A,29.95,54.0,4:53 AM,,10.0,Calm,Calm,0,Boise,Idaho,83701
5,Clear,2016-08-10 11:53:00,37.0,,-,59,N/A,29.97,51.1,5:53 AM,,10.0,SSE,5.8,150,Boise,Idaho,83701
6,Clear,2016-08-10 12:53:00,37.0,,-,57,N/A,29.99,52.0,6:53 AM,,10.0,SE,8.1,140,Boise,Idaho,83701
7,Clear,2016-08-10 13:53:00,37.0,,-,53,N/A,30.00,54.0,7:53 AM,,10.0,SE,6.9,130,Boise,Idaho,83701
8,Clear,2016-08-10 14:53:00,39.9,,-,49,N/A,30.01,59.0,8:53 AM,,10.0,Calm,Calm,0,Boise,Idaho,83701
9,Clear,2016-08-10 15:53:00,39.0,,-,43,N/A,30.01,62.1,9:53 AM,,10.0,Calm,Calm,0,Boise,Idaho,83701
10,Clear,2016-08-10 16:53:00,39.9,,-,38,N/A,30.01,66.0,10:53 AM,,10.0,Calm,Calm,0,Boise,Idaho,83701
11,Clear,2016-08-10 17:53:00,42.1,,-,38,N/A,30.01,69.1,11:53 AM,,10.0,NNW,5.8,330,Boise,Idaho,83701
12,Clear,2016-08-10 18:53:00,37.0,,-,27,N/A,30.00,73.0,12:53 PM,,10.0,NNW,8.1,330,Boise,Idaho,83701
13,Clear,2016-08-10 19:53:00,36.0,,-,26,N/A,29.99,73.0,1:53 PM,,10.0,NNW,4.6,340,Boise,Idaho,83701
14,Clear,2016-08-10 20:53:00,35.1,,-,23,N/A,29.97,75.9,2:53 PM,,10.0,NW,9.2,320,Boise,Idaho,83701
15,Clear,2016-08-10 21:53:00,35.1,,-,22,N/A,29.95,77.0,3:53 PM,,10.0,West,8.1,280,Boise,Idaho,83701
16,Clear,2016-08-10 22:53:00,35.1,,18.4,21,N/A,29.93,78.1,4:53 PM,,10.0,West,11.5,280,Boise,Idaho,83701
17,Clear,2016-08-10 23:53:00,35.1,,-,20,N/A,29.93,79.0,5:53 PM,,10.0,WNW,10.4,290,Boise,Idaho,83701
18,Clear,2016-08-11 00:53:00,36.0,,-,21,N/A,29.91,79.0,6:53 PM,,10.0,NW,12.7,310,Boise,Idaho,83701
19,Clear,2016-08-11 01:53:00,37.0,,-,24,N/A,29.91,77.0,7:53 PM,,10.0,West,11.5,280,Boise,Idaho,83701
20,Clear,2016-08-11 02:53:00,37.0,,-,26,N/A,29.92,73.9,8:53 PM,,10.0,West,6.9,280,Boise,Idaho,83701
21,Clear,2016-08-11 03:53:00,37.0,,-,30,N/A,29.94,70.0,9:53 PM,,10.0,SW,4.6,220,Boise,Idaho,83701
22,Clear,2016-08-11 04:53:00,37.9,,-,31,N/A,29.94,70.0,10:53 PM,,10.0,Calm,Calm,0,Boise,Idaho,83701
23,Clear,2016-08-11 05:53:00,37.0,,-,36,N/A,29.94,64.9,11:53 PM,,10.0,Calm,Calm,0,Boise,Idaho,83701
0,Clear,2016-08-11 06:53:00,37.9,,-,41,N/A,29.94,62.1,12:53 AM,,10.0,East,4.6,100,Boise,Idaho,83701
1,Clear,2016-08-11 07:53:00,37.0,,-,41,N/A,29.96,61.0,1:53 AM,,10.0,SE,5.8,140,Boise,Idaho,83701
2,Clear,2016-08-11 08:53:00,37.0,,-,44,N/A,29.96,59.0,2:53 AM,,10.0,SE,3.5,140,Boise,Idaho,83701
3,Clear,2016-08-11 09:53:00,37.0,,-,44,N/A,29.97,59.0,3:53 AM,,10.0,SSE,4.6,150,Boise,Idaho,83701
4,Clear,2016-08-11 10:53:00,37.0,,-,41,N/A,29.98,61.0,4:53 AM,,10.0,Calm,Calm,0,Boise,Idaho,83701
5,Clear,2016-08-11 11:53:00,37.9,,-,47,N/A,30.00,57.9,5:53 AM,,10.0,SSE,3.5,160,Boise,Idaho,83701
6,Clear,2016-08-11 12:53:00,39.0,,-,51,N/A,30.02,57.0,6:53 AM,,10.0,Calm,Calm,0,Boise,Idaho,83701
7,Clear,2016-08-11 13:53:00,39.9,,-,47,N/A,30.03,60.1,7:53 AM,,10.0,SSE,4.6,160,Boise,Idaho,83701
8,Clear,2016-08-11 14:53:00,41.0,,-,43,N/A,30.05,64.0,8:53 AM,,10.0,SE,3.5,140,Boise,Idaho,83701
9,Clear,2016-08-11 15:53:00,41.0,,-,36,N/A,30.06,69.1,9:53 AM,,10.0,West,5.8,270,Boise,Idaho,83701
10,Clear,2016-08-11 16:53:00,42.1,,-,34,N/A,30.06,72.0,10:53 AM,,10.0,WNW,6.9,290,Boise,Idaho,83701
11,Clear,2016-08-11 17:53:00,43.0,,-,32,N/A,30.06,75.0,11:53 AM,,10.0,NW,9.2,310,Boise,Idaho,83701
12,Clear,2016-08-11 18:53:00,42.1,,-,26,N/A,30.05,80.1,12:53 PM,,10.0,NNW,10.4,340,Boise,Idaho,83701
13,Clear,2016-08-11 19:53:00,41.0,,-,23,N/A,30.03,82.0,1:53 PM,,10.0,NW,8.1,310,Boise,Idaho,83701
14,Clear,2016-08-11 20:53:00,39.9,,20.7,20,N/A,30.02,84.9,2:53 PM,,10.0,NNW,15.0,340,Boise,Idaho,83701
15,Clear,2016-08-11 21:53:00,39.9,,21.9,21,N/A,30.01,84.0,3:53 PM,,10.0,NW,10.4,310,Boise,Idaho,83701
16,Clear,2016-08-11 22:53:00,39.9,,-,20,N/A,30.00,84.9,4:53 PM,,10.0,NNW,8.1,340,Boise,Idaho,83701
17,Clear,2016-08-11 23:53:00,36.0,,-,16,N/A,29.99,87.1,5:53 PM,,10.0,NW,8.1,320,Boise,Idaho,83701
18,Clear,2016-08-12 00:53:00,36.0,,-,17,N/A,29.98,86.0,6:53 PM,,10.0,WNW,10.4,290,Boise,Idaho,83701
19,Clear,2016-08-12 01:53:00,36.0,,-,18,N/A,29.98,84.0,7:53 PM,,10.0,West,10.4,280,Boise,Idaho,83701
20,Clear,2016-08-12 02:53:00,37.9,,-,21,N/A,29.98,81.0,8:53 PM,,10.0,WNW,4.6,290,Boise,Idaho,83701
21,Clear,2016-08-12 03:53:00,39.9,,-,25,N/A,29.99,78.1,9:53 PM,,10.0,NW,3.5,320,Boise,Idaho,83701
22,Clear,2016-08-12 04:53:00,39.0,,-,27,N/A,30.00,75.0,10:53 PM,,10.0,Calm,Calm,0,Boise,Idaho,83701
23,Clear,2016-08-12 05:53:00,37.9,,-,30,N/A,30.01,71.1,11:53 PM,,10.0,SE,3.5,140,Boise,Idaho,83701
0,Clear,2016-08-12 06:53:00,37.0,,-,32,N/A,30.01,68.0,12:53 AM,,10.0,SE,4.6,140,Boise,Idaho,83701
1,Clear,2016-08-12 07:53:00,37.0,,-,34,N/A,30.01,66.0,1:53 AM,,10.0,SE,5.8,140,Boise,Idaho,83701
2,Clear,2016-08-12 08:53:00,37.0,,-,34,N/A,30.01,66.0,2:53 AM,,10.0,SE,8.1,130,Boise,Idaho,83701
3,Clear,2016-08-12 09:53:00,37.0,,-,36,N/A,30.02,64.9,3:53 AM,,10.0,SE,4.6,140,Boise,Idaho,83701
4,Clear,2016-08-12 10:53:00,37.0,,-,37,N/A,30.03,64.0,4:53 AM,,10.0,Calm,Calm,0,Boise,Idaho,83701
5,Clear,2016-08-12 11:53:00,37.9,,-,41,N/A,30.03,62.1,5:53 AM,,10.0,SSE,8.1,150,Boise,Idaho,83701
6,Clear,2016-08-12 12:53:00,39.0,,-,46,N/A,30.05,60.1,6:53 AM,,10.0,SSE,4.6,160,Boise,Idaho,83701
7,Clear,2016-08-12 13:53:00,39.9,,-,43,N/A,30.06,63.0,7:53 AM,,10.0,South,4.6,170,Boise,Idaho,83701
8,Clear,2016-08-12 14:53:00,41.0,,-,35,N/A,30.07,70.0,8:53 AM,,9.0,Calm,Calm,0,Boise,Idaho,83701
9,Clear,2016-08-12 15:53:00,42.1,,-,33,N/A,30.08,73.0,9:53 AM,,10.0,Calm,Calm,0,Boise,Idaho,83701
10,Clear,2016-08-12 16:53:00,44.1,,-,32,N/A,30.08,75.9,10:53 AM,,10.0,NW,3.5,310,Boise,Idaho,83701
11,Clear,2016-08-12 17:53:00,43.0,,-,26,N/A,30.08,81.0,11:53 AM,,10.0,Calm,Calm,0,Boise,Idaho,83701
12,Clear,2016-08-12 18:53:00,42.1,,-,22,N/A,30.06,84.9,12:53 PM,,10.0,Variable,3.5,0,Boise,Idaho,83701
13,Clear,2016-08-12 19:53:00,39.9,,-,19,N/A,30.04,87.1,1:53 PM,,10.0,NNW,8.1,330,Boise,Idaho,83701
14,Clear,2016-08-12 20:53:00,39.0,,-,17,N/A,30.03,90.0,2:53 PM,,10.0,North,-9999.0,0,Boise,Idaho,83701
15,Clear,2016-08-12 21:53:00,34.0,,-,14,N/A,30.01,90.0,3:53 PM,,10.0,WNW,10.4,300,Boise,Idaho,83701
16,Clear,2016-08-12 22:53:00,37.0,,-,15,N/A,29.99,91.0,4:53 PM,,10.0,NW,12.7,320,Boise,Idaho,83701
17,Clear,2016-08-12 23:53:00,28.9,,-,11,N/A,29.97,91.0,5:53 PM,,10.0,NNW,13.8,330,Boise,Idaho,83701
18,Clear,2016-08-13 00:53:00,25.0,,-,9,N/A,29.95,91.0,6:53 PM,,10.0,NNW,11.5,340,Boise,Idaho,83701
19,Clear,2016-08-13 01:53:00,21.9,,-,9,N/A,29.94,89.1,7:53 PM,,10.0,NW,10.4,320,Boise,Idaho,83701
20,Clear,2016-08-13 02:53:00,26.1,,-,12,N/A,29.94,84.0,8:53 PM,,10.0,NNW,5.8,330,Boise,Idaho,83701
21,Clear,2016-08-13 03:53:00,33.1,,-,17,N/A,29.95,82.0,9:53 PM,,10.0,Calm,Calm,0,Boise,Idaho,83701
22,Clear,2016-08-13 04:53:00,35.1,,-,23,N/A,29.97,75.9,10:53 PM,,10.0,Calm,Calm,0,Boise,Idaho,83701
23,Clear,2016-08-13 05:53:00,30.9,,-,22,N/A,29.96,72.0,11:53 PM,,10.0,SSE,3.5,150,Boise,Idaho,83701
0,Clear,2016-08-13 06:53:00,30.0,,-,22,N/A,29.97,71.1,12:53 AM,,10.0,SSE,3.5,160,Boise,Idaho,83701
1,Clear,2016-08-13 07:53:00,35.1,,-,28,N/A,29.97,70.0,1:53 AM,,10.0,SE,6.9,130,Boise,Idaho,83701
2,Clear,2016-08-13 08:53:00,34.0,,-,28,N/A,29.96,68.0,2:53 AM,,10.0,SSE,5.8,150,Boise,Idaho,83701
3,Clear,2016-08-13 09:53:00,34.0,,-,28,N/A,29.96,68.0,3:53 AM,,10.0,SE,8.1,140,Boise,Idaho,83701
4,Clear,2016-08-13 10:53:00,35.1,,-,29,N/A,29.97,69.1,4:53 AM,,10.0,SSE,5.8,160,Boise,Idaho,83701
5,Clear,2016-08-13 11:53:00,35.1,,-,31,N/A,29.99,66.9,5:53 AM,,10.0,SE,8.1,140,Boise,Idaho,83701
6,Clear,2016-08-13 12:53:00,36.0,,-,37,N/A,30.00,63.0,6:53 AM,,10.0,SE,4.6,130,Boise,Idaho,83701
7,Haze,2016-08-13 13:53:00,37.0,,-,36,N/A,30.01,64.9,7:53 AM,,6.0,SE,4.6,140,Boise,Idaho,83701
8,Haze,2016-08-13 14:53:00,37.9,,-,29,N/A,30.01,72.0,8:53 AM,,5.0,SE,3.5,130,Boise,Idaho,83701
9,Haze,2016-08-13 15:53:00,37.0,,-,24,N/A,30.01,77.0,9:53 AM,,4.0,Calm,Calm,0,Boise,Idaho,83701
10,Haze,2016-08-13 16:53:00,36.0,,-,19,N/A,30.01,82.0,10:53 AM,,4.0,Calm,Calm,0,Boise,Idaho,83701
11,Haze,2016-08-13 17:53:00,37.9,,-,19,N/A,30.01,84.9,11:53 AM,,6.0,Variable,4.6,0,Boise,Idaho,83701
12,Clear,2016-08-13 18:53:00,39.9,,-,20,N/A,29.99,86.0,12:53 PM,,10.0,Calm,Calm,0,Boise,Idaho,83701
13,Clear,2016-08-13 19:53:00,39.9,,-,16,N/A,29.96,91.9,1:53 PM,,10.0,North,4.6,360,Boise,Idaho,83701
14,Clear,2016-08-13 20:53:00,39.0,,-,15,N/A,29.94,93.0,2:53 PM,,10.0,Variable,4.6,0,Boise,Idaho,83701
15,Clear,2016-08-13 21:53:00,36.0,,-,13,N/A,29.91,93.9,3:53 PM,,10.0,NW,5.8,310,Boise,Idaho,83701
16,Clear,2016-08-13 22:53:00,35.1,,-,13,N/A,29.90,93.0,4:53 PM,,10.0,NNW,9.2,340,Boise,Idaho,83701
17,Clear,2016-08-13 23:53:00,35.1,,-,12,N/A,29.88,95.0,5:53 PM,,10.0,NNW,8.1,340,Boise,Idaho,83701
18,Clear,2016-08-14 00:53:00,27.0,,-,9,N/A,29.86,95.0,6:53 PM,,10.0,North,9.2,10,Boise,Idaho,83701
19,Clear,2016-08-14 01:53:00,28.9,,-,11,N/A,29.85,91.0,7:53 PM,,10.0,NNW,5.8,330,Boise,Idaho,83701
20,Clear,2016-08-14 02:53:00,33.1,,-,14,N/A,29.85,88.0,8:53 PM,,10.0,Calm,Calm,0,Boise,Idaho,83701
21,Clear,2016-08-14 03:53:00,33.1,,-,18,N/A,29.86,81.0,9:53 PM,,10.0,SE,4.6,140,Boise,Idaho,83701
22,Clear,2016-08-14 04:53:00,28.0,,-,15,N/A,29.85,79.0,10:53 PM,,10.0,SE,5.8,140,Boise,Idaho,83701
23,Clear,2016-08-14 05:53:00,32.0,,-,19,N/A,29.85,78.1,11:53 PM,,10.0,SE,3.5,140,Boise,Idaho,83701
0,Clear,2016-08-14 06:53:00,33.1,,-,21,N/A,29.85,75.9,12:53 AM,,10.0,ESE,5.8,110,Boise,Idaho,83701
1,Clear,2016-08-14 07:53:00,35.1,,-,24,N/A,29.85,73.9,1:53 AM,,10.0,SE,6.9,130,Boise,Idaho,83701
2,Clear,2016-08-14 08:53:00,34.0,,-,24,N/A,29.85,73.0,2:53 AM,,10.0,SE,8.1,130,Boise,Idaho,83701
3,Clear,2016-08-14 09:53:00,35.1,,-,27,N/A,29.85,71.1,3:53 AM,,10.0,SE,8.1,130,Boise,Idaho,83701
4,Clear,2016-08-14 10:53:00,36.0,,-,30,N/A,29.85,69.1,4:53 AM,,10.0,SSE,3.5,150,Boise,Idaho,83701
5,Clear,2016-08-14 11:53:00,36.0,,-,30,N/A,29.85,69.1,5:53 AM,,8.0,ESE,8.1,120,Boise,Idaho,83701
6,Haze,2016-08-14 12:53:00,36.0,,-,30,N/A,29.86,69.1,6:53 AM,,5.0,Calm,Calm,0,Boise,Idaho,83701
7,Haze,2016-08-14 13:53:00,36.0,,-,30,N/A,29.88,69.1,7:53 AM,,3.0,Calm,Calm,0,Boise,Idaho,83701
8,Haze,2016-08-14 14:50:00,37.4,,-,27,N/A,29.97,73.4,8:50 AM,,2.5,SE,4.6,130,Boise,Idaho,83701
9,Haze,2016-08-14 14:53:00,37.0,,-,27,N/A,29.88,73.0,8:53 AM,,2.0,ESE,4.6,120,Boise,Idaho,83701
10,Haze,2016-08-14 15:11:00,37.0,,-,25,N/A,29.98,75.0,9:11 AM,,1.8,Calm,Calm,0,Boise,Idaho,83701
11,Haze,2016-08-14 15:51:00,35.6,,-,21,N/A,29.98,78.8,9:51 AM,,1.5,ESE,5.8,120,Boise,Idaho,83701
12,Haze,2016-08-14 15:53:00,36.0,,-,21,N/A,29.89,79.0,9:53 AM,,1.5,ESE,5.8,120,Boise,Idaho,83701
13,Haze,2016-08-14 16:53:00,44.1,,-,26,N/A,29.89,82.0,10:53 AM,,1.8,NNE,6.9,30,Boise,Idaho,83701
14,Haze,2016-08-14 17:53:00,37.9,,-,18,N/A,29.88,86.0,11:53 AM,,1.8,ENE,6.9,70,Boise,Idaho,83701
15,Haze,2016-08-14 18:00:00,37.0,,-,18,N/A,29.97,86.0,12:00 PM,,2.5,Variable,3.5,0,Boise,Idaho,83701
16,Haze,2016-08-14 18:04:00,37.0,,-,17,N/A,29.98,87.1,12:04 PM,,1.8,Calm,Calm,0,Boise,Idaho,83701
17,Haze,2016-08-14 18:53:00,35.1,,-,15,N/A,29.86,89.1,12:53 PM,,1.8,Calm,Calm,0,Boise,Idaho,83701
18,Haze,2016-08-14 18:57:00,35.1,,-,15,N/A,29.96,89.1,12:57 PM,,4.0,Calm,Calm,0,Boise,Idaho,83701
19,Haze,2016-08-14 19:53:00,36.0,,-,13,N/A,29.83,93.9,1:53 PM,,5.0,North,6.9,360,Boise,Idaho,83701
20,Haze,2016-08-14 20:53:00,37.9,,-,14,N/A,29.81,95.0,2:53 PM,,6.0,NNW,9.2,340,Boise,Idaho,83701
21,Clear,2016-08-14 21:53:00,43.0,,-,18,N/A,29.80,91.9,3:53 PM,,10.0,NNW,10.4,340,Boise,Idaho,83701
22,Clear,2016-08-14 22:53:00,37.0,,-,14,N/A,29.79,93.0,4:53 PM,,10.0,NNW,10.4,330,Boise,Idaho,83701
23,Clear,2016-08-14 23:53:00,36.0,,-,13,N/A,29.78,93.0,5:53 PM,,10.0,NW,6.9,320,Boise,Idaho,83701
24,Clear,2016-08-15 00:53:00,42.1,,-,18,N/A,29.77,91.0,6:53 PM,,10.0,WNW,9.2,300,Boise,Idaho,83701
25,Clear,2016-08-15 01:53:00,44.1,,-,20,N/A,29.76,90.0,7:53 PM,,10.0,WNW,6.9,300,Boise,Idaho,83701
26,Clear,2016-08-15 02:53:00,46.0,,-,25,N/A,29.78,86.0,8:53 PM,,10.0,West,4.6,260,Boise,Idaho,83701
27,Clear,2016-08-15 03:53:00,51.1,,-,35,N/A,29.79,81.0,9:53 PM,,10.0,SW,3.5,230,Boise,Idaho,83701
28,Clear,2016-08-15 04:53:00,51.1,,-,38,N/A,29.81,79.0,10:53 PM,,10.0,Calm,Calm,0,Boise,Idaho,83701
29,Clear,2016-08-15 05:53:00,48.9,,-,37,N/A,29.81,77.0,11:53 PM,,10.0,Calm,Calm,0,Boise,Idaho,83701
0,Clear,2016-08-15 06:53:00,46.9,,-,37,N/A,29.83,75.0,12:53 AM,,10.0,Calm,Calm,0,Boise,Idaho,83701
1,Clear,2016-08-15 07:53:00,46.0,,-,41,N/A,29.84,71.1,1:53 AM,,10.0,South,3.5,190,Boise,Idaho,83701
2,Clear,2016-08-15 08:53:00,46.9,,-,44,N/A,29.84,70.0,2:53 AM,,10.0,Calm,Calm,0,Boise,Idaho,83701
3,Clear,2016-08-15 09:53:00,46.0,,-,47,N/A,29.86,66.9,3:53 AM,,10.0,SSW,4.6,210,Boise,Idaho,83701
4,Clear,2016-08-15 10:53:00,45.0,,-,42,N/A,29.86,69.1,4:53 AM,,10.0,Calm,Calm,0,Boise,Idaho,83701
5,Clear,2016-08-15 11:53:00,41.0,,-,39,N/A,29.88,66.9,5:53 AM,,10.0,SSE,4.6,150,Boise,Idaho,83701
6,Clear,2016-08-15 12:53:00,39.0,,-,37,N/A,29.89,66.0,6:53 AM,,9.0,SE,8.1,140,Boise,Idaho,83701
7,Clear,2016-08-15 13:53:00,39.0,,-,33,N/A,29.91,69.1,7:53 AM,,7.0,SSE,6.9,160,Boise,Idaho,83701
8,Haze,2016-08-15 14:53:00,39.9,,-,32,N/A,29.92,71.1,8:53 AM,,6.0,Calm,Calm,0,Boise,Idaho,83701
9,Haze,2016-08-15 15:53:00,41.0,,-,27,N/A,29.93,78.1,9:53 AM,,6.0,Calm,Calm,0,Boise,Idaho,83701
10,Clear,2016-08-15 16:53:00,42.1,,-,25,N/A,29.94,81.0,10:53 AM,,10.0,WSW,4.6,250,Boise,Idaho,83701
11,Clear,2016-08-15 17:53:00,45.0,,-,26,N/A,29.94,82.9,11:53 AM,,10.0,NW,6.9,320,Boise,Idaho,83701
12,Clear,2016-08-15 18:53:00,46.0,,-,25,N/A,29.92,86.0,12:53 PM,,10.0,WNW,8.1,290,Boise,Idaho,83701
13,Clear,2016-08-15 19:53:00,45.0,,19.6,20,N/A,29.90,91.0,1:53 PM,,10.0,WNW,11.5,300,Boise,Idaho,83701
14,Clear,2016-08-15 20:53:00,42.1,,-,17,N/A,29.88,93.9,2:53 PM,,10.0,NW,16.1,310,Boise,Idaho,83701
15,Clear,2016-08-15 21:53:00,34.0,,20.7,11,N/A,29.87,97.0,3:53 PM,,10.0,WNW,15.0,300,Boise,Idaho,83701
16,Clear,2016-08-15 22:53:00,37.9,,-,13,N/A,29.84,97.0,4:53 PM,,10.0,WNW,12.7,300,Boise,Idaho,83701
17,Clear,2016-08-15 23:53:00,35.1,,23.0,11,N/A,29.83,97.0,5:53 PM,,10.0,WNW,16.1,300,Boise,Idaho,83701
18,Clear,2016-08-16 00:53:00,34.0,,-,11,N/A,29.83,96.1,6:53 PM,,10.0,WNW,12.7,300,Boise,Idaho,83701
19,Clear,2016-08-16 01:53:00,36.0,,-,13,N/A,29.82,93.9,7:53 PM,,10.0,WNW,10.4,300,Boise,Idaho,83701
20,Clear,2016-08-16 02:53:00,42.1,,-,19,N/A,29.83,89.1,8:53 PM,,10.0,West,4.6,260,Boise,Idaho,83701
21,Clear,2016-08-16 03:53:00,44.1,,-,25,N/A,29.85,84.0,9:53 PM,,10.0,Calm,Calm,0,Boise,Idaho,83701
22,Clear,2016-08-16 04:53:00,46.0,,-,29,N/A,29.86,81.0,10:53 PM,,10.0,Calm,Calm,0,Boise,Idaho,83701
23,Clear,2016-08-16 05:53:00,42.1,,-,30,N/A,29.86,75.9,11:53 PM,,10.0,SE,3.5,130,Boise,Idaho,83701
0,Clear,2016-08-16 06:53:00,39.0,,-,28,N/A,29.87,73.9,12:53 AM,,10.0,SSE,3.5,160,Boise,Idaho,83701
1,Clear,2016-08-16 07:53:00,35.1,,-,26,N/A,29.87,72.0,1:53 AM,,10.0,SSE,4.6,160,Boise,Idaho,83701
2,Clear,2016-08-16 08:53:00,39.0,,-,31,N/A,29.87,71.1,2:53 AM,,10.0,SSE,3.5,160,Boise,Idaho,83701
3,Clear,2016-08-16 09:53:00,42.1,,-,40,N/A,29.88,66.9,3:53 AM,,10.0,South,5.8,190,Boise,Idaho,83701
4,Clear,2016-08-16 10:53:00,42.1,,-,40,N/A,29.88,66.9,4:53 AM,,10.0,WSW,3.5,240,Boise,Idaho,83701
5,Clear,2016-08-16 11:53:00,41.0,,-,42,N/A,29.88,64.9,5:53 AM,,10.0,South,3.5,190,Boise,Idaho,83701
6,Clear,2016-08-16 12:53:00,36.0,,-,35,N/A,29.90,64.0,6:53 AM,,7.0,SSE,6.9,160,Boise,Idaho,83701
7,Haze,2016-08-16 13:53:00,35.1,,-,30,N/A,29.92,68.0,7:53 AM,,6.0,South,5.8,190,Boise,Idaho,83701
8,Haze,2016-08-16 14:53:00,37.0,,-,27,N/A,29.93,73.0,8:53 AM,,6.0,SSE,6.9,160,Boise,Idaho,83701
9,Haze,2016-08-16 15:53:00,37.9,,-,25,N/A,29.94,75.9,9:53 AM,,6.0,East,5.8,100,Boise,Idaho,83701
10,Clear,2016-08-16 16:53:00,37.0,,-,20,N/A,29.92,82.0,10:53 AM,,7.0,East,5.8,100,Boise,Idaho,83701
11,Clear,2016-08-16 17:53:00,42.1,,-,21,N/A,29.92,86.0,11:53 AM,,8.0,Variable,3.5,0,Boise,Idaho,83701
12,Clear,2016-08-16 18:53:00,42.1,,-,20,N/A,29.91,88.0,12:53 PM,,7.0,Variable,3.5,0,Boise,Idaho,83701
13,Clear,2016-08-16 19:53:00,41.0,,-,17,N/A,29.89,91.9,1:53 PM,,10.0,North,-9999.0,0,Boise,Idaho,83701
14,Clear,2016-08-16 20:53:00,42.1,,-,17,N/A,29.87,93.0,2:53 PM,,10.0,WNW,6.9,300,Boise,Idaho,83701
15,Clear,2016-08-16 21:53:00,41.0,,-,15,N/A,29.85,95.0,3:53 PM,,10.0,West,9.2,270,Boise,Idaho,83701
16,Clear,2016-08-16 22:53:00,41.0,,-,15,N/A,29.83,96.1,4:53 PM,,10.0,West,9.2,270,Boise,Idaho,83701
17,Clear,2016-08-16 23:53:00,39.9,,-,14,N/A,29.82,97.0,5:53 PM,,7.0,NNW,8.1,340,Boise,Idaho,83701
18,Clear,2016-08-17 00:53:00,39.9,,-,13,N/A,29.80,98.1,6:53 PM,,7.0,WNW,6.9,290,Boise,Idaho,83701
19,Clear,2016-08-17 01:53:00,43.0,,-,17,N/A,29.79,95.0,7:53 PM,,7.0,West,5.8,260,Boise,Idaho,83701
20,Clear,2016-08-17 02:53:00,48.0,,-,25,N/A,29.80,88.0,8:53 PM,,7.0,WSW,4.6,240,Boise,Idaho,83701
21,Clear,2016-08-17 03:53:00,48.0,,-,28,N/A,29.82,84.9,9:53 PM,,9.0,NNE,3.5,20,Boise,Idaho,83701
22,Clear,2016-08-17 04:53:00,48.0,,-,32,N/A,29.82,80.1,10:53 PM,,9.0,Calm,Calm,0,Boise,Idaho,83701
23,Clear,2016-08-17 05:53:00,48.0,,-,34,N/A,29.82,79.0,11:53 PM,,9.0,Calm,Calm,0,Boise,Idaho,83701
0,Clear,2016-08-17 06:53:00,39.9,,-,26,N/A,29.83,77.0,12:53 AM,,10.0,SSE,4.6,160,Boise,Idaho,83701
1,Clear,2016-08-17 07:53:00,45.0,,-,33,N/A,29.83,75.9,1:53 AM,,10.0,South,3.5,190,Boise,Idaho,83701
2,Clear,2016-08-17 08:53:00,48.9,,-,40,N/A,29.83,75.0,2:53 AM,,10.0,NNW,3.5,330,Boise,Idaho,83701
3,Clear,2016-08-17 09:53:00,48.0,,-,40,N/A,29.83,73.9,3:53 AM,,10.0,South,6.9,180,Boise,Idaho,83701
4,Clear,2016-08-17 10:53:00,45.0,,-,38,N/A,29.84,72.0,4:53 AM,,10.0,SSE,4.6,160,Boise,Idaho,83701
5,Clear,2016-08-17 11:53:00,37.9,,-,29,N/A,29.83,72.0,5:53 AM,,10.0,SSE,6.9,150,Boise,Idaho,83701
6,Clear,2016-08-17 12:53:00,43.0,,-,35,N/A,29.85,72.0,6:53 AM,,10.0,South,4.6,190,Boise,Idaho,83701
7,Clear,2016-08-17 13:53:00,43.0,,-,35,N/A,29.86,72.0,7:53 AM,,10.0,Calm,Calm,0,Boise,Idaho,83701
8,Clear,2016-08-17 14:53:00,45.0,,-,38,N/A,29.87,72.0,8:53 AM,,10.0,Calm,Calm,0,Boise,Idaho,83701
9,Clear,2016-08-17 15:53:00,48.0,,-,36,N/A,29.87,77.0,9:53 AM,,7.0,Calm,Calm,0,Boise,Idaho,83701
10,Clear,2016-08-17 16:53:00,50.0,,-,35,N/A,29.88,80.1,10:53 AM,,10.0,WNW,6.9,300,Boise,Idaho,83701
11,Clear,2016-08-17 17:53:00,48.0,,-,32,N/A,29.88,80.1,11:53 AM,,8.0,NW,3.5,310,Boise,Idaho,83701
12,Clear,2016-08-17 18:53:00,46.9,,-,28,N/A,29.87,82.9,12:53 PM,,8.0,NNW,6.9,330,Boise,Idaho,83701
13,Partly Cloudy,2016-08-17 19:53:00,43.0,,-,23,N/A,29.85,84.9,1:53 PM,,10.0,NW,8.1,320,Boise,Idaho,83701
14,Clear,2016-08-17 20:53:00,46.0,,-,24,N/A,29.83,87.1,2:53 PM,,7.0,WNW,8.1,300,Boise,Idaho,83701
15,Haze,2016-08-17 21:53:00,43.0,,17.3,18,N/A,29.80,93.0,3:53 PM,,5.0,WNW,8.1,300,Boise,Idaho,83701
16,Clear,2016-08-17 22:53:00,46.9,,-,20,N/A,29.78,93.9,4:53 PM,,10.0,WNW,12.7,300,Boise,Idaho,83701
17,Clear,2016-08-17 23:53:00,45.0,,-,18,N/A,29.77,93.9,5:53 PM,,10.0,West,11.5,280,Boise,Idaho,83701
18,Clear,2016-08-18 00:53:00,46.0,,-,20,N/A,29.76,93.0,6:53 PM,,10.0,West,9.2,270,Boise,Idaho,83701
19,Clear,2016-08-18 01:53:00,46.9,,-,23,N/A,29.77,89.1,7:53 PM,,10.0,West,5.8,280,Boise,Idaho,83701
20,Clear,2016-08-18 02:53:00,50.0,,-,31,N/A,29.79,84.0,8:53 PM,,10.0,Calm,Calm,0,Boise,Idaho,83701
21,Clear,2016-08-18 03:53:00,50.0,,-,33,N/A,29.80,82.0,9:53 PM,,10.0,Calm,Calm,0,Boise,Idaho,83701
22,Clear,2016-08-18 04:53:00,48.9,,-,36,N/A,29.81,78.1,10:53 PM,,10.0,South,3.5,190,Boise,Idaho,83701
23,Clear,2016-08-18 05:53:00,48.0,,-,37,N/A,29.82,75.9,11:53 PM,,10.0,SE,3.5,130,Boise,Idaho,83701
0,Clear,2016-08-18 06:53:00,44.1,,-,31,N/A,29.83,77.0,12:53 AM,,10.0,SE,8.1,130,Boise,Idaho,83701
1,Clear,2016-08-18 07:53:00,45.0,,-,31,N/A,29.83,78.1,1:53 AM,,10.0,South,4.6,180,Boise,Idaho,83701
2,Clear,2016-08-18 08:53:00,43.0,,-,33,N/A,29.83,73.9,2:53 AM,,10.0,SSE,5.8,160,Boise,Idaho,83701
3,Clear,2016-08-18 09:53:00,44.1,,-,39,N/A,29.84,70.0,3:53 AM,,10.0,South,6.9,190,Boise,Idaho,83701
4,Clear,2016-08-18 10:53:00,42.1,,-,36,N/A,29.86,70.0,4:53 AM,,10.0,SSE,3.5,150,Boise,Idaho,83701
5,Clear,2016-08-18 11:53:00,42.1,,-,35,N/A,29.85,71.1,5:53 AM,,7.0,SE,6.9,130,Boise,Idaho,83701
6,Haze,2016-08-18 12:53:00,41.0,,-,35,N/A,29.87,70.0,6:53 AM,,6.0,SSW,5.8,200,Boise,Idaho,83701
7,Haze,2016-08-18 13:53:00,42.1,,-,36,N/A,29.90,70.0,7:53 AM,,5.0,SSE,8.1,150,Boise,Idaho,83701
8,Haze,2016-08-18 14:53:00,46.0,,-,42,N/A,29.91,70.0,8:53 AM,,6.0,Calm,Calm,0,Boise,Idaho,83701
9,Haze,2016-08-18 15:53:00,44.1,,-,34,N/A,29.92,73.9,9:53 AM,,4.0,Calm,Calm,0,Boise,Idaho,83701
10,Haze,2016-08-18 16:53:00,46.0,,-,33,N/A,29.93,77.0,10:53 AM,,6.0,Calm,Calm,0,Boise,Idaho,83701
11,Clear,2016-08-18 17:53:00,48.9,,-,33,N/A,29.92,81.0,11:53 AM,,7.0,Variable,3.5,0,Boise,Idaho,83701
12,Clear,2016-08-18 18:53:00,46.0,,-,25,N/A,29.90,86.0,12:53 PM,,7.0,West,4.6,270,Boise,Idaho,83701
13,Clear,2016-08-18 19:53:00,45.0,,-,22,N/A,29.88,89.1,1:53 PM,,7.0,Variable,5.8,0,Boise,Idaho,83701
14,Clear,2016-08-18 20:53:00,44.1,,-,19,N/A,29.86,91.9,2:53 PM,,10.0,West,8.1,280,Boise,Idaho,83701
15,Clear,2016-08-18 21:53:00,43.0,,-,18,N/A,29.83,93.0,3:53 PM,,10.0,West,11.5,270,Boise,Idaho,83701
16,Clear,2016-08-18 22:53:00,43.0,,-,17,N/A,29.80,95.0,4:53 PM,,10.0,WNW,15.0,290,Boise,Idaho,83701
17,Clear,2016-08-18 23:53:00,36.0,,-,13,N/A,29.78,95.0,5:53 PM,,10.0,WNW,13.8,290,Boise,Idaho,83701
18,Clear,2016-08-19 00:53:00,34.0,,-,12,N/A,29.77,95.0,6:53 PM,,10.0,WNW,10.4,300,Boise,Idaho,83701
19,Clear,2016-08-19 01:53:00,34.0,,-,12,N/A,29.76,93.0,7:53 PM,,10.0,WNW,9.2,290,Boise,Idaho,83701
20,Clear,2016-08-19 02:53:00,43.0,,-,21,N/A,29.78,87.1,8:53 PM,,10.0,West,5.8,260,Boise,Idaho,83701
21,Clear,2016-08-19 03:53:00,42.1,,-,23,N/A,29.80,84.0,9:53 PM,,10.0,NE,3.5,50,Boise,Idaho,83701
22,Clear,2016-08-19 04:53:00,43.0,,-,28,N/A,29.81,79.0,10:53 PM,,10.0,Calm,Calm,0,Boise,Idaho,83701
23,Clear,2016-08-19 05:53:00,44.1,,-,32,N/A,29.81,75.9,11:53 PM,,10.0,SSE,3.5,150,Boise,Idaho,83701
0,Clear,2016-08-19 06:53:00,46.9,,-,41,N/A,29.83,72.0,12:53 AM,,10.0,South,4.6,180,Boise,Idaho,83701
1,Clear,2016-08-19 07:53:00,46.9,,-,44,N/A,29.83,70.0,1:53 AM,,10.0,Calm,Calm,0,Boise,Idaho,83701
2,Clear,2016-08-19 08:53:00,46.9,,-,47,N/A,29.83,68.0,2:53 AM,,10.0,SW,3.5,230,Boise,Idaho,83701
3,Clear,2016-08-19 09:53:00,46.0,,-,48,N/A,29.84,66.0,3:53 AM,,10.0,Calm,Calm,0,Boise,Idaho,83701
4,Clear,2016-08-19 10:53:00,46.0,,-,52,N/A,29.85,64.0,4:53 AM,,9.0,WSW,6.9,250,Boise,Idaho,83701
5,Clear,2016-08-19 11:53:00,45.0,,-,52,N/A,29.86,63.0,5:53 AM,,10.0,Calm,Calm,0,Boise,Idaho,83701
6,Clear,2016-08-19 12:53:00,44.1,,-,52,N/A,29.88,62.1,6:53 AM,,8.0,SW,5.8,230,Boise,Idaho,83701
7,Clear,2016-08-19 13:53:00,44.1,,-,50,N/A,29.90,63.0,7:53 AM,,10.0,Calm,Calm,0,Boise,Idaho,83701
8,Clear,2016-08-19 14:53:00,43.0,,-,40,N/A,29.90,68.0,8:53 AM,,10.0,SSW,3.5,200,Boise,Idaho,83701
9,Clear,2016-08-19 15:53:00,44.1,,-,37,N/A,29.91,72.0,9:53 AM,,10.0,Calm,Calm,0,Boise,Idaho,83701
10,Clear,2016-08-19 16:53:00,44.1,,-,31,N/A,29.93,77.0,10:53 AM,,10.0,Variable,3.5,0,Boise,Idaho,83701
11,Clear,2016-08-19 17:53:00,43.0,,-,25,N/A,29.92,82.0,11:53 AM,,10.0,Variable,5.8,0,Boise,Idaho,83701
12,Clear,2016-08-19 18:53:00,37.0,,-,17,N/A,29.90,87.1,12:53 PM,,10.0,West,11.5,270,Boise,Idaho,83701
13,Clear,2016-08-19 19:53:00,34.0,,20.7,13,N/A,29.89,91.0,1:53 PM,,10.0,NW,16.1,310,Boise,Idaho,83701
14,Clear,2016-08-19 20:53:00,33.1,,23.0,13,N/A,29.88,91.0,2:53 PM,,10.0,WNW,16.1,290,Boise,Idaho,83701
15,Clear,2016-08-19 21:53:00,35.1,,23.0,13,N/A,29.86,91.9,3:53 PM,,10.0,West,13.8,270,Boise,Idaho,83701
16,Clear,2016-08-19 22:53:00,34.0,,24.2,13,N/A,29.85,91.9,4:53 PM,,10.0,WNW,18.4,300,Boise,Idaho,83701
17,Clear,2016-08-19 23:53:00,34.0,,-,13,N/A,29.84,91.9,5:53 PM,,10.0,WNW,16.1,290,Boise,Idaho,83701
18,Clear,2016-08-20 00:53:00,34.0,,-,13,N/A,29.83,91.0,6:53 PM,,10.0,NW,15.0,310,Boise,Idaho,83701
19,Clear,2016-08-20 01:53:00,35.1,,-,14,N/A,29.83,90.0,7:53 PM,,10.0,WNW,8.1,290,Boise,Idaho,83701
20,Clear,2016-08-20 02:53:00,39.9,,-,21,N/A,29.83,84.0,8:53 PM,,10.0,West,5.8,260,Boise,Idaho,83701
21,Clear,2016-08-20 03:53:00,42.1,,-,28,N/A,29.85,78.1,9:53 PM,,10.0,NW,4.6,320,Boise,Idaho,83701
22,Clear,2016-08-20 04:53:00,43.0,,-,30,N/A,29.85,77.0,10:53 PM,,10.0,West,6.9,270,Boise,Idaho,83701
23,Clear,2016-08-20 05:53:00,43.0,,-,32,N/A,29.86,75.0,11:53 PM,,10.0,West,6.9,280,Boise,Idaho,83701
0,Clear,2016-08-20 06:53:00,45.0,,-,41,N/A,29.87,70.0,12:53 AM,,10.0,Calm,Calm,0,Boise,Idaho,83701
1,Clear,2016-08-20 07:53:00,46.0,,-,47,N/A,29.88,66.9,1:53 AM,,10.0,South,5.8,190,Boise,Idaho,83701
2,Clear,2016-08-20 08:53:00,44.1,,-,47,N/A,29.89,64.9,2:53 AM,,10.0,South,5.8,170,Boise,Idaho,83701
3,Clear,2016-08-20 09:53:00,43.0,,-,46,N/A,29.90,64.0,3:53 AM,,10.0,SSW,4.6,200,Boise,Idaho,83701
4,Clear,2016-08-20 10:53:00,43.0,,-,48,N/A,29.90,63.0,4:53 AM,,10.0,SSW,6.9,210,Boise,Idaho,83701
5,Clear,2016-08-20 11:53:00,43.0,,-,46,N/A,29.91,64.0,5:53 AM,,10.0,SSW,5.8,200,Boise,Idaho,83701
6,Clear,2016-08-20 12:53:00,42.1,,-,51,N/A,29.93,60.1,6:53 AM,,10.0,ESE,6.9,120,Boise,Idaho,83701
7,Clear,2016-08-20 13:53:00,42.1,,-,45,N/A,29.93,64.0,7:53 AM,,10.0,SSE,9.2,160,Boise,Idaho,83701
8,Clear,2016-08-20 14:53:00,42.1,,-,36,N/A,29.94,70.0,8:53 AM,,10.0,SSE,6.9,150,Boise,Idaho,83701
9,Clear,2016-08-20 15:53:00,39.9,,-,28,N/A,29.95,75.0,9:53 AM,,10.0,South,5.8,180,Boise,Idaho,83701
10,Clear,2016-08-20 16:53:00,37.9,,-,24,N/A,29.95,78.1,10:53 AM,,10.0,Variable,3.5,0,Boise,Idaho,83701
11,Clear,2016-08-20 17:53:00,39.0,,-,22,N/A,29.94,81.0,11:53 AM,,10.0,SW,8.1,220,Boise,Idaho,83701
12,Clear,2016-08-20 18:53:00,39.0,,-,21,N/A,29.93,82.9,12:53 PM,,10.0,SW,6.9,230,Boise,Idaho,83701
13,Clear,2016-08-20 19:53:00,39.0,,-,19,N/A,29.91,86.0,1:53 PM,,10.0,Variable,3.5,0,Boise,Idaho,83701
14,Clear,2016-08-20 20:53:00,39.0,,-,18,N/A,29.88,88.0,2:53 PM,,10.0,North,-9999.0,0,Boise,Idaho,83701
15,Clear,2016-08-20 21:53:00,36.0,,-,15,N/A,29.86,89.1,3:53 PM,,10.0,Calm,Calm,0,Boise,Idaho,83701
16,Clear,2016-08-20 22:53:00,34.0,,17.3,14,N/A,29.83,90.0,4:53 PM,,10.0,NW,5.8,320,Boise,Idaho,83701
17,Clear,2016-08-20 23:53:00,33.1,,-,13,N/A,29.81,91.0,5:53 PM,,10.0,North,8.1,350,Boise,Idaho,83701
18,Clear,2016-08-21 00:53:00,33.1,,-,13,N/A,29.79,90.0,6:53 PM,,10.0,NNW,10.4,330,Boise,Idaho,83701
19,Clear,2016-08-21 01:53:00,37.0,,-,16,N/A,29.77,88.0,7:53 PM,,10.0,WNW,8.1,290,Boise,Idaho,83701
20,Clear,2016-08-21 02:53:00,42.1,,-,24,N/A,29.77,82.9,8:53 PM,,10.0,WNW,5.8,290,Boise,Idaho,83701
21,Clear,2016-08-21 03:53:00,41.0,,-,25,N/A,29.78,80.1,9:53 PM,,10.0,Calm,Calm,0,Boise,Idaho,83701
22,Clear,2016-08-21 04:53:00,42.1,,-,34,N/A,29.78,72.0,10:53 PM,,10.0,Calm,Calm,0,Boise,Idaho,83701
23,Clear,2016-08-21 05:53:00,39.9,,-,32,N/A,29.78,71.1,11:53 PM,,10.0,SE,5.8,130,Boise,Idaho,83701
0,Clear,2016-08-21 06:53:00,33.1,,-,26,N/A,29.78,70.0,12:53 AM,,10.0,SE,9.2,130,Boise,Idaho,83701
1,Clear,2016-08-21 07:53:00,33.1,,-,28,N/A,29.78,66.9,1:53 AM,,10.0,SE,5.8,130,Boise,Idaho,83701
2,Clear,2016-08-21 08:53:00,33.1,,-,29,N/A,29.77,66.0,2:53 AM,,10.0,ESE,6.9,120,Boise,Idaho,83701
3,Clear,2016-08-21 09:53:00,33.1,,-,29,N/A,29.78,66.0,3:53 AM,,10.0,SE,9.2,130,Boise,Idaho,83701
4,Clear,2016-08-21 10:53:00,34.0,,-,32,N/A,29.78,64.9,4:53 AM,,10.0,SE,9.2,130,Boise,Idaho,83701
5,Clear,2016-08-21 11:53:00,35.1,,-,34,N/A,29.78,64.0,5:53 AM,,9.0,ESE,8.1,120,Boise,Idaho,83701
6,Haze,2016-08-21 12:53:00,35.1,,-,34,N/A,29.79,64.0,6:53 AM,,6.0,SE,9.2,130,Boise,Idaho,83701
7,Haze,2016-08-21 13:53:00,35.1,,-,33,N/A,29.81,64.9,7:53 AM,,5.0,ESE,9.2,120,Boise,Idaho,83701
8,Haze,2016-08-21 14:53:00,37.0,,-,28,N/A,29.82,72.0,8:53 AM,,4.0,SE,6.9,130,Boise,Idaho,83701
9,Haze,2016-08-21 15:53:00,35.1,,-,22,N/A,29.82,77.0,9:53 AM,,5.0,Calm,Calm,0,Boise,Idaho,83701
10,Haze,2016-08-21 16:53:00,35.1,,-,19,N/A,29.83,81.0,10:53 AM,,6.0,Calm,Calm,0,Boise,Idaho,83701
11,Clear,2016-08-21 17:53:00,36.0,,-,18,N/A,29.82,84.0,11:53 AM,,10.0,Variable,4.6,0,Boise,Idaho,83701
12,Clear,2016-08-21 18:53:00,34.0,,-,16,N/A,29.81,86.0,12:53 PM,,10.0,West,5.8,270,Boise,Idaho,83701
13,Clear,2016-08-21 19:53:00,34.0,,-,14,N/A,29.79,90.0,1:53 PM,,10.0,NNW,8.1,340,Boise,Idaho,83701
14,Clear,2016-08-21 20:53:00,33.1,,-,12,N/A,29.76,91.9,2:53 PM,,10.0,NNW,10.4,330,Boise,Idaho,83701
15,Clear,2016-08-21 21:53:00,34.0,,-,12,N/A,29.74,93.0,3:53 PM,,10.0,NNW,13.8,340,Boise,Idaho,83701
16,Clear,2016-08-21 22:53:00,24.1,,-,8,N/A,29.70,95.0,4:53 PM,,10.0,North,13.8,350,Boise,Idaho,83701
17,Clear,2016-08-21 23:53:00,24.1,,-,8,N/A,29.69,93.9,5:53 PM,,10.0,NNW,15.0,340,Boise,Idaho,83701
18,Partly Cloudy,2016-08-22 00:53:00,26.1,,-,9,N/A,29.67,93.0,6:53 PM,,10.0,NNW,9.2,340,Boise,Idaho,83701
19,Mostly Cloudy,2016-08-22 01:53:00,28.0,,-,11,N/A,29.67,90.0,7:53 PM,,10.0,NNW,5.8,330,Boise,Idaho,83701
20,Clear,2016-08-22 02:53:00,30.0,,-,13,N/A,29.66,87.1,8:53 PM,,10.0,Calm,Calm,0,Boise,Idaho,83701
21,Clear,2016-08-22 03:53:00,26.1,,-,14,N/A,29.67,79.0,9:53 PM,,10.0,SSE,6.9,150,Boise,Idaho,83701
22,Clear,2016-08-22 04:53:00,23.0,,-,15,N/A,29.68,73.9,10:53 PM,,10.0,SE,4.6,140,Boise,Idaho,83701
23,Clear,2016-08-22 05:53:00,26.1,,-,16,N/A,29.68,75.0,11:53 PM,,10.0,SE,10.4,130,Boise,Idaho,83701
0,Clear,2016-08-22 06:53:00,30.0,,-,20,N/A,29.70,73.0,12:53 AM,,10.0,North,-9999.0,0,Boise,Idaho,83701
1,Clear,2016-08-22 07:53:00,30.0,,-,23,N/A,29.72,69.1,1:53 AM,,10.0,WSW,3.5,240,Boise,Idaho,83701
2,Clear,2016-08-22 08:53:00,33.1,,-,29,N/A,29.73,66.0,2:53 AM,,10.0,South,4.6,180,Boise,Idaho,83701
3,Clear,2016-08-22 09:53:00,37.9,,-,37,N/A,29.77,64.9,3:53 AM,,10.0,WNW,8.1,290,Boise,Idaho,83701
4,Clear,2016-08-22 10:53:00,37.9,,-,37,N/A,29.79,64.9,4:53 AM,,10.0,Calm,Calm,0,Boise,Idaho,83701
5,Clear,2016-08-22 11:53:00,39.0,,-,41,N/A,29.81,63.0,5:53 AM,,10.0,Calm,Calm,0,Boise,Idaho,83701
6,Clear,2016-08-22 12:53:00,36.0,,-,44,N/A,29.85,57.9,6:53 AM,,10.0,SE,4.6,140,Boise,Idaho,83701
7,Clear,2016-08-22 13:53:00,35.1,,-,39,N/A,29.87,60.1,7:53 AM,,10.0,Calm,Calm,0,Boise,Idaho,83701
8,Clear,2016-08-22 14:53:00,34.0,,-,33,N/A,29.89,64.0,8:53 AM,,10.0,West,9.2,270,Boise,Idaho,83701
9,Clear,2016-08-22 15:53:00,34.0,,-,28,N/A,29.91,68.0,9:53 AM,,10.0,WNW,9.2,290,Boise,Idaho,83701
10,Clear,2016-08-22 16:53:00,34.0,,-,25,N/A,29.92,72.0,10:53 AM,,10.0,West,8.1,270,Boise,Idaho,83701
11,Clear,2016-08-22 17:53:00,37.9,,20.7,25,N/A,29.91,75.9,11:53 AM,,10.0,NNW,11.5,330,Boise,Idaho,83701
12,Clear,2016-08-22 18:53:00,32.0,,19.6,19,N/A,29.90,77.0,12:53 PM,,10.0,North,8.1,360,Boise,Idaho,83701
13,Clear,2016-08-22 19:53:00,32.0,,19.6,18,N/A,29.89,79.0,1:53 PM,,10.0,North,10.4,350,Boise,Idaho,83701
14,Clear,2016-08-22 20:53:00,27.0,,-,14,N/A,29.87,81.0,2:53 PM,,10.0,NW,9.2,310,Boise,Idaho,83701
15,Clear,2016-08-22 21:53:00,28.0,,-,13,N/A,29.84,84.0,3:53 PM,,10.0,North,11.5,350,Boise,Idaho,83701
16,Clear,2016-08-22 22:53:00,28.0,,-,13,N/A,29.82,84.0,4:53 PM,,10.0,NNW,9.2,340,Boise,Idaho,83701
17,Clear,2016-08-22 23:53:00,26.1,,-,12,N/A,29.81,84.9,5:53 PM,,10.0,North,13.8,350,Boise,Idaho,83701
18,Clear,2016-08-23 00:53:00,25.0,,-,12,N/A,29.80,84.0,6:53 PM,,10.0,North,10.4,350,Boise,Idaho,83701
19,Clear,2016-08-23 01:53:00,25.0,,-,13,N/A,29.80,81.0,7:53 PM,,10.0,NNW,9.2,340,Boise,Idaho,83701
20,Clear,2016-08-23 02:53:00,27.0,,-,16,N/A,29.81,77.0,8:53 PM,,10.0,NNW,6.9,330,Boise,Idaho,83701
21,Clear,2016-08-23 03:53:00,27.0,,-,18,N/A,29.83,73.0,9:53 PM,,10.0,NNW,6.9,340,Boise,Idaho,83701
22,Clear,2016-08-23 04:53:00,26.1,,-,21,N/A,29.84,68.0,10:53 PM,,10.0,NNW,8.1,330,Boise,Idaho,83701
23,Clear,2016-08-23 05:53:00,26.1,,-,21,N/A,29.86,66.9,11:53 PM,,10.0,NW,9.2,310,Boise,Idaho,83701
0,Clear,2016-08-23 06:53:00,27.0,,-,22,N/A,29.88,66.9,12:53 AM,,10.0,West,4.6,270,Boise,Idaho,83701
1,Clear,2016-08-23 07:53:00,30.0,,-,30,N/A,29.91,62.1,1:53 AM,,10.0,West,8.1,280,Boise,Idaho,83701
2,Clear,2016-08-23 08:53:00,32.0,,-,36,N/A,29.94,59.0,2:53 AM,,10.0,West,3.5,270,Boise,Idaho,83701
3,Clear,2016-08-23 09:53:00,32.0,,-,39,N/A,29.94,57.0,3:53 AM,,10.0,West,4.6,280,Boise,Idaho,83701
4,Clear,2016-08-23 10:53:00,32.0,,-,40,N/A,29.97,55.9,4:53 AM,,10.0,Calm,Calm,0,Boise,Idaho,83701
5,Clear,2016-08-23 11:53:00,32.0,,-,43,N/A,29.98,54.0,5:53 AM,,10.0,West,3.5,260,Boise,Idaho,83701
6,Clear,2016-08-23 12:53:00,30.9,,-,48,N/A,30.02,50.0,6:53 AM,,10.0,SW,4.6,220,Boise,Idaho,83701
7,Clear,2016-08-23 13:53:00,32.0,,-,45,N/A,30.04,53.1,7:53 AM,,9.0,Calm,Calm,0,Boise,Idaho,83701
8,Clear,2016-08-23 14:53:00,32.0,,-,39,N/A,30.06,57.0,8:53 AM,,10.0,Calm,Calm,0,Boise,Idaho,83701
9,Clear,2016-08-23 15:53:00,32.0,,-,34,N/A,30.06,61.0,9:53 AM,,10.0,Calm,Calm,0,Boise,Idaho,83701
10,Clear,2016-08-23 16:53:00,32.0,,-,28,N/A,30.07,66.0,10:53 AM,,10.0,NNW,9.2,330,Boise,Idaho,83701
11,Clear,2016-08-23 17:53:00,32.0,,-,25,N/A,30.06,70.0,11:53 AM,,10.0,NNW,11.5,330,Boise,Idaho,83701
12,Clear,2016-08-23 18:53:00,30.0,,-,20,N/A,30.05,73.9,12:53 PM,,10.0,WNW,10.4,290,Boise,Idaho,83701
13,Clear,2016-08-23 19:53:00,28.0,,-,17,N/A,30.04,75.9,1:53 PM,,10.0,WNW,10.4,290,Boise,Idaho,83701
14,Clear,2016-08-23 20:53:00,26.1,,18.4,15,N/A,30.03,78.1,2:53 PM,,10.0,NNW,12.7,330,Boise,Idaho,83701
15,Clear,2016-08-23 21:53:00,27.0,,-,15,N/A,30.02,79.0,3:53 PM,,10.0,WNW,12.7,300,Boise,Idaho,83701
16,Clear,2016-08-23 22:53:00,23.0,,-,13,N/A,30.01,79.0,4:53 PM,,10.0,NW,13.8,320,Boise,Idaho,83701
17,Clear,2016-08-23 23:53:00,24.1,,-,13,N/A,30.00,80.1,5:53 PM,,10.0,WNW,15.0,290,Boise,Idaho,83701
18,Clear,2016-08-24 00:53:00,19.9,,-,11,N/A,30.01,80.1,6:53 PM,,10.0,WNW,12.7,300,Boise,Idaho,83701
19,Clear,2016-08-24 01:53:00,24.1,,-,14,N/A,30.00,78.1,7:53 PM,,10.0,WNW,12.7,300,Boise,Idaho,83701
20,Clear,2016-08-24 02:53:00,28.0,,-,19,N/A,30.01,73.0,8:53 PM,,10.0,WNW,3.5,300,Boise,Idaho,83701
21,Clear,2016-08-24 03:53:00,32.0,,-,25,N/A,30.02,69.1,9:53 PM,,10.0,NNW,6.9,340,Boise,Idaho,83701
22,Clear,2016-08-24 04:53:00,32.0,,-,27,N/A,30.02,66.9,10:53 PM,,10.0,NNW,5.8,340,Boise,Idaho,83701
23,Clear,2016-08-24 05:53:00,30.9,,-,29,N/A,30.02,64.0,11:53 PM,,10.0,SW,5.8,220,Boise,Idaho,83701
0,Clear,2016-08-24 06:53:00,32.0,,-,29,N/A,30.01,64.9,12:53 AM,,10.0,West,5.8,280,Boise,Idaho,83701
1,Clear,2016-08-24 07:53:00,34.0,,-,35,N/A,30.02,62.1,1:53 AM,,10.0,SW,3.5,220,Boise,Idaho,83701
2,Clear,2016-08-24 08:53:00,37.0,,-,49,N/A,30.04,55.9,2:53 AM,,10.0,South,3.5,180,Boise,Idaho,83701
3,Clear,2016-08-24 09:53:00,37.9,,-,53,N/A,30.05,55.0,3:53 AM,,10.0,SW,4.6,220,Boise,Idaho,83701
4,Clear,2016-08-24 10:53:00,37.9,,-,55,N/A,30.05,54.0,4:53 AM,,10.0,SW,3.5,220,Boise,Idaho,83701
5,Clear,2016-08-24 11:53:00,37.9,,-,57,N/A,30.06,53.1,5:53 AM,,10.0,SSW,3.5,200,Boise,Idaho,83701
6,Clear,2016-08-24 12:53:00,37.9,,-,57,N/A,30.08,53.1,6:53 AM,,10.0,SSW,3.5,200,Boise,Idaho,83701
7,Clear,2016-08-24 13:53:00,39.0,,-,55,N/A,30.10,55.0,7:53 AM,,10.0,Calm,Calm,0,Boise,Idaho,83701
8,Clear,2016-08-24 14:53:00,39.9,,-,51,N/A,30.11,57.9,8:53 AM,,10.0,Calm,Calm,0,Boise,Idaho,83701
9,Clear,2016-08-24 15:53:00,39.9,,-,43,N/A,30.12,63.0,9:53 AM,,10.0,Variable,3.5,0,Boise,Idaho,83701
10,Clear,2016-08-24 16:53:00,39.0,,-,35,N/A,30.11,68.0,10:53 AM,,10.0,WNW,8.1,300,Boise,Idaho,83701
11,Clear,2016-08-24 17:53:00,39.9,,-,31,N/A,30.11,72.0,11:53 AM,,10.0,NW,9.2,320,Boise,Idaho,83701
12,Clear,2016-08-24 18:53:00,37.9,,-,25,N/A,30.08,75.9,12:53 PM,,10.0,WNW,10.4,300,Boise,Idaho,83701
13,Clear,2016-08-24 19:53:00,36.0,,19.6,21,N/A,30.06,79.0,1:53 PM,,10.0,WNW,11.5,290,Boise,Idaho,83701
14,Clear,2016-08-24 20:53:00,30.9,,-,17,N/A,30.05,80.1,2:53 PM,,10.0,NNW,9.2,330,Boise,Idaho,83701
15,Clear,2016-08-24 21:53:00,30.0,,23.0,15,N/A,30.03,82.0,3:53 PM,,10.0,West,13.8,280,Boise,Idaho,83701
16,Clear,2016-08-24 22:53:00,28.0,,-,14,N/A,30.02,81.0,4:53 PM,,10.0,West,13.8,280,Boise,Idaho,83701
17,Clear,2016-08-24 23:53:00,27.0,,-,14,N/A,30.01,81.0,5:53 PM,,10.0,West,12.7,270,Boise,Idaho,83701
18,Clear,2016-08-25 00:53:00,26.1,,-,13,N/A,30.00,81.0,6:53 PM,,10.0,West,12.7,280,Boise,Idaho,83701
19,Clear,2016-08-25 01:53:00,28.9,,-,17,N/A,29.99,78.1,7:53 PM,,10.0,West,10.4,270,Boise,Idaho,83701
20,Clear,2016-08-25 02:53:00,30.9,,-,20,N/A,30.00,75.0,8:53 PM,,10.0,WNW,5.8,290,Boise,Idaho,83701
21,Clear,2016-08-25 03:53:00,32.0,,-,24,N/A,30.01,71.1,9:53 PM,,10.0,Calm,Calm,0,Boise,Idaho,83701
22,Clear,2016-08-25 04:53:00,30.9,,-,27,N/A,30.00,66.0,10:53 PM,,10.0,WSW,3.5,250,Boise,Idaho,83701
23,Clear,2016-08-25 05:53:00,36.0,,-,34,N/A,29.99,64.9,11:53 PM,,10.0,WSW,3.5,240,Boise,Idaho,83701
0,Clear,2016-08-25 06:53:00,37.0,,-,41,N/A,29.99,61.0,12:53 AM,,10.0,South,5.8,190,Boise,Idaho,83701
1,Clear,2016-08-25 07:53:00,37.0,,-,42,N/A,29.99,60.1,1:53 AM,,10.0,SSW,5.8,200,Boise,Idaho,83701
2,Clear,2016-08-25 08:53:00,37.0,,-,44,N/A,30.01,59.0,2:53 AM,,10.0,SE,9.2,140,Boise,Idaho,83701
3,Clear,2016-08-25 09:53:00,37.0,,-,42,N/A,30.02,60.1,3:53 AM,,10.0,South,6.9,190,Boise,Idaho,83701
4,Clear,2016-08-25 10:53:00,32.0,,-,35,N/A,30.04,60.1,4:53 AM,,10.0,ESE,9.2,120,Boise,Idaho,83701
5,Clear,2016-08-25 11:53:00,32.0,,-,39,N/A,30.03,57.0,5:53 AM,,10.0,SSE,8.1,150,Boise,Idaho,83701
6,Clear,2016-08-25 12:53:00,33.1,,-,40,N/A,30.05,57.0,6:53 AM,,10.0,SE,9.2,140,Boise,Idaho,83701
7,Clear,2016-08-25 13:53:00,34.0,,-,42,N/A,30.06,57.0,7:53 AM,,10.0,SE,6.9,140,Boise,Idaho,83701
8,Clear,2016-08-25 14:53:00,34.0,,-,30,N/A,30.07,66.0,8:53 AM,,10.0,ESE,11.5,120,Boise,Idaho,83701
9,Clear,2016-08-25 15:53:00,34.0,,-,27,N/A,30.07,70.0,9:53 AM,,10.0,SSE,13.8,150,Boise,Idaho,83701
10,Clear,2016-08-25 16:53:00,33.1,,-,23,N/A,30.07,73.0,10:53 AM,,10.0,South,11.5,170,Boise,Idaho,83701
11,Clear,2016-08-25 17:53:00,33.1,,-,22,N/A,30.06,75.0,11:53 AM,,10.0,Calm,Calm,0,Boise,Idaho,83701
12,Clear,2016-08-25 18:53:00,33.1,,-,21,N/A,30.04,75.9,12:53 PM,,10.0,Calm,Calm,0,Boise,Idaho,83701
13,Clear,2016-08-25 19:53:00,30.9,,-,17,N/A,30.01,79.0,1:53 PM,,10.0,Variable,3.5,0,Boise,Idaho,83701
14,Clear,2016-08-25 20:53:00,32.0,,-,16,N/A,29.98,82.0,2:53 PM,,10.0,Variable,4.6,0,Boise,Idaho,83701
15,Clear,2016-08-25 21:53:00,33.1,,16.1,17,N/A,29.96,82.0,3:53 PM,,10.0,NNW,9.2,340,Boise,Idaho,83701
16,Clear,2016-08-25 22:53:00,33.1,,-,17,N/A,29.93,82.9,4:53 PM,,10.0,NNE,9.2,20,Boise,Idaho,83701
17,Clear,2016-08-25 23:53:00,33.1,,-,17,N/A,29.92,82.9,5:53 PM,,10.0,NW,5.8,310,Boise,Idaho,83701
18,Clear,2016-08-26 00:53:00,33.1,,-,17,N/A,29.90,82.0,6:53 PM,,10.0,WNW,12.7,300,Boise,Idaho,83701
19,Clear,2016-08-26 01:53:00,34.0,,-,19,N/A,29.90,80.1,7:53 PM,,10.0,WNW,11.5,300,Boise,Idaho,83701
20,Clear,2016-08-26 02:53:00,37.0,,-,25,N/A,29.90,75.0,8:53 PM,,10.0,West,9.2,280,Boise,Idaho,83701
21,Clear,2016-08-26 03:53:00,37.9,,-,29,N/A,29.91,72.0,9:53 PM,,10.0,NE,3.5,50,Boise,Idaho,83701
22,Clear,2016-08-26 04:53:00,37.0,,-,33,N/A,29.91,66.9,10:53 PM,,10.0,Calm,Calm,0,Boise,Idaho,83701
23,Clear,2016-08-26 05:53:00,37.0,,-,36,N/A,29.91,64.9,11:53 PM,,10.0,SSW,3.5,210,Boise,Idaho,83701
0,Clear,2016-08-26 06:53:00,36.0,,-,38,N/A,29.91,62.1,12:53 AM,,10.0,ESE,3.5,120,Boise,Idaho,83701
1,Clear,2016-08-26 07:53:00,32.0,,-,34,N/A,29.91,61.0,1:53 AM,,10.0,SE,5.8,130,Boise,Idaho,83701
2,Clear,2016-08-26 08:53:00,32.0,,-,35,N/A,29.89,60.1,2:53 AM,,10.0,South,3.5,170,Boise,Idaho,83701
3,Clear,2016-08-26 09:53:00,35.1,,-,37,N/A,29.89,62.1,3:53 AM,,10.0,Calm,Calm,0,Boise,Idaho,83701
4,Clear,2016-08-26 10:53:00,36.0,,-,42,N/A,29.89,59.0,4:53 AM,,10.0,SSW,4.6,200,Boise,Idaho,83701
5,Clear,2016-08-26 11:53:00,35.1,,-,44,N/A,29.90,57.0,5:53 AM,,10.0,SSE,4.6,160,Boise,Idaho,83701
6,Clear,2016-08-26 12:53:00,34.0,,-,39,N/A,29.90,59.0,6:53 AM,,10.0,SSE,5.8,160,Boise,Idaho,83701
7,Clear,2016-08-26 13:53:00,35.1,,-,39,N/A,29.92,60.1,7:53 AM,,10.0,SSE,5.8,150,Boise,Idaho,83701
8,Clear,2016-08-26 14:53:00,34.0,,-,30,N/A,29.93,66.9,8:53 AM,,10.0,SSE,5.8,150,Boise,Idaho,83701
9,Clear,2016-08-26 15:53:00,34.0,,-,26,N/A,29.93,71.1,9:53 AM,,9.0,SSE,9.2,160,Boise,Idaho,83701
10,Clear,2016-08-26 16:53:00,34.0,,-,25,N/A,29.95,72.0,10:53 AM,,10.0,SE,5.8,140,Boise,Idaho,83701
11,Clear,2016-08-26 17:09:00,34.0,,-,24,N/A,30.01,73.0,11:09 AM,,10.0,SSE,5.8,160,Boise,Idaho,83701
12,Haze,2016-08-26 17:53:00,32.0,,-,21,N/A,29.94,75.0,11:53 AM,,6.0,Calm,Calm,0,Boise,Idaho,83701
13,Clear,2016-08-26 18:53:00,34.0,,-,20,N/A,29.92,79.0,12:53 PM,,10.0,NW,3.5,310,Boise,Idaho,83701
14,Clear,2016-08-26 19:53:00,36.0,,-,20,N/A,29.91,81.0,1:53 PM,,10.0,NNW,4.6,330,Boise,Idaho,83701
15,Clear,2016-08-26 20:53:00,36.0,,-,19,N/A,29.89,82.9,2:53 PM,,10.0,NW,6.9,310,Boise,Idaho,83701
16,Clear,2016-08-26 21:53:00,35.1,,-,17,N/A,29.87,84.9,3:53 PM,,10.0,WNW,9.2,300,Boise,Idaho,83701
17,Clear,2016-08-26 22:53:00,33.1,,16.1,16,N/A,29.86,84.9,4:53 PM,,10.0,NNW,8.1,340,Boise,Idaho,83701
18,Clear,2016-08-26 23:53:00,30.9,,16.1,14,N/A,29.85,84.9,5:53 PM,,10.0,NNW,9.2,330,Boise,Idaho,83701
19,Clear,2016-08-27 00:53:00,30.0,,-,14,N/A,29.83,84.0,6:53 PM,,10.0,NW,9.2,310,Boise,Idaho,83701
20,Clear,2016-08-27 01:53:00,32.0,,-,17,N/A,29.83,81.0,7:53 PM,,10.0,NW,8.1,310,Boise,Idaho,83701
21,Clear,2016-08-27 02:53:00,32.0,,-,19,N/A,29.83,78.1,8:53 PM,,10.0,Calm,Calm,0,Boise,Idaho,83701
22,Clear,2016-08-27 03:53:00,35.1,,-,24,N/A,29.84,73.9,9:53 PM,,10.0,SSW,3.5,210,Boise,Idaho,83701
23,Clear,2016-08-27 04:53:00,33.1,,-,27,N/A,29.85,68.0,10:53 PM,,10.0,SSE,3.5,160,Boise,Idaho,83701
24,Clear,2016-08-27 05:53:00,30.9,,-,26,N/A,29.84,66.9,11:53 PM,,10.0,SE,11.5,130,Boise,Idaho,83701
0,Clear,2016-08-27 06:53:00,32.0,,-,29,N/A,29.83,64.9,12:53 AM,,10.0,SE,8.1,130,Boise,Idaho,83701
1,Clear,2016-08-27 07:53:00,33.1,,-,31,N/A,29.83,64.0,1:53 AM,,10.0,SE,8.1,130,Boise,Idaho,83701
2,Clear,2016-08-27 08:53:00,33.1,,-,34,N/A,29.83,62.1,2:53 AM,,10.0,ESE,6.9,120,Boise,Idaho,83701
3,Clear,2016-08-27 09:53:00,34.0,,-,35,N/A,29.83,62.1,3:53 AM,,10.0,SE,8.1,130,Boise,Idaho,83701
4,Clear,2016-08-27 10:53:00,34.0,,-,36,N/A,29.83,61.0,4:53 AM,,10.0,SE,9.2,130,Boise,Idaho,83701
5,Clear,2016-08-27 11:53:00,33.1,,-,35,N/A,29.84,61.0,5:53 AM,,10.0,SE,9.2,130,Boise,Idaho,83701
6,Clear,2016-08-27 12:53:00,33.1,,-,36,N/A,29.86,60.1,6:53 AM,,10.0,ESE,4.6,120,Boise,Idaho,83701
7,Clear,2016-08-27 13:53:00,36.0,,-,44,N/A,29.88,57.9,7:53 AM,,10.0,East,3.5,90,Boise,Idaho,83701
8,Clear,2016-08-27 14:53:00,33.1,,-,29,N/A,29.88,66.0,8:53 AM,,9.0,SE,6.9,130,Boise,Idaho,83701
9,Clear,2016-08-27 15:53:00,33.1,,-,25,N/A,29.87,71.1,9:53 AM,,8.0,SE,6.9,140,Boise,Idaho,83701
10,Clear,2016-08-27 16:53:00,32.0,,-,20,N/A,29.88,75.9,10:53 AM,,10.0,SSE,6.9,150,Boise,Idaho,83701
11,Clear,2016-08-27 17:53:00,30.9,,-,16,N/A,29.87,82.0,11:53 AM,,10.0,Variable,4.6,0,Boise,Idaho,83701
12,Clear,2016-08-27 18:53:00,30.9,,-,15,N/A,29.87,84.0,12:53 PM,,10.0,Calm,Calm,0,Boise,Idaho,83701
13,Clear,2016-08-27 19:53:00,32.0,,-,15,N/A,29.85,84.9,1:53 PM,,10.0,NNW,5.8,340,Boise,Idaho,83701
14,Clear,2016-08-27 20:53:00,32.0,,-,14,N/A,29.83,88.0,2:53 PM,,10.0,North,4.6,360,Boise,Idaho,83701
15,Clear,2016-08-27 21:53:00,30.9,,-,13,N/A,29.81,88.0,3:53 PM,,10.0,Variable,4.6,0,Boise,Idaho,83701
16,Clear,2016-08-27 22:53:00,30.9,,-,12,N/A,29.79,90.0,4:53 PM,,10.0,Variable,6.9,0,Boise,Idaho,83701
17,Clear,2016-08-27 23:53:00,30.9,,-,12,N/A,29.77,89.1,5:53 PM,,10.0,North,6.9,350,Boise,Idaho,83701
18,Clear,2016-08-28 00:53:00,30.0,,-,12,N/A,29.76,90.0,6:53 PM,,10.0,NNW,6.9,330,Boise,Idaho,83701
19,Clear,2016-08-28 01:53:00,30.9,,-,13,N/A,29.76,87.1,7:53 PM,,10.0,North,5.8,10,Boise,Idaho,83701
20,Clear,2016-08-28 02:53:00,28.9,,-,14,N/A,29.76,84.0,8:53 PM,,10.0,Calm,Calm,0,Boise,Idaho,83701
21,Clear,2016-08-28 03:53:00,28.9,,-,18,N/A,29.79,75.0,9:53 PM,,10.0,South,4.6,180,Boise,Idaho,83701
22,Clear,2016-08-28 04:53:00,27.0,,-,17,N/A,29.78,75.0,10:53 PM,,10.0,SE,10.4,130,Boise,Idaho,83701
23,Clear,2016-08-28 05:53:00,30.0,,-,20,N/A,29.79,73.9,11:53 PM,,10.0,SSE,11.5,150,Boise,Idaho,83701
0,Clear,2016-08-28 06:53:00,30.9,,-,22,N/A,29.79,72.0,12:53 AM,,10.0,ESE,9.2,120,Boise,Idaho,83701
1,Clear,2016-08-28 07:53:00,30.9,,-,24,N/A,29.82,70.0,1:53 AM,,10.0,SE,8.1,130,Boise,Idaho,83701
2,Clear,2016-08-28 08:53:00,32.0,,-,28,N/A,29.85,66.0,2:53 AM,,10.0,SSE,5.8,160,Boise,Idaho,83701
3,Clear,2016-08-28 09:53:00,34.0,,-,33,N/A,29.89,64.0,3:53 AM,,10.0,West,5.8,260,Boise,Idaho,83701
4,Clear,2016-08-28 10:53:00,32.0,,-,32,N/A,29.91,62.1,4:53 AM,,10.0,East,4.6,100,Boise,Idaho,83701
5,Clear,2016-08-28 11:53:00,36.0,,-,41,N/A,29.93,60.1,5:53 AM,,10.0,SSE,3.5,160,Boise,Idaho,83701
6,Clear,2016-08-28 12:53:00,37.9,,-,46,N/A,29.96,59.0,6:53 AM,,10.0,SSE,5.8,160,Boise,Idaho,83701
7,Clear,2016-08-28 13:53:00,34.0,,-,38,N/A,29.99,60.1,7:53 AM,,10.0,SE,4.6,130,Boise,Idaho,83701
8,Clear,2016-08-28 14:53:00,34.0,,-,32,N/A,30.01,64.9,8:53 AM,,10.0,ESE,5.8,110,Boise,Idaho,83701
9,Clear,2016-08-28 15:53:00,41.0,,-,35,N/A,30.03,70.0,9:53 AM,,10.0,NW,3.5,320,Boise,Idaho,83701
10,Clear,2016-08-28 16:53:00,42.1,,-,32,N/A,30.04,73.9,10:53 AM,,10.0,Calm,Calm,0,Boise,Idaho,83701
11,Clear,2016-08-28 17:53:00,44.1,,-,29,N/A,30.03,79.0,11:53 AM,,10.0,WNW,4.6,290,Boise,Idaho,83701
12,Clear,2016-08-28 18:53:00,42.1,,-,24,N/A,30.02,82.0,12:53 PM,,10.0,NW,9.2,320,Boise,Idaho,83701
13,Clear,2016-08-28 19:53:00,42.1,,-,23,N/A,30.02,84.0,1:53 PM,,10.0,Variable,5.8,0,Boise,Idaho,83701
14,Clear,2016-08-28 20:53:00,42.1,,-,22,N/A,30.01,84.9,2:53 PM,,10.0,NW,9.2,310,Boise,Idaho,83701
15,Clear,2016-08-28 21:53:00,41.0,,-,19,N/A,29.99,88.0,3:53 PM,,10.0,North,10.4,350,Boise,Idaho,83701
16,Clear,2016-08-28 22:53:00,41.0,,-,19,N/A,29.98,89.1,4:53 PM,,10.0,NW,8.1,320,Boise,Idaho,83701
17,Clear,2016-08-28 23:53:00,39.9,,-,17,N/A,29.97,90.0,5:53 PM,,10.0,NNW,10.4,340,Boise,Idaho,83701
18,Clear,2016-08-29 00:53:00,39.9,,-,19,N/A,29.97,87.1,6:53 PM,,10.0,NNW,8.1,340,Boise,Idaho,83701
19,Clear,2016-08-29 01:53:00,39.9,,-,20,N/A,29.96,86.0,7:53 PM,,10.0,North,9.2,360,Boise,Idaho,83701
20,Clear,2016-08-29 02:53:00,42.1,,-,24,N/A,29.97,82.0,8:53 PM,,10.0,Calm,Calm,0,Boise,Idaho,83701
21,Clear,2016-08-29 03:53:00,39.9,,-,27,N/A,29.98,75.9,9:53 PM,,10.0,ESE,4.6,110,Boise,Idaho,83701
22,Clear,2016-08-29 04:53:00,39.0,,-,29,N/A,29.97,73.0,10:53 PM,,10.0,Calm,Calm,0,Boise,Idaho,83701
23,Clear,2016-08-29 05:53:00,37.0,,-,27,N/A,29.97,73.0,11:53 PM,,10.0,South,6.9,180,Boise,Idaho,83701
0,Clear,2016-08-29 06:53:00,37.9,,-,29,N/A,29.96,72.0,12:53 AM,,10.0,SSE,8.1,160,Boise,Idaho,83701
1,Clear,2016-08-29 07:53:00,39.9,,-,32,N/A,29.96,71.1,1:53 AM,,10.0,SE,6.9,130,Boise,Idaho,83701
2,Clear,2016-08-29 08:53:00,39.9,,-,33,N/A,29.97,70.0,2:53 AM,,10.0,SE,11.5,140,Boise,Idaho,83701
3,Clear,2016-08-29 09:53:00,39.9,,-,33,N/A,29.97,70.0,3:53 AM,,10.0,SE,9.2,130,Boise,Idaho,83701
4,Clear,2016-08-29 10:53:00,39.9,,-,32,N/A,29.97,71.1,4:53 AM,,10.0,ESE,10.4,110,Boise,Idaho,83701
5,Clear,2016-08-29 11:53:00,39.9,,-,35,N/A,29.98,69.1,5:53 AM,,10.0,ESE,11.5,120,Boise,Idaho,83701
6,Clear,2016-08-29 12:53:00,39.9,,-,36,N/A,29.99,68.0,6:53 AM,,9.0,SE,11.5,130,Boise,Idaho,83701
7,Haze,2016-08-29 13:53:00,39.9,,-,33,N/A,30.00,70.0,7:53 AM,,6.0,Calm,Calm,0,Boise,Idaho,83701
8,Haze,2016-08-29 14:22:00,41.0,,-,36,N/A,30.09,69.1,8:22 AM,,2.0,Calm,Calm,0,Boise,Idaho,83701
9,Smoke,2016-08-29 14:26:00,41.0,,-,34,N/A,30.10,71.1,8:26 AM,,4.0,Calm,Calm,0,Boise,Idaho,83701
10,Smoke,2016-08-29 14:53:00,45.0,,-,42,N/A,30.02,69.1,8:53 AM,,4.0,North,5.8,10,Boise,Idaho,83701
11,Smoke,2016-08-29 15:53:00,46.0,,-,38,N/A,30.04,73.0,9:53 AM,,3.0,NE,4.6,50,Boise,Idaho,83701
12,Smoke,2016-08-29 16:53:00,46.0,,-,35,N/A,30.03,75.9,10:53 AM,,3.0,NE,6.9,40,Boise,Idaho,83701
13,Smoke,2016-08-29 17:53:00,45.0,,-,25,N/A,30.01,84.0,11:53 AM,,4.0,NW,5.8,320,Boise,Idaho,83701
14,Smoke,2016-08-29 18:53:00,41.0,,-,19,N/A,29.99,89.1,12:53 PM,,4.0,Variable,5.8,0,Boise,Idaho,83701
15,Smoke,2016-08-29 19:53:00,45.0,,-,24,N/A,29.99,86.0,1:53 PM,,9.0,WNW,6.9,300,Boise,Idaho,83701
16,Smoke,2016-08-29 20:53:00,42.1,,-,20,N/A,29.97,88.0,2:53 PM,,9.0,West,6.9,270,Boise,Idaho,83701
17,Smoke,2016-08-29 21:53:00,43.0,,-,19,N/A,29.94,90.0,3:53 PM,,10.0,NNW,5.8,330,Boise,Idaho,83701
18,Smoke,2016-08-29 22:53:00,39.9,,-,17,N/A,29.93,91.0,4:53 PM,,10.0,NNW,11.5,330,Boise,Idaho,83701
19,Smoke,2016-08-29 23:53:00,34.0,,-,13,N/A,29.92,91.0,5:53 PM,,10.0,North,9.2,350,Boise,Idaho,83701
20,Smoke,2016-08-30 00:53:00,33.1,,-,14,N/A,29.91,89.1,6:53 PM,,10.0,North,5.8,350,Boise,Idaho,83701
21,Smoke,2016-08-30 01:53:00,35.1,,-,16,N/A,29.90,87.1,7:53 PM,,10.0,North,4.6,350,Boise,Idaho,83701
22,Smoke,2016-08-30 02:53:00,33.1,,-,16,N/A,29.91,84.9,8:53 PM,,10.0,Calm,Calm,0,Boise,Idaho,83701
23,Smoke,2016-08-30 03:35:00,39.0,,-,22,N/A,30.01,81.0,9:35 PM,,1.8,West,6.9,280,Boise,Idaho,83701
24,Smoke,2016-08-30 03:39:00,39.9,,-,23,N/A,30.01,81.0,9:39 PM,,10.0,West,5.8,280,Boise,Idaho,83701
25,Smoke,2016-08-30 03:53:00,42.1,,-,26,N/A,29.93,80.1,9:53 PM,,10.0,Calm,Calm,0,Boise,Idaho,83701
26,Smoke,2016-08-30 04:00:00,42.1,,-,26,N/A,30.01,80.1,10:00 PM,,2.5,Calm,Calm,0,Boise,Idaho,83701
27,Smoke,2016-08-30 04:07:00,42.1,,-,26,N/A,30.02,80.1,10:07 PM,,10.0,Calm,Calm,0,Boise,Idaho,83701
28,Smoke,2016-08-30 04:53:00,37.9,,-,25,N/A,29.94,75.9,10:53 PM,,10.0,SE,4.6,130,Boise,Idaho,83701
29,Clear,2016-08-30 05:53:00,34.0,,-,22,N/A,29.91,75.9,11:53 PM,,10.0,ESE,3.5,120,Boise,Idaho,83701
0,Clear,2016-08-30 06:53:00,33.1,,-,23,N/A,29.90,73.0,12:53 AM,,10.0,ESE,4.6,120,Boise,Idaho,83701
1,Clear,2016-08-30 07:53:00,32.0,,-,21,N/A,29.90,73.9,1:53 AM,,10.0,ESE,4.6,120,Boise,Idaho,83701
2,Clear,2016-08-30 08:53:00,32.0,,-,23,N/A,29.89,72.0,2:53 AM,,10.0,SE,8.1,130,Boise,Idaho,83701
3,Clear,2016-08-30 09:53:00,30.9,,-,23,N/A,29.89,71.1,3:53 AM,,9.0,NW,4.6,320,Boise,Idaho,83701
4,Clear,2016-08-30 10:53:00,39.9,,-,36,N/A,29.89,68.0,4:53 AM,,10.0,SE,4.6,140,Boise,Idaho,83701
5,Clear,2016-08-30 11:53:00,33.1,,-,26,N/A,29.88,70.0,5:53 AM,,10.0,Calm,Calm,0,Boise,Idaho,83701
6,Clear,2016-08-30 12:53:00,32.0,,-,26,N/A,29.89,68.0,6:53 AM,,10.0,ESE,8.1,120,Boise,Idaho,83701
7,Clear,2016-08-30 13:53:00,32.0,,-,25,N/A,29.90,70.0,7:53 AM,,7.0,ESE,6.9,120,Boise,Idaho,83701
8,Clear,2016-08-30 14:53:00,41.0,,-,37,N/A,29.91,68.0,8:53 AM,,8.0,Calm,Calm,0,Boise,Idaho,83701
9,Clear,2016-08-30 15:53:00,37.9,,-,28,N/A,29.90,73.0,9:53 AM,,7.0,Calm,Calm,0,Boise,Idaho,83701
10,Haze,2016-08-30 16:53:00,32.0,,-,17,N/A,29.90,80.1,10:53 AM,,4.0,East,6.9,100,Boise,Idaho,83701
11,Haze,2016-08-30 17:53:00,45.0,,-,32,N/A,29.91,77.0,11:53 AM,,6.0,North,8.1,360,Boise,Idaho,83701
12,Clear,2016-08-30 18:53:00,39.9,,-,24,N/A,29.89,80.1,12:53 PM,,7.0,NNE,5.8,30,Boise,Idaho,83701
13,Clear,2016-08-30 19:53:00,37.9,,-,19,N/A,29.84,84.0,1:53 PM,,8.0,NE,9.2,50,Boise,Idaho,83701
14,Clear,2016-08-30 20:53:00,37.0,,-,17,N/A,29.82,87.1,2:53 PM,,7.0,WNW,9.2,290,Boise,Idaho,83701
15,Clear,2016-08-30 21:53:00,41.0,,-,21,N/A,29.81,84.9,3:53 PM,,9.0,West,13.8,280,Boise,Idaho,83701
16,Clear,2016-08-30 22:53:00,48.9,,-,29,N/A,29.81,84.0,4:53 PM,,10.0,WNW,10.4,300,Boise,Idaho,83701
17,Clear,2016-08-30 23:53:00,37.9,,-,17,N/A,29.79,88.0,5:53 PM,,10.0,North,5.8,10,Boise,Idaho,83701
18,Clear,2016-08-31 00:53:00,37.0,,-,16,N/A,29.77,89.1,6:53 PM,,10.0,NNE,6.9,30,Boise,Idaho,83701
19,Clear,2016-08-31 01:53:00,37.9,,-,19,N/A,29.76,84.9,7:53 PM,,10.0,West,8.1,280,Boise,Idaho,83701
20,Clear,2016-08-31 02:53:00,36.0,,-,20,N/A,29.81,80.1,8:53 PM,,10.0,NNW,8.1,330,Boise,Idaho,83701
21,Clear,2016-08-31 03:53:00,37.9,,-,26,N/A,29.81,75.0,9:53 PM,,10.0,NW,6.9,310,Boise,Idaho,83701
22,Clear,2016-08-31 04:53:00,39.0,,-,27,N/A,29.80,75.0,10:53 PM,,10.0,West,6.9,280,Boise,Idaho,83701
23,Clear,2016-08-31 05:53:00,43.0,,-,38,N/A,29.81,70.0,11:53 PM,,10.0,NW,5.8,310,Boise,Idaho,83701
0,Clear,2016-08-31 06:53:00,42.1,,-,40,N/A,29.80,66.9,12:53 AM,,10.0,South,5.8,190,Boise,Idaho,83701
1,Clear,2016-08-31 07:53:00,43.0,,-,40,N/A,29.82,68.0,1:53 AM,,10.0,South,3.5,170,Boise,Idaho,83701
2,Clear,2016-08-31 08:53:00,44.1,,-,45,N/A,29.80,66.0,2:53 AM,,10.0,ESE,8.1,120,Boise,Idaho,83701
3,Partly Cloudy,2016-08-31 09:53:00,43.0,,-,42,N/A,29.78,66.9,3:53 AM,,10.0,NE,11.5,40,Boise,Idaho,83701
4,Clear,2016-08-31 10:53:00,41.0,,-,42,N/A,29.78,64.9,4:53 AM,,10.0,SW,8.1,230,Boise,Idaho,83701
5,Clear,2016-08-31 11:53:00,41.0,,-,43,N/A,29.80,64.0,5:53 AM,,10.0,ENE,5.8,60,Boise,Idaho,83701
6,Clear,2016-08-31 12:53:00,39.9,,-,41,N/A,29.81,64.0,6:53 AM,,10.0,SSE,3.5,150,Boise,Idaho,83701
7,Clear,2016-08-31 13:53:00,37.0,,-,38,N/A,29.84,63.0,7:53 AM,,10.0,South,5.8,180,Boise,Idaho,83701
8,Clear,2016-08-31 14:53:00,37.0,,-,32,N/A,29.88,68.0,8:53 AM,,7.0,Calm,Calm,0,Boise,Idaho,83701
9,Clear,2016-08-31 15:53:00,42.1,,-,35,N/A,29.91,71.1,9:53 AM,,10.0,NW,4.6,320,Boise,Idaho,83701
10,Clear,2016-08-31 16:53:00,42.1,,-,34,N/A,29.89,72.0,10:53 AM,,10.0,Variable,3.5,0,Boise,Idaho,83701
11,Clear,2016-08-31 17:53:00,37.9,,-,23,N/A,29.84,79.0,11:53 AM,,10.0,ESE,8.1,120,Boise,Idaho,83701
12,Clear,2016-08-31 18:53:00,28.9,,-,14,N/A,29.83,84.0,12:53 PM,,10.0,SSE,12.7,160,Boise,Idaho,83701
13,Clear,2016-08-31 19:53:00,33.1,,-,14,N/A,29.81,89.1,1:53 PM,,10.0,WSW,9.2,240,Boise,Idaho,83701
14,Clear,2016-08-31 20:53:00,34.0,,-,15,N/A,29.80,88.0,2:53 PM,,10.0,WNW,5.8,300,Boise,Idaho,83701
15,Clear,2016-08-31 21:53:00,37.9,,-,15,N/A,29.77,91.9,3:53 PM,,10.0,NW,9.2,310,Boise,Idaho,83701
16,Clear,2016-08-31 22:53:00,37.9,,-,15,N/A,29.76,91.0,4:53 PM,,10.0,WNW,10.4,300,Boise,Idaho,83701
17,Clear,2016-08-31 23:53:00,35.1,,-,13,N/A,29.74,91.9,5:53 PM,,10.0,NNW,15.0,340,Boise,Idaho,83701
18,Clear,2016-09-01 00:53:00,34.0,,-,14,N/A,29.74,90.0,6:53 PM,,10.0,NW,12.7,320,Boise,Idaho,83701
19,Clear,2016-09-01 01:53:00,33.1,,-,15,N/A,29.74,86.0,7:53 PM,,10.0,NNW,6.9,330,Boise,Idaho,83701
20,Clear,2016-09-01 02:53:00,39.9,,-,22,N/A,29.75,82.0,8:53 PM,,10.0,West,10.4,280,Boise,Idaho,83701
21,Clear,2016-09-01 03:53:00,41.0,,-,28,N/A,29.75,77.0,9:53 PM,,10.0,East,5.8,80,Boise,Idaho,83701
22,Clear,2016-09-01 04:53:00,39.0,,-,27,N/A,29.74,75.0,10:53 PM,,10.0,SE,10.4,130,Boise,Idaho,83701
23,Clear,2016-09-01 05:53:00,37.0,,-,25,N/A,29.75,75.0,11:53 PM,,10.0,West,9.2,280,Boise,Idaho,83701
0,Clear,2016-09-01 06:53:00,41.0,,-,35,N/A,29.78,70.0,12:53 AM,,10.0,ESE,3.5,110,Boise,Idaho,83701
1,Clear,2016-09-01 07:53:00,39.0,,-,35,N/A,29.78,68.0,1:53 AM,,10.0,Calm,Calm,0,Boise,Idaho,83701
2,Clear,2016-09-01 08:53:00,44.1,,-,47,N/A,29.80,64.9,2:53 AM,,10.0,West,4.6,260,Boise,Idaho,83701
3,Clear,2016-09-01 09:53:00,43.0,,-,50,N/A,29.83,62.1,3:53 AM,,10.0,ESE,5.8,120,Boise,Idaho,83701
4,Clear,2016-09-01 10:53:00,42.1,,-,53,N/A,29.84,59.0,4:53 AM,,10.0,SSW,3.5,210,Boise,Idaho,83701
5,Clear,2016-09-01 11:53:00,41.0,,-,51,N/A,29.85,59.0,5:53 AM,,10.0,SSW,4.6,210,Boise,Idaho,83701
6,Clear,2016-09-01 12:53:00,43.0,,-,55,N/A,29.87,59.0,6:53 AM,,10.0,Calm,Calm,0,Boise,Idaho,83701
7,Clear,2016-09-01 13:53:00,45.0,,-,60,N/A,29.89,59.0,7:53 AM,,10.0,WNW,3.5,290,Boise,Idaho,83701
8,Clear,2016-09-01 14:53:00,46.0,,-,56,N/A,29.90,62.1,8:53 AM,,10.0,WNW,5.8,290,Boise,Idaho,83701
9,Clear,2016-09-01 15:53:00,46.9,,-,52,N/A,29.91,64.9,9:53 AM,,10.0,West,6.9,280,Boise,Idaho,83701
10,Clear,2016-09-01 16:53:00,46.9,,-,47,N/A,29.92,68.0,10:53 AM,,10.0,NW,8.1,310,Boise,Idaho,83701
11,Clear,2016-09-01 17:53:00,46.9,,-,39,N/A,29.90,73.0,11:53 AM,,10.0,NNW,8.1,340,Boise,Idaho,83701
12,Clear,2016-09-01 18:53:00,45.0,,-,32,N/A,29.88,77.0,12:53 PM,,10.0,West,9.2,280,Boise,Idaho,83701
13,Clear,2016-09-01 19:53:00,43.0,,-,27,N/A,29.86,80.1,1:53 PM,,10.0,NW,10.4,320,Boise,Idaho,83701
14,Clear,2016-09-01 20:53:00,43.0,,21.9,25,N/A,29.83,82.0,2:53 PM,,10.0,WNW,13.8,300,Boise,Idaho,83701
15,Clear,2016-09-01 21:53:00,39.9,,-,21,N/A,29.80,84.0,3:53 PM,,10.0,NNW,13.8,330,Boise,Idaho,83701
16,Clear,2016-09-01 22:53:00,37.9,,-,19,N/A,29.77,84.9,4:53 PM,,10.0,NNW,11.5,330,Boise,Idaho,83701
17,Clear,2016-09-01 23:53:00,37.9,,-,19,N/A,29.75,84.9,5:53 PM,,10.0,NNW,12.7,330,Boise,Idaho,83701
18,Clear,2016-09-02 00:53:00,36.0,,-,17,N/A,29.73,84.9,6:53 PM,,10.0,NNW,13.8,330,Boise,Idaho,83701
19,Clear,2016-09-02 01:53:00,37.0,,-,21,N/A,29.73,81.0,7:53 PM,,10.0,NNW,6.9,340,Boise,Idaho,83701
20,Clear,2016-09-02 02:53:00,37.9,,-,25,N/A,29.74,75.9,8:53 PM,,10.0,NNW,8.1,330,Boise,Idaho,83701
21,Clear,2016-09-02 03:53:00,37.9,,-,25,N/A,29.75,75.9,9:53 PM,,10.0,WNW,3.5,290,Boise,Idaho,83701
22,Clear,2016-09-02 04:53:00,39.9,,-,31,N/A,29.76,72.0,10:53 PM,,10.0,West,4.6,270,Boise,Idaho,83701
23,Clear,2016-09-02 05:53:00,43.0,,-,36,N/A,29.79,71.1,11:53 PM,,10.0,NW,11.5,310,Boise,Idaho,83701
0,Clear,2016-09-02 06:53:00,43.0,,-,39,N/A,29.79,69.1,12:53 AM,,10.0,NNW,4.6,330,Boise,Idaho,83701
1,Clear,2016-09-02 07:53:00,45.0,,-,45,N/A,29.79,66.9,1:53 AM,,10.0,WSW,9.2,250,Boise,Idaho,83701
2,Clear,2016-09-02 08:53:00,43.0,,-,45,N/A,29.80,64.9,2:53 AM,,10.0,West,5.8,280,Boise,Idaho,83701
3,Clear,2016-09-02 09:53:00,43.0,,-,48,N/A,29.81,63.0,3:53 AM,,10.0,West,9.2,280,Boise,Idaho,83701
4,Clear,2016-09-02 10:53:00,43.0,,-,53,N/A,29.83,60.1,4:53 AM,,10.0,NW,6.9,310,Boise,Idaho,83701
5,Clear,2016-09-02 11:53:00,43.0,,-,58,N/A,29.84,57.9,5:53 AM,,10.0,NW,5.8,320,Boise,Idaho,83701
6,Clear,2016-09-02 12:53:00,43.0,,-,59,N/A,29.86,57.0,6:53 AM,,10.0,NW,5.8,320,Boise,Idaho,83701
7,Clear,2016-09-02 13:53:00,42.1,,-,51,N/A,29.88,60.1,7:53 AM,,10.0,NW,6.9,320,Boise,Idaho,83701
8,Clear,2016-09-02 14:53:00,41.0,,-,46,N/A,29.90,62.1,8:53 AM,,10.0,NNW,11.5,330,Boise,Idaho,83701
9,Mostly Cloudy,2016-09-02 15:53:00,39.9,,-,43,N/A,29.92,63.0,9:53 AM,,10.0,NNW,10.4,330,Boise,Idaho,83701
10,Mostly Cloudy,2016-09-02 16:53:00,41.0,,-,45,N/A,29.94,63.0,10:53 AM,,10.0,NW,13.8,310,Boise,Idaho,83701
11,Clear,2016-09-02 17:53:00,41.0,,-,40,N/A,29.94,66.0,11:53 AM,,10.0,NW,9.2,320,Boise,Idaho,83701
12,Partly Cloudy,2016-09-02 18:53:00,39.9,,-,36,N/A,29.94,68.0,12:53 PM,,10.0,WNW,12.7,300,Boise,Idaho,83701
13,Scattered Clouds,2016-09-02 19:53:00,39.9,,-,36,N/A,29.94,68.0,1:53 PM,,10.0,NNW,12.7,330,Boise,Idaho,83701
14,Overcast,2016-09-02 20:53:00,39.9,,-,37,N/A,29.94,66.9,2:53 PM,,10.0,NNW,9.2,330,Boise,Idaho,83701
15,Partly Cloudy,2016-09-02 21:53:00,41.0,,-,39,N/A,29.91,66.9,3:53 PM,,10.0,North,8.1,350,Boise,Idaho,83701
16,Clear,2016-09-02 22:53:00,41.0,,-,39,N/A,29.91,66.9,4:53 PM,,10.0,NW,3.5,310,Boise,Idaho,83701
17,Clear,2016-09-02 23:53:00,39.0,,-,35,N/A,29.91,68.0,5:53 PM,,10.0,WNW,3.5,290,Boise,Idaho,83701
18,Clear,2016-09-03 00:53:00,39.9,,-,36,N/A,29.88,68.0,6:53 PM,,10.0,North,5.8,350,Boise,Idaho,83701
19,Clear,2016-09-03 01:53:00,39.9,,-,37,N/A,29.87,66.9,7:53 PM,,10.0,NNW,8.1,340,Boise,Idaho,83701
20,Clear,2016-09-03 02:53:00,41.0,,-,45,N/A,29.88,63.0,8:53 PM,,10.0,WNW,4.6,300,Boise,Idaho,83701
21,Clear,2016-09-03 03:53:00,42.1,,-,48,N/A,29.89,62.1,9:53 PM,,10.0,NNW,4.6,340,Boise,Idaho,83701
22,Clear,2016-09-03 04:53:00,43.0,,-,53,N/A,29.89,60.1,10:53 PM,,10.0,WNW,4.6,290,Boise,Idaho,83701
23,Clear,2016-09-03 05:53:00,42.1,,-,60,N/A,29.89,55.9,11:53 PM,,10.0,South,3.5,180,Boise,Idaho,83701
0,Clear,2016-09-03 06:53:00,42.1,,-,60,N/A,29.89,55.9,12:53 AM,,10.0,Calm,Calm,0,Boise,Idaho,83701
1,Clear,2016-09-03 07:53:00,39.9,,-,57,N/A,29.88,55.0,1:53 AM,,10.0,Calm,Calm,0,Boise,Idaho,83701
2,Clear,2016-09-03 08:53:00,39.0,,-,57,N/A,29.88,54.0,2:53 AM,,10.0,SSE,3.5,150,Boise,Idaho,83701
3,Clear,2016-09-03 09:53:00,39.0,,-,59,N/A,29.89,53.1,3:53 AM,,10.0,SSE,4.6,150,Boise,Idaho,83701
4,Clear,2016-09-03 10:53:00,39.9,,-,59,N/A,29.90,54.0,4:53 AM,,10.0,Calm,Calm,0,Boise,Idaho,83701
5,Clear,2016-09-03 11:53:00,41.0,,-,64,N/A,29.90,53.1,5:53 AM,,10.0,South,3.5,180,Boise,Idaho,83701
6,Clear,2016-09-03 12:53:00,39.9,,-,63,N/A,29.89,52.0,6:53 AM,,10.0,SSW,3.5,200,Boise,Idaho,83701
7,Clear,2016-09-03 13:53:00,41.0,,-,64,N/A,29.91,53.1,7:53 AM,,10.0,SSW,3.5,200,Boise,Idaho,83701
8,Clear,2016-09-03 14:53:00,39.9,,-,61,N/A,29.93,53.1,8:53 AM,,10.0,WSW,4.6,240,Boise,Idaho,83701
9,Clear,2016-09-03 15:53:00,41.0,,-,62,N/A,29.93,54.0,9:53 AM,,10.0,Calm,Calm,0,Boise,Idaho,83701
10,Clear,2016-09-03 16:53:00,42.1,,-,53,N/A,29.91,59.0,10:53 AM,,10.0,West,4.6,280,Boise,Idaho,83701
11,Clear,2016-09-03 17:53:00,41.0,,-,45,N/A,29.90,63.0,11:53 AM,,10.0,NW,6.9,310,Boise,Idaho,83701
12,Clear,2016-09-03 18:53:00,39.9,,-,38,N/A,29.88,66.0,12:53 PM,,10.0,NNW,9.2,330,Boise,Idaho,83701
13,Clear,2016-09-03 19:53:00,37.0,,-,34,N/A,29.86,66.0,1:53 PM,,10.0,NNW,4.6,330,Boise,Idaho,83701
14,Clear,2016-09-03 20:53:00,37.9,,-,33,N/A,29.84,68.0,2:53 PM,,10.0,West,5.8,260,Boise,Idaho,83701
15,Clear,2016-09-03 21:53:00,36.0,,-,28,N/A,29.81,71.1,3:53 PM,,10.0,Variable,3.5,0,Boise,Idaho,83701
16,Clear,2016-09-03 22:53:00,30.0,,-,21,N/A,29.79,72.0,4:53 PM,,10.0,NW,6.9,320,Boise,Idaho,83701
17,Clear,2016-09-03 23:53:00,26.1,,-,17,N/A,29.76,73.9,5:53 PM,,10.0,WNW,8.1,300,Boise,Idaho,83701
18,Clear,2016-09-04 00:53:00,28.9,,-,21,N/A,29.76,71.1,6:53 PM,,10.0,West,5.8,270,Boise,Idaho,83701
19,Clear,2016-09-04 01:53:00,30.9,,-,24,N/A,29.74,70.0,7:53 PM,,10.0,WNW,4.6,300,Boise,Idaho,83701
20,Clear,2016-09-04 02:53:00,33.1,,-,27,N/A,29.73,68.0,8:53 PM,,10.0,Calm,Calm,0,Boise,Idaho,83701
21,Clear,2016-09-04 03:53:00,34.0,,-,32,N/A,29.75,64.9,9:53 PM,,10.0,Calm,Calm,0,Boise,Idaho,83701
22,Clear,2016-09-04 04:53:00,30.9,,-,33,N/A,29.74,60.1,10:53 PM,,10.0,Calm,Calm,0,Boise,Idaho,83701
23,Clear,2016-09-04 05:53:00,30.0,,-,36,N/A,29.75,57.0,11:53 PM,,10.0,ESE,4.6,110,Boise,Idaho,83701
0,Clear,2016-09-04 06:53:00,30.0,,-,37,N/A,29.73,55.9,12:53 AM,,10.0,SE,4.6,130,Boise,Idaho,83701
1,Clear,2016-09-04 07:53:00,28.9,,-,38,N/A,29.74,54.0,1:53 AM,,10.0,SW,3.5,220,Boise,Idaho,83701
2,Clear,2016-09-04 08:53:00,36.0,,-,54,N/A,29.73,52.0,2:53 AM,,10.0,WSW,5.8,240,Boise,Idaho,83701
3,Clear,2016-09-04 09:53:00,39.9,,-,61,N/A,29.72,53.1,3:53 AM,,10.0,WSW,5.8,240,Boise,Idaho,83701
4,Overcast,2016-09-04 10:53:00,41.0,,-,64,N/A,29.75,53.1,4:53 AM,,10.0,WSW,5.8,240,Boise,Idaho,83701
5,Overcast,2016-09-04 11:53:00,41.0,,-,64,N/A,29.73,53.1,5:53 AM,,10.0,North,11.5,350,Boise,Idaho,83701
6,Mostly Cloudy,2016-09-04 12:53:00,39.9,,-,61,N/A,29.72,53.1,6:53 AM,,10.0,Calm,Calm,0,Boise,Idaho,83701
7,Mostly Cloudy,2016-09-04 13:53:00,39.0,,-,57,N/A,29.73,54.0,7:53 AM,,10.0,South,9.2,190,Boise,Idaho,83701
8,Overcast,2016-09-04 14:53:00,39.9,,-,59,N/A,29.76,54.0,8:53 AM,,10.0,SSE,4.6,160,Boise,Idaho,83701
9,Mostly Cloudy,2016-09-04 15:53:00,41.0,,-,57,N/A,29.76,55.9,9:53 AM,,10.0,Calm,Calm,0,Boise,Idaho,83701
10,Mostly Cloudy,2016-09-04 16:53:00,39.9,,-,47,N/A,29.76,60.1,10:53 AM,,10.0,Calm,Calm,0,Boise,Idaho,83701
11,Scattered Clouds,2016-09-04 17:53:00,41.0,,-,43,N/A,29.75,64.0,11:53 AM,,10.0,WNW,9.2,290,Boise,Idaho,83701
12,Overcast,2016-09-04 18:53:00,39.0,,-,41,N/A,29.77,63.0,12:53 PM,,10.0,West,8.1,270,Boise,Idaho,83701
13,Overcast,2016-09-04 19:53:00,41.0,,-,45,N/A,29.77,63.0,1:53 PM,,10.0,SW,11.5,230,Boise,Idaho,83701
14,Mostly Cloudy,2016-09-04 20:53:00,39.9,,-,43,0.00,29.78,63.0,2:53 PM,,10.0,Calm,Calm,0,Boise,Idaho,83701
15,Overcast,2016-09-04 21:53:00,37.9,,-,38,N/A,29.77,64.0,3:53 PM,,10.0,South,8.1,180,Boise,Idaho,83701
16,Overcast,2016-09-04 22:53:00,44.1,,-,55,N/A,29.78,60.1,4:53 PM,,10.0,ESE,13.8,120,Boise,Idaho,83701
17,Overcast,2016-09-04 23:03:00,44.1,,-,55,N/A,29.81,60.1,5:03 PM,,10.0,SE,15.0,130,Boise,Idaho,83701
18,Overcast,2016-09-04 23:53:00,44.1,,-,58,N/A,29.78,59.0,5:53 PM,,10.0,SE,12.7,130,Boise,Idaho,83701
19,Partly Cloudy,2016-09-05 00:53:00,43.0,,-,53,N/A,29.78,60.1,6:53 PM,,10.0,South,10.4,170,Boise,Idaho,83701
20,Overcast,2016-09-05 01:53:00,45.0,,-,62,N/A,29.82,57.9,7:53 PM,,10.0,SSW,9.2,200,Boise,Idaho,83701
21,Overcast,2016-09-05 02:53:00,44.1,,-,64,N/A,29.83,55.9,8:53 PM,,10.0,Calm,Calm,0,Boise,Idaho,83701
22,Overcast,2016-09-05 03:53:00,42.1,,-,57,N/A,29.83,57.0,9:53 PM,,10.0,SSE,5.8,150,Boise,Idaho,83701
23,Clear,2016-09-05 04:53:00,45.0,,-,74,N/A,29.85,53.1,10:53 PM,,10.0,South,8.1,170,Boise,Idaho,83701
24,Partly Cloudy,2016-09-05 05:53:00,44.1,,-,74,N/A,29.85,52.0,11:53 PM,,10.0,SE,6.9,140,Boise,Idaho,83701
0,Clear,2016-09-05 06:53:00,46.0,,-,80,N/A,29.86,52.0,12:53 AM,,10.0,ESE,8.1,120,Boise,Idaho,83701
1,Partly Cloudy,2016-09-05 07:53:00,43.0,,-,77,N/A,29.87,50.0,1:53 AM,,10.0,SSE,3.5,150,Boise,Idaho,83701
2,Clear,2016-09-05 08:53:00,44.1,,-,83,N/A,29.88,48.9,2:53 AM,,10.0,SE,4.6,130,Boise,Idaho,83701
3,Clear,2016-09-05 09:53:00,43.0,,-,83,N/A,29.88,48.0,3:53 AM,,10.0,ESE,6.9,120,Boise,Idaho,83701
4,Clear,2016-09-05 10:53:00,43.0,,-,86,N/A,29.91,46.9,4:53 AM,,10.0,SE,4.6,130,Boise,Idaho,83701
5,Clear,2016-09-05 11:53:00,42.1,,-,90,N/A,29.93,45.0,5:53 AM,,10.0,ESE,3.5,120,Boise,Idaho,83701
6,Clear,2016-09-05 12:53:00,42.1,,-,90,N/A,29.95,45.0,6:53 AM,,10.0,SSE,5.8,150,Boise,Idaho,83701
7,Clear,2016-09-05 13:53:00,43.0,,-,89,N/A,29.96,46.0,7:53 AM,,10.0,SE,8.1,130,Boise,Idaho,83701
8,Clear,2016-09-05 14:53:00,45.0,,-,80,N/A,29.98,51.1,8:53 AM,,10.0,SE,3.5,130,Boise,Idaho,83701
9,Clear,2016-09-05 15:53:00,44.1,,-,67,N/A,29.98,55.0,9:53 AM,,10.0,Calm,Calm,0,Boise,Idaho,83701
10,Clear,2016-09-05 16:53:00,44.1,,-,55,N/A,29.98,60.1,10:53 AM,,10.0,West,5.8,280,Boise,Idaho,83701
11,Clear,2016-09-05 17:53:00,41.0,,-,45,N/A,29.98,63.0,11:53 AM,,10.0,WNW,5.8,290,Boise,Idaho,83701
12,Clear,2016-09-05 18:53:00,41.0,,-,42,N/A,29.97,64.9,12:53 PM,,10.0,WNW,8.1,290,Boise,Idaho,83701
13,Clear,2016-09-05 19:53:00,39.9,,-,38,N/A,29.96,66.0,1:53 PM,,10.0,Variable,6.9,0,Boise,Idaho,83701
14,Clear,2016-09-05 20:53:00,37.9,,-,33,N/A,29.95,68.0,2:53 PM,,10.0,Calm,Calm,0,Boise,Idaho,83701
15,Clear,2016-09-05 21:53:00,35.1,,-,28,N/A,29.94,70.0,3:53 PM,,10.0,West,5.8,260,Boise,Idaho,83701
16,Clear,2016-09-05 22:53:00,32.0,,-,25,N/A,29.93,70.0,4:53 PM,,10.0,Variable,4.6,0,Boise,Idaho,83701
17,Clear,2016-09-05 23:53:00,30.0,,-,22,N/A,29.93,71.1,5:53 PM,,10.0,WNW,5.8,290,Boise,Idaho,83701
18,Clear,2016-09-06 00:53:00,27.0,,-,20,N/A,29.92,70.0,6:53 PM,,10.0,WNW,6.9,300,Boise,Idaho,83701
19,Clear,2016-09-06 01:53:00,26.1,,-,21,N/A,29.92,66.9,7:53 PM,,10.0,NNW,4.6,340,Boise,Idaho,83701
20,Clear,2016-09-06 02:53:00,30.0,,-,28,N/A,29.94,64.0,8:53 PM,,10.0,Calm,Calm,0,Boise,Idaho,83701
21,Clear,2016-09-06 03:53:00,27.0,,-,28,N/A,29.95,60.1,9:53 PM,,10.0,Calm,Calm,0,Boise,Idaho,83701
22,Clear,2016-09-06 04:53:00,27.0,,-,32,N/A,29.95,57.0,10:53 PM,,10.0,SE,4.6,130,Boise,Idaho,83701
23,Clear,2016-09-06 05:53:00,32.0,,-,40,N/A,29.94,55.9,11:53 PM,,10.0,SE,9.2,130,Boise,Idaho,83701
0,Clear,2016-09-06 06:53:00,34.0,,-,47,N/A,29.93,54.0,12:53 AM,,10.0,ESE,8.1,120,Boise,Idaho,83701
1,Clear,2016-09-06 07:53:00,34.0,,-,45,N/A,29.92,55.0,1:53 AM,,10.0,ESE,8.1,120,Boise,Idaho,83701
2,Clear,2016-09-06 08:53:00,35.1,,-,50,N/A,29.92,53.1,2:53 AM,,10.0,SE,9.2,130,Boise,Idaho,83701
3,Clear,2016-09-06 09:53:00,36.0,,-,54,N/A,29.92,52.0,3:53 AM,,10.0,SE,10.4,130,Boise,Idaho,83701
4,Clear,2016-09-06 10:53:00,36.0,,-,54,N/A,29.92,52.0,4:53 AM,,10.0,SE,11.5,130,Boise,Idaho,83701
5,Clear,2016-09-06 11:53:00,36.0,,-,52,N/A,29.91,53.1,5:53 AM,,10.0,SE,10.4,130,Boise,Idaho,83701
6,Clear,2016-09-06 12:53:00,36.0,,-,52,N/A,29.92,53.1,6:53 AM,,10.0,SE,10.4,130,Boise,Idaho,83701
7,Clear,2016-09-06 13:53:00,35.1,,-,49,N/A,29.93,54.0,7:53 AM,,10.0,ESE,12.7,120,Boise,Idaho,83701
8,Clear,2016-09-06 14:53:00,35.1,,-,42,N/A,29.94,57.9,8:53 AM,,10.0,ESE,11.5,120,Boise,Idaho,83701
9,Clear,2016-09-06 15:53:00,35.1,,-,35,N/A,29.93,63.0,9:53 AM,,10.0,ESE,13.8,120,Boise,Idaho,83701
10,Clear,2016-09-06 16:53:00,36.0,,-,32,N/A,29.94,66.9,10:53 AM,,10.0,ESE,13.8,120,Boise,Idaho,83701
11,Clear,2016-09-06 17:53:00,32.0,,21.9,24,N/A,29.91,71.1,11:53 AM,,10.0,SE,13.8,140,Boise,Idaho,83701
12,Clear,2016-09-06 18:53:00,30.0,,-,20,N/A,29.89,73.0,12:53 PM,,10.0,SE,13.8,130,Boise,Idaho,83701
13,Clear,2016-09-06 19:53:00,28.9,,-,19,N/A,29.88,73.9,1:53 PM,,10.0,SSE,10.4,150,Boise,Idaho,83701
14,Clear,2016-09-06 20:53:00,28.9,,-,18,N/A,29.88,75.9,2:53 PM,,10.0,SE,8.1,140,Boise,Idaho,83701
15,Clear,2016-09-06 21:53:00,28.0,,-,17,N/A,29.85,77.0,3:53 PM,,10.0,ESE,4.6,110,Boise,Idaho,83701
16,Clear,2016-09-06 22:53:00,28.0,,-,17,N/A,29.86,75.9,4:53 PM,,10.0,SW,5.8,220,Boise,Idaho,83701
17,Clear,2016-09-06 23:53:00,30.0,,-,19,N/A,29.86,75.9,5:53 PM,,10.0,NNW,9.2,330,Boise,Idaho,83701
18,Partly Cloudy,2016-09-07 00:53:00,36.0,,-,26,N/A,29.88,73.0,6:53 PM,,10.0,NNW,13.8,330,Boise,Idaho,83701
19,Clear,2016-09-07 01:53:00,37.0,,-,31,N/A,29.90,69.1,7:53 PM,,10.0,NNW,16.1,330,Boise,Idaho,83701
20,Overcast,2016-09-07 02:53:00,36.0,,-,32,N/A,29.91,66.9,8:53 PM,,10.0,NNW,13.8,330,Boise,Idaho,83701
21,Partly Cloudy,2016-09-07 03:53:00,36.0,,-,34,N/A,29.93,64.9,9:53 PM,,10.0,NW,12.7,320,Boise,Idaho,83701
22,Scattered Clouds,2016-09-07 04:53:00,37.9,,-,40,N/A,29.94,63.0,10:53 PM,,10.0,WNW,10.4,300,Boise,Idaho,83701
23,Clear,2016-09-07 05:53:00,41.0,,-,49,N/A,29.96,60.1,11:53 PM,,10.0,West,8.1,280,Boise,Idaho,83701
0,Clear,2016-09-07 06:53:00,43.0,,-,59,N/A,29.99,57.0,12:53 AM,,10.0,Calm,Calm,0,Boise,Idaho,83701
1,Clear,2016-09-07 07:53:00,45.0,,-,67,N/A,30.00,55.9,1:53 AM,,10.0,West,10.4,280,Boise,Idaho,83701
2,Clear,2016-09-07 08:53:00,44.1,,-,71,N/A,30.01,53.1,2:53 AM,,10.0,WNW,3.5,290,Boise,Idaho,83701
3,Clear,2016-09-07 09:53:00,42.1,,-,71,N/A,30.02,51.1,3:53 AM,,10.0,Calm,Calm,0,Boise,Idaho,83701
4,Clear,2016-09-07 10:53:00,45.0,,-,77,N/A,30.04,52.0,4:53 AM,,10.0,WNW,3.5,290,Boise,Idaho,83701
5,Clear,2016-09-07 11:53:00,43.0,,-,80,N/A,30.05,48.9,5:53 AM,,10.0,Calm,Calm,0,Boise,Idaho,83701
6,Clear,2016-09-07 12:53:00,43.0,,-,80,N/A,30.07,48.9,6:53 AM,,10.0,SE,4.6,140,Boise,Idaho,83701
7,Clear,2016-09-07 13:53:00,43.0,,-,80,N/A,30.11,48.9,7:53 AM,,10.0,South,3.5,180,Boise,Idaho,83701
8,Clear,2016-09-07 14:53:00,46.0,,-,75,N/A,30.11,54.0,8:53 AM,,10.0,Calm,Calm,0,Boise,Idaho,83701
9,Clear,2016-09-07 15:53:00,46.0,,-,62,N/A,30.12,59.0,9:53 AM,,10.0,Calm,Calm,0,Boise,Idaho,83701
10,Clear,2016-09-07 16:53:00,46.0,,-,56,N/A,30.12,62.1,10:53 AM,,10.0,North,4.6,350,Boise,Idaho,83701
11,Clear,2016-09-07 17:53:00,45.0,,-,47,N/A,30.12,66.0,11:53 AM,,10.0,West,6.9,280,Boise,Idaho,83701
12,Clear,2016-09-07 18:53:00,44.1,,-,42,N/A,30.11,68.0,12:53 PM,,10.0,West,5.8,280,Boise,Idaho,83701
13,Clear,2016-09-07 19:53:00,41.0,,-,35,N/A,30.10,70.0,1:53 PM,,10.0,WNW,6.9,290,Boise,Idaho,83701
14,Clear,2016-09-07 20:53:00,43.0,,-,34,N/A,30.08,73.0,2:53 PM,,10.0,WNW,13.8,290,Boise,Idaho,83701
15,Clear,2016-09-07 21:53:00,39.9,,17.3,31,N/A,30.06,72.0,3:53 PM,,10.0,West,10.4,280,Boise,Idaho,83701
16,Clear,2016-09-07 22:53:00,39.0,,-,28,N/A,30.04,73.9,4:53 PM,,10.0,North,9.2,350,Boise,Idaho,83701
17,Clear,2016-09-07 23:53:00,39.9,,-,31,N/A,30.04,72.0,5:53 PM,,10.0,NNW,8.1,330,Boise,Idaho,83701
18,Clear,2016-09-08 00:53:00,36.0,,-,26,N/A,30.03,73.0,6:53 PM,,10.0,North,9.2,10,Boise,Idaho,83701
19,Clear,2016-09-08 01:53:00,34.0,,-,27,N/A,30.03,70.0,7:53 PM,,10.0,NNW,5.8,340,Boise,Idaho,83701
20,Clear,2016-09-08 02:53:00,36.0,,-,32,N/A,30.02,66.9,8:53 PM,,10.0,North,5.8,10,Boise,Idaho,83701
21,Clear,2016-09-08 03:53:00,32.0,,-,32,N/A,30.02,62.1,9:53 PM,,10.0,South,5.8,190,Boise,Idaho,83701
22,Clear,2016-09-08 04:53:00,35.1,,-,38,N/A,30.02,61.0,10:53 PM,,10.0,SSE,5.8,150,Boise,Idaho,83701
23,Clear,2016-09-08 05:53:00,32.0,,-,36,N/A,30.02,59.0,11:53 PM,,10.0,ESE,6.9,120,Boise,Idaho,83701
0,Clear,2016-09-08 06:53:00,35.1,,-,39,N/A,30.02,60.1,12:53 AM,,10.0,ESE,8.1,120,Boise,Idaho,83701
1,Clear,2016-09-08 07:53:00,35.1,,-,45,N/A,30.02,55.9,1:53 AM,,10.0,ESE,3.5,120,Boise,Idaho,83701
2,Clear,2016-09-08 08:53:00,36.0,,-,47,N/A,30.03,55.9,2:53 AM,,10.0,SE,3.5,130,Boise,Idaho,83701
3,Clear,2016-09-08 09:53:00,36.0,,-,47,N/A,30.04,55.9,3:53 AM,,10.0,ESE,6.9,110,Boise,Idaho,83701
4,Clear,2016-09-08 10:53:00,36.0,,-,52,N/A,30.05,53.1,4:53 AM,,10.0,SE,6.9,130,Boise,Idaho,83701
5,Clear,2016-09-08 11:53:00,36.0,,-,54,N/A,30.06,52.0,5:53 AM,,10.0,SSE,4.6,160,Boise,Idaho,83701
6,Clear,2016-09-08 12:53:00,36.0,,-,54,N/A,30.09,52.0,6:53 AM,,10.0,ESE,3.5,120,Boise,Idaho,83701
7,Clear,2016-09-08 13:53:00,37.0,,-,59,N/A,30.11,51.1,7:53 AM,,10.0,SSE,5.8,150,Boise,Idaho,83701
8,Clear,2016-09-08 14:53:00,37.0,,-,49,N/A,30.13,55.9,8:53 AM,,10.0,South,3.5,180,Boise,Idaho,83701
9,Clear,2016-09-08 15:53:00,37.9,,-,40,N/A,30.13,63.0,9:53 AM,,10.0,Calm,Calm,0,Boise,Idaho,83701
10,Clear,2016-09-08 16:53:00,39.9,,-,38,N/A,30.13,66.0,10:53 AM,,10.0,WNW,6.9,300,Boise,Idaho,83701
11,Clear,2016-09-08 17:53:00,39.9,,19.6,36,N/A,30.12,68.0,11:53 AM,,10.0,NNW,9.2,330,Boise,Idaho,83701
12,Clear,2016-09-08 18:53:00,39.0,,-,32,N/A,30.12,70.0,12:53 PM,,10.0,WNW,13.8,290,Boise,Idaho,83701
13,Clear,2016-09-08 19:53:00,39.9,,21.9,30,N/A,30.11,73.0,1:53 PM,,10.0,WNW,17.3,290,Boise,Idaho,83701
14,Clear,2016-09-08 20:53:00,39.0,,23.0,27,N/A,30.09,75.0,2:53 PM,,10.0,WNW,11.5,290,Boise,Idaho,83701
15,Clear,2016-09-08 21:53:00,37.0,,20.7,25,N/A,30.06,75.0,3:53 PM,,10.0,NNW,10.4,340,Boise,Idaho,83701
16,Clear,2016-09-08 22:53:00,34.0,,-,22,N/A,30.05,75.9,4:53 PM,,10.0,NW,12.7,320,Boise,Idaho,83701
17,Clear,2016-09-08 23:53:00,24.1,,21.9,15,N/A,30.05,75.9,5:53 PM,,10.0,NW,12.7,320,Boise,Idaho,83701
18,Clear,2016-09-09 00:53:00,24.1,,-,15,N/A,30.03,75.9,6:53 PM,,10.0,North,9.2,360,Boise,Idaho,83701
19,Clear,2016-09-09 01:53:00,26.1,,-,17,N/A,30.02,73.0,7:53 PM,,10.0,NNW,3.5,340,Boise,Idaho,83701
20,Clear,2016-09-09 02:53:00,27.0,,-,21,N/A,30.03,69.1,8:53 PM,,10.0,WNW,3.5,290,Boise,Idaho,83701
21,Clear,2016-09-09 03:53:00,27.0,,-,26,N/A,30.04,63.0,9:53 PM,,10.0,Calm,Calm,0,Boise,Idaho,83701
22,Clear,2016-09-09 04:53:00,28.0,,-,29,N/A,30.06,61.0,10:53 PM,,10.0,Calm,Calm,0,Boise,Idaho,83701
23,Clear,2016-09-09 05:53:00,26.1,,-,32,N/A,30.09,55.9,11:53 PM,,10.0,Calm,Calm,0,Boise,Idaho,83701
0,Clear,2016-09-09 06:53:00,34.0,,-,42,N/A,30.10,57.0,12:53 AM,,10.0,WNW,4.6,290,Boise,Idaho,83701
1,Clear,2016-09-09 07:53:00,33.1,,-,39,N/A,30.11,57.9,1:53 AM,,10.0,West,11.5,280,Boise,Idaho,83701
2,Clear,2016-09-09 08:53:00,30.0,,-,38,N/A,30.14,55.0,2:53 AM,,10.0,North,4.6,360,Boise,Idaho,83701
3,Clear,2016-09-09 09:53:00,30.0,,-,38,N/A,30.14,55.0,3:53 AM,,10.0,WNW,9.2,290,Boise,Idaho,83701
4,Clear,2016-09-09 10:53:00,30.9,,-,45,N/A,30.18,52.0,4:53 AM,,10.0,Calm,Calm,0,Boise,Idaho,83701
5,Clear,2016-09-09 11:53:00,32.0,,-,48,N/A,30.20,51.1,5:53 AM,,10.0,North,3.5,360,Boise,Idaho,83701
6,Clear,2016-09-09 12:53:00,33.1,,-,50,N/A,30.22,51.1,6:53 AM,,10.0,NNW,4.6,330,Boise,Idaho,83701
7,Clear,2016-09-09 13:53:00,30.0,,-,56,N/A,30.26,45.0,7:53 AM,,10.0,SSE,3.5,150,Boise,Idaho,83701
8,Clear,2016-09-09 14:53:00,32.0,,-,50,N/A,30.28,50.0,8:53 AM,,10.0,Calm,Calm,0,Boise,Idaho,83701
9,Clear,2016-09-09 15:53:00,36.0,,-,47,N/A,30.29,55.9,9:53 AM,,10.0,WNW,6.9,290,Boise,Idaho,83701
10,Clear,2016-09-09 16:53:00,34.0,,-,36,N/A,30.30,61.0,10:53 AM,,10.0,NW,6.9,320,Boise,Idaho,83701
11,Clear,2016-09-09 17:53:00,37.0,,-,34,N/A,30.29,66.0,11:53 AM,,10.0,NNW,9.2,330,Boise,Idaho,83701
12,Clear,2016-09-09 18:53:00,33.1,,-,26,N/A,30.27,69.1,12:53 PM,,10.0,North,4.6,350,Boise,Idaho,83701
13,Clear,2016-09-09 19:53:00,28.9,,-,20,N/A,30.26,72.0,1:53 PM,,10.0,Calm,Calm,0,Boise,Idaho,83701
14,Clear,2016-09-09 20:53:00,27.0,,-,18,N/A,30.25,73.9,2:53 PM,,10.0,Variable,3.5,0,Boise,Idaho,83701
15,Clear,2016-09-09 21:53:00,26.1,,-,17,N/A,30.23,73.9,3:53 PM,,10.0,West,5.8,260,Boise,Idaho,83701
16,Clear,2016-09-09 22:53:00,26.1,,-,16,N/A,30.23,75.0,4:53 PM,,10.0,West,9.2,280,Boise,Idaho,83701
17,Clear,2016-09-09 23:53:00,27.0,,-,16,N/A,30.21,75.9,5:53 PM,,10.0,NNW,8.1,330,Boise,Idaho,83701
18,Clear,2016-09-10 00:53:00,28.9,,-,18,N/A,30.20,75.9,6:53 PM,,10.0,North,6.9,360,Boise,Idaho,83701
19,Clear,2016-09-10 01:53:00,28.0,,-,20,N/A,30.21,72.0,7:53 PM,,10.0,WNW,5.8,290,Boise,Idaho,83701
20,Clear,2016-09-10 02:53:00,32.0,,-,26,N/A,30.21,68.0,8:53 PM,,10.0,West,3.5,270,Boise,Idaho,83701
21,Clear,2016-09-10 03:53:00,33.1,,-,31,N/A,30.22,64.0,9:53 PM,,10.0,Calm,Calm,0,Boise,Idaho,83701
22,Clear,2016-09-10 04:53:00,30.9,,-,33,N/A,30.22,60.1,10:53 PM,,10.0,Calm,Calm,0,Boise,Idaho,83701
23,Clear,2016-09-10 05:53:00,30.0,,-,35,N/A,30.22,57.9,11:53 PM,,10.0,SE,5.8,130,Boise,Idaho,83701
0,Clear,2016-09-10 06:53:00,30.9,,-,39,N/A,30.20,55.9,12:53 AM,,10.0,SE,6.9,130,Boise,Idaho,83701
1,Clear,2016-09-10 07:53:00,30.9,,-,39,N/A,30.19,55.9,1:53 AM,,10.0,SE,9.2,130,Boise,Idaho,83701
2,Clear,2016-09-10 08:53:00,30.9,,-,40,N/A,30.18,55.0,2:53 AM,,10.0,ESE,9.2,120,Boise,Idaho,83701
3,Clear,2016-09-10 09:53:00,30.0,,-,38,N/A,30.18,55.0,3:53 AM,,10.0,SE,10.4,130,Boise,Idaho,83701
4,Clear,2016-09-10 10:53:00,30.0,,-,41,N/A,30.18,53.1,4:53 AM,,10.0,SE,9.2,130,Boise,Idaho,83701
5,Clear,2016-09-10 11:53:00,30.0,,-,43,N/A,30.19,52.0,5:53 AM,,10.0,ESE,8.1,120,Boise,Idaho,83701
6,Clear,2016-09-10 12:53:00,28.9,,-,43,N/A,30.19,51.1,6:53 AM,,10.0,ESE,3.5,120,Boise,Idaho,83701
7,Clear,2016-09-10 13:53:00,30.0,,-,43,N/A,30.20,52.0,7:53 AM,,10.0,SE,9.2,130,Boise,Idaho,83701
8,Clear,2016-09-10 14:53:00,30.0,,-,36,N/A,30.21,57.0,8:53 AM,,10.0,ESE,8.1,120,Boise,Idaho,83701
9,Clear,2016-09-10 15:53:00,30.0,,-,29,N/A,30.20,63.0,9:53 AM,,10.0,ESE,5.8,110,Boise,Idaho,83701
10,Clear,2016-09-10 16:53:00,28.0,,-,22,N/A,30.19,68.0,10:53 AM,,10.0,ESE,4.6,120,Boise,Idaho,83701
11,Clear,2016-09-10 17:53:00,26.1,,-,17,N/A,30.18,73.0,11:53 AM,,10.0,Calm,Calm,0,Boise,Idaho,83701
12,Clear,2016-09-10 18:53:00,25.0,,-,16,N/A,30.16,75.0,12:53 PM,,10.0,Calm,Calm,0,Boise,Idaho,83701
13,Clear,2016-09-10 19:53:00,23.0,,-,13,N/A,30.13,78.1,1:53 PM,,10.0,Calm,Calm,0,Boise,Idaho,83701
14,Clear,2016-09-10 20:53:00,23.0,,-,13,N/A,30.11,79.0,2:53 PM,,10.0,Variable,3.5,0,Boise,Idaho,83701
15,Clear,2016-09-10 21:53:00,24.1,,-,13,N/A,30.08,80.1,3:53 PM,,10.0,Calm,Calm,0,Boise,Idaho,83701
16,Clear,2016-09-10 22:53:00,18.0,,-,9,N/A,30.06,82.0,4:53 PM,,10.0,Calm,Calm,0,Boise,Idaho,83701
17,Clear,2016-09-10 23:53:00,16.0,,-,8,N/A,30.03,82.0,5:53 PM,,10.0,Calm,Calm,0,Boise,Idaho,83701
18,Clear,2016-09-11 00:53:00,24.1,,-,12,N/A,30.01,81.0,6:53 PM,,10.0,NNW,4.6,330,Boise,Idaho,83701
19,Clear,2016-09-11 01:53:00,21.9,,-,13,N/A,30.01,77.0,7:53 PM,,10.0,West,3.5,260,Boise,Idaho,83701
20,Clear,2016-09-11 02:53:00,25.0,,-,18,N/A,30.00,70.0,8:53 PM,,10.0,SSW,3.5,200,Boise,Idaho,83701
21,Clear,2016-09-11 03:53:00,24.1,,-,20,N/A,29.99,66.9,9:53 PM,,10.0,ESE,6.9,120,Boise,Idaho,83701
22,Clear,2016-09-11 04:53:00,21.9,,-,21,N/A,29.98,63.0,10:53 PM,,10.0,ESE,9.2,120,Boise,Idaho,83701
23,Clear,2016-09-11 05:53:00,21.0,,-,19,N/A,29.96,64.0,11:53 PM,,10.0,ESE,9.2,120,Boise,Idaho,83701
0,Clear,2016-09-11 06:53:00,21.9,,-,21,N/A,29.94,63.0,12:53 AM,,10.0,SE,11.5,130,Boise,Idaho,83701
1,Clear,2016-09-11 07:53:00,21.9,,-,21,N/A,29.93,63.0,1:53 AM,,10.0,SE,11.5,130,Boise,Idaho,83701
2,Clear,2016-09-11 08:53:00,23.0,,-,22,N/A,29.92,62.1,2:53 AM,,10.0,SE,10.4,130,Boise,Idaho,83701
3,Clear,2016-09-11 09:53:00,21.9,,-,21,N/A,29.90,62.1,3:53 AM,,10.0,SE,12.7,130,Boise,Idaho,83701
4,Clear,2016-09-11 10:53:00,23.0,,-,27,N/A,29.91,57.0,4:53 AM,,10.0,South,8.1,170,Boise,Idaho,83701
5,Clear,2016-09-11 11:53:00,30.9,,-,45,N/A,29.93,52.0,5:53 AM,,10.0,ESE,6.9,120,Boise,Idaho,83701
6,Clear,2016-09-11 12:53:00,24.1,,-,31,N/A,29.92,54.0,6:53 AM,,10.0,SE,11.5,140,Boise,Idaho,83701
7,Clear,2016-09-11 13:53:00,21.9,,-,29,N/A,29.96,54.0,7:53 AM,,10.0,SE,6.9,140,Boise,Idaho,83701
8,Clear,2016-09-11 14:53:00,27.0,,-,31,N/A,29.96,57.9,8:53 AM,,10.0,ESE,3.5,120,Boise,Idaho,83701
9,Clear,2016-09-11 15:53:00,24.1,,-,21,N/A,29.96,64.9,9:53 AM,,10.0,SE,4.6,140,Boise,Idaho,83701
10,Clear,2016-09-11 16:53:00,26.1,,-,19,N/A,29.95,70.0,10:53 AM,,10.0,NW,4.6,310,Boise,Idaho,83701
11,Clear,2016-09-11 17:53:00,28.9,,-,20,N/A,29.94,73.0,11:53 AM,,10.0,Variable,5.8,0,Boise,Idaho,83701
12,Clear,2016-09-11 18:53:00,33.1,,-,20,N/A,29.92,77.0,12:53 PM,,10.0,NW,11.5,320,Boise,Idaho,83701
13,Clear,2016-09-11 19:53:00,36.0,,-,22,N/A,29.89,78.1,1:53 PM,,10.0,North,12.7,350,Boise,Idaho,83701
14,Clear,2016-09-11 20:53:00,34.0,,21.9,18,N/A,29.85,81.0,2:53 PM,,10.0,NW,8.1,320,Boise,Idaho,83701
15,Clear,2016-09-11 21:53:00,34.0,,-,18,N/A,29.83,82.0,3:53 PM,,10.0,North,13.8,350,Boise,Idaho,83701
16,Clear,2016-09-11 22:53:00,32.0,,26.5,16,N/A,29.81,82.9,4:53 PM,,10.0,North,19.6,350,Boise,Idaho,83701
17,Clear,2016-09-11 23:53:00,30.9,,23.0,16,N/A,29.77,81.0,5:53 PM,,10.0,NNW,13.8,330,Boise,Idaho,83701
18,Clear,2016-09-12 00:53:00,34.0,,-,20,N/A,29.76,78.1,6:53 PM,,10.0,NNW,17.3,330,Boise,Idaho,83701
19,Clear,2016-09-12 01:53:00,32.0,,25.3,21,N/A,29.79,75.0,7:53 PM,,10.0,NNW,19.6,340,Boise,Idaho,83701
20,Clear,2016-09-12 02:53:00,30.9,,-,22,N/A,29.79,72.0,8:53 PM,,10.0,NNW,9.2,330,Boise,Idaho,83701
21,Clear,2016-09-12 03:53:00,28.0,,-,21,N/A,29.79,70.0,9:53 PM,,10.0,NW,16.1,320,Boise,Idaho,83701
22,Partly Cloudy,2016-09-12 04:53:00,25.0,,-,19,N/A,29.79,69.1,10:53 PM,,10.0,NW,13.8,320,Boise,Idaho,83701
23,Partly Cloudy,2016-09-12 05:53:00,28.0,,-,25,N/A,29.81,64.9,11:53 PM,,10.0,WNW,12.7,290,Boise,Idaho,83701
0,Partly Cloudy,2016-09-12 06:53:00,28.9,,-,29,N/A,29.81,62.1,12:53 AM,,10.0,WNW,16.1,300,Boise,Idaho,83701
1,Clear,2016-09-12 07:53:00,30.0,,-,32,N/A,29.83,60.1,1:53 AM,,10.0,West,10.4,280,Boise,Idaho,83701
2,Clear,2016-09-12 08:53:00,30.9,,-,39,N/A,29.83,55.9,2:53 AM,,10.0,West,13.8,270,Boise,Idaho,83701
3,Clear,2016-09-12 09:53:00,33.1,,-,45,N/A,29.86,54.0,3:53 AM,,10.0,West,5.8,270,Boise,Idaho,83701
4,Clear,2016-09-12 10:53:00,34.0,,-,50,N/A,29.86,52.0,4:53 AM,,10.0,West,8.1,270,Boise,Idaho,83701
5,Clear,2016-09-12 11:53:00,33.1,,-,50,N/A,29.87,51.1,5:53 AM,,10.0,WNW,9.2,290,Boise,Idaho,83701
6,Clear,2016-09-12 12:53:00,33.1,,-,56,N/A,29.88,48.0,6:53 AM,,10.0,WNW,4.6,300,Boise,Idaho,83701
7,Clear,2016-09-12 13:53:00,33.1,,-,59,N/A,29.91,46.9,7:53 AM,,10.0,NNW,6.9,330,Boise,Idaho,83701
8,Clear,2016-09-12 14:53:00,34.0,,-,52,N/A,29.90,51.1,8:53 AM,,10.0,NNW,3.5,340,Boise,Idaho,83701
9,Clear,2016-09-12 15:53:00,32.0,,-,48,N/A,29.91,51.1,9:53 AM,,10.0,West,3.5,260,Boise,Idaho,83701
10,Clear,2016-09-12 16:53:00,32.0,,-,40,N/A,29.91,55.9,10:53 AM,,10.0,SW,4.6,220,Boise,Idaho,83701
11,Clear,2016-09-12 17:53:00,30.9,,-,33,N/A,29.91,60.1,11:53 AM,,10.0,WNW,5.8,290,Boise,Idaho,83701
12,Clear,2016-09-12 18:53:00,32.0,,-,29,N/A,29.89,64.9,12:53 PM,,10.0,North,-9999.0,0,Boise,Idaho,83701
13,Clear,2016-09-12 19:53:00,30.0,,-,25,N/A,29.89,66.9,1:53 PM,,10.0,SW,6.9,220,Boise,Idaho,83701
14,Clear,2016-09-12 20:53:00,28.0,,-,23,N/A,29.88,66.9,2:53 PM,,10.0,Calm,Calm,0,Boise,Idaho,83701
15,Clear,2016-09-12 21:53:00,26.1,,-,19,N/A,29.88,70.0,3:53 PM,,10.0,Variable,5.8,0,Boise,Idaho,83701
16,Clear,2016-09-12 22:53:00,25.0,,-,18,N/A,29.87,70.0,4:53 PM,,10.0,WSW,10.4,250,Boise,Idaho,83701
17,Clear,2016-09-12 23:53:00,27.0,,-,20,N/A,29.88,70.0,5:53 PM,,10.0,West,8.1,280,Boise,Idaho,83701
18,Clear,2016-09-13 00:53:00,35.1,,25.3,32,N/A,29.91,66.0,6:53 PM,,10.0,South,18.4,170,Boise,Idaho,83701
19,Clear,2016-09-13 01:53:00,39.9,,-,46,N/A,29.93,61.0,7:53 PM,,10.0,SSE,11.5,150,Boise,Idaho,83701
20,Clear,2016-09-13 02:53:00,42.1,,-,56,N/A,29.94,57.9,8:53 PM,,10.0,SSE,10.4,150,Boise,Idaho,83701
21,Clear,2016-09-13 03:53:00,42.1,,-,60,N/A,29.96,55.9,9:53 PM,,10.0,SE,9.2,130,Boise,Idaho,83701
22,Clear,2016-09-13 04:53:00,43.0,,-,64,N/A,29.96,55.0,10:53 PM,,10.0,SE,12.7,140,Boise,Idaho,83701
23,Clear,2016-09-13 05:53:00,43.0,,-,66,N/A,29.97,54.0,11:53 PM,,10.0,ESE,8.1,110,Boise,Idaho,83701
0,Clear,2016-09-13 06:53:00,43.0,,-,69,N/A,29.98,53.1,12:53 AM,,10.0,SE,6.9,130,Boise,Idaho,83701
1,Clear,2016-09-13 07:53:00,42.1,,-,71,N/A,29.99,51.1,1:53 AM,,10.0,SSE,5.8,150,Boise,Idaho,83701
2,Clear,2016-09-13 08:53:00,42.1,,-,77,N/A,29.99,48.9,2:53 AM,,10.0,ESE,4.6,110,Boise,Idaho,83701
3,Clear,2016-09-13 09:53:00,37.9,,-,63,N/A,29.98,50.0,3:53 AM,,10.0,ESE,6.9,110,Boise,Idaho,83701
4,Clear,2016-09-13 10:53:00,36.0,,-,63,N/A,29.98,48.0,4:53 AM,,10.0,ESE,6.9,110,Boise,Idaho,83701
5,Clear,2016-09-13 11:53:00,35.1,,-,68,N/A,29.98,45.0,5:53 AM,,10.0,ESE,6.9,120,Boise,Idaho,83701
6,Clear,2016-09-13 12:53:00,35.1,,-,68,N/A,29.98,45.0,6:53 AM,,10.0,SE,6.9,130,Boise,Idaho,83701
7,Clear,2016-09-13 13:53:00,36.0,,-,68,N/A,30.00,46.0,7:53 AM,,10.0,SE,5.8,130,Boise,Idaho,83701
8,Clear,2016-09-13 14:53:00,37.0,,-,59,N/A,30.00,51.1,8:53 AM,,10.0,SE,4.6,130,Boise,Idaho,83701
9,Clear,2016-09-13 15:53:00,37.9,,-,51,N/A,30.01,55.9,9:53 AM,,10.0,SSE,6.9,150,Boise,Idaho,83701
10,Clear,2016-09-13 16:53:00,39.9,,-,51,N/A,30.00,57.9,10:53 AM,,10.0,Variable,4.6,0,Boise,Idaho,83701
11,Clear,2016-09-13 17:53:00,37.9,,-,42,N/A,29.98,61.0,11:53 AM,,10.0,North,-9999.0,0,Boise,Idaho,83701
12,Clear,2016-09-13 18:53:00,39.0,,-,41,N/A,29.96,63.0,12:53 PM,,10.0,Variable,4.6,0,Boise,Idaho,83701
13,Clear,2016-09-13 19:53:00,39.9,,-,44,N/A,29.95,62.1,1:53 PM,,10.0,West,5.8,260,Boise,Idaho,83701
14,Clear,2016-09-13 20:53:00,39.0,,-,37,N/A,29.92,66.0,2:53 PM,,10.0,Variable,4.6,0,Boise,Idaho,83701
15,Clear,2016-09-13 21:53:00,39.0,,-,39,N/A,29.90,64.9,3:53 PM,,10.0,West,5.8,260,Boise,Idaho,83701
16,Clear,2016-09-13 22:53:00,39.0,,-,37,N/A,29.88,66.0,4:53 PM,,10.0,West,8.1,280,Boise,Idaho,83701
17,Clear,2016-09-13 23:53:00,39.0,,-,37,N/A,29.87,66.0,5:53 PM,,10.0,WNW,6.9,300,Boise,Idaho,83701
18,Mostly Cloudy,2016-09-14 00:53:00,37.9,,-,37,N/A,29.88,64.9,6:53 PM,,10.0,West,9.2,280,Boise,Idaho,83701
19,Overcast,2016-09-14 01:53:00,37.9,,-,40,N/A,29.88,63.0,7:53 PM,,10.0,WNW,5.8,290,Boise,Idaho,83701
20,Overcast,2016-09-14 02:53:00,39.0,,-,44,N/A,29.91,61.0,8:53 PM,,10.0,South,10.4,190,Boise,Idaho,83701
21,Mostly Cloudy,2016-09-14 03:53:00,41.0,,-,49,N/A,29.93,60.1,9:53 PM,,10.0,South,13.8,190,Boise,Idaho,83701
22,Overcast,2016-09-14 04:53:00,42.1,,-,53,N/A,29.93,59.0,10:53 PM,,10.0,SE,11.5,130,Boise,Idaho,83701
23,Mostly Cloudy,2016-09-14 05:53:00,46.9,,26.5,72,N/A,29.92,55.9,11:53 PM,,10.0,SE,20.7,130,Boise,Idaho,83701
0,Overcast,2016-09-14 06:53:00,44.1,,-,60,N/A,29.88,57.9,12:53 AM,,10.0,East,3.5,80,Boise,Idaho,83701
1,Light Rain,2016-09-14 07:53:00,46.9,Rain,-,72,0.00,29.91,55.9,1:53 AM,,10.0,SSW,5.8,210,Boise,Idaho,83701
2,Overcast,2016-09-14 08:53:00,48.0,,-,80,0.00,29.92,54.0,2:53 AM,,10.0,SSW,6.9,200,Boise,Idaho,83701
3,Overcast,2016-09-14 09:53:00,46.0,,-,67,N/A,29.93,57.0,3:53 AM,,10.0,SE,10.4,130,Boise,Idaho,83701
4,Overcast,2016-09-14 10:53:00,46.9,,-,74,N/A,29.92,55.0,4:53 AM,,10.0,ESE,11.5,120,Boise,Idaho,83701
5,Overcast,2016-09-14 11:53:00,46.9,,-,72,N/A,29.91,55.9,5:53 AM,,10.0,SSE,5.8,150,Boise,Idaho,83701
6,Overcast,2016-09-14 12:53:00,46.0,,-,69,N/A,29.93,55.9,6:53 AM,,10.0,Calm,Calm,0,Boise,Idaho,83701
7,Overcast,2016-09-14 13:53:00,46.9,,-,72,N/A,29.95,55.9,7:53 AM,,10.0,Calm,Calm,0,Boise,Idaho,83701
8,Overcast,2016-09-14 14:53:00,46.9,,-,72,N/A,29.97,55.9,8:53 AM,,10.0,SE,4.6,130,Boise,Idaho,83701
9,Overcast,2016-09-14 15:53:00,46.9,,-,67,N/A,30.00,57.9,9:53 AM,,10.0,ESE,6.9,120,Boise,Idaho,83701
10,Overcast,2016-09-14 16:53:00,46.0,,-,65,N/A,30.03,57.9,10:53 AM,,10.0,SSE,6.9,150,Boise,Idaho,83701
11,Overcast,2016-09-14 17:53:00,45.0,,-,60,0.00,30.03,59.0,11:53 AM,,10.0,South,11.5,180,Boise,Idaho,83701
12,Overcast,2016-09-14 18:53:00,45.0,,-,57,N/A,30.04,60.1,12:53 PM,,10.0,SSW,6.9,200,Boise,Idaho,83701
13,Scattered Clouds,2016-09-14 19:53:00,45.0,,-,57,0.00,30.05,60.1,1:53 PM,,10.0,Calm,Calm,0,Boise,Idaho,83701
14,Mostly Cloudy,2016-09-14 20:53:00,42.1,,-,48,N/A,30.04,62.1,2:53 PM,,10.0,Calm,Calm,0,Boise,Idaho,83701
15,Overcast,2016-09-14 21:53:00,43.0,,-,50,N/A,30.04,62.1,3:53 PM,,10.0,NE,4.6,50,Boise,Idaho,83701
16,Overcast,2016-09-14 22:53:00,41.0,,-,46,N/A,30.05,62.1,4:53 PM,,10.0,ENE,4.6,60,Boise,Idaho,83701
17,Overcast,2016-09-14 23:53:00,39.9,,-,43,N/A,30.05,63.0,5:53 PM,,10.0,ESE,5.8,120,Boise,Idaho,83701
18,Overcast,2016-09-15 00:53:00,43.0,,-,50,N/A,30.06,62.1,6:53 PM,,10.0,SE,6.9,140,Boise,Idaho,83701
19,Overcast,2016-09-15 01:53:00,43.0,,-,52,N/A,30.05,61.0,7:53 PM,,10.0,SE,5.8,140,Boise,Idaho,83701
20,Partly Cloudy,2016-09-15 02:53:00,42.1,,-,56,N/A,30.07,57.9,8:53 PM,,10.0,SSE,4.6,160,Boise,Idaho,83701
21,Scattered Clouds,2016-09-15 03:53:00,42.1,,-,57,N/A,30.08,57.0,9:53 PM,,10.0,SE,5.8,140,Boise,Idaho,83701
22,Overcast,2016-09-15 04:53:00,42.1,,-,62,N/A,30.09,55.0,10:53 PM,,10.0,Calm,Calm,0,Boise,Idaho,83701
23,Scattered Clouds,2016-09-15 05:53:00,42.1,,-,60,N/A,30.09,55.9,11:53 PM,,10.0,Calm,Calm,0,Boise,Idaho,83701
0,Clear,2016-09-15 06:53:00,42.1,,-,64,N/A,30.09,54.0,12:53 AM,,10.0,Calm,Calm,0,Boise,Idaho,83701
1,Clear,2016-09-15 07:53:00,41.0,,-,71,N/A,30.11,50.0,1:53 AM,,10.0,Calm,Calm,0,Boise,Idaho,83701
2,Clear,2016-09-15 08:53:00,42.1,,-,77,N/A,30.11,48.9,2:53 AM,,10.0,Calm,Calm,0,Boise,Idaho,83701
3,Clear,2016-09-15 09:53:00,41.0,,-,74,N/A,30.11,48.9,3:53 AM,,10.0,Calm,Calm,0,Boise,Idaho,83701
4,Clear,2016-09-15 10:53:00,41.0,,-,80,N/A,30.12,46.9,4:53 AM,,10.0,Calm,Calm,0,Boise,Idaho,83701
5,Clear,2016-09-15 11:53:00,39.9,,-,85,N/A,30.14,44.1,5:53 AM,,10.0,South,3.5,190,Boise,Idaho,83701
6,Clear,2016-09-15 12:53:00,39.9,,-,77,N/A,30.14,46.9,6:53 AM,,10.0,SE,5.8,140,Boise,Idaho,83701
7,Clear,2016-09-15 13:53:00,41.0,,-,86,N/A,30.17,45.0,7:53 AM,,10.0,SSE,4.6,150,Boise,Idaho,83701
8,Clear,2016-09-15 14:53:00,43.0,,-,74,N/A,30.17,51.1,8:53 AM,,10.0,SSE,8.1,150,Boise,Idaho,83701
9,Clear,2016-09-15 15:53:00,43.0,,-,64,N/A,30.18,55.0,9:53 AM,,9.0,South,3.5,170,Boise,Idaho,83701
10,Clear,2016-09-15 16:53:00,42.1,,-,51,N/A,30.18,60.1,10:53 AM,,10.0,Calm,Calm,0,Boise,Idaho,83701
11,Clear,2016-09-15 17:53:00,44.1,,-,48,N/A,30.16,64.0,11:53 AM,,10.0,Variable,4.6,0,Boise,Idaho,83701
12,Clear,2016-09-15 18:53:00,42.1,,-,43,N/A,30.15,64.9,12:53 PM,,10.0,Calm,Calm,0,Boise,Idaho,83701
13,Clear,2016-09-15 19:53:00,41.0,,-,37,N/A,30.14,68.0,1:53 PM,,10.0,Calm,Calm,0,Boise,Idaho,83701
14,Clear,2016-09-15 20:53:00,39.0,,-,31,N/A,30.12,71.1,2:53 PM,,10.0,WNW,6.9,300,Boise,Idaho,83701
15,Clear,2016-09-15 21:53:00,37.9,,-,27,N/A,30.10,73.9,3:53 PM,,10.0,Variable,4.6,0,Boise,Idaho,83701
16,Clear,2016-09-15 22:53:00,28.0,,-,18,N/A,30.09,73.9,4:53 PM,,10.0,NW,8.1,320,Boise,Idaho,83701
17,Clear,2016-09-15 23:53:00,28.9,,-,20,N/A,30.09,73.0,5:53 PM,,10.0,West,6.9,270,Boise,Idaho,83701
18,Clear,2016-09-16 00:53:00,28.0,,-,20,N/A,30.08,72.0,6:53 PM,,10.0,NNW,4.6,330,Boise,Idaho,83701
19,Clear,2016-09-16 01:53:00,28.9,,-,22,N/A,30.09,69.1,7:53 PM,,10.0,West,4.6,280,Boise,Idaho,83701
20,Clear,2016-09-16 02:53:00,30.9,,-,28,N/A,30.10,64.9,8:53 PM,,10.0,Calm,Calm,0,Boise,Idaho,83701
21,Clear,2016-09-16 03:53:00,28.0,,-,31,N/A,30.11,59.0,9:53 PM,,10.0,SE,4.6,130,Boise,Idaho,83701
22,Clear,2016-09-16 04:53:00,28.0,,-,34,N/A,30.11,55.9,10:53 PM,,10.0,ESE,6.9,120,Boise,Idaho,83701
23,Clear,2016-09-16 05:53:00,32.0,,-,43,N/A,30.11,54.0,11:53 PM,,10.0,ESE,5.8,120,Boise,Idaho,83701
0,Clear,2016-09-16 06:53:00,33.1,,-,45,N/A,30.10,54.0,12:53 AM,,10.0,ESE,5.8,120,Boise,Idaho,83701
1,Clear,2016-09-16 07:53:00,34.0,,-,47,N/A,30.10,54.0,1:53 AM,,10.0,SE,9.2,130,Boise,Idaho,83701
2,Clear,2016-09-16 08:53:00,35.1,,-,50,N/A,30.09,53.1,2:53 AM,,10.0,ESE,6.9,120,Boise,Idaho,83701
3,Clear,2016-09-16 09:53:00,34.0,,-,50,N/A,30.09,52.0,3:53 AM,,10.0,SE,5.8,130,Boise,Idaho,83701
4,Clear,2016-09-16 10:53:00,35.1,,-,54,N/A,30.09,51.1,4:53 AM,,10.0,North,-9999.0,0,Boise,Idaho,83701
5,Clear,2016-09-16 11:53:00,36.0,,-,59,N/A,30.10,50.0,5:53 AM,,10.0,SE,6.9,130,Boise,Idaho,83701
6,Clear,2016-09-16 12:53:00,36.0,,-,61,N/A,30.11,48.9,6:53 AM,,10.0,SE,6.9,130,Boise,Idaho,83701
7,Clear,2016-09-16 13:53:00,35.1,,-,59,N/A,30.13,48.9,7:53 AM,,10.0,ESE,4.6,110,Boise,Idaho,83701
8,Clear,2016-09-16 14:53:00,36.0,,-,51,N/A,30.14,54.0,8:53 AM,,10.0,Calm,Calm,0,Boise,Idaho,83701
9,Clear,2016-09-16 15:53:00,37.0,,-,42,N/A,30.15,60.1,9:53 AM,,10.0,Calm,Calm,0,Boise,Idaho,83701
10,Clear,2016-09-16 16:53:00,32.0,,-,29,N/A,30.14,64.9,10:53 AM,,10.0,Calm,Calm,0,Boise,Idaho,83701
11,Clear,2016-09-16 17:53:00,36.0,,-,31,N/A,30.13,68.0,11:53 AM,,10.0,Variable,3.5,0,Boise,Idaho,83701
12,Clear,2016-09-16 18:53:00,37.9,,-,29,N/A,30.11,72.0,12:53 PM,,10.0,Calm,Calm,0,Boise,Idaho,83701
13,Clear,2016-09-16 19:53:00,37.0,,-,25,N/A,30.09,75.0,1:53 PM,,10.0,North,3.5,10,Boise,Idaho,83701
14,Clear,2016-09-16 20:53:00,37.9,,-,25,N/A,30.06,75.9,2:53 PM,,10.0,WNW,4.6,300,Boise,Idaho,83701
15,Clear,2016-09-16 21:53:00,36.0,,-,23,N/A,30.04,75.9,3:53 PM,,10.0,Variable,3.5,0,Boise,Idaho,83701
16,Clear,2016-09-16 22:53:00,34.0,,-,20,N/A,30.02,78.1,4:53 PM,,10.0,NW,9.2,310,Boise,Idaho,83701
17,Clear,2016-09-16 23:53:00,28.9,,-,17,N/A,30.02,78.1,5:53 PM,,10.0,WSW,6.9,250,Boise,Idaho,83701
18,Clear,2016-09-17 00:53:00,27.0,,-,16,N/A,30.01,75.9,6:53 PM,,10.0,WNW,6.9,300,Boise,Idaho,83701
19,Clear,2016-09-17 01:53:00,30.0,,-,23,N/A,30.02,70.0,7:53 PM,,10.0,WNW,5.8,300,Boise,Idaho,83701
20,Clear,2016-09-17 02:53:00,33.1,,-,26,N/A,30.02,69.1,8:53 PM,,10.0,NE,3.5,40,Boise,Idaho,83701
21,Clear,2016-09-17 03:53:00,28.0,,-,28,N/A,30.03,62.1,9:53 PM,,10.0,SSE,3.5,150,Boise,Idaho,83701
22,Clear,2016-09-17 04:53:00,28.9,,-,32,N/A,30.03,59.0,10:53 PM,,10.0,SE,6.9,130,Boise,Idaho,83701
23,Clear,2016-09-17 05:53:00,30.0,,-,33,N/A,30.02,59.0,11:53 PM,,10.0,ESE,9.2,120,Boise,Idaho,83701
0,Clear,2016-09-17 06:53:00,30.0,,-,33,N/A,30.01,59.0,12:53 AM,,10.0,ESE,8.1,120,Boise,Idaho,83701
1,Clear,2016-09-17 07:53:00,30.9,,-,35,N/A,30.01,59.0,1:53 AM,,10.0,SE,11.5,130,Boise,Idaho,83701
2,Clear,2016-09-17 08:53:00,30.9,,-,36,N/A,30.00,57.9,2:53 AM,,10.0,SE,11.5,130,Boise,Idaho,83701
3,Clear,2016-09-17 09:53:00,30.9,,-,37,N/A,30.00,57.0,3:53 AM,,10.0,SE,9.2,130,Boise,Idaho,83701
4,Clear,2016-09-17 10:53:00,30.9,,-,37,N/A,29.99,57.0,4:53 AM,,10.0,SE,11.5,130,Boise,Idaho,83701
5,Clear,2016-09-17 11:53:00,30.9,,-,40,N/A,30.00,55.0,5:53 AM,,10.0,ESE,9.2,120,Boise,Idaho,83701
6,Clear,2016-09-17 12:53:00,32.0,,-,43,N/A,30.01,54.0,6:53 AM,,10.0,East,5.8,100,Boise,Idaho,83701
7,Clear,2016-09-17 13:53:00,30.9,,-,41,N/A,30.03,54.0,7:53 AM,,10.0,ESE,6.9,110,Boise,Idaho,83701
8,Clear,2016-09-17 14:53:00,34.0,,-,41,N/A,30.02,57.9,8:53 AM,,10.0,Calm,Calm,0,Boise,Idaho,83701
9,Clear,2016-09-17 15:53:00,37.0,,-,44,N/A,30.04,59.0,9:53 AM,,10.0,Calm,Calm,0,Boise,Idaho,83701
10,Clear,2016-09-17 16:53:00,32.0,,-,27,N/A,30.03,66.9,10:53 AM,,10.0,SE,10.4,130,Boise,Idaho,83701
11,Clear,2016-09-17 17:53:00,33.1,,-,22,N/A,30.01,73.9,11:53 AM,,10.0,ESE,9.2,110,Boise,Idaho,83701
12,Clear,2016-09-17 18:53:00,30.9,,-,17,N/A,30.00,79.0,12:53 PM,,10.0,SSE,5.8,150,Boise,Idaho,83701
13,Clear,2016-09-17 19:53:00,26.1,,-,13,N/A,29.99,81.0,1:53 PM,,10.0,SW,5.8,220,Boise,Idaho,83701
14,Clear,2016-09-17 20:53:00,27.0,,-,13,N/A,29.97,82.0,2:53 PM,,10.0,WNW,8.1,290,Boise,Idaho,83701
15,Overcast,2016-09-17 21:53:00,28.0,,-,15,N/A,29.96,80.1,3:53 PM,,10.0,NNW,11.5,340,Boise,Idaho,83701
16,Partly Cloudy,2016-09-17 22:53:00,28.9,,-,14,N/A,29.94,82.0,4:53 PM,,10.0,North,6.9,10,Boise,Idaho,83701
17,Overcast,2016-09-17 23:53:00,30.9,,-,17,N/A,29.93,79.0,5:53 PM,,10.0,NNE,5.8,30,Boise,Idaho,83701
18,Partly Cloudy,2016-09-18 00:53:00,30.9,,-,17,N/A,29.91,79.0,6:53 PM,,10.0,Calm,Calm,0,Boise,Idaho,83701
19,Partly Cloudy,2016-09-18 01:53:00,28.9,,-,17,N/A,29.90,77.0,7:53 PM,,10.0,SE,6.9,140,Boise,Idaho,83701
20,Scattered Clouds,2016-09-18 02:53:00,28.9,,-,18,N/A,29.89,75.0,8:53 PM,,10.0,ESE,8.1,120,Boise,Idaho,83701
21,Mostly Cloudy,2016-09-18 03:53:00,30.0,,-,20,N/A,29.90,73.9,9:53 PM,,10.0,SE,8.1,130,Boise,Idaho,83701
22,Overcast,2016-09-18 04:53:00,30.9,,-,22,N/A,29.89,72.0,10:53 PM,,10.0,ESE,6.9,110,Boise,Idaho,83701
23,Overcast,2016-09-18 05:53:00,28.0,,-,19,N/A,29.88,73.0,11:53 PM,,10.0,SSE,4.6,150,Boise,Idaho,83701
0,Partly Cloudy,2016-09-18 06:53:00,28.0,,-,19,N/A,29.87,73.0,12:53 AM,,10.0,South,4.6,170,Boise,Idaho,83701
1,Overcast,2016-09-18 07:53:00,35.1,,-,31,N/A,29.90,66.9,1:53 AM,,10.0,NW,3.5,310,Boise,Idaho,83701
2,Overcast,2016-09-18 08:53:00,37.9,,-,38,N/A,29.92,64.0,2:53 AM,,10.0,WSW,6.9,250,Boise,Idaho,83701
3,Overcast,2016-09-18 09:53:00,39.0,,-,40,N/A,29.92,64.0,3:53 AM,,10.0,Calm,Calm,0,Boise,Idaho,83701
4,Scattered Clouds,2016-09-18 10:53:00,39.0,,-,40,N/A,29.93,64.0,4:53 AM,,10.0,West,4.6,280,Boise,Idaho,83701
5,Scattered Clouds,2016-09-18 11:53:00,39.0,,-,41,N/A,29.94,63.0,5:53 AM,,10.0,Calm,Calm,0,Boise,Idaho,83701
6,Clear,2016-09-18 12:53:00,39.0,,-,44,N/A,29.96,61.0,6:53 AM,,10.0,Calm,Calm,0,Boise,Idaho,83701
7,Clear,2016-09-18 13:53:00,37.9,,-,46,N/A,29.99,59.0,7:53 AM,,10.0,Calm,Calm,0,Boise,Idaho,83701
8,Scattered Clouds,2016-09-18 14:53:00,37.9,,-,44,N/A,30.01,60.1,8:53 AM,,10.0,Calm,Calm,0,Boise,Idaho,83701
9,Overcast,2016-09-18 15:53:00,37.9,,-,37,N/A,30.01,64.9,9:53 AM,,10.0,Calm,Calm,0,Boise,Idaho,83701
10,Overcast,2016-09-18 16:53:00,41.0,,-,39,N/A,30.01,66.9,10:53 AM,,10.0,Calm,Calm,0,Boise,Idaho,83701
11,Overcast,2016-09-18 17:53:00,43.0,,-,39,N/A,30.01,69.1,11:53 AM,,10.0,NW,3.5,310,Boise,Idaho,83701
12,Mostly Cloudy,2016-09-18 18:53:00,46.9,,-,39,N/A,29.99,73.0,12:53 PM,,10.0,NNW,3.5,330,Boise,Idaho,83701
13,Mostly Cloudy,2016-09-18 19:53:00,46.9,,-,34,N/A,29.98,77.0,1:53 PM,,10.0,Calm,Calm,0,Boise,Idaho,83701
14,Clear,2016-09-18 20:53:00,48.0,,-,32,N/A,29.95,80.1,2:53 PM,,10.0,NNW,12.7,340,Boise,Idaho,83701
15,Clear,2016-09-18 21:53:00,48.0,,-,32,N/A,29.94,80.1,3:53 PM,,10.0,NW,6.9,320,Boise,Idaho,83701
16,Clear,2016-09-18 22:53:00,48.0,,-,31,N/A,29.90,81.0,4:53 PM,,10.0,Variable,6.9,0,Boise,Idaho,83701
17,Partly Cloudy,2016-09-18 23:53:00,48.0,,-,32,N/A,29.88,80.1,5:53 PM,,10.0,North,6.9,360,Boise,Idaho,83701
18,Mostly Cloudy,2016-09-19 00:53:00,48.0,,-,32,N/A,29.88,80.1,6:53 PM,,10.0,WSW,5.8,250,Boise,Idaho,83701
19,Clear,2016-09-19 01:53:00,48.0,,-,37,N/A,29.89,75.9,7:53 PM,,10.0,SSW,5.8,210,Boise,Idaho,83701
20,Mostly Cloudy,2016-09-19 02:53:00,48.0,,-,41,N/A,29.91,73.0,8:53 PM,,10.0,SSW,3.5,200,Boise,Idaho,83701
21,Clear,2016-09-19 03:53:00,46.9,,-,39,N/A,29.91,73.0,9:53 PM,,10.0,East,3.5,80,Boise,Idaho,83701
22,Clear,2016-09-19 04:53:00,46.9,,-,47,N/A,29.92,68.0,10:53 PM,,10.0,Calm,Calm,0,Boise,Idaho,83701
23,Partly Cloudy,2016-09-19 05:53:00,46.0,,-,48,N/A,29.94,66.0,11:53 PM,,10.0,Calm,Calm,0,Boise,Idaho,83701
0,Clear,2016-09-19 06:53:00,45.0,,-,52,N/A,29.95,63.0,12:53 AM,,10.0,SW,3.5,220,Boise,Idaho,83701
1,Clear,2016-09-19 07:53:00,48.0,,-,62,N/A,29.96,61.0,1:53 AM,,10.0,SW,4.6,220,Boise,Idaho,83701
2,Clear,2016-09-19 08:53:00,48.9,,-,72,N/A,29.98,57.9,2:53 AM,,10.0,Calm,Calm,0,Boise,Idaho,83701
3,Clear,2016-09-19 09:53:00,48.9,,-,72,N/A,30.00,57.9,3:53 AM,,10.0,Calm,Calm,0,Boise,Idaho,83701
4,Clear,2016-09-19 10:53:00,48.0,,-,72,N/A,30.01,57.0,4:53 AM,,10.0,Calm,Calm,0,Boise,Idaho,83701
5,Clear,2016-09-19 11:53:00,46.9,,-,77,N/A,30.02,54.0,5:53 AM,,10.0,SSE,4.6,150,Boise,Idaho,83701
6,Clear,2016-09-19 12:53:00,46.9,,-,74,N/A,30.02,55.0,6:53 AM,,10.0,Calm,Calm,0,Boise,Idaho,83701
7,Partly Cloudy,2016-09-19 13:53:00,46.9,,-,72,N/A,30.04,55.9,7:53 AM,,10.0,SSE,4.6,150,Boise,Idaho,83701
8,Partly Cloudy,2016-09-19 14:53:00,48.9,,-,69,N/A,30.05,59.0,8:53 AM,,10.0,Calm,Calm,0,Boise,Idaho,83701
9,Clear,2016-09-19 15:53:00,46.9,,-,54,N/A,30.04,64.0,9:53 AM,,10.0,Calm,Calm,0,Boise,Idaho,83701
10,Clear,2016-09-19 16:53:00,48.9,,-,49,N/A,30.04,69.1,10:53 AM,,10.0,Calm,Calm,0,Boise,Idaho,83701
11,Clear,2016-09-19 17:53:00,46.0,,-,37,N/A,30.02,73.9,11:53 AM,,10.0,Variable,6.9,0,Boise,Idaho,83701
12,Clear,2016-09-19 18:53:00,44.1,,-,33,N/A,30.01,75.0,12:53 PM,,10.0,NW,4.6,320,Boise,Idaho,83701
13,Clear,2016-09-19 19:53:00,44.1,,-,30,N/A,29.99,78.1,1:53 PM,,10.0,Variable,5.8,0,Boise,Idaho,83701
14,Clear,2016-09-19 20:53:00,45.0,,-,29,N/A,29.96,80.1,2:53 PM,,10.0,Variable,4.6,0,Boise,Idaho,83701
15,Clear,2016-09-19 21:53:00,45.0,,-,28,N/A,29.92,81.0,3:53 PM,,10.0,WNW,6.9,290,Boise,Idaho,83701
16,Clear,2016-09-19 22:53:00,46.0,,-,27,N/A,29.90,82.9,4:53 PM,,10.0,NNW,8.1,340,Boise,Idaho,83701
17,Clear,2016-09-19 23:53:00,46.0,,-,28,N/A,29.89,82.0,5:53 PM,,10.0,NNW,9.2,330,Boise,Idaho,83701
18,Clear,2016-09-20 00:53:00,45.0,,-,28,N/A,29.87,81.0,6:53 PM,,10.0,Calm,Calm,0,Boise,Idaho,83701
19,Clear,2016-09-20 01:53:00,46.9,,-,34,N/A,29.88,77.0,7:53 PM,,10.0,West,6.9,270,Boise,Idaho,83701
20,Clear,2016-09-20 02:53:00,46.0,,-,38,N/A,29.88,73.0,8:53 PM,,10.0,West,4.6,280,Boise,Idaho,83701
21,Clear,2016-09-20 03:53:00,46.0,,-,45,N/A,29.90,68.0,9:53 PM,,10.0,South,4.6,170,Boise,Idaho,83701
22,Clear,2016-09-20 04:53:00,46.9,,-,47,N/A,29.90,68.0,10:53 PM,,10.0,NW,6.9,310,Boise,Idaho,83701
23,Clear,2016-09-20 05:53:00,46.9,,-,50,N/A,29.90,66.0,11:53 PM,,10.0,Calm,Calm,0,Boise,Idaho,83701
0,Clear,2016-09-20 06:53:00,44.1,,-,50,N/A,29.91,63.0,12:53 AM,,10.0,WSW,3.5,250,Boise,Idaho,83701
1,Partly Cloudy,2016-09-20 07:53:00,43.0,,-,53,N/A,29.92,60.1,1:53 AM,,10.0,Variable,3.5,0,Boise,Idaho,83701
2,Clear,2016-09-20 08:53:00,41.0,,-,51,N/A,29.93,59.0,2:53 AM,,10.0,West,6.9,280,Boise,Idaho,83701
3,Clear,2016-09-20 09:53:00,39.9,,-,53,N/A,29.94,57.0,3:53 AM,,10.0,West,5.8,270,Boise,Idaho,83701
4,Clear,2016-09-20 10:53:00,39.9,,-,57,N/A,29.94,55.0,4:53 AM,,10.0,West,6.9,280,Boise,Idaho,83701
5,Clear,2016-09-20 11:53:00,39.0,,-,57,N/A,29.95,54.0,5:53 AM,,10.0,West,3.5,260,Boise,Idaho,83701
6,Clear,2016-09-20 12:53:00,39.0,,-,61,N/A,29.97,52.0,6:53 AM,,10.0,WNW,3.5,300,Boise,Idaho,83701
7,Clear,2016-09-20 13:53:00,37.9,,-,61,N/A,29.98,51.1,7:53 AM,,10.0,South,4.6,180,Boise,Idaho,83701
8,Partly Cloudy,2016-09-20 14:53:00,39.0,,-,59,N/A,29.99,53.1,8:53 AM,,10.0,South,3.5,180,Boise,Idaho,83701
9,Clear,2016-09-20 15:53:00,39.9,,-,51,N/A,29.99,57.9,9:53 AM,,10.0,WSW,6.9,250,Boise,Idaho,83701
10,Clear,2016-09-20 16:53:00,41.0,,-,46,N/A,29.99,62.1,10:53 AM,,10.0,West,3.5,280,Boise,Idaho,83701
11,Clear,2016-09-20 17:53:00,41.0,,-,39,N/A,29.96,66.9,11:53 AM,,10.0,SSE,4.6,150,Boise,Idaho,83701
12,Clear,2016-09-20 18:53:00,41.0,,-,35,N/A,29.93,70.0,12:53 PM,,10.0,SSE,3.5,160,Boise,Idaho,83701
13,Clear,2016-09-20 19:53:00,42.1,,-,34,N/A,29.91,72.0,1:53 PM,,10.0,WSW,4.6,250,Boise,Idaho,83701
14,Clear,2016-09-20 20:53:00,43.0,,-,31,N/A,29.88,75.9,2:53 PM,,10.0,West,5.8,260,Boise,Idaho,83701
15,Clear,2016-09-20 21:53:00,44.1,,-,32,N/A,29.85,75.9,3:53 PM,,10.0,NW,11.5,310,Boise,Idaho,83701
16,Clear,2016-09-20 22:53:00,45.0,,-,33,N/A,29.83,75.9,4:53 PM,,10.0,NNW,9.2,330,Boise,Idaho,83701
17,Clear,2016-09-20 23:53:00,44.1,,-,34,N/A,29.83,73.9,5:53 PM,,10.0,WNW,6.9,300,Boise,Idaho,83701
18,Clear,2016-09-21 00:53:00,43.0,,-,33,N/A,29.81,73.9,6:53 PM,,10.0,West,10.4,270,Boise,Idaho,83701
19,Clear,2016-09-21 01:53:00,42.1,,-,38,N/A,29.82,69.1,7:53 PM,,10.0,West,12.7,280,Boise,Idaho,83701
20,Clear,2016-09-21 02:53:00,42.1,,-,40,N/A,29.82,66.9,8:53 PM,,10.0,WNW,6.9,290,Boise,Idaho,83701
21,Clear,2016-09-21 03:53:00,43.0,,-,46,N/A,29.82,64.0,9:53 PM,,10.0,West,8.1,280,Boise,Idaho,83701
22,Clear,2016-09-21 04:53:00,41.0,,-,45,N/A,29.82,63.0,10:53 PM,,10.0,West,4.6,270,Boise,Idaho,83701
23,Clear,2016-09-21 05:53:00,39.9,,-,46,N/A,29.82,61.0,11:53 PM,,10.0,West,5.8,270,Boise,Idaho,83701
0,Clear,2016-09-21 06:53:00,37.9,,-,49,N/A,29.83,57.0,12:53 AM,,10.0,West,6.9,270,Boise,Idaho,83701
1,Clear,2016-09-21 07:53:00,37.9,,-,49,N/A,29.84,57.0,1:53 AM,,10.0,West,4.6,260,Boise,Idaho,83701
2,Clear,2016-09-21 08:53:00,39.0,,-,55,N/A,29.85,55.0,2:53 AM,,10.0,West,5.8,270,Boise,Idaho,83701
3,Clear,2016-09-21 09:53:00,39.0,,-,59,N/A,29.86,53.1,3:53 AM,,10.0,West,3.5,260,Boise,Idaho,83701
4,Clear,2016-09-21 10:53:00,39.0,,-,61,N/A,29.88,52.0,4:53 AM,,10.0,West,3.5,280,Boise,Idaho,83701
5,Clear,2016-09-21 11:53:00,37.9,,-,63,N/A,29.88,50.0,5:53 AM,,10.0,SE,4.6,140,Boise,Idaho,83701
6,Clear,2016-09-21 12:53:00,37.9,,-,66,N/A,29.88,48.9,6:53 AM,,10.0,Calm,Calm,0,Boise,Idaho,83701
7,Clear,2016-09-21 13:53:00,37.9,,-,66,N/A,29.89,48.9,7:53 AM,,10.0,Calm,Calm,0,Boise,Idaho,83701
8,Clear,2016-09-21 14:53:00,37.9,,-,63,N/A,29.89,50.0,8:53 AM,,10.0,SSW,3.5,210,Boise,Idaho,83701
9,Clear,2016-09-21 15:53:00,39.0,,-,53,N/A,29.90,55.9,9:53 AM,,10.0,SE,4.6,130,Boise,Idaho,83701
10,Clear,2016-09-21 16:53:00,39.9,,-,49,N/A,29.90,59.0,10:53 AM,,10.0,SSE,10.4,150,Boise,Idaho,83701
11,Clear,2016-09-21 17:53:00,39.0,,-,44,N/A,29.90,61.0,11:53 AM,,10.0,South,11.5,170,Boise,Idaho,83701
12,Clear,2016-09-21 18:53:00,39.9,,-,41,N/A,29.88,64.0,12:53 PM,,10.0,SSE,12.7,150,Boise,Idaho,83701
13,Mostly Cloudy,2016-09-21 19:53:00,39.0,,-,40,N/A,29.84,64.0,1:53 PM,,10.0,SSE,8.1,150,Boise,Idaho,83701
14,Mostly Cloudy,2016-09-21 20:53:00,39.0,,-,37,N/A,29.81,66.0,2:53 PM,,10.0,SSE,11.5,160,Boise,Idaho,83701
15,Overcast,2016-09-21 21:53:00,39.0,,-,36,N/A,29.80,66.9,3:53 PM,,10.0,SE,6.9,140,Boise,Idaho,83701
16,Light Rain,2016-09-21 22:53:00,42.1,Rain,-,40,0.00,29.78,66.9,4:53 PM,,9.0,East,8.1,100,Boise,Idaho,83701
17,Rain,2016-09-21 23:28:00,50.0,Rain,-,65,0.03,29.85,62.1,5:28 PM,,7.0,West,8.1,280,Boise,Idaho,83701
18,Overcast,2016-09-21 23:53:00,52.0,,-,78,0.04,29.81,59.0,5:53 PM,,7.0,NE,11.5,40,Boise,Idaho,83701
19,Partly Cloudy,2016-09-22 00:53:00,52.0,,-,75,N/A,29.75,60.1,6:53 PM,,10.0,SE,5.8,130,Boise,Idaho,83701
20,Overcast,2016-09-22 01:53:00,51.1,,-,81,0.00,29.81,57.0,7:53 PM,,10.0,NW,9.2,310,Boise,Idaho,83701
21,Light Rain,2016-09-22 02:53:00,53.1,Rain,19.6,87,0.06,29.75,57.0,8:53 PM,,10.0,WNW,13.8,290,Boise,Idaho,83701
22,Mostly Cloudy,2016-09-22 03:53:00,53.1,,-,90,0.00,29.78,55.9,9:53 PM,,10.0,WSW,4.6,250,Boise,Idaho,83701
23,Heavy Rain,2016-09-22 04:11:00,53.1,Rain,-,93,0.07,29.79,55.0,10:11 PM,,2.0,NE,8.1,40,Boise,Idaho,83701
24,Light Rain,2016-09-22 04:21:00,54.0,Rain,-,93,0.09,29.79,55.9,10:21 PM,,7.0,ENE,5.8,60,Boise,Idaho,83701
25,Partly Cloudy,2016-09-22 04:53:00,54.0,,-,93,0.09,29.74,55.9,10:53 PM,,10.0,West,3.5,280,Boise,Idaho,83701
26,Clear,2016-09-22 05:53:00,53.1,,-,97,N/A,29.75,54.0,11:53 PM,,10.0,WSW,6.9,240,Boise,Idaho,83701
0,Clear,2016-09-22 06:53:00,52.0,,-,96,N/A,29.74,53.1,12:53 AM,,9.0,North,3.5,350,Boise,Idaho,83701
1,Mostly Cloudy,2016-09-22 07:36:00,53.1,,-,97,N/A,29.78,54.0,1:36 AM,,10.0,NE,3.5,40,Boise,Idaho,83701
2,Mostly Cloudy,2016-09-22 07:53:00,52.0,,-,93,N/A,29.74,54.0,1:53 AM,,9.0,Calm,Calm,0,Boise,Idaho,83701
3,Mostly Cloudy,2016-09-22 08:53:00,52.0,,-,96,N/A,29.74,53.1,2:53 AM,,7.0,Calm,Calm,0,Boise,Idaho,83701
4,Mostly Cloudy,2016-09-22 09:53:00,51.1,,-,97,N/A,29.75,52.0,3:53 AM,,6.0,West,3.5,270,Boise,Idaho,83701
5,Partly Cloudy,2016-09-22 10:00:00,51.1,,-,97,N/A,29.79,52.0,4:00 AM,,6.0,WSW,4.6,240,Boise,Idaho,83701
6,Overcast,2016-09-22 10:53:00,51.1,,-,97,N/A,29.75,52.0,4:53 AM,,6.0,Calm,Calm,0,Boise,Idaho,83701
7,Overcast,2016-09-22 11:53:00,52.0,,-,96,N/A,29.76,53.1,5:53 AM,,8.0,West,4.6,280,Boise,Idaho,83701
8,Overcast,2016-09-22 12:09:00,52.0,,-,96,N/A,29.79,53.1,6:09 AM,,10.0,WNW,3.5,290,Boise,Idaho,83701
9,Overcast,2016-09-22 12:24:00,51.1,,-,93,N/A,29.80,53.1,6:24 AM,,10.0,West,8.1,280,Boise,Idaho,83701
10,Overcast,2016-09-22 12:53:00,50.0,,-,93,N/A,29.77,52.0,6:53 AM,,10.0,West,4.6,280,Boise,Idaho,83701
11,Overcast,2016-09-22 13:53:00,48.9,,-,89,N/A,29.78,52.0,7:53 AM,,10.0,WNW,8.1,300,Boise,Idaho,83701
12,Overcast,2016-09-22 14:40:00,48.0,,-,86,N/A,29.82,52.0,8:40 AM,,10.0,West,8.1,280,Boise,Idaho,83701
13,Overcast,2016-09-22 14:53:00,48.9,,-,89,N/A,29.79,52.0,8:53 AM,,10.0,NW,8.1,310,Boise,Idaho,83701
14,Overcast,2016-09-22 15:53:00,48.0,,-,86,N/A,29.81,52.0,9:53 AM,,10.0,WNW,8.1,290,Boise,Idaho,83701
15,Overcast,2016-09-22 16:14:00,46.9,,-,83,N/A,29.84,52.0,10:14 AM,,10.0,West,8.1,280,Boise,Idaho,83701
16,Overcast,2016-09-22 16:53:00,45.0,,-,74,N/A,29.82,53.1,10:53 AM,,10.0,WNW,10.4,300,Boise,Idaho,83701
17,Mostly Cloudy,2016-09-22 17:53:00,46.0,,-,75,N/A,29.82,54.0,11:53 AM,,10.0,NW,11.5,310,Boise,Idaho,83701
18,Mostly Cloudy,2016-09-22 18:24:00,48.0,,-,75,N/A,29.83,55.9,12:24 PM,,10.0,NNW,10.4,330,Boise,Idaho,83701
19,Scattered Clouds,2016-09-22 18:53:00,48.0,,-,72,N/A,29.82,57.0,12:53 PM,,10.0,NW,9.2,320,Boise,Idaho,83701
20,Mostly Cloudy,2016-09-22 19:53:00,46.9,,-,67,N/A,29.81,57.9,1:53 PM,,10.0,WNW,15.0,300,Boise,Idaho,83701
21,Scattered Clouds,2016-09-22 20:53:00,45.0,,-,60,N/A,29.81,59.0,2:53 PM,,10.0,NW,13.8,320,Boise,Idaho,83701
22,Mostly Cloudy,2016-09-22 21:53:00,45.0,,-,57,N/A,29.82,60.1,3:53 PM,,10.0,NW,9.2,320,Boise,Idaho,83701
23,Overcast,2016-09-22 22:53:00,45.0,,-,56,N/A,29.83,61.0,4:53 PM,,10.0,WNW,9.2,300,Boise,Idaho,83701
24,Overcast,2016-09-22 23:53:00,44.1,,-,54,N/A,29.82,61.0,5:53 PM,,10.0,NW,9.2,310,Boise,Idaho,83701
25,Overcast,2016-09-23 00:53:00,45.0,,-,64,N/A,29.83,57.0,6:53 PM,,10.0,ESE,8.1,110,Boise,Idaho,83701
26,Rain,2016-09-23 01:53:00,48.0,Rain,-,77,0.01,29.83,55.0,7:53 PM,,6.0,ESE,6.9,110,Boise,Idaho,83701
27,Light Rain,2016-09-23 02:53:00,48.9,Rain,-,83,0.01,29.86,54.0,8:53 PM,,10.0,South,9.2,190,Boise,Idaho,83701
28,Light Rain,2016-09-23 03:53:00,46.9,Rain,-,80,0.02,29.84,53.1,9:53 PM,,10.0,NW,10.4,310,Boise,Idaho,83701
29,Light Rain,2016-09-23 04:53:00,46.9,Rain,-,80,0.01,29.84,53.1,10:53 PM,,10.0,NW,13.8,320,Boise,Idaho,83701
30,Light Rain,2016-09-23 05:53:00,46.0,Rain,-,80,0.01,29.85,52.0,11:53 PM,,10.0,WNW,17.3,300,Boise,Idaho,83701
0,Overcast,2016-09-23 06:53:00,45.0,,-,77,0.00,29.84,52.0,12:53 AM,,10.0,WNW,13.8,300,Boise,Idaho,83701
1,Overcast,2016-09-23 07:53:00,45.0,,-,77,N/A,29.84,52.0,1:53 AM,,10.0,NW,18.4,310,Boise,Idaho,83701
2,Overcast,2016-09-23 08:53:00,45.0,,-,74,N/A,29.85,53.1,2:53 AM,,10.0,NW,18.4,310,Boise,Idaho,83701
3,Mostly Cloudy,2016-09-23 09:53:00,45.0,,-,77,N/A,29.84,52.0,3:53 AM,,10.0,NW,18.4,320,Boise,Idaho,83701
4,Overcast,2016-09-23 10:53:00,44.1,,-,71,N/A,29.85,53.1,4:53 AM,,10.0,NW,15.0,310,Boise,Idaho,83701
5,Partly Cloudy,2016-09-23 11:53:00,44.1,,-,77,N/A,29.86,51.1,5:53 AM,,10.0,WNW,16.1,300,Boise,Idaho,83701
6,Clear,2016-09-23 12:53:00,43.0,,-,77,N/A,29.88,50.0,6:53 AM,,10.0,WNW,19.6,300,Boise,Idaho,83701
7,Clear,2016-09-23 13:53:00,42.1,,-,74,N/A,29.91,50.0,7:53 AM,,10.0,NW,18.4,310,Boise,Idaho,83701
8,Mostly Cloudy,2016-09-23 14:53:00,42.1,,-,71,N/A,29.92,51.1,8:53 AM,,10.0,NW,18.4,320,Boise,Idaho,83701
9,Clear,2016-09-23 15:53:00,43.0,,23.0,64,N/A,29.92,55.0,9:53 AM,,10.0,WNW,17.3,300,Boise,Idaho,83701
10,Clear,2016-09-23 16:53:00,42.1,,32.2,60,N/A,29.94,55.9,10:53 AM,,10.0,WNW,21.9,300,Boise,Idaho,83701
11,Clear,2016-09-23 17:53:00,42.1,,-,51,N/A,29.96,60.1,11:53 AM,,10.0,NW,21.9,310,Boise,Idaho,83701
12,Clear,2016-09-23 18:53:00,42.1,,28.8,43,N/A,29.95,64.9,12:53 PM,,10.0,NW,19.6,320,Boise,Idaho,83701
13,Clear,2016-09-23 19:53:00,41.0,,28.8,37,N/A,29.94,68.0,1:53 PM,,10.0,WNW,20.7,300,Boise,Idaho,83701
14,Partly Cloudy,2016-09-23 20:53:00,39.0,,29.9,37,N/A,29.92,66.0,2:53 PM,,10.0,WNW,19.6,290,Boise,Idaho,83701
15,Clear,2016-09-23 21:53:00,39.0,,31.1,33,N/A,29.91,69.1,3:53 PM,,10.0,NNW,20.7,330,Boise,Idaho,83701
16,Clear,2016-09-23 22:53:00,36.0,,31.1,30,N/A,29.92,69.1,4:53 PM,,10.0,WNW,25.3,300,Boise,Idaho,83701
17,Clear,2016-09-23 23:53:00,36.0,,29.9,32,N/A,29.94,66.9,5:53 PM,,10.0,NW,24.2,310,Boise,Idaho,83701
18,Scattered Clouds,2016-09-24 00:53:00,32.0,,21.9,28,N/A,29.94,66.0,6:53 PM,,10.0,NW,15.0,310,Boise,Idaho,83701
19,Overcast,2016-09-24 01:53:00,30.9,,-,28,N/A,29.97,64.9,7:53 PM,,10.0,NNW,15.0,330,Boise,Idaho,83701
20,Overcast,2016-09-24 02:53:00,35.1,,-,35,N/A,29.99,63.0,8:53 PM,,10.0,WNW,6.9,300,Boise,Idaho,83701
21,Overcast,2016-09-24 03:53:00,34.0,,-,34,N/A,30.01,63.0,9:53 PM,,10.0,WNW,11.5,290,Boise,Idaho,83701
22,Overcast,2016-09-24 04:53:00,36.0,,-,39,N/A,30.02,61.0,10:53 PM,,10.0,NW,9.2,320,Boise,Idaho,83701
23,Overcast,2016-09-24 05:53:00,36.0,,-,41,N/A,30.05,60.1,11:53 PM,,10.0,WNW,12.7,300,Boise,Idaho,83701
0,Overcast,2016-09-24 06:53:00,41.0,,-,55,N/A,30.06,57.0,12:53 AM,,10.0,WNW,11.5,300,Boise,Idaho,83701
1,Overcast,2016-09-24 07:53:00,41.0,,23.0,57,N/A,30.09,55.9,1:53 AM,,10.0,NW,15.0,310,Boise,Idaho,83701
2,Scattered Clouds,2016-09-24 08:53:00,42.1,,-,64,N/A,30.11,54.0,2:53 AM,,10.0,NW,16.1,310,Boise,Idaho,83701
3,Clear,2016-09-24 09:53:00,42.1,,-,66,N/A,30.11,53.1,3:53 AM,,10.0,NNW,12.7,330,Boise,Idaho,83701
4,Clear,2016-09-24 10:53:00,42.1,,-,71,N/A,30.13,51.1,4:53 AM,,10.0,WNW,9.2,300,Boise,Idaho,83701
5,Clear,2016-09-24 11:53:00,42.1,,-,74,N/A,30.16,50.0,5:53 AM,,10.0,NNW,8.1,330,Boise,Idaho,83701
6,Clear,2016-09-24 12:53:00,42.1,,-,80,N/A,30.19,48.0,6:53 AM,,10.0,WNW,6.9,300,Boise,Idaho,83701
7,Partly Cloudy,2016-09-24 13:53:00,42.1,,-,77,N/A,30.21,48.9,7:53 AM,,10.0,WSW,5.8,240,Boise,Idaho,83701
8,Scattered Clouds,2016-09-24 14:53:00,42.1,,-,69,N/A,30.22,52.0,8:53 AM,,10.0,WNW,8.1,290,Boise,Idaho,83701
9,Mostly Cloudy,2016-09-24 15:53:00,41.0,,-,64,N/A,30.25,53.1,9:53 AM,,10.0,West,10.4,280,Boise,Idaho,83701
10,Partly Cloudy,2016-09-24 16:53:00,39.9,,-,55,N/A,30.26,55.9,10:53 AM,,10.0,WNW,12.7,300,Boise,Idaho,83701
11,Clear,2016-09-24 17:53:00,39.0,,-,46,N/A,30.26,60.1,11:53 AM,,10.0,WNW,13.8,290,Boise,Idaho,83701
12,Clear,2016-09-24 18:53:00,37.9,,20.7,41,N/A,30.25,62.1,12:53 PM,,10.0,WNW,13.8,290,Boise,Idaho,83701
13,Clear,2016-09-24 19:53:00,37.9,,-,38,N/A,30.25,64.0,1:53 PM,,10.0,West,13.8,280,Boise,Idaho,83701
14,Clear,2016-09-24 20:53:00,36.0,,24.2,33,N/A,30.25,66.0,2:53 PM,,10.0,WNW,16.1,300,Boise,Idaho,83701
15,Clear,2016-09-24 21:53:00,34.0,,-,30,N/A,30.26,66.0,3:53 PM,,10.0,West,13.8,260,Boise,Idaho,83701
16,Clear,2016-09-24 22:53:00,33.1,,-,28,N/A,30.25,66.9,4:53 PM,,10.0,WNW,10.4,290,Boise,Idaho,83701
17,Clear,2016-09-24 23:53:00,32.0,,20.7,27,N/A,30.26,66.9,5:53 PM,,10.0,NW,15.0,310,Boise,Idaho,83701
18,Clear,2016-09-25 00:53:00,28.9,,-,25,N/A,30.27,66.0,6:53 PM,,10.0,NNW,9.2,330,Boise,Idaho,83701
19,Clear,2016-09-25 01:53:00,30.0,,-,30,N/A,30.27,62.1,7:53 PM,,8.0,WNW,4.6,300,Boise,Idaho,83701
20,Clear,2016-09-25 02:53:00,32.0,,-,35,N/A,30.29,60.1,8:53 PM,,10.0,NNW,3.5,330,Boise,Idaho,83701
21,Clear,2016-09-25 03:53:00,35.1,,-,45,N/A,30.32,55.9,9:53 PM,,10.0,Calm,Calm,0,Boise,Idaho,83701
22,Clear,2016-09-25 04:53:00,34.0,,-,48,N/A,30.32,53.1,10:53 PM,,10.0,Calm,Calm,0,Boise,Idaho,83701
23,Clear,2016-09-25 05:53:00,35.1,,-,50,N/A,30.34,53.1,11:53 PM,,10.0,ESE,3.5,120,Boise,Idaho,83701
0,Clear,2016-09-25 06:53:00,36.0,,-,59,N/A,30.35,50.0,12:53 AM,,10.0,South,3.5,180,Boise,Idaho,83701
1,Clear,2016-09-25 07:53:00,35.1,,-,54,N/A,30.36,51.1,1:53 AM,,10.0,SE,3.5,130,Boise,Idaho,83701
2,Clear,2016-09-25 08:53:00,36.0,,-,59,N/A,30.37,50.0,2:53 AM,,10.0,SE,4.6,130,Boise,Idaho,83701
3,Clear,2016-09-25 09:53:00,36.0,,-,66,N/A,30.38,46.9,3:53 AM,,10.0,SE,4.6,140,Boise,Idaho,83701
4,Clear,2016-09-25 10:53:00,36.0,,-,66,N/A,30.38,46.9,4:53 AM,,10.0,Calm,Calm,0,Boise,Idaho,83701
5,Clear,2016-09-25 11:53:00,36.0,,-,68,N/A,30.38,46.0,5:53 AM,,10.0,SE,3.5,140,Boise,Idaho,83701
6,Clear,2016-09-25 12:53:00,35.1,,-,71,N/A,30.41,44.1,6:53 AM,,10.0,South,5.8,190,Boise,Idaho,83701
7,Clear,2016-09-25 13:53:00,35.1,,-,68,N/A,30.42,45.0,7:53 AM,,10.0,SSE,3.5,160,Boise,Idaho,83701
8,Clear,2016-09-25 14:53:00,37.0,,-,61,N/A,30.43,50.0,8:53 AM,,10.0,South,5.8,180,Boise,Idaho,83701
9,Clear,2016-09-25 15:53:00,36.0,,-,45,N/A,30.45,57.0,9:53 AM,,10.0,SE,4.6,140,Boise,Idaho,83701
10,Clear,2016-09-25 16:53:00,35.1,,-,38,N/A,30.46,61.0,10:53 AM,,10.0,SSW,3.5,200,Boise,Idaho,83701
11,Clear,2016-09-25 17:53:00,36.0,,-,35,N/A,30.45,64.0,11:53 AM,,10.0,SSE,3.5,150,Boise,Idaho,83701
12,Clear,2016-09-25 18:53:00,35.1,,-,31,N/A,30.43,66.9,12:53 PM,,10.0,West,5.8,260,Boise,Idaho,83701
13,Clear,2016-09-25 19:53:00,34.0,,-,27,N/A,30.42,69.1,1:53 PM,,10.0,West,6.9,260,Boise,Idaho,83701
14,Clear,2016-09-25 20:53:00,34.0,,-,25,N/A,30.39,72.0,2:53 PM,,10.0,NW,6.9,310,Boise,Idaho,83701
15,Clear,2016-09-25 21:53:00,32.0,,-,22,N/A,30.37,73.0,3:53 PM,,9.0,Variable,5.8,0,Boise,Idaho,83701
16,Clear,2016-09-25 22:53:00,33.1,,-,22,N/A,30.35,73.9,4:53 PM,,10.0,WNW,6.9,300,Boise,Idaho,83701
17,Clear,2016-09-25 23:53:00,30.0,,-,20,N/A,30.34,73.9,5:53 PM,,10.0,WNW,8.1,290,Boise,Idaho,83701
18,Clear,2016-09-26 00:53:00,32.0,,-,22,N/A,30.33,73.0,6:53 PM,,10.0,WNW,8.1,300,Boise,Idaho,83701
19,Clear,2016-09-26 01:53:00,33.1,,-,26,N/A,30.33,69.1,7:53 PM,,10.0,West,4.6,280,Boise,Idaho,83701
20,Clear,2016-09-26 02:53:00,35.1,,-,32,N/A,30.33,66.0,8:53 PM,,10.0,West,3.5,260,Boise,Idaho,83701
21,Clear,2016-09-26 03:53:00,35.1,,-,37,N/A,30.34,62.1,9:53 PM,,10.0,SE,3.5,140,Boise,Idaho,83701
22,Clear,2016-09-26 04:53:00,34.0,,-,41,N/A,30.32,57.9,10:53 PM,,10.0,Calm,Calm,0,Boise,Idaho,83701
23,Clear,2016-09-26 05:53:00,35.1,,-,41,N/A,30.31,59.0,11:53 PM,,10.0,SE,10.4,140,Boise,Idaho,83701
0,Clear,2016-09-26 06:53:00,39.0,,-,49,N/A,30.31,57.9,12:53 AM,,10.0,SE,9.2,130,Boise,Idaho,83701
1,Clear,2016-09-26 07:53:00,39.9,,-,53,N/A,30.30,57.0,1:53 AM,,10.0,SE,8.1,130,Boise,Idaho,83701
2,Clear,2016-09-26 08:53:00,39.9,,-,53,N/A,30.29,57.0,2:53 AM,,10.0,SSE,10.4,150,Boise,Idaho,83701
3,Clear,2016-09-26 09:53:00,39.9,,-,55,N/A,30.29,55.9,3:53 AM,,10.0,SE,10.4,130,Boise,Idaho,83701
4,Clear,2016-09-26 10:53:00,39.9,,-,57,N/A,30.28,55.0,4:53 AM,,10.0,SE,10.4,130,Boise,Idaho,83701
5,Clear,2016-09-26 11:53:00,39.9,,-,59,N/A,30.28,54.0,5:53 AM,,10.0,SE,12.7,140,Boise,Idaho,83701
6,Clear,2016-09-26 12:53:00,39.9,,-,57,N/A,30.28,55.0,6:53 AM,,10.0,SE,11.5,130,Boise,Idaho,83701
7,Clear,2016-09-26 13:53:00,39.9,,-,59,N/A,30.29,54.0,7:53 AM,,10.0,SE,12.7,140,Boise,Idaho,83701
8,Clear,2016-09-26 14:53:00,39.9,,-,49,N/A,30.29,59.0,8:53 AM,,8.0,SE,10.4,140,Boise,Idaho,83701
9,Clear,2016-09-26 15:53:00,39.9,,-,40,N/A,30.29,64.9,9:53 AM,,10.0,SSE,6.9,150,Boise,Idaho,83701
10,Clear,2016-09-26 16:53:00,39.0,,-,33,N/A,30.30,69.1,10:53 AM,,10.0,SSE,9.2,160,Boise,Idaho,83701
11,Clear,2016-09-26 17:53:00,35.1,,-,24,N/A,30.27,73.9,11:53 AM,,10.0,SSE,15.0,150,Boise,Idaho,83701
12,Clear,2016-09-26 18:53:00,35.1,,-,22,N/A,30.24,77.0,12:53 PM,,10.0,South,12.7,170,Boise,Idaho,83701
13,Clear,2016-09-26 19:53:00,36.0,,-,21,N/A,30.22,79.0,1:53 PM,,10.0,SE,8.1,140,Boise,Idaho,83701
14,Clear,2016-09-26 20:53:00,37.0,,-,21,N/A,30.17,81.0,2:53 PM,,10.0,ESE,10.4,110,Boise,Idaho,83701
15,Clear,2016-09-26 21:53:00,37.0,,-,19,N/A,30.14,84.0,3:53 PM,,10.0,South,9.2,180,Boise,Idaho,83701
16,Clear,2016-09-26 22:53:00,37.0,,-,19,N/A,30.11,84.0,4:53 PM,,10.0,SSE,4.6,160,Boise,Idaho,83701
17,Clear,2016-09-26 23:53:00,37.9,,-,19,N/A,30.09,84.0,5:53 PM,,10.0,SSE,4.6,160,Boise,Idaho,83701
18,Clear,2016-09-27 00:53:00,39.0,,-,22,N/A,30.07,82.0,6:53 PM,,10.0,South,4.6,180,Boise,Idaho,83701
19,Clear,2016-09-27 01:53:00,39.0,,-,26,N/A,30.08,75.9,7:53 PM,,10.0,South,3.5,170,Boise,Idaho,83701
20,Clear,2016-09-27 02:53:00,39.9,,-,31,N/A,30.08,72.0,8:53 PM,,10.0,Calm,Calm,0,Boise,Idaho,83701
21,Clear,2016-09-27 03:53:00,41.0,,-,36,N/A,30.08,69.1,9:53 PM,,10.0,SE,8.1,130,Boise,Idaho,83701
22,Clear,2016-09-27 04:53:00,42.1,,-,43,N/A,30.08,64.9,10:53 PM,,10.0,SE,8.1,130,Boise,Idaho,83701
23,Clear,2016-09-27 05:53:00,42.1,,-,45,N/A,30.06,64.0,11:53 PM,,10.0,SE,6.9,130,Boise,Idaho,83701
0,Clear,2016-09-27 06:53:00,43.0,,-,48,N/A,30.05,63.0,12:53 AM,,10.0,SE,9.2,140,Boise,Idaho,83701
1,Clear,2016-09-27 07:53:00,42.1,,-,48,N/A,30.04,62.1,1:53 AM,,10.0,SE,9.2,130,Boise,Idaho,83701
2,Clear,2016-09-27 08:53:00,42.1,,-,48,N/A,30.03,62.1,2:53 AM,,10.0,SE,10.4,130,Boise,Idaho,83701
3,Clear,2016-09-27 09:53:00,42.1,,-,53,N/A,30.03,59.0,3:53 AM,,10.0,South,6.9,170,Boise,Idaho,83701
4,Clear,2016-09-27 10:53:00,42.1,,-,53,N/A,30.04,59.0,4:53 AM,,10.0,SE,6.9,140,Boise,Idaho,83701
5,Clear,2016-09-27 11:53:00,43.0,,-,64,N/A,30.04,55.0,5:53 AM,,10.0,ESE,5.8,110,Boise,Idaho,83701
6,Clear,2016-09-27 12:53:00,42.1,,-,62,N/A,30.04,55.0,6:53 AM,,10.0,SSE,5.8,160,Boise,Idaho,83701
7,Clear,2016-09-27 13:53:00,42.1,,-,62,N/A,30.06,55.0,7:53 AM,,10.0,SSE,3.5,150,Boise,Idaho,83701
8,Clear,2016-09-27 14:53:00,42.1,,-,51,N/A,30.07,60.1,8:53 AM,,10.0,ESE,5.8,120,Boise,Idaho,83701
9,Clear,2016-09-27 15:53:00,43.0,,-,45,N/A,30.07,64.9,9:53 AM,,10.0,Calm,Calm,0,Boise,Idaho,83701
10,Clear,2016-09-27 16:53:00,42.1,,-,36,N/A,30.07,70.0,10:53 AM,,10.0,Calm,Calm,0,Boise,Idaho,83701
11,Clear,2016-09-27 17:53:00,43.0,,-,34,N/A,30.05,73.0,11:53 AM,,10.0,Variable,3.5,0,Boise,Idaho,83701
12,Clear,2016-09-27 18:53:00,43.0,,-,31,N/A,30.03,75.9,12:53 PM,,10.0,WNW,4.6,290,Boise,Idaho,83701
13,Clear,2016-09-27 19:53:00,45.0,,-,31,N/A,30.01,78.1,1:53 PM,,10.0,North,6.9,350,Boise,Idaho,83701
14,Clear,2016-09-27 20:53:00,44.1,,-,26,N/A,29.98,82.0,2:53 PM,,10.0,Calm,Calm,0,Boise,Idaho,83701
15,Clear,2016-09-27 21:53:00,43.0,,-,24,N/A,29.96,82.9,3:53 PM,,10.0,Variable,3.5,0,Boise,Idaho,83701
16,Clear,2016-09-27 22:53:00,42.1,,-,21,N/A,29.93,86.0,4:53 PM,,10.0,Variable,3.5,0,Boise,Idaho,83701
17,Clear,2016-09-27 23:53:00,43.0,,-,23,N/A,29.92,84.9,5:53 PM,,10.0,North,6.9,350,Boise,Idaho,83701
18,Clear,2016-09-28 00:53:00,43.0,,-,25,N/A,29.92,82.0,6:53 PM,,10.0,Variable,6.9,0,Boise,Idaho,83701
19,Clear,2016-09-28 01:53:00,45.0,,-,32,N/A,29.93,77.0,7:53 PM,,10.0,Calm,Calm,0,Boise,Idaho,83701
20,Clear,2016-09-28 02:53:00,46.0,,-,41,N/A,29.94,71.1,8:53 PM,,10.0,SSW,3.5,210,Boise,Idaho,83701
21,Clear,2016-09-28 03:53:00,45.0,,-,43,N/A,29.94,68.0,9:53 PM,,10.0,SE,4.6,130,Boise,Idaho,83701
22,Clear,2016-09-28 04:53:00,41.0,,-,37,N/A,29.94,68.0,10:53 PM,,10.0,SE,8.1,130,Boise,Idaho,83701
23,Clear,2016-09-28 05:53:00,41.0,,-,40,N/A,29.94,66.0,11:53 PM,,10.0,SE,8.1,130,Boise,Idaho,83701
0,Clear,2016-09-28 06:53:00,39.9,,-,38,N/A,29.94,66.0,12:53 AM,,10.0,SE,11.5,130,Boise,Idaho,83701
1,Clear,2016-09-28 07:53:00,39.9,,-,40,N/A,29.94,64.9,1:53 AM,,10.0,SE,10.4,130,Boise,Idaho,83701
2,Clear,2016-09-28 08:53:00,39.0,,-,41,N/A,29.94,63.0,2:53 AM,,10.0,ESE,10.4,110,Boise,Idaho,83701
3,Clear,2016-09-28 09:53:00,39.9,,-,43,N/A,29.94,63.0,3:53 AM,,10.0,SE,10.4,130,Boise,Idaho,83701
4,Clear,2016-09-28 10:53:00,39.9,,-,44,N/A,29.94,62.1,4:53 AM,,10.0,ESE,8.1,120,Boise,Idaho,83701
5,Clear,2016-09-28 11:53:00,39.0,,-,48,N/A,29.95,59.0,5:53 AM,,10.0,ESE,3.5,120,Boise,Idaho,83701
6,Clear,2016-09-28 12:53:00,43.0,,-,64,N/A,29.97,55.0,6:53 AM,,10.0,Calm,Calm,0,Boise,Idaho,83701
7,Clear,2016-09-28 13:53:00,39.0,,-,53,N/A,29.99,55.9,7:53 AM,,10.0,SE,4.6,130,Boise,Idaho,83701
8,Clear,2016-09-28 14:53:00,39.9,,-,47,N/A,29.99,60.1,8:53 AM,,10.0,Calm,Calm,0,Boise,Idaho,83701
9,Clear,2016-09-28 15:53:00,39.9,,-,36,N/A,30.00,68.0,9:53 AM,,10.0,South,4.6,180,Boise,Idaho,83701
10,Clear,2016-09-28 16:53:00,39.9,,-,30,N/A,29.99,73.0,10:53 AM,,8.0,East,8.1,100,Boise,Idaho,83701
11,Clear,2016-09-28 17:53:00,42.1,,-,29,N/A,29.97,77.0,11:53 AM,,10.0,SSE,9.2,160,Boise,Idaho,83701
12,Clear,2016-09-28 18:53:00,42.1,,-,24,N/A,29.93,82.9,12:53 PM,,10.0,SSE,10.4,160,Boise,Idaho,83701
13,Clear,2016-09-28 19:53:00,39.9,,23.0,18,N/A,29.90,88.0,1:53 PM,,9.0,SSE,15.0,150,Boise,Idaho,83701
14,Clear,2016-09-28 20:53:00,36.0,,-,15,N/A,29.87,90.0,2:53 PM,,10.0,SSE,15.0,150,Boise,Idaho,83701
15,Clear,2016-09-28 21:53:00,33.1,,25.3,12,N/A,29.85,91.9,3:53 PM,,10.0,ESE,18.4,120,Boise,Idaho,83701
16,Clear,2016-09-28 22:53:00,30.9,,24.2,11,N/A,29.84,91.9,4:53 PM,,10.0,SE,16.1,130,Boise,Idaho,83701
17,Clear,2016-09-28 23:53:00,32.0,,-,12,N/A,29.83,91.0,5:53 PM,,10.0,SE,18.4,130,Boise,Idaho,83701
18,Clear,2016-09-29 00:53:00,33.1,,-,14,N/A,29.83,88.0,6:53 PM,,10.0,SSE,11.5,150,Boise,Idaho,83701
19,Clear,2016-09-29 01:53:00,32.0,,-,17,N/A,29.85,81.0,7:53 PM,,10.0,SSE,11.5,150,Boise,Idaho,83701
20,Clear,2016-09-29 02:53:00,33.1,,-,20,N/A,29.86,77.0,8:53 PM,,10.0,SSE,9.2,150,Boise,Idaho,83701
21,Clear,2016-09-29 03:53:00,30.9,,-,20,N/A,29.86,75.0,9:53 PM,,10.0,SE,11.5,140,Boise,Idaho,83701
22,Clear,2016-09-29 04:53:00,32.0,,-,21,N/A,29.85,73.9,10:53 PM,,10.0,SE,11.5,130,Boise,Idaho,83701
23,Clear,2016-09-29 05:53:00,32.0,,-,22,N/A,29.86,73.0,11:53 PM,,10.0,SE,6.9,140,Boise,Idaho,83701
0,Clear,2016-09-29 06:53:00,33.1,,-,22,N/A,29.83,73.9,12:53 AM,,10.0,SE,9.2,130,Boise,Idaho,83701
1,Clear,2016-09-29 07:53:00,35.1,,-,25,N/A,29.82,73.0,1:53 AM,,10.0,ESE,11.5,120,Boise,Idaho,83701
2,Clear,2016-09-29 08:53:00,37.0,,-,28,N/A,29.82,72.0,2:53 AM,,10.0,SE,10.4,130,Boise,Idaho,83701
3,Clear,2016-09-29 09:53:00,37.0,,-,25,N/A,29.81,75.0,3:53 AM,,10.0,ESE,12.7,120,Boise,Idaho,83701
4,Clear,2016-09-29 10:53:00,37.9,,-,27,N/A,29.82,73.9,4:53 AM,,10.0,SE,10.4,130,Boise,Idaho,83701
5,Clear,2016-09-29 11:53:00,39.0,,-,31,N/A,29.84,71.1,5:53 AM,,10.0,SSE,9.2,160,Boise,Idaho,83701
6,Clear,2016-09-29 12:53:00,39.9,,-,32,N/A,29.86,71.1,6:53 AM,,10.0,SE,9.2,130,Boise,Idaho,83701
7,Clear,2016-09-29 13:53:00,39.9,,-,43,N/A,29.90,63.0,7:53 AM,,10.0,NW,8.1,310,Boise,Idaho,83701
8,Clear,2016-09-29 14:53:00,41.0,,-,48,N/A,29.94,61.0,8:53 AM,,7.0,North,3.5,350,Boise,Idaho,83701
9,Clear,2016-09-29 15:53:00,43.0,,-,39,N/A,29.94,69.1,9:53 AM,,10.0,East,4.6,80,Boise,Idaho,83701
10,Clear,2016-09-29 16:53:00,42.1,,26.5,24,N/A,29.93,82.0,10:53 AM,,9.0,SE,18.4,130,Boise,Idaho,83701
11,Clear,2016-09-29 17:53:00,42.1,,25.3,23,N/A,29.93,84.0,11:53 AM,,10.0,SSE,16.1,150,Boise,Idaho,83701
12,Clear,2016-09-29 18:53:00,37.9,,-,19,N/A,29.93,84.0,12:53 PM,,10.0,South,12.7,180,Boise,Idaho,83701
13,Clear,2016-09-29 19:53:00,37.9,,-,18,N/A,29.92,87.1,1:53 PM,,10.0,SE,8.1,140,Boise,Idaho,83701
14,Clear,2016-09-29 20:53:00,34.0,,-,15,N/A,29.90,88.0,2:53 PM,,10.0,Variable,4.6,0,Boise,Idaho,83701
15,Clear,2016-09-29 21:53:00,35.1,,-,15,N/A,29.87,88.0,3:53 PM,,10.0,West,5.8,260,Boise,Idaho,83701
16,Clear,2016-09-29 22:53:00,33.1,,-,13,N/A,29.85,90.0,4:53 PM,,10.0,SW,6.9,220,Boise,Idaho,83701
17,Clear,2016-09-29 23:53:00,33.1,,-,14,N/A,29.85,89.1,5:53 PM,,10.0,Variable,3.5,0,Boise,Idaho,83701
18,Clear,2016-09-30 00:53:00,37.0,,-,18,N/A,29.85,86.0,6:53 PM,,10.0,SSE,6.9,160,Boise,Idaho,83701
19,Clear,2016-09-30 01:53:00,41.0,,-,26,N/A,29.89,79.0,7:53 PM,,10.0,SSE,15.0,160,Boise,Idaho,83701
20,Clear,2016-09-30 02:53:00,41.0,,-,29,N/A,29.90,75.9,8:53 PM,,10.0,SSE,12.7,150,Boise,Idaho,83701
21,Clear,2016-09-30 03:53:00,41.0,,-,30,N/A,29.90,73.9,9:53 PM,,10.0,ESE,12.7,110,Boise,Idaho,83701
22,Clear,2016-09-30 04:53:00,42.1,,-,32,N/A,29.89,73.9,10:53 PM,,10.0,ESE,16.1,110,Boise,Idaho,83701
23,Clear,2016-09-30 05:53:00,43.0,,28.8,33,N/A,29.89,73.9,11:53 PM,,10.0,SE,20.7,130,Boise,Idaho,83701
0,Clear,2016-09-30 06:53:00,42.1,,24.2,31,N/A,29.89,75.0,12:53 AM,,10.0,ESE,15.0,120,Boise,Idaho,83701
1,Clear,2016-09-30 07:53:00,41.0,,-,29,N/A,29.87,75.9,1:53 AM,,10.0,ESE,16.1,120,Boise,Idaho,83701
2,Clear,2016-09-30 08:53:00,41.0,,-,30,N/A,29.89,73.9,2:53 AM,,10.0,SE,10.4,140,Boise,Idaho,83701
3,Clear,2016-09-30 09:53:00,41.0,,-,36,N/A,29.91,69.1,3:53 AM,,10.0,SE,11.5,140,Boise,Idaho,83701
4,Clear,2016-09-30 10:53:00,41.0,,-,42,N/A,29.93,64.9,4:53 AM,,10.0,SSE,10.4,160,Boise,Idaho,83701
5,Clear,2016-09-30 11:53:00,42.1,,-,43,N/A,29.95,64.9,5:53 AM,,10.0,SSW,4.6,200,Boise,Idaho,83701
6,Scattered Clouds,2016-09-30 12:53:00,44.1,,-,42,N/A,29.96,68.0,6:53 AM,,10.0,ESE,6.9,120,Boise,Idaho,83701
7,Partly Cloudy,2016-09-30 13:53:00,43.0,,-,42,0.00,29.96,66.9,7:53 AM,,10.0,SE,11.5,130,Boise,Idaho,83701
8,Clear,2016-09-30 14:53:00,43.0,,-,43,N/A,29.98,66.0,8:53 AM,,10.0,South,8.1,170,Boise,Idaho,83701
9,Clear,2016-09-30 15:53:00,45.0,,-,38,N/A,29.99,72.0,9:53 AM,,10.0,SSE,6.9,150,Boise,Idaho,83701
10,Clear,2016-09-30 16:53:00,46.0,,-,33,N/A,29.97,77.0,10:53 AM,,10.0,SE,16.1,140,Boise,Idaho,83701
11,Clear,2016-09-30 17:53:00,42.1,,-,25,N/A,29.95,81.0,11:53 AM,,9.0,SSE,15.0,150,Boise,Idaho,83701
12,Clear,2016-09-30 18:53:00,37.0,,-,19,N/A,29.93,82.9,12:53 PM,,10.0,SSE,9.2,160,Boise,Idaho,83701
13,Clear,2016-09-30 19:53:00,33.1,,-,16,N/A,29.89,84.0,1:53 PM,,9.0,Variable,5.8,0,Boise,Idaho,83701
14,Clear,2016-09-30 20:53:00,33.1,,-,16,N/A,29.86,84.9,2:53 PM,,10.0,SE,10.4,140,Boise,Idaho,83701
15,Clear,2016-09-30 21:53:00,30.9,,26.5,14,N/A,29.83,86.0,3:53 PM,,10.0,SSE,10.4,160,Boise,Idaho,83701
16,Clear,2016-09-30 22:53:00,28.9,,-,13,N/A,29.81,84.9,4:53 PM,,10.0,SSE,12.7,150,Boise,Idaho,83701
17,Partly Cloudy,2016-09-30 23:53:00,30.0,,-,15,N/A,29.80,82.9,5:53 PM,,10.0,SE,9.2,130,Boise,Idaho,83701
18,Clear,2016-10-01 00:53:00,30.0,,-,16,N/A,29.78,81.0,6:53 PM,,10.0,SE,10.4,130,Boise,Idaho,83701
19,Clear,2016-10-01 01:53:00,32.0,,-,19,N/A,29.77,77.0,7:53 PM,,10.0,SE,10.4,130,Boise,Idaho,83701
20,Clear,2016-10-01 02:53:00,35.1,,-,24,N/A,29.77,73.9,8:53 PM,,10.0,SE,12.7,130,Boise,Idaho,83701
21,Clear,2016-10-01 03:53:00,39.0,,-,29,N/A,29.76,73.0,9:53 PM,,10.0,SE,16.1,140,Boise,Idaho,83701
22,Clear,2016-10-01 04:53:00,45.0,,31.1,37,N/A,29.76,73.0,10:53 PM,,10.0,SE,24.2,140,Boise,Idaho,83701
23,Clear,2016-10-01 05:53:00,46.9,,-,42,N/A,29.75,71.1,11:53 PM,,10.0,SE,15.0,130,Boise,Idaho,83701
0,Partly Cloudy,2016-10-01 06:53:00,45.0,,-,38,N/A,29.75,72.0,12:53 AM,,10.0,SE,12.7,140,Boise,Idaho,83701
1,Partly Cloudy,2016-10-01 07:53:00,46.0,,-,40,N/A,29.78,72.0,1:53 AM,,10.0,South,12.7,170,Boise,Idaho,83701
2,Partly Cloudy,2016-10-01 08:53:00,46.9,,-,45,N/A,29.79,69.1,2:53 AM,,10.0,SSE,5.8,150,Boise,Idaho,83701
3,Scattered Clouds,2016-10-01 09:53:00,46.0,,-,44,N/A,29.81,69.1,3:53 AM,,10.0,Variable,5.8,0,Boise,Idaho,83701
4,Clear,2016-10-01 10:53:00,48.0,,-,51,N/A,29.82,66.9,4:53 AM,,10.0,Calm,Calm,0,Boise,Idaho,83701
5,Mostly Cloudy,2016-10-01 11:53:00,48.0,,-,54,N/A,29.83,64.9,5:53 AM,,10.0,SSE,3.5,150,Boise,Idaho,83701
6,Clear,2016-10-01 12:53:00,46.9,,-,56,N/A,29.85,63.0,6:53 AM,,10.0,SSW,5.8,200,Boise,Idaho,83701
7,Clear,2016-10-01 13:53:00,45.0,,-,48,N/A,29.88,64.9,7:53 AM,,10.0,Calm,Calm,0,Boise,Idaho,83701
8,Mostly Cloudy,2016-10-01 14:53:00,34.0,,-,32,N/A,29.91,64.9,8:53 AM,,10.0,NW,8.1,310,Boise,Idaho,83701
9,Partly Cloudy,2016-10-01 15:53:00,30.9,,-,27,N/A,29.93,66.0,9:53 AM,,10.0,NW,12.7,310,Boise,Idaho,83701
10,Clear,2016-10-01 16:53:00,30.0,,-,26,N/A,29.95,66.0,10:53 AM,,10.0,WNW,17.3,300,Boise,Idaho,83701
11,Clear,2016-10-01 17:53:00,30.0,,-,24,N/A,29.95,68.0,11:53 AM,,10.0,NW,11.5,310,Boise,Idaho,83701
12,Clear,2016-10-01 18:53:00,30.0,,-,23,N/A,29.94,69.1,12:53 PM,,7.0,NW,15.0,310,Boise,Idaho,83701
13,Clear,2016-10-01 19:02:00,30.0,,-,23,N/A,30.01,69.1,1:02 PM,,8.0,WNW,11.5,300,Boise,Idaho,83701
14,Clear,2016-10-01 19:03:00,30.0,,18.4,23,N/A,30.01,69.1,1:03 PM,,10.0,WNW,9.2,300,Boise,Idaho,83701
15,Clear,2016-10-01 19:53:00,28.0,,-,21,N/A,29.94,70.0,1:53 PM,,10.0,NW,11.5,310,Boise,Idaho,83701
16,Clear,2016-10-01 20:53:00,27.0,,-,19,N/A,29.94,71.1,2:53 PM,,9.0,WNW,10.4,290,Boise,Idaho,83701
17,Clear,2016-10-01 21:53:00,25.0,,23.0,18,N/A,29.93,71.1,3:53 PM,,10.0,NNW,19.6,330,Boise,Idaho,83701
18,Clear,2016-10-01 22:53:00,23.0,,-,17,N/A,29.94,70.0,4:53 PM,,10.0,NNW,15.0,340,Boise,Idaho,83701
19,Clear,2016-10-01 23:53:00,21.0,,-,16,N/A,29.92,70.0,5:53 PM,,10.0,NNW,11.5,340,Boise,Idaho,83701
20,Clear,2016-10-02 00:53:00,21.9,,-,18,N/A,29.92,66.9,6:53 PM,,10.0,NNW,10.4,340,Boise,Idaho,83701
21,Clear,2016-10-02 01:53:00,23.0,,-,22,N/A,29.92,62.1,7:53 PM,,10.0,North,6.9,350,Boise,Idaho,83701
22,Clear,2016-10-02 02:53:00,23.0,,-,26,N/A,29.93,57.9,8:53 PM,,7.0,NW,8.1,310,Boise,Idaho,83701
23,Clear,2016-10-02 03:53:00,21.9,,-,24,N/A,29.93,59.0,9:53 PM,,8.0,NW,5.8,310,Boise,Idaho,83701
24,Clear,2016-10-02 04:53:00,21.9,,-,28,N/A,29.93,55.0,10:53 PM,,10.0,Calm,Calm,0,Boise,Idaho,83701
25,Clear,2016-10-02 05:53:00,23.0,,-,35,N/A,29.94,50.0,11:53 PM,,10.0,Variable,3.5,0,Boise,Idaho,83701
0,Clear,2016-10-02 06:53:00,21.9,,-,33,N/A,29.94,50.0,12:53 AM,,10.0,SSE,5.8,150,Boise,Idaho,83701
1,Clear,2016-10-02 07:53:00,23.0,,-,35,N/A,29.93,50.0,1:53 AM,,10.0,SSE,10.4,160,Boise,Idaho,83701
2,Clear,2016-10-02 08:53:00,23.0,,-,37,N/A,29.91,48.0,2:53 AM,,10.0,SSE,5.8,150,Boise,Idaho,83701
3,Clear,2016-10-02 09:53:00,23.0,,-,35,N/A,29.89,50.0,3:53 AM,,10.0,SE,3.5,130,Boise,Idaho,83701
4,Clear,2016-10-02 10:53:00,26.1,,-,38,N/A,29.88,51.1,4:53 AM,,10.0,ENE,4.6,70,Boise,Idaho,83701
5,Clear,2016-10-02 11:53:00,25.0,,-,36,N/A,29.87,51.1,5:53 AM,,10.0,Variable,4.6,0,Boise,Idaho,83701
6,Clear,2016-10-02 12:53:00,24.1,,-,38,N/A,29.85,48.9,6:53 AM,,10.0,South,3.5,190,Boise,Idaho,83701
7,Partly Cloudy,2016-10-02 13:53:00,23.0,,-,35,N/A,29.86,50.0,7:53 AM,,10.0,SE,4.6,140,Boise,Idaho,83701
8,Clear,2016-10-02 14:53:00,26.1,,-,44,N/A,29.86,46.9,8:53 AM,,10.0,Calm,Calm,0,Boise,Idaho,83701
9,Clear,2016-10-02 15:53:00,25.0,,-,34,N/A,29.86,53.1,9:53 AM,,10.0,SSE,4.6,160,Boise,Idaho,83701
10,Clear,2016-10-02 16:53:00,25.0,,-,31,N/A,29.85,55.0,10:53 AM,,10.0,SSW,4.6,200,Boise,Idaho,83701
11,Partly Cloudy,2016-10-02 17:53:00,24.1,,-,25,N/A,29.83,60.1,11:53 AM,,10.0,SW,4.6,230,Boise,Idaho,83701
12,Clear,2016-10-02 18:53:00,26.1,,-,25,N/A,29.80,63.0,12:53 PM,,10.0,West,6.9,280,Boise,Idaho,83701
13,Scattered Clouds,2016-10-02 19:53:00,21.9,,17.3,19,N/A,29.78,66.0,1:53 PM,,10.0,WNW,12.7,300,Boise,Idaho,83701
14,Partly Cloudy,2016-10-02 20:53:00,23.0,,-,18,N/A,29.75,68.0,2:53 PM,,10.0,NNW,13.8,330,Boise,Idaho,83701
15,Clear,2016-10-02 21:53:00,21.0,,21.9,16,N/A,29.73,69.1,3:53 PM,,10.0,NW,12.7,320,Boise,Idaho,83701
16,Clear,2016-10-02 22:53:00,18.0,,-,15,N/A,29.71,68.0,4:53 PM,,10.0,NNW,10.4,330,Boise,Idaho,83701
17,Clear,2016-10-02 23:53:00,19.9,,-,17,N/A,29.70,66.9,5:53 PM,,10.0,NNW,12.7,330,Boise,Idaho,83701
18,Clear,2016-10-03 00:53:00,19.0,,-,17,N/A,29.69,64.9,6:53 PM,,10.0,NNW,13.8,340,Boise,Idaho,83701
19,Clear,2016-10-03 01:53:00,19.9,,-,21,N/A,29.69,60.1,7:53 PM,,10.0,NNW,9.2,340,Boise,Idaho,83701
20,Clear,2016-10-03 02:53:00,19.0,,-,22,N/A,29.70,57.9,8:53 PM,,10.0,NW,9.2,310,Boise,Idaho,83701
21,Clear,2016-10-03 03:53:00,19.9,,-,24,N/A,29.70,57.0,9:53 PM,,10.0,NW,6.9,310,Boise,Idaho,83701
22,Clear,2016-10-03 04:53:00,21.9,,-,26,N/A,29.71,57.0,10:53 PM,,10.0,WNW,9.2,300,Boise,Idaho,83701
23,Partly Cloudy,2016-10-03 05:53:00,28.0,,-,34,N/A,29.73,55.9,11:53 PM,,10.0,WNW,11.5,290,Boise,Idaho,83701
0,Scattered Clouds,2016-10-03 06:53:00,28.0,,-,37,N/A,29.74,54.0,12:53 AM,,10.0,North,6.9,10,Boise,Idaho,83701
1,Overcast,2016-10-03 07:53:00,28.0,,-,35,N/A,29.75,55.0,1:53 AM,,10.0,North,8.1,350,Boise,Idaho,83701
2,Overcast,2016-10-03 08:53:00,28.9,,-,38,N/A,29.75,54.0,2:53 AM,,10.0,NNW,8.1,340,Boise,Idaho,83701
3,Overcast,2016-10-03 09:53:00,30.0,,-,40,N/A,29.75,54.0,3:53 AM,,10.0,NNW,8.1,340,Boise,Idaho,83701
4,Scattered Clouds,2016-10-03 10:53:00,30.0,,-,43,N/A,29.76,52.0,4:53 AM,,10.0,NNW,8.1,330,Boise,Idaho,83701
5,Clear,2016-10-03 11:53:00,30.0,,-,46,N/A,29.77,50.0,5:53 AM,,10.0,NNW,10.4,330,Boise,Idaho,83701
6,Clear,2016-10-03 12:53:00,30.9,,-,52,N/A,29.78,48.0,6:53 AM,,10.0,NW,6.9,320,Boise,Idaho,83701
7,Clear,2016-10-03 13:53:00,30.9,,-,54,N/A,29.80,46.9,7:53 AM,,10.0,NNW,8.1,340,Boise,Idaho,83701
8,Clear,2016-10-03 14:53:00,30.9,,-,54,N/A,29.82,46.9,8:53 AM,,10.0,NNW,8.1,330,Boise,Idaho,83701
9,Scattered Clouds,2016-10-03 15:53:00,32.0,,-,50,N/A,29.83,50.0,9:53 AM,,10.0,NW,11.5,320,Boise,Idaho,83701
10,Overcast,2016-10-03 16:53:00,33.1,,-,49,N/A,29.85,52.0,10:53 AM,,10.0,NW,12.7,320,Boise,Idaho,83701
11,Partly Cloudy,2016-10-03 17:53:00,33.1,,-,42,N/A,29.85,55.9,11:53 AM,,10.0,WNW,17.3,300,Boise,Idaho,83701
12,Overcast,2016-10-03 18:53:00,34.0,,-,41,N/A,29.85,57.9,12:53 PM,,10.0,West,15.0,280,Boise,Idaho,83701
13,Mostly Cloudy,2016-10-03 19:53:00,34.0,,24.2,39,N/A,29.84,59.0,1:53 PM,,10.0,NW,15.0,320,Boise,Idaho,83701
14,Mostly Cloudy,2016-10-03 20:53:00,33.1,,-,36,N/A,29.83,60.1,2:53 PM,,10.0,WNW,12.7,300,Boise,Idaho,83701
15,Mostly Cloudy,2016-10-03 21:53:00,30.0,,-,31,N/A,29.83,61.0,3:53 PM,,10.0,West,15.0,280,Boise,Idaho,83701
16,Scattered Clouds,2016-10-03 22:53:00,28.0,,-,28,N/A,29.83,62.1,4:53 PM,,10.0,West,13.8,280,Boise,Idaho,83701
17,Clear,2016-10-03 23:53:00,25.0,,-,25,N/A,29.83,61.0,5:53 PM,,10.0,West,12.7,280,Boise,Idaho,83701
18,Clear,2016-10-04 00:53:00,25.0,,-,26,N/A,29.84,60.1,6:53 PM,,10.0,West,9.2,270,Boise,Idaho,83701
19,Clear,2016-10-04 01:53:00,24.1,,-,29,N/A,29.85,55.9,7:53 PM,,10.0,West,6.9,260,Boise,Idaho,83701
20,Clear,2016-10-04 02:53:00,25.0,,-,35,N/A,29.85,52.0,8:53 PM,,10.0,Calm,Calm,0,Boise,Idaho,83701
21,Partly Cloudy,2016-10-04 03:53:00,24.1,,-,32,N/A,29.86,53.1,9:53 PM,,10.0,NE,4.6,40,Boise,Idaho,83701
22,Clear,2016-10-04 04:53:00,21.9,,-,36,N/A,29.86,48.0,10:53 PM,,10.0,Calm,Calm,0,Boise,Idaho,83701
23,Scattered Clouds,2016-10-04 05:53:00,21.9,,-,39,N/A,29.86,46.0,11:53 PM,,10.0,SE,3.5,130,Boise,Idaho,83701
