,Conditions,DateUTC,Dew PointF,Events,Gust SpeedMPH,Humidity,PrecipitationIn,Sea Level PressureIn,TemperatureF,TimeCDT,TimeCST,VisibilityMPH,Wind Direction,Wind SpeedMPH,WindDirDegrees,City,State,Zip
0,Clear,2016-01-01 06:53:00,27.0,,-,92,N/A,30.53,28.9,,12:53 AM,9.0,WNW,4.6,300,Tulsa,Oklahoma,74104
1,Clear,2016-01-01 07:53:00,26.1,,-,92,N/A,30.55,28.0,,1:53 AM,8.0,Calm,Calm,0,Tulsa,Oklahoma,74104
2,Clear,2016-01-01 08:53:00,26.1,,-,89,N/A,30.56,28.9,,2:53 AM,9.0,Calm,Calm,0,Tulsa,Oklahoma,74104
3,Clear,2016-01-01 09:53:00,25.0,,-,92,N/A,30.56,27.0,,3:53 AM,7.0,Calm,Calm,0,Tulsa,Oklahoma,74104
4,Clear,2016-01-01 10:53:00,26.1,,-,96,N/A,30.57,27.0,,4:53 AM,6.0,West,3.5,280,Tulsa,Oklahoma,74104
5,Clear,2016-01-01 11:53:00,23.0,,-,92,N/A,30.57,25.0,,5:53 AM,4.0,Calm,Calm,0,Tulsa,Oklahoma,74104
6,Clear,2016-01-01 12:53:00,21.9,,-,91,N/A,30.58,24.1,,6:53 AM,5.0,Calm,Calm,0,Tulsa,Oklahoma,74104
7,Clear,2016-01-01 13:53:00,21.9,,-,91,N/A,30.59,24.1,,7:53 AM,4.0,Calm,Calm,0,Tulsa,Oklahoma,74104
8,Clear,2016-01-01 14:53:00,26.1,,-,85,N/A,30.60,30.0,,8:53 AM,9.0,WNW,3.5,290,Tulsa,Oklahoma,74104
9,Clear,2016-01-01 15:53:00,25.0,,-,67,N/A,30.61,35.1,,9:53 AM,10.0,WNW,5.8,300,Tulsa,Oklahoma,74104
10,Clear,2016-01-01 16:53:00,25.0,,-,60,N/A,30.62,37.9,,10:53 AM,10.0,Variable,3.5,0,Tulsa,Oklahoma,74104
11,Clear,2016-01-01 17:53:00,21.9,,-,47,N/A,30.58,41.0,,11:53 AM,10.0,Variable,4.6,0,Tulsa,Oklahoma,74104
12,Clear,2016-01-01 18:53:00,21.0,,-,42,N/A,30.55,43.0,,12:53 PM,10.0,NW,8.1,310,Tulsa,Oklahoma,74104
13,Clear,2016-01-01 19:53:00,21.9,,-,43,N/A,30.51,43.0,,1:53 PM,10.0,Variable,6.9,0,Tulsa,Oklahoma,74104
14,Clear,2016-01-01 20:53:00,23.0,,-,42,N/A,30.50,45.0,,2:53 PM,10.0,Variable,4.6,0,Tulsa,Oklahoma,74104
15,Clear,2016-01-01 21:53:00,23.0,,-,42,N/A,30.49,45.0,,3:53 PM,10.0,WNW,5.8,300,Tulsa,Oklahoma,74104
16,Clear,2016-01-01 22:53:00,21.9,,-,45,N/A,30.50,42.1,,4:53 PM,10.0,NW,4.6,310,Tulsa,Oklahoma,74104
17,Clear,2016-01-01 23:53:00,24.1,,-,55,N/A,30.50,39.0,,5:53 PM,10.0,Variable,3.5,0,Tulsa,Oklahoma,74104
18,Clear,2016-01-02 00:53:00,24.1,,-,62,N/A,30.52,36.0,,6:53 PM,10.0,Calm,Calm,0,Tulsa,Oklahoma,74104
19,Clear,2016-01-02 01:53:00,23.0,,-,59,N/A,30.53,36.0,,7:53 PM,10.0,Calm,Calm,0,Tulsa,Oklahoma,74104
20,Clear,2016-01-02 02:53:00,23.0,,-,75,N/A,30.51,30.0,,8:53 PM,10.0,Calm,Calm,0,Tulsa,Oklahoma,74104
21,Clear,2016-01-02 03:53:00,23.0,,-,81,N/A,30.50,28.0,,9:53 PM,10.0,Calm,Calm,0,Tulsa,Oklahoma,74104
22,Clear,2016-01-02 04:53:00,23.0,,-,85,N/A,30.50,27.0,,10:53 PM,10.0,Calm,Calm,0,Tulsa,Oklahoma,74104
23,Clear,2016-01-02 05:53:00,23.0,,-,88,N/A,30.49,26.1,,11:53 PM,10.0,Calm,Calm,0,Tulsa,Oklahoma,74104
0,Clear,2016-01-02 06:53:00,23.0,,-,88,N/A,30.48,26.1,,12:53 AM,10.0,Calm,Calm,0,Tulsa,Oklahoma,74104
1,Clear,2016-01-02 07:53:00,23.0,,-,92,N/A,30.46,25.0,,1:53 AM,10.0,Calm,Calm,0,Tulsa,Oklahoma,74104
2,Clear,2016-01-02 08:53:00,21.9,,-,88,N/A,30.45,25.0,,2:53 AM,10.0,Calm,Calm,0,Tulsa,Oklahoma,74104
3,Clear,2016-01-02 09:53:00,21.0,,-,88,N/A,30.44,24.1,,3:53 AM,10.0,Calm,Calm,0,Tulsa,Oklahoma,74104
4,Clear,2016-01-02 10:53:00,21.9,,-,91,N/A,30.43,24.1,,4:53 AM,10.0,Calm,Calm,0,Tulsa,Oklahoma,74104
5,Clear,2016-01-02 11:53:00,21.9,,-,91,N/A,30.42,24.1,,5:53 AM,10.0,Calm,Calm,0,Tulsa,Oklahoma,74104
6,Clear,2016-01-02 12:53:00,21.9,,-,91,N/A,30.44,24.1,,6:53 AM,10.0,Calm,Calm,0,Tulsa,Oklahoma,74104
7,Clear,2016-01-02 13:53:00,21.9,,-,91,N/A,30.43,24.1,,7:53 AM,10.0,Calm,Calm,0,Tulsa,Oklahoma,74104
8,Clear,2016-01-02 14:53:00,26.1,,-,82,N/A,30.44,30.9,,8:53 AM,10.0,SSW,3.5,210,Tulsa,Oklahoma,74104
9,Clear,2016-01-02 15:53:00,27.0,,-,67,N/A,30.43,37.0,,9:53 AM,10.0,SW,3.5,230,Tulsa,Oklahoma,74104
10,Clear,2016-01-02 16:53:00,27.0,,-,53,N/A,30.42,43.0,,10:53 AM,10.0,WSW,4.6,250,Tulsa,Oklahoma,74104
11,Clear,2016-01-02 17:53:00,27.0,,-,46,N/A,30.38,46.9,,11:53 AM,10.0,SSW,5.8,210,Tulsa,Oklahoma,74104
12,Clear,2016-01-02 18:53:00,26.1,,-,39,N/A,30.33,50.0,,12:53 PM,10.0,Variable,5.8,0,Tulsa,Oklahoma,74104
13,Clear,2016-01-02 19:53:00,27.0,,16.1,38,N/A,30.30,52.0,,1:53 PM,10.0,SSW,12.7,210,Tulsa,Oklahoma,74104
14,Clear,2016-01-02 20:53:00,28.0,,-,38,N/A,30.27,53.1,,2:53 PM,10.0,Variable,5.8,0,Tulsa,Oklahoma,74104
15,Clear,2016-01-02 21:53:00,27.0,,-,38,N/A,30.26,52.0,,3:53 PM,10.0,SW,5.8,220,Tulsa,Oklahoma,74104
16,Clear,2016-01-02 22:53:00,28.0,,-,43,N/A,30.26,50.0,,4:53 PM,10.0,SW,5.8,230,Tulsa,Oklahoma,74104
17,Clear,2016-01-02 23:53:00,28.9,,-,55,N/A,30.27,44.1,,5:53 PM,10.0,SW,3.5,230,Tulsa,Oklahoma,74104
18,Clear,2016-01-03 00:53:00,28.9,,-,67,N/A,30.27,39.0,,6:53 PM,10.0,Calm,Calm,0,Tulsa,Oklahoma,74104
19,Clear,2016-01-03 01:53:00,28.0,,-,68,N/A,30.28,37.9,,7:53 PM,10.0,Calm,Calm,0,Tulsa,Oklahoma,74104
20,Clear,2016-01-03 02:53:00,28.0,,-,76,N/A,30.27,35.1,,8:53 PM,10.0,Calm,Calm,0,Tulsa,Oklahoma,74104
21,Clear,2016-01-03 03:53:00,28.0,,-,82,N/A,30.27,33.1,,9:53 PM,10.0,Calm,Calm,0,Tulsa,Oklahoma,74104
22,Clear,2016-01-03 04:53:00,28.0,,-,92,N/A,30.27,30.0,,10:53 PM,10.0,Calm,Calm,0,Tulsa,Oklahoma,74104
23,Clear,2016-01-03 05:53:00,25.0,,-,88,N/A,30.27,28.0,,11:53 PM,9.0,Calm,Calm,0,Tulsa,Oklahoma,74104
0,Clear,2016-01-03 06:53:00,23.0,,-,92,N/A,30.27,25.0,,12:53 AM,9.0,Calm,Calm,0,Tulsa,Oklahoma,74104
1,Clear,2016-01-03 07:53:00,23.0,,-,88,N/A,30.25,26.1,,1:53 AM,6.0,Calm,Calm,0,Tulsa,Oklahoma,74104
2,Clear,2016-01-03 08:53:00,24.1,,-,92,N/A,30.25,26.1,,2:53 AM,5.0,Calm,Calm,0,Tulsa,Oklahoma,74104
3,Clear,2016-01-03 09:53:00,24.1,,-,96,N/A,30.25,25.0,,3:53 AM,5.0,Calm,Calm,0,Tulsa,Oklahoma,74104
4,Clear,2016-01-03 10:53:00,21.9,,-,91,N/A,30.26,24.1,,4:53 AM,4.0,Calm,Calm,0,Tulsa,Oklahoma,74104
5,Clear,2016-01-03 11:53:00,21.9,,-,91,N/A,30.26,24.1,,5:53 AM,6.0,Calm,Calm,0,Tulsa,Oklahoma,74104
6,Clear,2016-01-03 12:53:00,21.0,,-,92,N/A,30.28,23.0,,6:53 AM,4.0,Calm,Calm,0,Tulsa,Oklahoma,74104
7,Clear,2016-01-03 13:53:00,21.9,,-,91,N/A,30.30,24.1,,7:53 AM,4.0,Calm,Calm,0,Tulsa,Oklahoma,74104
8,Clear,2016-01-03 14:53:00,27.0,,-,72,N/A,30.32,35.1,,8:53 AM,10.0,North,5.8,10,Tulsa,Oklahoma,74104
9,Clear,2016-01-03 15:53:00,24.1,,-,57,N/A,30.33,37.9,,9:53 AM,10.0,North,13.8,10,Tulsa,Oklahoma,74104
10,Clear,2016-01-03 16:53:00,25.0,,-,53,N/A,30.33,41.0,,10:53 AM,10.0,NNE,11.5,30,Tulsa,Oklahoma,74104
11,Clear,2016-01-03 17:53:00,25.0,,-,47,N/A,30.32,44.1,,11:53 AM,10.0,North,8.1,10,Tulsa,Oklahoma,74104
12,Clear,2016-01-03 18:53:00,26.1,,-,44,N/A,30.31,46.9,,12:53 PM,10.0,NNW,8.1,340,Tulsa,Oklahoma,74104
13,Clear,2016-01-03 19:53:00,26.1,,-,42,N/A,30.30,48.0,,1:53 PM,10.0,NNW,6.9,340,Tulsa,Oklahoma,74104
14,Clear,2016-01-03 20:53:00,26.1,,-,41,N/A,30.30,48.9,,2:53 PM,10.0,NNE,11.5,20,Tulsa,Oklahoma,74104
15,Clear,2016-01-03 21:53:00,25.0,,-,41,N/A,30.30,48.0,,3:53 PM,10.0,NNE,9.2,20,Tulsa,Oklahoma,74104
16,Clear,2016-01-03 22:53:00,25.0,,-,44,N/A,30.32,46.0,,4:53 PM,10.0,North,9.2,10,Tulsa,Oklahoma,74104
17,Clear,2016-01-03 23:53:00,26.1,,-,53,N/A,30.34,42.1,,5:53 PM,10.0,North,4.6,10,Tulsa,Oklahoma,74104
18,Clear,2016-01-04 00:53:00,27.0,,-,60,N/A,30.37,39.9,,6:53 PM,10.0,North,5.8,360,Tulsa,Oklahoma,74104
19,Clear,2016-01-04 01:53:00,28.0,,-,70,N/A,30.38,37.0,,7:53 PM,10.0,North,3.5,10,Tulsa,Oklahoma,74104
20,Clear,2016-01-04 02:53:00,28.0,,-,73,N/A,30.38,36.0,,8:53 PM,10.0,North,3.5,360,Tulsa,Oklahoma,74104
21,Clear,2016-01-04 03:53:00,27.0,,-,72,N/A,30.39,35.1,,9:53 PM,10.0,North,3.5,360,Tulsa,Oklahoma,74104
22,Clear,2016-01-04 04:53:00,27.0,,-,78,N/A,30.41,33.1,,10:53 PM,10.0,North,5.8,360,Tulsa,Oklahoma,74104
23,Clear,2016-01-04 05:53:00,27.0,,-,82,N/A,30.41,32.0,,11:53 PM,10.0,North,3.5,10,Tulsa,Oklahoma,74104
0,Clear,2016-01-04 06:53:00,26.1,,-,82,N/A,30.40,30.9,,12:53 AM,10.0,North,3.5,10,Tulsa,Oklahoma,74104
1,Clear,2016-01-04 07:53:00,26.1,,-,82,N/A,30.39,30.9,,1:53 AM,10.0,North,6.9,10,Tulsa,Oklahoma,74104
2,Clear,2016-01-04 08:53:00,25.0,,-,82,N/A,30.41,30.0,,2:53 AM,10.0,North,4.6,360,Tulsa,Oklahoma,74104
3,Clear,2016-01-04 09:53:00,24.1,,-,82,N/A,30.41,28.9,,3:53 AM,10.0,NNE,6.9,20,Tulsa,Oklahoma,74104
4,Clear,2016-01-04 10:53:00,24.1,,-,85,N/A,30.42,28.0,,4:53 AM,10.0,NNE,6.9,20,Tulsa,Oklahoma,74104
5,Clear,2016-01-04 11:53:00,23.0,,-,85,N/A,30.44,27.0,,5:53 AM,10.0,North,3.5,10,Tulsa,Oklahoma,74104
6,Clear,2016-01-04 12:53:00,21.9,,-,88,N/A,30.46,25.0,,6:53 AM,10.0,NNE,4.6,20,Tulsa,Oklahoma,74104
7,Clear,2016-01-04 13:53:00,21.9,,-,88,N/A,30.48,25.0,,7:53 AM,10.0,NNE,6.9,20,Tulsa,Oklahoma,74104
8,Clear,2016-01-04 14:53:00,23.0,,-,81,N/A,30.50,28.0,,8:53 AM,10.0,NNE,9.2,30,Tulsa,Oklahoma,74104
9,Mostly Cloudy,2016-01-04 15:51:00,24.8,,-,86,N/A,30.49,28.4,,9:51 AM,9.0,North,9.2,10,Tulsa,Oklahoma,74104
10,Mostly Cloudy,2016-01-04 15:53:00,24.1,,-,85,N/A,30.52,28.0,,9:53 AM,9.0,NNE,10.4,20,Tulsa,Oklahoma,74104
11,Overcast,2016-01-04 16:16:00,23.0,,-,85,N/A,30.50,27.0,,10:16 AM,7.0,North,8.1,10,Tulsa,Oklahoma,74104
12,Overcast,2016-01-04 16:53:00,23.0,,-,85,N/A,30.54,27.0,,10:53 AM,9.0,NNE,9.2,20,Tulsa,Oklahoma,74104
13,Overcast,2016-01-04 17:53:00,24.1,,-,85,N/A,30.53,28.0,,11:53 AM,7.0,NNE,8.1,20,Tulsa,Oklahoma,74104
14,Overcast,2016-01-04 18:53:00,24.1,,-,79,N/A,30.50,30.0,,12:53 PM,9.0,ENE,5.8,60,Tulsa,Oklahoma,74104
15,Mostly Cloudy,2016-01-04 19:53:00,24.1,,-,76,N/A,30.47,30.9,,1:53 PM,10.0,North,6.9,350,Tulsa,Oklahoma,74104
16,Scattered Clouds,2016-01-04 20:10:00,24.1,,-,73,N/A,30.42,32.0,,2:10 PM,10.0,NNE,9.2,30,Tulsa,Oklahoma,74104
17,Clear,2016-01-04 20:53:00,25.0,,-,72,N/A,30.44,33.1,,2:53 PM,10.0,NNE,6.9,20,Tulsa,Oklahoma,74104
18,Clear,2016-01-04 21:53:00,24.1,,-,67,N/A,30.44,34.0,,3:53 PM,10.0,NNE,8.1,30,Tulsa,Oklahoma,74104
19,Clear,2016-01-04 22:53:00,24.1,,-,67,N/A,30.44,34.0,,4:53 PM,10.0,NE,5.8,40,Tulsa,Oklahoma,74104
20,Clear,2016-01-04 23:53:00,23.0,,-,75,N/A,30.43,30.0,,5:53 PM,10.0,NNE,3.5,20,Tulsa,Oklahoma,74104
21,Clear,2016-01-05 00:53:00,23.0,,-,81,N/A,30.43,28.0,,6:53 PM,10.0,NNE,4.6,20,Tulsa,Oklahoma,74104
22,Clear,2016-01-05 01:53:00,23.0,,-,85,N/A,30.43,27.0,,7:53 PM,10.0,NNE,3.5,30,Tulsa,Oklahoma,74104
23,Clear,2016-01-05 02:53:00,23.0,,-,81,N/A,30.44,28.0,,8:53 PM,10.0,NNE,4.6,30,Tulsa,Oklahoma,74104
0,Clear,2016-01-05 07:53:00,21.0,,-,92,N/A,30.41,23.0,,1:53 AM,10.0,Calm,Calm,0,Tulsa,Oklahoma,74104
1,Clear,2016-01-05 08:53:00,21.9,,-,91,N/A,30.43,24.1,,2:53 AM,7.0,Calm,Calm,0,Tulsa,Oklahoma,74104
2,Clear,2016-01-05 09:53:00,24.1,,-,79,N/A,30.43,30.0,,3:53 AM,10.0,SSE,6.9,160,Tulsa,Oklahoma,74104
3,Clear,2016-01-05 10:53:00,23.0,,-,78,N/A,30.43,28.9,,4:53 AM,10.0,South,5.8,170,Tulsa,Oklahoma,74104
4,Clear,2016-01-05 11:53:00,21.9,,-,78,N/A,30.45,28.0,,5:53 AM,10.0,South,5.8,170,Tulsa,Oklahoma,74104
5,Clear,2016-01-05 12:53:00,21.9,,-,78,N/A,30.46,28.0,,6:53 AM,10.0,SSE,8.1,160,Tulsa,Oklahoma,74104
6,Clear,2016-01-05 13:53:00,21.9,,-,78,N/A,30.46,28.0,,7:53 AM,10.0,South,9.2,170,Tulsa,Oklahoma,74104
7,Clear,2016-01-05 14:53:00,21.9,,-,75,N/A,30.47,28.9,,8:53 AM,10.0,South,9.2,170,Tulsa,Oklahoma,74104
8,Clear,2016-01-05 15:53:00,24.1,,-,73,N/A,30.46,32.0,,9:53 AM,10.0,SSE,9.2,160,Tulsa,Oklahoma,74104
9,Clear,2016-01-05 16:53:00,24.1,,-,70,N/A,30.45,33.1,,10:53 AM,10.0,South,9.2,170,Tulsa,Oklahoma,74104
10,Clear,2016-01-05 17:53:00,25.0,,-,64,N/A,30.41,36.0,,11:53 AM,10.0,South,8.1,180,Tulsa,Oklahoma,74104
11,Clear,2016-01-05 18:53:00,24.1,,-,57,N/A,30.36,37.9,,12:53 PM,10.0,SSE,10.4,160,Tulsa,Oklahoma,74104
12,Clear,2016-01-05 19:53:00,25.0,,-,57,N/A,30.33,39.0,,1:53 PM,10.0,South,8.1,170,Tulsa,Oklahoma,74104
13,Clear,2016-01-05 20:53:00,24.1,,-,53,N/A,30.30,39.9,,2:53 PM,10.0,SSE,8.1,150,Tulsa,Oklahoma,74104
14,Clear,2016-01-05 21:53:00,25.0,,-,53,N/A,30.30,41.0,,3:53 PM,10.0,SE,6.9,140,Tulsa,Oklahoma,74104
15,Clear,2016-01-05 22:53:00,25.0,,-,53,N/A,30.30,41.0,,4:53 PM,10.0,SSE,5.8,150,Tulsa,Oklahoma,74104
16,Clear,2016-01-05 23:53:00,24.1,,-,55,N/A,30.29,39.0,,5:53 PM,10.0,SE,5.8,140,Tulsa,Oklahoma,74104
17,Clear,2016-01-06 00:53:00,25.0,,-,67,N/A,30.30,35.1,,6:53 PM,10.0,SE,6.9,130,Tulsa,Oklahoma,74104
18,Clear,2016-01-06 01:53:00,25.0,,-,67,N/A,30.28,35.1,,7:53 PM,10.0,SE,4.6,140,Tulsa,Oklahoma,74104
19,Clear,2016-01-06 02:53:00,25.0,,-,64,N/A,30.28,36.0,,8:53 PM,10.0,SSE,5.8,150,Tulsa,Oklahoma,74104
20,Clear,2016-01-06 03:53:00,25.0,,-,62,N/A,30.28,37.0,,9:53 PM,10.0,South,5.8,170,Tulsa,Oklahoma,74104
21,Clear,2016-01-06 04:53:00,25.0,,-,62,N/A,30.26,37.0,,10:53 PM,10.0,SSE,9.2,160,Tulsa,Oklahoma,74104
22,Partly Cloudy,2016-01-06 05:53:00,25.0,,-,64,N/A,30.25,36.0,,11:53 PM,10.0,SSE,6.9,160,Tulsa,Oklahoma,74104
0,Scattered Clouds,2016-01-06 06:53:00,26.1,,-,70,N/A,30.26,35.1,,12:53 AM,10.0,South,5.8,180,Tulsa,Oklahoma,74104
1,Overcast,2016-01-06 07:53:00,26.1,,-,70,N/A,30.25,35.1,,1:53 AM,10.0,South,4.6,170,Tulsa,Oklahoma,74104
2,Overcast,2016-01-06 08:53:00,27.0,,-,72,N/A,30.24,35.1,,2:53 AM,10.0,Calm,Calm,0,Tulsa,Oklahoma,74104
3,Overcast,2016-01-06 09:53:00,26.1,,-,67,N/A,30.23,36.0,,3:53 AM,10.0,South,5.8,180,Tulsa,Oklahoma,74104
4,Overcast,2016-01-06 10:53:00,26.1,,-,70,N/A,30.21,35.1,,4:53 AM,10.0,SSE,8.1,160,Tulsa,Oklahoma,74104
5,Overcast,2016-01-06 11:53:00,26.1,,-,67,N/A,30.20,36.0,,5:53 AM,10.0,SSE,8.1,150,Tulsa,Oklahoma,74104
6,Overcast,2016-01-06 12:53:00,26.1,,-,67,N/A,30.20,36.0,,6:53 AM,10.0,SSE,10.4,150,Tulsa,Oklahoma,74104
7,Overcast,2016-01-06 13:09:00,26.1,,-,67,N/A,30.17,36.0,,7:09 AM,10.0,SSE,8.1,160,Tulsa,Oklahoma,74104
8,Overcast,2016-01-06 13:53:00,26.1,,-,65,N/A,30.19,37.0,,7:53 AM,10.0,SSE,6.9,160,Tulsa,Oklahoma,74104
9,Overcast,2016-01-06 14:53:00,27.0,,-,65,N/A,30.20,37.9,,8:53 AM,10.0,SSE,8.1,160,Tulsa,Oklahoma,74104
10,Overcast,2016-01-06 15:53:00,28.0,,-,68,N/A,30.20,37.9,,9:53 AM,10.0,South,11.5,170,Tulsa,Oklahoma,74104
11,Overcast,2016-01-06 16:53:00,30.9,,-,73,N/A,30.19,39.0,,10:53 AM,10.0,South,12.7,170,Tulsa,Oklahoma,74104
12,Overcast,2016-01-06 17:53:00,30.0,,-,68,N/A,30.17,39.9,,11:53 AM,10.0,South,9.2,170,Tulsa,Oklahoma,74104
13,Overcast,2016-01-06 18:53:00,32.0,,-,70,N/A,30.12,41.0,,12:53 PM,10.0,South,12.7,170,Tulsa,Oklahoma,74104
14,Overcast,2016-01-06 19:53:00,32.0,,20.7,65,N/A,30.09,43.0,,1:53 PM,10.0,South,13.8,170,Tulsa,Oklahoma,74104
15,Overcast,2016-01-06 20:53:00,34.0,,21.9,73,N/A,30.07,42.1,,2:53 PM,10.0,South,10.4,170,Tulsa,Oklahoma,74104
16,Overcast,2016-01-06 21:53:00,34.0,,-,71,N/A,30.06,43.0,,3:53 PM,10.0,South,9.2,170,Tulsa,Oklahoma,74104
17,Overcast,2016-01-06 22:53:00,34.0,,-,68,N/A,30.05,44.1,,4:53 PM,10.0,SSE,8.1,160,Tulsa,Oklahoma,74104
18,Overcast,2016-01-06 23:53:00,35.1,,-,71,N/A,30.05,44.1,,5:53 PM,10.0,South,9.2,170,Tulsa,Oklahoma,74104
19,Overcast,2016-01-07 00:53:00,37.0,,-,76,N/A,30.05,44.1,,6:53 PM,10.0,South,13.8,170,Tulsa,Oklahoma,74104
20,Overcast,2016-01-07 01:53:00,37.0,,-,76,N/A,30.04,44.1,,7:53 PM,10.0,SSE,6.9,150,Tulsa,Oklahoma,74104
21,Overcast,2016-01-07 02:53:00,35.1,,-,74,N/A,30.04,43.0,,8:53 PM,10.0,South,10.4,170,Tulsa,Oklahoma,74104
22,Overcast,2016-01-07 03:53:00,35.1,,-,74,N/A,30.03,43.0,,9:53 PM,10.0,South,8.1,170,Tulsa,Oklahoma,74104
23,Light Rain,2016-01-07 04:53:00,37.0,Rain,-,80,0.00,30.01,43.0,,10:53 PM,6.0,South,8.1,170,Tulsa,Oklahoma,74104
24,Light Rain,2016-01-07 05:53:00,37.9,Rain,-,82,0.00,29.99,43.0,,11:53 PM,10.0,SSE,5.8,160,Tulsa,Oklahoma,74104
0,Light Rain,2016-01-07 06:32:00,39.9,Rain,-,92,0.04,29.95,42.1,,12:32 AM,4.0,SSE,6.9,150,Tulsa,Oklahoma,74104
1,Light Rain,2016-01-07 06:53:00,39.9,Rain,-,92,0.04,29.96,42.1,,12:53 AM,10.0,SE,5.8,140,Tulsa,Oklahoma,74104
2,Overcast,2016-01-07 07:21:00,39.9,,-,92,0.00,29.93,42.1,,1:21 AM,10.0,SSE,5.8,150,Tulsa,Oklahoma,74104
3,Light Rain,2016-01-07 07:37:00,39.9,Rain,-,92,0.01,29.91,42.1,,1:37 AM,9.0,SE,5.8,140,Tulsa,Oklahoma,74104
4,Light Rain,2016-01-07 07:53:00,41.0,Rain,-,93,0.01,29.92,43.0,,1:53 AM,9.0,SSE,6.9,150,Tulsa,Oklahoma,74104
5,Light Rain,2016-01-07 08:00:00,41.0,Rain,-,93,0.01,29.90,43.0,,2:00 AM,10.0,SSE,5.8,160,Tulsa,Oklahoma,74104
6,Light Rain,2016-01-07 08:27:00,41.0,Rain,-,93,0.03,29.90,43.0,,2:27 AM,6.0,SE,9.2,130,Tulsa,Oklahoma,74104
7,Overcast,2016-01-07 08:53:00,41.0,,-,93,0.03,29.93,43.0,,2:53 AM,10.0,South,5.8,180,Tulsa,Oklahoma,74104
8,Light Rain,2016-01-07 09:53:00,42.1,Rain,-,97,0.04,29.91,43.0,,3:53 AM,2.5,SSE,3.5,160,Tulsa,Oklahoma,74104
9,Rain,2016-01-07 10:03:00,42.1,Rain,-,97,0.02,29.89,43.0,,4:03 AM,3.0,SSE,5.8,150,Tulsa,Oklahoma,74104
10,Rain,2016-01-07 10:42:00,43.0,Rain,-,100,0.10,29.89,43.0,,4:42 AM,2.0,South,3.5,170,Tulsa,Oklahoma,74104
11,Light Rain,2016-01-07 10:53:00,43.0,Rain,-,100,0.11,29.90,43.0,,4:53 AM,3.0,SSE,3.5,150,Tulsa,Oklahoma,74104
12,Overcast,2016-01-07 11:28:00,42.1,,-,97,0.00,29.87,43.0,,5:28 AM,6.0,SSE,5.8,160,Tulsa,Oklahoma,74104
13,Overcast,2016-01-07 11:53:00,42.1,,-,97,0.00,29.89,43.0,,5:53 AM,5.0,SSE,4.6,150,Tulsa,Oklahoma,74104
14,Overcast,2016-01-07 12:23:00,42.1,,-,97,N/A,29.87,43.0,,6:23 AM,4.0,SSE,5.8,150,Tulsa,Oklahoma,74104
15,Light Rain,2016-01-07 12:53:00,42.1,Rain,-,97,0.01,29.88,43.0,,6:53 AM,4.0,SE,4.6,140,Tulsa,Oklahoma,74104
16,Light Rain,2016-01-07 13:11:00,43.0,Rain,-,100,0.00,29.86,43.0,,7:11 AM,2.5,SSE,4.6,150,Tulsa,Oklahoma,74104
17,Light Rain,2016-01-07 13:19:00,43.0,Rain,-,100,0.00,29.86,43.0,,7:19 AM,4.0,SSE,5.8,150,Tulsa,Oklahoma,74104
18,Overcast,2016-01-07 13:53:00,43.0,,-,96,0.00,29.88,44.1,,7:53 AM,5.0,SE,5.8,140,Tulsa,Oklahoma,74104
19,Overcast,2016-01-07 14:28:00,43.0,,-,96,N/A,29.85,44.1,,8:28 AM,2.5,SSE,5.8,160,Tulsa,Oklahoma,74104
20,Overcast,2016-01-07 14:51:00,42.8,,-,93,N/A,29.85,44.6,,8:51 AM,3.0,SSE,5.8,160,Tulsa,Oklahoma,74104
21,Overcast,2016-01-07 14:53:00,43.0,,-,96,N/A,29.87,44.1,,8:53 AM,3.0,SSE,5.8,150,Tulsa,Oklahoma,74104
22,Overcast,2016-01-07 15:13:00,43.0,,-,96,N/A,29.85,44.1,,9:13 AM,2.0,SSE,5.8,160,Tulsa,Oklahoma,74104
23,Overcast,2016-01-07 15:21:00,44.1,,-,100,N/A,29.85,44.1,,9:21 AM,1.8,South,5.8,170,Tulsa,Oklahoma,74104
24,Overcast,2016-01-07 15:46:00,44.1,,-,97,N/A,29.84,45.0,,9:46 AM,2.0,SSE,5.8,160,Tulsa,Oklahoma,74104
25,Overcast,2016-01-07 15:53:00,44.1,,-,97,N/A,29.86,45.0,,9:53 AM,2.0,SSE,6.9,160,Tulsa,Oklahoma,74104
26,Overcast,2016-01-07 16:18:00,45.0,,-,96,N/A,29.84,46.0,,10:18 AM,4.0,South,9.2,170,Tulsa,Oklahoma,74104
27,Overcast,2016-01-07 16:53:00,46.0,,-,97,N/A,29.85,46.9,,10:53 AM,2.0,South,9.2,170,Tulsa,Oklahoma,74104
28,Overcast,2016-01-07 17:00:00,46.0,,-,97,N/A,29.83,46.9,,11:00 AM,5.0,SSE,8.1,160,Tulsa,Oklahoma,74104
29,Overcast,2016-01-07 17:53:00,46.9,,-,96,N/A,29.82,48.0,,11:53 AM,4.0,SSE,8.1,160,Tulsa,Oklahoma,74104
30,Overcast,2016-01-07 18:53:00,46.9,,18.4,93,N/A,29.77,48.9,,12:53 PM,6.0,SSE,10.4,150,Tulsa,Oklahoma,74104
31,Overcast,2016-01-07 19:53:00,46.9,,-,93,0.00,29.73,48.9,,1:53 PM,4.0,SSE,10.4,150,Tulsa,Oklahoma,74104
32,Overcast,2016-01-07 20:53:00,48.0,,-,97,N/A,29.72,48.9,,2:53 PM,5.0,SSE,8.1,150,Tulsa,Oklahoma,74104
33,Overcast,2016-01-07 21:53:00,48.9,,-,96,N/A,29.70,50.0,,3:53 PM,10.0,SSE,8.1,150,Tulsa,Oklahoma,74104
34,Overcast,2016-01-07 22:15:00,48.9,,-,92,N/A,29.68,51.1,,4:15 PM,10.0,SSE,6.9,150,Tulsa,Oklahoma,74104
35,Mostly Cloudy,2016-01-07 22:53:00,50.0,,-,93,N/A,29.70,52.0,,4:53 PM,10.0,SSE,8.1,160,Tulsa,Oklahoma,74104
36,Overcast,2016-01-07 23:53:00,48.9,,-,92,N/A,29.71,51.1,,5:53 PM,10.0,SSE,8.1,150,Tulsa,Oklahoma,74104
37,Overcast,2016-01-08 00:13:00,48.9,,-,92,N/A,29.70,51.1,,6:13 PM,10.0,SSE,4.6,150,Tulsa,Oklahoma,74104
38,Overcast,2016-01-08 00:28:00,48.9,,-,92,N/A,29.70,51.1,,6:28 PM,10.0,SSE,5.8,160,Tulsa,Oklahoma,74104
39,Overcast,2016-01-08 00:53:00,48.9,,-,92,N/A,29.72,51.1,,6:53 PM,10.0,South,6.9,170,Tulsa,Oklahoma,74104
40,Overcast,2016-01-08 01:53:00,48.9,,-,92,N/A,29.71,51.1,,7:53 PM,10.0,SSE,5.8,160,Tulsa,Oklahoma,74104
41,Overcast,2016-01-08 02:34:00,48.9,,-,92,N/A,29.70,51.1,,8:34 PM,10.0,South,8.1,170,Tulsa,Oklahoma,74104
42,Overcast,2016-01-08 02:53:00,48.9,,-,92,N/A,29.72,51.1,,8:53 PM,10.0,South,8.1,170,Tulsa,Oklahoma,74104
43,Overcast,2016-01-08 03:53:00,48.0,,-,93,N/A,29.72,50.0,,9:53 PM,8.0,SW,3.5,230,Tulsa,Oklahoma,74104
44,Overcast,2016-01-08 04:18:00,48.0,,-,97,N/A,29.71,48.9,,10:18 PM,7.0,Calm,Calm,0,Tulsa,Oklahoma,74104
45,Mostly Cloudy,2016-01-08 04:53:00,46.9,,-,96,N/A,29.72,48.0,,10:53 PM,6.0,Calm,Calm,0,Tulsa,Oklahoma,74104
46,Partly Cloudy,2016-01-08 05:08:00,46.0,,-,97,N/A,29.71,46.9,,11:08 PM,1.5,Calm,Calm,0,Tulsa,Oklahoma,74104
47,Fog,2016-01-08 05:13:00,46.0,Fog,-,100,N/A,29.71,46.0,,11:13 PM,0.5,Calm,Calm,0,Tulsa,Oklahoma,74104
48,Fog,2016-01-08 05:53:00,42.1,Fog,-,97,N/A,29.73,43.0,,11:53 PM,0.2,Calm,Calm,0,Tulsa,Oklahoma,74104
0,Fog,2016-01-08 06:50:00,41.0,Fog,-,100,N/A,29.71,41.0,,12:50 AM,0.2,Calm,Calm,0,Tulsa,Oklahoma,74104
1,Fog,2016-01-08 06:53:00,39.9,Fog,-,96,N/A,29.73,41.0,,12:53 AM,0.2,Calm,Calm,0,Tulsa,Oklahoma,74104
2,Mostly Cloudy,2016-01-08 07:36:00,41.0,,-,100,N/A,29.72,41.0,,1:36 AM,0.8,Calm,Calm,0,Tulsa,Oklahoma,74104
3,Mostly Cloudy,2016-01-08 07:44:00,41.0,,-,96,N/A,29.72,42.1,,1:44 AM,2.0,WSW,3.5,240,Tulsa,Oklahoma,74104
4,Scattered Clouds,2016-01-08 07:53:00,42.1,,-,97,N/A,29.73,43.0,,1:53 AM,2.5,WSW,3.5,240,Tulsa,Oklahoma,74104
5,Partly Cloudy,2016-01-08 08:02:00,41.0,,-,96,N/A,29.72,42.1,,2:02 AM,5.0,WSW,3.5,240,Tulsa,Oklahoma,74104
6,Mostly Cloudy,2016-01-08 08:53:00,39.9,,-,100,N/A,29.75,39.9,,2:53 AM,6.0,Calm,Calm,0,Tulsa,Oklahoma,74104
7,Mostly Cloudy,2016-01-08 09:33:00,39.0,,-,100,N/A,29.74,39.0,,3:33 AM,1.8,Calm,Calm,0,Tulsa,Oklahoma,74104
8,Partly Cloudy,2016-01-08 09:53:00,37.9,,-,100,N/A,29.76,37.9,,3:53 AM,1.0,Calm,Calm,0,Tulsa,Oklahoma,74104
9,Clear,2016-01-08 10:08:00,37.0,,-,97,N/A,29.74,37.9,,4:08 AM,0.8,Calm,Calm,0,Tulsa,Oklahoma,74104
10,Mist,2016-01-08 10:16:00,37.9,,-,96,N/A,29.75,39.0,,4:16 AM,1.0,West,4.6,270,Tulsa,Oklahoma,74104
11,Mostly Cloudy,2016-01-08 10:22:00,39.9,,-,96,N/A,29.75,41.0,,4:22 AM,2.0,West,5.8,280,Tulsa,Oklahoma,74104
12,Mostly Cloudy,2016-01-08 10:30:00,41.0,,-,96,N/A,29.75,42.1,,4:30 AM,7.0,Variable,5.8,0,Tulsa,Oklahoma,74104
13,Overcast,2016-01-08 10:53:00,41.0,,-,96,N/A,29.77,42.1,,4:53 AM,9.0,West,4.6,270,Tulsa,Oklahoma,74104
14,Overcast,2016-01-08 11:53:00,39.9,,-,92,N/A,29.80,42.1,,5:53 AM,10.0,Calm,Calm,0,Tulsa,Oklahoma,74104
15,Overcast,2016-01-08 12:53:00,41.0,,-,96,N/A,29.81,42.1,,6:53 AM,10.0,Calm,Calm,0,Tulsa,Oklahoma,74104
16,Overcast,2016-01-08 13:44:00,41.0,,-,93,N/A,29.82,43.0,,7:44 AM,10.0,Calm,Calm,0,Tulsa,Oklahoma,74104
17,Overcast,2016-01-08 13:53:00,39.9,,-,89,N/A,29.84,43.0,,7:53 AM,10.0,Calm,Calm,0,Tulsa,Oklahoma,74104
18,Overcast,2016-01-08 14:53:00,39.9,,-,92,N/A,29.85,42.1,,8:53 AM,10.0,NW,5.8,320,Tulsa,Oklahoma,74104
19,Overcast,2016-01-08 15:41:00,39.0,,-,93,N/A,29.87,41.0,,9:41 AM,10.0,WNW,6.9,300,Tulsa,Oklahoma,74104
20,Overcast,2016-01-08 15:53:00,39.0,,-,93,N/A,29.88,41.0,,9:53 AM,10.0,Variable,4.6,0,Tulsa,Oklahoma,74104
21,Overcast,2016-01-08 16:44:00,37.9,,-,85,N/A,29.88,42.1,,10:44 AM,10.0,Variable,3.5,0,Tulsa,Oklahoma,74104
22,Overcast,2016-01-08 16:53:00,37.9,,-,82,N/A,29.90,43.0,,10:53 AM,10.0,West,4.6,270,Tulsa,Oklahoma,74104
23,Overcast,2016-01-08 17:53:00,37.9,,-,79,N/A,29.87,44.1,,11:53 AM,10.0,NNW,5.8,340,Tulsa,Oklahoma,74104
24,Overcast,2016-01-08 18:41:00,37.9,,-,76,N/A,29.84,45.0,,12:41 PM,10.0,Variable,5.8,0,Tulsa,Oklahoma,74104
25,Overcast,2016-01-08 18:53:00,37.9,,-,76,N/A,29.85,45.0,,12:53 PM,10.0,NNW,3.5,340,Tulsa,Oklahoma,74104
26,Overcast,2016-01-08 19:53:00,39.0,,-,80,N/A,29.85,45.0,,1:53 PM,10.0,NNW,3.5,330,Tulsa,Oklahoma,74104
27,Overcast,2016-01-08 20:53:00,37.9,,-,76,N/A,29.84,45.0,,2:53 PM,10.0,North,5.8,360,Tulsa,Oklahoma,74104
28,Light Rain,2016-01-08 21:53:00,37.9,Rain,-,79,0.00,29.86,44.1,,3:53 PM,10.0,North,9.2,10,Tulsa,Oklahoma,74104
29,Light Rain,2016-01-08 22:53:00,37.9,Rain,-,82,0.01,29.87,43.0,,4:53 PM,10.0,North,6.9,350,Tulsa,Oklahoma,74104
30,Overcast,2016-01-08 23:53:00,37.0,,-,82,0.00,29.89,42.1,,5:53 PM,10.0,North,5.8,350,Tulsa,Oklahoma,74104
31,Overcast,2016-01-09 00:53:00,37.0,,-,86,N/A,29.89,41.0,,6:53 PM,10.0,North,9.2,350,Tulsa,Oklahoma,74104
32,Light Rain,2016-01-09 01:53:00,37.0,Rain,-,86,0.01,29.91,41.0,,7:53 PM,10.0,NNE,8.1,20,Tulsa,Oklahoma,74104
33,Light Rain,2016-01-09 02:53:00,37.0,Rain,-,89,0.02,29.94,39.9,,8:53 PM,9.0,North,5.8,350,Tulsa,Oklahoma,74104
34,Light Rain,2016-01-09 03:11:00,37.0,Rain,-,89,0.01,29.91,39.9,,9:11 PM,10.0,North,5.8,350,Tulsa,Oklahoma,74104
35,Light Rain,2016-01-09 03:53:00,36.0,Rain,16.1,89,0.02,29.91,39.0,,9:53 PM,9.0,North,10.4,350,Tulsa,Oklahoma,74104
36,Light Rain,2016-01-09 04:53:00,35.1,Rain,16.1,89,0.02,29.90,37.9,,10:53 PM,10.0,NNW,10.4,340,Tulsa,Oklahoma,74104
37,Overcast,2016-01-09 05:53:00,35.1,,-,93,0.01,29.93,37.0,,11:53 PM,10.0,NNE,6.9,30,Tulsa,Oklahoma,74104
0,Overcast,2016-01-09 06:53:00,35.1,,-,93,N/A,29.91,37.0,,12:53 AM,10.0,North,8.1,10,Tulsa,Oklahoma,74104
1,Overcast,2016-01-09 07:53:00,35.1,,18.4,89,N/A,29.91,37.9,,1:53 AM,10.0,North,5.8,10,Tulsa,Oklahoma,74104
2,Overcast,2016-01-09 08:53:00,34.0,,17.3,86,N/A,29.92,37.9,,2:53 AM,10.0,North,9.2,360,Tulsa,Oklahoma,74104
3,Overcast,2016-01-09 09:53:00,34.0,,-,89,N/A,29.91,37.0,,3:53 AM,10.0,North,6.9,360,Tulsa,Oklahoma,74104
4,Overcast,2016-01-09 10:53:00,33.1,,23.0,86,N/A,29.91,37.0,,4:53 AM,10.0,North,8.1,360,Tulsa,Oklahoma,74104
5,Overcast,2016-01-09 11:53:00,33.1,,18.4,86,N/A,29.94,37.0,,5:53 AM,9.0,North,10.4,360,Tulsa,Oklahoma,74104
6,Light Snow,2016-01-09 12:53:00,32.0,Snow,17.3,89,0.00,29.97,35.1,,6:53 AM,4.0,North,8.1,360,Tulsa,Oklahoma,74104
7,Light Snow,2016-01-09 13:02:00,32.0,Snow,18.4,92,0.01,29.95,34.0,,7:02 AM,2.5,North,8.1,350,Tulsa,Oklahoma,74104
8,Light Snow,2016-01-09 13:10:00,32.0,Snow,-,96,0.02,29.95,33.1,,7:10 AM,1.8,NNW,8.1,340,Tulsa,Oklahoma,74104
9,Light Snow,2016-01-09 13:21:00,30.9,Snow,-,92,0.02,29.95,33.1,,7:21 AM,2.5,North,9.2,350,Tulsa,Oklahoma,74104
10,Light Snow,2016-01-09 13:32:00,30.9,Snow,18.4,92,0.02,29.95,33.1,,7:32 AM,3.0,North,9.2,350,Tulsa,Oklahoma,74104
11,Light Snow,2016-01-09 13:53:00,32.0,Snow,19.6,96,0.02,29.98,33.1,,7:53 AM,4.0,NNW,9.2,340,Tulsa,Oklahoma,74104
12,Light Snow,2016-01-09 14:06:00,30.9,Snow,18.4,92,0.00,29.95,33.1,,8:06 AM,2.0,North,11.5,350,Tulsa,Oklahoma,74104
13,Light Snow,2016-01-09 14:18:00,30.9,Snow,-,92,0.00,29.95,33.1,,8:18 AM,2.0,North,6.9,360,Tulsa,Oklahoma,74104
14,Light Snow,2016-01-09 14:26:00,30.9,Snow,19.6,92,0.00,29.96,33.1,,8:26 AM,1.8,North,8.1,360,Tulsa,Oklahoma,74104
15,Light Snow,2016-01-09 14:53:00,30.9,Snow,-,92,0.01,30.00,33.1,,8:53 AM,1.0,North,10.4,350,Tulsa,Oklahoma,74104
16,Light Snow,2016-01-09 15:28:00,30.9,Snow,17.3,96,0.01,29.98,32.0,,9:28 AM,0.8,North,10.4,360,Tulsa,Oklahoma,74104
17,Snow,2016-01-09 15:30:00,30.9,Fog-Snow,16.1,96,0.01,29.99,32.0,,9:30 AM,0.5,NNW,9.2,340,Tulsa,Oklahoma,74104
18,Light Snow,2016-01-09 15:51:00,30.2,Snow,-,93,0.03,30.00,32.0,,9:51 AM,0.8,North,8.1,350,Tulsa,Oklahoma,74104
19,Light Snow,2016-01-09 15:53:00,30.9,Snow,-,96,0.03,30.02,32.0,,9:53 AM,0.8,NNW,8.1,340,Tulsa,Oklahoma,74104
20,Light Snow,2016-01-09 16:02:00,30.0,Snow,17.3,92,0.00,30.00,32.0,,10:02 AM,1.0,North,10.4,350,Tulsa,Oklahoma,74104
21,Light Snow,2016-01-09 16:35:00,28.9,Snow,23.0,88,0.00,30.01,32.0,,10:35 AM,1.2,North,8.1,350,Tulsa,Oklahoma,74104
22,Light Snow,2016-01-09 16:51:00,30.2,Snow,18.4,87,0.00,30.01,33.8,,10:51 AM,2.5,North,9.2,350,Tulsa,Oklahoma,74104
23,Light Snow,2016-01-09 16:53:00,30.0,Snow,18.4,89,0.00,30.04,33.1,,10:53 AM,2.5,North,11.5,350,Tulsa,Oklahoma,74104
24,Light Snow,2016-01-09 17:00:00,28.9,Snow,18.4,85,0.00,30.02,33.1,,11:00 AM,5.0,North,11.5,360,Tulsa,Oklahoma,74104
25,Overcast,2016-01-09 17:53:00,28.0,,18.4,82,0.00,30.04,33.1,,11:53 AM,10.0,NNW,9.2,340,Tulsa,Oklahoma,74104
26,Overcast,2016-01-09 18:53:00,26.1,,20.7,79,N/A,30.03,32.0,,12:53 PM,10.0,NNW,9.2,330,Tulsa,Oklahoma,74104
27,Overcast,2016-01-09 19:53:00,26.1,,-,79,N/A,30.02,32.0,,1:53 PM,10.0,NNW,9.2,340,Tulsa,Oklahoma,74104
28,Overcast,2016-01-09 20:53:00,24.1,,23.0,73,N/A,30.04,32.0,,2:53 PM,10.0,North,10.4,350,Tulsa,Oklahoma,74104
29,Overcast,2016-01-09 21:53:00,24.1,,-,73,N/A,30.07,32.0,,3:53 PM,10.0,NNW,9.2,330,Tulsa,Oklahoma,74104
30,Scattered Clouds,2016-01-09 22:53:00,23.0,,19.6,66,N/A,30.09,33.1,,4:53 PM,10.0,North,11.5,350,Tulsa,Oklahoma,74104
31,Clear,2016-01-09 23:53:00,23.0,,-,69,N/A,30.11,32.0,,5:53 PM,10.0,Variable,6.9,0,Tulsa,Oklahoma,74104
32,Scattered Clouds,2016-01-10 00:53:00,21.0,,-,67,N/A,30.15,30.9,,6:53 PM,10.0,NNW,8.1,330,Tulsa,Oklahoma,74104
33,Clear,2016-01-10 01:53:00,18.0,,-,64,N/A,30.19,28.9,,7:53 PM,10.0,North,11.5,350,Tulsa,Oklahoma,74104
34,Clear,2016-01-10 02:53:00,17.1,,-,66,N/A,30.21,27.0,,8:53 PM,10.0,NNW,10.4,340,Tulsa,Oklahoma,74104
35,Clear,2016-01-10 03:53:00,16.0,,17.3,71,N/A,30.25,24.1,,9:53 PM,10.0,NNW,9.2,330,Tulsa,Oklahoma,74104
36,Clear,2016-01-10 04:53:00,12.9,,-,68,N/A,30.26,21.9,,10:53 PM,10.0,North,6.9,350,Tulsa,Oklahoma,74104
37,Clear,2016-01-10 05:53:00,14.0,,-,74,N/A,30.28,21.0,,11:53 PM,10.0,NNW,11.5,340,Tulsa,Oklahoma,74104
0,Partly Cloudy,2016-01-10 06:53:00,12.9,,-,74,N/A,30.29,19.9,,12:53 AM,10.0,North,9.2,350,Tulsa,Oklahoma,74104
1,Mostly Cloudy,2016-01-10 07:53:00,12.0,,-,74,N/A,30.31,19.0,,1:53 AM,10.0,North,6.9,350,Tulsa,Oklahoma,74104
2,Scattered Clouds,2016-01-10 08:03:00,12.0,,-,74,N/A,30.28,19.0,,2:03 AM,10.0,Variable,6.9,0,Tulsa,Oklahoma,74104
3,Mostly Cloudy,2016-01-10 08:30:00,12.0,,-,74,N/A,30.29,19.0,,2:30 AM,10.0,Variable,4.6,0,Tulsa,Oklahoma,74104
4,Overcast,2016-01-10 08:53:00,12.0,,-,78,N/A,30.32,18.0,,2:53 AM,10.0,NNW,8.1,330,Tulsa,Oklahoma,74104
5,Partly Cloudy,2016-01-10 09:49:00,10.4,,-,73,N/A,30.30,17.6,,3:49 AM,10.0,Variable,5.8,0,Tulsa,Oklahoma,74104
6,Partly Cloudy,2016-01-10 09:53:00,10.0,,-,74,N/A,30.33,17.1,,3:53 AM,10.0,NNW,5.8,340,Tulsa,Oklahoma,74104
7,Mostly Cloudy,2016-01-10 10:27:00,10.0,,-,77,N/A,30.30,16.0,,4:27 AM,10.0,NNW,5.8,330,Tulsa,Oklahoma,74104
8,Overcast,2016-01-10 10:53:00,10.0,,-,77,N/A,30.35,16.0,,4:53 AM,10.0,Variable,6.9,0,Tulsa,Oklahoma,74104
9,Scattered Clouds,2016-01-10 11:50:00,6.8,,-,79,N/A,30.33,12.2,,5:50 AM,10.0,NNW,8.1,340,Tulsa,Oklahoma,74104
10,Scattered Clouds,2016-01-10 11:53:00,6.1,,-,74,N/A,30.37,12.9,,5:53 AM,10.0,NNW,8.1,330,Tulsa,Oklahoma,74104
11,Partly Cloudy,2016-01-10 12:53:00,6.1,,-,77,N/A,30.39,12.0,,6:53 AM,10.0,Variable,6.9,0,Tulsa,Oklahoma,74104
12,Clear,2016-01-10 13:53:00,5.0,,-,73,N/A,30.42,12.0,,7:53 AM,10.0,NNW,9.2,330,Tulsa,Oklahoma,74104
13,Clear,2016-01-10 14:53:00,6.1,,-,71,N/A,30.44,14.0,,8:53 AM,10.0,North,5.8,350,Tulsa,Oklahoma,74104
14,Clear,2016-01-10 15:53:00,6.1,,-,68,N/A,30.46,15.1,,9:53 AM,10.0,NNW,8.1,340,Tulsa,Oklahoma,74104
15,Clear,2016-01-10 16:53:00,6.1,,-,60,N/A,30.47,18.0,,10:53 AM,10.0,Variable,3.5,0,Tulsa,Oklahoma,74104
16,Clear,2016-01-10 17:53:00,6.1,,-,55,N/A,30.44,19.9,,11:53 AM,10.0,Variable,4.6,0,Tulsa,Oklahoma,74104
17,Clear,2016-01-10 18:53:00,7.0,,-,50,N/A,30.40,23.0,,12:53 PM,10.0,NW,3.5,310,Tulsa,Oklahoma,74104
18,Clear,2016-01-10 19:53:00,8.1,,-,49,N/A,30.37,25.0,,1:53 PM,10.0,WNW,4.6,300,Tulsa,Oklahoma,74104
19,Clear,2016-01-10 20:53:00,8.1,,-,45,N/A,30.35,27.0,,2:53 PM,10.0,Calm,Calm,0,Tulsa,Oklahoma,74104
20,Clear,2016-01-10 21:53:00,8.1,,-,43,N/A,30.35,28.0,,3:53 PM,10.0,Variable,3.5,0,Tulsa,Oklahoma,74104
21,Clear,2016-01-10 22:53:00,7.0,,-,41,N/A,30.34,28.0,,4:53 PM,10.0,Calm,Calm,0,Tulsa,Oklahoma,74104
22,Clear,2016-01-10 23:53:00,10.9,,-,55,N/A,30.34,25.0,,5:53 PM,10.0,Calm,Calm,0,Tulsa,Oklahoma,74104
23,Clear,2016-01-11 00:53:00,12.9,,-,68,N/A,30.34,21.9,,6:53 PM,10.0,Calm,Calm,0,Tulsa,Oklahoma,74104
24,Clear,2016-01-11 01:53:00,15.1,,-,78,N/A,30.33,21.0,,7:53 PM,10.0,Calm,Calm,0,Tulsa,Oklahoma,74104
25,Clear,2016-01-11 02:53:00,12.9,,-,71,N/A,30.34,21.0,,8:53 PM,10.0,Calm,Calm,0,Tulsa,Oklahoma,74104
26,Clear,2016-01-11 03:53:00,14.0,,-,78,N/A,30.33,19.9,,9:53 PM,10.0,SSW,3.5,210,Tulsa,Oklahoma,74104
27,Clear,2016-01-11 04:53:00,12.9,,-,74,N/A,30.32,19.9,,10:53 PM,10.0,SSW,3.5,200,Tulsa,Oklahoma,74104
28,Clear,2016-01-11 05:53:00,12.9,,-,74,N/A,30.31,19.9,,11:53 PM,10.0,Calm,Calm,0,Tulsa,Oklahoma,74104
0,Clear,2016-01-11 06:53:00,14.0,,-,81,N/A,30.30,19.0,,12:53 AM,10.0,Calm,Calm,0,Tulsa,Oklahoma,74104
1,Clear,2016-01-11 07:53:00,12.9,,-,81,N/A,30.28,18.0,,1:53 AM,10.0,Calm,Calm,0,Tulsa,Oklahoma,74104
2,Clear,2016-01-11 08:53:00,12.9,,-,84,N/A,30.27,17.1,,2:53 AM,10.0,Calm,Calm,0,Tulsa,Oklahoma,74104
3,Clear,2016-01-11 09:53:00,14.0,,-,78,N/A,30.26,19.9,,3:53 AM,10.0,Calm,Calm,0,Tulsa,Oklahoma,74104
4,Clear,2016-01-11 10:53:00,12.9,,-,77,N/A,30.25,19.0,,4:53 AM,10.0,Calm,Calm,0,Tulsa,Oklahoma,74104
5,Mostly Cloudy,2016-01-11 11:53:00,14.0,,-,78,N/A,30.24,19.9,,5:53 AM,10.0,Calm,Calm,0,Tulsa,Oklahoma,74104
6,Overcast,2016-01-11 12:53:00,17.1,,-,78,N/A,30.24,23.0,,6:53 AM,10.0,Calm,Calm,0,Tulsa,Oklahoma,74104
7,Overcast,2016-01-11 13:53:00,19.0,,-,78,N/A,30.23,25.0,,7:53 AM,10.0,Calm,Calm,0,Tulsa,Oklahoma,74104
8,Scattered Clouds,2016-01-11 14:53:00,19.9,,-,69,N/A,30.23,28.9,,8:53 AM,10.0,South,4.6,190,Tulsa,Oklahoma,74104
9,Mostly Cloudy,2016-01-11 15:53:00,21.0,,-,59,N/A,30.24,34.0,,9:53 AM,10.0,SW,8.1,220,Tulsa,Oklahoma,74104
10,Partly Cloudy,2016-01-11 16:53:00,21.9,,-,53,N/A,30.22,37.9,,10:53 AM,10.0,SW,10.4,230,Tulsa,Oklahoma,74104
11,Clear,2016-01-11 17:53:00,23.0,,-,47,N/A,30.19,42.1,,11:53 AM,10.0,SW,10.4,220,Tulsa,Oklahoma,74104
12,Clear,2016-01-11 18:53:00,24.1,,20.7,44,N/A,30.13,45.0,,12:53 PM,10.0,SW,11.5,230,Tulsa,Oklahoma,74104
13,Clear,2016-01-11 19:53:00,24.1,,19.6,41,N/A,30.11,46.9,,1:53 PM,10.0,SW,12.7,230,Tulsa,Oklahoma,74104
14,Clear,2016-01-11 20:53:00,25.0,,-,39,N/A,30.09,48.9,,2:53 PM,10.0,SW,9.2,230,Tulsa,Oklahoma,74104
15,Clear,2016-01-11 21:53:00,25.0,,-,39,N/A,30.09,48.9,,3:53 PM,10.0,SW,12.7,220,Tulsa,Oklahoma,74104
16,Clear,2016-01-11 22:53:00,26.1,,-,42,N/A,30.10,48.0,,4:53 PM,10.0,SW,9.2,230,Tulsa,Oklahoma,74104
17,Clear,2016-01-11 23:53:00,26.1,,-,49,N/A,30.12,44.1,,5:53 PM,10.0,WSW,3.5,240,Tulsa,Oklahoma,74104
18,Clear,2016-01-12 00:53:00,27.0,,-,70,N/A,30.14,36.0,,6:53 PM,10.0,SW,3.5,220,Tulsa,Oklahoma,74104
19,Clear,2016-01-12 01:53:00,26.1,,-,73,N/A,30.15,34.0,,7:53 PM,10.0,Calm,Calm,0,Tulsa,Oklahoma,74104
20,Clear,2016-01-12 02:53:00,26.1,,-,79,N/A,30.16,32.0,,8:53 PM,10.0,West,3.5,260,Tulsa,Oklahoma,74104
21,Clear,2016-01-12 03:53:00,26.1,,-,82,N/A,30.16,30.9,,9:53 PM,10.0,Calm,Calm,0,Tulsa,Oklahoma,74104
22,Clear,2016-01-12 04:53:00,28.0,,-,76,N/A,30.15,35.1,,10:53 PM,10.0,Variable,3.5,0,Tulsa,Oklahoma,74104
23,Clear,2016-01-12 05:53:00,28.9,,-,76,N/A,30.15,36.0,,11:53 PM,10.0,WSW,4.6,240,Tulsa,Oklahoma,74104
0,Clear,2016-01-12 06:53:00,28.0,,-,79,N/A,30.13,34.0,,12:53 AM,10.0,SW,4.6,230,Tulsa,Oklahoma,74104
1,Clear,2016-01-12 07:53:00,27.0,,-,82,N/A,30.13,32.0,,1:53 AM,10.0,SW,3.5,230,Tulsa,Oklahoma,74104
2,Clear,2016-01-12 08:53:00,27.0,,-,85,N/A,30.14,30.9,,2:53 AM,10.0,WSW,3.5,240,Tulsa,Oklahoma,74104
3,Clear,2016-01-12 09:53:00,28.0,,-,79,N/A,30.14,34.0,,3:53 AM,10.0,West,3.5,270,Tulsa,Oklahoma,74104
4,Clear,2016-01-12 10:53:00,24.1,,-,85,N/A,30.16,28.0,,4:53 AM,10.0,Calm,Calm,0,Tulsa,Oklahoma,74104
5,Clear,2016-01-12 11:53:00,24.1,,-,89,N/A,30.18,27.0,,5:53 AM,10.0,Calm,Calm,0,Tulsa,Oklahoma,74104
6,Clear,2016-01-12 12:53:00,23.0,,-,92,N/A,30.20,25.0,,6:53 AM,10.0,Calm,Calm,0,Tulsa,Oklahoma,74104
7,Clear,2016-01-12 13:53:00,24.1,,-,89,N/A,30.25,27.0,,7:53 AM,9.0,North,3.5,10,Tulsa,Oklahoma,74104
8,Clear,2016-01-12 14:53:00,27.0,,-,67,N/A,30.28,37.0,,8:53 AM,10.0,Calm,Calm,0,Tulsa,Oklahoma,74104
9,Clear,2016-01-12 15:53:00,27.0,,-,57,N/A,30.30,41.0,,9:53 AM,10.0,NNE,5.8,30,Tulsa,Oklahoma,74104
10,Clear,2016-01-12 16:53:00,27.0,,-,53,N/A,30.32,43.0,,10:53 AM,10.0,NE,6.9,50,Tulsa,Oklahoma,74104
11,Clear,2016-01-12 17:53:00,28.0,,-,50,N/A,30.30,46.0,,11:53 AM,10.0,North,4.6,10,Tulsa,Oklahoma,74104
12,Clear,2016-01-12 18:53:00,28.0,,-,46,N/A,30.28,48.0,,12:53 PM,10.0,NE,5.8,50,Tulsa,Oklahoma,74104
13,Clear,2016-01-12 19:53:00,28.0,,-,46,N/A,30.26,48.0,,1:53 PM,10.0,North,3.5,10,Tulsa,Oklahoma,74104
14,Clear,2016-01-12 20:53:00,28.0,,-,44,N/A,30.25,48.9,,2:53 PM,10.0,Variable,4.6,0,Tulsa,Oklahoma,74104
15,Clear,2016-01-12 21:53:00,28.0,,-,44,N/A,30.25,48.9,,3:53 PM,10.0,ENE,6.9,60,Tulsa,Oklahoma,74104
16,Clear,2016-01-12 22:53:00,28.0,,-,48,N/A,30.25,46.9,,4:53 PM,10.0,NE,4.6,40,Tulsa,Oklahoma,74104
17,Clear,2016-01-12 23:53:00,28.0,,-,60,N/A,30.27,41.0,,5:53 PM,10.0,NNE,5.8,20,Tulsa,Oklahoma,74104
18,Clear,2016-01-13 00:53:00,27.0,,-,75,N/A,30.28,34.0,,6:53 PM,10.0,NE,4.6,40,Tulsa,Oklahoma,74104
19,Clear,2016-01-13 01:53:00,27.0,,-,70,N/A,30.28,36.0,,7:53 PM,10.0,NE,5.8,50,Tulsa,Oklahoma,74104
20,Clear,2016-01-13 02:53:00,27.0,,-,75,N/A,30.26,34.0,,8:53 PM,10.0,NE,5.8,40,Tulsa,Oklahoma,74104
21,Clear,2016-01-13 03:53:00,26.1,,-,73,N/A,30.27,34.0,,9:53 PM,10.0,NE,4.6,40,Tulsa,Oklahoma,74104
22,Clear,2016-01-13 04:53:00,25.0,,-,82,N/A,30.28,30.0,,10:53 PM,10.0,Calm,Calm,0,Tulsa,Oklahoma,74104
23,Clear,2016-01-13 05:53:00,25.0,,-,88,N/A,30.27,28.0,,11:53 PM,10.0,Calm,Calm,0,Tulsa,Oklahoma,74104
0,Clear,2016-01-13 06:53:00,24.1,,-,89,N/A,30.24,27.0,,12:53 AM,10.0,Calm,Calm,0,Tulsa,Oklahoma,74104
1,Clear,2016-01-13 07:53:00,23.0,,-,88,N/A,30.23,26.1,,1:53 AM,10.0,Calm,Calm,0,Tulsa,Oklahoma,74104
2,Clear,2016-01-13 08:53:00,23.0,,-,92,N/A,30.21,25.0,,2:53 AM,10.0,Calm,Calm,0,Tulsa,Oklahoma,74104
3,Clear,2016-01-13 09:53:00,23.0,,-,92,N/A,30.19,25.0,,3:53 AM,10.0,Calm,Calm,0,Tulsa,Oklahoma,74104
4,Clear,2016-01-13 10:53:00,23.0,,-,92,N/A,30.18,25.0,,4:53 AM,10.0,Calm,Calm,0,Tulsa,Oklahoma,74104
5,Clear,2016-01-13 11:53:00,23.0,,-,88,N/A,30.17,26.1,,5:53 AM,10.0,Calm,Calm,0,Tulsa,Oklahoma,74104
6,Clear,2016-01-13 12:53:00,24.1,,-,92,N/A,30.18,26.1,,6:53 AM,10.0,Calm,Calm,0,Tulsa,Oklahoma,74104
7,Clear,2016-01-13 13:53:00,24.1,,-,92,N/A,30.18,26.1,,7:53 AM,10.0,Calm,Calm,0,Tulsa,Oklahoma,74104
8,Clear,2016-01-13 14:53:00,27.0,,-,88,N/A,30.17,30.0,,8:53 AM,10.0,Calm,Calm,0,Tulsa,Oklahoma,74104
9,Clear,2016-01-13 15:53:00,32.0,,-,73,N/A,30.17,39.9,,9:53 AM,10.0,Calm,Calm,0,Tulsa,Oklahoma,74104
10,Clear,2016-01-13 16:53:00,32.0,,-,58,N/A,30.16,46.0,,10:53 AM,10.0,South,6.9,190,Tulsa,Oklahoma,74104
11,Clear,2016-01-13 17:53:00,33.1,,-,54,N/A,30.12,48.9,,11:53 AM,10.0,Calm,Calm,0,Tulsa,Oklahoma,74104
12,Clear,2016-01-13 18:53:00,30.9,,-,39,N/A,30.06,55.9,,12:53 PM,10.0,WSW,6.9,240,Tulsa,Oklahoma,74104
13,Clear,2016-01-13 19:53:00,32.0,,-,35,N/A,30.02,60.1,,1:53 PM,10.0,Variable,3.5,0,Tulsa,Oklahoma,74104
14,Clear,2016-01-13 20:53:00,32.0,,-,32,N/A,30.00,62.1,,2:53 PM,10.0,Variable,5.8,0,Tulsa,Oklahoma,74104
15,Clear,2016-01-13 21:53:00,28.9,,-,30,N/A,30.01,61.0,,3:53 PM,10.0,Variable,4.6,0,Tulsa,Oklahoma,74104
16,Clear,2016-01-13 22:53:00,28.9,,-,32,N/A,30.00,59.0,,4:53 PM,10.0,West,3.5,270,Tulsa,Oklahoma,74104
17,Clear,2016-01-13 23:53:00,32.0,,-,60,N/A,30.00,45.0,,5:53 PM,10.0,Calm,Calm,0,Tulsa,Oklahoma,74104
18,Clear,2016-01-14 00:53:00,32.0,,-,70,N/A,30.01,41.0,,6:53 PM,10.0,Calm,Calm,0,Tulsa,Oklahoma,74104
19,Clear,2016-01-14 01:53:00,30.9,,-,70,N/A,30.01,39.9,,7:53 PM,10.0,Calm,Calm,0,Tulsa,Oklahoma,74104
20,Clear,2016-01-14 02:53:00,30.9,,-,82,N/A,30.01,36.0,,8:53 PM,10.0,Calm,Calm,0,Tulsa,Oklahoma,74104
21,Clear,2016-01-14 03:53:00,28.9,,-,85,N/A,29.99,33.1,,9:53 PM,10.0,Calm,Calm,0,Tulsa,Oklahoma,74104
22,Clear,2016-01-14 04:53:00,28.0,,-,89,N/A,29.97,30.9,,10:53 PM,10.0,Calm,Calm,0,Tulsa,Oklahoma,74104
23,Clear,2016-01-14 05:53:00,28.9,,-,88,N/A,29.96,32.0,,11:53 PM,10.0,Calm,Calm,0,Tulsa,Oklahoma,74104
0,Clear,2016-01-14 06:53:00,30.0,,-,85,N/A,29.93,34.0,,12:53 AM,10.0,South,3.5,180,Tulsa,Oklahoma,74104
1,Clear,2016-01-14 07:53:00,30.9,,-,82,N/A,29.91,36.0,,1:53 AM,10.0,SSW,3.5,200,Tulsa,Oklahoma,74104
2,Clear,2016-01-14 08:53:00,30.0,,-,89,N/A,29.90,33.1,,2:53 AM,10.0,Calm,Calm,0,Tulsa,Oklahoma,74104
3,Clear,2016-01-14 09:53:00,30.0,,-,92,N/A,29.88,32.0,,3:53 AM,10.0,Calm,Calm,0,Tulsa,Oklahoma,74104
4,Clear,2016-01-14 10:53:00,28.9,,-,96,N/A,29.87,30.0,,4:53 AM,6.0,Calm,Calm,0,Tulsa,Oklahoma,74104
5,Clear,2016-01-14 11:53:00,30.9,,-,92,N/A,29.86,33.1,,5:53 AM,9.0,SSE,3.5,160,Tulsa,Oklahoma,74104
6,Clear,2016-01-14 12:27:00,30.0,,-,96,N/A,29.83,30.9,,6:27 AM,2.0,Calm,Calm,0,Tulsa,Oklahoma,74104
7,Clear,2016-01-14 12:38:00,30.9,,-,92,N/A,29.82,33.1,,6:38 AM,5.0,SSE,4.6,160,Tulsa,Oklahoma,74104
8,Clear,2016-01-14 12:53:00,32.0,,-,96,N/A,29.85,33.1,,6:53 AM,7.0,South,3.5,170,Tulsa,Oklahoma,74104
9,Clear,2016-01-14 13:53:00,32.0,,-,100,N/A,29.84,32.0,,7:53 AM,3.0,Calm,Calm,0,Tulsa,Oklahoma,74104
10,Clear,2016-01-14 14:53:00,37.9,,-,85,N/A,29.84,42.1,,8:53 AM,10.0,South,6.9,190,Tulsa,Oklahoma,74104
11,Clear,2016-01-14 15:53:00,41.0,,-,71,N/A,29.84,50.0,,9:53 AM,10.0,South,11.5,190,Tulsa,Oklahoma,74104
12,Clear,2016-01-14 16:53:00,43.0,,21.9,64,N/A,29.81,55.0,,10:53 AM,10.0,South,15.0,180,Tulsa,Oklahoma,74104
13,Clear,2016-01-14 17:53:00,43.0,,19.6,55,N/A,29.77,59.0,,11:53 AM,10.0,South,12.7,180,Tulsa,Oklahoma,74104
14,Clear,2016-01-14 18:53:00,42.1,,31.1,46,N/A,29.70,63.0,,12:53 PM,10.0,South,19.6,190,Tulsa,Oklahoma,74104
15,Clear,2016-01-14 19:53:00,41.0,,27.6,42,N/A,29.66,64.9,,1:53 PM,10.0,South,20.7,180,Tulsa,Oklahoma,74104
16,Clear,2016-01-14 20:53:00,39.9,,29.9,38,N/A,29.62,66.0,,2:53 PM,10.0,South,16.1,190,Tulsa,Oklahoma,74104
17,Clear,2016-01-14 21:53:00,41.0,,25.3,42,N/A,29.60,64.9,,3:53 PM,10.0,South,18.4,180,Tulsa,Oklahoma,74104
18,Clear,2016-01-14 22:53:00,42.1,,-,46,N/A,29.58,63.0,,4:53 PM,10.0,South,11.5,170,Tulsa,Oklahoma,74104
19,Clear,2016-01-14 23:53:00,45.0,,20.7,56,N/A,29.59,61.0,,5:53 PM,10.0,South,13.8,180,Tulsa,Oklahoma,74104
20,Clear,2016-01-15 00:53:00,45.0,,21.9,60,N/A,29.61,59.0,,6:53 PM,10.0,South,11.5,190,Tulsa,Oklahoma,74104
21,Clear,2016-01-15 01:53:00,46.0,,-,69,N/A,29.62,55.9,,7:53 PM,10.0,South,9.2,180,Tulsa,Oklahoma,74104
22,Clear,2016-01-15 02:53:00,45.0,,-,80,N/A,29.60,51.1,,8:53 PM,10.0,SSW,4.6,200,Tulsa,Oklahoma,74104
23,Clear,2016-01-15 03:53:00,44.1,,-,86,N/A,29.60,48.0,,9:53 PM,10.0,Calm,Calm,0,Tulsa,Oklahoma,74104
24,Clear,2016-01-15 04:53:00,41.0,,-,93,N/A,29.59,43.0,,10:53 PM,10.0,Calm,Calm,0,Tulsa,Oklahoma,74104
25,Mostly Cloudy,2016-01-15 05:30:00,46.9,,-,86,N/A,29.59,51.1,,11:30 PM,10.0,West,5.8,280,Tulsa,Oklahoma,74104
26,Mostly Cloudy,2016-01-15 05:53:00,46.9,,-,83,N/A,29.61,52.0,,11:53 PM,10.0,WSW,4.6,240,Tulsa,Oklahoma,74104
0,Mostly Cloudy,2016-01-15 06:04:00,46.0,,-,83,N/A,29.58,51.1,,12:04 AM,10.0,West,3.5,270,Tulsa,Oklahoma,74104
1,Clear,2016-01-15 06:53:00,44.1,,-,97,N/A,29.58,45.0,,12:53 AM,10.0,Calm,Calm,0,Tulsa,Oklahoma,74104
2,Clear,2016-01-15 07:53:00,42.1,,-,93,N/A,29.58,44.1,,1:53 AM,10.0,Calm,Calm,0,Tulsa,Oklahoma,74104
3,Clear,2016-01-15 08:53:00,37.0,,-,68,N/A,29.62,46.9,,2:53 AM,10.0,NW,5.8,320,Tulsa,Oklahoma,74104
4,Clear,2016-01-15 09:53:00,30.9,,-,58,N/A,29.62,45.0,,3:53 AM,10.0,NW,8.1,310,Tulsa,Oklahoma,74104
5,Clear,2016-01-15 10:53:00,30.0,,-,60,N/A,29.64,43.0,,4:53 AM,10.0,NW,4.6,310,Tulsa,Oklahoma,74104
6,Clear,2016-01-15 11:53:00,28.9,,-,60,N/A,29.68,42.1,,5:53 AM,10.0,WNW,5.8,300,Tulsa,Oklahoma,74104
7,Clear,2016-01-15 12:53:00,30.0,,-,65,N/A,29.70,41.0,,6:53 AM,10.0,NW,8.1,320,Tulsa,Oklahoma,74104
8,Clear,2016-01-15 13:53:00,30.0,,-,68,N/A,29.72,39.9,,7:53 AM,10.0,North,8.1,360,Tulsa,Oklahoma,74104
9,Clear,2016-01-15 14:53:00,32.0,,-,65,N/A,29.74,43.0,,8:53 AM,10.0,NNW,9.2,340,Tulsa,Oklahoma,74104
10,Clear,2016-01-15 15:53:00,30.9,,-,56,N/A,29.80,46.0,,9:53 AM,10.0,NW,9.2,320,Tulsa,Oklahoma,74104
11,Clear,2016-01-15 16:53:00,30.9,,18.4,54,N/A,29.82,46.9,,10:53 AM,10.0,NW,9.2,320,Tulsa,Oklahoma,74104
12,Clear,2016-01-15 17:53:00,32.0,,-,50,N/A,29.80,50.0,,11:53 AM,10.0,WNW,6.9,290,Tulsa,Oklahoma,74104
13,Clear,2016-01-15 18:53:00,32.0,,-,48,N/A,29.78,51.1,,12:53 PM,10.0,West,10.4,280,Tulsa,Oklahoma,74104
14,Clear,2016-01-15 19:53:00,30.9,,-,45,N/A,29.78,52.0,,1:53 PM,10.0,NW,9.2,310,Tulsa,Oklahoma,74104
15,Clear,2016-01-15 20:53:00,30.0,,-,43,N/A,29.79,52.0,,2:53 PM,10.0,NW,9.2,310,Tulsa,Oklahoma,74104
16,Clear,2016-01-15 21:53:00,28.0,,-,40,N/A,29.80,52.0,,3:53 PM,10.0,NW,9.2,320,Tulsa,Oklahoma,74104
17,Clear,2016-01-15 22:53:00,27.0,,-,41,N/A,29.82,50.0,,4:53 PM,10.0,Variable,5.8,0,Tulsa,Oklahoma,74104
18,Clear,2016-01-15 23:53:00,27.0,,-,46,N/A,29.84,46.9,,5:53 PM,10.0,NNW,3.5,330,Tulsa,Oklahoma,74104
19,Clear,2016-01-16 00:53:00,27.0,,-,51,N/A,29.87,44.1,,6:53 PM,10.0,NNW,3.5,330,Tulsa,Oklahoma,74104
20,Clear,2016-01-16 01:53:00,28.0,,-,60,N/A,29.90,41.0,,7:53 PM,10.0,NW,3.5,310,Tulsa,Oklahoma,74104
21,Clear,2016-01-16 02:53:00,27.0,,-,60,N/A,29.93,39.9,,8:53 PM,10.0,North,3.5,360,Tulsa,Oklahoma,74104
22,Clear,2016-01-16 03:53:00,27.0,,-,62,N/A,29.95,39.0,,9:53 PM,10.0,NNE,9.2,20,Tulsa,Oklahoma,74104
23,Clear,2016-01-16 04:53:00,25.0,,17.3,62,N/A,29.96,37.0,,10:53 PM,10.0,NNE,10.4,20,Tulsa,Oklahoma,74104
24,Scattered Clouds,2016-01-16 05:53:00,25.0,,-,64,N/A,29.96,36.0,,11:53 PM,10.0,NNE,11.5,20,Tulsa,Oklahoma,74104
0,Clear,2016-01-16 06:53:00,25.0,,-,70,N/A,29.97,34.0,,12:53 AM,10.0,NE,6.9,40,Tulsa,Oklahoma,74104
1,Partly Cloudy,2016-01-16 07:53:00,24.1,,-,70,N/A,29.97,33.1,,1:53 AM,10.0,NNE,8.1,20,Tulsa,Oklahoma,74104
2,Clear,2016-01-16 08:53:00,24.1,,-,73,N/A,29.98,32.0,,2:53 AM,10.0,NNE,9.2,20,Tulsa,Oklahoma,74104
3,Clear,2016-01-16 09:53:00,23.0,,-,75,N/A,29.98,30.0,,3:53 AM,10.0,NNE,9.2,30,Tulsa,Oklahoma,74104
4,Clear,2016-01-16 10:53:00,23.0,,-,78,N/A,30.00,28.9,,4:53 AM,10.0,North,8.1,10,Tulsa,Oklahoma,74104
5,Clear,2016-01-16 11:53:00,23.0,,-,78,N/A,30.03,28.9,,5:53 AM,10.0,NNE,8.1,30,Tulsa,Oklahoma,74104
6,Partly Cloudy,2016-01-16 12:53:00,23.0,,-,78,N/A,30.07,28.9,,6:53 AM,10.0,North,5.8,10,Tulsa,Oklahoma,74104
7,Mostly Cloudy,2016-01-16 13:53:00,21.0,,-,72,N/A,30.09,28.9,,7:53 AM,10.0,North,9.2,10,Tulsa,Oklahoma,74104
8,Mostly Cloudy,2016-01-16 14:53:00,19.9,,-,69,N/A,30.12,28.9,,8:53 AM,10.0,NNE,6.9,20,Tulsa,Oklahoma,74104
9,Overcast,2016-01-16 15:53:00,18.0,,-,61,N/A,30.13,30.0,,9:53 AM,10.0,NNE,9.2,20,Tulsa,Oklahoma,74104
10,Overcast,2016-01-16 16:53:00,12.9,,-,45,N/A,30.17,32.0,,10:53 AM,10.0,North,9.2,10,Tulsa,Oklahoma,74104
11,Clear,2016-01-16 17:53:00,14.0,,-,44,N/A,30.16,34.0,,11:53 AM,10.0,NNE,8.1,30,Tulsa,Oklahoma,74104
12,Clear,2016-01-16 18:53:00,14.0,,-,39,N/A,30.12,37.0,,12:53 PM,10.0,NNE,6.9,30,Tulsa,Oklahoma,74104
13,Clear,2016-01-16 19:53:00,12.9,,-,33,N/A,30.10,39.9,,1:53 PM,10.0,North,8.1,360,Tulsa,Oklahoma,74104
14,Mostly Cloudy,2016-01-16 20:53:00,12.9,,-,33,N/A,30.09,39.9,,2:53 PM,10.0,NNW,3.5,330,Tulsa,Oklahoma,74104
15,Overcast,2016-01-16 21:53:00,15.1,,-,36,N/A,30.09,39.9,,3:53 PM,10.0,North,4.6,350,Tulsa,Oklahoma,74104
16,Overcast,2016-01-16 22:53:00,12.0,,-,33,N/A,30.10,39.0,,4:53 PM,10.0,Variable,3.5,0,Tulsa,Oklahoma,74104
17,Overcast,2016-01-16 23:53:00,10.9,,-,34,N/A,30.11,37.0,,5:53 PM,10.0,Calm,Calm,0,Tulsa,Oklahoma,74104
18,Clear,2016-01-17 00:53:00,15.1,,-,50,N/A,30.12,32.0,,6:53 PM,10.0,Calm,Calm,0,Tulsa,Oklahoma,74104
19,Clear,2016-01-17 01:53:00,16.0,,-,58,N/A,30.13,28.9,,7:53 PM,10.0,Calm,Calm,0,Tulsa,Oklahoma,74104
20,Clear,2016-01-17 02:53:00,18.0,,-,69,N/A,30.14,27.0,,8:53 PM,10.0,Calm,Calm,0,Tulsa,Oklahoma,74104
21,Clear,2016-01-17 03:53:00,17.1,,-,69,N/A,30.15,26.1,,9:53 PM,10.0,Calm,Calm,0,Tulsa,Oklahoma,74104
22,Clear,2016-01-17 04:53:00,18.0,,-,77,N/A,30.14,24.1,,10:53 PM,10.0,Calm,Calm,0,Tulsa,Oklahoma,74104
23,Clear,2016-01-17 05:53:00,17.1,,-,75,N/A,30.13,24.1,,11:53 PM,10.0,Calm,Calm,0,Tulsa,Oklahoma,74104
0,Clear,2016-01-17 06:53:00,18.0,,-,85,N/A,30.12,21.9,,12:53 AM,10.0,Calm,Calm,0,Tulsa,Oklahoma,74104
1,Clear,2016-01-17 07:53:00,19.0,,-,85,N/A,30.12,23.0,,1:53 AM,10.0,Calm,Calm,0,Tulsa,Oklahoma,74104
2,Clear,2016-01-17 08:53:00,18.0,,-,88,N/A,30.12,21.0,,2:53 AM,10.0,Calm,Calm,0,Tulsa,Oklahoma,74104
3,Clear,2016-01-17 09:53:00,18.0,,-,85,N/A,30.12,21.9,,3:53 AM,10.0,Calm,Calm,0,Tulsa,Oklahoma,74104
4,Clear,2016-01-17 10:53:00,19.0,,-,89,N/A,30.12,21.9,,4:53 AM,10.0,Calm,Calm,0,Tulsa,Oklahoma,74104
5,Clear,2016-01-17 11:53:00,19.0,,-,85,N/A,30.12,23.0,,5:53 AM,10.0,Calm,Calm,0,Tulsa,Oklahoma,74104
6,Clear,2016-01-17 12:53:00,19.0,,-,81,N/A,30.14,24.1,,6:53 AM,10.0,Calm,Calm,0,Tulsa,Oklahoma,74104
7,Mostly Cloudy,2016-01-17 13:53:00,21.9,,-,75,N/A,30.19,28.9,,7:53 AM,10.0,North,9.2,10,Tulsa,Oklahoma,74104
8,Overcast,2016-01-17 14:53:00,21.9,,-,75,N/A,30.22,28.9,,8:53 AM,10.0,NNE,10.4,20,Tulsa,Oklahoma,74104
9,Overcast,2016-01-17 15:53:00,23.0,,-,78,N/A,30.26,28.9,,9:53 AM,10.0,North,12.7,10,Tulsa,Oklahoma,74104
10,Mostly Cloudy,2016-01-17 16:53:00,21.0,,-,67,N/A,30.29,30.9,,10:53 AM,10.0,North,12.7,10,Tulsa,Oklahoma,74104
11,Overcast,2016-01-17 17:48:00,19.4,,23.0,60,N/A,30.25,32.0,,11:48 AM,10.0,NNE,16.1,30,Tulsa,Oklahoma,74104
12,Overcast,2016-01-17 17:53:00,19.0,,23.0,64,N/A,30.28,30.0,,11:53 AM,10.0,NNE,17.3,30,Tulsa,Oklahoma,74104
13,Overcast,2016-01-17 18:53:00,18.0,,-,59,N/A,30.28,30.9,,12:53 PM,10.0,NNE,15.0,20,Tulsa,Oklahoma,74104
14,Overcast,2016-01-17 19:18:00,17.1,,24.2,63,N/A,30.25,28.0,,1:18 PM,10.0,NNE,15.0,20,Tulsa,Oklahoma,74104
15,Overcast,2016-01-17 19:40:00,17.1,,20.7,66,N/A,30.24,27.0,,1:40 PM,10.0,NNE,12.7,20,Tulsa,Oklahoma,74104
16,Overcast,2016-01-17 19:53:00,16.0,,19.6,63,N/A,30.28,27.0,,1:53 PM,10.0,NNE,15.0,30,Tulsa,Oklahoma,74104
17,Overcast,2016-01-17 20:28:00,16.0,,-,63,N/A,30.25,27.0,,2:28 PM,10.0,NNE,13.8,30,Tulsa,Oklahoma,74104
18,Overcast,2016-01-17 20:53:00,15.1,,-,63,N/A,30.29,26.1,,2:53 PM,10.0,North,12.7,10,Tulsa,Oklahoma,74104
19,Overcast,2016-01-17 21:51:00,14.0,,-,64,N/A,30.27,24.8,,3:51 PM,10.0,NNE,12.7,20,Tulsa,Oklahoma,74104
20,Overcast,2016-01-17 21:53:00,14.0,,-,63,N/A,30.31,25.0,,3:53 PM,10.0,NNE,11.5,30,Tulsa,Oklahoma,74104
21,Overcast,2016-01-17 22:53:00,12.9,,-,60,N/A,30.33,25.0,,4:53 PM,10.0,NNE,12.7,30,Tulsa,Oklahoma,74104
22,Overcast,2016-01-17 23:53:00,10.0,,-,55,N/A,30.35,24.1,,5:53 PM,10.0,NNE,12.7,20,Tulsa,Oklahoma,74104
23,Overcast,2016-01-18 00:53:00,10.0,,-,55,N/A,30.38,24.1,,6:53 PM,10.0,North,8.1,10,Tulsa,Oklahoma,74104
24,Overcast,2016-01-18 01:53:00,7.0,,-,53,N/A,30.41,21.9,,7:53 PM,10.0,North,9.2,10,Tulsa,Oklahoma,74104
25,Overcast,2016-01-18 02:53:00,7.0,,18.4,55,N/A,30.44,21.0,,8:53 PM,10.0,North,11.5,360,Tulsa,Oklahoma,74104
26,Overcast,2016-01-18 03:53:00,8.1,,18.4,60,N/A,30.45,19.9,,9:53 PM,10.0,North,6.9,10,Tulsa,Oklahoma,74104
27,Overcast,2016-01-18 04:53:00,10.0,,-,65,N/A,30.45,19.9,,10:53 PM,10.0,North,10.4,10,Tulsa,Oklahoma,74104
28,Overcast,2016-01-18 05:53:00,10.0,,-,68,N/A,30.45,19.0,,11:53 PM,10.0,NE,10.4,40,Tulsa,Oklahoma,74104
0,Overcast,2016-01-18 06:53:00,9.0,,-,65,N/A,30.46,19.0,,12:53 AM,10.0,North,6.9,10,Tulsa,Oklahoma,74104
1,Overcast,2016-01-18 07:53:00,7.0,,-,59,N/A,30.47,19.0,,1:53 AM,10.0,North,8.1,360,Tulsa,Oklahoma,74104
2,Overcast,2016-01-18 08:53:00,5.0,,17.3,54,N/A,30.49,19.0,,2:53 AM,10.0,North,6.9,10,Tulsa,Oklahoma,74104
3,Overcast,2016-01-18 09:53:00,5.0,,-,54,N/A,30.48,19.0,,3:53 AM,10.0,NNE,8.1,20,Tulsa,Oklahoma,74104
4,Overcast,2016-01-18 10:53:00,5.0,,-,54,N/A,30.47,19.0,,4:53 AM,10.0,NNE,6.9,20,Tulsa,Oklahoma,74104
5,Overcast,2016-01-18 11:53:00,3.9,,-,52,N/A,30.47,19.0,,5:53 AM,10.0,NE,8.1,40,Tulsa,Oklahoma,74104
6,Overcast,2016-01-18 12:53:00,5.0,,-,54,N/A,30.50,19.0,,6:53 AM,10.0,NNE,6.9,20,Tulsa,Oklahoma,74104
7,Mostly Cloudy,2016-01-18 13:53:00,5.0,,-,57,N/A,30.51,18.0,,7:53 AM,10.0,NNE,6.9,30,Tulsa,Oklahoma,74104
8,Partly Cloudy,2016-01-18 14:53:00,3.0,,-,48,N/A,30.52,19.9,,8:53 AM,10.0,NE,8.1,50,Tulsa,Oklahoma,74104
9,Clear,2016-01-18 15:53:00,3.9,,-,46,N/A,30.53,21.9,,9:53 AM,10.0,NE,6.9,40,Tulsa,Oklahoma,74104
10,Clear,2016-01-18 16:53:00,5.0,,-,43,N/A,30.53,25.0,,10:53 AM,10.0,East,5.8,90,Tulsa,Oklahoma,74104
11,Clear,2016-01-18 17:53:00,3.9,,-,39,N/A,30.51,26.1,,11:53 AM,10.0,Variable,5.8,0,Tulsa,Oklahoma,74104
12,Clear,2016-01-18 18:53:00,5.0,,-,38,N/A,30.47,28.0,,12:53 PM,10.0,ENE,3.5,60,Tulsa,Oklahoma,74104
13,Clear,2016-01-18 19:53:00,6.1,,-,35,N/A,30.42,30.9,,1:53 PM,10.0,ESE,3.5,120,Tulsa,Oklahoma,74104
14,Clear,2016-01-18 20:53:00,6.1,,-,34,N/A,30.39,32.0,,2:53 PM,10.0,SSE,5.8,160,Tulsa,Oklahoma,74104
15,Clear,2016-01-18 21:53:00,8.1,,-,35,N/A,30.38,33.1,,3:53 PM,10.0,South,5.8,180,Tulsa,Oklahoma,74104
16,Clear,2016-01-18 22:53:00,8.1,,-,35,N/A,30.36,33.1,,4:53 PM,10.0,SE,4.6,130,Tulsa,Oklahoma,74104
17,Clear,2016-01-18 23:53:00,8.1,,-,38,N/A,30.35,30.9,,5:53 PM,10.0,SE,4.6,130,Tulsa,Oklahoma,74104
18,Clear,2016-01-19 00:53:00,10.0,,-,45,N/A,30.35,28.9,,6:53 PM,10.0,Calm,Calm,0,Tulsa,Oklahoma,74104
19,Mostly Cloudy,2016-01-19 01:45:00,12.9,,-,53,N/A,30.30,28.0,,7:45 PM,10.0,Calm,Calm,0,Tulsa,Oklahoma,74104
20,Mostly Cloudy,2016-01-19 01:53:00,12.9,,-,51,N/A,30.33,28.9,,7:53 PM,10.0,Calm,Calm,0,Tulsa,Oklahoma,74104
21,Overcast,2016-01-19 02:53:00,12.0,,-,44,N/A,30.33,32.0,,8:53 PM,10.0,SSE,4.6,160,Tulsa,Oklahoma,74104
22,Scattered Clouds,2016-01-19 03:44:00,14.0,,-,50,N/A,30.29,30.9,,9:44 PM,10.0,Calm,Calm,0,Tulsa,Oklahoma,74104
23,Clear,2016-01-19 03:53:00,14.0,,-,54,N/A,30.33,28.9,,9:53 PM,10.0,Calm,Calm,0,Tulsa,Oklahoma,74104
24,Clear,2016-01-19 04:53:00,17.1,,-,69,N/A,30.34,26.1,,10:53 PM,10.0,Calm,Calm,0,Tulsa,Oklahoma,74104
25,Clear,2016-01-19 05:53:00,16.0,,-,71,N/A,30.31,24.1,,11:53 PM,10.0,Calm,Calm,0,Tulsa,Oklahoma,74104
0,Clear,2016-01-19 06:53:00,18.0,,-,69,N/A,30.30,27.0,,12:53 AM,10.0,Calm,Calm,0,Tulsa,Oklahoma,74104
1,Clear,2016-01-19 07:53:00,19.9,,-,66,N/A,30.28,30.0,,1:53 AM,10.0,SSE,4.6,150,Tulsa,Oklahoma,74104
2,Clear,2016-01-19 08:53:00,21.9,,-,72,N/A,30.28,30.0,,2:53 AM,10.0,SSE,6.9,150,Tulsa,Oklahoma,74104
3,Clear,2016-01-19 09:53:00,23.0,,-,78,N/A,30.25,28.9,,3:53 AM,10.0,SE,6.9,130,Tulsa,Oklahoma,74104
4,Clear,2016-01-19 10:53:00,23.0,,-,81,N/A,30.23,28.0,,4:53 AM,10.0,ESE,8.1,120,Tulsa,Oklahoma,74104
5,Mostly Cloudy,2016-01-19 11:53:00,24.1,,-,82,N/A,30.21,28.9,,5:53 AM,10.0,SE,10.4,130,Tulsa,Oklahoma,74104
6,Mostly Cloudy,2016-01-19 12:53:00,24.1,,17.3,79,N/A,30.19,30.0,,6:53 AM,10.0,SE,10.4,130,Tulsa,Oklahoma,74104
7,Clear,2016-01-19 13:53:00,23.0,,-,75,N/A,30.19,30.0,,7:53 AM,10.0,ESE,11.5,120,Tulsa,Oklahoma,74104
8,Mostly Cloudy,2016-01-19 14:24:00,23.0,,20.7,72,N/A,30.15,30.9,,8:24 AM,10.0,SE,11.5,130,Tulsa,Oklahoma,74104
9,Overcast,2016-01-19 14:53:00,23.0,,21.9,72,N/A,30.18,30.9,,8:53 AM,10.0,SE,12.7,140,Tulsa,Oklahoma,74104
10,Overcast,2016-01-19 15:53:00,24.1,,-,73,N/A,30.18,32.0,,9:53 AM,10.0,SSE,10.4,150,Tulsa,Oklahoma,74104
11,Overcast,2016-01-19 16:53:00,26.1,,-,73,N/A,30.19,34.0,,10:53 AM,10.0,SSE,8.1,160,Tulsa,Oklahoma,74104
12,Overcast,2016-01-19 17:53:00,26.1,,-,67,N/A,30.17,36.0,,11:53 AM,10.0,SSE,8.1,150,Tulsa,Oklahoma,74104
13,Overcast,2016-01-19 18:53:00,27.0,,-,67,N/A,30.14,37.0,,12:53 PM,10.0,SSE,9.2,150,Tulsa,Oklahoma,74104
14,Overcast,2016-01-19 19:53:00,26.1,,-,65,N/A,30.11,37.0,,1:53 PM,10.0,ESE,11.5,120,Tulsa,Oklahoma,74104
15,Overcast,2016-01-19 20:53:00,25.0,,-,62,N/A,30.12,37.0,,2:53 PM,10.0,SE,8.1,130,Tulsa,Oklahoma,74104
16,Overcast,2016-01-19 21:53:00,25.0,,-,64,N/A,30.13,36.0,,3:53 PM,10.0,SE,6.9,130,Tulsa,Oklahoma,74104
17,Overcast,2016-01-19 22:53:00,28.9,,-,78,N/A,30.15,35.1,,4:53 PM,7.0,ESE,6.9,110,Tulsa,Oklahoma,74104
18,Light Rain,2016-01-19 23:53:00,30.9,Rain,-,89,0.00,30.19,34.0,,5:53 PM,4.0,Calm,Calm,0,Tulsa,Oklahoma,74104
19,Light Rain,2016-01-20 00:50:00,32.0,Rain,-,93,0.01,30.18,33.8,,6:50 PM,3.0,North,3.5,350,Tulsa,Oklahoma,74104
20,Light Rain,2016-01-20 00:53:00,32.0,Rain,-,96,0.01,30.21,33.1,,6:53 PM,3.0,Calm,Calm,0,Tulsa,Oklahoma,74104
21,Light Rain,2016-01-20 01:16:00,32.0,Rain,-,96,0.01,30.19,33.1,,7:16 PM,4.0,Calm,Calm,0,Tulsa,Oklahoma,74104
22,Overcast,2016-01-20 01:53:00,32.0,,-,92,0.01,30.23,34.0,,7:53 PM,4.0,Calm,Calm,0,Tulsa,Oklahoma,74104
23,Overcast,2016-01-20 02:53:00,32.0,,-,92,N/A,30.25,34.0,,8:53 PM,4.0,Calm,Calm,0,Tulsa,Oklahoma,74104
24,Overcast,2016-01-20 03:53:00,32.0,,-,92,N/A,30.25,34.0,,9:53 PM,5.0,North,4.6,350,Tulsa,Oklahoma,74104
25,Overcast,2016-01-20 04:30:00,32.0,,-,92,N/A,30.22,34.0,,10:30 PM,5.0,NNE,6.9,30,Tulsa,Oklahoma,74104
26,Overcast,2016-01-20 04:45:00,32.0,,-,92,N/A,30.23,34.0,,10:45 PM,8.0,North,4.6,360,Tulsa,Oklahoma,74104
27,Overcast,2016-01-20 04:53:00,32.0,,-,96,N/A,30.25,33.1,,10:53 PM,8.0,NNE,6.9,20,Tulsa,Oklahoma,74104
28,Overcast,2016-01-20 05:53:00,30.9,,-,92,N/A,30.25,33.1,,11:53 PM,8.0,North,5.8,360,Tulsa,Oklahoma,74104
0,Overcast,2016-01-20 06:53:00,30.9,,-,92,N/A,30.25,33.1,,12:53 AM,7.0,Variable,3.5,0,Tulsa,Oklahoma,74104
1,Overcast,2016-01-20 07:53:00,28.9,,-,88,N/A,30.26,32.0,,1:53 AM,10.0,NNW,4.6,330,Tulsa,Oklahoma,74104
2,Overcast,2016-01-20 08:53:00,28.0,,-,89,N/A,30.26,30.9,,2:53 AM,10.0,NW,4.6,320,Tulsa,Oklahoma,74104
3,Overcast,2016-01-20 09:53:00,28.0,,-,92,N/A,30.24,30.0,,3:53 AM,10.0,North,8.1,10,Tulsa,Oklahoma,74104
4,Overcast,2016-01-20 10:53:00,26.1,,-,85,N/A,30.26,30.0,,4:53 AM,10.0,North,6.9,10,Tulsa,Oklahoma,74104
5,Overcast,2016-01-20 11:53:00,26.1,,-,85,N/A,30.25,30.0,,5:53 AM,10.0,North,4.6,350,Tulsa,Oklahoma,74104
6,Overcast,2016-01-20 12:53:00,27.0,,-,92,N/A,30.24,28.9,,6:53 AM,10.0,NNE,3.5,30,Tulsa,Oklahoma,74104
7,Overcast,2016-01-20 13:53:00,26.1,,-,89,N/A,30.27,28.9,,7:53 AM,8.0,NNW,5.8,340,Tulsa,Oklahoma,74104
8,Overcast,2016-01-20 14:53:00,26.1,,-,92,N/A,30.29,28.0,,8:53 AM,6.0,North,3.5,350,Tulsa,Oklahoma,74104
9,Overcast,2016-01-20 15:53:00,26.1,,-,89,N/A,30.28,28.9,,9:53 AM,5.0,NE,3.5,50,Tulsa,Oklahoma,74104
10,Overcast,2016-01-20 16:53:00,26.1,,-,89,N/A,30.26,28.9,,10:53 AM,6.0,East,8.1,90,Tulsa,Oklahoma,74104
11,Overcast,2016-01-20 17:53:00,27.0,,-,92,N/A,30.25,28.9,,11:53 AM,6.0,ESE,4.6,110,Tulsa,Oklahoma,74104
12,Overcast,2016-01-20 18:53:00,27.0,,-,88,N/A,30.22,30.0,,12:53 PM,6.0,South,4.6,180,Tulsa,Oklahoma,74104
13,Overcast,2016-01-20 19:53:00,28.0,,-,89,N/A,30.15,30.9,,1:53 PM,5.0,ENE,5.8,60,Tulsa,Oklahoma,74104
14,Overcast,2016-01-20 20:53:00,28.0,,-,89,N/A,30.15,30.9,,2:53 PM,8.0,South,3.5,190,Tulsa,Oklahoma,74104
15,Overcast,2016-01-20 21:53:00,27.0,,-,85,N/A,30.13,30.9,,3:53 PM,10.0,ESE,8.1,110,Tulsa,Oklahoma,74104
16,Overcast,2016-01-20 22:53:00,28.0,,-,89,N/A,30.09,30.9,,4:53 PM,6.0,East,9.2,100,Tulsa,Oklahoma,74104
17,Overcast,2016-01-20 23:53:00,28.0,,-,89,N/A,30.09,30.9,,5:53 PM,8.0,SE,6.9,130,Tulsa,Oklahoma,74104
18,Overcast,2016-01-21 00:53:00,30.0,,-,92,N/A,30.09,32.0,,6:53 PM,7.0,SE,6.9,140,Tulsa,Oklahoma,74104
19,Overcast,2016-01-21 01:53:00,30.9,,-,92,N/A,30.11,33.1,,7:53 PM,7.0,South,4.6,190,Tulsa,Oklahoma,74104
20,Overcast,2016-01-21 02:53:00,30.9,,-,92,N/A,30.09,33.1,,8:53 PM,5.0,ESE,5.8,110,Tulsa,Oklahoma,74104
21,Overcast,2016-01-21 03:44:00,32.0,,-,96,N/A,30.07,33.1,,9:44 PM,4.0,Calm,Calm,0,Tulsa,Oklahoma,74104
22,Light Rain,2016-01-21 03:53:00,32.0,Rain,-,96,0.00,30.11,33.1,,9:53 PM,4.0,Calm,Calm,0,Tulsa,Oklahoma,74104
23,Overcast,2016-01-21 04:26:00,32.0,,-,96,0.00,30.07,33.1,,10:26 PM,4.0,SE,3.5,130,Tulsa,Oklahoma,74104
24,Overcast,2016-01-21 04:53:00,32.0,,-,92,0.00,30.11,34.0,,10:53 PM,4.0,Calm,Calm,0,Tulsa,Oklahoma,74104
25,Overcast,2016-01-21 05:53:00,32.0,,-,92,N/A,30.09,34.0,,11:53 PM,4.0,NE,3.5,40,Tulsa,Oklahoma,74104
0,Overcast,2016-01-21 06:53:00,33.1,,-,92,N/A,30.09,35.1,,12:53 AM,5.0,ENE,3.5,60,Tulsa,Oklahoma,74104
1,Overcast,2016-01-21 07:53:00,33.1,,-,92,N/A,30.07,35.1,,1:53 AM,5.0,ENE,6.9,60,Tulsa,Oklahoma,74104
2,Overcast,2016-01-21 08:53:00,33.1,,-,92,N/A,30.10,35.1,,2:53 AM,4.0,NE,3.5,40,Tulsa,Oklahoma,74104
3,Overcast,2016-01-21 09:11:00,33.1,,-,96,N/A,30.07,34.0,,3:11 AM,2.5,NE,4.6,40,Tulsa,Oklahoma,74104
4,Overcast,2016-01-21 09:25:00,34.0,,-,100,N/A,30.07,34.0,,3:25 AM,1.8,ENE,3.5,60,Tulsa,Oklahoma,74104
5,Overcast,2016-01-21 09:53:00,34.0,,-,96,N/A,30.09,35.1,,3:53 AM,1.5,NE,4.6,40,Tulsa,Oklahoma,74104
6,Overcast,2016-01-21 10:46:00,34.0,,-,100,N/A,30.06,34.0,,4:46 AM,2.0,NE,4.6,50,Tulsa,Oklahoma,74104
7,Overcast,2016-01-21 10:53:00,34.0,,-,96,N/A,30.10,35.1,,4:53 AM,2.5,NE,4.6,50,Tulsa,Oklahoma,74104
8,Overcast,2016-01-21 11:53:00,34.0,,-,96,N/A,30.10,35.1,,5:53 AM,2.5,NNE,3.5,30,Tulsa,Oklahoma,74104
9,Overcast,2016-01-21 12:02:00,34.0,,-,96,N/A,30.08,35.1,,6:02 AM,3.0,NNE,4.6,30,Tulsa,Oklahoma,74104
10,Overcast,2016-01-21 12:21:00,34.0,,-,96,N/A,30.07,35.1,,6:21 AM,2.5,NNE,3.5,30,Tulsa,Oklahoma,74104
11,Overcast,2016-01-21 12:50:00,33.8,,-,93,N/A,30.09,35.6,,6:50 AM,3.0,NNE,3.5,20,Tulsa,Oklahoma,74104
12,Overcast,2016-01-21 12:53:00,34.0,,-,96,N/A,30.12,35.1,,6:53 AM,3.0,Calm,Calm,0,Tulsa,Oklahoma,74104
13,Overcast,2016-01-21 13:07:00,34.0,,-,96,N/A,30.09,35.1,,7:07 AM,2.5,Calm,Calm,0,Tulsa,Oklahoma,74104
14,Overcast,2016-01-21 13:43:00,34.0,,-,100,N/A,30.11,34.0,,7:43 AM,1.8,North,3.5,350,Tulsa,Oklahoma,74104
15,Overcast,2016-01-21 13:53:00,34.0,,-,100,N/A,30.14,34.0,,7:53 AM,1.2,North,3.5,360,Tulsa,Oklahoma,74104
16,Overcast,2016-01-21 14:14:00,33.1,,-,96,N/A,30.10,34.0,,8:14 AM,0.8,North,4.6,360,Tulsa,Oklahoma,74104
17,Overcast,2016-01-21 14:22:00,34.0,,-,100,N/A,30.11,34.0,,8:22 AM,1.0,North,6.9,10,Tulsa,Oklahoma,74104
18,Overcast,2016-01-21 14:53:00,34.0,,-,96,N/A,30.16,35.1,,8:53 AM,1.5,NE,3.5,40,Tulsa,Oklahoma,74104
19,Overcast,2016-01-21 15:04:00,34.0,,-,96,N/A,30.13,35.1,,9:04 AM,2.5,NNE,3.5,30,Tulsa,Oklahoma,74104
20,Overcast,2016-01-21 15:44:00,34.0,,-,93,N/A,30.14,36.0,,9:44 AM,3.0,NNE,3.5,20,Tulsa,Oklahoma,74104
21,Overcast,2016-01-21 15:53:00,34.0,,-,93,N/A,30.17,36.0,,9:53 AM,3.0,NNE,3.5,30,Tulsa,Oklahoma,74104
22,Overcast,2016-01-21 16:11:00,34.0,,-,93,N/A,30.14,36.0,,10:11 AM,4.0,North,4.6,10,Tulsa,Oklahoma,74104
23,Overcast,2016-01-21 16:53:00,34.0,,-,93,N/A,30.17,36.0,,10:53 AM,4.0,North,8.1,10,Tulsa,Oklahoma,74104
24,Overcast,2016-01-21 17:53:00,34.0,,-,93,N/A,30.14,36.0,,11:53 AM,5.0,North,6.9,350,Tulsa,Oklahoma,74104
25,Overcast,2016-01-21 18:44:00,34.0,,-,89,N/A,30.11,37.0,,12:44 PM,10.0,North,8.1,350,Tulsa,Oklahoma,74104
26,Overcast,2016-01-21 18:53:00,33.1,,-,86,N/A,30.13,37.0,,12:53 PM,10.0,North,6.9,350,Tulsa,Oklahoma,74104
27,Overcast,2016-01-21 19:53:00,32.0,,18.4,82,N/A,30.11,37.0,,1:53 PM,10.0,North,9.2,350,Tulsa,Oklahoma,74104
28,Overcast,2016-01-21 20:53:00,30.9,,-,85,N/A,30.15,35.1,,2:53 PM,10.0,North,6.9,350,Tulsa,Oklahoma,74104
29,Overcast,2016-01-21 21:53:00,30.0,,-,82,N/A,30.17,35.1,,3:53 PM,10.0,NNW,9.2,340,Tulsa,Oklahoma,74104
30,Overcast,2016-01-21 22:53:00,28.9,,20.7,82,N/A,30.19,34.0,,4:53 PM,10.0,NNW,11.5,340,Tulsa,Oklahoma,74104
31,Overcast,2016-01-21 23:53:00,28.9,,17.3,82,N/A,30.21,34.0,,5:53 PM,10.0,North,9.2,350,Tulsa,Oklahoma,74104
32,Overcast,2016-01-22 00:15:00,28.0,,-,79,N/A,30.18,34.0,,6:15 PM,10.0,NNW,8.1,340,Tulsa,Oklahoma,74104
33,Overcast,2016-01-22 00:53:00,27.0,,21.9,78,N/A,30.22,33.1,,6:53 PM,10.0,North,12.7,350,Tulsa,Oklahoma,74104
34,Overcast,2016-01-22 01:53:00,26.1,,19.6,75,N/A,30.23,33.1,,7:53 PM,10.0,North,10.4,350,Tulsa,Oklahoma,74104
35,Overcast,2016-01-22 02:53:00,25.0,,21.9,75,N/A,30.23,32.0,,8:53 PM,10.0,North,10.4,350,Tulsa,Oklahoma,74104
36,Overcast,2016-01-22 03:53:00,25.0,,19.6,79,N/A,30.24,30.9,,9:53 PM,10.0,NNW,9.2,340,Tulsa,Oklahoma,74104
37,Overcast,2016-01-22 04:53:00,24.1,,-,79,N/A,30.25,30.0,,10:53 PM,10.0,North,10.4,350,Tulsa,Oklahoma,74104
38,Overcast,2016-01-22 05:53:00,23.0,,17.3,75,N/A,30.25,30.0,,11:53 PM,10.0,NNW,11.5,330,Tulsa,Oklahoma,74104
0,Overcast,2016-01-22 06:53:00,23.0,,23.0,75,N/A,30.25,30.0,,12:53 AM,10.0,North,15.0,350,Tulsa,Oklahoma,74104
1,Overcast,2016-01-22 07:53:00,23.0,,21.9,75,N/A,30.24,30.0,,1:53 AM,10.0,North,10.4,360,Tulsa,Oklahoma,74104
2,Overcast,2016-01-22 08:53:00,21.9,,18.4,75,N/A,30.24,28.9,,2:53 AM,10.0,NNW,10.4,340,Tulsa,Oklahoma,74104
3,Overcast,2016-01-22 09:53:00,21.0,,20.7,75,N/A,30.26,28.0,,3:53 AM,10.0,North,12.7,350,Tulsa,Oklahoma,74104
4,Mostly Cloudy,2016-01-22 10:28:00,19.9,,23.0,75,N/A,30.23,27.0,,4:28 AM,10.0,North,10.4,350,Tulsa,Oklahoma,74104
5,Clear,2016-01-22 10:53:00,19.9,,17.3,75,N/A,30.28,27.0,,4:53 AM,10.0,NNW,8.1,340,Tulsa,Oklahoma,74104
6,Clear,2016-01-22 11:53:00,18.0,,18.4,75,N/A,30.32,25.0,,5:53 AM,10.0,North,8.1,350,Tulsa,Oklahoma,74104
7,Clear,2016-01-22 12:53:00,18.0,,-,75,N/A,30.34,25.0,,6:53 AM,10.0,North,9.2,350,Tulsa,Oklahoma,74104
8,Clear,2016-01-22 13:53:00,18.0,,-,75,N/A,30.35,25.0,,7:53 AM,10.0,NNW,8.1,340,Tulsa,Oklahoma,74104
9,Clear,2016-01-22 14:53:00,18.0,,18.4,69,N/A,30.38,27.0,,8:53 AM,10.0,Variable,6.9,0,Tulsa,Oklahoma,74104
10,Clear,2016-01-22 15:53:00,18.0,,21.9,66,N/A,30.40,28.0,,9:53 AM,10.0,NNW,12.7,340,Tulsa,Oklahoma,74104
11,Clear,2016-01-22 16:53:00,19.0,,16.1,61,N/A,30.41,30.9,,10:53 AM,10.0,North,6.9,350,Tulsa,Oklahoma,74104
12,Clear,2016-01-22 17:53:00,19.0,,21.9,54,N/A,30.41,34.0,,11:53 AM,10.0,NNW,8.1,340,Tulsa,Oklahoma,74104
13,Clear,2016-01-22 18:53:00,19.0,,19.6,50,N/A,30.39,36.0,,12:53 PM,10.0,North,10.4,350,Tulsa,Oklahoma,74104
14,Clear,2016-01-22 19:53:00,19.9,,-,48,N/A,30.36,37.9,,1:53 PM,10.0,NNW,6.9,330,Tulsa,Oklahoma,74104
15,Clear,2016-01-22 20:53:00,21.0,,16.1,49,N/A,30.35,39.0,,2:53 PM,10.0,Variable,6.9,0,Tulsa,Oklahoma,74104
16,Partly Cloudy,2016-01-22 21:53:00,21.9,,-,54,N/A,30.37,37.0,,3:53 PM,10.0,NW,8.1,310,Tulsa,Oklahoma,74104
17,Clear,2016-01-22 22:53:00,21.0,,17.3,67,N/A,30.38,30.9,,4:53 PM,10.0,NW,8.1,320,Tulsa,Oklahoma,74104
18,Mostly Cloudy,2016-01-22 23:17:00,21.0,,17.3,67,N/A,30.35,30.9,,5:17 PM,10.0,NNW,6.9,340,Tulsa,Oklahoma,74104
19,Overcast,2016-01-22 23:53:00,21.0,,-,67,N/A,30.40,30.9,,5:53 PM,10.0,NNW,8.1,340,Tulsa,Oklahoma,74104
20,Overcast,2016-01-23 00:53:00,21.0,,-,69,N/A,30.41,30.0,,6:53 PM,10.0,North,8.1,350,Tulsa,Oklahoma,74104
21,Overcast,2016-01-23 01:53:00,21.9,,-,72,N/A,30.41,30.0,,7:53 PM,10.0,North,8.1,360,Tulsa,Oklahoma,74104
22,Overcast,2016-01-23 02:53:00,21.9,,-,75,N/A,30.42,28.9,,8:53 PM,10.0,North,6.9,350,Tulsa,Oklahoma,74104
23,Overcast,2016-01-23 03:53:00,21.9,,-,75,N/A,30.40,28.9,,9:53 PM,10.0,North,11.5,10,Tulsa,Oklahoma,74104
24,Overcast,2016-01-23 04:53:00,21.9,,-,75,N/A,30.40,28.9,,10:53 PM,10.0,Variable,4.6,0,Tulsa,Oklahoma,74104
25,Overcast,2016-01-23 05:53:00,21.9,,-,75,N/A,30.39,28.9,,11:53 PM,9.0,NNE,9.2,20,Tulsa,Oklahoma,74104
0,Overcast,2016-01-23 06:53:00,21.0,,-,72,N/A,30.39,28.9,,12:53 AM,10.0,NNE,9.2,30,Tulsa,Oklahoma,74104
1,Overcast,2016-01-23 07:53:00,21.0,,-,72,N/A,30.38,28.9,,1:53 AM,10.0,North,9.2,360,Tulsa,Oklahoma,74104
2,Overcast,2016-01-23 08:53:00,21.9,,-,75,N/A,30.37,28.9,,2:53 AM,10.0,NNE,5.8,30,Tulsa,Oklahoma,74104
3,Overcast,2016-01-23 09:53:00,21.9,,-,78,N/A,30.35,28.0,,3:53 AM,10.0,ENE,8.1,60,Tulsa,Oklahoma,74104
4,Overcast,2016-01-23 10:53:00,21.9,,-,78,N/A,30.35,28.0,,4:53 AM,9.0,NNE,4.6,20,Tulsa,Oklahoma,74104
5,Overcast,2016-01-23 11:53:00,21.9,,-,78,N/A,30.35,28.0,,5:53 AM,9.0,NNE,4.6,20,Tulsa,Oklahoma,74104
6,Overcast,2016-01-23 12:53:00,21.9,,-,78,N/A,30.35,28.0,,6:53 AM,8.0,NNE,3.5,30,Tulsa,Oklahoma,74104
7,Overcast,2016-01-23 13:53:00,21.9,,-,75,N/A,30.37,28.9,,7:53 AM,7.0,Calm,Calm,0,Tulsa,Oklahoma,74104
8,Haze,2016-01-23 14:53:00,21.9,,-,75,N/A,30.38,28.9,,8:53 AM,6.0,Calm,Calm,0,Tulsa,Oklahoma,74104
9,Overcast,2016-01-23 15:53:00,23.0,,-,78,N/A,30.37,28.9,,9:53 AM,7.0,ESE,4.6,120,Tulsa,Oklahoma,74104
10,Overcast,2016-01-23 16:53:00,23.0,,-,75,N/A,30.38,30.0,,10:53 AM,8.0,Variable,3.5,0,Tulsa,Oklahoma,74104
11,Partly Cloudy,2016-01-23 17:53:00,23.0,,-,69,N/A,30.32,32.0,,11:53 AM,10.0,Calm,Calm,0,Tulsa,Oklahoma,74104
12,Clear,2016-01-23 18:53:00,24.1,,-,62,N/A,30.27,36.0,,12:53 PM,10.0,SSE,6.9,160,Tulsa,Oklahoma,74104
13,Clear,2016-01-23 19:53:00,25.0,,-,55,N/A,30.24,39.9,,1:53 PM,10.0,SSE,8.1,160,Tulsa,Oklahoma,74104
14,Clear,2016-01-23 20:53:00,24.1,,-,49,N/A,30.19,42.1,,2:53 PM,10.0,SSE,9.2,160,Tulsa,Oklahoma,74104
15,Clear,2016-01-23 21:53:00,25.0,,-,49,N/A,30.16,43.0,,3:53 PM,10.0,SSE,8.1,160,Tulsa,Oklahoma,74104
16,Clear,2016-01-23 22:53:00,24.1,,-,49,N/A,30.15,42.1,,4:53 PM,10.0,South,8.1,170,Tulsa,Oklahoma,74104
17,Clear,2016-01-23 23:53:00,25.0,,-,57,N/A,30.17,39.0,,5:53 PM,10.0,SSE,6.9,160,Tulsa,Oklahoma,74104
18,Clear,2016-01-24 00:53:00,26.1,,-,65,N/A,30.16,37.0,,6:53 PM,10.0,SSE,4.6,160,Tulsa,Oklahoma,74104
19,Clear,2016-01-24 01:53:00,25.0,,-,64,N/A,30.14,36.0,,7:53 PM,10.0,South,4.6,170,Tulsa,Oklahoma,74104
20,Clear,2016-01-24 02:53:00,25.0,,-,67,N/A,30.12,35.1,,8:53 PM,10.0,South,3.5,170,Tulsa,Oklahoma,74104
21,Clear,2016-01-24 03:53:00,25.0,,-,67,N/A,30.13,35.1,,9:53 PM,10.0,SSE,4.6,160,Tulsa,Oklahoma,74104
22,Clear,2016-01-24 04:53:00,24.1,,-,82,N/A,30.13,28.9,,10:53 PM,10.0,SW,3.5,220,Tulsa,Oklahoma,74104
23,Clear,2016-01-24 05:53:00,25.0,,-,75,N/A,30.11,32.0,,11:53 PM,10.0,South,4.6,180,Tulsa,Oklahoma,74104
0,Clear,2016-01-24 06:53:00,27.0,,-,75,N/A,30.08,34.0,,12:53 AM,10.0,SSE,5.8,160,Tulsa,Oklahoma,74104
1,Clear,2016-01-24 07:53:00,27.0,,-,75,N/A,30.06,34.0,,1:53 AM,10.0,South,4.6,170,Tulsa,Oklahoma,74104
2,Clear,2016-01-24 08:53:00,27.0,,-,72,N/A,30.05,35.1,,2:53 AM,10.0,South,9.2,170,Tulsa,Oklahoma,74104
3,Clear,2016-01-24 09:53:00,27.0,,-,75,N/A,30.03,34.0,,3:53 AM,10.0,SSE,8.1,160,Tulsa,Oklahoma,74104
4,Clear,2016-01-24 10:53:00,27.0,,-,72,N/A,30.01,35.1,,4:53 AM,10.0,South,8.1,170,Tulsa,Oklahoma,74104
5,Clear,2016-01-24 11:53:00,27.0,,-,72,N/A,30.00,35.1,,5:53 AM,10.0,SSE,8.1,160,Tulsa,Oklahoma,74104
6,Clear,2016-01-24 12:53:00,27.0,,-,75,N/A,30.00,34.0,,6:53 AM,10.0,South,8.1,170,Tulsa,Oklahoma,74104
7,Clear,2016-01-24 13:53:00,28.0,,-,73,N/A,29.98,36.0,,7:53 AM,10.0,South,12.7,170,Tulsa,Oklahoma,74104
8,Clear,2016-01-24 14:53:00,28.9,,-,70,N/A,29.99,37.9,,8:53 AM,10.0,South,11.5,170,Tulsa,Oklahoma,74104
9,Clear,2016-01-24 15:53:00,30.0,,-,62,N/A,29.96,42.1,,9:53 AM,10.0,South,13.8,170,Tulsa,Oklahoma,74104
10,Clear,2016-01-24 16:53:00,30.9,,26.5,52,N/A,29.95,48.0,,10:53 AM,10.0,South,16.1,180,Tulsa,Oklahoma,74104
11,Clear,2016-01-24 17:53:00,30.9,,28.8,43,N/A,29.90,53.1,,11:53 AM,10.0,South,19.6,190,Tulsa,Oklahoma,74104
12,Clear,2016-01-24 18:53:00,30.9,,36.8,41,N/A,29.85,54.0,,12:53 PM,10.0,South,19.6,190,Tulsa,Oklahoma,74104
13,Clear,2016-01-24 19:53:00,30.9,,25.3,39,N/A,29.82,55.9,,1:53 PM,10.0,South,17.3,190,Tulsa,Oklahoma,74104
14,Clear,2016-01-24 20:53:00,30.9,,27.6,39,N/A,29.79,55.9,,2:53 PM,10.0,South,18.4,190,Tulsa,Oklahoma,74104
15,Clear,2016-01-24 21:53:00,30.9,,26.5,37,N/A,29.78,57.0,,3:53 PM,10.0,South,12.7,180,Tulsa,Oklahoma,74104
16,Clear,2016-01-24 22:53:00,32.0,,26.5,39,N/A,29.76,57.0,,4:53 PM,10.0,South,18.4,180,Tulsa,Oklahoma,74104
17,Clear,2016-01-24 23:53:00,32.0,,20.7,42,N/A,29.76,55.0,,5:53 PM,10.0,South,12.7,180,Tulsa,Oklahoma,74104
18,Clear,2016-01-25 00:53:00,33.1,,-,47,N/A,29.78,53.1,,6:53 PM,10.0,South,10.4,190,Tulsa,Oklahoma,74104
19,Clear,2016-01-25 01:53:00,33.1,,-,50,N/A,29.78,51.1,,7:53 PM,10.0,SSE,8.1,160,Tulsa,Oklahoma,74104
20,Clear,2016-01-25 02:53:00,34.0,,-,54,N/A,29.77,50.0,,8:53 PM,10.0,South,13.8,170,Tulsa,Oklahoma,74104
21,Clear,2016-01-25 03:53:00,34.0,,-,54,N/A,29.77,50.0,,9:53 PM,10.0,South,13.8,170,Tulsa,Oklahoma,74104
22,Clear,2016-01-25 04:53:00,35.1,,-,57,N/A,29.76,50.0,,10:53 PM,10.0,South,12.7,170,Tulsa,Oklahoma,74104
23,Clear,2016-01-25 05:53:00,36.0,,-,63,N/A,29.74,48.0,,11:53 PM,10.0,South,10.4,170,Tulsa,Oklahoma,74104
0,Clear,2016-01-25 06:53:00,37.0,,-,71,N/A,29.73,46.0,,12:53 AM,10.0,SSE,8.1,160,Tulsa,Oklahoma,74104
1,Clear,2016-01-25 07:53:00,37.9,,-,73,N/A,29.70,46.0,,1:53 AM,10.0,SSE,9.2,150,Tulsa,Oklahoma,74104
2,Clear,2016-01-25 08:53:00,41.0,,-,80,N/A,29.68,46.9,,2:53 AM,10.0,SSE,8.1,150,Tulsa,Oklahoma,74104
3,Partly Cloudy,2016-01-25 09:53:00,42.1,,-,83,N/A,29.68,46.9,,3:53 AM,10.0,South,10.4,190,Tulsa,Oklahoma,74104
4,Clear,2016-01-25 10:53:00,46.0,,18.4,80,N/A,29.64,52.0,,4:53 AM,10.0,South,13.8,190,Tulsa,Oklahoma,74104
5,Partly Cloudy,2016-01-25 11:53:00,46.9,,21.9,86,N/A,29.64,51.1,,5:53 AM,10.0,SSW,15.0,200,Tulsa,Oklahoma,74104
6,Mostly Cloudy,2016-01-25 12:30:00,46.9,,-,86,N/A,29.65,51.1,,6:30 AM,10.0,SSW,11.5,200,Tulsa,Oklahoma,74104
7,Mostly Cloudy,2016-01-25 12:53:00,46.9,,-,89,N/A,29.68,50.0,,6:53 AM,10.0,SSW,11.5,200,Tulsa,Oklahoma,74104
8,Scattered Clouds,2016-01-25 13:13:00,46.0,,17.3,86,N/A,29.67,50.0,,7:13 AM,10.0,Variable,5.8,0,Tulsa,Oklahoma,74104
9,Clear,2016-01-25 13:53:00,46.0,,-,86,N/A,29.71,50.0,,7:53 AM,10.0,SW,9.2,220,Tulsa,Oklahoma,74104
10,Clear,2016-01-25 14:53:00,37.0,,19.6,64,N/A,29.74,48.9,,8:53 AM,10.0,WSW,10.4,250,Tulsa,Oklahoma,74104
11,Scattered Clouds,2016-01-25 15:53:00,-9999,,21.9,N/A,N/A,29.81,-9999,,9:53 AM,-9999.0,WNW,12.7,290,Tulsa,Oklahoma,74104
12,Mostly Cloudy,2016-01-25 16:06:00,34.0,,20.7,63,N/A,29.83,46.0,,10:06 AM,10.0,WNW,10.4,290,Tulsa,Oklahoma,74104
13,Overcast,2016-01-25 16:53:00,34.0,,-,63,N/A,29.89,46.0,,10:53 AM,10.0,West,9.2,270,Tulsa,Oklahoma,74104
14,Overcast,2016-01-25 17:53:00,32.0,,16.1,70,N/A,29.93,41.0,,11:53 AM,10.0,West,8.1,280,Tulsa,Oklahoma,74104
15,Overcast,2016-01-25 18:53:00,32.0,,17.3,65,N/A,29.94,43.0,,12:53 PM,10.0,NW,11.5,310,Tulsa,Oklahoma,74104
16,Overcast,2016-01-25 19:53:00,30.9,,-,60,N/A,29.96,44.1,,1:53 PM,10.0,Variable,5.8,0,Tulsa,Oklahoma,74104
17,Overcast,2016-01-25 20:41:00,30.9,,-,60,N/A,29.96,44.1,,2:41 PM,10.0,North,-9999.0,0,Tulsa,Oklahoma,74104
18,Overcast,2016-01-25 20:53:00,30.9,,-,60,N/A,29.98,44.1,,2:53 PM,10.0,NW,8.1,310,Tulsa,Oklahoma,74104
19,Overcast,2016-01-25 21:37:00,32.0,,-,63,N/A,29.98,44.1,,3:37 PM,10.0,Variable,6.9,0,Tulsa,Oklahoma,74104
20,Overcast,2016-01-25 21:53:00,32.0,,18.4,63,N/A,30.01,44.1,,3:53 PM,10.0,WNW,6.9,300,Tulsa,Oklahoma,74104
21,Overcast,2016-01-25 22:48:00,32.0,,-,61,N/A,30.02,44.6,,4:48 PM,10.0,NW,5.8,320,Tulsa,Oklahoma,74104
22,Overcast,2016-01-25 22:53:00,32.0,,-,63,N/A,30.04,44.1,,4:53 PM,10.0,WNW,8.1,300,Tulsa,Oklahoma,74104
23,Overcast,2016-01-25 23:53:00,30.9,,-,60,N/A,30.06,44.1,,5:53 PM,10.0,NW,5.8,320,Tulsa,Oklahoma,74104
24,Overcast,2016-01-26 00:53:00,30.0,,19.6,60,N/A,30.12,43.0,,6:53 PM,10.0,NNW,8.1,330,Tulsa,Oklahoma,74104
25,Mostly Cloudy,2016-01-26 01:53:00,28.9,,-,62,N/A,30.14,41.0,,7:53 PM,10.0,North,6.9,360,Tulsa,Oklahoma,74104
26,Clear,2016-01-26 02:53:00,28.0,,-,76,N/A,30.17,35.1,,8:53 PM,10.0,Calm,Calm,0,Tulsa,Oklahoma,74104
27,Overcast,2016-01-26 03:53:00,28.9,,-,78,N/A,30.17,35.1,,9:53 PM,10.0,Calm,Calm,0,Tulsa,Oklahoma,74104
28,Partly Cloudy,2016-01-26 04:53:00,28.0,,-,73,N/A,30.22,36.0,,10:53 PM,10.0,Variable,3.5,0,Tulsa,Oklahoma,74104
29,Clear,2016-01-26 05:53:00,28.0,,-,70,N/A,30.23,37.0,,11:53 PM,10.0,NNW,5.8,340,Tulsa,Oklahoma,74104
0,Clear,2016-01-26 06:53:00,27.0,,-,72,N/A,30.25,35.1,,12:53 AM,10.0,Calm,Calm,0,Tulsa,Oklahoma,74104
1,Clear,2016-01-26 07:53:00,27.0,,-,72,N/A,30.26,35.1,,1:53 AM,10.0,NNW,3.5,340,Tulsa,Oklahoma,74104
2,Clear,2016-01-26 08:53:00,25.0,,-,85,N/A,30.27,28.9,,2:53 AM,10.0,Calm,Calm,0,Tulsa,Oklahoma,74104
3,Partly Cloudy,2016-01-26 09:53:00,24.1,,-,89,N/A,30.29,27.0,,3:53 AM,10.0,Calm,Calm,0,Tulsa,Oklahoma,74104
4,Mostly Cloudy,2016-01-26 10:08:00,25.0,,-,92,N/A,30.27,27.0,,4:08 AM,10.0,SSW,3.5,200,Tulsa,Oklahoma,74104
5,Overcast,2016-01-26 10:28:00,24.1,,-,89,N/A,30.27,27.0,,4:28 AM,10.0,Calm,Calm,0,Tulsa,Oklahoma,74104
6,Overcast,2016-01-26 10:53:00,26.1,,-,92,N/A,30.30,28.0,,4:53 AM,10.0,Calm,Calm,0,Tulsa,Oklahoma,74104
7,Mostly Cloudy,2016-01-26 11:53:00,26.1,,-,85,N/A,30.31,30.0,,5:53 AM,10.0,Variable,3.5,0,Tulsa,Oklahoma,74104
8,Mostly Cloudy,2016-01-26 12:43:00,24.1,,-,89,N/A,30.30,27.0,,6:43 AM,10.0,Calm,Calm,0,Tulsa,Oklahoma,74104
9,Overcast,2016-01-26 12:53:00,25.0,,-,88,N/A,30.32,28.0,,6:53 AM,10.0,Calm,Calm,0,Tulsa,Oklahoma,74104
10,Scattered Clouds,2016-01-26 13:53:00,25.0,,-,85,N/A,30.34,28.9,,7:53 AM,10.0,Calm,Calm,0,Tulsa,Oklahoma,74104
11,Clear,2016-01-26 14:53:00,27.0,,-,75,N/A,30.36,34.0,,8:53 AM,10.0,North,3.5,350,Tulsa,Oklahoma,74104
12,Clear,2016-01-26 15:53:00,28.0,,-,65,N/A,30.39,39.0,,9:53 AM,10.0,NNW,6.9,340,Tulsa,Oklahoma,74104
13,Clear,2016-01-26 16:53:00,28.0,,-,58,N/A,30.40,42.1,,10:53 AM,10.0,NNE,8.1,20,Tulsa,Oklahoma,74104
14,Clear,2016-01-26 17:53:00,28.0,,-,52,N/A,30.39,45.0,,11:53 AM,10.0,Variable,5.8,0,Tulsa,Oklahoma,74104
15,Clear,2016-01-26 18:53:00,26.1,,-,42,N/A,30.36,48.0,,12:53 PM,10.0,North,9.2,360,Tulsa,Oklahoma,74104
16,Clear,2016-01-26 19:53:00,24.1,,18.4,38,N/A,30.32,48.9,,1:53 PM,10.0,North,11.5,10,Tulsa,Oklahoma,74104
17,Clear,2016-01-26 20:53:00,24.1,,-,36,N/A,30.31,50.0,,2:53 PM,10.0,North,10.4,10,Tulsa,Oklahoma,74104
18,Clear,2016-01-26 21:53:00,24.1,,-,35,N/A,30.29,51.1,,3:53 PM,10.0,NW,8.1,320,Tulsa,Oklahoma,74104
19,Clear,2016-01-26 22:53:00,21.9,,-,33,N/A,30.28,50.0,,4:53 PM,10.0,North,10.4,360,Tulsa,Oklahoma,74104
20,Clear,2016-01-26 23:53:00,21.0,,-,36,N/A,30.29,46.9,,5:53 PM,10.0,NNW,4.6,340,Tulsa,Oklahoma,74104
21,Clear,2016-01-27 00:53:00,21.9,,-,47,N/A,30.33,41.0,,6:53 PM,10.0,Calm,Calm,0,Tulsa,Oklahoma,74104
22,Clear,2016-01-27 01:53:00,24.1,,-,67,N/A,30.34,34.0,,7:53 PM,10.0,Calm,Calm,0,Tulsa,Oklahoma,74104
23,Clear,2016-01-27 02:53:00,24.1,,-,73,N/A,30.35,32.0,,8:53 PM,10.0,Calm,Calm,0,Tulsa,Oklahoma,74104
24,Clear,2016-01-27 03:53:00,23.0,,-,72,N/A,30.37,30.9,,9:53 PM,10.0,Calm,Calm,0,Tulsa,Oklahoma,74104
25,Clear,2016-01-27 04:53:00,23.0,,-,85,N/A,30.39,27.0,,10:53 PM,10.0,Calm,Calm,0,Tulsa,Oklahoma,74104
26,Clear,2016-01-27 05:53:00,21.9,,-,81,N/A,30.39,27.0,,11:53 PM,10.0,Calm,Calm,0,Tulsa,Oklahoma,74104
0,Clear,2016-01-27 06:53:00,21.9,,-,84,N/A,30.40,26.1,,12:53 AM,10.0,Calm,Calm,0,Tulsa,Oklahoma,74104
1,Clear,2016-01-27 07:53:00,21.0,,-,85,N/A,30.38,25.0,,1:53 AM,10.0,Calm,Calm,0,Tulsa,Oklahoma,74104
2,Clear,2016-01-27 08:53:00,19.9,,-,88,N/A,30.38,23.0,,2:53 AM,10.0,Calm,Calm,0,Tulsa,Oklahoma,74104
3,Clear,2016-01-27 09:53:00,19.0,,-,89,N/A,30.36,21.9,,3:53 AM,10.0,Calm,Calm,0,Tulsa,Oklahoma,74104
4,Clear,2016-01-27 10:53:00,18.0,,-,92,N/A,30.38,19.9,,4:53 AM,10.0,Calm,Calm,0,Tulsa,Oklahoma,74104
5,Clear,2016-01-27 11:53:00,18.0,,-,88,N/A,30.37,21.0,,5:53 AM,10.0,Calm,Calm,0,Tulsa,Oklahoma,74104
6,Clear,2016-01-27 12:53:00,17.1,,-,89,N/A,30.38,19.9,,6:53 AM,10.0,Calm,Calm,0,Tulsa,Oklahoma,74104
7,Clear,2016-01-27 13:53:00,19.0,,-,89,N/A,30.40,21.9,,7:53 AM,10.0,Calm,Calm,0,Tulsa,Oklahoma,74104
8,Clear,2016-01-27 14:53:00,23.0,,-,81,N/A,30.39,28.0,,8:53 AM,10.0,Calm,Calm,0,Tulsa,Oklahoma,74104
9,Clear,2016-01-27 15:53:00,26.1,,-,67,N/A,30.38,36.0,,9:53 AM,10.0,South,3.5,170,Tulsa,Oklahoma,74104
10,Clear,2016-01-27 16:53:00,27.0,,-,51,N/A,30.37,44.1,,10:53 AM,10.0,SSE,4.6,160,Tulsa,Oklahoma,74104
11,Clear,2016-01-27 17:53:00,27.0,,-,41,N/A,30.33,50.0,,11:53 AM,10.0,South,6.9,170,Tulsa,Oklahoma,74104
12,Clear,2016-01-27 18:53:00,21.9,,-,30,N/A,30.29,53.1,,12:53 PM,10.0,SSW,8.1,200,Tulsa,Oklahoma,74104
13,Clear,2016-01-27 19:53:00,23.0,,-,29,N/A,30.25,55.0,,1:53 PM,10.0,SSW,8.1,210,Tulsa,Oklahoma,74104
14,Clear,2016-01-27 20:53:00,21.0,,-,26,N/A,30.22,55.9,,2:53 PM,10.0,SSW,6.9,210,Tulsa,Oklahoma,74104
15,Clear,2016-01-27 21:53:00,21.0,,-,24,N/A,30.21,57.9,,3:53 PM,10.0,Variable,6.9,0,Tulsa,Oklahoma,74104
16,Clear,2016-01-27 22:53:00,21.9,,-,27,N/A,30.19,55.9,,4:53 PM,10.0,SSW,4.6,210,Tulsa,Oklahoma,74104
17,Clear,2016-01-27 23:53:00,23.0,,-,33,N/A,30.17,51.1,,5:53 PM,10.0,South,4.6,190,Tulsa,Oklahoma,74104
18,Clear,2016-01-28 00:53:00,24.1,,-,47,N/A,30.17,43.0,,6:53 PM,10.0,SSW,3.5,200,Tulsa,Oklahoma,74104
19,Clear,2016-01-28 01:53:00,24.1,,-,57,N/A,30.17,37.9,,7:53 PM,10.0,Calm,Calm,0,Tulsa,Oklahoma,74104
20,Clear,2016-01-28 02:53:00,26.1,,-,70,N/A,30.17,35.1,,8:53 PM,10.0,Calm,Calm,0,Tulsa,Oklahoma,74104
21,Clear,2016-01-28 03:53:00,25.0,,-,72,N/A,30.16,33.1,,9:53 PM,10.0,Calm,Calm,0,Tulsa,Oklahoma,74104
22,Clear,2016-01-28 04:53:00,25.0,,-,72,N/A,30.16,33.1,,10:53 PM,10.0,Calm,Calm,0,Tulsa,Oklahoma,74104
23,Clear,2016-01-28 05:53:00,26.1,,-,79,N/A,30.15,32.0,,11:53 PM,10.0,Calm,Calm,0,Tulsa,Oklahoma,74104
0,Clear,2016-01-28 06:53:00,24.1,,-,70,N/A,30.13,33.1,,12:53 AM,10.0,Calm,Calm,0,Tulsa,Oklahoma,74104
1,Clear,2016-01-28 07:53:00,24.1,,-,70,N/A,30.12,33.1,,1:53 AM,10.0,Calm,Calm,0,Tulsa,Oklahoma,74104
2,Clear,2016-01-28 08:53:00,24.1,,-,73,N/A,30.10,32.0,,2:53 AM,10.0,SW,3.5,220,Tulsa,Oklahoma,74104
3,Clear,2016-01-28 09:53:00,24.1,,-,79,N/A,30.08,30.0,,3:53 AM,10.0,Calm,Calm,0,Tulsa,Oklahoma,74104
4,Clear,2016-01-28 10:53:00,24.1,,-,73,N/A,30.08,32.0,,4:53 AM,10.0,Calm,Calm,0,Tulsa,Oklahoma,74104
5,Clear,2016-01-28 11:53:00,23.0,,-,81,N/A,30.09,28.0,,5:53 AM,10.0,Calm,Calm,0,Tulsa,Oklahoma,74104
6,Clear,2016-01-28 12:53:00,23.0,,-,81,N/A,30.09,28.0,,6:53 AM,10.0,Calm,Calm,0,Tulsa,Oklahoma,74104
7,Clear,2016-01-28 13:53:00,24.1,,-,82,N/A,30.10,28.9,,7:53 AM,10.0,Calm,Calm,0,Tulsa,Oklahoma,74104
8,Clear,2016-01-28 14:53:00,28.0,,-,65,N/A,30.10,39.0,,8:53 AM,10.0,Calm,Calm,0,Tulsa,Oklahoma,74104
9,Clear,2016-01-28 15:53:00,30.9,,-,54,N/A,30.10,46.9,,9:53 AM,10.0,WNW,3.5,300,Tulsa,Oklahoma,74104
10,Clear,2016-01-28 16:53:00,30.9,,-,43,N/A,30.09,53.1,,10:53 AM,10.0,Variable,6.9,0,Tulsa,Oklahoma,74104
11,Clear,2016-01-28 17:53:00,32.0,,-,37,N/A,30.07,57.9,,11:53 AM,10.0,Variable,6.9,0,Tulsa,Oklahoma,74104
12,Clear,2016-01-28 18:53:00,32.0,,-,32,N/A,30.04,62.1,,12:53 PM,10.0,WNW,8.1,300,Tulsa,Oklahoma,74104
13,Clear,2016-01-28 19:53:00,32.0,,-,29,N/A,30.00,64.9,,1:53 PM,10.0,Variable,6.9,0,Tulsa,Oklahoma,74104
14,Clear,2016-01-28 20:53:00,30.9,,-,27,N/A,29.99,66.0,,2:53 PM,10.0,Variable,6.9,0,Tulsa,Oklahoma,74104
15,Clear,2016-01-28 21:53:00,30.9,,-,27,N/A,29.99,66.0,,3:53 PM,10.0,WNW,9.2,300,Tulsa,Oklahoma,74104
16,Clear,2016-01-28 22:53:00,30.9,,-,29,N/A,29.99,64.0,,4:53 PM,10.0,WNW,6.9,290,Tulsa,Oklahoma,74104
17,Clear,2016-01-28 23:53:00,30.9,,-,35,N/A,30.00,59.0,,5:53 PM,10.0,West,4.6,280,Tulsa,Oklahoma,74104
18,Clear,2016-01-29 00:53:00,32.0,,-,47,N/A,30.02,52.0,,6:53 PM,10.0,WNW,3.5,290,Tulsa,Oklahoma,74104
19,Clear,2016-01-29 01:53:00,33.1,,-,56,N/A,30.02,48.0,,7:53 PM,10.0,Calm,Calm,0,Tulsa,Oklahoma,74104
20,Clear,2016-01-29 02:53:00,32.0,,-,70,N/A,30.03,41.0,,8:53 PM,10.0,Calm,Calm,0,Tulsa,Oklahoma,74104
21,Clear,2016-01-29 03:53:00,32.0,,-,73,N/A,30.02,39.9,,9:53 PM,10.0,Calm,Calm,0,Tulsa,Oklahoma,74104
22,Clear,2016-01-29 04:53:00,30.9,,-,73,N/A,30.03,39.0,,10:53 PM,10.0,Calm,Calm,0,Tulsa,Oklahoma,74104
23,Clear,2016-01-29 05:53:00,30.0,,-,85,N/A,30.02,34.0,,11:53 PM,10.0,Calm,Calm,0,Tulsa,Oklahoma,74104
0,Clear,2016-01-29 06:53:00,30.0,,-,82,N/A,30.01,35.1,,12:53 AM,10.0,Calm,Calm,0,Tulsa,Oklahoma,74104
1,Clear,2016-01-29 07:53:00,30.0,,-,85,N/A,30.00,34.0,,1:53 AM,10.0,Calm,Calm,0,Tulsa,Oklahoma,74104
2,Clear,2016-01-29 08:53:00,28.9,,-,88,N/A,30.00,32.0,,2:53 AM,10.0,Calm,Calm,0,Tulsa,Oklahoma,74104
3,Clear,2016-01-29 09:53:00,28.0,,-,89,N/A,29.99,30.9,,3:53 AM,10.0,Calm,Calm,0,Tulsa,Oklahoma,74104
4,Clear,2016-01-29 10:53:00,28.9,,-,88,N/A,29.98,32.0,,4:53 AM,10.0,Calm,Calm,0,Tulsa,Oklahoma,74104
5,Clear,2016-01-29 11:53:00,28.9,,-,88,N/A,29.97,32.0,,5:53 AM,10.0,Calm,Calm,0,Tulsa,Oklahoma,74104
6,Clear,2016-01-29 12:53:00,30.0,,-,82,N/A,29.96,35.1,,6:53 AM,10.0,SSE,4.6,160,Tulsa,Oklahoma,74104
7,Clear,2016-01-29 13:53:00,30.9,,-,85,N/A,29.96,35.1,,7:53 AM,10.0,South,3.5,190,Tulsa,Oklahoma,74104
8,Clear,2016-01-29 14:53:00,33.1,,-,68,N/A,29.94,43.0,,8:53 AM,10.0,SSE,3.5,150,Tulsa,Oklahoma,74104
9,Clear,2016-01-29 15:53:00,34.0,,-,48,N/A,29.92,53.1,,9:53 AM,10.0,South,9.2,190,Tulsa,Oklahoma,74104
10,Clear,2016-01-29 16:53:00,33.1,,20.7,33,N/A,29.89,63.0,,10:53 AM,10.0,South,13.8,190,Tulsa,Oklahoma,74104
11,Clear,2016-01-29 17:53:00,30.0,,23.0,23,N/A,29.84,70.0,,11:53 AM,10.0,SSW,15.0,200,Tulsa,Oklahoma,74104
12,Clear,2016-01-29 18:53:00,30.0,,27.6,20,N/A,29.78,73.0,,12:53 PM,10.0,South,20.7,180,Tulsa,Oklahoma,74104
13,Clear,2016-01-29 19:53:00,28.9,,32.2,19,N/A,29.72,73.9,,1:53 PM,10.0,South,23.0,190,Tulsa,Oklahoma,74104
14,Clear,2016-01-29 20:53:00,30.0,,29.9,20,N/A,29.70,73.9,,2:53 PM,10.0,South,16.1,190,Tulsa,Oklahoma,74104
15,Clear,2016-01-29 21:53:00,30.0,,32.2,19,N/A,29.67,75.0,,3:53 PM,10.0,South,19.6,180,Tulsa,Oklahoma,74104
16,Clear,2016-01-29 22:53:00,30.9,,26.5,21,N/A,29.68,73.9,,4:53 PM,10.0,South,16.1,190,Tulsa,Oklahoma,74104
17,Clear,2016-01-29 23:53:00,32.0,,23.0,25,N/A,29.71,70.0,,5:53 PM,10.0,South,13.8,190,Tulsa,Oklahoma,74104
18,Clear,2016-01-30 00:53:00,32.0,,-,27,N/A,29.71,66.9,,6:53 PM,10.0,South,10.4,190,Tulsa,Oklahoma,74104
19,Clear,2016-01-30 01:53:00,32.0,,-,29,N/A,29.73,64.9,,7:53 PM,10.0,South,10.4,180,Tulsa,Oklahoma,74104
20,Clear,2016-01-30 02:53:00,33.1,,-,34,N/A,29.72,62.1,,8:53 PM,10.0,South,5.8,190,Tulsa,Oklahoma,74104
21,Clear,2016-01-30 03:53:00,33.1,,-,42,N/A,29.70,55.9,,9:53 PM,10.0,ESE,3.5,120,Tulsa,Oklahoma,74104
22,Clear,2016-01-30 04:53:00,34.0,,-,61,N/A,29.69,46.9,,10:53 PM,10.0,Calm,Calm,0,Tulsa,Oklahoma,74104
23,Clear,2016-01-30 05:53:00,34.0,,-,63,N/A,29.73,46.0,,11:53 PM,10.0,Calm,Calm,0,Tulsa,Oklahoma,74104
0,Clear,2016-01-30 06:53:00,34.0,,-,71,N/A,29.70,43.0,,12:53 AM,10.0,Calm,Calm,0,Tulsa,Oklahoma,74104
1,Clear,2016-01-30 07:53:00,34.0,,-,73,N/A,29.73,42.1,,1:53 AM,10.0,West,3.5,260,Tulsa,Oklahoma,74104
2,Clear,2016-01-30 08:53:00,34.0,,-,76,N/A,29.71,41.0,,2:53 AM,10.0,Calm,Calm,0,Tulsa,Oklahoma,74104
3,Clear,2016-01-30 09:53:00,32.0,,-,76,N/A,29.71,39.0,,3:53 AM,10.0,SSW,4.6,200,Tulsa,Oklahoma,74104
4,Clear,2016-01-30 10:53:00,33.1,,-,77,N/A,29.73,39.9,,4:53 AM,10.0,Calm,Calm,0,Tulsa,Oklahoma,74104
5,Clear,2016-01-30 11:53:00,30.9,,-,82,N/A,29.73,36.0,,5:53 AM,10.0,Calm,Calm,0,Tulsa,Oklahoma,74104
6,Clear,2016-01-30 12:53:00,32.0,,-,89,N/A,29.75,35.1,,6:53 AM,10.0,West,4.6,270,Tulsa,Oklahoma,74104
7,Clear,2016-01-30 13:53:00,32.0,,-,73,N/A,29.79,39.9,,7:53 AM,10.0,WNW,5.8,300,Tulsa,Oklahoma,74104
8,Clear,2016-01-30 14:53:00,35.1,,-,71,N/A,29.79,44.1,,8:53 AM,10.0,SW,3.5,230,Tulsa,Oklahoma,74104
9,Clear,2016-01-30 15:53:00,36.0,,-,61,N/A,29.78,48.9,,9:53 AM,10.0,South,5.8,190,Tulsa,Oklahoma,74104
10,Clear,2016-01-30 16:53:00,37.0,,-,53,N/A,29.78,54.0,,10:53 AM,10.0,Variable,4.6,0,Tulsa,Oklahoma,74104
11,Clear,2016-01-30 17:53:00,36.0,,-,41,N/A,29.76,60.1,,11:53 AM,10.0,SSW,4.6,210,Tulsa,Oklahoma,74104
12,Clear,2016-01-30 18:53:00,37.0,,-,36,N/A,29.70,64.9,,12:53 PM,10.0,SSE,10.4,160,Tulsa,Oklahoma,74104
13,Clear,2016-01-30 19:53:00,36.0,,-,30,N/A,29.66,69.1,,1:53 PM,10.0,South,9.2,190,Tulsa,Oklahoma,74104
14,Clear,2016-01-30 20:53:00,34.0,,-,26,N/A,29.62,71.1,,2:53 PM,10.0,SSE,11.5,160,Tulsa,Oklahoma,74104
15,Clear,2016-01-30 21:53:00,34.0,,25.3,24,N/A,29.58,73.0,,3:53 PM,10.0,South,18.4,170,Tulsa,Oklahoma,74104
16,Clear,2016-01-30 22:53:00,36.0,,-,27,N/A,29.56,72.0,,4:53 PM,10.0,South,12.7,170,Tulsa,Oklahoma,74104
17,Clear,2016-01-30 23:53:00,36.0,,-,31,N/A,29.55,68.0,,5:53 PM,10.0,South,12.7,170,Tulsa,Oklahoma,74104
18,Clear,2016-01-31 00:53:00,36.0,,-,34,N/A,29.57,64.9,,6:53 PM,10.0,South,9.2,180,Tulsa,Oklahoma,74104
19,Clear,2016-01-31 01:53:00,37.0,,-,38,N/A,29.58,63.0,,7:53 PM,10.0,South,10.4,180,Tulsa,Oklahoma,74104
20,Clear,2016-01-31 02:53:00,41.0,,-,43,N/A,29.57,64.0,,8:53 PM,10.0,South,11.5,180,Tulsa,Oklahoma,74104
21,Clear,2016-01-31 03:53:00,44.1,,23.0,47,N/A,29.57,64.9,,9:53 PM,10.0,South,12.7,190,Tulsa,Oklahoma,74104
22,Clear,2016-01-31 04:53:00,45.0,,21.9,50,N/A,29.56,64.0,,10:53 PM,10.0,South,13.8,190,Tulsa,Oklahoma,74104
23,Clear,2016-01-31 05:53:00,45.0,,20.7,50,N/A,29.55,64.0,,11:53 PM,10.0,South,16.1,190,Tulsa,Oklahoma,74104
0,Clear,2016-01-31 06:53:00,45.0,,26.5,50,N/A,29.53,64.0,,12:53 AM,10.0,SSW,13.8,200,Tulsa,Oklahoma,74104
1,Clear,2016-01-31 07:53:00,44.1,,26.5,50,N/A,29.52,63.0,,1:53 AM,10.0,South,17.3,190,Tulsa,Oklahoma,74104
2,Clear,2016-01-31 08:53:00,44.1,,29.9,52,N/A,29.51,62.1,,2:53 AM,10.0,SSW,13.8,200,Tulsa,Oklahoma,74104
3,Clear,2016-01-31 09:53:00,43.0,,-,52,N/A,29.52,61.0,,3:53 AM,10.0,SSW,12.7,200,Tulsa,Oklahoma,74104
4,Clear,2016-01-31 10:53:00,44.1,,-,58,N/A,29.53,59.0,,4:53 AM,10.0,SSW,8.1,200,Tulsa,Oklahoma,74104
5,Clear,2016-01-31 11:53:00,44.1,,-,62,N/A,29.55,57.0,,5:53 AM,10.0,SSW,9.2,200,Tulsa,Oklahoma,74104
6,Clear,2016-01-31 12:53:00,43.0,,-,66,N/A,29.59,54.0,,6:53 AM,10.0,SSW,6.9,210,Tulsa,Oklahoma,74104
7,Clear,2016-01-31 13:53:00,43.0,,-,66,N/A,29.62,54.0,,7:53 AM,10.0,South,4.6,180,Tulsa,Oklahoma,74104
8,Clear,2016-01-31 14:53:00,34.0,,17.3,44,N/A,29.68,55.9,,8:53 AM,10.0,WNW,10.4,300,Tulsa,Oklahoma,74104
9,Clear,2016-01-31 15:53:00,37.9,,-,55,N/A,29.72,54.0,,9:53 AM,10.0,NW,11.5,310,Tulsa,Oklahoma,74104
10,Clear,2016-01-31 16:53:00,37.9,,18.4,51,N/A,29.76,55.9,,10:53 AM,10.0,NNW,10.4,340,Tulsa,Oklahoma,74104
11,Clear,2016-01-31 17:53:00,37.9,,17.3,47,N/A,29.78,57.9,,11:53 AM,10.0,North,9.2,350,Tulsa,Oklahoma,74104
12,Clear,2016-01-31 18:53:00,37.9,,19.6,46,N/A,29.78,59.0,,12:53 PM,10.0,NNW,13.8,330,Tulsa,Oklahoma,74104
13,Clear,2016-01-31 19:53:00,37.9,,17.3,41,N/A,29.79,62.1,,1:53 PM,10.0,North,9.2,350,Tulsa,Oklahoma,74104
14,Clear,2016-01-31 20:53:00,37.0,,18.4,39,N/A,29.81,62.1,,2:53 PM,10.0,North,12.7,10,Tulsa,Oklahoma,74104
15,Clear,2016-01-31 21:53:00,36.0,,17.3,39,N/A,29.82,61.0,,3:53 PM,10.0,North,10.4,350,Tulsa,Oklahoma,74104
16,Clear,2016-01-31 22:53:00,37.0,,-,46,N/A,29.88,57.9,,4:53 PM,10.0,North,11.5,10,Tulsa,Oklahoma,74104
17,Clear,2016-01-31 23:53:00,37.0,,-,53,N/A,29.89,54.0,,5:53 PM,10.0,North,5.8,10,Tulsa,Oklahoma,74104
18,Clear,2016-02-01 00:53:00,37.0,,-,57,N/A,29.89,52.0,,6:53 PM,10.0,North,8.1,10,Tulsa,Oklahoma,74104
19,Clear,2016-02-01 01:53:00,37.0,,-,59,N/A,29.94,51.1,,7:53 PM,10.0,NNW,3.5,330,Tulsa,Oklahoma,74104
20,Clear,2016-02-01 02:53:00,36.0,,-,59,N/A,29.97,50.0,,8:53 PM,10.0,NNW,3.5,330,Tulsa,Oklahoma,74104
21,Clear,2016-02-01 03:53:00,36.0,,-,63,N/A,29.97,48.0,,9:53 PM,10.0,NNW,5.8,340,Tulsa,Oklahoma,74104
22,Clear,2016-02-01 04:53:00,36.0,,-,68,N/A,29.96,46.0,,10:53 PM,10.0,NNE,4.6,20,Tulsa,Oklahoma,74104
23,Clear,2016-02-01 05:53:00,36.0,,-,68,N/A,29.94,46.0,,11:53 PM,10.0,NE,8.1,40,Tulsa,Oklahoma,74104
0,Clear,2016-02-01 06:53:00,35.1,,-,68,N/A,29.94,45.0,,12:53 AM,10.0,NNE,5.8,30,Tulsa,Oklahoma,74104
1,Clear,2016-02-01 07:53:00,35.1,,-,74,N/A,29.93,43.0,,1:53 AM,10.0,NNE,4.6,30,Tulsa,Oklahoma,74104
2,Clear,2016-02-01 08:53:00,34.0,,-,89,N/A,29.94,37.0,,2:53 AM,10.0,Calm,Calm,0,Tulsa,Oklahoma,74104
3,Clear,2016-02-01 09:53:00,33.1,,-,83,N/A,29.91,37.9,,3:53 AM,10.0,NE,10.4,40,Tulsa,Oklahoma,74104
4,Clear,2016-02-01 10:53:00,35.1,,-,76,N/A,29.93,42.1,,4:53 AM,10.0,North,4.6,350,Tulsa,Oklahoma,74104
5,Clear,2016-02-01 11:53:00,34.0,,-,76,N/A,29.94,41.0,,5:53 AM,10.0,North,4.6,10,Tulsa,Oklahoma,74104
6,Clear,2016-02-01 12:53:00,34.0,,-,79,N/A,29.96,39.9,,6:53 AM,10.0,North,4.6,360,Tulsa,Oklahoma,74104
7,Clear,2016-02-01 13:53:00,34.0,,-,76,N/A,29.97,41.0,,7:53 AM,10.0,NE,8.1,40,Tulsa,Oklahoma,74104
8,Clear,2016-02-01 14:53:00,34.0,,-,61,N/A,29.96,46.9,,8:53 AM,10.0,ENE,10.4,60,Tulsa,Oklahoma,74104
9,Clear,2016-02-01 15:53:00,34.0,,-,52,N/A,29.95,51.1,,9:53 AM,10.0,ENE,13.8,70,Tulsa,Oklahoma,74104
10,Clear,2016-02-01 16:53:00,34.0,,-,47,N/A,29.93,54.0,,10:53 AM,10.0,ESE,15.0,110,Tulsa,Oklahoma,74104
11,Clear,2016-02-01 17:53:00,35.1,,-,44,N/A,29.87,57.0,,11:53 AM,10.0,East,10.4,90,Tulsa,Oklahoma,74104
12,Clear,2016-02-01 18:53:00,35.1,,-,41,N/A,29.81,59.0,,12:53 PM,10.0,ESE,10.4,110,Tulsa,Oklahoma,74104
13,Clear,2016-02-01 19:53:00,37.0,,-,37,N/A,29.74,64.0,,1:53 PM,10.0,East,15.0,100,Tulsa,Oklahoma,74104
14,Clear,2016-02-01 20:53:00,39.0,,20.7,41,N/A,29.70,63.0,,2:53 PM,10.0,SE,13.8,130,Tulsa,Oklahoma,74104
15,Clear,2016-02-01 21:53:00,39.9,,21.9,41,N/A,29.67,64.0,,3:53 PM,10.0,ESE,15.0,110,Tulsa,Oklahoma,74104
16,Clear,2016-02-01 22:53:00,39.9,,-,43,N/A,29.65,63.0,,4:53 PM,10.0,ESE,13.8,110,Tulsa,Oklahoma,74104
17,Clear,2016-02-01 23:53:00,39.9,,-,47,N/A,29.64,60.1,,5:53 PM,10.0,ESE,12.7,110,Tulsa,Oklahoma,74104
18,Partly Cloudy,2016-02-02 00:53:00,41.0,,18.4,53,N/A,29.64,57.9,,6:53 PM,10.0,ESE,13.8,120,Tulsa,Oklahoma,74104
19,Clear,2016-02-02 01:53:00,41.0,,20.7,55,N/A,29.64,57.0,,7:53 PM,10.0,ESE,10.4,120,Tulsa,Oklahoma,74104
20,Overcast,2016-02-02 02:53:00,42.1,,-,57,N/A,29.62,57.0,,8:53 PM,10.0,ESE,16.1,110,Tulsa,Oklahoma,74104
21,Clear,2016-02-02 03:53:00,42.1,,24.2,57,N/A,29.55,57.0,,9:53 PM,10.0,ESE,16.1,120,Tulsa,Oklahoma,74104
22,Overcast,2016-02-02 04:53:00,44.1,,26.5,64,N/A,29.52,55.9,,10:53 PM,10.0,ESE,20.7,120,Tulsa,Oklahoma,74104
23,Mostly Cloudy,2016-02-02 05:31:00,46.0,,27.6,69,N/A,29.49,55.9,,11:31 PM,10.0,ESE,18.4,120,Tulsa,Oklahoma,74104
24,Overcast,2016-02-02 05:53:00,46.9,,31.1,72,N/A,29.52,55.9,,11:53 PM,10.0,ESE,18.4,120,Tulsa,Oklahoma,74104
0,Light Rain,2016-02-02 06:32:00,48.0,Rain-Thunderstorm,29.9,77,0.00,29.43,55.0,,12:32 AM,2.5,ESE,20.7,120,Tulsa,Oklahoma,74104
1,Light Thunderstorms and Rain,2016-02-02 06:45:00,48.9,Rain-Thunderstorm,28.8,80,0.01,29.42,55.0,,12:45 AM,9.0,ESE,18.4,120,Tulsa,Oklahoma,74104
2,Thunderstorms and Rain,2016-02-02 06:53:00,48.9,Rain-Thunderstorm,28.8,80,0.05,29.47,55.0,,12:53 AM,6.0,SE,12.7,130,Tulsa,Oklahoma,74104
3,Heavy Rain,2016-02-02 07:00:00,50.0,Rain,28.8,86,0.16,29.44,54.0,,1:00 AM,2.0,SSE,9.2,160,Tulsa,Oklahoma,74104
4,Light Rain,2016-02-02 07:07:00,50.0,Rain-Thunderstorm,25.3,83,0.17,29.47,55.0,,1:07 AM,2.0,South,18.4,170,Tulsa,Oklahoma,74104
5,Light Rain,2016-02-02 07:14:00,50.0,Rain-Thunderstorm,25.3,80,0.17,29.46,55.9,,1:14 AM,10.0,South,10.4,170,Tulsa,Oklahoma,74104
6,Overcast,2016-02-02 07:23:00,51.1,,-,86,0.17,29.46,55.0,,1:23 AM,10.0,South,10.4,180,Tulsa,Oklahoma,74104
7,Light Rain,2016-02-02 07:36:00,51.1,Rain,-,86,0.17,29.46,55.0,,1:36 AM,10.0,South,6.9,190,Tulsa,Oklahoma,74104
8,Light Rain,2016-02-02 07:53:00,52.0,Rain,-,93,0.17,29.51,54.0,,1:53 AM,10.0,SW,13.8,220,Tulsa,Oklahoma,74104
9,Light Rain,2016-02-02 08:11:00,50.0,Rain,21.9,89,0.01,29.49,53.1,,2:11 AM,10.0,West,8.1,280,Tulsa,Oklahoma,74104
10,Light Rain,2016-02-02 08:26:00,48.9,Rain,-,86,0.01,29.48,53.1,,2:26 AM,10.0,West,4.6,260,Tulsa,Oklahoma,74104
11,Light Rain,2016-02-02 08:53:00,48.0,Rain,-,86,0.03,29.49,52.0,,2:53 AM,9.0,SSW,4.6,200,Tulsa,Oklahoma,74104
12,Overcast,2016-02-02 09:53:00,48.0,,-,89,0.00,29.50,51.1,,3:53 AM,10.0,South,4.6,190,Tulsa,Oklahoma,74104
13,Partly Cloudy,2016-02-02 10:53:00,46.0,,-,86,N/A,29.53,50.0,,4:53 AM,10.0,SSW,9.2,210,Tulsa,Oklahoma,74104
14,Clear,2016-02-02 11:53:00,42.1,,-,80,N/A,29.52,48.0,,5:53 AM,10.0,SSW,8.1,210,Tulsa,Oklahoma,74104
15,Clear,2016-02-02 12:53:00,37.9,,-,71,N/A,29.54,46.9,,6:53 AM,10.0,SW,6.9,220,Tulsa,Oklahoma,74104
16,Clear,2016-02-02 13:53:00,36.0,,-,68,N/A,29.55,46.0,,7:53 AM,10.0,South,9.2,190,Tulsa,Oklahoma,74104
17,Clear,2016-02-02 14:53:00,34.0,,-,58,N/A,29.55,48.0,,8:53 AM,10.0,SSW,11.5,200,Tulsa,Oklahoma,74104
18,Clear,2016-02-02 15:53:00,33.1,,24.2,50,N/A,29.56,51.1,,9:53 AM,10.0,SSW,13.8,210,Tulsa,Oklahoma,74104
19,Clear,2016-02-02 16:53:00,32.0,,27.6,43,N/A,29.56,54.0,,10:53 AM,10.0,SW,18.4,220,Tulsa,Oklahoma,74104
20,Clear,2016-02-02 17:53:00,30.9,,26.5,37,N/A,29.57,57.0,,11:53 AM,10.0,SSW,13.8,210,Tulsa,Oklahoma,74104
21,Clear,2016-02-02 18:53:00,30.9,,29.9,36,N/A,29.55,57.9,,12:53 PM,10.0,SW,18.4,220,Tulsa,Oklahoma,74104
22,Clear,2016-02-02 19:53:00,28.9,,27.6,32,N/A,29.55,59.0,,1:53 PM,10.0,SW,16.1,230,Tulsa,Oklahoma,74104
23,Scattered Clouds,2016-02-02 20:53:00,32.0,,26.5,39,N/A,29.56,57.0,,2:53 PM,10.0,WSW,16.1,250,Tulsa,Oklahoma,74104
24,Scattered Clouds,2016-02-02 21:53:00,32.0,,26.5,47,N/A,29.62,52.0,,3:53 PM,10.0,West,10.4,260,Tulsa,Oklahoma,74104
25,Mostly Cloudy,2016-02-02 22:53:00,30.0,,24.2,46,N/A,29.67,50.0,,4:53 PM,10.0,West,8.1,260,Tulsa,Oklahoma,74104
26,Scattered Clouds,2016-02-02 23:53:00,27.0,,24.2,44,N/A,29.72,48.0,,5:53 PM,10.0,West,12.7,270,Tulsa,Oklahoma,74104
27,Clear,2016-02-03 00:53:00,26.1,,21.9,49,N/A,29.78,44.1,,6:53 PM,10.0,West,6.9,280,Tulsa,Oklahoma,74104
28,Clear,2016-02-03 01:53:00,25.0,,-,53,N/A,29.83,41.0,,7:53 PM,10.0,West,8.1,270,Tulsa,Oklahoma,74104
29,Clear,2016-02-03 02:53:00,25.0,,-,55,N/A,29.87,39.9,,8:53 PM,10.0,West,9.2,270,Tulsa,Oklahoma,74104
30,Mostly Cloudy,2016-02-03 03:53:00,25.0,,20.7,57,N/A,29.89,39.0,,9:53 PM,10.0,West,10.4,270,Tulsa,Oklahoma,74104
31,Scattered Clouds,2016-02-03 04:53:00,24.1,,-,57,N/A,29.92,37.9,,10:53 PM,10.0,West,8.1,270,Tulsa,Oklahoma,74104
32,Clear,2016-02-03 05:53:00,23.0,,18.4,57,N/A,29.94,37.0,,11:53 PM,10.0,WNW,9.2,290,Tulsa,Oklahoma,74104
0,Scattered Clouds,2016-02-03 06:53:00,23.0,,18.4,57,N/A,29.94,37.0,,12:53 AM,10.0,WNW,9.2,290,Tulsa,Oklahoma,74104
1,Overcast,2016-02-03 07:53:00,24.1,,-,59,N/A,29.96,37.0,,1:53 AM,10.0,Variable,6.9,0,Tulsa,Oklahoma,74104
2,Overcast,2016-02-03 08:53:00,23.0,,24.2,57,N/A,29.98,37.0,,2:53 AM,10.0,WNW,10.4,300,Tulsa,Oklahoma,74104
3,Overcast,2016-02-03 09:53:00,23.0,,24.2,59,N/A,30.00,36.0,,3:53 AM,10.0,WNW,11.5,300,Tulsa,Oklahoma,74104
4,Overcast,2016-02-03 10:53:00,23.0,,21.9,59,N/A,30.03,36.0,,4:53 AM,10.0,WNW,6.9,300,Tulsa,Oklahoma,74104
5,Overcast,2016-02-03 11:53:00,21.9,,21.9,57,N/A,30.07,36.0,,5:53 AM,10.0,NW,10.4,320,Tulsa,Oklahoma,74104
6,Overcast,2016-02-03 12:53:00,21.9,,19.6,57,N/A,30.10,36.0,,6:53 AM,10.0,NNW,12.7,340,Tulsa,Oklahoma,74104
7,Clear,2016-02-03 13:53:00,21.9,,-,61,N/A,30.14,34.0,,7:53 AM,10.0,NNW,4.6,340,Tulsa,Oklahoma,74104
8,Clear,2016-02-03 14:53:00,21.9,,18.4,57,N/A,30.18,36.0,,8:53 AM,10.0,NW,8.1,310,Tulsa,Oklahoma,74104
9,Clear,2016-02-03 15:53:00,21.9,,21.9,53,N/A,30.21,37.9,,9:53 AM,10.0,NNW,6.9,330,Tulsa,Oklahoma,74104
10,Clear,2016-02-03 16:53:00,21.9,,-,49,N/A,30.22,39.9,,10:53 AM,10.0,NNW,9.2,340,Tulsa,Oklahoma,74104
11,Partly Cloudy,2016-02-03 17:53:00,23.0,,20.7,49,N/A,30.22,41.0,,11:53 AM,10.0,West,9.2,280,Tulsa,Oklahoma,74104
12,Partly Cloudy,2016-02-03 18:53:00,24.1,,19.6,51,N/A,30.20,41.0,,12:53 PM,10.0,NW,13.8,310,Tulsa,Oklahoma,74104
13,Clear,2016-02-03 19:53:00,19.9,,17.3,38,N/A,30.19,44.1,,1:53 PM,10.0,NW,11.5,310,Tulsa,Oklahoma,74104
14,Clear,2016-02-03 20:53:00,19.0,,-,37,N/A,30.21,44.1,,2:53 PM,10.0,NW,9.2,320,Tulsa,Oklahoma,74104
15,Clear,2016-02-03 21:53:00,17.1,,16.1,34,N/A,30.23,44.1,,3:53 PM,10.0,NW,8.1,310,Tulsa,Oklahoma,74104
16,Clear,2016-02-03 22:53:00,16.0,,18.4,34,N/A,30.25,43.0,,4:53 PM,10.0,NW,8.1,310,Tulsa,Oklahoma,74104
17,Clear,2016-02-03 23:53:00,17.1,,-,40,N/A,30.28,39.9,,5:53 PM,10.0,NW,9.2,320,Tulsa,Oklahoma,74104
18,Clear,2016-02-04 00:53:00,19.0,,-,47,N/A,30.31,37.9,,6:53 PM,10.0,NW,3.5,320,Tulsa,Oklahoma,74104
19,Clear,2016-02-04 01:53:00,19.9,,-,56,N/A,30.33,34.0,,7:53 PM,10.0,Calm,Calm,0,Tulsa,Oklahoma,74104
20,Clear,2016-02-04 02:53:00,21.9,,-,72,N/A,30.35,30.0,,8:53 PM,10.0,Calm,Calm,0,Tulsa,Oklahoma,74104
21,Clear,2016-02-04 03:53:00,21.9,,-,75,N/A,30.36,28.9,,9:53 PM,10.0,Calm,Calm,0,Tulsa,Oklahoma,74104
22,Clear,2016-02-04 04:53:00,19.9,,-,61,N/A,30.37,32.0,,10:53 PM,10.0,NW,4.6,310,Tulsa,Oklahoma,74104
23,Clear,2016-02-04 05:53:00,19.0,,-,61,N/A,30.39,30.9,,11:53 PM,10.0,Calm,Calm,0,Tulsa,Oklahoma,74104
0,Clear,2016-02-04 06:53:00,19.0,,-,61,N/A,30.39,30.9,,12:53 AM,10.0,NW,5.8,310,Tulsa,Oklahoma,74104
1,Clear,2016-02-04 07:53:00,18.0,,-,69,N/A,30.39,27.0,,1:53 AM,10.0,Calm,Calm,0,Tulsa,Oklahoma,74104
2,Clear,2016-02-04 08:53:00,19.0,,-,72,N/A,30.41,27.0,,2:53 AM,10.0,WNW,3.5,290,Tulsa,Oklahoma,74104
3,Clear,2016-02-04 09:53:00,18.0,,-,81,N/A,30.40,23.0,,3:53 AM,10.0,Calm,Calm,0,Tulsa,Oklahoma,74104
4,Clear,2016-02-04 10:53:00,18.0,,-,85,N/A,30.41,21.9,,4:53 AM,10.0,Calm,Calm,0,Tulsa,Oklahoma,74104
5,Clear,2016-02-04 11:53:00,18.0,,-,85,N/A,30.43,21.9,,5:53 AM,10.0,Calm,Calm,0,Tulsa,Oklahoma,74104
6,Clear,2016-02-04 12:53:00,18.0,,-,85,N/A,30.45,21.9,,6:53 AM,10.0,Calm,Calm,0,Tulsa,Oklahoma,74104
7,Clear,2016-02-04 13:53:00,19.0,,-,85,N/A,30.47,23.0,,7:53 AM,10.0,Calm,Calm,0,Tulsa,Oklahoma,74104
8,Clear,2016-02-04 14:53:00,21.0,,-,75,N/A,30.48,28.0,,8:53 AM,10.0,SW,4.6,220,Tulsa,Oklahoma,74104
9,Clear,2016-02-04 15:53:00,21.0,,-,59,N/A,30.48,34.0,,9:53 AM,10.0,SW,8.1,230,Tulsa,Oklahoma,74104
10,Clear,2016-02-04 16:53:00,-9999,,-,N/A,N/A,30.44,-9999,,10:53 AM,10.0,WSW,5.8,250,Tulsa,Oklahoma,74104
11,Clear,2016-02-04 17:53:00,-9999,,-,N/A,N/A,30.42,-9999,,11:53 AM,10.0,Variable,6.9,0,Tulsa,Oklahoma,74104
12,Clear,2016-02-04 18:53:00,17.1,,17.3,29,N/A,30.42,48.0,,12:53 PM,10.0,WNW,10.4,300,Tulsa,Oklahoma,74104
13,Clear,2016-02-04 19:53:00,16.0,,20.7,27,N/A,30.40,48.9,,1:53 PM,10.0,West,9.2,280,Tulsa,Oklahoma,74104
14,Clear,2016-02-04 20:53:00,14.0,,19.6,23,N/A,30.39,51.1,,2:53 PM,10.0,Variable,6.9,0,Tulsa,Oklahoma,74104
15,Clear,2016-02-04 21:53:00,12.0,,-,22,N/A,30.38,50.0,,3:53 PM,10.0,West,8.1,280,Tulsa,Oklahoma,74104
16,Clear,2016-02-04 22:53:00,10.0,,-,20,N/A,30.38,50.0,,4:53 PM,10.0,West,5.8,260,Tulsa,Oklahoma,74104
17,Clear,2016-02-04 23:53:00,12.0,,-,24,N/A,30.38,46.9,,5:53 PM,10.0,West,3.5,260,Tulsa,Oklahoma,74104
18,Clear,2016-02-05 00:53:00,18.0,,-,46,N/A,30.40,37.0,,6:53 PM,10.0,Calm,Calm,0,Tulsa,Oklahoma,74104
19,Clear,2016-02-05 01:53:00,19.9,,-,59,N/A,30.40,33.1,,7:53 PM,10.0,Calm,Calm,0,Tulsa,Oklahoma,74104
20,Clear,2016-02-05 02:53:00,21.0,,-,64,N/A,30.41,32.0,,8:53 PM,10.0,Calm,Calm,0,Tulsa,Oklahoma,74104
21,Clear,2016-02-05 03:53:00,19.9,,-,64,N/A,30.40,30.9,,9:53 PM,10.0,Calm,Calm,0,Tulsa,Oklahoma,74104
22,Clear,2016-02-05 04:53:00,19.0,,-,61,N/A,30.38,30.9,,10:53 PM,10.0,Calm,Calm,0,Tulsa,Oklahoma,74104
23,Clear,2016-02-05 05:53:00,19.9,,-,72,N/A,30.39,28.0,,11:53 PM,10.0,Calm,Calm,0,Tulsa,Oklahoma,74104
0,Clear,2016-02-05 06:53:00,19.9,,-,72,N/A,30.41,28.0,,12:53 AM,10.0,Calm,Calm,0,Tulsa,Oklahoma,74104
1,Clear,2016-02-05 07:53:00,21.0,,-,78,N/A,30.40,27.0,,1:53 AM,10.0,Calm,Calm,0,Tulsa,Oklahoma,74104
2,Clear,2016-02-05 08:53:00,21.0,,-,78,N/A,30.39,27.0,,2:53 AM,10.0,Calm,Calm,0,Tulsa,Oklahoma,74104
3,Clear,2016-02-05 09:53:00,21.9,,-,78,N/A,30.38,28.0,,3:53 AM,10.0,Calm,Calm,0,Tulsa,Oklahoma,74104
4,Clear,2016-02-05 10:53:00,23.0,,-,78,N/A,30.40,28.9,,4:53 AM,10.0,Calm,Calm,0,Tulsa,Oklahoma,74104
5,Clear,2016-02-05 11:53:00,23.0,,-,78,N/A,30.42,28.9,,5:53 AM,10.0,Calm,Calm,0,Tulsa,Oklahoma,74104
6,Clear,2016-02-05 12:53:00,21.9,,-,75,N/A,30.44,28.9,,6:53 AM,10.0,Calm,Calm,0,Tulsa,Oklahoma,74104
7,Clear,2016-02-05 13:53:00,24.1,,-,82,N/A,30.45,28.9,,7:53 AM,10.0,Calm,Calm,0,Tulsa,Oklahoma,74104
8,Clear,2016-02-05 14:53:00,25.0,,-,62,N/A,30.46,37.0,,8:53 AM,10.0,Calm,Calm,0,Tulsa,Oklahoma,74104
9,Clear,2016-02-05 15:53:00,25.0,,-,49,N/A,30.46,43.0,,9:53 AM,10.0,South,4.6,170,Tulsa,Oklahoma,74104
10,Clear,2016-02-05 16:53:00,25.0,,-,39,N/A,30.43,48.9,,10:53 AM,10.0,South,10.4,180,Tulsa,Oklahoma,74104
11,Clear,2016-02-05 17:53:00,24.1,,-,31,N/A,30.40,54.0,,11:53 AM,10.0,South,12.7,190,Tulsa,Oklahoma,74104
12,Clear,2016-02-05 18:53:00,23.0,,19.6,28,N/A,30.36,55.9,,12:53 PM,10.0,South,13.8,190,Tulsa,Oklahoma,74104
13,Clear,2016-02-05 19:53:00,21.9,,17.3,27,N/A,30.33,55.9,,1:53 PM,10.0,SSE,8.1,160,Tulsa,Oklahoma,74104
14,Clear,2016-02-05 20:53:00,23.0,,16.1,27,N/A,30.32,57.0,,2:53 PM,10.0,SSW,8.1,200,Tulsa,Oklahoma,74104
15,Clear,2016-02-05 21:53:00,23.0,,-,28,N/A,30.30,55.9,,3:53 PM,10.0,South,9.2,180,Tulsa,Oklahoma,74104
16,Clear,2016-02-05 22:53:00,23.0,,-,29,N/A,30.30,55.0,,4:53 PM,10.0,SSW,9.2,200,Tulsa,Oklahoma,74104
17,Mostly Cloudy,2016-02-05 23:53:00,25.0,,-,36,N/A,30.30,51.1,,5:53 PM,10.0,South,3.5,190,Tulsa,Oklahoma,74104
18,Clear,2016-02-06 00:53:00,25.0,,-,38,N/A,30.31,50.0,,6:53 PM,10.0,SSE,8.1,150,Tulsa,Oklahoma,74104
19,Mostly Cloudy,2016-02-06 01:53:00,23.0,,-,36,N/A,30.31,48.9,,7:53 PM,10.0,SSE,6.9,160,Tulsa,Oklahoma,74104
20,Haze,2016-02-06 02:53:00,23.0,,-,37,N/A,30.31,48.0,,8:53 PM,4.0,South,8.1,170,Tulsa,Oklahoma,74104
21,Haze,2016-02-06 03:53:00,25.0,,-,44,N/A,30.32,46.0,,9:53 PM,4.0,Calm,Calm,0,Tulsa,Oklahoma,74104
22,Haze,2016-02-06 04:53:00,26.1,,-,49,N/A,30.32,44.1,,10:53 PM,4.0,Calm,Calm,0,Tulsa,Oklahoma,74104
23,Haze,2016-02-06 05:53:00,28.9,,-,60,N/A,30.32,42.1,,11:53 PM,5.0,Calm,Calm,0,Tulsa,Oklahoma,74104
0,Haze,2016-02-06 06:53:00,28.9,,-,60,N/A,30.32,42.1,,12:53 AM,6.0,Calm,Calm,0,Tulsa,Oklahoma,74104
1,Haze,2016-02-06 07:53:00,30.0,,-,65,N/A,30.32,41.0,,1:53 AM,6.0,NW,3.5,310,Tulsa,Oklahoma,74104
2,Overcast,2016-02-06 08:53:00,28.0,,-,46,N/A,30.32,48.0,,2:53 AM,10.0,South,13.8,190,Tulsa,Oklahoma,74104
3,Overcast,2016-02-06 09:53:00,28.9,,-,51,N/A,30.32,46.0,,3:53 AM,10.0,Calm,Calm,0,Tulsa,Oklahoma,74104
4,Mostly Cloudy,2016-02-06 10:53:00,27.0,,-,53,N/A,30.32,43.0,,4:53 AM,10.0,Calm,Calm,0,Tulsa,Oklahoma,74104
5,Mostly Cloudy,2016-02-06 11:53:00,26.1,,-,55,N/A,30.33,41.0,,5:53 AM,10.0,Calm,Calm,0,Tulsa,Oklahoma,74104
6,Mostly Cloudy,2016-02-06 12:53:00,27.0,,-,72,N/A,30.34,35.1,,6:53 AM,10.0,Calm,Calm,0,Tulsa,Oklahoma,74104
7,Overcast,2016-02-06 13:53:00,28.0,,-,68,N/A,30.36,37.9,,7:53 AM,10.0,SW,3.5,230,Tulsa,Oklahoma,74104
8,Overcast,2016-02-06 14:53:00,30.0,,-,60,N/A,30.38,43.0,,8:53 AM,10.0,WNW,5.8,290,Tulsa,Oklahoma,74104
9,Clear,2016-02-06 15:53:00,33.1,,-,59,N/A,30.38,46.9,,9:53 AM,10.0,Calm,Calm,0,Tulsa,Oklahoma,74104
10,Clear,2016-02-06 16:53:00,35.1,,-,57,N/A,30.39,50.0,,10:53 AM,10.0,WNW,4.6,290,Tulsa,Oklahoma,74104
11,Clear,2016-02-06 17:53:00,34.0,,-,52,N/A,30.38,51.1,,11:53 AM,10.0,Variable,6.9,0,Tulsa,Oklahoma,74104
12,Mostly Cloudy,2016-02-06 18:53:00,35.1,,-,49,N/A,30.35,54.0,,12:53 PM,10.0,Calm,Calm,0,Tulsa,Oklahoma,74104
13,Overcast,2016-02-06 19:53:00,32.0,,-,45,N/A,30.34,53.1,,1:53 PM,10.0,West,8.1,260,Tulsa,Oklahoma,74104
14,Partly Cloudy,2016-02-06 20:53:00,30.0,,-,40,N/A,30.31,54.0,,2:53 PM,10.0,WSW,5.8,240,Tulsa,Oklahoma,74104
15,Clear,2016-02-06 21:53:00,28.9,,-,38,N/A,30.30,54.0,,3:53 PM,10.0,SW,6.9,230,Tulsa,Oklahoma,74104
16,Clear,2016-02-06 22:53:00,28.0,,-,37,N/A,30.30,54.0,,4:53 PM,10.0,Variable,5.8,0,Tulsa,Oklahoma,74104
17,Clear,2016-02-06 23:53:00,27.0,,-,41,N/A,30.30,50.0,,5:53 PM,10.0,West,3.5,260,Tulsa,Oklahoma,74104
18,Clear,2016-02-07 00:53:00,28.9,,-,58,N/A,30.31,43.0,,6:53 PM,10.0,Calm,Calm,0,Tulsa,Oklahoma,74104
19,Clear,2016-02-07 01:53:00,28.0,,-,65,N/A,30.30,39.0,,7:53 PM,10.0,Calm,Calm,0,Tulsa,Oklahoma,74104
20,Clear,2016-02-07 02:53:00,28.0,,-,70,N/A,30.29,37.0,,8:53 PM,10.0,Calm,Calm,0,Tulsa,Oklahoma,74104
21,Clear,2016-02-07 03:53:00,28.0,,-,76,N/A,30.28,35.1,,9:53 PM,10.0,Calm,Calm,0,Tulsa,Oklahoma,74104
22,Clear,2016-02-07 04:53:00,28.0,,-,79,N/A,30.27,34.0,,10:53 PM,10.0,Calm,Calm,0,Tulsa,Oklahoma,74104
23,Clear,2016-02-07 05:53:00,27.0,,-,82,N/A,30.25,32.0,,11:53 PM,10.0,Calm,Calm,0,Tulsa,Oklahoma,74104
0,Clear,2016-02-07 06:53:00,26.1,,-,85,N/A,30.24,30.0,,12:53 AM,10.0,Calm,Calm,0,Tulsa,Oklahoma,74104
1,Clear,2016-02-07 07:53:00,26.1,,-,85,N/A,30.24,30.0,,1:53 AM,10.0,Calm,Calm,0,Tulsa,Oklahoma,74104
2,Clear,2016-02-07 08:53:00,27.0,,-,85,N/A,30.21,30.9,,2:53 AM,10.0,SSW,3.5,200,Tulsa,Oklahoma,74104
3,Clear,2016-02-07 09:53:00,27.0,,-,82,N/A,30.19,32.0,,3:53 AM,10.0,South,3.5,170,Tulsa,Oklahoma,74104
4,Clear,2016-02-07 10:53:00,27.0,,-,88,N/A,30.18,30.0,,4:53 AM,10.0,South,3.5,170,Tulsa,Oklahoma,74104
5,Clear,2016-02-07 11:53:00,26.1,,-,89,N/A,30.17,28.9,,5:53 AM,10.0,Calm,Calm,0,Tulsa,Oklahoma,74104
6,Clear,2016-02-07 12:53:00,28.0,,-,89,N/A,30.18,30.9,,6:53 AM,10.0,South,4.6,180,Tulsa,Oklahoma,74104
7,Clear,2016-02-07 13:53:00,28.9,,-,85,N/A,30.19,33.1,,7:53 AM,10.0,Calm,Calm,0,Tulsa,Oklahoma,74104
8,Clear,2016-02-07 14:53:00,32.0,,-,73,N/A,30.20,39.9,,8:53 AM,10.0,SW,6.9,220,Tulsa,Oklahoma,74104
9,Clear,2016-02-07 15:53:00,30.9,,-,58,N/A,30.17,45.0,,9:53 AM,10.0,SW,5.8,220,Tulsa,Oklahoma,74104
10,Clear,2016-02-07 16:53:00,30.9,,-,48,N/A,30.19,50.0,,10:53 AM,10.0,Variable,4.6,0,Tulsa,Oklahoma,74104
11,Clear,2016-02-07 17:53:00,27.0,,-,38,N/A,30.18,52.0,,11:53 AM,10.0,Variable,5.8,0,Tulsa,Oklahoma,74104
12,Partly Cloudy,2016-02-07 18:53:00,28.0,,-,40,N/A,30.16,52.0,,12:53 PM,10.0,Variable,5.8,0,Tulsa,Oklahoma,74104
13,Clear,2016-02-07 19:53:00,27.0,,-,34,N/A,30.15,55.0,,1:53 PM,10.0,NNW,8.1,340,Tulsa,Oklahoma,74104
14,Clear,2016-02-07 20:53:00,27.0,,-,29,N/A,30.14,59.0,,2:53 PM,10.0,NNW,6.9,340,Tulsa,Oklahoma,74104
15,Clear,2016-02-07 21:53:00,23.0,,-,24,N/A,30.12,60.1,,3:53 PM,10.0,NNW,9.2,340,Tulsa,Oklahoma,74104
16,Clear,2016-02-07 22:53:00,24.1,,-,27,N/A,30.14,57.9,,4:53 PM,10.0,WNW,10.4,300,Tulsa,Oklahoma,74104
17,Clear,2016-02-07 23:53:00,23.0,,19.6,28,N/A,30.14,55.9,,5:53 PM,10.0,NNW,11.5,330,Tulsa,Oklahoma,74104
18,Clear,2016-02-08 00:53:00,23.0,,-,32,N/A,30.17,52.0,,6:53 PM,10.0,NW,4.6,320,Tulsa,Oklahoma,74104
19,Clear,2016-02-08 01:53:00,23.0,,-,35,N/A,30.17,50.0,,7:53 PM,10.0,NW,4.6,320,Tulsa,Oklahoma,74104
20,Clear,2016-02-08 02:53:00,21.0,,21.9,32,N/A,30.19,50.0,,8:53 PM,10.0,NW,13.8,320,Tulsa,Oklahoma,74104
21,Clear,2016-02-08 03:53:00,19.9,,21.9,33,N/A,30.20,48.0,,9:53 PM,10.0,NW,8.1,320,Tulsa,Oklahoma,74104
22,Clear,2016-02-08 04:53:00,19.9,,18.4,35,N/A,30.21,46.0,,10:53 PM,10.0,WNW,11.5,300,Tulsa,Oklahoma,74104
23,Clear,2016-02-08 05:53:00,19.9,,16.1,37,N/A,30.21,45.0,,11:53 PM,10.0,Variable,6.9,0,Tulsa,Oklahoma,74104
0,Clear,2016-02-08 06:53:00,19.9,,19.6,40,N/A,30.22,43.0,,12:53 AM,10.0,NW,9.2,310,Tulsa,Oklahoma,74104
1,Clear,2016-02-08 07:53:00,19.0,,21.9,38,N/A,30.21,43.0,,1:53 AM,10.0,NW,8.1,310,Tulsa,Oklahoma,74104
2,Clear,2016-02-08 08:53:00,19.0,,24.2,41,N/A,30.21,41.0,,2:53 AM,10.0,NW,11.5,310,Tulsa,Oklahoma,74104
3,Clear,2016-02-08 09:53:00,19.0,,18.4,43,N/A,30.21,39.9,,3:53 AM,10.0,Variable,6.9,0,Tulsa,Oklahoma,74104
4,Clear,2016-02-08 10:53:00,19.0,,-,45,N/A,30.21,39.0,,4:53 AM,10.0,WNW,9.2,300,Tulsa,Oklahoma,74104
5,Clear,2016-02-08 11:53:00,19.0,,-,48,N/A,30.22,37.0,,5:53 AM,10.0,Variable,5.8,0,Tulsa,Oklahoma,74104
6,Mostly Cloudy,2016-02-08 12:53:00,19.9,,-,52,N/A,30.22,36.0,,6:53 AM,10.0,West,8.1,280,Tulsa,Oklahoma,74104
7,Clear,2016-02-08 13:53:00,19.0,,18.4,48,N/A,30.22,37.0,,7:53 AM,10.0,WNW,10.4,300,Tulsa,Oklahoma,74104
8,Clear,2016-02-08 14:53:00,19.0,,23.0,43,N/A,30.24,39.9,,8:53 AM,10.0,WNW,11.5,300,Tulsa,Oklahoma,74104
9,Clear,2016-02-08 15:53:00,18.0,,25.3,37,N/A,30.24,43.0,,9:53 AM,10.0,NW,16.1,310,Tulsa,Oklahoma,74104
10,Clear,2016-02-08 16:53:00,16.0,,32.2,32,N/A,30.25,44.1,,10:53 AM,10.0,NW,17.3,320,Tulsa,Oklahoma,74104
11,Clear,2016-02-08 17:53:00,15.1,,33.4,29,N/A,30.23,46.0,,11:53 AM,10.0,NW,15.0,320,Tulsa,Oklahoma,74104
12,Clear,2016-02-08 18:53:00,15.1,,33.4,27,N/A,30.21,48.0,,12:53 PM,10.0,NW,17.3,320,Tulsa,Oklahoma,74104
13,Clear,2016-02-08 19:53:00,12.0,,34.5,24,N/A,30.19,48.0,,1:53 PM,10.0,NNW,18.4,330,Tulsa,Oklahoma,74104
14,Clear,2016-02-08 20:53:00,12.0,,33.4,23,N/A,30.18,48.9,,2:53 PM,10.0,NNW,17.3,330,Tulsa,Oklahoma,74104
15,Clear,2016-02-08 21:11:00,12.0,,33.4,24,N/A,30.16,48.0,,3:11 PM,10.0,NNW,20.7,330,Tulsa,Oklahoma,74104
16,Clear,2016-02-08 21:13:00,10.9,,33.4,22,N/A,30.16,48.0,,3:13 PM,10.0,NNW,17.3,330,Tulsa,Oklahoma,74104
17,Clear,2016-02-08 21:53:00,10.9,,32.2,22,N/A,30.18,48.0,,3:53 PM,10.0,NW,16.1,310,Tulsa,Oklahoma,74104
18,Clear,2016-02-08 22:53:00,9.0,,32.2,21,N/A,30.19,46.9,,4:53 PM,10.0,North,16.1,350,Tulsa,Oklahoma,74104
19,Clear,2016-02-08 23:53:00,10.9,,27.6,25,N/A,30.21,45.0,,5:53 PM,10.0,NNW,18.4,330,Tulsa,Oklahoma,74104
20,Clear,2016-02-09 00:53:00,12.9,,-,30,N/A,30.23,43.0,,6:53 PM,10.0,NNW,5.8,330,Tulsa,Oklahoma,74104
21,Clear,2016-02-09 01:53:00,12.9,,19.6,32,N/A,30.23,41.0,,7:53 PM,10.0,NW,8.1,320,Tulsa,Oklahoma,74104
22,Clear,2016-02-09 02:53:00,14.0,,-,35,N/A,30.23,39.9,,8:53 PM,10.0,Variable,5.8,0,Tulsa,Oklahoma,74104
23,Clear,2016-02-09 03:53:00,16.0,,20.7,38,N/A,30.24,39.9,,9:53 PM,10.0,NW,9.2,320,Tulsa,Oklahoma,74104
24,Clear,2016-02-09 04:53:00,17.1,,18.4,41,N/A,30.24,39.0,,10:53 PM,10.0,NW,8.1,310,Tulsa,Oklahoma,74104
25,Clear,2016-02-09 05:53:00,18.0,,-,43,N/A,30.22,39.0,,11:53 PM,10.0,NW,8.1,310,Tulsa,Oklahoma,74104
0,Clear,2016-02-09 06:53:00,17.1,,-,43,N/A,30.22,37.9,,12:53 AM,10.0,NW,6.9,310,Tulsa,Oklahoma,74104
1,Clear,2016-02-09 07:53:00,18.0,,-,48,N/A,30.22,36.0,,1:53 AM,10.0,Variable,5.8,0,Tulsa,Oklahoma,74104
2,Clear,2016-02-09 08:53:00,17.1,,-,46,N/A,30.20,36.0,,2:53 AM,10.0,NW,8.1,320,Tulsa,Oklahoma,74104
3,Clear,2016-02-09 09:53:00,17.1,,-,48,N/A,30.19,35.1,,3:53 AM,10.0,NW,5.8,320,Tulsa,Oklahoma,74104
4,Clear,2016-02-09 10:53:00,18.0,,-,52,N/A,30.19,34.0,,4:53 AM,10.0,Variable,5.8,0,Tulsa,Oklahoma,74104
5,Clear,2016-02-09 11:53:00,19.0,,-,54,N/A,30.21,34.0,,5:53 AM,10.0,NW,5.8,310,Tulsa,Oklahoma,74104
6,Clear,2016-02-09 12:53:00,19.0,,-,59,N/A,30.24,32.0,,6:53 AM,10.0,NW,4.6,310,Tulsa,Oklahoma,74104
7,Clear,2016-02-09 13:53:00,19.0,,-,54,N/A,30.26,34.0,,7:53 AM,10.0,NNW,5.8,340,Tulsa,Oklahoma,74104
8,Clear,2016-02-09 14:53:00,19.0,,18.4,48,N/A,30.27,37.0,,8:53 AM,10.0,NNW,11.5,330,Tulsa,Oklahoma,74104
9,Clear,2016-02-09 15:53:00,19.0,,25.3,43,N/A,30.27,39.9,,9:53 AM,10.0,NNW,12.7,340,Tulsa,Oklahoma,74104
10,Partly Cloudy,2016-02-09 16:53:00,18.0,,23.0,38,N/A,30.29,42.1,,10:53 AM,10.0,NNW,10.4,340,Tulsa,Oklahoma,74104
11,Clear,2016-02-09 17:53:00,17.1,,25.3,33,N/A,30.28,45.0,,11:53 AM,10.0,NW,13.8,320,Tulsa,Oklahoma,74104
12,Clear,2016-02-09 18:53:00,17.1,,24.2,30,N/A,30.25,46.9,,12:53 PM,10.0,NW,10.4,320,Tulsa,Oklahoma,74104
13,Clear,2016-02-09 19:53:00,15.1,,29.9,28,N/A,30.25,46.9,,1:53 PM,10.0,NW,9.2,320,Tulsa,Oklahoma,74104
14,Clear,2016-02-09 20:53:00,12.9,,24.2,25,N/A,30.25,46.9,,2:53 PM,10.0,North,12.7,350,Tulsa,Oklahoma,74104
15,Clear,2016-02-09 21:53:00,14.0,,23.0,26,N/A,30.27,48.0,,3:53 PM,10.0,NNW,10.4,330,Tulsa,Oklahoma,74104
16,Clear,2016-02-09 22:53:00,14.0,,29.9,27,N/A,30.27,46.9,,4:53 PM,10.0,NNW,11.5,340,Tulsa,Oklahoma,74104
17,Clear,2016-02-09 23:53:00,14.0,,20.7,30,N/A,30.29,44.1,,5:53 PM,10.0,North,10.4,350,Tulsa,Oklahoma,74104
18,Clear,2016-02-10 01:53:00,16.0,,-,38,N/A,30.32,39.9,,7:53 PM,10.0,NNW,6.9,340,Tulsa,Oklahoma,74104
19,Clear,2016-02-10 02:53:00,16.0,,17.3,41,N/A,30.35,37.9,,8:53 PM,10.0,North,12.7,350,Tulsa,Oklahoma,74104
20,Clear,2016-02-10 03:53:00,15.1,,-,43,N/A,30.36,36.0,,9:53 PM,10.0,North,6.9,360,Tulsa,Oklahoma,74104
21,Clear,2016-02-10 04:53:00,14.0,,-,46,N/A,30.38,33.1,,10:53 PM,10.0,NNE,11.5,20,Tulsa,Oklahoma,74104
22,Clear,2016-02-10 05:53:00,12.0,,-,47,N/A,30.35,30.0,,11:53 PM,10.0,NNE,10.4,30,Tulsa,Oklahoma,74104
0,Clear,2016-02-10 06:53:00,10.9,,-,47,N/A,30.36,28.9,,12:53 AM,10.0,NNE,4.6,20,Tulsa,Oklahoma,74104
1,Clear,2016-02-10 07:53:00,12.9,,-,60,N/A,30.35,25.0,,1:53 AM,10.0,Calm,Calm,0,Tulsa,Oklahoma,74104
2,Clear,2016-02-10 08:53:00,14.0,,-,65,N/A,30.34,24.1,,2:53 AM,10.0,Calm,Calm,0,Tulsa,Oklahoma,74104
3,Mostly Cloudy,2016-02-10 09:53:00,15.1,,-,69,N/A,30.32,24.1,,3:53 AM,10.0,Calm,Calm,0,Tulsa,Oklahoma,74104
4,Partly Cloudy,2016-02-10 10:53:00,15.1,,-,66,N/A,30.35,25.0,,4:53 AM,10.0,Calm,Calm,0,Tulsa,Oklahoma,74104
5,Clear,2016-02-10 11:53:00,15.1,,-,72,N/A,30.32,23.0,,5:53 AM,10.0,Calm,Calm,0,Tulsa,Oklahoma,74104
6,Clear,2016-02-10 12:53:00,14.0,,-,65,N/A,30.31,24.1,,6:53 AM,10.0,South,3.5,190,Tulsa,Oklahoma,74104
7,Clear,2016-02-10 13:53:00,14.0,,-,60,N/A,30.32,26.1,,7:53 AM,10.0,SSW,4.6,210,Tulsa,Oklahoma,74104
8,Clear,2016-02-10 14:53:00,10.9,,-,43,N/A,30.30,30.9,,8:53 AM,10.0,South,8.1,180,Tulsa,Oklahoma,74104
9,Clear,2016-02-10 15:53:00,10.9,,-,37,N/A,30.27,35.1,,9:53 AM,10.0,South,12.7,180,Tulsa,Oklahoma,74104
10,Clear,2016-02-10 16:53:00,14.0,,21.9,33,N/A,30.23,41.0,,10:53 AM,10.0,SSW,15.0,200,Tulsa,Oklahoma,74104
11,Clear,2016-02-10 17:53:00,19.9,,25.3,33,N/A,30.17,48.0,,11:53 AM,10.0,SSW,18.4,210,Tulsa,Oklahoma,74104
12,Clear,2016-02-10 18:53:00,25.0,,19.6,31,N/A,30.11,55.0,,12:53 PM,10.0,SSW,9.2,210,Tulsa,Oklahoma,74104
13,Clear,2016-02-10 19:53:00,27.0,,-,27,N/A,30.04,61.0,,1:53 PM,10.0,SSW,13.8,200,Tulsa,Oklahoma,74104
14,Clear,2016-02-10 20:53:00,28.0,,20.7,25,N/A,30.00,64.9,,2:53 PM,10.0,SSW,15.0,200,Tulsa,Oklahoma,74104
15,Clear,2016-02-10 21:53:00,28.9,,-,23,N/A,29.97,68.0,,3:53 PM,10.0,SSW,12.7,210,Tulsa,Oklahoma,74104
16,Clear,2016-02-10 22:53:00,30.0,,-,23,N/A,29.95,69.1,,4:53 PM,10.0,SSW,8.1,210,Tulsa,Oklahoma,74104
17,Clear,2016-02-10 23:53:00,30.0,,-,28,N/A,29.94,64.0,,5:53 PM,10.0,South,4.6,170,Tulsa,Oklahoma,74104
18,Clear,2016-02-11 00:53:00,30.9,,-,41,N/A,29.96,54.0,,6:53 PM,10.0,Calm,Calm,0,Tulsa,Oklahoma,74104
19,Clear,2016-02-11 01:53:00,32.0,,-,52,N/A,29.96,48.9,,7:53 PM,10.0,Calm,Calm,0,Tulsa,Oklahoma,74104
20,Clear,2016-02-11 02:53:00,32.0,,-,60,N/A,29.95,45.0,,8:53 PM,10.0,Calm,Calm,0,Tulsa,Oklahoma,74104
21,Clear,2016-02-11 03:53:00,32.0,,-,58,N/A,29.95,46.0,,9:53 PM,10.0,North,4.6,350,Tulsa,Oklahoma,74104
22,Clear,2016-02-11 04:53:00,32.0,,-,70,N/A,29.96,41.0,,10:53 PM,10.0,Calm,Calm,0,Tulsa,Oklahoma,74104
23,Clear,2016-02-11 05:53:00,32.0,,-,79,N/A,29.96,37.9,,11:53 PM,10.0,Calm,Calm,0,Tulsa,Oklahoma,74104
0,Clear,2016-02-11 06:53:00,30.9,,-,82,N/A,29.97,36.0,,12:53 AM,10.0,Calm,Calm,0,Tulsa,Oklahoma,74104
1,Clear,2016-02-11 07:53:00,30.9,,-,62,N/A,29.99,43.0,,1:53 AM,10.0,Calm,Calm,0,Tulsa,Oklahoma,74104
2,Clear,2016-02-11 08:53:00,30.9,,-,62,N/A,30.00,43.0,,2:53 AM,10.0,Calm,Calm,0,Tulsa,Oklahoma,74104
3,Clear,2016-02-11 09:53:00,30.9,,-,52,N/A,30.03,48.0,,3:53 AM,10.0,Variable,4.6,0,Tulsa,Oklahoma,74104
4,Clear,2016-02-11 10:53:00,30.9,,-,56,N/A,30.06,46.0,,4:53 AM,10.0,NNE,5.8,20,Tulsa,Oklahoma,74104
5,Clear,2016-02-11 11:53:00,30.0,,-,58,N/A,30.10,44.1,,5:53 AM,10.0,North,8.1,10,Tulsa,Oklahoma,74104
6,Clear,2016-02-11 12:53:00,27.0,,-,62,N/A,30.15,39.0,,6:53 AM,10.0,NNE,9.2,20,Tulsa,Oklahoma,74104
7,Clear,2016-02-11 13:53:00,26.1,,20.7,67,N/A,30.19,36.0,,7:53 AM,10.0,North,13.8,10,Tulsa,Oklahoma,74104
8,Clear,2016-02-11 14:53:00,25.0,,-,62,N/A,30.22,37.0,,8:53 AM,10.0,NNE,10.4,20,Tulsa,Oklahoma,74104
9,Clear,2016-02-11 15:53:00,25.0,,-,57,N/A,30.23,39.0,,9:53 AM,10.0,North,8.1,10,Tulsa,Oklahoma,74104
10,Clear,2016-02-11 16:53:00,25.0,,-,51,N/A,30.25,42.1,,10:53 AM,10.0,North,12.7,10,Tulsa,Oklahoma,74104
11,Clear,2016-02-11 17:53:00,26.1,,-,46,N/A,30.26,46.0,,11:53 AM,10.0,North,10.4,10,Tulsa,Oklahoma,74104
12,Clear,2016-02-11 18:53:00,26.1,,-,39,N/A,30.22,50.0,,12:53 PM,10.0,North,5.8,360,Tulsa,Oklahoma,74104
13,Clear,2016-02-11 19:53:00,26.1,,-,37,N/A,30.18,52.0,,1:53 PM,10.0,Variable,3.5,0,Tulsa,Oklahoma,74104
14,Clear,2016-02-11 20:53:00,26.1,,-,33,N/A,30.16,55.0,,2:53 PM,10.0,North,4.6,10,Tulsa,Oklahoma,74104
15,Clear,2016-02-11 21:53:00,27.0,,-,34,N/A,30.17,55.0,,3:53 PM,10.0,North,6.9,360,Tulsa,Oklahoma,74104
16,Clear,2016-02-11 22:53:00,27.0,,-,35,N/A,30.17,54.0,,4:53 PM,10.0,North,4.6,350,Tulsa,Oklahoma,74104
17,Clear,2016-02-11 23:53:00,27.0,,-,38,N/A,30.18,52.0,,5:53 PM,10.0,NNE,5.8,30,Tulsa,Oklahoma,74104
18,Clear,2016-02-12 00:53:00,27.0,,-,43,N/A,30.19,48.9,,6:53 PM,10.0,North,3.5,10,Tulsa,Oklahoma,74104
19,Clear,2016-02-12 01:53:00,27.0,,-,53,N/A,30.20,43.0,,7:53 PM,10.0,NNE,4.6,20,Tulsa,Oklahoma,74104
20,Clear,2016-02-12 02:53:00,28.0,,-,68,N/A,30.21,37.9,,8:53 PM,10.0,Calm,Calm,0,Tulsa,Oklahoma,74104
21,Clear,2016-02-12 03:53:00,28.0,,-,68,N/A,30.20,37.9,,9:53 PM,10.0,Calm,Calm,0,Tulsa,Oklahoma,74104
22,Clear,2016-02-12 04:53:00,27.0,,-,75,N/A,30.22,34.0,,10:53 PM,10.0,Calm,Calm,0,Tulsa,Oklahoma,74104
23,Clear,2016-02-12 05:53:00,27.0,,-,78,N/A,30.23,33.1,,11:53 PM,10.0,NNE,5.8,20,Tulsa,Oklahoma,74104
0,Clear,2016-02-12 06:53:00,27.0,,-,82,N/A,30.22,32.0,,12:53 AM,10.0,Calm,Calm,0,Tulsa,Oklahoma,74104
1,Clear,2016-02-12 07:53:00,27.0,,-,82,N/A,30.22,32.0,,1:53 AM,10.0,Calm,Calm,0,Tulsa,Oklahoma,74104
2,Clear,2016-02-12 08:53:00,26.1,,-,85,N/A,30.22,30.0,,2:53 AM,10.0,Calm,Calm,0,Tulsa,Oklahoma,74104
3,Clear,2016-02-12 09:53:00,27.0,,-,85,N/A,30.24,30.9,,3:53 AM,10.0,SSW,3.5,210,Tulsa,Oklahoma,74104
4,Clear,2016-02-12 10:53:00,26.1,,-,85,N/A,30.25,30.0,,4:53 AM,10.0,Calm,Calm,0,Tulsa,Oklahoma,74104
5,Clear,2016-02-12 11:53:00,26.1,,-,89,N/A,30.27,28.9,,5:53 AM,10.0,Calm,Calm,0,Tulsa,Oklahoma,74104
6,Clear,2016-02-12 12:53:00,25.0,,-,88,N/A,30.28,28.0,,6:53 AM,10.0,Calm,Calm,0,Tulsa,Oklahoma,74104
7,Clear,2016-02-12 13:53:00,26.1,,-,85,N/A,30.32,30.0,,7:53 AM,10.0,Calm,Calm,0,Tulsa,Oklahoma,74104
8,Clear,2016-02-12 14:53:00,30.0,,-,60,N/A,30.36,43.0,,8:53 AM,10.0,North,8.1,360,Tulsa,Oklahoma,74104
9,Clear,2016-02-12 15:53:00,28.9,,-,55,N/A,30.39,44.1,,9:53 AM,10.0,NNE,12.7,20,Tulsa,Oklahoma,74104
10,Clear,2016-02-12 16:53:00,30.0,,20.7,52,N/A,30.40,46.9,,10:53 AM,10.0,NNE,12.7,30,Tulsa,Oklahoma,74104
11,Clear,2016-02-12 17:53:00,30.0,,-,48,N/A,30.42,48.9,,11:53 AM,10.0,NE,12.7,40,Tulsa,Oklahoma,74104
12,Clear,2016-02-12 18:53:00,28.9,,20.7,44,N/A,30.41,50.0,,12:53 PM,10.0,NNE,12.7,30,Tulsa,Oklahoma,74104
13,Clear,2016-02-12 19:53:00,28.0,,21.9,40,N/A,30.39,52.0,,1:53 PM,10.0,NNE,13.8,20,Tulsa,Oklahoma,74104
14,Clear,2016-02-12 20:53:00,28.0,,17.3,38,N/A,30.41,53.1,,2:53 PM,10.0,NNE,10.4,20,Tulsa,Oklahoma,74104
15,Clear,2016-02-12 21:53:00,27.0,,-,38,N/A,30.42,52.0,,3:53 PM,10.0,NE,10.4,40,Tulsa,Oklahoma,74104
16,Clear,2016-02-12 22:53:00,26.1,,-,39,N/A,30.43,50.0,,4:53 PM,10.0,North,9.2,10,Tulsa,Oklahoma,74104
17,Clear,2016-02-12 23:53:00,26.1,,-,44,N/A,30.45,46.9,,5:53 PM,10.0,NNE,8.1,20,Tulsa,Oklahoma,74104
18,Clear,2016-02-13 00:53:00,26.1,,-,48,N/A,30.46,45.0,,6:53 PM,10.0,NNE,8.1,30,Tulsa,Oklahoma,74104
19,Clear,2016-02-13 01:53:00,27.0,,-,51,N/A,30.47,44.1,,7:53 PM,10.0,NNE,8.1,20,Tulsa,Oklahoma,74104
20,Clear,2016-02-13 02:53:00,27.0,,-,53,N/A,30.47,43.0,,8:53 PM,10.0,NNE,8.1,30,Tulsa,Oklahoma,74104
21,Partly Cloudy,2016-02-13 03:53:00,27.0,,-,53,N/A,30.48,43.0,,9:53 PM,10.0,NNE,11.5,30,Tulsa,Oklahoma,74104
22,Clear,2016-02-13 04:53:00,25.0,,20.7,53,N/A,30.51,41.0,,10:53 PM,10.0,NNE,16.1,30,Tulsa,Oklahoma,74104
23,Clear,2016-02-13 05:53:00,21.9,,21.9,49,N/A,30.53,39.9,,11:53 PM,10.0,NE,15.0,40,Tulsa,Oklahoma,74104
0,Clear,2016-02-13 06:53:00,18.0,,-,46,N/A,30.53,37.0,,12:53 AM,10.0,NNE,13.8,30,Tulsa,Oklahoma,74104
1,Clear,2016-02-13 07:53:00,19.0,,-,50,N/A,30.53,36.0,,1:53 AM,10.0,NNE,11.5,30,Tulsa,Oklahoma,74104
2,Clear,2016-02-13 08:53:00,18.0,,-,50,N/A,30.52,35.1,,2:53 AM,10.0,NNE,10.4,30,Tulsa,Oklahoma,74104
3,Clear,2016-02-13 09:53:00,17.1,,-,52,N/A,30.52,33.1,,3:53 AM,10.0,NNE,8.1,30,Tulsa,Oklahoma,74104
4,Clear,2016-02-13 10:53:00,17.1,,-,57,N/A,30.52,30.9,,4:53 AM,10.0,NNE,8.1,30,Tulsa,Oklahoma,74104
5,Clear,2016-02-13 11:53:00,16.0,,-,56,N/A,30.52,30.0,,5:53 AM,10.0,NE,9.2,50,Tulsa,Oklahoma,74104
6,Clear,2016-02-13 12:53:00,15.1,,-,54,N/A,30.54,30.0,,6:53 AM,10.0,NE,9.2,40,Tulsa,Oklahoma,74104
7,Clear,2016-02-13 13:53:00,14.0,,-,51,N/A,30.55,30.0,,7:53 AM,10.0,NE,9.2,40,Tulsa,Oklahoma,74104
8,Clear,2016-02-13 14:53:00,14.0,,-,44,N/A,30.54,34.0,,8:53 AM,10.0,NE,9.2,50,Tulsa,Oklahoma,74104
9,Clear,2016-02-13 15:53:00,12.0,,-,37,N/A,30.52,36.0,,9:53 AM,10.0,ENE,11.5,70,Tulsa,Oklahoma,74104
10,Clear,2016-02-13 16:53:00,14.0,,-,36,N/A,30.50,39.0,,10:53 AM,10.0,East,8.1,80,Tulsa,Oklahoma,74104
11,Clear,2016-02-13 17:53:00,17.1,,-,35,N/A,30.47,43.0,,11:53 AM,10.0,East,6.9,90,Tulsa,Oklahoma,74104
12,Clear,2016-02-13 18:53:00,21.0,,-,37,N/A,30.41,46.0,,12:53 PM,10.0,SSE,8.1,150,Tulsa,Oklahoma,74104
13,Clear,2016-02-13 19:53:00,23.0,,-,36,N/A,30.35,48.9,,1:53 PM,10.0,ESE,8.1,110,Tulsa,Oklahoma,74104
14,Clear,2016-02-13 20:53:00,25.0,,19.6,35,N/A,30.29,52.0,,2:53 PM,10.0,SE,10.4,130,Tulsa,Oklahoma,74104
15,Clear,2016-02-13 21:53:00,26.1,,-,35,N/A,30.25,53.1,,3:53 PM,10.0,SE,12.7,140,Tulsa,Oklahoma,74104
16,Clear,2016-02-13 22:53:00,26.1,,-,38,N/A,30.21,51.1,,4:53 PM,10.0,ESE,13.8,120,Tulsa,Oklahoma,74104
17,Clear,2016-02-13 23:53:00,26.1,,-,41,N/A,30.19,48.9,,5:53 PM,10.0,SE,10.4,140,Tulsa,Oklahoma,74104
18,Clear,2016-02-14 00:53:00,24.1,,-,39,N/A,30.17,48.0,,6:53 PM,10.0,SE,11.5,130,Tulsa,Oklahoma,74104
19,Clear,2016-02-14 01:53:00,21.0,,-,37,N/A,30.16,46.0,,7:53 PM,10.0,SE,12.7,130,Tulsa,Oklahoma,74104
20,Overcast,2016-02-14 02:53:00,21.0,,-,39,N/A,30.18,45.0,,8:53 PM,10.0,Variable,5.8,0,Tulsa,Oklahoma,74104
21,Clear,2016-02-14 03:53:00,19.9,,-,41,N/A,30.15,42.1,,9:53 PM,10.0,ESE,8.1,110,Tulsa,Oklahoma,74104
22,Clear,2016-02-14 04:53:00,19.9,,-,45,N/A,30.14,39.9,,10:53 PM,10.0,ESE,9.2,110,Tulsa,Oklahoma,74104
23,Overcast,2016-02-14 05:53:00,21.0,,-,43,N/A,30.11,42.1,,11:53 PM,10.0,ESE,12.7,120,Tulsa,Oklahoma,74104
0,Overcast,2016-02-14 06:53:00,19.0,,-,41,N/A,30.05,41.0,,12:53 AM,10.0,SSE,15.0,150,Tulsa,Oklahoma,74104
1,Overcast,2016-02-14 07:53:00,19.0,,19.6,41,N/A,30.04,41.0,,1:53 AM,10.0,SSE,11.5,150,Tulsa,Oklahoma,74104
2,Overcast,2016-02-14 08:44:00,19.0,,23.0,43,N/A,29.97,39.9,,2:44 AM,10.0,SSE,12.7,150,Tulsa,Oklahoma,74104
3,Overcast,2016-02-14 08:53:00,19.9,,20.7,45,N/A,29.99,39.9,,2:53 AM,10.0,SE,13.8,140,Tulsa,Oklahoma,74104
4,Overcast,2016-02-14 09:53:00,19.9,,20.7,43,N/A,29.95,41.0,,3:53 AM,10.0,SSE,12.7,150,Tulsa,Oklahoma,74104
5,Overcast,2016-02-14 10:53:00,21.0,,-,45,N/A,29.97,41.0,,4:53 AM,10.0,SSE,10.4,160,Tulsa,Oklahoma,74104
6,Overcast,2016-02-14 11:53:00,21.9,,-,45,N/A,29.98,42.1,,5:53 AM,10.0,SSE,4.6,150,Tulsa,Oklahoma,74104
7,Overcast,2016-02-14 12:53:00,25.0,,-,49,N/A,30.02,43.0,,6:53 AM,10.0,Calm,Calm,0,Tulsa,Oklahoma,74104
8,Overcast,2016-02-14 13:53:00,24.1,,-,51,0.00,30.02,41.0,,7:53 AM,10.0,ENE,5.8,70,Tulsa,Oklahoma,74104
9,Overcast,2016-02-14 14:53:00,25.0,,-,51,N/A,30.02,42.1,,8:53 AM,10.0,East,4.6,90,Tulsa,Oklahoma,74104
10,Overcast,2016-02-14 15:53:00,27.0,,-,53,N/A,30.01,43.0,,9:53 AM,10.0,ESE,4.6,120,Tulsa,Oklahoma,74104
11,Mostly Cloudy,2016-02-14 16:53:00,28.9,,-,53,N/A,30.01,45.0,,10:53 AM,10.0,SSE,3.5,160,Tulsa,Oklahoma,74104
12,Mostly Cloudy,2016-02-14 17:53:00,30.9,,-,52,N/A,30.00,48.0,,11:53 AM,10.0,Calm,Calm,0,Tulsa,Oklahoma,74104
13,Scattered Clouds,2016-02-14 18:28:00,32.0,,-,52,N/A,29.97,48.9,,12:28 PM,10.0,Calm,Calm,0,Tulsa,Oklahoma,74104
14,Clear,2016-02-14 18:53:00,33.1,,-,50,N/A,29.96,51.1,,12:53 PM,10.0,Variable,4.6,0,Tulsa,Oklahoma,74104
15,Clear,2016-02-14 19:53:00,35.1,,-,47,N/A,29.93,55.0,,1:53 PM,10.0,South,6.9,180,Tulsa,Oklahoma,74104
16,Clear,2016-02-14 20:53:00,37.0,,-,47,N/A,29.91,57.0,,2:53 PM,10.0,ESE,5.8,120,Tulsa,Oklahoma,74104
17,Clear,2016-02-14 21:53:00,36.0,,-,45,N/A,29.88,57.0,,3:53 PM,10.0,East,3.5,90,Tulsa,Oklahoma,74104
18,Clear,2016-02-14 22:53:00,37.0,,-,49,N/A,29.89,55.9,,4:53 PM,10.0,SSE,6.9,160,Tulsa,Oklahoma,74104
19,Clear,2016-02-14 23:53:00,37.9,,-,55,N/A,29.92,54.0,,5:53 PM,10.0,Calm,Calm,0,Tulsa,Oklahoma,74104
20,Clear,2016-02-15 00:53:00,36.0,,-,68,N/A,29.94,46.0,,6:53 PM,10.0,Calm,Calm,0,Tulsa,Oklahoma,74104
21,Clear,2016-02-15 01:53:00,35.1,,-,66,N/A,29.96,46.0,,7:53 PM,10.0,Calm,Calm,0,Tulsa,Oklahoma,74104
22,Clear,2016-02-15 02:53:00,34.0,,-,82,N/A,29.96,39.0,,8:53 PM,10.0,Calm,Calm,0,Tulsa,Oklahoma,74104
23,Clear,2016-02-15 03:53:00,33.1,,-,77,N/A,29.96,39.9,,9:53 PM,10.0,South,3.5,180,Tulsa,Oklahoma,74104
24,Clear,2016-02-15 04:53:00,32.0,,-,86,N/A,29.97,36.0,,10:53 PM,10.0,Calm,Calm,0,Tulsa,Oklahoma,74104
25,Clear,2016-02-15 05:53:00,32.0,,-,86,N/A,29.96,36.0,,11:53 PM,10.0,Calm,Calm,0,Tulsa,Oklahoma,74104
0,Clear,2016-02-15 06:53:00,30.9,,-,85,N/A,29.96,35.1,,12:53 AM,10.0,Calm,Calm,0,Tulsa,Oklahoma,74104
1,Clear,2016-02-15 07:53:00,33.1,,-,89,N/A,29.94,36.0,,1:53 AM,10.0,Calm,Calm,0,Tulsa,Oklahoma,74104
2,Mostly Cloudy,2016-02-15 08:53:00,34.0,,-,86,N/A,29.92,37.9,,2:53 AM,10.0,Calm,Calm,0,Tulsa,Oklahoma,74104
3,Overcast,2016-02-15 09:53:00,34.0,,-,82,N/A,29.92,39.0,,3:53 AM,10.0,Calm,Calm,0,Tulsa,Oklahoma,74104
4,Overcast,2016-02-15 10:53:00,34.0,,-,82,N/A,29.91,39.0,,4:53 AM,10.0,Calm,Calm,0,Tulsa,Oklahoma,74104
5,Clear,2016-02-15 11:53:00,34.0,,-,86,N/A,29.91,37.9,,5:53 AM,10.0,Calm,Calm,0,Tulsa,Oklahoma,74104
6,Clear,2016-02-15 12:53:00,35.1,,-,86,N/A,29.90,39.0,,6:53 AM,10.0,South,3.5,170,Tulsa,Oklahoma,74104
7,Clear,2016-02-15 13:53:00,34.0,,-,89,N/A,29.92,37.0,,7:53 AM,7.0,Calm,Calm,0,Tulsa,Oklahoma,74104
8,Clear,2016-02-15 14:53:00,36.0,,-,73,N/A,29.93,44.1,,8:53 AM,7.0,Variable,4.6,0,Tulsa,Oklahoma,74104
9,Clear,2016-02-15 15:53:00,35.1,,-,50,N/A,29.93,53.1,,9:53 AM,10.0,Variable,5.8,0,Tulsa,Oklahoma,74104
10,Clear,2016-02-15 16:53:00,35.1,,-,42,N/A,29.92,57.9,,10:53 AM,10.0,North,5.8,350,Tulsa,Oklahoma,74104
11,Clear,2016-02-15 17:53:00,33.1,,-,35,N/A,29.91,61.0,,11:53 AM,10.0,Variable,4.6,0,Tulsa,Oklahoma,74104
12,Clear,2016-02-15 18:53:00,32.0,,-,30,N/A,29.87,64.0,,12:53 PM,10.0,Variable,6.9,0,Tulsa,Oklahoma,74104
13,Clear,2016-02-15 19:53:00,27.0,,-,25,N/A,29.84,64.0,,1:53 PM,10.0,NNW,11.5,330,Tulsa,Oklahoma,74104
14,Clear,2016-02-15 20:53:00,25.0,,-,22,N/A,29.83,64.9,,2:53 PM,10.0,NW,9.2,320,Tulsa,Oklahoma,74104
15,Clear,2016-02-15 21:53:00,25.0,,-,23,N/A,29.82,64.0,,3:53 PM,10.0,West,10.4,280,Tulsa,Oklahoma,74104
16,Clear,2016-02-15 22:53:00,24.1,,17.3,23,N/A,29.84,63.0,,4:53 PM,10.0,WNW,10.4,290,Tulsa,Oklahoma,74104
17,Clear,2016-02-15 23:53:00,26.1,,-,28,N/A,29.85,59.0,,5:53 PM,10.0,Variable,4.6,0,Tulsa,Oklahoma,74104
18,Clear,2016-02-16 00:53:00,27.0,,-,41,N/A,29.85,50.0,,6:53 PM,10.0,Calm,Calm,0,Tulsa,Oklahoma,74104
19,Clear,2016-02-16 01:53:00,28.9,,-,51,N/A,29.86,46.0,,7:53 PM,10.0,Calm,Calm,0,Tulsa,Oklahoma,74104
20,Clear,2016-02-16 02:53:00,30.0,,-,48,N/A,29.83,48.9,,8:53 PM,10.0,SSW,3.5,200,Tulsa,Oklahoma,74104
21,Mostly Cloudy,2016-02-16 03:53:00,30.9,,-,60,N/A,29.81,44.1,,9:53 PM,10.0,Calm,Calm,0,Tulsa,Oklahoma,74104
22,Overcast,2016-02-16 04:53:00,30.9,,-,56,N/A,29.80,46.0,,10:53 PM,10.0,Calm,Calm,0,Tulsa,Oklahoma,74104
23,Clear,2016-02-16 05:53:00,30.9,,-,67,N/A,29.79,41.0,,11:53 PM,10.0,Calm,Calm,0,Tulsa,Oklahoma,74104
0,Clear,2016-02-16 06:53:00,28.9,,-,60,N/A,29.78,42.1,,12:53 AM,10.0,SSW,4.6,200,Tulsa,Oklahoma,74104
1,Partly Cloudy,2016-02-16 07:53:00,28.9,,-,53,N/A,29.75,45.0,,1:53 AM,10.0,SSW,4.6,200,Tulsa,Oklahoma,74104
2,Clear,2016-02-16 08:53:00,28.9,,-,50,N/A,29.76,46.9,,2:53 AM,10.0,Calm,Calm,0,Tulsa,Oklahoma,74104
3,Scattered Clouds,2016-02-16 09:53:00,28.9,,-,46,N/A,29.76,48.9,,3:53 AM,10.0,SSW,3.5,200,Tulsa,Oklahoma,74104
4,Clear,2016-02-16 10:53:00,28.9,,-,44,N/A,29.77,50.0,,4:53 AM,10.0,West,5.8,260,Tulsa,Oklahoma,74104
5,Clear,2016-02-16 11:53:00,30.0,,-,44,N/A,29.80,51.1,,5:53 AM,10.0,WNW,5.8,290,Tulsa,Oklahoma,74104
6,Clear,2016-02-16 12:53:00,30.9,,-,50,N/A,29.83,48.9,,6:53 AM,10.0,NW,5.8,310,Tulsa,Oklahoma,74104
7,Clear,2016-02-16 13:53:00,36.0,,18.4,54,N/A,29.90,52.0,,7:53 AM,10.0,NW,10.4,320,Tulsa,Oklahoma,74104
8,Clear,2016-02-16 14:53:00,36.0,,19.6,52,N/A,29.94,53.1,,8:53 AM,10.0,NW,8.1,320,Tulsa,Oklahoma,74104
9,Clear,2016-02-16 15:53:00,35.1,,23.0,45,N/A,29.95,55.9,,9:53 AM,10.0,NW,15.0,320,Tulsa,Oklahoma,74104
10,Clear,2016-02-16 16:53:00,32.0,,26.5,39,N/A,29.97,57.0,,10:53 AM,10.0,North,16.1,350,Tulsa,Oklahoma,74104
11,Clear,2016-02-16 17:53:00,33.1,,24.2,40,N/A,30.01,57.0,,11:53 AM,10.0,NW,13.8,320,Tulsa,Oklahoma,74104
12,Clear,2016-02-16 18:53:00,30.9,,20.7,37,N/A,30.02,57.0,,12:53 PM,10.0,NW,9.2,320,Tulsa,Oklahoma,74104
13,Clear,2016-02-16 19:53:00,30.9,,19.6,36,N/A,30.03,57.9,,1:53 PM,10.0,North,12.7,350,Tulsa,Oklahoma,74104
14,Clear,2016-02-16 20:53:00,32.0,,19.6,35,N/A,30.01,60.1,,2:53 PM,10.0,NNW,8.1,330,Tulsa,Oklahoma,74104
15,Clear,2016-02-16 21:53:00,30.9,,24.2,35,N/A,30.01,59.0,,3:53 PM,10.0,North,12.7,350,Tulsa,Oklahoma,74104
16,Clear,2016-02-16 22:53:00,30.0,,-,33,N/A,30.03,59.0,,4:53 PM,10.0,NNW,8.1,330,Tulsa,Oklahoma,74104
17,Clear,2016-02-16 23:53:00,27.0,,-,34,N/A,30.05,55.0,,5:53 PM,10.0,North,6.9,350,Tulsa,Oklahoma,74104
18,Clear,2016-02-17 00:53:00,28.0,,-,40,N/A,30.06,52.0,,6:53 PM,10.0,Calm,Calm,0,Tulsa,Oklahoma,74104
19,Clear,2016-02-17 01:53:00,30.0,,-,58,N/A,30.10,44.1,,7:53 PM,10.0,Calm,Calm,0,Tulsa,Oklahoma,74104
20,Clear,2016-02-17 02:53:00,30.0,,-,68,N/A,30.13,39.9,,8:53 PM,10.0,Calm,Calm,0,Tulsa,Oklahoma,74104
21,Clear,2016-02-17 03:53:00,30.0,,-,73,N/A,30.13,37.9,,9:53 PM,10.0,Calm,Calm,0,Tulsa,Oklahoma,74104
22,Clear,2016-02-17 04:53:00,30.0,,-,79,N/A,30.16,36.0,,10:53 PM,10.0,Calm,Calm,0,Tulsa,Oklahoma,74104
23,Clear,2016-02-17 05:53:00,28.9,,-,78,N/A,30.18,35.1,,11:53 PM,10.0,Calm,Calm,0,Tulsa,Oklahoma,74104
0,Clear,2016-02-17 06:53:00,28.0,,-,82,N/A,30.18,33.1,,12:53 AM,10.0,Calm,Calm,0,Tulsa,Oklahoma,74104
1,Clear,2016-02-17 07:53:00,28.0,,-,89,N/A,30.19,30.9,,1:53 AM,10.0,Calm,Calm,0,Tulsa,Oklahoma,74104
2,Clear,2016-02-17 08:53:00,28.0,,-,89,N/A,30.19,30.9,,2:53 AM,10.0,Calm,Calm,0,Tulsa,Oklahoma,74104
3,Clear,2016-02-17 09:53:00,28.0,,-,89,N/A,30.17,30.9,,3:53 AM,10.0,Calm,Calm,0,Tulsa,Oklahoma,74104
4,Clear,2016-02-17 10:53:00,28.9,,-,88,N/A,30.17,32.0,,4:53 AM,10.0,Calm,Calm,0,Tulsa,Oklahoma,74104
5,Clear,2016-02-17 11:53:00,28.0,,-,92,N/A,30.19,30.0,,5:53 AM,10.0,Calm,Calm,0,Tulsa,Oklahoma,74104
6,Clear,2016-02-17 12:53:00,28.0,,-,89,N/A,30.21,30.9,,6:53 AM,10.0,Calm,Calm,0,Tulsa,Oklahoma,74104
7,Clear,2016-02-17 13:53:00,28.9,,-,82,N/A,30.23,34.0,,7:53 AM,10.0,Calm,Calm,0,Tulsa,Oklahoma,74104
8,Clear,2016-02-17 14:53:00,32.0,,-,67,N/A,30.25,42.1,,8:53 AM,10.0,SSE,3.5,160,Tulsa,Oklahoma,74104
9,Clear,2016-02-17 15:53:00,33.1,,-,50,N/A,30.24,51.1,,9:53 AM,10.0,South,10.4,190,Tulsa,Oklahoma,74104
10,Clear,2016-02-17 16:53:00,33.1,,-,39,N/A,30.23,57.9,,10:53 AM,10.0,South,10.4,180,Tulsa,Oklahoma,74104
11,Partly Cloudy,2016-02-17 17:53:00,30.9,,-,30,N/A,30.21,63.0,,11:53 AM,10.0,SSW,12.7,210,Tulsa,Oklahoma,74104
12,Partly Cloudy,2016-02-17 18:53:00,30.0,,-,26,N/A,30.18,66.0,,12:53 PM,10.0,South,11.5,180,Tulsa,Oklahoma,74104
13,Clear,2016-02-17 20:53:00,30.0,,-,23,N/A,30.12,70.0,,2:53 PM,10.0,South,12.7,190,Tulsa,Oklahoma,74104
14,Clear,2016-02-17 21:53:00,28.9,,21.9,20,N/A,30.10,72.0,,3:53 PM,10.0,South,17.3,180,Tulsa,Oklahoma,74104
15,Clear,2016-02-17 22:53:00,28.0,,19.6,20,N/A,30.10,71.1,,4:53 PM,10.0,SSW,13.8,200,Tulsa,Oklahoma,74104
16,Clear,2016-02-17 23:53:00,28.0,,-,22,N/A,30.10,68.0,,5:53 PM,10.0,South,10.4,190,Tulsa,Oklahoma,74104
17,Clear,2016-02-18 00:53:00,28.9,,-,27,N/A,30.12,64.0,,6:53 PM,10.0,South,9.2,190,Tulsa,Oklahoma,74104
18,Clear,2016-02-18 01:53:00,30.0,,-,30,N/A,30.12,62.1,,7:53 PM,10.0,South,8.1,180,Tulsa,Oklahoma,74104
19,Clear,2016-02-18 02:53:00,30.0,,-,36,N/A,30.13,57.0,,8:53 PM,10.0,SSE,4.6,160,Tulsa,Oklahoma,74104
20,Clear,2016-02-18 03:53:00,32.0,,-,43,N/A,30.12,54.0,,9:53 PM,10.0,SSE,4.6,150,Tulsa,Oklahoma,74104
21,Clear,2016-02-18 04:53:00,32.0,,-,45,N/A,30.14,53.1,,10:53 PM,10.0,South,4.6,170,Tulsa,Oklahoma,74104
22,Clear,2016-02-18 05:53:00,32.0,,-,60,N/A,30.12,45.0,,11:53 PM,10.0,SSE,3.5,160,Tulsa,Oklahoma,74104
0,Clear,2016-02-18 06:53:00,34.0,,-,50,N/A,30.14,52.0,,12:53 AM,10.0,SSE,4.6,160,Tulsa,Oklahoma,74104
1,Clear,2016-02-18 07:53:00,35.1,,-,53,N/A,30.13,52.0,,1:53 AM,10.0,SSE,8.1,160,Tulsa,Oklahoma,74104
2,Clear,2016-02-18 08:53:00,35.1,,-,57,N/A,30.11,50.0,,2:53 AM,10.0,SSE,6.9,160,Tulsa,Oklahoma,74104
3,Clear,2016-02-18 09:53:00,35.1,,-,59,N/A,30.12,48.9,,3:53 AM,10.0,SSE,6.9,160,Tulsa,Oklahoma,74104
4,Clear,2016-02-18 10:53:00,35.1,,-,57,N/A,30.09,50.0,,4:53 AM,10.0,SSE,6.9,160,Tulsa,Oklahoma,74104
5,Clear,2016-02-18 11:53:00,35.1,,-,54,N/A,30.09,51.1,,5:53 AM,10.0,South,11.5,170,Tulsa,Oklahoma,74104
6,Clear,2016-02-18 12:53:00,35.1,,-,57,N/A,30.09,50.0,,6:53 AM,10.0,SSE,5.8,160,Tulsa,Oklahoma,74104
7,Clear,2016-02-18 13:53:00,36.0,,-,54,N/A,30.09,52.0,,7:53 AM,10.0,South,9.2,170,Tulsa,Oklahoma,74104
8,Clear,2016-02-18 14:53:00,32.0,,23.0,35,N/A,30.09,60.1,,8:53 AM,10.0,South,16.1,180,Tulsa,Oklahoma,74104
9,Clear,2016-02-18 15:53:00,28.9,,33.4,27,N/A,30.07,64.0,,9:53 AM,10.0,South,19.6,190,Tulsa,Oklahoma,74104
10,Clear,2016-02-18 16:53:00,34.0,,34.5,27,N/A,30.04,70.0,,10:53 AM,9.0,South,26.5,180,Tulsa,Oklahoma,74104
11,Clear,2016-02-18 17:53:00,37.9,,39.1,29,N/A,30.01,72.0,,11:53 AM,10.0,South,27.6,190,Tulsa,Oklahoma,74104
12,Clear,2016-02-18 18:53:00,37.9,,39.1,27,N/A,29.95,73.9,,12:53 PM,10.0,South,24.2,190,Tulsa,Oklahoma,74104
13,Clear,2016-02-18 19:53:00,42.1,,40.3,29,N/A,29.91,77.0,,1:53 PM,10.0,SSW,26.5,200,Tulsa,Oklahoma,74104
14,Partly Cloudy,2016-02-18 20:53:00,43.0,,32.2,29,N/A,29.87,78.1,,2:53 PM,8.0,South,24.2,190,Tulsa,Oklahoma,74104
15,Haze,2016-02-18 21:53:00,44.1,,35.7,31,N/A,29.83,77.0,,3:53 PM,3.0,South,23.0,190,Tulsa,Oklahoma,74104
16,Mostly Cloudy,2016-02-18 22:53:00,44.1,,41.4,33,N/A,29.84,75.0,,4:53 PM,10.0,SSW,27.6,200,Tulsa,Oklahoma,74104
17,Clear,2016-02-18 23:53:00,46.0,,32.2,40,N/A,29.86,72.0,,5:53 PM,10.0,South,20.7,190,Tulsa,Oklahoma,74104
18,Clear,2016-02-19 00:53:00,46.9,,23.0,45,N/A,29.87,69.1,,6:53 PM,10.0,South,13.8,190,Tulsa,Oklahoma,74104
19,Clear,2016-02-19 01:53:00,48.0,,31.1,47,N/A,29.87,69.1,,7:53 PM,8.0,South,21.9,190,Tulsa,Oklahoma,74104
20,Clear,2016-02-19 02:53:00,48.0,,33.4,49,N/A,29.87,68.0,,8:53 PM,7.0,South,18.4,190,Tulsa,Oklahoma,74104
21,Clear,2016-02-19 03:53:00,48.9,,33.4,50,N/A,29.84,68.0,,9:53 PM,8.0,South,21.9,190,Tulsa,Oklahoma,74104
22,Clear,2016-02-19 04:53:00,50.0,,33.4,52,N/A,29.84,68.0,,10:53 PM,10.0,SSW,20.7,200,Tulsa,Oklahoma,74104
23,Clear,2016-02-19 05:53:00,51.1,,29.9,57,N/A,29.83,66.9,,11:53 PM,10.0,South,18.4,190,Tulsa,Oklahoma,74104
0,Clear,2016-02-19 06:53:00,51.1,,31.1,57,N/A,29.84,66.9,,12:53 AM,10.0,South,17.3,190,Tulsa,Oklahoma,74104
1,Clear,2016-02-19 07:53:00,52.0,,26.5,60,N/A,29.85,66.0,,1:53 AM,10.0,South,19.6,190,Tulsa,Oklahoma,74104
2,Clear,2016-02-19 08:53:00,52.0,,27.6,63,N/A,29.86,64.9,,2:53 AM,10.0,SSW,17.3,200,Tulsa,Oklahoma,74104
3,Clear,2016-02-19 09:53:00,52.0,,27.6,63,N/A,29.86,64.9,,3:53 AM,10.0,SSW,15.0,200,Tulsa,Oklahoma,74104
4,Clear,2016-02-19 10:53:00,53.1,,-,67,N/A,29.90,64.0,,4:53 AM,10.0,SSW,12.7,200,Tulsa,Oklahoma,74104
5,Clear,2016-02-19 11:53:00,53.1,,-,70,N/A,29.92,63.0,,5:53 AM,10.0,South,11.5,190,Tulsa,Oklahoma,74104
6,Clear,2016-02-19 12:53:00,52.0,,-,75,N/A,29.99,60.1,,6:53 AM,10.0,SSW,8.1,200,Tulsa,Oklahoma,74104
7,Clear,2016-02-19 13:53:00,52.0,,-,75,N/A,30.02,60.1,,7:53 AM,10.0,Calm,Calm,0,Tulsa,Oklahoma,74104
8,Clear,2016-02-19 14:53:00,53.1,,20.7,63,N/A,30.04,66.0,,8:53 AM,10.0,SW,15.0,220,Tulsa,Oklahoma,74104
9,Clear,2016-02-19 15:53:00,53.1,,-,57,N/A,30.06,69.1,,9:53 AM,10.0,WSW,8.1,250,Tulsa,Oklahoma,74104
10,Clear,2016-02-19 16:53:00,42.1,,-,33,N/A,30.07,73.0,,10:53 AM,10.0,NNE,9.2,20,Tulsa,Oklahoma,74104
11,Clear,2016-02-19 17:53:00,33.1,,-,22,N/A,30.07,73.9,,11:53 AM,10.0,NNE,6.9,30,Tulsa,Oklahoma,74104
12,Clear,2016-02-19 18:53:00,15.1,,-,11,N/A,30.06,73.9,,12:53 PM,10.0,North,8.1,10,Tulsa,Oklahoma,74104
13,Clear,2016-02-19 19:53:00,18.0,,-,11,N/A,30.03,77.0,,1:53 PM,10.0,Variable,4.6,0,Tulsa,Oklahoma,74104
14,Clear,2016-02-19 20:53:00,19.0,,-,11,N/A,30.02,78.1,,2:53 PM,10.0,NNE,8.1,20,Tulsa,Oklahoma,74104
15,Clear,2016-02-19 21:53:00,18.0,,-,11,N/A,30.01,75.9,,3:53 PM,10.0,Calm,Calm,0,Tulsa,Oklahoma,74104
16,Clear,2016-02-19 22:53:00,18.0,,-,12,N/A,30.01,75.0,,4:53 PM,10.0,South,4.6,180,Tulsa,Oklahoma,74104
17,Clear,2016-02-19 23:53:00,24.1,,-,19,N/A,30.03,68.0,,5:53 PM,10.0,South,3.5,170,Tulsa,Oklahoma,74104
18,Clear,2016-02-20 00:53:00,26.1,,-,25,N/A,30.04,63.0,,6:53 PM,10.0,Calm,Calm,0,Tulsa,Oklahoma,74104
19,Clear,2016-02-20 01:53:00,33.1,,-,39,N/A,30.05,57.9,,7:53 PM,10.0,Calm,Calm,0,Tulsa,Oklahoma,74104
20,Clear,2016-02-20 02:53:00,28.0,,-,32,N/A,30.05,57.9,,8:53 PM,10.0,Calm,Calm,0,Tulsa,Oklahoma,74104
21,Clear,2016-02-20 03:53:00,37.0,,-,51,N/A,30.04,55.0,,9:53 PM,10.0,Calm,Calm,0,Tulsa,Oklahoma,74104
22,Clear,2016-02-20 04:53:00,44.1,,-,67,N/A,30.05,55.0,,10:53 PM,10.0,Calm,Calm,0,Tulsa,Oklahoma,74104
23,Clear,2016-02-20 05:53:00,46.0,,-,77,N/A,30.03,53.1,,11:53 PM,10.0,Calm,Calm,0,Tulsa,Oklahoma,74104
0,Clear,2016-02-20 06:53:00,51.1,,-,90,N/A,30.02,54.0,,12:53 AM,8.0,Calm,Calm,0,Tulsa,Oklahoma,74104
1,Clear,2016-02-20 07:53:00,48.9,,-,86,N/A,30.00,53.1,,1:53 AM,7.0,Calm,Calm,0,Tulsa,Oklahoma,74104
2,Clear,2016-02-20 08:53:00,53.1,,-,90,N/A,29.97,55.9,,2:53 AM,6.0,Calm,Calm,0,Tulsa,Oklahoma,74104
3,Clear,2016-02-20 09:53:00,54.0,,-,87,N/A,29.96,57.9,,3:53 AM,6.0,SSE,3.5,160,Tulsa,Oklahoma,74104
4,Clear,2016-02-20 10:53:00,54.0,,-,87,N/A,29.96,57.9,,4:53 AM,6.0,SE,3.5,140,Tulsa,Oklahoma,74104
5,Clear,2016-02-20 11:53:00,55.0,,-,87,N/A,29.96,59.0,,5:53 AM,7.0,SSE,4.6,160,Tulsa,Oklahoma,74104
6,Clear,2016-02-20 12:53:00,54.0,,-,83,N/A,29.95,59.0,,6:53 AM,7.0,SSE,4.6,150,Tulsa,Oklahoma,74104
7,Clear,2016-02-20 13:53:00,55.0,,-,83,N/A,29.96,60.1,,7:53 AM,8.0,SSE,6.9,150,Tulsa,Oklahoma,74104
8,Clear,2016-02-20 14:53:00,57.0,,-,81,N/A,29.96,63.0,,8:53 AM,10.0,South,10.4,170,Tulsa,Oklahoma,74104
9,Clear,2016-02-20 15:53:00,57.9,,-,70,N/A,29.97,68.0,,9:53 AM,10.0,South,12.7,180,Tulsa,Oklahoma,74104
10,Clear,2016-02-20 16:53:00,57.9,,-,57,N/A,29.95,73.9,,10:53 AM,10.0,South,13.8,190,Tulsa,Oklahoma,74104
11,Clear,2016-02-20 17:53:00,57.9,,-,54,N/A,29.93,75.9,,11:53 AM,10.0,South,12.7,190,Tulsa,Oklahoma,74104
12,Clear,2016-02-20 18:53:00,57.9,,25.3,50,N/A,29.90,78.1,,12:53 PM,10.0,South,13.8,190,Tulsa,Oklahoma,74104
13,Clear,2016-02-20 19:53:00,57.9,,-,47,N/A,29.86,80.1,,1:53 PM,10.0,SSW,11.5,210,Tulsa,Oklahoma,74104
14,Clear,2016-02-20 20:53:00,57.9,,-,44,N/A,29.83,82.0,,2:53 PM,10.0,South,10.4,190,Tulsa,Oklahoma,74104
15,Partly Cloudy,2016-02-20 21:53:00,57.9,,-,44,N/A,29.83,82.0,,3:53 PM,10.0,South,12.7,190,Tulsa,Oklahoma,74104
16,Scattered Clouds,2016-02-20 22:53:00,57.0,,-,42,N/A,29.83,82.0,,4:53 PM,10.0,South,8.1,180,Tulsa,Oklahoma,74104
17,Mostly Cloudy,2016-02-20 23:53:00,61.0,,-,60,N/A,29.85,75.9,,5:53 PM,10.0,SE,9.2,130,Tulsa,Oklahoma,74104
18,Scattered Clouds,2016-02-21 00:53:00,61.0,,-,68,N/A,29.87,72.0,,6:53 PM,10.0,SE,8.1,130,Tulsa,Oklahoma,74104
19,Mostly Cloudy,2016-02-21 01:53:00,61.0,,-,68,N/A,29.90,72.0,,7:53 PM,10.0,SSE,10.4,160,Tulsa,Oklahoma,74104
20,Overcast,2016-02-21 02:53:00,61.0,,-,73,N/A,29.92,70.0,,8:53 PM,10.0,SSE,8.1,160,Tulsa,Oklahoma,74104
21,Overcast,2016-02-21 03:14:00,61.0,,-,73,N/A,29.91,70.0,,9:14 PM,10.0,South,8.1,170,Tulsa,Oklahoma,74104
22,Mostly Cloudy,2016-02-21 03:53:00,61.0,,-,75,N/A,29.94,69.1,,9:53 PM,10.0,South,11.5,180,Tulsa,Oklahoma,74104
23,Scattered Clouds,2016-02-21 04:01:00,61.0,,-,75,N/A,29.92,69.1,,10:01 PM,10.0,South,12.7,180,Tulsa,Oklahoma,74104
24,Clear,2016-02-21 04:53:00,61.0,,-,81,N/A,29.94,66.9,,10:53 PM,10.0,South,11.5,180,Tulsa,Oklahoma,74104
25,Clear,2016-02-21 05:53:00,60.1,,-,84,N/A,29.94,64.9,,11:53 PM,10.0,South,6.9,190,Tulsa,Oklahoma,74104
0,Clear,2016-02-21 06:53:00,60.1,,-,90,N/A,29.93,63.0,,12:53 AM,10.0,SW,6.9,220,Tulsa,Oklahoma,74104
1,Clear,2016-02-21 07:53:00,55.9,,-,93,N/A,29.94,57.9,,1:53 AM,6.0,SSW,4.6,210,Tulsa,Oklahoma,74104
2,Clear,2016-02-21 08:35:00,55.9,,-,96,N/A,29.92,57.0,,2:35 AM,2.0,West,3.5,270,Tulsa,Oklahoma,74104
3,Clear,2016-02-21 08:42:00,55.0,,-,97,N/A,29.93,55.9,,2:42 AM,1.0,Calm,Calm,0,Tulsa,Oklahoma,74104
4,Mist,2016-02-21 08:45:00,55.0,,-,97,N/A,29.93,55.9,,2:45 AM,0.8,West,3.5,270,Tulsa,Oklahoma,74104
5,Partly Cloudy,2016-02-21 08:49:00,55.4,,-,94,N/A,29.93,57.2,,2:49 AM,1.2,WSW,3.5,240,Tulsa,Oklahoma,74104
6,Clear,2016-02-21 08:53:00,55.0,,-,90,N/A,29.94,57.9,,2:53 AM,3.0,WSW,4.6,240,Tulsa,Oklahoma,74104
7,Clear,2016-02-21 09:53:00,46.9,,-,74,N/A,29.97,55.0,,3:53 AM,10.0,Calm,Calm,0,Tulsa,Oklahoma,74104
8,Mostly Cloudy,2016-02-21 10:39:00,46.9,,-,74,N/A,29.97,55.0,,4:39 AM,10.0,NW,3.5,310,Tulsa,Oklahoma,74104
9,Overcast,2016-02-21 10:53:00,48.0,,-,75,N/A,29.99,55.9,,4:53 AM,10.0,Calm,Calm,0,Tulsa,Oklahoma,74104
10,Overcast,2016-02-21 11:00:00,50.0,,-,80,N/A,29.97,55.9,,5:00 AM,10.0,Variable,3.5,0,Tulsa,Oklahoma,74104
11,Overcast,2016-02-21 11:43:00,53.1,,-,84,N/A,29.99,57.9,,5:43 AM,8.0,North,6.9,360,Tulsa,Oklahoma,74104
12,Overcast,2016-02-21 11:53:00,53.1,,-,84,N/A,30.01,57.9,,5:53 AM,8.0,North,6.9,360,Tulsa,Oklahoma,74104
13,Overcast,2016-02-21 12:45:00,48.0,,19.6,72,N/A,30.02,57.0,,6:45 AM,10.0,North,6.9,10,Tulsa,Oklahoma,74104
14,Overcast,2016-02-21 12:53:00,46.0,,-,69,N/A,30.04,55.9,,6:53 AM,10.0,North,9.2,10,Tulsa,Oklahoma,74104
15,Overcast,2016-02-21 13:21:00,42.1,,18.4,62,N/A,30.03,55.0,,7:21 AM,10.0,North,12.7,10,Tulsa,Oklahoma,74104
16,Mostly Cloudy,2016-02-21 13:53:00,39.0,,19.6,59,N/A,30.08,53.1,,7:53 AM,10.0,North,11.5,360,Tulsa,Oklahoma,74104
17,Scattered Clouds,2016-02-21 14:00:00,39.9,,19.6,61,N/A,30.07,53.1,,8:00 AM,10.0,North,10.4,360,Tulsa,Oklahoma,74104
18,Mostly Cloudy,2016-02-21 14:07:00,39.0,,17.3,59,N/A,30.07,53.1,,8:07 AM,10.0,North,10.4,360,Tulsa,Oklahoma,74104
19,Scattered Clouds,2016-02-21 14:36:00,39.0,,17.3,57,N/A,30.09,54.0,,8:36 AM,10.0,North,9.2,10,Tulsa,Oklahoma,74104
20,Clear,2016-02-21 14:53:00,39.0,,-,57,N/A,30.12,54.0,,8:53 AM,10.0,North,11.5,10,Tulsa,Oklahoma,74104
21,Clear,2016-02-21 15:53:00,39.0,,-,55,N/A,30.14,55.0,,9:53 AM,10.0,NNE,11.5,20,Tulsa,Oklahoma,74104
22,Clear,2016-02-21 16:53:00,39.9,,17.3,51,N/A,30.15,57.9,,10:53 AM,10.0,North,13.8,10,Tulsa,Oklahoma,74104
23,Clear,2016-02-21 17:53:00,39.9,,-,46,N/A,30.16,61.0,,11:53 AM,10.0,NNE,11.5,20,Tulsa,Oklahoma,74104
24,Clear,2016-02-21 18:53:00,37.0,,-,37,N/A,30.16,64.0,,12:53 PM,10.0,North,10.4,10,Tulsa,Oklahoma,74104
25,Clear,2016-02-21 19:53:00,34.0,,25.3,32,N/A,30.14,64.9,,1:53 PM,10.0,North,13.8,360,Tulsa,Oklahoma,74104
26,Clear,2016-02-21 20:53:00,33.1,,-,29,N/A,30.13,66.0,,2:53 PM,10.0,NNE,15.0,20,Tulsa,Oklahoma,74104
27,Clear,2016-02-21 21:53:00,35.1,,-,32,N/A,30.13,66.0,,3:53 PM,10.0,NNE,12.7,20,Tulsa,Oklahoma,74104
28,Clear,2016-02-21 22:53:00,36.0,,21.9,35,N/A,30.14,64.0,,4:53 PM,10.0,NNE,12.7,20,Tulsa,Oklahoma,74104
29,Clear,2016-02-21 23:53:00,37.0,,-,41,N/A,30.16,61.0,,5:53 PM,10.0,North,9.2,10,Tulsa,Oklahoma,74104
30,Clear,2016-02-22 00:53:00,37.0,,-,44,N/A,30.17,59.0,,6:53 PM,10.0,NNE,10.4,20,Tulsa,Oklahoma,74104
31,Clear,2016-02-22 01:53:00,36.0,,-,45,N/A,30.16,57.0,,7:53 PM,10.0,North,9.2,10,Tulsa,Oklahoma,74104
32,Clear,2016-02-22 02:53:00,35.1,,-,47,N/A,30.17,55.0,,8:53 PM,10.0,NNE,10.4,30,Tulsa,Oklahoma,74104
33,Clear,2016-02-22 03:53:00,34.0,,-,48,N/A,30.18,53.1,,9:53 PM,10.0,NNE,9.2,20,Tulsa,Oklahoma,74104
34,Clear,2016-02-22 04:53:00,34.0,,-,48,N/A,30.19,53.1,,10:53 PM,10.0,NNE,10.4,20,Tulsa,Oklahoma,74104
35,Clear,2016-02-22 05:53:00,34.0,,-,50,N/A,30.19,52.0,,11:53 PM,10.0,NNE,9.2,20,Tulsa,Oklahoma,74104
0,Clear,2016-02-22 06:53:00,34.0,,-,54,N/A,30.18,50.0,,12:53 AM,10.0,NNE,6.9,20,Tulsa,Oklahoma,74104
1,Clear,2016-02-22 07:53:00,34.0,,-,56,N/A,30.18,48.9,,1:53 AM,10.0,NNE,8.1,20,Tulsa,Oklahoma,74104
2,Clear,2016-02-22 08:53:00,34.0,,-,63,N/A,30.17,46.0,,2:53 AM,10.0,North,5.8,10,Tulsa,Oklahoma,74104
3,Clear,2016-02-22 09:53:00,34.0,,-,71,N/A,30.14,43.0,,3:53 AM,10.0,North,4.6,10,Tulsa,Oklahoma,74104
4,Clear,2016-02-22 10:53:00,33.1,,-,68,N/A,30.13,43.0,,4:53 AM,10.0,North,6.9,10,Tulsa,Oklahoma,74104
5,Clear,2016-02-22 11:53:00,33.1,,-,77,N/A,30.14,39.9,,5:53 AM,10.0,NNE,4.6,30,Tulsa,Oklahoma,74104
6,Clear,2016-02-22 12:53:00,32.0,,-,76,N/A,30.13,39.0,,6:53 AM,10.0,North,3.5,10,Tulsa,Oklahoma,74104
7,Clear,2016-02-22 13:53:00,34.0,,-,73,N/A,30.14,42.1,,7:53 AM,10.0,NNE,4.6,20,Tulsa,Oklahoma,74104
8,Clear,2016-02-22 14:53:00,33.1,,-,59,N/A,30.14,46.9,,8:53 AM,10.0,ENE,9.2,60,Tulsa,Oklahoma,74104
9,Clear,2016-02-22 15:53:00,33.1,,-,50,N/A,30.12,51.1,,9:53 AM,10.0,NNE,6.9,30,Tulsa,Oklahoma,74104
10,Clear,2016-02-22 16:53:00,32.0,,-,43,N/A,30.09,54.0,,10:53 AM,10.0,NE,9.2,50,Tulsa,Oklahoma,74104
11,Clear,2016-02-22 17:53:00,30.0,,-,35,N/A,30.07,57.9,,11:53 AM,10.0,NNE,9.2,30,Tulsa,Oklahoma,74104
12,Clear,2016-02-22 18:53:00,28.0,,-,33,N/A,30.02,57.0,,12:53 PM,10.0,North,8.1,10,Tulsa,Oklahoma,74104
13,Partly Cloudy,2016-02-22 19:53:00,28.9,,18.4,32,N/A,29.99,59.0,,1:53 PM,10.0,North,11.5,10,Tulsa,Oklahoma,74104
14,Clear,2016-02-22 20:53:00,27.0,,-,28,N/A,29.95,60.1,,2:53 PM,10.0,NNE,10.4,30,Tulsa,Oklahoma,74104
15,Clear,2016-02-22 21:53:00,27.0,,-,28,N/A,29.95,60.1,,3:53 PM,10.0,North,8.1,360,Tulsa,Oklahoma,74104
16,Clear,2016-02-22 22:53:00,28.0,,-,33,N/A,29.91,57.0,,4:53 PM,10.0,NNE,11.5,20,Tulsa,Oklahoma,74104
17,Clear,2016-02-22 23:53:00,28.0,,-,35,N/A,29.91,55.0,,5:53 PM,10.0,NNE,6.9,20,Tulsa,Oklahoma,74104
18,Clear,2016-02-23 00:53:00,28.0,,-,40,N/A,29.92,52.0,,6:53 PM,10.0,North,4.6,10,Tulsa,Oklahoma,74104
19,Clear,2016-02-23 01:53:00,30.0,,-,46,N/A,29.92,50.0,,7:53 PM,10.0,North,4.6,10,Tulsa,Oklahoma,74104
20,Clear,2016-02-23 02:53:00,30.9,,-,46,N/A,29.94,51.1,,8:53 PM,10.0,North,5.8,360,Tulsa,Oklahoma,74104
21,Mostly Cloudy,2016-02-23 03:53:00,32.0,,-,50,N/A,29.94,50.0,,9:53 PM,10.0,North,8.1,10,Tulsa,Oklahoma,74104
22,Overcast,2016-02-23 04:53:00,32.0,,-,50,N/A,29.92,50.0,,10:53 PM,10.0,NNE,9.2,20,Tulsa,Oklahoma,74104
23,Light Rain,2016-02-23 05:53:00,34.0,Rain,-,58,0.00,29.92,48.0,,11:53 PM,10.0,North,5.8,360,Tulsa,Oklahoma,74104
0,Overcast,2016-02-23 06:53:00,35.1,,-,63,0.00,29.91,46.9,,12:53 AM,10.0,North,6.9,360,Tulsa,Oklahoma,74104
1,Mostly Cloudy,2016-02-23 07:53:00,35.1,,-,66,N/A,29.89,46.0,,1:53 AM,10.0,NNE,5.8,20,Tulsa,Oklahoma,74104
2,Overcast,2016-02-23 08:53:00,35.1,,-,66,N/A,29.88,46.0,,2:53 AM,10.0,NNE,5.8,20,Tulsa,Oklahoma,74104
3,Light Rain,2016-02-23 09:53:00,36.0,Rain,-,71,0.00,29.88,45.0,,3:53 AM,10.0,North,6.9,10,Tulsa,Oklahoma,74104
4,Light Rain,2016-02-23 10:53:00,37.9,Rain,-,79,0.01,29.89,44.1,,4:53 AM,10.0,North,8.1,10,Tulsa,Oklahoma,74104
5,Light Rain,2016-02-23 11:53:00,37.9,Rain,-,82,0.03,29.90,43.0,,5:53 AM,10.0,North,9.2,10,Tulsa,Oklahoma,74104
6,Light Rain,2016-02-23 12:53:00,37.9,Rain,-,82,0.02,29.91,43.0,,6:53 AM,8.0,North,6.9,10,Tulsa,Oklahoma,74104
7,Light Rain,2016-02-23 13:53:00,39.0,Rain,-,89,0.03,29.93,42.1,,7:53 AM,8.0,North,5.8,10,Tulsa,Oklahoma,74104
8,Light Rain,2016-02-23 14:53:00,39.0,Rain,-,86,0.04,29.94,43.0,,8:53 AM,6.0,North,5.8,360,Tulsa,Oklahoma,74104
9,Light Rain,2016-02-23 15:53:00,37.9,Rain,-,85,0.05,29.94,42.1,,9:53 AM,4.0,North,8.1,360,Tulsa,Oklahoma,74104
10,Light Rain,2016-02-23 16:53:00,39.0,Rain,-,89,0.05,29.93,42.1,,10:53 AM,4.0,NNE,12.7,30,Tulsa,Oklahoma,74104
11,Light Rain,2016-02-23 17:43:00,37.9,Rain,18.4,82,0.04,29.90,43.0,,11:43 AM,6.0,NNE,12.7,20,Tulsa,Oklahoma,74104
12,Light Rain,2016-02-23 17:53:00,37.9,Rain,31.1,82,0.04,29.91,43.0,,11:53 AM,8.0,NNE,18.4,20,Tulsa,Oklahoma,74104
13,Light Rain,2016-02-23 18:49:00,37.4,Rain,23.0,81,0.04,29.88,42.8,,12:49 PM,4.0,NNE,16.1,30,Tulsa,Oklahoma,74104
14,Light Rain,2016-02-23 18:53:00,37.0,Rain,29.9,82,0.05,29.90,42.1,,12:53 PM,4.0,NNE,17.3,20,Tulsa,Oklahoma,74104
15,Rain,2016-02-23 19:53:00,37.9,Rain,24.2,89,0.11,29.88,41.0,,1:53 PM,3.0,NNE,13.8,30,Tulsa,Oklahoma,74104
16,Light Rain,2016-02-23 20:53:00,37.0,Rain,26.5,86,0.06,29.86,41.0,,2:53 PM,8.0,North,13.8,10,Tulsa,Oklahoma,74104
17,Light Rain,2016-02-23 21:14:00,36.0,Rain,26.5,82,0.01,29.84,41.0,,3:14 PM,7.0,North,16.1,360,Tulsa,Oklahoma,74104
18,Rain,2016-02-23 21:53:00,36.0,Rain,25.3,86,0.09,29.86,39.9,,3:53 PM,3.0,North,12.7,360,Tulsa,Oklahoma,74104
19,Rain,2016-02-23 22:05:00,36.0,Rain,26.5,89,0.03,29.84,39.0,,4:05 PM,4.0,North,15.0,10,Tulsa,Oklahoma,74104
20,Light Rain,2016-02-23 22:53:00,37.0,Rain,29.9,89,0.10,29.87,39.9,,4:53 PM,4.0,North,17.3,10,Tulsa,Oklahoma,74104
21,Light Rain,2016-02-23 23:53:00,37.0,Rain,26.5,86,0.08,29.88,41.0,,5:53 PM,5.0,North,10.4,10,Tulsa,Oklahoma,74104
22,Light Rain,2016-02-24 00:12:00,37.9,Rain,23.0,89,0.01,29.86,41.0,,6:12 PM,10.0,North,10.4,10,Tulsa,Oklahoma,74104
23,Light Rain,2016-02-24 00:28:00,37.0,Rain,24.2,86,0.01,29.86,41.0,,6:28 PM,10.0,North,11.5,360,Tulsa,Oklahoma,74104
24,Light Rain,2016-02-24 00:36:00,37.0,Rain,17.3,82,0.01,29.86,42.1,,6:36 PM,10.0,North,10.4,10,Tulsa,Oklahoma,74104
25,Overcast,2016-02-24 00:53:00,37.9,,18.4,85,0.01,29.89,42.1,,6:53 PM,10.0,North,6.9,350,Tulsa,Oklahoma,74104
26,Overcast,2016-02-24 01:53:00,37.9,,-,85,N/A,29.90,42.1,,7:53 PM,10.0,North,4.6,350,Tulsa,Oklahoma,74104
27,Overcast,2016-02-24 02:53:00,37.9,,-,82,N/A,29.91,43.0,,8:53 PM,10.0,NNW,4.6,340,Tulsa,Oklahoma,74104
28,Overcast,2016-02-24 03:53:00,37.0,,-,74,N/A,29.91,45.0,,9:53 PM,10.0,NNW,6.9,340,Tulsa,Oklahoma,74104
29,Overcast,2016-02-24 04:53:00,36.0,,-,68,N/A,29.93,46.0,,10:53 PM,10.0,NNW,9.2,340,Tulsa,Oklahoma,74104
30,Mostly Cloudy,2016-02-24 05:53:00,36.0,,-,68,N/A,29.93,46.0,,11:53 PM,10.0,NNW,9.2,330,Tulsa,Oklahoma,74104
0,Scattered Clouds,2016-02-24 06:53:00,34.0,,21.9,65,N/A,29.94,45.0,,12:53 AM,10.0,NNW,9.2,340,Tulsa,Oklahoma,74104
1,Clear,2016-02-24 07:53:00,30.0,,31.1,58,N/A,29.94,44.1,,1:53 AM,10.0,North,16.1,350,Tulsa,Oklahoma,74104
2,Clear,2016-02-24 08:53:00,28.0,,20.7,58,N/A,29.94,42.1,,2:53 AM,10.0,NNW,10.4,340,Tulsa,Oklahoma,74104
3,Clear,2016-02-24 09:53:00,27.0,,23.0,60,N/A,29.95,39.9,,3:53 AM,10.0,NNW,12.7,340,Tulsa,Oklahoma,74104
4,Clear,2016-02-24 10:53:00,27.0,,16.1,65,N/A,29.97,37.9,,4:53 AM,10.0,NNW,9.2,330,Tulsa,Oklahoma,74104
5,Clear,2016-02-24 11:53:00,27.0,,20.7,67,N/A,29.98,37.0,,5:53 AM,10.0,NNW,12.7,340,Tulsa,Oklahoma,74104
6,Clear,2016-02-24 12:53:00,27.0,,16.1,70,N/A,30.02,36.0,,6:53 AM,10.0,NW,9.2,320,Tulsa,Oklahoma,74104
7,Clear,2016-02-24 13:53:00,27.0,,21.9,70,N/A,30.04,36.0,,7:53 AM,10.0,NNW,11.5,330,Tulsa,Oklahoma,74104
8,Clear,2016-02-24 14:53:00,27.0,,27.6,62,N/A,30.07,39.0,,8:53 AM,10.0,NNW,18.4,340,Tulsa,Oklahoma,74104
9,Clear,2016-02-24 15:53:00,28.0,,19.6,58,N/A,30.09,42.1,,9:53 AM,10.0,North,9.2,350,Tulsa,Oklahoma,74104
10,Clear,2016-02-24 16:53:00,26.1,,23.0,48,N/A,30.08,45.0,,10:53 AM,10.0,NNW,15.0,340,Tulsa,Oklahoma,74104
11,Clear,2016-02-24 17:53:00,26.1,,23.0,42,N/A,30.07,48.0,,11:53 AM,10.0,NNW,8.1,330,Tulsa,Oklahoma,74104
12,Clear,2016-02-24 18:53:00,26.1,,21.9,37,N/A,30.05,52.0,,12:53 PM,10.0,NW,10.4,310,Tulsa,Oklahoma,74104
13,Clear,2016-02-24 19:53:00,24.1,,18.4,32,N/A,30.04,53.1,,1:53 PM,10.0,NW,11.5,320,Tulsa,Oklahoma,74104
14,Clear,2016-02-24 20:53:00,23.0,,21.9,29,N/A,30.03,55.0,,2:53 PM,10.0,NW,12.7,310,Tulsa,Oklahoma,74104
15,Clear,2016-02-24 21:53:00,24.1,,19.6,30,N/A,30.02,55.0,,3:53 PM,10.0,Variable,6.9,0,Tulsa,Oklahoma,74104
16,Clear,2016-02-24 22:53:00,26.1,,21.9,34,N/A,30.03,54.0,,4:53 PM,10.0,WNW,8.1,300,Tulsa,Oklahoma,74104
17,Clear,2016-02-24 23:53:00,25.0,,-,34,N/A,30.04,53.1,,5:53 PM,10.0,WNW,6.9,300,Tulsa,Oklahoma,74104
18,Clear,2016-02-25 00:53:00,28.0,,-,52,N/A,30.04,45.0,,6:53 PM,10.0,Calm,Calm,0,Tulsa,Oklahoma,74104
19,Clear,2016-02-25 01:53:00,30.0,,-,65,N/A,30.04,41.0,,7:53 PM,10.0,Calm,Calm,0,Tulsa,Oklahoma,74104
20,Clear,2016-02-25 02:53:00,30.0,,-,73,N/A,30.06,37.9,,8:53 PM,10.0,Calm,Calm,0,Tulsa,Oklahoma,74104
21,Clear,2016-02-25 03:53:00,30.0,,-,82,N/A,30.09,35.1,,9:53 PM,10.0,Calm,Calm,0,Tulsa,Oklahoma,74104
22,Clear,2016-02-25 04:53:00,28.9,,-,82,N/A,30.10,34.0,,10:53 PM,10.0,Calm,Calm,0,Tulsa,Oklahoma,74104
23,Clear,2016-02-25 05:53:00,28.9,,-,76,N/A,30.13,36.0,,11:53 PM,10.0,Calm,Calm,0,Tulsa,Oklahoma,74104
0,Clear,2016-02-25 06:53:00,26.1,,-,51,N/A,30.16,43.0,,12:53 AM,10.0,North,8.1,350,Tulsa,Oklahoma,74104
1,Clear,2016-02-25 07:53:00,25.0,,-,51,N/A,30.17,42.1,,1:53 AM,10.0,NNW,6.9,340,Tulsa,Oklahoma,74104
2,Clear,2016-02-25 08:53:00,26.1,,-,55,N/A,30.18,41.0,,2:53 AM,10.0,NNW,4.6,330,Tulsa,Oklahoma,74104
3,Clear,2016-02-25 09:53:00,28.9,,-,65,N/A,30.20,39.9,,3:53 AM,10.0,NNW,6.9,330,Tulsa,Oklahoma,74104
4,Clear,2016-02-25 10:53:00,27.0,,-,62,N/A,30.22,39.0,,4:53 AM,10.0,NNW,8.1,340,Tulsa,Oklahoma,74104
5,Clear,2016-02-25 11:53:00,26.1,,-,62,N/A,30.26,37.9,,5:53 AM,10.0,NW,5.8,320,Tulsa,Oklahoma,74104
6,Clear,2016-02-25 12:53:00,24.1,,-,62,N/A,30.28,36.0,,6:53 AM,10.0,NNW,9.2,330,Tulsa,Oklahoma,74104
7,Clear,2016-02-25 13:53:00,24.1,,-,59,N/A,30.32,37.0,,7:53 AM,10.0,NW,8.1,320,Tulsa,Oklahoma,74104
8,Clear,2016-02-25 14:53:00,25.0,,17.3,57,N/A,30.36,39.0,,8:53 AM,10.0,NNW,10.4,340,Tulsa,Oklahoma,74104
9,Clear,2016-02-25 15:53:00,26.1,,-,53,N/A,30.38,42.1,,9:53 AM,10.0,NNW,11.5,340,Tulsa,Oklahoma,74104
10,Partly Cloudy,2016-02-25 16:53:00,27.0,,18.4,49,N/A,30.40,45.0,,10:53 AM,10.0,Variable,5.8,0,Tulsa,Oklahoma,74104
11,Partly Cloudy,2016-02-25 17:53:00,23.0,,24.2,39,N/A,30.40,46.9,,11:53 AM,10.0,North,10.4,360,Tulsa,Oklahoma,74104
12,Partly Cloudy,2016-02-25 18:53:00,21.9,,23.0,35,N/A,30.39,48.9,,12:53 PM,10.0,NW,8.1,320,Tulsa,Oklahoma,74104
13,Partly Cloudy,2016-02-25 19:53:00,21.0,,23.0,33,N/A,30.38,48.9,,1:53 PM,10.0,NW,11.5,320,Tulsa,Oklahoma,74104
14,Mostly Cloudy,2016-02-25 20:53:00,21.0,,20.7,31,N/A,30.38,51.1,,2:53 PM,10.0,NNW,13.8,340,Tulsa,Oklahoma,74104
15,Overcast,2016-02-25 21:53:00,21.0,,21.9,34,N/A,30.39,48.0,,3:53 PM,10.0,NW,10.4,320,Tulsa,Oklahoma,74104
16,Clear,2016-02-25 22:53:00,21.0,,21.9,33,N/A,30.39,48.9,,4:53 PM,10.0,North,10.4,360,Tulsa,Oklahoma,74104
17,Clear,2016-02-25 23:53:00,21.0,,18.4,39,N/A,30.42,45.0,,5:53 PM,10.0,North,8.1,350,Tulsa,Oklahoma,74104
18,Clear,2016-02-26 00:53:00,19.9,,-,40,N/A,30.43,43.0,,6:53 PM,10.0,North,4.6,350,Tulsa,Oklahoma,74104
19,Clear,2016-02-26 01:53:00,23.0,,-,51,N/A,30.45,39.9,,7:53 PM,10.0,North,5.8,10,Tulsa,Oklahoma,74104
20,Clear,2016-02-26 02:53:00,23.0,,-,55,N/A,30.46,37.9,,8:53 PM,10.0,North,3.5,350,Tulsa,Oklahoma,74104
21,Clear,2016-02-26 03:53:00,21.9,,-,53,N/A,30.47,37.9,,9:53 PM,10.0,Calm,Calm,0,Tulsa,Oklahoma,74104
22,Clear,2016-02-26 04:53:00,23.0,,-,64,N/A,30.48,34.0,,10:53 PM,10.0,NNW,3.5,330,Tulsa,Oklahoma,74104
23,Clear,2016-02-26 05:53:00,21.9,,-,61,N/A,30.47,34.0,,11:53 PM,10.0,Calm,Calm,0,Tulsa,Oklahoma,74104
0,Clear,2016-02-26 06:53:00,23.0,,-,78,N/A,30.46,28.9,,12:53 AM,10.0,Calm,Calm,0,Tulsa,Oklahoma,74104
1,Clear,2016-02-26 07:53:00,23.0,,-,85,N/A,30.47,27.0,,1:53 AM,10.0,Calm,Calm,0,Tulsa,Oklahoma,74104
2,Clear,2016-02-26 08:53:00,21.9,,-,81,N/A,30.46,27.0,,2:53 AM,10.0,Calm,Calm,0,Tulsa,Oklahoma,74104
3,Clear,2016-02-26 09:53:00,21.0,,-,85,N/A,30.45,25.0,,3:53 AM,10.0,Calm,Calm,0,Tulsa,Oklahoma,74104
4,Clear,2016-02-26 10:53:00,21.0,,-,81,N/A,30.45,26.1,,4:53 AM,10.0,Calm,Calm,0,Tulsa,Oklahoma,74104
5,Clear,2016-02-26 11:53:00,21.0,,-,88,N/A,30.47,24.1,,5:53 AM,10.0,Calm,Calm,0,Tulsa,Oklahoma,74104
6,Clear,2016-02-26 12:53:00,21.0,,-,88,N/A,30.46,24.1,,6:53 AM,10.0,Calm,Calm,0,Tulsa,Oklahoma,74104
7,Clear,2016-02-26 13:53:00,24.1,,-,85,N/A,30.47,28.0,,7:53 AM,10.0,SSW,3.5,200,Tulsa,Oklahoma,74104
8,Clear,2016-02-26 14:53:00,26.1,,-,73,N/A,30.47,34.0,,8:53 AM,10.0,Calm,Calm,0,Tulsa,Oklahoma,74104
9,Clear,2016-02-26 15:53:00,26.1,,-,53,N/A,30.45,42.1,,9:53 AM,10.0,South,4.6,180,Tulsa,Oklahoma,74104
10,Clear,2016-02-26 16:53:00,27.0,,-,46,N/A,30.43,46.9,,10:53 AM,10.0,South,8.1,180,Tulsa,Oklahoma,74104
11,Clear,2016-02-26 17:53:00,24.1,,-,35,N/A,30.40,51.1,,11:53 AM,10.0,SW,8.1,220,Tulsa,Oklahoma,74104
12,Clear,2016-02-26 18:53:00,24.1,,-,30,N/A,30.35,55.0,,12:53 PM,10.0,South,10.4,180,Tulsa,Oklahoma,74104
13,Clear,2016-02-26 19:53:00,24.1,,18.4,27,N/A,30.29,57.9,,1:53 PM,10.0,SSW,9.2,210,Tulsa,Oklahoma,74104
14,Clear,2016-02-26 20:53:00,23.0,,23.0,24,N/A,30.25,60.1,,2:53 PM,10.0,SW,10.4,230,Tulsa,Oklahoma,74104
15,Clear,2016-02-26 21:53:00,25.0,,18.4,25,N/A,30.23,61.0,,3:53 PM,10.0,SSW,11.5,210,Tulsa,Oklahoma,74104
16,Clear,2016-02-26 22:53:00,25.0,,21.9,25,N/A,30.21,61.0,,4:53 PM,10.0,SSW,15.0,210,Tulsa,Oklahoma,74104
17,Clear,2016-02-26 23:53:00,27.0,,-,31,N/A,30.22,57.9,,5:53 PM,10.0,SSW,6.9,210,Tulsa,Oklahoma,74104
18,Clear,2016-02-27 00:53:00,28.0,,-,38,N/A,30.22,53.1,,6:53 PM,10.0,South,4.6,190,Tulsa,Oklahoma,74104
19,Clear,2016-02-27 01:53:00,28.0,,-,44,N/A,30.22,48.9,,7:53 PM,10.0,SSW,3.5,200,Tulsa,Oklahoma,74104
20,Clear,2016-02-27 02:53:00,28.9,,-,60,N/A,30.23,42.1,,8:53 PM,10.0,Calm,Calm,0,Tulsa,Oklahoma,74104
21,Clear,2016-02-27 03:53:00,28.0,,-,53,N/A,30.24,44.1,,9:53 PM,10.0,South,3.5,190,Tulsa,Oklahoma,74104
22,Clear,2016-02-27 04:53:00,28.9,,-,58,N/A,30.22,43.0,,10:53 PM,10.0,South,3.5,190,Tulsa,Oklahoma,74104
23,Clear,2016-02-27 05:53:00,30.0,,-,76,N/A,30.22,37.0,,11:53 PM,10.0,Calm,Calm,0,Tulsa,Oklahoma,74104
0,Clear,2016-02-27 06:53:00,28.9,,-,73,N/A,30.22,37.0,,12:53 AM,10.0,Calm,Calm,0,Tulsa,Oklahoma,74104
1,Clear,2016-02-27 07:53:00,28.9,,-,67,N/A,30.22,39.0,,1:53 AM,10.0,Calm,Calm,0,Tulsa,Oklahoma,74104
2,Clear,2016-02-27 08:53:00,28.9,,-,73,N/A,30.21,37.0,,2:53 AM,10.0,Calm,Calm,0,Tulsa,Oklahoma,74104
3,Clear,2016-02-27 09:53:00,28.0,,-,79,N/A,30.20,34.0,,3:53 AM,10.0,Calm,Calm,0,Tulsa,Oklahoma,74104
4,Clear,2016-02-27 10:53:00,28.9,,-,85,N/A,30.20,33.1,,4:53 AM,10.0,Calm,Calm,0,Tulsa,Oklahoma,74104
5,Clear,2016-02-27 11:53:00,28.9,,-,88,N/A,30.20,32.0,,5:53 AM,10.0,Calm,Calm,0,Tulsa,Oklahoma,74104
6,Clear,2016-02-27 12:53:00,28.9,,-,88,N/A,30.20,32.0,,6:53 AM,10.0,Calm,Calm,0,Tulsa,Oklahoma,74104
7,Clear,2016-02-27 13:53:00,33.1,,-,86,N/A,30.20,37.0,,7:53 AM,10.0,Calm,Calm,0,Tulsa,Oklahoma,74104
8,Clear,2016-02-27 14:53:00,33.1,,-,61,N/A,30.20,46.0,,8:53 AM,10.0,Calm,Calm,0,Tulsa,Oklahoma,74104
9,Clear,2016-02-27 15:53:00,35.1,,-,49,N/A,30.19,54.0,,9:53 AM,10.0,South,5.8,170,Tulsa,Oklahoma,74104
10,Clear,2016-02-27 16:53:00,36.0,,-,42,N/A,30.17,59.0,,10:53 AM,10.0,South,5.8,180,Tulsa,Oklahoma,74104
11,Clear,2016-02-27 17:53:00,37.0,,-,36,N/A,30.14,64.9,,11:53 AM,10.0,South,9.2,180,Tulsa,Oklahoma,74104
12,Clear,2016-02-27 18:53:00,34.0,,20.7,26,N/A,30.09,71.1,,12:53 PM,10.0,SSW,16.1,200,Tulsa,Oklahoma,74104
13,Clear,2016-02-27 19:53:00,35.1,,-,24,N/A,30.05,73.9,,1:53 PM,10.0,SSW,15.0,200,Tulsa,Oklahoma,74104
14,Clear,2016-02-27 20:53:00,35.1,,23.0,23,N/A,30.02,75.0,,2:53 PM,10.0,South,12.7,190,Tulsa,Oklahoma,74104
15,Clear,2016-02-27 21:53:00,30.9,,25.3,19,N/A,29.99,75.9,,3:53 PM,10.0,South,12.7,190,Tulsa,Oklahoma,74104
16,Clear,2016-02-27 22:53:00,32.0,,26.5,22,N/A,29.98,73.0,,4:53 PM,10.0,South,17.3,190,Tulsa,Oklahoma,74104
17,Clear,2016-02-27 23:53:00,30.9,,23.0,24,N/A,29.97,70.0,,5:53 PM,10.0,South,13.8,190,Tulsa,Oklahoma,74104
18,Clear,2016-02-28 00:53:00,34.0,,-,32,N/A,29.98,64.9,,6:53 PM,10.0,South,8.1,190,Tulsa,Oklahoma,74104
19,Clear,2016-02-28 01:53:00,36.0,,-,35,N/A,29.97,64.0,,7:53 PM,10.0,South,11.5,180,Tulsa,Oklahoma,74104
20,Clear,2016-02-28 02:53:00,39.0,,21.9,43,N/A,29.96,62.1,,8:53 PM,10.0,South,10.4,190,Tulsa,Oklahoma,74104
21,Clear,2016-02-28 03:53:00,39.0,,-,44,N/A,29.98,61.0,,9:53 PM,10.0,South,11.5,180,Tulsa,Oklahoma,74104
22,Clear,2016-02-28 04:53:00,39.9,,19.6,49,N/A,29.97,59.0,,10:53 PM,10.0,South,10.4,190,Tulsa,Oklahoma,74104
23,Clear,2016-02-28 05:53:00,42.1,,-,56,N/A,29.94,57.9,,11:53 PM,10.0,South,10.4,180,Tulsa,Oklahoma,74104
0,Clear,2016-02-28 06:53:00,45.0,,21.9,60,N/A,29.92,59.0,,12:53 AM,10.0,South,16.1,190,Tulsa,Oklahoma,74104
1,Clear,2016-02-28 07:53:00,45.0,,23.0,60,N/A,29.90,59.0,,1:53 AM,10.0,SSW,16.1,200,Tulsa,Oklahoma,74104
2,Clear,2016-02-28 08:53:00,45.0,,21.9,62,N/A,29.88,57.9,,2:53 AM,10.0,South,16.1,190,Tulsa,Oklahoma,74104
3,Clear,2016-02-28 09:53:00,45.0,,20.7,64,N/A,29.85,57.0,,3:53 AM,10.0,South,15.0,190,Tulsa,Oklahoma,74104
4,Clear,2016-02-28 10:53:00,45.0,,25.3,64,N/A,29.84,57.0,,4:53 AM,10.0,South,17.3,190,Tulsa,Oklahoma,74104
5,Clear,2016-02-28 11:53:00,45.0,,23.0,67,N/A,29.83,55.9,,5:53 AM,10.0,South,16.1,190,Tulsa,Oklahoma,74104
6,Clear,2016-02-28 12:53:00,46.0,,20.7,72,N/A,29.84,55.0,,6:53 AM,10.0,South,13.8,190,Tulsa,Oklahoma,74104
7,Clear,2016-02-28 13:53:00,46.9,,21.9,72,N/A,29.85,55.9,,7:53 AM,10.0,South,13.8,190,Tulsa,Oklahoma,74104
8,Clear,2016-02-28 14:53:00,48.0,,24.2,67,N/A,29.85,59.0,,8:53 AM,10.0,SW,15.0,220,Tulsa,Oklahoma,74104
9,Clear,2016-02-28 15:53:00,46.9,,33.4,56,N/A,29.86,63.0,,9:53 AM,10.0,WSW,15.0,240,Tulsa,Oklahoma,74104
10,Clear,2016-02-28 16:53:00,46.0,,25.3,48,N/A,29.86,66.0,,10:53 AM,10.0,SW,17.3,220,Tulsa,Oklahoma,74104
11,Clear,2016-02-28 17:53:00,44.1,,23.0,40,N/A,29.87,69.1,,11:53 AM,10.0,SW,12.7,220,Tulsa,Oklahoma,74104
12,Clear,2016-02-28 18:53:00,39.9,,17.3,30,N/A,29.86,73.0,,12:53 PM,10.0,Variable,6.9,0,Tulsa,Oklahoma,74104
13,Clear,2016-02-28 19:53:00,37.9,,-,26,N/A,29.87,75.0,,1:53 PM,10.0,NW,9.2,310,Tulsa,Oklahoma,74104
14,Clear,2016-02-28 20:53:00,37.9,,20.7,27,N/A,29.88,73.9,,2:53 PM,10.0,NW,13.8,310,Tulsa,Oklahoma,74104
15,Clear,2016-02-28 21:53:00,39.0,,20.7,26,N/A,29.89,75.9,,3:53 PM,10.0,WNW,12.7,300,Tulsa,Oklahoma,74104
16,Clear,2016-02-28 22:53:00,39.9,,-,28,N/A,29.92,75.0,,4:53 PM,10.0,WNW,9.2,290,Tulsa,Oklahoma,74104
17,Clear,2016-02-28 23:53:00,37.0,,18.4,30,N/A,29.96,70.0,,5:53 PM,10.0,NNW,11.5,340,Tulsa,Oklahoma,74104
18,Clear,2016-02-29 00:53:00,36.0,,19.6,32,N/A,30.00,66.9,,6:53 PM,10.0,North,9.2,350,Tulsa,Oklahoma,74104
19,Clear,2016-02-29 01:53:00,35.1,,-,34,N/A,30.04,64.0,,7:53 PM,10.0,North,6.9,350,Tulsa,Oklahoma,74104
20,Clear,2016-02-29 02:53:00,35.1,,-,38,N/A,30.07,61.0,,8:53 PM,10.0,NNW,4.6,340,Tulsa,Oklahoma,74104
21,Clear,2016-02-29 03:53:00,34.0,,-,41,N/A,30.10,57.9,,9:53 PM,10.0,North,4.6,10,Tulsa,Oklahoma,74104
22,Clear,2016-02-29 04:53:00,35.1,,-,53,N/A,30.12,52.0,,10:53 PM,10.0,North,5.8,10,Tulsa,Oklahoma,74104
23,Clear,2016-02-29 05:53:00,34.0,,-,45,N/A,30.12,55.0,,11:53 PM,10.0,North,6.9,10,Tulsa,Oklahoma,74104
0,Clear,2016-02-29 06:53:00,34.0,,-,52,N/A,30.13,51.1,,12:53 AM,10.0,NNE,4.6,20,Tulsa,Oklahoma,74104
1,Clear,2016-02-29 07:53:00,34.0,,-,68,N/A,30.13,44.1,,1:53 AM,10.0,Calm,Calm,0,Tulsa,Oklahoma,74104
2,Clear,2016-02-29 08:53:00,34.0,,-,73,N/A,30.12,42.1,,2:53 AM,10.0,Calm,Calm,0,Tulsa,Oklahoma,74104
3,Clear,2016-02-29 09:53:00,33.1,,-,79,N/A,30.10,39.0,,3:53 AM,10.0,Calm,Calm,0,Tulsa,Oklahoma,74104
4,Clear,2016-02-29 10:53:00,32.0,,-,86,N/A,30.12,36.0,,4:53 AM,10.0,Calm,Calm,0,Tulsa,Oklahoma,74104
5,Clear,2016-02-29 11:53:00,32.0,,-,89,N/A,30.10,35.1,,5:53 AM,10.0,Calm,Calm,0,Tulsa,Oklahoma,74104
6,Clear,2016-02-29 12:53:00,32.0,,-,92,N/A,30.09,34.0,,6:53 AM,10.0,Calm,Calm,0,Tulsa,Oklahoma,74104
7,Clear,2016-02-29 13:53:00,34.0,,-,79,N/A,30.09,39.9,,7:53 AM,10.0,Calm,Calm,0,Tulsa,Oklahoma,74104
8,Clear,2016-02-29 14:53:00,37.0,,-,61,N/A,30.12,50.0,,8:53 AM,10.0,Calm,Calm,0,Tulsa,Oklahoma,74104
9,Clear,2016-02-29 15:53:00,37.9,,-,44,N/A,30.11,60.1,,9:53 AM,10.0,South,6.9,190,Tulsa,Oklahoma,74104
10,Clear,2016-02-29 16:53:00,36.0,,16.1,35,N/A,30.09,64.0,,10:53 AM,10.0,South,11.5,170,Tulsa,Oklahoma,74104
11,Clear,2016-02-29 17:53:00,34.0,,-,30,N/A,30.06,66.9,,11:53 AM,10.0,SSE,11.5,160,Tulsa,Oklahoma,74104
12,Clear,2016-02-29 18:53:00,30.9,,19.6,24,N/A,30.01,70.0,,12:53 PM,10.0,SSE,9.2,160,Tulsa,Oklahoma,74104
13,Clear,2016-02-29 19:53:00,28.9,,-,20,N/A,29.97,73.0,,1:53 PM,10.0,South,11.5,180,Tulsa,Oklahoma,74104
14,Clear,2016-02-29 20:53:00,30.0,,19.6,20,N/A,29.93,73.9,,2:53 PM,10.0,South,11.5,190,Tulsa,Oklahoma,74104
15,Clear,2016-02-29 21:53:00,28.9,,20.7,18,N/A,29.90,75.0,,3:53 PM,10.0,South,15.0,190,Tulsa,Oklahoma,74104
16,Clear,2016-02-29 22:53:00,30.9,,20.7,21,N/A,29.87,73.9,,4:53 PM,10.0,South,16.1,180,Tulsa,Oklahoma,74104
17,Clear,2016-02-29 23:53:00,35.1,,-,27,N/A,29.86,71.1,,5:53 PM,10.0,SSW,8.1,200,Tulsa,Oklahoma,74104
18,Clear,2016-03-01 00:53:00,37.0,,-,37,N/A,29.86,64.0,,6:53 PM,10.0,South,4.6,170,Tulsa,Oklahoma,74104
19,Clear,2016-03-01 01:53:00,39.9,,-,49,N/A,29.87,59.0,,7:53 PM,10.0,Calm,Calm,0,Tulsa,Oklahoma,74104
20,Clear,2016-03-01 02:53:00,39.9,,-,55,N/A,29.86,55.9,,8:53 PM,10.0,South,4.6,170,Tulsa,Oklahoma,74104
21,Clear,2016-03-01 03:53:00,53.1,,-,70,N/A,29.86,63.0,,9:53 PM,10.0,SSE,4.6,160,Tulsa,Oklahoma,74104
22,Rain,2016-03-01 04:25:00,57.0,Rain-Thunderstorm,-,81,0.05,29.85,63.0,,10:25 PM,2.5,SW,6.9,230,Tulsa,Oklahoma,74104
23,Light Thunderstorms and Rain,2016-03-01 04:34:00,57.0,Rain-Thunderstorm,-,81,0.06,29.84,63.0,,10:34 PM,6.0,West,4.6,280,Tulsa,Oklahoma,74104
24,Heavy Thunderstorms and Rain,2016-03-01 04:43:00,57.9,Rain-Thunderstorm,-,86,0.16,29.84,62.1,,10:43 PM,2.5,Variable,4.6,0,Tulsa,Oklahoma,74104
25,Heavy Thunderstorms and Rain,2016-03-01 04:50:00,57.2,Rain-Thunderstorm,21.9,88,0.48,29.83,60.8,,10:50 PM,0.8,South,15.0,180,Tulsa,Oklahoma,74104
26,Heavy Thunderstorms and Rain,2016-03-01 04:51:00,57.0,Rain-Thunderstorm,21.9,87,0.53,29.84,61.0,,10:51 PM,0.8,SSE,12.7,150,Tulsa,Oklahoma,74104
27,Heavy Thunderstorms and Rain,2016-03-01 05:01:00,53.1,Rain-Thunderstorm,24.2,78,0.13,29.80,60.1,,11:01 PM,2.0,South,12.7,170,Tulsa,Oklahoma,74104
28,Light Thunderstorms and Rain,2016-03-01 05:10:00,55.0,Rain-Thunderstorm,19.6,87,0.15,29.81,59.0,,11:10 PM,7.0,South,12.7,180,Tulsa,Oklahoma,74104
29,Light Rain,2016-03-01 05:49:00,51.8,Rain-Thunderstorm,18.4,77,0.16,29.82,59.0,,11:49 PM,10.0,South,6.9,180,Tulsa,Oklahoma,74104
30,Light Rain,2016-03-01 05:53:00,52.0,Rain-Thunderstorm,-,81,0.16,29.83,57.9,,11:53 PM,4.0,South,6.9,180,Tulsa,Oklahoma,74104
0,Light Thunderstorms and Rain,2016-03-01 06:07:00,52.0,Rain-Thunderstorm,-,81,0.00,29.74,57.9,,12:07 AM,10.0,East,15.0,100,Tulsa,Oklahoma,74104
1,Light Rain,2016-03-01 06:22:00,52.0,Rain,21.9,78,0.01,29.77,59.0,,12:22 AM,10.0,Variable,5.8,0,Tulsa,Oklahoma,74104
2,Mostly Cloudy,2016-03-01 06:53:00,53.1,,-,87,0.01,29.79,57.0,,12:53 AM,10.0,Calm,Calm,0,Tulsa,Oklahoma,74104
3,Light Rain,2016-03-01 07:19:00,54.0,Rain-Thunderstorm,-,87,0.00,29.77,57.9,,1:19 AM,10.0,Calm,Calm,0,Tulsa,Oklahoma,74104
4,Thunderstorm,2016-03-01 07:53:00,53.1,Thunderstorm,-,84,0.00,29.83,57.9,,1:53 AM,10.0,SW,5.8,230,Tulsa,Oklahoma,74104
5,Overcast,2016-03-01 08:41:00,54.0,Thunderstorm,-,89,0.06,29.81,57.0,,2:41 AM,10.0,Calm,Calm,0,Tulsa,Oklahoma,74104
6,Overcast,2016-03-01 08:53:00,53.1,Thunderstorm,-,87,0.06,29.84,57.0,,2:53 AM,10.0,NNW,5.8,340,Tulsa,Oklahoma,74104
7,Light Thunderstorms and Rain,2016-03-01 09:02:00,54.0,Rain-Thunderstorm,-,89,0.00,29.86,57.0,,3:02 AM,10.0,NNW,8.1,330,Tulsa,Oklahoma,74104
8,Heavy Thunderstorms and Rain,2016-03-01 09:28:00,54.0,Rain-Thunderstorm,-,89,0.16,29.88,57.0,,3:28 AM,1.8,Calm,Calm,0,Tulsa,Oklahoma,74104
9,Thunderstorms and Rain,2016-03-01 09:37:00,54.0,Rain-Thunderstorm,-,89,0.21,29.89,57.0,,3:37 AM,3.0,NNW,4.6,340,Tulsa,Oklahoma,74104
10,Heavy Rain,2016-03-01 09:51:00,53.6,Rain,-,88,0.28,29.90,57.2,,3:51 AM,4.0,North,6.9,10,Tulsa,Oklahoma,74104
11,Rain,2016-03-01 09:53:00,53.1,Rain,-,87,0.29,29.91,57.0,,3:53 AM,4.0,North,8.1,10,Tulsa,Oklahoma,74104
12,Overcast,2016-03-01 10:53:00,46.9,,-,77,0.07,29.95,54.0,,4:53 AM,10.0,North,5.8,360,Tulsa,Oklahoma,74104
13,Overcast,2016-03-01 11:53:00,39.9,,-,59,N/A,29.99,54.0,,5:53 AM,10.0,North,8.1,350,Tulsa,Oklahoma,74104
14,Overcast,2016-03-01 12:53:00,37.9,,-,61,N/A,30.03,51.1,,6:53 AM,10.0,North,9.2,360,Tulsa,Oklahoma,74104
15,Mostly Cloudy,2016-03-01 13:53:00,36.0,,-,63,N/A,30.07,48.0,,7:53 AM,10.0,North,6.9,360,Tulsa,Oklahoma,74104
16,Overcast,2016-03-01 14:53:00,33.1,,17.3,61,N/A,30.13,46.0,,8:53 AM,10.0,NNW,8.1,340,Tulsa,Oklahoma,74104
17,Scattered Clouds,2016-03-01 15:53:00,33.1,,-,56,N/A,30.19,48.0,,9:53 AM,10.0,NW,8.1,310,Tulsa,Oklahoma,74104
18,Clear,2016-03-01 16:53:00,30.9,,18.4,52,N/A,30.19,48.0,,10:53 AM,10.0,NNW,12.7,340,Tulsa,Oklahoma,74104
19,Clear,2016-03-01 17:53:00,30.9,,17.3,46,N/A,30.21,51.1,,11:53 AM,10.0,NNW,10.4,330,Tulsa,Oklahoma,74104
20,Clear,2016-03-01 18:53:00,32.0,,17.3,43,N/A,30.21,54.0,,12:53 PM,10.0,Variable,5.8,0,Tulsa,Oklahoma,74104
21,Clear,2016-03-01 19:53:00,32.0,,19.6,39,N/A,30.19,57.0,,1:53 PM,10.0,Variable,6.9,0,Tulsa,Oklahoma,74104
22,Clear,2016-03-01 20:53:00,30.0,,-,33,N/A,30.18,59.0,,2:53 PM,10.0,NNW,8.1,330,Tulsa,Oklahoma,74104
23,Clear,2016-03-01 21:53:00,28.0,,19.6,31,N/A,30.17,59.0,,3:53 PM,10.0,NNW,11.5,340,Tulsa,Oklahoma,74104
24,Clear,2016-03-01 22:53:00,25.0,,-,27,N/A,30.18,59.0,,4:53 PM,10.0,NW,11.5,320,Tulsa,Oklahoma,74104
25,Clear,2016-03-01 23:53:00,24.1,,-,29,N/A,30.17,55.9,,5:53 PM,10.0,North,6.9,350,Tulsa,Oklahoma,74104
26,Clear,2016-03-02 00:53:00,28.0,,-,40,N/A,30.20,52.0,,6:53 PM,10.0,NNW,3.5,330,Tulsa,Oklahoma,74104
27,Clear,2016-03-02 01:53:00,33.1,,-,56,N/A,30.22,48.0,,7:53 PM,10.0,NW,3.5,320,Tulsa,Oklahoma,74104
28,Clear,2016-03-02 02:53:00,32.0,,-,58,N/A,30.24,46.0,,8:53 PM,10.0,NNW,3.5,330,Tulsa,Oklahoma,74104
29,Clear,2016-03-02 03:53:00,28.9,,-,51,N/A,30.24,46.0,,9:53 PM,10.0,NW,3.5,320,Tulsa,Oklahoma,74104
30,Clear,2016-03-02 04:53:00,33.1,,-,77,N/A,30.24,39.9,,10:53 PM,10.0,Calm,Calm,0,Tulsa,Oklahoma,74104
31,Clear,2016-03-02 05:53:00,32.0,,-,82,N/A,30.22,37.0,,11:53 PM,10.0,Calm,Calm,0,Tulsa,Oklahoma,74104
0,Clear,2016-03-02 06:53:00,32.0,,-,82,N/A,30.21,37.0,,12:53 AM,10.0,Calm,Calm,0,Tulsa,Oklahoma,74104
1,Clear,2016-03-02 07:53:00,32.0,,-,86,N/A,30.19,36.0,,1:53 AM,10.0,Calm,Calm,0,Tulsa,Oklahoma,74104
2,Clear,2016-03-02 08:53:00,30.9,,-,79,N/A,30.19,37.0,,2:53 AM,10.0,SSW,3.5,200,Tulsa,Oklahoma,74104
3,Clear,2016-03-02 09:53:00,30.0,,-,82,N/A,30.17,35.1,,3:53 AM,10.0,Calm,Calm,0,Tulsa,Oklahoma,74104
4,Clear,2016-03-02 10:53:00,30.0,,-,85,N/A,30.17,34.0,,4:53 AM,10.0,Calm,Calm,0,Tulsa,Oklahoma,74104
5,Clear,2016-03-02 11:53:00,30.9,,-,89,N/A,30.16,34.0,,5:53 AM,10.0,Calm,Calm,0,Tulsa,Oklahoma,74104
6,Clear,2016-03-02 12:53:00,30.0,,-,85,N/A,30.17,34.0,,6:53 AM,10.0,SE,3.5,140,Tulsa,Oklahoma,74104
7,Clear,2016-03-02 13:53:00,32.0,,-,67,N/A,30.14,42.1,,7:53 AM,10.0,SSE,5.8,160,Tulsa,Oklahoma,74104
8,Clear,2016-03-02 14:53:00,34.0,,-,65,N/A,30.17,45.0,,8:53 AM,10.0,Calm,Calm,0,Tulsa,Oklahoma,74104
9,Clear,2016-03-02 15:53:00,35.1,,-,59,N/A,30.15,48.9,,9:53 AM,10.0,Calm,Calm,0,Tulsa,Oklahoma,74104
10,Scattered Clouds,2016-03-02 16:53:00,28.9,,-,33,N/A,30.11,57.9,,10:53 AM,10.0,South,11.5,180,Tulsa,Oklahoma,74104
11,Clear,2016-03-02 17:53:00,27.0,,24.2,26,N/A,30.04,63.0,,11:53 AM,10.0,South,18.4,180,Tulsa,Oklahoma,74104
12,Clear,2016-03-02 18:53:00,25.0,,27.6,23,N/A,30.00,64.0,,12:53 PM,10.0,SSW,20.7,200,Tulsa,Oklahoma,74104
13,Clear,2016-03-02 19:53:00,27.0,,26.5,22,N/A,29.92,66.9,,1:53 PM,10.0,South,18.4,170,Tulsa,Oklahoma,74104
14,Clear,2016-03-02 20:53:00,26.1,,28.8,22,N/A,29.88,66.0,,2:53 PM,10.0,South,18.4,170,Tulsa,Oklahoma,74104
15,Clear,2016-03-02 21:53:00,26.1,,27.6,22,N/A,29.83,66.0,,3:53 PM,10.0,South,19.6,170,Tulsa,Oklahoma,74104
16,Clear,2016-03-02 22:53:00,27.0,,-,24,N/A,29.84,64.9,,4:53 PM,10.0,South,13.8,170,Tulsa,Oklahoma,74104
17,Clear,2016-03-02 23:53:00,26.1,,-,24,N/A,29.85,64.0,,5:53 PM,10.0,South,10.4,180,Tulsa,Oklahoma,74104
18,Clear,2016-03-03 00:53:00,28.0,,-,29,N/A,29.86,61.0,,6:53 PM,10.0,South,5.8,170,Tulsa,Oklahoma,74104
19,Clear,2016-03-03 01:53:00,28.9,,-,33,N/A,29.87,57.9,,7:53 PM,10.0,Variable,3.5,0,Tulsa,Oklahoma,74104
20,Clear,2016-03-03 02:53:00,30.9,,-,37,N/A,29.87,57.0,,8:53 PM,10.0,South,5.8,170,Tulsa,Oklahoma,74104
21,Partly Cloudy,2016-03-03 03:53:00,32.0,,-,40,N/A,29.87,55.9,,9:53 PM,10.0,SSE,4.6,160,Tulsa,Oklahoma,74104
22,Clear,2016-03-03 04:53:00,32.0,,-,40,N/A,29.82,55.9,,10:53 PM,10.0,SSE,9.2,150,Tulsa,Oklahoma,74104
23,Clear,2016-03-03 05:53:00,34.0,,-,52,N/A,29.82,51.1,,11:53 PM,10.0,Calm,Calm,0,Tulsa,Oklahoma,74104
0,Clear,2016-03-03 06:53:00,32.0,,-,45,N/A,29.82,53.1,,12:53 AM,10.0,South,4.6,170,Tulsa,Oklahoma,74104
1,Clear,2016-03-03 07:53:00,34.0,,-,52,N/A,29.80,51.1,,1:53 AM,10.0,South,5.8,190,Tulsa,Oklahoma,74104
2,Clear,2016-03-03 08:53:00,35.1,,-,61,N/A,29.79,48.0,,2:53 AM,10.0,Calm,Calm,0,Tulsa,Oklahoma,74104
3,Clear,2016-03-03 09:53:00,36.0,,-,79,N/A,29.80,42.1,,3:53 AM,10.0,Calm,Calm,0,Tulsa,Oklahoma,74104
4,Clear,2016-03-03 10:53:00,36.0,,-,79,N/A,29.82,42.1,,4:53 AM,10.0,Calm,Calm,0,Tulsa,Oklahoma,74104
5,Clear,2016-03-03 11:53:00,36.0,,-,86,N/A,29.84,39.9,,5:53 AM,10.0,Calm,Calm,0,Tulsa,Oklahoma,74104
6,Clear,2016-03-03 12:53:00,39.0,,-,66,N/A,29.89,50.0,,6:53 AM,10.0,West,6.9,280,Tulsa,Oklahoma,74104
7,Clear,2016-03-03 13:53:00,37.0,,18.4,59,N/A,29.91,51.1,,7:53 AM,10.0,NW,9.2,320,Tulsa,Oklahoma,74104
8,Clear,2016-03-03 14:53:00,37.0,,18.4,53,N/A,29.99,54.0,,8:53 AM,10.0,NNW,11.5,330,Tulsa,Oklahoma,74104
9,Clear,2016-03-03 15:53:00,33.1,,31.1,40,N/A,30.02,57.0,,9:53 AM,10.0,NNW,16.1,340,Tulsa,Oklahoma,74104
10,Clear,2016-03-03 16:53:00,34.0,,29.9,41,N/A,30.05,57.9,,10:53 AM,10.0,North,15.0,350,Tulsa,Oklahoma,74104
11,Clear,2016-03-03 17:53:00,36.0,,32.2,39,N/A,30.06,61.0,,11:53 AM,10.0,North,18.4,360,Tulsa,Oklahoma,74104
12,Clear,2016-03-03 18:53:00,33.1,,24.2,33,N/A,30.05,63.0,,12:53 PM,10.0,NNW,10.4,330,Tulsa,Oklahoma,74104
13,Clear,2016-03-03 19:53:00,30.0,,26.5,28,N/A,30.06,64.0,,1:53 PM,10.0,NNW,13.8,340,Tulsa,Oklahoma,74104
14,Clear,2016-03-03 20:53:00,28.9,,19.6,26,N/A,30.06,64.9,,2:53 PM,10.0,North,11.5,350,Tulsa,Oklahoma,74104
15,Clear,2016-03-03 21:53:00,28.0,,19.6,25,N/A,30.05,64.9,,3:53 PM,10.0,North,9.2,360,Tulsa,Oklahoma,74104
16,Clear,2016-03-03 22:53:00,28.0,,-,26,N/A,30.07,64.0,,4:53 PM,10.0,NNW,9.2,330,Tulsa,Oklahoma,74104
17,Clear,2016-03-03 23:53:00,28.0,,-,28,N/A,30.08,62.1,,5:53 PM,10.0,NNW,5.8,330,Tulsa,Oklahoma,74104
18,Clear,2016-03-04 00:53:00,30.0,,-,35,N/A,30.10,57.9,,6:53 PM,10.0,NW,3.5,310,Tulsa,Oklahoma,74104
19,Clear,2016-03-04 01:53:00,32.0,,-,45,N/A,30.12,53.1,,7:53 PM,10.0,NW,3.5,320,Tulsa,Oklahoma,74104
20,Clear,2016-03-04 02:53:00,34.0,,-,56,N/A,30.14,48.9,,8:53 PM,10.0,NW,3.5,310,Tulsa,Oklahoma,74104
21,Clear,2016-03-04 03:53:00,35.1,,-,68,N/A,30.14,45.0,,9:53 PM,10.0,Calm,Calm,0,Tulsa,Oklahoma,74104
22,Clear,2016-03-04 04:53:00,34.0,,-,71,N/A,30.15,43.0,,10:53 PM,10.0,Calm,Calm,0,Tulsa,Oklahoma,74104
23,Clear,2016-03-04 05:53:00,37.0,,-,86,N/A,30.15,41.0,,11:53 PM,10.0,Calm,Calm,0,Tulsa,Oklahoma,74104
0,Clear,2016-03-04 06:53:00,35.1,,-,86,N/A,30.17,39.0,,12:53 AM,10.0,Calm,Calm,0,Tulsa,Oklahoma,74104
1,Clear,2016-03-04 07:53:00,34.0,,-,86,N/A,30.16,37.9,,1:53 AM,10.0,Calm,Calm,0,Tulsa,Oklahoma,74104
2,Clear,2016-03-04 08:53:00,34.0,,-,89,N/A,30.16,37.0,,2:53 AM,10.0,Calm,Calm,0,Tulsa,Oklahoma,74104
3,Clear,2016-03-04 09:53:00,33.1,,-,89,N/A,30.15,36.0,,3:53 AM,10.0,Calm,Calm,0,Tulsa,Oklahoma,74104
4,Clear,2016-03-04 10:53:00,33.1,,-,89,N/A,30.15,36.0,,4:53 AM,10.0,Calm,Calm,0,Tulsa,Oklahoma,74104
5,Clear,2016-03-04 11:53:00,32.0,,-,89,N/A,30.16,35.1,,5:53 AM,10.0,Calm,Calm,0,Tulsa,Oklahoma,74104
6,Clear,2016-03-04 12:53:00,32.0,,-,92,N/A,30.18,34.0,,6:53 AM,10.0,Calm,Calm,0,Tulsa,Oklahoma,74104
7,Clear,2016-03-04 13:53:00,34.0,,-,89,N/A,30.19,37.0,,7:53 AM,10.0,Calm,Calm,0,Tulsa,Oklahoma,74104
8,Clear,2016-03-04 14:53:00,37.0,,-,71,N/A,30.20,46.0,,8:53 AM,10.0,Calm,Calm,0,Tulsa,Oklahoma,74104
9,Clear,2016-03-04 15:53:00,33.1,,-,39,N/A,30.17,57.9,,9:53 AM,10.0,South,9.2,190,Tulsa,Oklahoma,74104
10,Clear,2016-03-04 16:53:00,35.1,,-,37,N/A,30.17,62.1,,10:53 AM,10.0,South,6.9,180,Tulsa,Oklahoma,74104
11,Clear,2016-03-04 17:53:00,33.1,,-,29,N/A,30.14,66.0,,11:53 AM,10.0,South,11.5,170,Tulsa,Oklahoma,74104
12,Clear,2016-03-04 18:53:00,33.1,,17.3,26,N/A,30.09,69.1,,12:53 PM,10.0,South,10.4,170,Tulsa,Oklahoma,74104
13,Clear,2016-03-04 19:53:00,30.9,,20.7,23,N/A,30.06,71.1,,1:53 PM,10.0,South,12.7,190,Tulsa,Oklahoma,74104
14,Clear,2016-03-04 20:53:00,30.0,,-,21,N/A,30.04,72.0,,2:53 PM,10.0,South,13.8,180,Tulsa,Oklahoma,74104
15,Clear,2016-03-04 21:53:00,28.9,,-,20,N/A,30.02,72.0,,3:53 PM,10.0,South,11.5,180,Tulsa,Oklahoma,74104
16,Clear,2016-03-04 22:53:00,30.9,,-,24,N/A,30.01,70.0,,4:53 PM,10.0,South,10.4,170,Tulsa,Oklahoma,74104
17,Clear,2016-03-04 23:53:00,30.9,,-,24,N/A,30.01,69.1,,5:53 PM,10.0,South,9.2,170,Tulsa,Oklahoma,74104
18,Clear,2016-03-05 00:53:00,32.0,,-,31,N/A,30.03,63.0,,6:53 PM,10.0,South,5.8,190,Tulsa,Oklahoma,74104
19,Clear,2016-03-05 01:53:00,36.0,,-,49,N/A,30.06,55.0,,7:53 PM,10.0,Calm,Calm,0,Tulsa,Oklahoma,74104
20,Clear,2016-03-05 02:53:00,39.0,,-,61,N/A,30.07,52.0,,8:53 PM,10.0,South,3.5,190,Tulsa,Oklahoma,74104
21,Clear,2016-03-05 03:53:00,35.1,,-,57,N/A,30.08,50.0,,9:53 PM,10.0,Calm,Calm,0,Tulsa,Oklahoma,74104
22,Clear,2016-03-05 04:53:00,37.9,,-,71,N/A,30.10,46.9,,10:53 PM,10.0,Calm,Calm,0,Tulsa,Oklahoma,74104
23,Clear,2016-03-05 05:53:00,37.9,,-,76,N/A,30.13,45.0,,11:53 PM,10.0,Calm,Calm,0,Tulsa,Oklahoma,74104
0,Clear,2016-03-05 06:53:00,37.0,,-,74,N/A,30.14,45.0,,12:53 AM,10.0,Calm,Calm,0,Tulsa,Oklahoma,74104
1,Clear,2016-03-05 07:53:00,37.9,,-,82,N/A,30.15,43.0,,1:53 AM,10.0,Calm,Calm,0,Tulsa,Oklahoma,74104
2,Clear,2016-03-05 08:53:00,35.1,,-,76,N/A,30.17,42.1,,2:53 AM,10.0,Calm,Calm,0,Tulsa,Oklahoma,74104
3,Clear,2016-03-05 09:53:00,37.0,,-,86,N/A,30.17,41.0,,3:53 AM,10.0,Calm,Calm,0,Tulsa,Oklahoma,74104
4,Clear,2016-03-05 10:53:00,36.0,,-,66,N/A,30.18,46.9,,4:53 AM,10.0,North,5.8,10,Tulsa,Oklahoma,74104
5,Clear,2016-03-05 11:53:00,35.1,,-,57,N/A,30.19,50.0,,5:53 AM,10.0,North,8.1,10,Tulsa,Oklahoma,74104
6,Clear,2016-03-05 12:53:00,35.1,,-,61,N/A,30.22,48.0,,6:53 AM,10.0,North,5.8,10,Tulsa,Oklahoma,74104
7,Clear,2016-03-05 13:53:00,36.0,,-,59,N/A,30.22,50.0,,7:53 AM,10.0,North,10.4,10,Tulsa,Oklahoma,74104
8,Clear,2016-03-05 14:53:00,36.0,,-,49,N/A,30.24,55.0,,8:53 AM,10.0,NNE,9.2,30,Tulsa,Oklahoma,74104
9,Clear,2016-03-05 15:53:00,36.0,,-,38,N/A,30.27,62.1,,9:53 AM,10.0,ENE,9.2,60,Tulsa,Oklahoma,74104
10,Clear,2016-03-05 16:53:00,32.0,,-,29,N/A,30.28,64.9,,10:53 AM,10.0,NE,6.9,50,Tulsa,Oklahoma,74104
11,Clear,2016-03-05 17:53:00,28.9,,-,22,N/A,30.27,69.1,,11:53 AM,10.0,ENE,10.4,60,Tulsa,Oklahoma,74104
12,Clear,2016-03-05 18:53:00,28.9,,-,22,N/A,30.24,70.0,,12:53 PM,10.0,ENE,11.5,60,Tulsa,Oklahoma,74104
13,Clear,2016-03-05 19:53:00,27.0,,18.4,19,N/A,30.22,72.0,,1:53 PM,10.0,ENE,11.5,70,Tulsa,Oklahoma,74104
14,Clear,2016-03-05 20:53:00,26.1,,-,17,N/A,30.19,73.0,,2:53 PM,10.0,ESE,9.2,120,Tulsa,Oklahoma,74104
15,Clear,2016-03-05 21:53:00,25.0,,-,17,N/A,30.18,73.0,,3:53 PM,10.0,ESE,9.2,110,Tulsa,Oklahoma,74104
16,Clear,2016-03-05 22:53:00,26.1,,-,18,N/A,30.17,72.0,,4:53 PM,10.0,East,6.9,100,Tulsa,Oklahoma,74104
17,Clear,2016-03-05 23:53:00,26.1,,-,20,N/A,30.18,69.1,,5:53 PM,10.0,Calm,Calm,0,Tulsa,Oklahoma,74104
18,Clear,2016-03-06 00:53:00,33.1,,-,40,N/A,30.17,57.0,,6:53 PM,10.0,Calm,Calm,0,Tulsa,Oklahoma,74104
19,Clear,2016-03-06 01:53:00,34.0,,-,45,N/A,30.17,55.0,,7:53 PM,10.0,Calm,Calm,0,Tulsa,Oklahoma,74104
20,Clear,2016-03-06 02:53:00,36.0,,-,59,N/A,30.17,50.0,,8:53 PM,10.0,Calm,Calm,0,Tulsa,Oklahoma,74104
21,Clear,2016-03-06 03:53:00,35.1,,-,57,N/A,30.17,50.0,,9:53 PM,10.0,Calm,Calm,0,Tulsa,Oklahoma,74104
22,Clear,2016-03-06 04:53:00,39.9,,-,71,N/A,30.17,48.9,,10:53 PM,10.0,Calm,Calm,0,Tulsa,Oklahoma,74104
23,Clear,2016-03-06 05:53:00,37.0,,-,71,N/A,30.17,46.0,,11:53 PM,10.0,Calm,Calm,0,Tulsa,Oklahoma,74104
0,Clear,2016-03-06 06:53:00,37.9,,-,76,N/A,30.16,45.0,,12:53 AM,10.0,Calm,Calm,0,Tulsa,Oklahoma,74104
1,Clear,2016-03-06 07:53:00,36.0,,-,66,N/A,30.16,46.9,,1:53 AM,10.0,Calm,Calm,0,Tulsa,Oklahoma,74104
2,Clear,2016-03-06 08:53:00,37.9,,-,76,N/A,30.14,45.0,,2:53 AM,10.0,Calm,Calm,0,Tulsa,Oklahoma,74104
3,Clear,2016-03-06 09:53:00,36.0,,-,68,N/A,30.12,46.0,,3:53 AM,10.0,Calm,Calm,0,Tulsa,Oklahoma,74104
4,Clear,2016-03-06 10:53:00,35.1,,-,50,N/A,30.12,53.1,,4:53 AM,10.0,SSE,5.8,160,Tulsa,Oklahoma,74104
5,Clear,2016-03-06 11:53:00,35.1,,-,54,N/A,30.11,51.1,,5:53 AM,10.0,SE,4.6,140,Tulsa,Oklahoma,74104
6,Clear,2016-03-06 12:53:00,37.9,,-,71,N/A,30.11,46.9,,6:53 AM,10.0,Calm,Calm,0,Tulsa,Oklahoma,74104
7,Clear,2016-03-06 13:53:00,39.9,,-,59,N/A,30.10,54.0,,7:53 AM,10.0,South,11.5,170,Tulsa,Oklahoma,74104
8,Clear,2016-03-06 14:53:00,42.1,,-,57,N/A,30.10,57.0,,8:53 AM,10.0,South,9.2,170,Tulsa,Oklahoma,74104
9,Clear,2016-03-06 15:53:00,45.0,,-,50,N/A,30.09,64.0,,9:53 AM,10.0,South,16.1,170,Tulsa,Oklahoma,74104
10,Clear,2016-03-06 16:53:00,46.0,,31.1,42,N/A,30.05,70.0,,10:53 AM,10.0,South,19.6,190,Tulsa,Oklahoma,74104
11,Clear,2016-03-06 17:53:00,45.0,,42.6,37,N/A,30.01,73.0,,11:53 AM,10.0,South,26.5,190,Tulsa,Oklahoma,74104
12,Clear,2016-03-06 18:53:00,43.0,,35.7,33,N/A,29.96,73.9,,12:53 PM,10.0,South,27.6,180,Tulsa,Oklahoma,74104
13,Mostly Cloudy,2016-03-06 19:53:00,41.0,,34.5,31,N/A,29.91,73.0,,1:53 PM,10.0,South,20.7,180,Tulsa,Oklahoma,74104
14,Overcast,2016-03-06 20:53:00,39.0,,26.5,28,N/A,29.88,73.9,,2:53 PM,10.0,South,18.4,190,Tulsa,Oklahoma,74104
15,Overcast,2016-03-06 21:53:00,37.0,,38.0,27,N/A,29.85,73.0,,3:53 PM,10.0,South,25.3,190,Tulsa,Oklahoma,74104
16,Scattered Clouds,2016-03-06 22:53:00,39.0,,33.4,28,N/A,29.83,73.9,,4:53 PM,10.0,South,23.0,180,Tulsa,Oklahoma,74104
17,Overcast,2016-03-06 23:53:00,37.0,,34.5,28,N/A,29.83,72.0,,5:53 PM,10.0,South,19.6,190,Tulsa,Oklahoma,74104
18,Overcast,2016-03-07 00:53:00,39.9,,31.1,33,N/A,29.83,70.0,,6:53 PM,10.0,South,16.1,180,Tulsa,Oklahoma,74104
19,Mostly Cloudy,2016-03-07 01:53:00,43.0,,26.5,39,N/A,29.83,69.1,,7:53 PM,10.0,South,17.3,180,Tulsa,Oklahoma,74104
20,Unknown,2016-03-07 02:53:00,48.9,,23.0,50,N/A,29.82,68.0,,8:53 PM,10.0,South,15.0,180,Tulsa,Oklahoma,74104
21,Overcast,2016-03-07 03:53:00,48.0,,24.2,49,N/A,29.83,68.0,,9:53 PM,10.0,South,12.7,180,Tulsa,Oklahoma,74104
22,Scattered Clouds,2016-03-07 04:53:00,50.0,,23.0,54,N/A,29.82,66.9,,10:53 PM,10.0,South,15.0,180,Tulsa,Oklahoma,74104
23,Scattered Clouds,2016-03-07 05:53:00,50.0,,24.2,54,N/A,29.80,66.9,,11:53 PM,10.0,South,17.3,180,Tulsa,Oklahoma,74104
0,Mostly Cloudy,2016-03-07 06:53:00,48.9,,25.3,52,N/A,29.81,66.9,,12:53 AM,10.0,South,15.0,180,Tulsa,Oklahoma,74104
1,Mostly Cloudy,2016-03-07 07:53:00,50.0,,23.0,56,N/A,29.81,66.0,,1:53 AM,10.0,South,16.1,190,Tulsa,Oklahoma,74104
2,Clear,2016-03-07 08:53:00,51.1,,28.8,61,N/A,29.79,64.9,,2:53 AM,10.0,South,16.1,180,Tulsa,Oklahoma,74104
3,Scattered Clouds,2016-03-07 09:53:00,52.0,,-,65,N/A,29.78,64.0,,3:53 AM,10.0,South,12.7,170,Tulsa,Oklahoma,74104
4,Overcast,2016-03-07 10:53:00,53.1,,24.2,67,N/A,29.78,64.0,,4:53 AM,10.0,South,17.3,180,Tulsa,Oklahoma,74104
5,Overcast,2016-03-07 11:53:00,54.0,,26.5,70,N/A,29.79,64.0,,5:53 AM,10.0,South,12.7,180,Tulsa,Oklahoma,74104
6,Overcast,2016-03-07 12:53:00,54.0,,23.0,72,N/A,29.81,63.0,,6:53 AM,10.0,South,16.1,180,Tulsa,Oklahoma,74104
7,Overcast,2016-03-07 13:53:00,54.0,,26.5,72,N/A,29.81,63.0,,7:53 AM,10.0,South,13.8,180,Tulsa,Oklahoma,74104
8,Overcast,2016-03-07 14:53:00,55.0,,-,73,N/A,29.83,64.0,,8:53 AM,10.0,South,15.0,180,Tulsa,Oklahoma,74104
9,Overcast,2016-03-07 15:53:00,55.0,,27.6,73,N/A,29.83,64.0,,9:53 AM,10.0,South,18.4,180,Tulsa,Oklahoma,74104
10,Overcast,2016-03-07 16:53:00,55.9,,24.2,75,N/A,29.83,64.0,,10:53 AM,10.0,South,17.3,170,Tulsa,Oklahoma,74104
11,Overcast,2016-03-07 17:53:00,55.9,,25.3,70,N/A,29.81,66.0,,11:53 AM,10.0,South,18.4,180,Tulsa,Oklahoma,74104
12,Overcast,2016-03-07 18:53:00,57.0,,25.3,68,N/A,29.79,68.0,,12:53 PM,10.0,South,12.7,180,Tulsa,Oklahoma,74104
13,Overcast,2016-03-07 19:53:00,57.0,,29.9,68,N/A,29.76,68.0,,1:53 PM,10.0,South,18.4,190,Tulsa,Oklahoma,74104
14,Overcast,2016-03-07 20:53:00,57.9,,-,68,N/A,29.75,69.1,,2:53 PM,10.0,South,12.7,170,Tulsa,Oklahoma,74104
15,Light Rain,2016-03-07 21:53:00,59.0,Rain,28.8,73,0.00,29.78,68.0,,3:53 PM,10.0,South,19.6,190,Tulsa,Oklahoma,74104
16,Light Rain,2016-03-07 22:33:00,57.9,Rain,26.5,73,0.00,29.73,66.9,,4:33 PM,10.0,South,17.3,170,Tulsa,Oklahoma,74104
17,Light Rain,2016-03-07 22:53:00,57.9,Rain,24.2,73,0.00,29.75,66.9,,4:53 PM,10.0,South,15.0,190,Tulsa,Oklahoma,74104
18,Scattered Clouds,2016-03-07 23:33:00,57.9,,20.7,73,0.00,29.71,66.9,,5:33 PM,10.0,South,11.5,180,Tulsa,Oklahoma,74104
19,Partly Cloudy,2016-03-07 23:53:00,57.9,,21.9,75,0.00,29.75,66.0,,5:53 PM,10.0,South,15.0,170,Tulsa,Oklahoma,74104
20,Mostly Cloudy,2016-03-08 00:48:00,59.0,,-,83,N/A,29.76,64.4,,6:48 PM,10.0,South,10.4,170,Tulsa,Oklahoma,74104
21,Overcast,2016-03-08 00:53:00,59.0,,-,81,N/A,29.78,64.9,,6:53 PM,10.0,SSE,12.7,160,Tulsa,Oklahoma,74104
22,Overcast,2016-03-08 01:03:00,57.9,,-,78,N/A,29.76,64.9,,7:03 PM,10.0,South,12.7,170,Tulsa,Oklahoma,74104
23,Light Rain,2016-03-08 01:53:00,57.9,Rain,-,75,0.00,29.79,66.0,,7:53 PM,10.0,SSW,9.2,200,Tulsa,Oklahoma,74104
24,Scattered Clouds,2016-03-08 02:31:00,59.0,,19.6,84,0.00,29.74,64.0,,8:31 PM,10.0,South,12.7,170,Tulsa,Oklahoma,74104
25,Light Rain,2016-03-08 02:53:00,59.0,Rain,25.3,84,0.02,29.77,64.0,,8:53 PM,8.0,South,18.4,170,Tulsa,Oklahoma,74104
26,Light Rain,2016-03-08 03:44:00,59.0,Rain,33.4,84,0.00,29.73,64.0,,9:44 PM,10.0,SSE,17.3,150,Tulsa,Oklahoma,74104
27,Light Rain,2016-03-08 03:53:00,57.9,Rain,35.7,80,0.00,29.77,64.0,,9:53 PM,10.0,South,21.9,190,Tulsa,Oklahoma,74104
28,Light Rain,2016-03-08 04:03:00,57.0,Rain,43.7,81,0.00,29.77,63.0,,10:03 PM,10.0,South,28.8,180,Tulsa,Oklahoma,74104
29,Rain,2016-03-08 04:53:00,55.0,Rain,28.8,87,0.18,29.86,59.0,,10:53 PM,4.0,SSW,16.1,200,Tulsa,Oklahoma,74104
30,Rain,2016-03-08 05:20:00,55.9,Rain-Thunderstorm,-,90,0.12,29.83,59.0,,11:20 PM,6.0,South,12.7,170,Tulsa,Oklahoma,74104
31,Rain,2016-03-08 05:35:00,55.0,Rain,28.8,87,0.17,29.84,59.0,,11:35 PM,5.0,South,19.6,170,Tulsa,Oklahoma,74104
32,Heavy Rain,2016-03-08 05:53:00,55.0,Rain-Thunderstorm,-,87,0.28,29.88,59.0,,11:53 PM,4.0,SSW,12.7,200,Tulsa,Oklahoma,74104
0,Rain,2016-03-08 06:02:00,55.0,Rain,-,87,0.05,29.84,59.0,,12:02 AM,4.0,South,10.4,190,Tulsa,Oklahoma,74104
1,Light Rain,2016-03-08 06:53:00,54.0,Rain,34.5,83,0.16,29.71,59.0,,12:53 AM,10.0,SE,19.6,130,Tulsa,Oklahoma,74104
2,Clear,2016-03-08 07:53:00,53.1,,-,78,0.00,29.79,60.1,,1:53 AM,10.0,South,6.9,170,Tulsa,Oklahoma,74104
3,Mostly Cloudy,2016-03-08 08:53:00,54.0,,-,80,N/A,29.81,60.1,,2:53 AM,10.0,South,9.2,190,Tulsa,Oklahoma,74104
4,Overcast,2016-03-08 09:25:00,55.9,,-,86,N/A,29.79,60.1,,3:25 AM,10.0,South,10.4,170,Tulsa,Oklahoma,74104
5,Overcast,2016-03-08 09:53:00,55.9,,-,86,N/A,29.80,60.1,,3:53 AM,10.0,South,13.8,170,Tulsa,Oklahoma,74104
6,Overcast,2016-03-08 10:45:00,55.9,,-,90,N/A,29.79,59.0,,4:45 AM,10.0,South,10.4,170,Tulsa,Oklahoma,74104
7,Overcast,2016-03-08 10:53:00,55.9,,-,90,N/A,29.81,59.0,,4:53 AM,10.0,SSE,10.4,160,Tulsa,Oklahoma,74104
8,Overcast,2016-03-08 11:40:00,55.9,,-,90,N/A,29.80,59.0,,5:40 AM,10.0,SSE,6.9,150,Tulsa,Oklahoma,74104
9,Overcast,2016-03-08 11:53:00,55.9,,-,90,N/A,29.82,59.0,,5:53 AM,10.0,SSE,9.2,160,Tulsa,Oklahoma,74104
10,Overcast,2016-03-08 12:06:00,55.9,,-,90,N/A,29.81,59.0,,6:06 AM,10.0,SSE,8.1,160,Tulsa,Oklahoma,74104
11,Overcast,2016-03-08 12:53:00,55.9,,-,90,N/A,29.82,59.0,,6:53 AM,10.0,SSE,5.8,160,Tulsa,Oklahoma,74104
12,Overcast,2016-03-08 13:05:00,55.9,,-,90,N/A,29.81,59.0,,7:05 AM,10.0,SSE,5.8,160,Tulsa,Oklahoma,74104
13,Overcast,2016-03-08 13:53:00,55.9,,-,90,N/A,29.85,59.0,,7:53 AM,10.0,SSE,4.6,160,Tulsa,Oklahoma,74104
14,Light Rain,2016-03-08 14:53:00,55.9,Rain,17.3,83,0.00,29.85,61.0,,8:53 AM,10.0,SE,10.4,140,Tulsa,Oklahoma,74104
15,Light Rain,2016-03-08 15:14:00,57.0,Rain,-,90,0.00,29.83,60.1,,9:14 AM,10.0,SSE,9.2,150,Tulsa,Oklahoma,74104
16,Heavy Rain,2016-03-08 15:24:00,57.0,Rain,17.3,90,0.12,29.82,60.1,,9:24 AM,1.8,SE,12.7,130,Tulsa,Oklahoma,74104
17,Light Rain,2016-03-08 15:33:00,57.0,Rain,-,90,0.15,29.81,60.1,,9:33 AM,3.0,SE,10.4,140,Tulsa,Oklahoma,74104
18,Light Thunderstorms and Rain,2016-03-08 15:41:00,57.0,Rain-Thunderstorm,-,90,0.17,29.81,60.1,,9:41 AM,6.0,SE,10.4,140,Tulsa,Oklahoma,74104
19,Overcast,2016-03-08 15:53:00,57.0,,19.6,87,0.17,29.83,61.0,,9:53 AM,10.0,SE,15.0,130,Tulsa,Oklahoma,74104
20,Overcast,2016-03-08 16:53:00,59.0,,19.6,90,0.00,29.82,62.1,,10:53 AM,10.0,SE,12.7,140,Tulsa,Oklahoma,74104
21,Light Rain,2016-03-08 17:53:00,59.0,Rain,-,90,0.03,29.81,62.1,,11:53 AM,8.0,South,8.1,170,Tulsa,Oklahoma,74104
22,Rain,2016-03-08 18:15:00,59.0,Rain-Thunderstorm,-,90,0.04,29.80,62.1,,12:15 PM,5.0,South,6.9,180,Tulsa,Oklahoma,74104
23,Thunderstorms and Rain,2016-03-08 18:26:00,60.1,Rain-Thunderstorm,-,93,0.09,29.80,62.1,,12:26 PM,2.5,South,8.1,190,Tulsa,Oklahoma,74104
24,Heavy Thunderstorms and Rain,2016-03-08 18:35:00,59.0,Rain-Thunderstorm,-,93,0.15,29.82,61.0,,12:35 PM,1.5,WSW,9.2,240,Tulsa,Oklahoma,74104
25,Heavy Thunderstorms and Rain,2016-03-08 18:53:00,57.0,Rain-Thunderstorm,19.6,93,0.37,29.84,59.0,,12:53 PM,0.8,Variable,4.6,0,Tulsa,Oklahoma,74104
26,Heavy Thunderstorms and Rain,2016-03-08 18:56:00,57.0,Rain-Thunderstorm,-,93,0.02,29.80,59.0,,12:56 PM,0.8,Variable,3.5,0,Tulsa,Oklahoma,74104
27,Rain,2016-03-08 19:00:00,57.0,Rain-Thunderstorm,-,93,0.04,29.80,59.0,,1:00 PM,1.0,Variable,3.5,0,Tulsa,Oklahoma,74104
28,Rain,2016-03-08 19:10:00,57.0,Rain,-,93,0.07,29.78,59.0,,1:10 PM,2.5,North,4.6,360,Tulsa,Oklahoma,74104
29,Rain,2016-03-08 19:18:00,57.0,Rain,-,93,0.10,29.78,59.0,,1:18 PM,3.0,Calm,Calm,0,Tulsa,Oklahoma,74104
30,Rain,2016-03-08 19:33:00,57.0,Rain-Thunderstorm,-,93,0.14,29.70,59.0,,1:33 PM,4.0,ENE,17.3,60,Tulsa,Oklahoma,74104
31,Light Rain,2016-03-08 19:48:00,57.2,Rain,-,94,0.14,29.70,59.0,,1:48 PM,10.0,East,10.4,80,Tulsa,Oklahoma,74104
32,Light Rain,2016-03-08 19:53:00,57.0,Rain,-,93,0.14,29.74,59.0,,1:53 PM,10.0,Variable,4.6,0,Tulsa,Oklahoma,74104
33,Mostly Cloudy,2016-03-08 20:53:00,57.0,,-,90,0.02,29.76,60.1,,2:53 PM,10.0,Variable,3.5,0,Tulsa,Oklahoma,74104
34,Mostly Cloudy,2016-03-08 21:15:00,57.0,,-,90,N/A,29.72,60.1,,3:15 PM,10.0,Calm,Calm,0,Tulsa,Oklahoma,74104
35,Mostly Cloudy,2016-03-08 21:42:00,57.0,,19.6,90,N/A,29.63,60.1,,3:42 PM,10.0,ESE,10.4,120,Tulsa,Oklahoma,74104
36,Mostly Cloudy,2016-03-08 21:53:00,57.0,,-,87,N/A,29.68,61.0,,3:53 PM,10.0,SE,8.1,130,Tulsa,Oklahoma,74104
37,Mostly Cloudy,2016-03-08 22:18:00,57.0,,-,87,N/A,29.68,61.0,,4:18 PM,10.0,West,5.8,280,Tulsa,Oklahoma,74104
38,Scattered Clouds,2016-03-08 22:39:00,57.0,,-,84,N/A,29.68,62.1,,4:39 PM,10.0,WNW,4.6,300,Tulsa,Oklahoma,74104
39,Clear,2016-03-08 22:53:00,57.0,,-,84,N/A,29.71,62.1,,4:53 PM,10.0,Variable,4.6,0,Tulsa,Oklahoma,74104
40,Mostly Cloudy,2016-03-08 23:36:00,57.0,,-,81,N/A,29.72,63.0,,5:36 PM,10.0,SSW,5.8,200,Tulsa,Oklahoma,74104
41,Overcast,2016-03-08 23:53:00,57.0,,-,84,N/A,29.76,62.1,,5:53 PM,10.0,SW,4.6,220,Tulsa,Oklahoma,74104
42,Mostly Cloudy,2016-03-09 00:53:00,55.9,,-,90,N/A,29.77,59.0,,6:53 PM,10.0,Calm,Calm,0,Tulsa,Oklahoma,74104
43,Scattered Clouds,2016-03-09 01:34:00,55.9,,-,90,N/A,29.76,59.0,,7:34 PM,10.0,Calm,Calm,0,Tulsa,Oklahoma,74104
44,Clear,2016-03-09 01:53:00,55.0,,-,97,N/A,29.80,55.9,,7:53 PM,10.0,Calm,Calm,0,Tulsa,Oklahoma,74104
45,Overcast,2016-03-09 02:53:00,55.0,,-,97,N/A,29.81,55.9,,8:53 PM,8.0,Calm,Calm,0,Tulsa,Oklahoma,74104
46,Clear,2016-03-09 03:53:00,54.0,,-,96,N/A,29.82,55.0,,9:53 PM,7.0,Calm,Calm,0,Tulsa,Oklahoma,74104
47,Clear,2016-03-09 04:25:00,53.1,,-,97,N/A,29.81,54.0,,10:25 PM,1.5,Calm,Calm,0,Tulsa,Oklahoma,74104
48,Mist,2016-03-09 04:29:00,52.0,,-,96,N/A,29.82,53.1,,10:29 PM,0.8,Calm,Calm,0,Tulsa,Oklahoma,74104
49,Fog,2016-03-09 04:48:00,51.8,Fog,-,100,N/A,29.81,51.8,,10:48 PM,0.5,Calm,Calm,0,Tulsa,Oklahoma,74104
50,Fog,2016-03-09 04:53:00,53.1,Fog,-,100,N/A,29.84,53.1,,10:53 PM,0.5,Calm,Calm,0,Tulsa,Oklahoma,74104
51,Mist,2016-03-09 04:57:00,53.1,,-,97,N/A,29.82,54.0,,10:57 PM,1.0,SSE,3.5,150,Tulsa,Oklahoma,74104
52,Clear,2016-03-09 05:00:00,53.1,,-,97,N/A,29.81,54.0,,11:00 PM,2.5,Calm,Calm,0,Tulsa,Oklahoma,74104
53,Mist,2016-03-09 05:10:00,52.0,,-,96,N/A,29.82,53.1,,11:10 PM,1.0,SSW,3.5,210,Tulsa,Oklahoma,74104
54,Fog,2016-03-09 05:15:00,51.1,Fog,-,97,N/A,29.83,52.0,,11:15 PM,0.5,SSW,4.6,210,Tulsa,Oklahoma,74104
55,Mist,2016-03-09 05:29:00,52.0,,-,96,N/A,29.84,53.1,,11:29 PM,1.0,Calm,Calm,0,Tulsa,Oklahoma,74104
56,Partly Cloudy,2016-03-09 05:36:00,52.0,,-,96,N/A,29.84,53.1,,11:36 PM,1.5,Calm,Calm,0,Tulsa,Oklahoma,74104
57,Mist,2016-03-09 05:40:00,51.1,,-,97,N/A,29.84,52.0,,11:40 PM,0.8,Calm,Calm,0,Tulsa,Oklahoma,74104
58,Clear,2016-03-09 05:47:00,51.8,,-,94,N/A,29.83,53.6,,11:47 PM,1.0,Calm,Calm,0,Tulsa,Oklahoma,74104
59,Clear,2016-03-09 05:53:00,52.0,,-,96,N/A,29.87,53.1,,11:53 PM,2.0,Calm,Calm,0,Tulsa,Oklahoma,74104
0,Clear,2016-03-09 06:02:00,52.0,,-,96,N/A,29.84,53.1,,12:02 AM,4.0,Calm,Calm,0,Tulsa,Oklahoma,74104
1,Clear,2016-03-09 06:05:00,52.0,,-,96,N/A,29.85,53.1,,12:05 AM,1.8,Calm,Calm,0,Tulsa,Oklahoma,74104
2,Clear,2016-03-09 06:34:00,52.0,,-,96,N/A,29.83,53.1,,12:34 AM,3.0,Calm,Calm,0,Tulsa,Oklahoma,74104
3,Clear,2016-03-09 06:53:00,51.1,,-,100,N/A,29.83,51.1,,12:53 AM,1.5,Calm,Calm,0,Tulsa,Oklahoma,74104
4,Clear,2016-03-09 07:08:00,51.1,,-,97,N/A,29.82,52.0,,1:08 AM,3.0,East,3.5,80,Tulsa,Oklahoma,74104
5,Clear,2016-03-09 07:10:00,50.0,,-,96,N/A,29.82,51.1,,1:10 AM,1.8,East,4.6,90,Tulsa,Oklahoma,74104
6,Mist,2016-03-09 07:14:00,48.9,,-,96,N/A,29.81,50.0,,1:14 AM,0.8,ENE,4.6,70,Tulsa,Oklahoma,74104
7,Clear,2016-03-09 07:25:00,50.0,,-,96,N/A,29.80,51.1,,1:25 AM,1.0,Calm,Calm,0,Tulsa,Oklahoma,74104
8,Fog,2016-03-09 07:51:00,48.2,Fog,-,100,N/A,29.79,48.2,,1:51 AM,0.5,NE,5.8,40,Tulsa,Oklahoma,74104
9,Fog,2016-03-09 07:53:00,48.0,Fog,-,97,N/A,29.80,48.9,,1:53 AM,0.5,NNE,5.8,30,Tulsa,Oklahoma,74104
10,Mostly Cloudy,2016-03-09 08:04:00,51.1,,-,97,N/A,29.79,52.0,,2:04 AM,1.0,North,3.5,350,Tulsa,Oklahoma,74104
11,Mostly Cloudy,2016-03-09 08:09:00,52.0,,-,100,N/A,29.78,52.0,,2:09 AM,3.0,North,4.6,10,Tulsa,Oklahoma,74104
12,Overcast,2016-03-09 08:13:00,53.1,,-,100,N/A,29.78,53.1,,2:13 AM,2.5,Variable,5.8,0,Tulsa,Oklahoma,74104
13,Overcast,2016-03-09 08:21:00,54.0,,-,100,N/A,29.82,54.0,,2:21 AM,1.2,Calm,Calm,0,Tulsa,Oklahoma,74104
14,Overcast,2016-03-09 08:27:00,53.1,,-,97,N/A,29.83,54.0,,2:27 AM,3.0,ESE,3.5,110,Tulsa,Oklahoma,74104
15,Overcast,2016-03-09 08:53:00,54.0,,-,96,N/A,29.85,55.0,,2:53 AM,4.0,Calm,Calm,0,Tulsa,Oklahoma,74104
16,Overcast,2016-03-09 09:08:00,54.0,,-,96,N/A,29.81,55.0,,3:08 AM,2.5,Calm,Calm,0,Tulsa,Oklahoma,74104
17,Overcast,2016-03-09 09:22:00,54.0,,-,96,N/A,29.82,55.0,,3:22 AM,4.0,Calm,Calm,0,Tulsa,Oklahoma,74104
18,Overcast,2016-03-09 09:53:00,54.0,,-,96,N/A,29.86,55.0,,3:53 AM,4.0,Calm,Calm,0,Tulsa,Oklahoma,74104
19,Overcast,2016-03-09 10:53:00,54.0,,-,96,N/A,29.90,55.0,,4:53 AM,6.0,SE,3.5,130,Tulsa,Oklahoma,74104
20,Overcast,2016-03-09 11:13:00,54.0,,-,96,N/A,29.87,55.0,,5:13 AM,7.0,Calm,Calm,0,Tulsa,Oklahoma,74104
21,Overcast,2016-03-09 11:21:00,54.0,,-,96,N/A,29.88,55.0,,5:21 AM,7.0,East,3.5,90,Tulsa,Oklahoma,74104
22,Overcast,2016-03-09 11:53:00,54.0,,-,96,N/A,29.87,55.0,,5:53 AM,9.0,Calm,Calm,0,Tulsa,Oklahoma,74104
23,Partly Cloudy,2016-03-09 12:31:00,53.1,,-,97,N/A,29.86,54.0,,6:31 AM,4.0,Calm,Calm,0,Tulsa,Oklahoma,74104
24,Clear,2016-03-09 12:53:00,53.1,,-,97,N/A,29.90,54.0,,6:53 AM,3.0,Calm,Calm,0,Tulsa,Oklahoma,74104
25,Clear,2016-03-09 13:00:00,53.1,,-,97,N/A,29.89,54.0,,7:00 AM,2.5,SSW,3.5,210,Tulsa,Oklahoma,74104
26,Clear,2016-03-09 13:09:00,53.1,,-,97,N/A,29.90,54.0,,7:09 AM,5.0,Calm,Calm,0,Tulsa,Oklahoma,74104
27,Clear,2016-03-09 13:33:00,53.1,,-,97,N/A,29.90,54.0,,7:33 AM,2.5,NNW,3.5,340,Tulsa,Oklahoma,74104
28,Clear,2016-03-09 13:43:00,53.1,,-,97,N/A,29.90,54.0,,7:43 AM,3.0,Calm,Calm,0,Tulsa,Oklahoma,74104
29,Clear,2016-03-09 13:53:00,53.1,,-,97,N/A,29.92,54.0,,7:53 AM,2.0,Calm,Calm,0,Tulsa,Oklahoma,74104
30,Partly Cloudy,2016-03-09 14:03:00,53.1,,-,97,N/A,29.92,54.0,,8:03 AM,3.0,Calm,Calm,0,Tulsa,Oklahoma,74104
31,Mostly Cloudy,2016-03-09 14:17:00,54.0,,-,93,N/A,29.94,55.9,,8:17 AM,4.0,Calm,Calm,0,Tulsa,Oklahoma,74104
32,Overcast,2016-03-09 14:53:00,55.0,,-,97,N/A,29.98,55.9,,8:53 AM,5.0,Calm,Calm,0,Tulsa,Oklahoma,74104
33,Overcast,2016-03-09 15:53:00,55.9,,-,93,N/A,29.96,57.9,,9:53 AM,2.5,North,3.5,10,Tulsa,Oklahoma,74104
34,Overcast,2016-03-09 16:10:00,55.9,,-,96,N/A,29.94,57.0,,10:10 AM,1.8,NE,3.5,50,Tulsa,Oklahoma,74104
35,Overcast,2016-03-09 16:20:00,55.9,,-,93,N/A,29.95,57.9,,10:20 AM,2.0,East,4.6,80,Tulsa,Oklahoma,74104
36,Overcast,2016-03-09 16:40:00,55.9,,-,93,N/A,29.96,57.9,,10:40 AM,3.0,SE,4.6,140,Tulsa,Oklahoma,74104
37,Overcast,2016-03-09 16:53:00,55.9,,-,93,N/A,30.00,57.9,,10:53 AM,4.0,Calm,Calm,0,Tulsa,Oklahoma,74104
38,Overcast,2016-03-09 17:03:00,55.9,,-,90,N/A,29.96,59.0,,11:03 AM,5.0,ENE,4.6,70,Tulsa,Oklahoma,74104
39,Overcast,2016-03-09 17:53:00,55.9,,-,90,N/A,29.98,59.0,,11:53 AM,5.0,NE,3.5,40,Tulsa,Oklahoma,74104
40,Overcast,2016-03-09 18:31:00,55.9,,-,86,N/A,29.91,60.1,,12:31 PM,6.0,North,6.9,360,Tulsa,Oklahoma,74104
41,Overcast,2016-03-09 18:53:00,55.9,,-,83,N/A,29.91,61.0,,12:53 PM,7.0,North,9.2,10,Tulsa,Oklahoma,74104
42,Mostly Cloudy,2016-03-09 19:39:00,57.0,,-,78,N/A,29.87,64.0,,1:39 PM,10.0,North,6.9,10,Tulsa,Oklahoma,74104
43,Mostly Cloudy,2016-03-09 19:53:00,55.9,,-,80,N/A,29.90,62.1,,1:53 PM,10.0,North,10.4,10,Tulsa,Oklahoma,74104
44,Scattered Clouds,2016-03-09 20:06:00,55.9,,-,78,N/A,29.89,63.0,,2:06 PM,10.0,Variable,5.8,0,Tulsa,Oklahoma,74104
45,Mostly Cloudy,2016-03-09 20:53:00,55.9,,-,78,N/A,29.94,63.0,,2:53 PM,10.0,NNE,6.9,30,Tulsa,Oklahoma,74104
46,Scattered Clouds,2016-03-09 21:53:00,55.0,,-,75,N/A,29.94,63.0,,3:53 PM,10.0,NNE,4.6,30,Tulsa,Oklahoma,74104
47,Mostly Cloudy,2016-03-09 22:37:00,55.0,,-,75,N/A,29.93,63.0,,4:37 PM,10.0,Calm,Calm,0,Tulsa,Oklahoma,74104
48,Overcast,2016-03-09 22:53:00,55.0,,-,75,N/A,29.95,63.0,,4:53 PM,10.0,Calm,Calm,0,Tulsa,Oklahoma,74104
49,Overcast,2016-03-09 23:30:00,55.0,,-,78,N/A,29.90,62.1,,5:30 PM,10.0,North,5.8,360,Tulsa,Oklahoma,74104
50,Overcast,2016-03-09 23:53:00,55.0,,-,81,N/A,29.93,61.0,,5:53 PM,10.0,North,3.5,10,Tulsa,Oklahoma,74104
51,Overcast,2016-03-10 00:53:00,55.0,,-,81,N/A,29.94,61.0,,6:53 PM,10.0,NNE,3.5,20,Tulsa,Oklahoma,74104
52,Overcast,2016-03-10 01:53:00,55.9,,-,83,N/A,29.97,61.0,,7:53 PM,10.0,North,3.5,360,Tulsa,Oklahoma,74104
53,Overcast,2016-03-10 02:53:00,55.9,,-,86,N/A,29.96,60.1,,8:53 PM,10.0,North,8.1,360,Tulsa,Oklahoma,74104
54,Overcast,2016-03-10 03:53:00,55.0,,-,83,N/A,29.98,60.1,,9:53 PM,10.0,NNE,8.1,20,Tulsa,Oklahoma,74104
55,Overcast,2016-03-10 04:08:00,55.0,,-,83,N/A,29.95,60.1,,10:08 PM,10.0,North,5.8,10,Tulsa,Oklahoma,74104
56,Overcast,2016-03-10 04:53:00,55.0,,-,87,N/A,29.99,59.0,,10:53 PM,10.0,NNE,5.8,20,Tulsa,Oklahoma,74104
57,Overcast,2016-03-10 05:53:00,55.0,,-,87,N/A,29.99,59.0,,11:53 PM,10.0,NE,5.8,40,Tulsa,Oklahoma,74104
0,Overcast,2016-03-10 06:53:00,55.0,,-,87,N/A,30.01,59.0,,12:53 AM,10.0,Calm,Calm,0,Tulsa,Oklahoma,74104
1,Overcast,2016-03-10 07:29:00,55.0,,-,90,N/A,29.96,57.9,,1:29 AM,9.0,North,3.5,350,Tulsa,Oklahoma,74104
2,Overcast,2016-03-10 07:53:00,55.0,,-,90,N/A,29.99,57.9,,1:53 AM,9.0,North,4.6,360,Tulsa,Oklahoma,74104
3,Overcast,2016-03-10 08:53:00,54.0,,-,89,N/A,29.97,57.0,,2:53 AM,9.0,North,5.8,10,Tulsa,Oklahoma,74104
4,Overcast,2016-03-10 09:05:00,54.0,,-,89,N/A,29.95,57.0,,3:05 AM,9.0,North,9.2,360,Tulsa,Oklahoma,74104
5,Overcast,2016-03-10 09:53:00,54.0,,-,89,N/A,29.99,57.0,,3:53 AM,9.0,North,6.9,10,Tulsa,Oklahoma,74104
6,Overcast,2016-03-10 10:33:00,54.0,,-,89,N/A,29.96,57.0,,4:33 AM,10.0,North,6.9,360,Tulsa,Oklahoma,74104
7,Overcast,2016-03-10 10:53:00,54.0,,-,89,N/A,29.99,57.0,,4:53 AM,10.0,North,8.1,10,Tulsa,Oklahoma,74104
8,Overcast,2016-03-10 11:13:00,53.1,,-,87,N/A,29.97,57.0,,5:13 AM,10.0,North,6.9,350,Tulsa,Oklahoma,74104
9,Overcast,2016-03-10 11:53:00,53.1,,-,87,N/A,30.01,57.0,,5:53 AM,10.0,North,9.2,350,Tulsa,Oklahoma,74104
10,Overcast,2016-03-10 12:53:00,52.0,,-,83,N/A,30.04,57.0,,6:53 AM,10.0,North,8.1,10,Tulsa,Oklahoma,74104
11,Overcast,2016-03-10 13:53:00,53.1,,-,87,N/A,30.06,57.0,,7:53 AM,10.0,North,4.6,360,Tulsa,Oklahoma,74104
12,Overcast,2016-03-10 14:24:00,52.0,,-,83,N/A,30.06,57.0,,8:24 AM,10.0,North,6.9,350,Tulsa,Oklahoma,74104
13,Overcast,2016-03-10 14:53:00,51.1,,-,84,N/A,30.08,55.9,,8:53 AM,10.0,North,11.5,10,Tulsa,Oklahoma,74104
14,Scattered Clouds,2016-03-10 15:53:00,50.0,,-,75,N/A,30.10,57.9,,9:53 AM,10.0,North,8.1,10,Tulsa,Oklahoma,74104
15,Overcast,2016-03-10 16:53:00,51.1,,18.4,70,N/A,30.11,61.0,,10:53 AM,10.0,North,12.7,10,Tulsa,Oklahoma,74104
16,Clear,2016-03-10 17:53:00,51.1,,-,61,N/A,30.09,64.9,,11:53 AM,10.0,NNE,17.3,30,Tulsa,Oklahoma,74104
17,Mostly Cloudy,2016-03-10 18:53:00,50.0,,25.3,58,N/A,30.08,64.9,,12:53 PM,10.0,NE,18.4,40,Tulsa,Oklahoma,74104
18,Partly Cloudy,2016-03-10 19:53:00,50.0,,-,56,N/A,30.07,66.0,,1:53 PM,10.0,NNE,15.0,20,Tulsa,Oklahoma,74104
19,Clear,2016-03-10 20:53:00,48.0,,-,54,N/A,30.05,64.9,,2:53 PM,10.0,NE,18.4,40,Tulsa,Oklahoma,74104
20,Clear,2016-03-10 21:53:00,45.0,,-,48,N/A,30.06,64.9,,3:53 PM,10.0,NNE,17.3,30,Tulsa,Oklahoma,74104
21,Clear,2016-03-10 22:53:00,46.0,,-,52,N/A,30.07,64.0,,4:53 PM,10.0,NE,15.0,50,Tulsa,Oklahoma,74104
22,Clear,2016-03-10 23:53:00,41.0,,-,45,N/A,30.10,63.0,,5:53 PM,10.0,NNE,12.7,30,Tulsa,Oklahoma,74104
23,Clear,2016-03-11 00:53:00,39.9,,-,51,N/A,30.15,57.9,,6:53 PM,10.0,NE,5.8,40,Tulsa,Oklahoma,74104
24,Clear,2016-03-11 01:53:00,39.0,,-,49,N/A,30.15,57.9,,7:53 PM,10.0,NNE,9.2,20,Tulsa,Oklahoma,74104
25,Clear,2016-03-11 02:53:00,37.9,,-,51,N/A,30.18,55.9,,8:53 PM,10.0,NNE,8.1,30,Tulsa,Oklahoma,74104
26,Scattered Clouds,2016-03-11 03:53:00,39.0,,-,57,N/A,30.20,54.0,,9:53 PM,10.0,NNE,5.8,20,Tulsa,Oklahoma,74104
27,Overcast,2016-03-11 04:53:00,39.9,,-,57,N/A,30.21,55.0,,10:53 PM,10.0,North,4.6,10,Tulsa,Oklahoma,74104
28,Overcast,2016-03-11 05:53:00,41.0,,-,57,N/A,30.21,55.9,,11:53 PM,10.0,NE,6.9,40,Tulsa,Oklahoma,74104
0,Overcast,2016-03-11 06:53:00,42.1,,-,62,N/A,30.21,55.0,,12:53 AM,10.0,NNE,5.8,20,Tulsa,Oklahoma,74104
1,Overcast,2016-03-11 07:53:00,42.1,,-,64,N/A,30.20,54.0,,1:53 AM,10.0,NNE,6.9,20,Tulsa,Oklahoma,74104
2,Scattered Clouds,2016-03-11 08:53:00,42.1,,-,64,N/A,30.18,54.0,,2:53 AM,10.0,North,6.9,10,Tulsa,Oklahoma,74104
3,Clear,2016-03-11 09:53:00,42.1,,-,69,N/A,30.17,52.0,,3:53 AM,10.0,North,6.9,10,Tulsa,Oklahoma,74104
4,Clear,2016-03-11 10:53:00,41.0,,-,71,N/A,30.19,50.0,,4:53 AM,10.0,North,3.5,10,Tulsa,Oklahoma,74104
5,Clear,2016-03-11 11:53:00,42.1,,-,77,N/A,30.20,48.9,,5:53 AM,10.0,NNE,6.9,20,Tulsa,Oklahoma,74104
6,Clear,2016-03-11 12:53:00,42.1,,-,77,N/A,30.21,48.9,,6:53 AM,10.0,NNE,6.9,20,Tulsa,Oklahoma,74104
7,Clear,2016-03-11 13:53:00,42.1,,-,74,N/A,30.20,50.0,,7:53 AM,10.0,NNE,9.2,30,Tulsa,Oklahoma,74104
8,Clear,2016-03-11 14:53:00,43.0,,-,66,N/A,30.20,54.0,,8:53 AM,10.0,NE,9.2,40,Tulsa,Oklahoma,74104
9,Clear,2016-03-11 15:53:00,44.1,,-,64,N/A,30.22,55.9,,9:53 AM,10.0,East,10.4,80,Tulsa,Oklahoma,74104
10,Clear,2016-03-11 16:53:00,46.0,,-,65,N/A,30.21,57.9,,10:53 AM,10.0,ENE,9.2,60,Tulsa,Oklahoma,74104
11,Clear,2016-03-11 17:53:00,46.9,,-,58,N/A,30.19,62.1,,11:53 AM,10.0,NE,12.7,50,Tulsa,Oklahoma,74104
12,Mostly Cloudy,2016-03-11 18:53:00,48.0,,-,56,N/A,30.16,64.0,,12:53 PM,10.0,ENE,12.7,70,Tulsa,Oklahoma,74104
13,Light Rain,2016-03-11 19:53:00,48.9,Rain,-,62,0.00,30.16,62.1,,1:53 PM,10.0,East,6.9,80,Tulsa,Oklahoma,74104
14,Light Rain,2016-03-11 20:24:00,52.0,Rain,-,78,0.00,30.13,59.0,,2:24 PM,9.0,East,10.4,80,Tulsa,Oklahoma,74104
15,Light Rain,2016-03-11 20:34:00,53.1,Rain,-,81,0.00,30.13,59.0,,2:34 PM,2.5,ENE,8.1,70,Tulsa,Oklahoma,74104
16,Light Rain,2016-03-11 20:43:00,54.0,Rain,-,87,0.01,30.13,57.9,,2:43 PM,2.5,ENE,6.9,60,Tulsa,Oklahoma,74104
17,Light Rain,2016-03-11 20:50:00,53.6,Rain,-,88,0.01,30.12,57.2,,2:50 PM,6.0,ENE,8.1,60,Tulsa,Oklahoma,74104
18,Light Rain,2016-03-11 20:53:00,54.0,Rain,-,87,0.01,30.15,57.9,,2:53 PM,10.0,ENE,8.1,60,Tulsa,Oklahoma,74104
19,Overcast,2016-03-11 21:33:00,52.0,,-,81,0.00,30.11,57.9,,3:33 PM,10.0,NE,9.2,50,Tulsa,Oklahoma,74104
20,Light Rain,2016-03-11 21:53:00,53.1,Rain,-,87,0.02,30.12,57.0,,3:53 PM,4.0,NE,9.2,50,Tulsa,Oklahoma,74104
21,Rain,2016-03-11 22:28:00,52.0,Rain,-,87,0.10,30.11,55.9,,4:28 PM,2.5,ENE,11.5,70,Tulsa,Oklahoma,74104
22,Rain,2016-03-11 22:37:00,52.0,Rain,-,87,0.12,30.11,55.9,,4:37 PM,3.0,ENE,9.2,60,Tulsa,Oklahoma,74104
23,Light Rain,2016-03-11 22:53:00,52.0,Rain,-,89,0.12,30.12,55.0,,4:53 PM,7.0,ENE,9.2,60,Tulsa,Oklahoma,74104
24,Light Rain,2016-03-11 23:13:00,52.0,Rain,-,89,0.01,30.10,55.0,,5:13 PM,10.0,NE,12.7,50,Tulsa,Oklahoma,74104
25,Overcast,2016-03-11 23:28:00,52.0,,-,89,0.01,30.09,55.0,,5:28 PM,10.0,NE,10.4,50,Tulsa,Oklahoma,74104
26,Overcast,2016-03-11 23:53:00,52.0,,-,89,0.01,30.11,55.0,,5:53 PM,10.0,NE,10.4,50,Tulsa,Oklahoma,74104
27,Overcast,2016-03-12 00:53:00,51.1,,-,86,N/A,30.11,55.0,,6:53 PM,10.0,ENE,6.9,70,Tulsa,Oklahoma,74104
28,Overcast,2016-03-12 01:53:00,52.0,,-,89,N/A,30.13,55.0,,7:53 PM,10.0,East,5.8,80,Tulsa,Oklahoma,74104
29,Light Rain,2016-03-12 02:09:00,52.0,Rain,-,89,0.00,30.11,55.0,,8:09 PM,5.0,East,6.9,80,Tulsa,Oklahoma,74104
30,Light Rain,2016-03-12 02:18:00,52.0,Rain,-,93,0.01,30.10,54.0,,8:18 PM,4.0,ENE,8.1,70,Tulsa,Oklahoma,74104
31,Light Rain,2016-03-12 02:28:00,52.0,Rain,-,93,0.01,30.10,54.0,,8:28 PM,5.0,ENE,5.8,60,Tulsa,Oklahoma,74104
32,Overcast,2016-03-12 02:53:00,52.0,,-,93,0.01,30.12,54.0,,8:53 PM,10.0,East,3.5,80,Tulsa,Oklahoma,74104
33,Light Rain,2016-03-12 03:53:00,52.0,Rain,-,93,0.01,30.11,54.0,,9:53 PM,10.0,ENE,5.8,70,Tulsa,Oklahoma,74104
34,Overcast,2016-03-12 04:53:00,52.0,,-,93,0.00,30.13,54.0,,10:53 PM,10.0,ESE,5.8,110,Tulsa,Oklahoma,74104
35,Overcast,2016-03-12 05:53:00,52.0,,-,89,N/A,30.11,55.0,,11:53 PM,10.0,ESE,5.8,120,Tulsa,Oklahoma,74104
0,Overcast,2016-03-12 06:53:00,53.1,,-,93,N/A,30.09,55.0,,12:53 AM,10.0,SSE,3.5,150,Tulsa,Oklahoma,74104
1,Overcast,2016-03-12 07:53:00,53.1,,-,90,N/A,30.06,55.9,,1:53 AM,10.0,SSE,5.8,150,Tulsa,Oklahoma,74104
2,Overcast,2016-03-12 08:53:00,53.1,,-,93,N/A,30.05,55.0,,2:53 AM,10.0,SE,4.6,130,Tulsa,Oklahoma,74104
3,Overcast,2016-03-12 09:53:00,53.1,,-,93,N/A,30.03,55.0,,3:53 AM,10.0,Calm,Calm,0,Tulsa,Oklahoma,74104
4,Overcast,2016-03-12 10:53:00,53.1,,-,93,N/A,30.01,55.0,,4:53 AM,10.0,Calm,Calm,0,Tulsa,Oklahoma,74104
5,Overcast,2016-03-12 11:53:00,54.0,,-,93,N/A,30.04,55.9,,5:53 AM,10.0,Calm,Calm,0,Tulsa,Oklahoma,74104
6,Overcast,2016-03-12 12:53:00,54.0,,-,93,N/A,30.02,55.9,,6:53 AM,9.0,SE,3.5,130,Tulsa,Oklahoma,74104
7,Overcast,2016-03-12 13:53:00,54.0,,-,93,N/A,30.02,55.9,,7:53 AM,7.0,SE,5.8,140,Tulsa,Oklahoma,74104
8,Overcast,2016-03-12 14:53:00,55.0,,-,97,N/A,30.01,55.9,,8:53 AM,5.0,SE,5.8,140,Tulsa,Oklahoma,74104
9,Overcast,2016-03-12 15:20:00,55.0,,-,93,N/A,30.00,57.0,,9:20 AM,2.0,SSE,5.8,150,Tulsa,Oklahoma,74104
10,Overcast,2016-03-12 15:53:00,55.0,,-,93,N/A,30.03,57.0,,9:53 AM,2.0,SSE,6.9,150,Tulsa,Oklahoma,74104
11,Overcast,2016-03-12 16:53:00,55.9,,-,93,N/A,30.01,57.9,,10:53 AM,2.0,SSE,5.8,160,Tulsa,Oklahoma,74104
12,Overcast,2016-03-12 16:59:00,55.9,,-,93,N/A,29.98,57.9,,10:59 AM,7.0,South,5.8,180,Tulsa,Oklahoma,74104
13,Overcast,2016-03-12 17:53:00,55.9,,-,86,N/A,29.99,60.1,,11:53 AM,10.0,Calm,Calm,0,Tulsa,Oklahoma,74104
14,Overcast,2016-03-12 18:42:00,55.9,,-,80,N/A,29.94,62.1,,12:42 PM,10.0,South,4.6,170,Tulsa,Oklahoma,74104
15,Overcast,2016-03-12 18:53:00,57.0,,-,84,N/A,29.96,62.1,,12:53 PM,10.0,SSE,5.8,160,Tulsa,Oklahoma,74104
16,Overcast,2016-03-12 19:33:00,57.0,,-,78,N/A,29.92,64.0,,1:33 PM,10.0,SSE,4.6,150,Tulsa,Oklahoma,74104
17,Mostly Cloudy,2016-03-12 19:53:00,57.0,,-,75,N/A,29.93,64.9,,1:53 PM,10.0,Calm,Calm,0,Tulsa,Oklahoma,74104
18,Overcast,2016-03-12 20:17:00,57.0,,-,75,N/A,29.89,64.9,,2:17 PM,10.0,Calm,Calm,0,Tulsa,Oklahoma,74104
19,Overcast,2016-03-12 20:53:00,57.9,,-,70,N/A,29.89,68.0,,2:53 PM,10.0,NE,4.6,50,Tulsa,Oklahoma,74104
20,Mostly Cloudy,2016-03-12 21:13:00,57.0,,-,68,N/A,29.86,68.0,,3:13 PM,10.0,East,4.6,100,Tulsa,Oklahoma,74104
21,Mostly Cloudy,2016-03-12 21:53:00,57.0,,-,68,N/A,29.86,68.0,,3:53 PM,10.0,ENE,4.6,70,Tulsa,Oklahoma,74104
22,Overcast,2016-03-12 22:07:00,57.0,,-,68,N/A,29.83,68.0,,4:07 PM,10.0,SE,9.2,130,Tulsa,Oklahoma,74104
23,Overcast,2016-03-12 22:46:00,57.0,,-,70,0.00,29.82,66.9,,4:46 PM,10.0,Variable,4.6,0,Tulsa,Oklahoma,74104
24,Light Rain,2016-03-12 22:53:00,57.0,Rain,-,73,0.00,29.84,66.0,,4:53 PM,10.0,ESE,4.6,120,Tulsa,Oklahoma,74104
25,Light Rain,2016-03-12 23:06:00,57.9,Rain,-,70,0.00,29.81,68.0,,5:06 PM,10.0,ESE,6.9,120,Tulsa,Oklahoma,74104
26,Clear,2016-03-12 23:53:00,57.9,,-,75,0.00,29.83,66.0,,5:53 PM,10.0,East,4.6,90,Tulsa,Oklahoma,74104
27,Mostly Cloudy,2016-03-13 00:53:00,57.0,,-,78,N/A,29.83,64.0,,6:53 PM,10.0,East,8.1,100,Tulsa,Oklahoma,74104
28,Clear,2016-03-13 01:53:00,57.0,,-,87,N/A,29.85,61.0,,7:53 PM,10.0,ESE,6.9,110,Tulsa,Oklahoma,74104
29,Mostly Cloudy,2016-03-13 02:53:00,57.0,,-,90,N/A,29.84,60.1,,8:53 PM,10.0,ESE,3.5,120,Tulsa,Oklahoma,74104
30,Mostly Cloudy,2016-03-13 03:42:00,57.0,,-,90,N/A,29.82,60.1,,9:42 PM,10.0,ESE,5.8,110,Tulsa,Oklahoma,74104
31,Mostly Cloudy,2016-03-13 03:53:00,57.0,,-,93,N/A,29.84,59.0,,9:53 PM,10.0,East,4.6,100,Tulsa,Oklahoma,74104
32,Mostly Cloudy,2016-03-13 04:53:00,55.0,,-,93,N/A,29.83,57.0,,10:53 PM,5.0,Calm,Calm,0,Tulsa,Oklahoma,74104
33,Partly Cloudy,2016-03-13 05:26:00,54.0,,-,96,N/A,29.80,55.0,,11:26 PM,1.8,Calm,Calm,0,Tulsa,Oklahoma,74104
34,Scattered Clouds,2016-03-13 05:34:00,54.0,,-,96,N/A,29.80,55.0,,11:34 PM,2.0,Calm,Calm,0,Tulsa,Oklahoma,74104
35,Mostly Cloudy,2016-03-13 05:44:00,54.0,,-,93,N/A,29.80,55.9,,11:44 PM,2.5,Calm,Calm,0,Tulsa,Oklahoma,74104
36,Mostly Cloudy,2016-03-13 05:46:00,55.0,,-,97,N/A,29.80,55.9,,11:46 PM,3.0,Calm,Calm,0,Tulsa,Oklahoma,74104
37,Mostly Cloudy,2016-03-13 05:53:00,55.0,,-,97,N/A,29.82,55.9,,11:53 PM,4.0,Calm,Calm,0,Tulsa,Oklahoma,74104
0,Overcast,2016-03-13 06:00:00,55.9,,-,96,N/A,29.80,57.0,12:00 AM,,5.0,Calm,Calm,0,Tulsa,Oklahoma,74104
1,Overcast,2016-03-13 06:12:00,57.0,,-,97,N/A,29.79,57.9,12:12 AM,,5.0,East,3.5,80,Tulsa,Oklahoma,74104
2,Overcast,2016-03-13 06:53:00,57.0,,-,93,N/A,29.81,59.0,12:53 AM,,7.0,ESE,4.6,120,Tulsa,Oklahoma,74104
3,Overcast,2016-03-13 07:05:00,57.0,,-,93,N/A,29.78,59.0,1:05 AM,,7.0,ESE,5.8,120,Tulsa,Oklahoma,74104
4,Overcast,2016-03-13 07:15:00,57.0,,-,93,N/A,29.78,59.0,1:15 AM,,8.0,ESE,6.9,120,Tulsa,Oklahoma,74104
5,Overcast,2016-03-13 07:53:00,57.0,,-,93,N/A,29.79,59.0,1:53 AM,,8.0,ESE,8.1,120,Tulsa,Oklahoma,74104
6,Overcast,2016-03-13 08:35:00,57.0,,-,93,N/A,29.75,59.0,3:35 AM,,7.0,SE,6.9,130,Tulsa,Oklahoma,74104
7,Overcast,2016-03-13 08:53:00,57.0,,-,93,N/A,29.77,59.0,3:53 AM,,7.0,SE,5.8,130,Tulsa,Oklahoma,74104
8,Overcast,2016-03-13 09:23:00,55.9,,-,93,N/A,29.74,57.9,4:23 AM,,8.0,SE,4.6,130,Tulsa,Oklahoma,74104
9,Overcast,2016-03-13 09:53:00,55.9,,-,93,N/A,29.76,57.9,4:53 AM,,8.0,South,3.5,170,Tulsa,Oklahoma,74104
10,Overcast,2016-03-13 10:53:00,55.9,,-,93,N/A,29.76,57.9,5:53 AM,,8.0,Calm,Calm,0,Tulsa,Oklahoma,74104
11,Overcast,2016-03-13 11:16:00,55.9,,-,93,N/A,29.74,57.9,6:16 AM,,9.0,Calm,Calm,0,Tulsa,Oklahoma,74104
12,Overcast,2016-03-13 11:44:00,55.9,,-,93,N/A,29.74,57.9,6:44 AM,,10.0,SE,4.6,140,Tulsa,Oklahoma,74104
13,Light Rain,2016-03-13 11:53:00,55.9,Rain,-,93,0.00,29.75,57.9,6:53 AM,,10.0,ESE,4.6,120,Tulsa,Oklahoma,74104
14,Light Rain,2016-03-13 12:14:00,55.9,Rain,-,93,0.00,29.74,57.9,7:14 AM,,10.0,SSE,4.6,160,Tulsa,Oklahoma,74104
15,Overcast,2016-03-13 12:51:00,55.4,,-,94,0.00,29.73,57.2,7:51 AM,,7.0,ESE,3.5,110,Tulsa,Oklahoma,74104
16,Overcast,2016-03-13 12:53:00,55.0,,-,93,0.00,29.75,57.0,7:53 AM,,7.0,ESE,4.6,120,Tulsa,Oklahoma,74104
17,Overcast,2016-03-13 13:00:00,55.0,,-,93,N/A,29.73,57.0,8:00 AM,,7.0,Calm,Calm,0,Tulsa,Oklahoma,74104
18,Mostly Cloudy,2016-03-13 13:35:00,55.9,,-,90,N/A,29.74,59.0,8:35 AM,,7.0,SE,3.5,140,Tulsa,Oklahoma,74104
19,Mostly Cloudy,2016-03-13 13:48:00,55.4,,-,94,N/A,29.74,57.2,8:48 AM,,7.0,SE,3.5,140,Tulsa,Oklahoma,74104
20,Mostly Cloudy,2016-03-13 13:53:00,55.9,,-,90,N/A,29.76,59.0,8:53 AM,,7.0,Variable,3.5,0,Tulsa,Oklahoma,74104
21,Mostly Cloudy,2016-03-13 14:53:00,55.9,,-,83,N/A,29.74,61.0,9:53 AM,,10.0,SSE,8.1,150,Tulsa,Oklahoma,74104
22,Overcast,2016-03-13 15:37:00,57.0,Thunderstorm,17.3,87,0.01,29.70,61.0,10:37 AM,,10.0,SSE,8.1,150,Tulsa,Oklahoma,74104
23,Rain,2016-03-13 15:53:00,57.0,Rain,-,87,0.04,29.72,61.0,10:53 AM,,4.0,ESE,10.4,120,Tulsa,Oklahoma,74104
24,Overcast,2016-03-13 16:12:00,57.9,Thunderstorm,-,86,0.00,29.69,62.1,11:12 AM,,10.0,ESE,8.1,110,Tulsa,Oklahoma,74104
25,Overcast,2016-03-13 16:27:00,57.0,,-,87,0.00,29.69,61.0,11:27 AM,,10.0,ESE,6.9,120,Tulsa,Oklahoma,74104
26,Overcast,2016-03-13 16:53:00,57.0,,-,84,0.00,29.70,62.1,11:53 AM,,10.0,East,9.2,100,Tulsa,Oklahoma,74104
27,Light Rain,2016-03-13 17:44:00,57.0,Rain-Thunderstorm,-,84,0.00,29.68,62.1,12:44 PM,,10.0,ESE,9.2,120,Tulsa,Oklahoma,74104
28,Light Rain,2016-03-13 17:53:00,57.0,Rain,-,84,0.00,29.70,62.1,12:53 PM,,10.0,ESE,9.2,120,Tulsa,Oklahoma,74104
29,Overcast,2016-03-13 18:00:00,57.9,Thunderstorm,-,84,0.00,29.68,63.0,1:00 PM,,10.0,ESE,8.1,120,Tulsa,Oklahoma,74104
30,Overcast,2016-03-13 18:15:00,57.9,,-,80,0.00,29.67,64.0,1:15 PM,,10.0,ESE,9.2,120,Tulsa,Oklahoma,74104
31,Scattered Clouds,2016-03-13 18:53:00,57.0,,-,68,0.00,29.67,68.0,1:53 PM,,10.0,SE,13.8,130,Tulsa,Oklahoma,74104
32,Mostly Cloudy,2016-03-13 19:53:00,55.9,,-,63,N/A,29.65,69.1,2:53 PM,,10.0,ESE,8.1,110,Tulsa,Oklahoma,74104
33,Light Rain,2016-03-13 20:53:00,55.0,Rain-Thunderstorm,-,63,0.00,29.63,68.0,3:53 PM,,10.0,Variable,4.6,0,Tulsa,Oklahoma,74104
34,Light Thunderstorms and Rain,2016-03-13 21:06:00,55.0,Rain-Thunderstorm,-,63,0.02,29.62,68.0,4:06 PM,,8.0,South,5.8,190,Tulsa,Oklahoma,74104
35,Light Thunderstorms and Rain,2016-03-13 21:53:00,51.1,Rain-Thunderstorm,-,72,0.05,29.65,60.1,4:53 PM,,10.0,South,8.1,190,Tulsa,Oklahoma,74104
36,Heavy Thunderstorms and Rain,2016-03-13 22:22:00,51.1,Rain-Thunderstorm,26.5,81,0.08,29.67,57.0,5:22 PM,,1.8,SW,10.4,230,Tulsa,Oklahoma,74104
37,Light Thunderstorms and Rain,2016-03-13 22:34:00,51.1,Rain-Thunderstorm,-,86,0.13,29.66,55.0,5:34 PM,,3.0,Calm,Calm,0,Tulsa,Oklahoma,74104
38,Light Thunderstorms and Rain,2016-03-13 22:45:00,52.0,Rain-Thunderstorm,-,87,0.22,29.66,55.9,5:45 PM,,2.0,Calm,Calm,0,Tulsa,Oklahoma,74104
39,Light Thunderstorms and Rain,2016-03-13 22:53:00,53.1,Rain-Thunderstorm,-,93,0.23,29.69,55.0,5:53 PM,,4.0,NNE,5.8,20,Tulsa,Oklahoma,74104
40,Mostly Cloudy,2016-03-13 23:10:00,53.1,Thunderstorm,-,87,0.00,29.67,57.0,6:10 PM,,10.0,Calm,Calm,0,Tulsa,Oklahoma,74104
41,Mostly Cloudy,2016-03-13 23:17:00,54.0,,-,87,0.00,29.66,57.9,6:17 PM,,10.0,South,3.5,170,Tulsa,Oklahoma,74104
42,Mostly Cloudy,2016-03-13 23:53:00,55.0,,-,87,0.00,29.68,59.0,6:53 PM,,10.0,NNW,3.5,340,Tulsa,Oklahoma,74104
43,Mostly Cloudy,2016-03-14 00:19:00,55.0,,-,87,N/A,29.66,59.0,7:19 PM,,10.0,NNE,5.8,30,Tulsa,Oklahoma,74104
44,Scattered Clouds,2016-03-14 00:53:00,54.0,,-,87,N/A,29.70,57.9,7:53 PM,,10.0,NW,3.5,320,Tulsa,Oklahoma,74104
45,Clear,2016-03-14 01:53:00,54.0,,-,93,N/A,29.72,55.9,8:53 PM,,10.0,WNW,3.5,300,Tulsa,Oklahoma,74104
46,Clear,2016-03-14 02:53:00,53.1,,-,90,N/A,29.74,55.9,9:53 PM,,10.0,Calm,Calm,0,Tulsa,Oklahoma,74104
47,Clear,2016-03-14 03:37:00,52.0,,-,96,N/A,29.73,53.1,10:37 PM,,1.8,SW,3.5,220,Tulsa,Oklahoma,74104
48,Clear,2016-03-14 03:48:00,51.8,,-,100,N/A,29.73,51.8,10:48 PM,,3.0,SSW,4.6,200,Tulsa,Oklahoma,74104
49,Clear,2016-03-14 03:53:00,52.0,,-,96,N/A,29.76,53.1,10:53 PM,,6.0,Calm,Calm,0,Tulsa,Oklahoma,74104
50,Clear,2016-03-14 04:10:00,51.1,,-,97,N/A,29.73,52.0,11:10 PM,,1.5,Calm,Calm,0,Tulsa,Oklahoma,74104
51,Clear,2016-03-14 04:21:00,50.0,,-,93,N/A,29.72,52.0,11:21 PM,,0.8,Calm,Calm,0,Tulsa,Oklahoma,74104
52,Fog,2016-03-14 04:26:00,50.0,Fog,-,100,N/A,29.72,50.0,11:26 PM,,0.5,Calm,Calm,0,Tulsa,Oklahoma,74104
53,Fog,2016-03-14 04:53:00,48.9,Fog,-,96,N/A,29.76,50.0,11:53 PM,,0.5,Calm,Calm,0,Tulsa,Oklahoma,74104
54,Clear,2016-03-14 05:13:00,48.9,,-,96,N/A,29.73,50.0,12:13 AM,,1.0,Calm,Calm,0,Tulsa,Oklahoma,74104
55,Mist,2016-03-14 05:27:00,48.9,,-,96,N/A,29.73,50.0,12:27 AM,,0.8,Calm,Calm,0,Tulsa,Oklahoma,74104
56,Fog,2016-03-14 05:35:00,48.9,Fog,-,96,N/A,29.73,50.0,12:35 AM,,0.5,Calm,Calm,0,Tulsa,Oklahoma,74104
57,Fog,2016-03-14 05:53:00,48.9,Fog,-,96,N/A,29.76,50.0,12:53 AM,,0.2,Calm,Calm,0,Tulsa,Oklahoma,74104
0,Clear,2016-03-14 05:13:00,48.9,,-,96,N/A,29.73,50.0,12:13 AM,,1.0,Calm,Calm,0,Tulsa,Oklahoma,74104
1,Mist,2016-03-14 05:27:00,48.9,,-,96,N/A,29.73,50.0,12:27 AM,,0.8,Calm,Calm,0,Tulsa,Oklahoma,74104
2,Fog,2016-03-14 05:35:00,48.9,Fog,-,96,N/A,29.73,50.0,12:35 AM,,0.5,Calm,Calm,0,Tulsa,Oklahoma,74104
3,Fog,2016-03-14 05:53:00,48.9,Fog,-,96,N/A,29.76,50.0,12:53 AM,,0.2,Calm,Calm,0,Tulsa,Oklahoma,74104
4,Fog,2016-03-14 06:11:00,48.9,Fog,-,96,N/A,29.74,50.0,1:11 AM,,0.2,Calm,Calm,0,Tulsa,Oklahoma,74104
5,Fog,2016-03-14 06:46:00,48.0,Fog,-,97,N/A,29.74,48.9,1:46 AM,,0.2,Calm,Calm,0,Tulsa,Oklahoma,74104
6,Fog,2016-03-14 06:53:00,48.0,Fog,-,97,N/A,29.76,48.9,1:53 AM,,0.2,Calm,Calm,0,Tulsa,Oklahoma,74104
7,Mist,2016-03-14 07:51:00,46.4,,-,93,N/A,29.74,48.2,2:51 AM,,1.0,Calm,Calm,0,Tulsa,Oklahoma,74104
8,Mist,2016-03-14 07:53:00,46.9,,-,96,N/A,29.77,48.0,2:53 AM,,0.8,Calm,Calm,0,Tulsa,Oklahoma,74104
9,Fog,2016-03-14 07:58:00,46.0,Fog,-,97,N/A,29.74,46.9,2:58 AM,,0.5,Calm,Calm,0,Tulsa,Oklahoma,74104
10,Fog,2016-03-14 08:53:00,46.0,Fog,-,97,N/A,29.76,46.9,3:53 AM,,0.5,Calm,Calm,0,Tulsa,Oklahoma,74104
11,Fog,2016-03-14 09:12:00,45.0,Fog,-,96,N/A,29.73,46.0,4:12 AM,,0.5,Calm,Calm,0,Tulsa,Oklahoma,74104
12,Mist,2016-03-14 09:22:00,46.0,,-,97,N/A,29.73,46.9,4:22 AM,,1.0,Calm,Calm,0,Tulsa,Oklahoma,74104
13,Mist,2016-03-14 09:29:00,46.0,,-,97,N/A,29.72,46.9,4:29 AM,,0.8,Calm,Calm,0,Tulsa,Oklahoma,74104
14,Fog,2016-03-14 09:37:00,44.1,Fog,-,97,N/A,29.72,45.0,4:37 AM,,0.2,Calm,Calm,0,Tulsa,Oklahoma,74104
15,Fog,2016-03-14 09:53:00,45.0,Fog,-,96,N/A,29.74,46.0,4:53 AM,,0.2,Calm,Calm,0,Tulsa,Oklahoma,74104
16,Mist,2016-03-14 10:20:00,45.0,,-,96,N/A,29.73,46.0,5:20 AM,,0.8,Calm,Calm,0,Tulsa,Oklahoma,74104
17,Partly Cloudy,2016-03-14 10:26:00,45.0,,-,96,N/A,29.73,46.0,5:26 AM,,1.2,Calm,Calm,0,Tulsa,Oklahoma,74104
18,Mist,2016-03-14 10:39:00,44.1,,-,100,N/A,29.73,44.1,5:39 AM,,0.8,Calm,Calm,0,Tulsa,Oklahoma,74104
19,Fog,2016-03-14 10:41:00,43.0,Fog,-,96,N/A,29.73,44.1,5:41 AM,,0.5,Calm,Calm,0,Tulsa,Oklahoma,74104
20,Mist,2016-03-14 10:53:00,44.1,,-,97,N/A,29.75,45.0,5:53 AM,,1.0,Calm,Calm,0,Tulsa,Oklahoma,74104
21,Partly Cloudy,2016-03-14 10:58:00,44.1,,-,97,N/A,29.73,45.0,5:58 AM,,2.0,Calm,Calm,0,Tulsa,Oklahoma,74104
22,Mist,2016-03-14 11:05:00,44.1,,-,97,N/A,29.73,45.0,6:05 AM,,1.0,Calm,Calm,0,Tulsa,Oklahoma,74104
23,Fog,2016-03-14 11:08:00,43.0,Fog,-,96,N/A,29.74,44.1,6:08 AM,,0.5,Calm,Calm,0,Tulsa,Oklahoma,74104
24,Fog,2016-03-14 11:15:00,43.0,Fog,-,93,N/A,29.74,45.0,6:15 AM,,0.5,Calm,Calm,0,Tulsa,Oklahoma,74104
25,Clear,2016-03-14 11:23:00,44.1,,-,97,N/A,29.75,45.0,6:23 AM,,1.0,Calm,Calm,0,Tulsa,Oklahoma,74104
26,Clear,2016-03-14 11:35:00,44.1,,-,97,N/A,29.74,45.0,6:35 AM,,2.0,SW,3.5,220,Tulsa,Oklahoma,74104
27,Clear,2016-03-14 11:42:00,44.1,,-,97,N/A,29.74,45.0,6:42 AM,,0.8,Calm,Calm,0,Tulsa,Oklahoma,74104
28,Clear,2016-03-14 11:50:00,44.6,,-,100,N/A,29.75,44.6,6:50 AM,,10.0,Calm,Calm,0,Tulsa,Oklahoma,74104
29,Clear,2016-03-14 11:51:00,44.1,,-,97,N/A,29.76,45.0,6:51 AM,,10.0,Calm,Calm,0,Tulsa,Oklahoma,74104
30,Clear,2016-03-14 12:53:00,44.1,,-,93,N/A,29.78,46.0,7:53 AM,,2.0,Calm,Calm,0,Tulsa,Oklahoma,74104
31,Partly Cloudy,2016-03-14 13:00:00,44.1,,-,97,N/A,29.77,45.0,8:00 AM,,1.2,Calm,Calm,0,Tulsa,Oklahoma,74104
32,Scattered Clouds,2016-03-14 13:14:00,46.0,,-,97,N/A,29.77,46.9,8:14 AM,,2.5,Calm,Calm,0,Tulsa,Oklahoma,74104
33,Partly Cloudy,2016-03-14 13:27:00,46.9,,-,96,N/A,29.77,48.0,8:27 AM,,4.0,Calm,Calm,0,Tulsa,Oklahoma,74104
34,Clear,2016-03-14 13:53:00,50.0,,-,96,N/A,29.78,51.1,8:53 AM,,9.0,Calm,Calm,0,Tulsa,Oklahoma,74104
35,Clear,2016-03-14 14:53:00,53.1,,-,87,N/A,29.78,57.0,9:53 AM,,10.0,SSE,3.5,150,Tulsa,Oklahoma,74104
36,Clear,2016-03-14 15:53:00,55.0,,-,73,N/A,29.78,64.0,10:53 AM,,10.0,SSE,5.8,150,Tulsa,Oklahoma,74104
37,Clear,2016-03-14 16:53:00,55.0,,-,59,N/A,29.77,70.0,11:53 AM,,10.0,SSE,6.9,160,Tulsa,Oklahoma,74104
38,Clear,2016-03-14 17:53:00,55.0,,-,50,N/A,29.73,75.0,12:53 PM,,10.0,SSE,8.1,160,Tulsa,Oklahoma,74104
39,Clear,2016-03-14 18:53:00,53.1,,-,42,N/A,29.69,78.1,1:53 PM,,10.0,South,12.7,180,Tulsa,Oklahoma,74104
40,Clear,2016-03-14 19:53:00,55.0,,18.4,44,N/A,29.65,79.0,2:53 PM,,10.0,SSE,11.5,150,Tulsa,Oklahoma,74104
41,Clear,2016-03-14 20:53:00,53.1,,-,38,N/A,29.62,81.0,3:53 PM,,10.0,SSE,12.7,150,Tulsa,Oklahoma,74104
42,Clear,2016-03-14 21:53:00,51.1,,21.9,35,N/A,29.59,81.0,4:53 PM,,10.0,SSE,12.7,160,Tulsa,Oklahoma,74104
43,Clear,2016-03-14 22:53:00,51.1,,20.7,35,N/A,29.57,81.0,5:53 PM,,10.0,SSE,12.7,160,Tulsa,Oklahoma,74104
44,Clear,2016-03-14 23:53:00,51.1,,-,38,N/A,29.58,79.0,6:53 PM,,10.0,South,10.4,170,Tulsa,Oklahoma,74104
45,Clear,2016-03-15 00:53:00,50.0,,-,40,N/A,29.60,75.9,7:53 PM,,10.0,South,8.1,180,Tulsa,Oklahoma,74104
46,Clear,2016-03-15 01:53:00,50.0,,-,44,N/A,29.60,73.0,8:53 PM,,10.0,South,6.9,170,Tulsa,Oklahoma,74104
47,Clear,2016-03-15 02:53:00,50.0,,-,52,N/A,29.61,68.0,9:53 PM,,10.0,South,4.6,180,Tulsa,Oklahoma,74104
48,Clear,2016-03-15 03:53:00,48.0,,-,49,N/A,29.60,68.0,10:53 PM,,10.0,South,3.5,170,Tulsa,Oklahoma,74104
49,Clear,2016-03-15 04:53:00,48.9,,-,62,N/A,29.59,62.1,11:53 PM,,10.0,SSE,3.5,150,Tulsa,Oklahoma,74104
0,Clear,2016-03-15 05:53:00,48.9,,-,77,N/A,29.56,55.9,12:53 AM,,10.0,Calm,Calm,0,Tulsa,Oklahoma,74104
1,Clear,2016-03-15 06:53:00,50.0,,-,83,N/A,29.55,55.0,1:53 AM,,10.0,Calm,Calm,0,Tulsa,Oklahoma,74104
2,Clear,2016-03-15 07:53:00,48.9,,-,69,N/A,29.53,59.0,2:53 AM,,10.0,SSE,4.6,160,Tulsa,Oklahoma,74104
3,Clear,2016-03-15 08:53:00,48.9,,-,77,N/A,29.51,55.9,3:53 AM,,10.0,South,3.5,170,Tulsa,Oklahoma,74104
4,Clear,2016-03-15 09:53:00,48.9,,-,86,N/A,29.50,53.1,4:53 AM,,10.0,Calm,Calm,0,Tulsa,Oklahoma,74104
5,Clear,2016-03-15 10:53:00,46.9,,-,89,N/A,29.50,50.0,5:53 AM,,10.0,Calm,Calm,0,Tulsa,Oklahoma,74104
6,Unknown,2016-03-15 11:53:00,46.0,,-,80,N/A,29.51,52.0,6:53 AM,,10.0,Calm,Calm,0,Tulsa,Oklahoma,74104
7,Clear,2016-03-15 12:53:00,44.1,,-,77,N/A,29.54,51.1,7:53 AM,,10.0,SSW,3.5,200,Tulsa,Oklahoma,74104
8,Clear,2016-03-15 13:53:00,43.0,,-,52,N/A,29.55,61.0,8:53 AM,,10.0,WSW,8.1,240,Tulsa,Oklahoma,74104
9,Clear,2016-03-15 14:53:00,46.0,,-,54,N/A,29.59,63.0,9:53 AM,,10.0,Variable,5.8,0,Tulsa,Oklahoma,74104
10,Clear,2016-03-15 15:53:00,48.9,,21.9,56,N/A,29.63,64.9,10:53 AM,,10.0,WNW,9.2,300,Tulsa,Oklahoma,74104
11,Clear,2016-03-15 16:53:00,51.1,,-,57,N/A,29.67,66.9,11:53 AM,,10.0,Variable,6.9,0,Tulsa,Oklahoma,74104
12,Clear,2016-03-15 17:53:00,53.1,,19.6,49,N/A,29.68,73.0,12:53 PM,,10.0,West,10.4,270,Tulsa,Oklahoma,74104
13,Clear,2016-03-15 18:53:00,51.1,,18.4,45,N/A,29.70,73.9,1:53 PM,,10.0,WNW,10.4,290,Tulsa,Oklahoma,74104
14,Clear,2016-03-15 19:53:00,48.0,,31.1,40,N/A,29.72,73.9,2:53 PM,,10.0,WNW,12.7,300,Tulsa,Oklahoma,74104
15,Clear,2016-03-15 20:53:00,44.1,,24.2,35,N/A,29.76,73.0,3:53 PM,,10.0,NNW,12.7,330,Tulsa,Oklahoma,74104
16,Clear,2016-03-15 21:53:00,39.0,,24.2,29,N/A,29.78,73.0,4:53 PM,,10.0,NNW,15.0,330,Tulsa,Oklahoma,74104
17,Clear,2016-03-15 22:53:00,36.0,,24.2,27,N/A,29.83,72.0,5:53 PM,,10.0,NW,11.5,310,Tulsa,Oklahoma,74104
18,Clear,2016-03-15 23:53:00,28.9,,21.9,22,N/A,29.87,69.1,6:53 PM,,10.0,WNW,11.5,290,Tulsa,Oklahoma,74104
19,Clear,2016-03-16 00:53:00,21.0,,16.1,19,N/A,29.91,64.9,7:53 PM,,10.0,NW,11.5,310,Tulsa,Oklahoma,74104
20,Clear,2016-03-16 01:53:00,30.0,,-,36,N/A,29.94,57.0,8:53 PM,,10.0,Calm,Calm,0,Tulsa,Oklahoma,74104
21,Clear,2016-03-16 02:53:00,33.1,,-,45,N/A,29.97,54.0,9:53 PM,,10.0,WNW,3.5,290,Tulsa,Oklahoma,74104
22,Clear,2016-03-16 03:53:00,37.0,,-,61,N/A,29.99,50.0,10:53 PM,,10.0,Calm,Calm,0,Tulsa,Oklahoma,74104
23,Clear,2016-03-16 04:53:00,32.0,,-,52,N/A,29.99,48.9,11:53 PM,,10.0,NNW,3.5,340,Tulsa,Oklahoma,74104
0,Clear,2016-03-16 05:53:00,28.0,,-,40,N/A,30.01,52.0,12:53 AM,,10.0,NNW,4.6,340,Tulsa,Oklahoma,74104
1,Clear,2016-03-16 06:53:00,28.0,,-,44,N/A,30.03,48.9,1:53 AM,,10.0,NNW,3.5,330,Tulsa,Oklahoma,74104
2,Clear,2016-03-16 07:53:00,36.0,,-,73,N/A,30.03,44.1,2:53 AM,,10.0,Calm,Calm,0,Tulsa,Oklahoma,74104
3,Clear,2016-03-16 08:53:00,35.1,,-,79,N/A,30.04,41.0,3:53 AM,,10.0,Calm,Calm,0,Tulsa,Oklahoma,74104
4,Clear,2016-03-16 09:53:00,33.1,,-,77,N/A,30.04,39.9,4:53 AM,,10.0,Calm,Calm,0,Tulsa,Oklahoma,74104
5,Clear,2016-03-16 10:53:00,33.1,,-,86,N/A,30.01,37.0,5:53 AM,,10.0,Calm,Calm,0,Tulsa,Oklahoma,74104
6,Scattered Clouds,2016-03-16 11:53:00,34.0,,-,86,N/A,30.01,37.9,6:53 AM,,10.0,Calm,Calm,0,Tulsa,Oklahoma,74104
7,Partly Cloudy,2016-03-16 12:53:00,34.0,,-,82,N/A,30.04,39.0,7:53 AM,,10.0,WSW,3.5,250,Tulsa,Oklahoma,74104
8,Partly Cloudy,2016-03-16 13:53:00,34.0,,-,58,N/A,30.06,48.0,8:53 AM,,10.0,Calm,Calm,0,Tulsa,Oklahoma,74104
9,Mostly Cloudy,2016-03-16 14:53:00,35.1,,-,47,N/A,30.09,55.0,9:53 AM,,10.0,Calm,Calm,0,Tulsa,Oklahoma,74104
10,Clear,2016-03-16 15:53:00,28.9,,-,31,N/A,30.10,60.1,10:53 AM,,10.0,Calm,Calm,0,Tulsa,Oklahoma,74104
11,Overcast,2016-03-16 16:53:00,28.0,,-,27,N/A,30.13,63.0,11:53 AM,,10.0,Variable,5.8,0,Tulsa,Oklahoma,74104
12,Overcast,2016-03-16 17:53:00,27.0,,-,26,N/A,30.13,63.0,12:53 PM,,10.0,Variable,3.5,0,Tulsa,Oklahoma,74104
13,Overcast,2016-03-16 18:53:00,21.9,,-,21,N/A,30.12,63.0,1:53 PM,,10.0,Variable,3.5,0,Tulsa,Oklahoma,74104
14,Overcast,2016-03-16 19:53:00,23.0,,-,20,N/A,30.06,64.9,2:53 PM,,10.0,Variable,5.8,0,Tulsa,Oklahoma,74104
15,Clear,2016-03-16 20:53:00,21.0,,-,18,N/A,30.04,66.0,3:53 PM,,10.0,Calm,Calm,0,Tulsa,Oklahoma,74104
16,Clear,2016-03-16 21:53:00,19.0,,-,16,N/A,30.03,66.9,4:53 PM,,10.0,Variable,4.6,0,Tulsa,Oklahoma,74104
17,Clear,2016-03-16 22:53:00,18.0,,-,16,N/A,30.03,66.0,5:53 PM,,10.0,WNW,5.8,300,Tulsa,Oklahoma,74104
18,Clear,2016-03-16 23:53:00,19.9,,-,18,N/A,30.04,64.0,6:53 PM,,10.0,WNW,5.8,300,Tulsa,Oklahoma,74104
19,Clear,2016-03-17 00:53:00,24.1,,-,25,N/A,30.04,60.1,7:53 PM,,10.0,North,4.6,360,Tulsa,Oklahoma,74104
20,Clear,2016-03-17 01:53:00,30.0,,-,38,N/A,30.06,55.0,8:53 PM,,10.0,North,3.5,350,Tulsa,Oklahoma,74104
21,Clear,2016-03-17 02:53:00,36.0,,-,66,N/A,30.07,46.9,9:53 PM,,10.0,Calm,Calm,0,Tulsa,Oklahoma,74104
22,Clear,2016-03-17 03:53:00,34.0,,-,61,N/A,30.06,46.9,10:53 PM,,10.0,South,3.5,190,Tulsa,Oklahoma,74104
23,Clear,2016-03-17 04:53:00,35.1,,-,63,N/A,30.07,46.9,11:53 PM,,10.0,Calm,Calm,0,Tulsa,Oklahoma,74104
0,Clear,2016-03-17 05:53:00,36.0,,-,82,N/A,30.07,41.0,12:53 AM,,10.0,Calm,Calm,0,Tulsa,Oklahoma,74104
1,Partly Cloudy,2016-03-17 06:53:00,34.0,,-,79,N/A,30.06,39.9,1:53 AM,,10.0,Calm,Calm,0,Tulsa,Oklahoma,74104
2,Mostly Cloudy,2016-03-17 07:53:00,39.0,,-,80,N/A,30.05,45.0,2:53 AM,,10.0,SSW,5.8,210,Tulsa,Oklahoma,74104
3,Mostly Cloudy,2016-03-17 08:53:00,39.9,,-,79,N/A,30.05,46.0,3:53 AM,,10.0,Calm,Calm,0,Tulsa,Oklahoma,74104
4,Overcast,2016-03-17 09:53:00,37.9,,-,71,N/A,30.06,46.9,4:53 AM,,10.0,Calm,Calm,0,Tulsa,Oklahoma,74104
5,Overcast,2016-03-17 10:53:00,41.0,,-,80,0.00,30.08,46.9,5:53 AM,,10.0,Calm,Calm,0,Tulsa,Oklahoma,74104
6,Overcast,2016-03-17 11:53:00,39.9,,-,79,N/A,30.06,46.0,6:53 AM,,10.0,Calm,Calm,0,Tulsa,Oklahoma,74104
7,Mostly Cloudy,2016-03-17 12:53:00,37.9,,-,66,N/A,30.05,48.9,7:53 AM,,10.0,NNE,8.1,20,Tulsa,Oklahoma,74104
8,Overcast,2016-03-17 13:53:00,35.1,,-,53,N/A,30.07,52.0,8:53 AM,,10.0,North,3.5,360,Tulsa,Oklahoma,74104
9,Overcast,2016-03-17 14:53:00,32.0,,-,40,N/A,30.07,55.9,9:53 AM,,10.0,East,4.6,100,Tulsa,Oklahoma,74104
10,Mostly Cloudy,2016-03-17 15:53:00,30.9,,-,33,N/A,30.08,60.1,10:53 AM,,10.0,ESE,3.5,110,Tulsa,Oklahoma,74104
11,Overcast,2016-03-17 16:53:00,30.0,,-,29,N/A,30.06,63.0,11:53 AM,,10.0,SSE,4.6,150,Tulsa,Oklahoma,74104
12,Overcast,2016-03-17 17:53:00,28.0,,-,23,N/A,30.03,66.9,12:53 PM,,10.0,SSE,9.2,150,Tulsa,Oklahoma,74104
13,Clear,2016-03-17 18:53:00,26.1,,-,20,N/A,29.99,69.1,1:53 PM,,10.0,East,5.8,90,Tulsa,Oklahoma,74104
14,Clear,2016-03-17 19:53:00,28.0,,-,22,N/A,29.98,69.1,2:53 PM,,10.0,North,-9999.0,0,Tulsa,Oklahoma,74104
15,Clear,2016-03-17 20:53:00,28.0,,-,21,N/A,29.94,70.0,3:53 PM,,10.0,SW,4.6,220,Tulsa,Oklahoma,74104
16,Partly Cloudy,2016-03-17 21:53:00,30.0,,-,22,N/A,29.93,71.1,4:53 PM,,10.0,North,-9999.0,0,Tulsa,Oklahoma,74104
17,Clear,2016-03-17 22:53:00,28.9,,-,22,N/A,29.92,70.0,5:53 PM,,10.0,South,8.1,190,Tulsa,Oklahoma,74104
18,Clear,2016-03-17 23:53:00,30.9,,-,25,N/A,29.93,68.0,6:53 PM,,10.0,SSE,6.9,150,Tulsa,Oklahoma,74104
19,Clear,2016-03-18 00:53:00,30.9,,-,28,N/A,29.93,64.9,7:53 PM,,10.0,SSE,4.6,160,Tulsa,Oklahoma,74104
20,Clear,2016-03-18 01:53:00,39.0,,-,59,N/A,29.94,53.1,8:53 PM,,10.0,Calm,Calm,0,Tulsa,Oklahoma,74104
21,Clear,2016-03-18 02:53:00,33.1,,-,42,N/A,29.95,55.9,9:53 PM,,10.0,East,5.8,90,Tulsa,Oklahoma,74104
22,Clear,2016-03-18 03:53:00,30.0,,-,35,N/A,29.96,57.9,10:53 PM,,10.0,SSE,4.6,150,Tulsa,Oklahoma,74104
23,Clear,2016-03-18 04:53:00,37.9,,-,66,N/A,29.96,48.9,11:53 PM,,10.0,Calm,Calm,0,Tulsa,Oklahoma,74104
0,Clear,2016-03-18 05:53:00,37.0,,-,68,N/A,29.97,46.9,12:53 AM,,10.0,Calm,Calm,0,Tulsa,Oklahoma,74104
1,Clear,2016-03-18 06:53:00,37.0,,-,74,N/A,29.96,45.0,1:53 AM,,10.0,Calm,Calm,0,Tulsa,Oklahoma,74104
2,Clear,2016-03-18 07:53:00,34.0,,-,61,N/A,29.96,46.9,2:53 AM,,10.0,NNE,4.6,20,Tulsa,Oklahoma,74104
3,Clear,2016-03-18 08:53:00,34.0,,-,61,N/A,29.94,46.9,3:53 AM,,10.0,North,4.6,10,Tulsa,Oklahoma,74104
4,Overcast,2016-03-18 09:53:00,34.0,,-,54,N/A,29.95,50.0,4:53 AM,,10.0,North,6.9,10,Tulsa,Oklahoma,74104
5,Overcast,2016-03-18 10:53:00,33.1,,-,54,N/A,29.96,48.9,5:53 AM,,10.0,North,8.1,10,Tulsa,Oklahoma,74104
6,Overcast,2016-03-18 11:53:00,33.1,,-,56,N/A,29.96,48.0,6:53 AM,,10.0,NNE,8.1,20,Tulsa,Oklahoma,74104
7,Overcast,2016-03-18 12:53:00,32.0,,-,54,N/A,29.96,48.0,7:53 AM,,10.0,NE,12.7,40,Tulsa,Oklahoma,74104
8,Overcast,2016-03-18 13:53:00,30.9,,-,50,N/A,29.98,48.9,8:53 AM,,10.0,North,6.9,10,Tulsa,Oklahoma,74104
9,Overcast,2016-03-18 14:53:00,30.9,,-,46,N/A,29.95,51.1,9:53 AM,,10.0,NNE,13.8,30,Tulsa,Oklahoma,74104
10,Overcast,2016-03-18 15:53:00,30.0,,19.6,41,N/A,30.01,53.1,10:53 AM,,10.0,NNE,15.0,20,Tulsa,Oklahoma,74104
11,Overcast,2016-03-18 16:53:00,30.0,,24.2,38,N/A,29.99,55.0,11:53 AM,,10.0,NNE,17.3,20,Tulsa,Oklahoma,74104
12,Overcast,2016-03-18 17:53:00,30.9,,-,39,N/A,30.01,55.9,12:53 PM,,10.0,NNE,16.1,30,Tulsa,Oklahoma,74104
13,Overcast,2016-03-18 18:53:00,33.1,,24.2,39,N/A,30.00,57.9,1:53 PM,,10.0,NNE,15.0,20,Tulsa,Oklahoma,74104
14,Overcast,2016-03-18 19:53:00,33.1,,28.8,40,N/A,29.99,57.0,2:53 PM,,10.0,NNE,19.6,20,Tulsa,Oklahoma,74104
15,Overcast,2016-03-18 20:53:00,32.0,,32.2,42,N/A,30.01,55.0,3:53 PM,,10.0,NNE,20.7,30,Tulsa,Oklahoma,74104
16,Overcast,2016-03-18 21:53:00,35.1,,32.2,50,N/A,30.04,53.1,4:53 PM,,10.0,NNE,17.3,20,Tulsa,Oklahoma,74104
17,Overcast,2016-03-18 22:53:00,35.1,,29.9,59,N/A,30.08,48.9,5:53 PM,,10.0,North,19.6,360,Tulsa,Oklahoma,74104
18,Partly Cloudy,2016-03-18 23:53:00,35.1,,32.2,66,N/A,30.12,46.0,6:53 PM,,10.0,North,15.0,10,Tulsa,Oklahoma,74104
19,Partly Cloudy,2016-03-19 00:53:00,33.1,,23.0,68,N/A,30.16,43.0,7:53 PM,,10.0,NNE,16.1,20,Tulsa,Oklahoma,74104
20,Mostly Cloudy,2016-03-19 01:33:00,33.1,,21.9,70,N/A,30.16,42.1,8:33 PM,,10.0,North,11.5,10,Tulsa,Oklahoma,74104
21,Mostly Cloudy,2016-03-19 01:53:00,33.1,,24.2,70,N/A,30.19,42.1,8:53 PM,,10.0,North,11.5,10,Tulsa,Oklahoma,74104
22,Overcast,2016-03-19 02:53:00,33.1,,19.6,70,N/A,30.20,42.1,9:53 PM,,10.0,North,10.4,10,Tulsa,Oklahoma,74104
23,Overcast,2016-03-19 03:53:00,33.1,,21.9,70,N/A,30.22,42.1,10:53 PM,,10.0,North,12.7,10,Tulsa,Oklahoma,74104
24,Overcast,2016-03-19 04:53:00,32.0,,-,67,N/A,30.23,42.1,11:53 PM,,10.0,North,11.5,10,Tulsa,Oklahoma,74104
0,Mostly Cloudy,2016-03-19 05:53:00,30.9,,-,65,N/A,30.25,42.1,12:53 AM,,10.0,North,8.1,360,Tulsa,Oklahoma,74104
1,Clear,2016-03-19 06:53:00,30.9,,-,67,N/A,30.25,41.0,1:53 AM,,10.0,North,6.9,360,Tulsa,Oklahoma,74104
2,Clear,2016-03-19 07:53:00,30.9,,-,73,N/A,30.25,39.0,2:53 AM,,10.0,Variable,6.9,0,Tulsa,Oklahoma,74104
3,Clear,2016-03-19 08:53:00,30.9,,-,82,N/A,30.28,36.0,3:53 AM,,10.0,Calm,Calm,0,Tulsa,Oklahoma,74104
4,Clear,2016-03-19 09:53:00,30.9,,-,82,N/A,30.27,36.0,4:53 AM,,10.0,NNW,4.6,330,Tulsa,Oklahoma,74104
5,Clear,2016-03-19 10:53:00,30.0,,-,85,N/A,30.29,34.0,5:53 AM,,10.0,NW,3.5,310,Tulsa,Oklahoma,74104
6,Clear,2016-03-19 11:53:00,28.0,,-,85,N/A,30.30,32.0,6:53 AM,,10.0,SW,4.6,220,Tulsa,Oklahoma,74104
7,Clear,2016-03-19 12:53:00,28.9,,-,82,N/A,30.31,34.0,7:53 AM,,10.0,Calm,Calm,0,Tulsa,Oklahoma,74104
8,Clear,2016-03-19 13:53:00,28.9,,-,65,N/A,30.33,39.9,8:53 AM,,10.0,Variable,3.5,0,Tulsa,Oklahoma,74104
9,Clear,2016-03-19 14:53:00,27.0,,-,49,N/A,30.34,45.0,9:53 AM,,10.0,Variable,5.8,0,Tulsa,Oklahoma,74104
10,Clear,2016-03-19 15:53:00,25.0,,-,41,N/A,30.35,48.0,10:53 AM,,10.0,NW,9.2,310,Tulsa,Oklahoma,74104
11,Clear,2016-03-19 16:53:00,24.1,,-,35,N/A,30.35,51.1,11:53 AM,,10.0,WNW,9.2,290,Tulsa,Oklahoma,74104
12,Partly Cloudy,2016-03-19 17:53:00,19.9,,20.7,28,N/A,30.34,52.0,12:53 PM,,10.0,NNW,11.5,330,Tulsa,Oklahoma,74104
13,Partly Cloudy,2016-03-19 18:53:00,21.9,,17.3,27,N/A,30.31,55.9,1:53 PM,,10.0,North,11.5,360,Tulsa,Oklahoma,74104
14,Partly Cloudy,2016-03-19 19:53:00,19.9,,19.6,25,N/A,30.27,55.9,2:53 PM,,10.0,Variable,6.9,0,Tulsa,Oklahoma,74104
15,Scattered Clouds,2016-03-19 20:53:00,19.9,,25.3,24,N/A,30.26,57.0,3:53 PM,,10.0,North,15.0,10,Tulsa,Oklahoma,74104
16,Clear,2016-03-19 21:53:00,18.0,,27.6,23,N/A,30.25,55.0,4:53 PM,,10.0,NNW,12.7,340,Tulsa,Oklahoma,74104
17,Partly Cloudy,2016-03-19 22:53:00,18.0,,26.5,25,N/A,30.26,53.1,5:53 PM,,10.0,North,13.8,350,Tulsa,Oklahoma,74104
18,Clear,2016-03-19 23:53:00,17.1,,18.4,26,N/A,30.28,51.1,6:53 PM,,10.0,North,10.4,350,Tulsa,Oklahoma,74104
19,Clear,2016-03-20 00:53:00,16.0,,21.9,28,N/A,30.30,48.0,7:53 PM,,10.0,North,12.7,350,Tulsa,Oklahoma,74104
20,Partly Cloudy,2016-03-20 01:53:00,17.1,,19.6,31,N/A,30.33,46.0,8:53 PM,,10.0,North,10.4,350,Tulsa,Oklahoma,74104
21,Overcast,2016-03-20 02:53:00,18.0,,-,35,N/A,30.35,44.1,9:53 PM,,10.0,NNW,6.9,340,Tulsa,Oklahoma,74104
22,Partly Cloudy,2016-03-20 03:53:00,17.1,,-,37,N/A,30.37,42.1,10:53 PM,,10.0,NNW,5.8,340,Tulsa,Oklahoma,74104
23,Clear,2016-03-20 04:53:00,19.0,,-,41,N/A,30.38,41.0,11:53 PM,,10.0,North,5.8,350,Tulsa,Oklahoma,74104
0,Clear,2016-03-20 05:53:00,19.9,,-,46,N/A,30.37,39.0,12:53 AM,,10.0,NNW,5.8,330,Tulsa,Oklahoma,74104
1,Clear,2016-03-20 06:53:00,21.0,,-,52,N/A,30.37,37.0,1:53 AM,,10.0,NW,3.5,320,Tulsa,Oklahoma,74104
2,Clear,2016-03-20 07:53:00,21.0,,-,55,N/A,30.38,36.0,2:53 AM,,10.0,NW,4.6,320,Tulsa,Oklahoma,74104
3,Clear,2016-03-20 08:53:00,21.9,,-,57,N/A,30.38,36.0,3:53 AM,,10.0,Variable,5.8,0,Tulsa,Oklahoma,74104
4,Clear,2016-03-20 09:53:00,21.9,,-,59,N/A,30.38,35.1,4:53 AM,,10.0,WNW,6.9,300,Tulsa,Oklahoma,74104
5,Clear,2016-03-20 10:53:00,21.9,,-,61,N/A,30.40,34.0,5:53 AM,,10.0,Variable,4.6,0,Tulsa,Oklahoma,74104
6,Clear,2016-03-20 11:53:00,23.0,,-,66,N/A,30.41,33.1,6:53 AM,,10.0,WNW,4.6,300,Tulsa,Oklahoma,74104
7,Clear,2016-03-20 12:53:00,24.1,,-,67,N/A,30.43,34.0,7:53 AM,,10.0,WNW,3.5,300,Tulsa,Oklahoma,74104
8,Clear,2016-03-20 13:53:00,25.0,,-,62,N/A,30.45,37.0,8:53 AM,,10.0,NW,8.1,320,Tulsa,Oklahoma,74104
9,Clear,2016-03-20 14:53:00,26.1,,17.3,58,N/A,30.46,39.9,9:53 AM,,10.0,NNW,9.2,330,Tulsa,Oklahoma,74104
10,Scattered Clouds,2016-03-20 15:53:00,26.1,,20.7,49,N/A,30.47,44.1,10:53 AM,,10.0,NNW,10.4,340,Tulsa,Oklahoma,74104
11,Partly Cloudy,2016-03-20 16:53:00,26.1,,23.0,42,N/A,30.47,48.0,11:53 AM,,10.0,North,16.1,360,Tulsa,Oklahoma,74104
12,Mostly Cloudy,2016-03-20 17:53:00,24.1,,17.3,41,N/A,30.46,46.9,12:53 PM,,10.0,North,11.5,350,Tulsa,Oklahoma,74104
13,Mostly Cloudy,2016-03-20 18:53:00,21.9,,21.9,33,N/A,30.44,50.0,1:53 PM,,10.0,North,10.4,350,Tulsa,Oklahoma,74104
14,Mostly Cloudy,2016-03-20 19:53:00,21.9,,-,35,N/A,30.42,48.9,2:53 PM,,10.0,NNE,9.2,20,Tulsa,Oklahoma,74104
15,Scattered Clouds,2016-03-20 20:53:00,23.0,,-,32,N/A,30.40,52.0,3:53 PM,,10.0,NNE,6.9,20,Tulsa,Oklahoma,74104
16,Partly Cloudy,2016-03-20 21:53:00,21.9,,16.1,31,N/A,30.39,52.0,4:53 PM,,10.0,NW,10.4,310,Tulsa,Oklahoma,74104
17,Clear,2016-03-20 22:53:00,21.9,,-,31,N/A,30.38,52.0,5:53 PM,,10.0,Variable,5.8,0,Tulsa,Oklahoma,74104
18,Clear,2016-03-20 23:53:00,21.9,,-,32,N/A,30.38,51.1,6:53 PM,,10.0,Calm,Calm,0,Tulsa,Oklahoma,74104
19,Clear,2016-03-21 00:53:00,23.0,,-,40,N/A,30.38,46.0,7:53 PM,,10.0,Calm,Calm,0,Tulsa,Oklahoma,74104
20,Clear,2016-03-21 01:53:00,28.9,,-,65,N/A,30.39,39.9,8:53 PM,,10.0,Calm,Calm,0,Tulsa,Oklahoma,74104
21,Clear,2016-03-21 02:53:00,30.0,,-,70,N/A,30.40,39.0,9:53 PM,,10.0,Calm,Calm,0,Tulsa,Oklahoma,74104
22,Clear,2016-03-21 03:53:00,28.9,,-,73,N/A,30.41,37.0,10:53 PM,,10.0,Calm,Calm,0,Tulsa,Oklahoma,74104
23,Clear,2016-03-21 04:53:00,28.9,,-,78,N/A,30.40,35.1,11:53 PM,,10.0,Calm,Calm,0,Tulsa,Oklahoma,74104
0,Clear,2016-03-21 05:53:00,28.0,,-,82,N/A,30.39,33.1,12:53 AM,,10.0,Calm,Calm,0,Tulsa,Oklahoma,74104
1,Clear,2016-03-21 06:53:00,27.0,,-,82,N/A,30.38,32.0,1:53 AM,,10.0,Calm,Calm,0,Tulsa,Oklahoma,74104
2,Clear,2016-03-21 07:53:00,28.0,,-,89,N/A,30.37,30.9,2:53 AM,,10.0,WSW,3.5,250,Tulsa,Oklahoma,74104
3,Clear,2016-03-21 08:53:00,25.0,,-,85,N/A,30.35,28.9,3:53 AM,,10.0,Calm,Calm,0,Tulsa,Oklahoma,74104
4,Clear,2016-03-21 09:53:00,26.1,,-,85,N/A,30.35,30.0,4:53 AM,,10.0,Calm,Calm,0,Tulsa,Oklahoma,74104
5,Clear,2016-03-21 10:53:00,25.0,,-,75,N/A,30.35,32.0,5:53 AM,,10.0,SW,3.5,220,Tulsa,Oklahoma,74104
6,Clear,2016-03-21 11:53:00,25.0,,-,72,N/A,30.35,33.1,6:53 AM,,10.0,South,3.5,190,Tulsa,Oklahoma,74104
7,Clear,2016-03-21 12:53:00,26.1,,-,67,N/A,30.35,36.0,7:53 AM,,10.0,South,6.9,190,Tulsa,Oklahoma,74104
8,Clear,2016-03-21 13:53:00,27.0,,-,57,N/A,30.34,41.0,8:53 AM,,10.0,South,8.1,190,Tulsa,Oklahoma,74104
9,Clear,2016-03-21 14:53:00,28.0,,25.3,48,N/A,30.33,46.9,9:53 AM,,10.0,SSW,15.0,200,Tulsa,Oklahoma,74104
10,Clear,2016-03-21 15:53:00,27.0,,-,38,N/A,30.32,52.0,10:53 AM,,10.0,South,15.0,190,Tulsa,Oklahoma,74104
11,Clear,2016-03-21 16:53:00,27.0,,19.6,31,N/A,30.30,57.9,11:53 AM,,10.0,South,13.8,190,Tulsa,Oklahoma,74104
12,Clear,2016-03-21 17:53:00,27.0,,25.3,28,N/A,30.27,60.1,12:53 PM,,10.0,SSW,17.3,200,Tulsa,Oklahoma,74104
13,Clear,2016-03-21 18:53:00,30.0,,24.2,29,N/A,30.21,63.0,1:53 PM,,10.0,SSW,18.4,200,Tulsa,Oklahoma,74104
14,Clear,2016-03-21 19:53:00,30.0,,28.8,27,N/A,30.16,64.9,2:53 PM,,10.0,South,19.6,180,Tulsa,Oklahoma,74104
15,Clear,2016-03-21 20:53:00,30.0,,29.9,26,N/A,30.12,66.0,3:53 PM,,10.0,South,19.6,190,Tulsa,Oklahoma,74104
16,Clear,2016-03-21 21:53:00,30.0,,31.1,26,N/A,30.08,66.0,4:53 PM,,10.0,South,18.4,190,Tulsa,Oklahoma,74104
17,Clear,2016-03-21 22:53:00,30.9,,31.1,27,N/A,30.05,66.0,5:53 PM,,10.0,SSW,23.0,210,Tulsa,Oklahoma,74104
18,Clear,2016-03-21 23:53:00,30.9,,23.0,29,N/A,30.06,64.0,6:53 PM,,10.0,SSW,16.1,200,Tulsa,Oklahoma,74104
19,Clear,2016-03-22 00:53:00,30.9,,-,32,N/A,30.06,61.0,7:53 PM,,10.0,South,12.7,190,Tulsa,Oklahoma,74104
20,Clear,2016-03-22 01:53:00,30.9,,-,35,N/A,30.06,59.0,8:53 PM,,10.0,South,11.5,190,Tulsa,Oklahoma,74104
21,Clear,2016-03-22 02:53:00,30.9,,-,36,N/A,30.05,57.9,9:53 PM,,10.0,South,8.1,180,Tulsa,Oklahoma,74104
22,Clear,2016-03-22 03:53:00,34.0,,-,44,N/A,30.04,55.9,10:53 PM,,10.0,South,13.8,180,Tulsa,Oklahoma,74104
23,Clear,2016-03-22 04:53:00,33.1,,-,42,N/A,30.04,55.9,11:53 PM,,10.0,South,12.7,180,Tulsa,Oklahoma,74104
0,Clear,2016-03-22 05:53:00,34.0,,-,47,N/A,30.03,54.0,12:53 AM,,10.0,South,11.5,180,Tulsa,Oklahoma,74104
1,Clear,2016-03-22 06:53:00,34.0,,-,47,N/A,30.01,54.0,1:53 AM,,10.0,South,11.5,190,Tulsa,Oklahoma,74104
2,Clear,2016-03-22 07:53:00,34.0,,21.9,47,N/A,29.98,54.0,2:53 AM,,10.0,South,12.7,190,Tulsa,Oklahoma,74104
3,Clear,2016-03-22 08:53:00,35.1,,-,50,N/A,29.94,53.1,3:53 AM,,10.0,South,13.8,190,Tulsa,Oklahoma,74104
4,Clear,2016-03-22 09:53:00,35.1,,21.9,50,N/A,29.91,53.1,4:53 AM,,10.0,South,15.0,190,Tulsa,Oklahoma,74104
5,Clear,2016-03-22 10:53:00,35.1,,-,53,N/A,29.90,52.0,5:53 AM,,10.0,South,12.7,190,Tulsa,Oklahoma,74104
6,Clear,2016-03-22 11:53:00,35.1,,-,53,N/A,29.89,52.0,6:53 AM,,10.0,South,13.8,180,Tulsa,Oklahoma,74104
7,Clear,2016-03-22 12:53:00,35.1,,24.2,53,N/A,29.88,52.0,7:53 AM,,10.0,South,16.1,190,Tulsa,Oklahoma,74104
8,Clear,2016-03-22 13:53:00,36.0,,26.5,51,N/A,29.87,54.0,8:53 AM,,10.0,South,18.4,190,Tulsa,Oklahoma,74104
9,Clear,2016-03-22 14:53:00,37.0,,27.6,47,N/A,29.87,57.0,9:53 AM,,10.0,South,13.8,190,Tulsa,Oklahoma,74104
10,Clear,2016-03-22 15:53:00,37.9,,29.9,44,N/A,29.86,60.1,10:53 AM,,10.0,South,20.7,190,Tulsa,Oklahoma,74104
11,Clear,2016-03-22 16:53:00,39.0,,33.4,40,N/A,29.85,64.0,11:53 AM,,10.0,South,23.0,190,Tulsa,Oklahoma,74104
12,Clear,2016-03-22 17:53:00,41.0,,35.7,37,N/A,29.81,68.0,12:53 PM,,10.0,South,26.5,190,Tulsa,Oklahoma,74104
13,Clear,2016-03-22 18:53:00,42.1,,36.8,36,N/A,29.77,70.0,1:53 PM,,10.0,South,23.0,180,Tulsa,Oklahoma,74104
14,Clear,2016-03-22 19:53:00,43.0,,34.5,33,N/A,29.74,73.9,2:53 PM,,10.0,South,19.6,180,Tulsa,Oklahoma,74104
15,Light Rain,2016-03-22 20:53:00,43.0,Rain,34.5,32,0.00,29.71,75.0,3:53 PM,,10.0,South,24.2,190,Tulsa,Oklahoma,74104
16,Clear,2016-03-22 21:53:00,44.1,,32.2,33,0.00,29.69,75.0,4:53 PM,,10.0,South,19.6,180,Tulsa,Oklahoma,74104
17,Clear,2016-03-22 22:53:00,45.0,,35.7,37,N/A,29.68,73.0,5:53 PM,,10.0,South,21.9,190,Tulsa,Oklahoma,74104
18,Clear,2016-03-22 23:53:00,46.0,,32.2,41,N/A,29.67,71.1,6:53 PM,,10.0,South,17.3,190,Tulsa,Oklahoma,74104
19,Clear,2016-03-23 00:53:00,48.0,,29.9,47,N/A,29.69,69.1,7:53 PM,,10.0,South,17.3,190,Tulsa,Oklahoma,74104
20,Clear,2016-03-23 01:53:00,48.9,,36.8,49,N/A,29.68,69.1,8:53 PM,,10.0,South,25.3,180,Tulsa,Oklahoma,74104
21,Clear,2016-03-23 02:53:00,50.0,,34.5,52,N/A,29.68,68.0,9:53 PM,,10.0,South,23.0,190,Tulsa,Oklahoma,74104
22,Clear,2016-03-23 03:53:00,50.0,,26.5,54,N/A,29.70,66.9,10:53 PM,,10.0,South,17.3,190,Tulsa,Oklahoma,74104
23,Clear,2016-03-23 04:53:00,51.1,,27.6,57,N/A,29.68,66.9,11:53 PM,,10.0,South,20.7,190,Tulsa,Oklahoma,74104
0,Clear,2016-03-23 05:53:00,52.0,,25.3,60,N/A,29.68,66.0,12:53 AM,,10.0,South,18.4,190,Tulsa,Oklahoma,74104
1,Clear,2016-03-23 06:53:00,52.0,,25.3,63,N/A,29.67,64.9,1:53 AM,,10.0,South,18.4,190,Tulsa,Oklahoma,74104
2,Partly Cloudy,2016-03-23 07:53:00,53.1,,27.6,67,N/A,29.66,64.0,2:53 AM,,10.0,South,18.4,180,Tulsa,Oklahoma,74104
3,Scattered Clouds,2016-03-23 08:53:00,54.0,,28.8,70,N/A,29.64,64.0,3:53 AM,,10.0,South,17.3,190,Tulsa,Oklahoma,74104
4,Mostly Cloudy,2016-03-23 09:23:00,54.0,,-,70,N/A,29.62,64.0,4:23 AM,,10.0,South,18.4,190,Tulsa,Oklahoma,74104
5,Mostly Cloudy,2016-03-23 09:53:00,54.0,,27.6,70,N/A,29.64,64.0,4:53 AM,,10.0,South,17.3,190,Tulsa,Oklahoma,74104
6,Mostly Cloudy,2016-03-23 10:44:00,54.0,,26.5,70,N/A,29.62,64.0,5:44 AM,,10.0,South,18.4,190,Tulsa,Oklahoma,74104
7,Mostly Cloudy,2016-03-23 10:53:00,54.0,,24.2,70,N/A,29.63,64.0,5:53 AM,,10.0,South,17.3,180,Tulsa,Oklahoma,74104
8,Overcast,2016-03-23 11:09:00,54.0,,27.6,70,N/A,29.62,64.0,6:09 AM,,10.0,South,21.9,190,Tulsa,Oklahoma,74104
9,Overcast,2016-03-23 11:31:00,54.0,,23.0,70,N/A,29.62,64.0,6:31 AM,,10.0,South,18.4,180,Tulsa,Oklahoma,74104
10,Mostly Cloudy,2016-03-23 11:53:00,54.0,,27.6,70,N/A,29.65,64.0,6:53 AM,,10.0,South,15.0,190,Tulsa,Oklahoma,74104
11,Mostly Cloudy,2016-03-23 12:22:00,54.0,,28.8,70,N/A,29.63,64.0,7:22 AM,,10.0,South,15.0,190,Tulsa,Oklahoma,74104
12,Mostly Cloudy,2016-03-23 12:41:00,54.0,,26.5,70,N/A,29.64,64.0,7:41 AM,,10.0,South,17.3,190,Tulsa,Oklahoma,74104
13,Overcast,2016-03-23 12:53:00,54.0,,-,70,N/A,29.67,64.0,7:53 AM,,10.0,South,15.0,180,Tulsa,Oklahoma,74104
14,Mostly Cloudy,2016-03-23 13:53:00,55.0,,29.9,70,N/A,29.66,64.9,8:53 AM,,10.0,South,20.7,190,Tulsa,Oklahoma,74104
15,Mostly Cloudy,2016-03-23 14:32:00,55.0,,32.2,68,N/A,29.64,66.0,9:32 AM,,10.0,South,23.0,190,Tulsa,Oklahoma,74104
16,Mostly Cloudy,2016-03-23 14:53:00,55.0,,29.9,63,N/A,29.65,68.0,9:53 AM,,10.0,South,17.3,190,Tulsa,Oklahoma,74104
17,Overcast,2016-03-23 15:53:00,55.0,,34.5,57,N/A,29.65,71.1,10:53 AM,,10.0,South,25.3,190,Tulsa,Oklahoma,74104
18,Mostly Cloudy,2016-03-23 16:53:00,55.0,,34.5,52,N/A,29.63,73.9,11:53 AM,,10.0,SSW,20.7,200,Tulsa,Oklahoma,74104
19,Mostly Cloudy,2016-03-23 17:53:00,55.0,,33.4,48,N/A,29.61,75.9,12:53 PM,,10.0,South,24.2,190,Tulsa,Oklahoma,74104
20,Mostly Cloudy,2016-03-23 18:53:00,55.0,,32.2,47,N/A,29.59,77.0,1:53 PM,,10.0,SSW,21.9,200,Tulsa,Oklahoma,74104
21,Partly Cloudy,2016-03-23 19:53:00,55.0,,31.1,42,N/A,29.56,80.1,2:53 PM,,10.0,South,20.7,190,Tulsa,Oklahoma,74104
22,Partly Cloudy,2016-03-23 20:53:00,55.0,,34.5,41,N/A,29.54,81.0,3:53 PM,,10.0,South,16.1,190,Tulsa,Oklahoma,74104
23,Partly Cloudy,2016-03-23 21:53:00,55.0,,33.4,42,N/A,29.53,80.1,4:53 PM,,10.0,South,20.7,190,Tulsa,Oklahoma,74104
24,Clear,2016-03-23 22:53:00,46.0,,35.7,29,N/A,29.53,81.0,5:53 PM,,10.0,SSW,18.4,210,Tulsa,Oklahoma,74104
25,Clear,2016-03-23 23:53:00,33.1,,25.3,18,N/A,29.53,80.1,6:53 PM,,10.0,SW,18.4,220,Tulsa,Oklahoma,74104
26,Clear,2016-03-24 00:53:00,30.0,,24.2,18,N/A,29.56,77.0,7:53 PM,,10.0,SW,15.0,230,Tulsa,Oklahoma,74104
27,Mostly Cloudy,2016-03-24 01:53:00,27.0,,17.3,17,N/A,29.57,75.0,8:53 PM,,10.0,SW,9.2,220,Tulsa,Oklahoma,74104
28,Mostly Cloudy,2016-03-24 02:53:00,34.0,,25.3,27,N/A,29.65,69.1,9:53 PM,,10.0,WNW,13.8,300,Tulsa,Oklahoma,74104
29,Clear,2016-03-24 03:53:00,36.0,,27.6,38,N/A,29.68,62.1,10:53 PM,,10.0,WNW,12.7,290,Tulsa,Oklahoma,74104
30,Clear,2016-03-24 04:53:00,34.0,,20.7,39,N/A,29.72,59.0,11:53 PM,,10.0,West,11.5,280,Tulsa,Oklahoma,74104
0,Clear,2016-03-24 05:53:00,33.1,,24.2,45,N/A,29.75,54.0,12:53 AM,,8.0,WNW,10.4,290,Tulsa,Oklahoma,74104
1,Clear,2016-03-24 06:53:00,32.0,,20.7,47,N/A,29.76,52.0,1:53 AM,,10.0,West,10.4,270,Tulsa,Oklahoma,74104
2,Clear,2016-03-24 07:53:00,30.9,,21.9,54,N/A,29.79,46.9,2:53 AM,,8.0,Variable,6.9,0,Tulsa,Oklahoma,74104
3,Mostly Cloudy,2016-03-24 08:53:00,33.1,,20.7,63,N/A,29.81,45.0,3:53 AM,,10.0,West,10.4,280,Tulsa,Oklahoma,74104
4,Overcast,2016-03-24 09:09:00,33.1,,21.9,63,N/A,29.77,45.0,4:09 AM,,10.0,West,12.7,280,Tulsa,Oklahoma,74104
5,Overcast,2016-03-24 09:53:00,32.0,,23.0,63,N/A,29.80,44.1,4:53 AM,,10.0,WNW,9.2,290,Tulsa,Oklahoma,74104
6,Overcast,2016-03-24 10:10:00,32.0,,24.2,63,N/A,29.79,44.1,5:10 AM,,10.0,West,10.4,280,Tulsa,Oklahoma,74104
7,Overcast,2016-03-24 10:51:00,30.2,,24.2,61,N/A,29.81,42.8,5:51 AM,,10.0,WNW,11.5,290,Tulsa,Oklahoma,74104
8,Overcast,2016-03-24 10:53:00,30.9,,24.2,62,N/A,29.83,43.0,5:53 AM,,10.0,NW,12.7,310,Tulsa,Oklahoma,74104
9,Overcast,2016-03-24 11:53:00,28.9,,21.9,60,N/A,29.88,42.1,6:53 AM,,10.0,Variable,6.9,0,Tulsa,Oklahoma,74104
10,Overcast,2016-03-24 12:53:00,28.0,,19.6,58,N/A,29.92,42.1,7:53 AM,,10.0,WNW,12.7,290,Tulsa,Oklahoma,74104
11,Overcast,2016-03-24 13:53:00,27.0,,20.7,57,N/A,29.94,41.0,8:53 AM,,10.0,NW,9.2,310,Tulsa,Oklahoma,74104
12,Overcast,2016-03-24 14:53:00,28.0,,18.4,58,N/A,29.97,42.1,9:53 AM,,10.0,NW,9.2,320,Tulsa,Oklahoma,74104
13,Overcast,2016-03-24 15:53:00,28.0,,17.3,56,N/A,29.98,43.0,10:53 AM,,10.0,NW,9.2,320,Tulsa,Oklahoma,74104
14,Overcast,2016-03-24 16:53:00,28.0,,19.6,50,N/A,29.98,46.0,11:53 AM,,10.0,NNW,9.2,330,Tulsa,Oklahoma,74104
15,Scattered Clouds,2016-03-24 17:53:00,30.9,,18.4,45,N/A,29.98,52.0,12:53 PM,,10.0,NW,9.2,320,Tulsa,Oklahoma,74104
16,Clear,2016-03-24 18:53:00,30.9,,23.0,40,N/A,29.96,55.0,1:53 PM,,10.0,NW,11.5,310,Tulsa,Oklahoma,74104
17,Clear,2016-03-24 19:53:00,32.0,,25.3,37,N/A,29.96,57.9,2:53 PM,,10.0,NNW,10.4,340,Tulsa,Oklahoma,74104
18,Clear,2016-03-24 20:53:00,32.0,,17.3,35,N/A,29.94,60.1,3:53 PM,,10.0,NNW,9.2,330,Tulsa,Oklahoma,74104
19,Clear,2016-03-24 21:53:00,30.9,,20.7,33,N/A,29.94,60.1,4:53 PM,,10.0,NNW,8.1,340,Tulsa,Oklahoma,74104
20,Clear,2016-03-24 22:53:00,30.9,,19.6,33,N/A,29.94,60.1,5:53 PM,,10.0,NNW,9.2,340,Tulsa,Oklahoma,74104
21,Clear,2016-03-24 23:53:00,30.0,,-,35,N/A,29.96,57.9,6:53 PM,,10.0,Variable,5.8,0,Tulsa,Oklahoma,74104
22,Clear,2016-03-25 00:53:00,28.9,,-,37,N/A,29.97,55.0,7:53 PM,,8.0,WNW,4.6,300,Tulsa,Oklahoma,74104
23,Clear,2016-03-25 01:53:00,28.9,,-,43,N/A,29.99,51.1,8:53 PM,,10.0,Calm,Calm,0,Tulsa,Oklahoma,74104
24,Clear,2016-03-25 02:53:00,30.9,,-,54,N/A,30.02,46.9,9:53 PM,,10.0,WNW,3.5,300,Tulsa,Oklahoma,74104
25,Clear,2016-03-25 03:53:00,30.0,,-,58,N/A,30.03,44.1,10:53 PM,,10.0,NW,3.5,310,Tulsa,Oklahoma,74104
26,Clear,2016-03-25 04:53:00,28.9,,-,60,N/A,30.03,42.1,11:53 PM,,10.0,Calm,Calm,0,Tulsa,Oklahoma,74104
0,Clear,2016-03-25 05:53:00,28.9,,-,70,N/A,30.03,37.9,12:53 AM,,10.0,Calm,Calm,0,Tulsa,Oklahoma,74104
1,Clear,2016-03-25 06:53:00,28.9,,-,73,N/A,30.03,37.0,1:53 AM,,10.0,Calm,Calm,0,Tulsa,Oklahoma,74104
2,Clear,2016-03-25 07:53:00,30.0,,-,82,N/A,30.03,35.1,2:53 AM,,10.0,Calm,Calm,0,Tulsa,Oklahoma,74104
3,Clear,2016-03-25 08:53:00,28.9,,-,82,N/A,30.02,34.0,3:53 AM,,10.0,Calm,Calm,0,Tulsa,Oklahoma,74104
4,Clear,2016-03-25 09:53:00,28.9,,-,82,N/A,30.01,34.0,4:53 AM,,10.0,Calm,Calm,0,Tulsa,Oklahoma,74104
5,Clear,2016-03-25 10:53:00,28.9,,-,88,N/A,30.01,32.0,5:53 AM,,10.0,Calm,Calm,0,Tulsa,Oklahoma,74104
6,Clear,2016-03-25 11:53:00,28.9,,-,88,N/A,30.01,32.0,6:53 AM,,10.0,Calm,Calm,0,Tulsa,Oklahoma,74104
7,Clear,2016-03-25 12:53:00,32.0,,-,89,N/A,30.03,35.1,7:53 AM,,10.0,Calm,Calm,0,Tulsa,Oklahoma,74104
8,Clear,2016-03-25 13:53:00,35.1,,-,76,N/A,30.04,42.1,8:53 AM,,10.0,Calm,Calm,0,Tulsa,Oklahoma,74104
9,Haze,2016-03-25 14:53:00,34.0,,-,61,N/A,30.04,46.9,9:53 AM,,6.0,SSE,4.6,160,Tulsa,Oklahoma,74104
10,Clear,2016-03-25 15:53:00,34.0,,-,52,N/A,30.03,51.1,10:53 AM,,10.0,SSE,4.6,160,Tulsa,Oklahoma,74104
11,Clear,2016-03-25 16:53:00,32.0,,-,42,N/A,30.01,55.0,11:53 AM,,10.0,Variable,5.8,0,Tulsa,Oklahoma,74104
12,Clear,2016-03-25 17:53:00,30.9,,-,36,N/A,29.99,57.9,12:53 PM,,10.0,South,4.6,170,Tulsa,Oklahoma,74104
13,Clear,2016-03-25 18:53:00,33.1,,-,35,N/A,29.95,61.0,1:53 PM,,10.0,East,9.2,100,Tulsa,Oklahoma,74104
14,Clear,2016-03-25 19:53:00,32.0,,-,31,N/A,29.91,63.0,2:53 PM,,10.0,ESE,9.2,120,Tulsa,Oklahoma,74104
15,Clear,2016-03-25 20:53:00,33.1,,-,31,N/A,29.88,64.0,3:53 PM,,10.0,ESE,12.7,110,Tulsa,Oklahoma,74104
16,Clear,2016-03-25 21:53:00,32.0,,19.6,29,N/A,29.86,64.9,4:53 PM,,10.0,SE,16.1,130,Tulsa,Oklahoma,74104
17,Clear,2016-03-25 22:53:00,30.9,,19.6,28,N/A,29.86,64.9,5:53 PM,,10.0,SE,11.5,140,Tulsa,Oklahoma,74104
18,Clear,2016-03-25 23:53:00,30.9,,18.4,30,N/A,29.85,63.0,6:53 PM,,10.0,SE,10.4,130,Tulsa,Oklahoma,74104
19,Clear,2016-03-26 00:37:00,33.1,,-,35,N/A,29.84,61.0,7:37 PM,,10.0,ESE,11.5,120,Tulsa,Oklahoma,74104
20,Clear,2016-03-26 00:39:00,33.1,,19.6,36,N/A,29.84,60.1,7:39 PM,,10.0,SE,10.4,130,Tulsa,Oklahoma,74104
21,Clear,2016-03-26 00:53:00,33.1,,-,38,N/A,29.86,59.0,7:53 PM,,10.0,SE,10.4,130,Tulsa,Oklahoma,74104
22,Clear,2016-03-26 01:53:00,33.1,,-,38,N/A,29.86,59.0,8:53 PM,,10.0,SE,9.2,140,Tulsa,Oklahoma,74104
23,Clear,2016-03-26 02:53:00,33.1,,-,40,N/A,29.88,57.0,9:53 PM,,10.0,SE,6.9,140,Tulsa,Oklahoma,74104
24,Clear,2016-03-26 03:53:00,35.1,,-,47,N/A,29.90,55.0,10:53 PM,,10.0,SE,4.6,140,Tulsa,Oklahoma,74104
25,Clear,2016-03-26 04:53:00,37.9,,-,53,N/A,29.91,55.0,11:53 PM,,10.0,SE,5.8,140,Tulsa,Oklahoma,74104
0,Clear,2016-03-26 05:53:00,39.0,,-,59,N/A,29.91,53.1,12:53 AM,,10.0,SE,8.1,130,Tulsa,Oklahoma,74104
1,Clear,2016-03-26 06:53:00,39.9,,-,66,N/A,29.91,51.1,1:53 AM,,10.0,SSE,4.6,150,Tulsa,Oklahoma,74104
2,Clear,2016-03-26 07:53:00,39.0,,-,63,N/A,29.92,51.1,2:53 AM,,10.0,Calm,Calm,0,Tulsa,Oklahoma,74104
3,Clear,2016-03-26 08:53:00,39.0,,-,66,N/A,29.91,50.0,3:53 AM,,10.0,SE,6.9,140,Tulsa,Oklahoma,74104
4,Clear,2016-03-26 09:53:00,39.0,,-,66,N/A,29.91,50.0,4:53 AM,,10.0,SSE,5.8,150,Tulsa,Oklahoma,74104
5,Clear,2016-03-26 10:53:00,39.0,,-,69,N/A,29.92,48.9,5:53 AM,,10.0,SSE,9.2,150,Tulsa,Oklahoma,74104
6,Clear,2016-03-26 11:53:00,39.0,,-,71,N/A,29.91,48.0,6:53 AM,,10.0,SE,5.8,140,Tulsa,Oklahoma,74104
7,Partly Cloudy,2016-03-26 12:53:00,39.0,,-,74,N/A,29.92,46.9,7:53 AM,,10.0,SE,4.6,130,Tulsa,Oklahoma,74104
8,Clear,2016-03-26 13:53:00,39.9,,-,68,N/A,29.94,50.0,8:53 AM,,10.0,SSE,8.1,160,Tulsa,Oklahoma,74104
9,Partly Cloudy,2016-03-26 14:53:00,39.9,,18.4,66,N/A,29.94,51.1,9:53 AM,,10.0,South,10.4,170,Tulsa,Oklahoma,74104
10,Clear,2016-03-26 15:53:00,42.1,,19.6,60,N/A,29.97,55.9,10:53 AM,,10.0,South,12.7,170,Tulsa,Oklahoma,74104
11,Clear,2016-03-26 16:53:00,44.1,,-,50,N/A,29.96,63.0,11:53 AM,,10.0,South,11.5,190,Tulsa,Oklahoma,74104
12,Clear,2016-03-26 17:53:00,44.1,,24.2,40,N/A,29.95,69.1,12:53 PM,,10.0,South,17.3,190,Tulsa,Oklahoma,74104
13,Scattered Clouds,2016-03-26 18:53:00,43.0,,21.9,35,N/A,29.92,72.0,1:53 PM,,10.0,SSW,15.0,200,Tulsa,Oklahoma,74104
14,Clear,2016-03-26 19:53:00,43.0,,-,34,N/A,29.90,73.0,2:53 PM,,10.0,South,15.0,180,Tulsa,Oklahoma,74104
15,Clear,2016-03-26 20:53:00,43.0,,-,34,N/A,29.88,73.0,3:53 PM,,10.0,SSW,10.4,210,Tulsa,Oklahoma,74104
16,Clear,2016-03-26 21:53:00,43.0,,17.3,33,N/A,29.88,73.9,4:53 PM,,10.0,SSW,10.4,200,Tulsa,Oklahoma,74104
17,Clear,2016-03-26 22:53:00,44.1,,-,35,N/A,29.88,73.0,5:53 PM,,10.0,Variable,4.6,0,Tulsa,Oklahoma,74104
18,Clear,2016-03-26 23:53:00,45.0,,-,39,N/A,29.90,71.1,6:53 PM,,10.0,SSW,6.9,210,Tulsa,Oklahoma,74104
19,Clear,2016-03-27 00:53:00,45.0,,-,45,N/A,29.92,66.9,7:53 PM,,10.0,SE,6.9,130,Tulsa,Oklahoma,74104
20,Mostly Cloudy,2016-03-27 01:53:00,46.0,,-,56,N/A,29.94,62.1,8:53 PM,,10.0,Calm,Calm,0,Tulsa,Oklahoma,74104
21,Scattered Clouds,2016-03-27 02:53:00,46.0,,-,52,N/A,29.96,64.0,9:53 PM,,10.0,SE,4.6,130,Tulsa,Oklahoma,74104
22,Scattered Clouds,2016-03-27 03:53:00,46.0,,-,62,N/A,29.97,59.0,10:53 PM,,10.0,Calm,Calm,0,Tulsa,Oklahoma,74104
23,Mostly Cloudy,2016-03-27 04:53:00,45.0,,21.9,62,N/A,30.01,57.9,11:53 PM,,10.0,NNE,15.0,20,Tulsa,Oklahoma,74104
0,Scattered Clouds,2016-03-27 05:53:00,42.1,,24.2,69,N/A,30.03,52.0,12:53 AM,,9.0,North,15.0,10,Tulsa,Oklahoma,74104
1,Overcast,2016-03-27 06:53:00,41.0,,23.0,68,N/A,30.01,51.1,1:53 AM,,10.0,North,15.0,360,Tulsa,Oklahoma,74104
2,Partly Cloudy,2016-03-27 07:53:00,39.9,,-,68,N/A,30.01,50.0,2:53 AM,,10.0,North,8.1,360,Tulsa,Oklahoma,74104
3,Overcast,2016-03-27 08:53:00,39.0,,18.4,71,N/A,30.09,48.0,3:53 AM,,10.0,NNW,9.2,340,Tulsa,Oklahoma,74104
4,Overcast,2016-03-27 09:08:00,39.0,,18.4,69,N/A,30.06,48.9,4:08 AM,,10.0,Variable,5.8,0,Tulsa,Oklahoma,74104
5,Mostly Cloudy,2016-03-27 09:26:00,37.9,,17.3,71,N/A,30.02,46.9,4:26 AM,,10.0,Variable,6.9,0,Tulsa,Oklahoma,74104
6,Mostly Cloudy,2016-03-27 09:53:00,37.9,,-,73,N/A,30.07,46.0,4:53 AM,,10.0,NNW,8.1,330,Tulsa,Oklahoma,74104
7,Overcast,2016-03-27 10:00:00,37.0,,19.6,71,N/A,30.03,46.0,5:00 AM,,10.0,North,9.2,350,Tulsa,Oklahoma,74104
8,Overcast,2016-03-27 10:53:00,36.0,,21.9,73,N/A,30.09,44.1,5:53 AM,,10.0,NNW,9.2,330,Tulsa,Oklahoma,74104
9,Light Rain,2016-03-27 11:53:00,37.0,Rain,23.0,80,0.00,30.14,43.0,6:53 AM,,10.0,NNW,8.1,330,Tulsa,Oklahoma,74104
10,Light Rain,2016-03-27 12:34:00,37.0,Rain,-,86,0.00,30.12,41.0,7:34 AM,,10.0,North,12.7,350,Tulsa,Oklahoma,74104
11,Light Rain,2016-03-27 12:42:00,37.0,Rain,23.0,86,0.01,30.09,41.0,7:42 AM,,10.0,North,9.2,350,Tulsa,Oklahoma,74104
12,Rain,2016-03-27 12:53:00,37.9,Rain,-,89,0.04,30.10,41.0,7:53 AM,,3.0,NNE,8.1,20,Tulsa,Oklahoma,74104
13,Rain,2016-03-27 13:02:00,37.9,Rain,-,89,0.03,30.07,41.0,8:02 AM,,2.5,NNE,11.5,30,Tulsa,Oklahoma,74104
14,Light Thunderstorms and Rain,2016-03-27 13:05:00,37.9,Rain-Thunderstorm,-,93,0.03,30.08,39.9,8:05 AM,,3.0,NNE,10.4,30,Tulsa,Oklahoma,74104
15,Light Rain,2016-03-27 13:25:00,39.0,Rain,-,93,0.03,30.11,41.0,8:25 AM,,10.0,Calm,Calm,0,Tulsa,Oklahoma,74104
16,Light Rain,2016-03-27 13:53:00,37.9,Rain,-,89,0.04,30.15,41.0,8:53 AM,,9.0,NNW,8.1,330,Tulsa,Oklahoma,74104
17,Overcast,2016-03-27 14:17:00,37.9,,-,89,0.00,30.14,41.0,9:17 AM,,10.0,NNW,8.1,330,Tulsa,Oklahoma,74104
18,Overcast,2016-03-27 14:53:00,37.9,,17.3,89,0.00,30.16,41.0,9:53 AM,,10.0,NNW,6.9,330,Tulsa,Oklahoma,74104
19,Overcast,2016-03-27 15:53:00,37.9,,-,85,N/A,30.19,42.1,10:53 AM,,10.0,NNW,9.2,330,Tulsa,Oklahoma,74104
20,Overcast,2016-03-27 16:53:00,37.0,,-,76,N/A,30.20,44.1,11:53 AM,,10.0,Variable,5.8,0,Tulsa,Oklahoma,74104
21,Overcast,2016-03-27 17:37:00,37.9,,-,76,N/A,30.19,45.0,12:37 PM,,10.0,North,10.4,350,Tulsa,Oklahoma,74104
22,Overcast,2016-03-27 17:53:00,37.9,,17.3,73,N/A,30.21,46.0,12:53 PM,,10.0,North,9.2,350,Tulsa,Oklahoma,74104
23,Overcast,2016-03-27 18:53:00,37.9,,-,68,N/A,30.19,48.0,1:53 PM,,10.0,NW,10.4,310,Tulsa,Oklahoma,74104
24,Mostly Cloudy,2016-03-27 19:53:00,39.0,,-,59,N/A,30.17,53.1,2:53 PM,,10.0,North,9.2,360,Tulsa,Oklahoma,74104
25,Overcast,2016-03-27 20:00:00,39.0,,-,59,N/A,30.16,53.1,3:00 PM,,10.0,NNW,8.1,340,Tulsa,Oklahoma,74104
26,Mostly Cloudy,2016-03-27 20:53:00,37.9,,-,49,N/A,30.15,57.0,3:53 PM,,10.0,Variable,5.8,0,Tulsa,Oklahoma,74104
27,Partly Cloudy,2016-03-27 21:53:00,36.0,,-,42,N/A,30.13,59.0,4:53 PM,,10.0,Variable,6.9,0,Tulsa,Oklahoma,74104
28,Clear,2016-03-27 22:53:00,33.1,,-,38,N/A,30.14,59.0,5:53 PM,,10.0,Variable,4.6,0,Tulsa,Oklahoma,74104
29,Clear,2016-03-27 23:53:00,32.0,,-,39,N/A,30.14,57.0,6:53 PM,,10.0,Variable,4.6,0,Tulsa,Oklahoma,74104
30,Clear,2016-03-28 00:53:00,30.9,,-,43,N/A,30.15,53.1,7:53 PM,,10.0,Calm,Calm,0,Tulsa,Oklahoma,74104
31,Clear,2016-03-28 01:53:00,33.1,,-,59,N/A,30.17,46.9,8:53 PM,,10.0,NW,3.5,310,Tulsa,Oklahoma,74104
32,Clear,2016-03-28 02:53:00,33.1,,-,63,N/A,30.19,45.0,9:53 PM,,10.0,Calm,Calm,0,Tulsa,Oklahoma,74104
33,Clear,2016-03-28 03:53:00,35.1,,-,79,N/A,30.21,41.0,10:53 PM,,10.0,Calm,Calm,0,Tulsa,Oklahoma,74104
34,Clear,2016-03-28 04:53:00,34.0,,-,82,N/A,30.21,39.0,11:53 PM,,10.0,Calm,Calm,0,Tulsa,Oklahoma,74104
0,Clear,2016-03-28 05:53:00,34.0,,-,89,N/A,30.21,37.0,12:53 AM,,10.0,Calm,Calm,0,Tulsa,Oklahoma,74104
1,Clear,2016-03-28 06:53:00,33.1,,-,89,N/A,30.21,36.0,1:53 AM,,10.0,Calm,Calm,0,Tulsa,Oklahoma,74104
2,Clear,2016-03-28 07:53:00,32.0,,-,92,N/A,30.19,34.0,2:53 AM,,10.0,Calm,Calm,0,Tulsa,Oklahoma,74104
3,Clear,2016-03-28 08:53:00,30.9,,-,89,N/A,30.18,34.0,3:53 AM,,10.0,Calm,Calm,0,Tulsa,Oklahoma,74104
4,Clear,2016-03-28 09:53:00,30.0,,-,89,N/A,30.18,33.1,4:53 AM,,9.0,Calm,Calm,0,Tulsa,Oklahoma,74104
5,Clear,2016-03-28 10:53:00,30.0,,-,92,N/A,30.19,32.0,5:53 AM,,10.0,Calm,Calm,0,Tulsa,Oklahoma,74104
6,Clear,2016-03-28 11:53:00,28.9,,-,92,N/A,30.20,30.9,6:53 AM,,10.0,Calm,Calm,0,Tulsa,Oklahoma,74104
7,Clear,2016-03-28 12:53:00,32.0,,-,96,N/A,30.21,33.1,7:53 AM,,10.0,Calm,Calm,0,Tulsa,Oklahoma,74104
8,Clear,2016-03-28 13:53:00,35.1,,-,83,N/A,30.21,39.9,8:53 AM,,10.0,Calm,Calm,0,Tulsa,Oklahoma,74104
9,Clear,2016-03-28 14:53:00,36.0,,-,63,N/A,30.21,48.0,9:53 AM,,10.0,Calm,Calm,0,Tulsa,Oklahoma,74104
10,Clear,2016-03-28 15:53:00,35.1,,-,47,N/A,30.21,55.0,10:53 AM,,10.0,South,6.9,170,Tulsa,Oklahoma,74104
11,Clear,2016-03-28 16:53:00,35.1,,-,42,N/A,30.20,57.9,11:53 AM,,10.0,ESE,9.2,110,Tulsa,Oklahoma,74104
12,Clear,2016-03-28 17:53:00,34.0,,-,35,N/A,30.17,62.1,12:53 PM,,10.0,SE,9.2,140,Tulsa,Oklahoma,74104
13,Clear,2016-03-28 18:53:00,30.9,,-,28,N/A,30.14,64.9,1:53 PM,,10.0,SSE,8.1,150,Tulsa,Oklahoma,74104
14,Clear,2016-03-28 19:53:00,33.1,,-,28,N/A,30.11,66.9,2:53 PM,,10.0,SE,10.4,140,Tulsa,Oklahoma,74104
15,Clear,2016-03-28 20:53:00,33.1,,-,26,N/A,30.08,69.1,3:53 PM,,10.0,ESE,10.4,120,Tulsa,Oklahoma,74104
16,Clear,2016-03-28 21:53:00,27.0,,-,21,N/A,30.06,69.1,4:53 PM,,10.0,SSE,6.9,160,Tulsa,Oklahoma,74104
17,Clear,2016-03-28 22:53:00,19.9,,-,15,N/A,30.03,69.1,5:53 PM,,10.0,SSE,11.5,160,Tulsa,Oklahoma,74104
18,Clear,2016-03-28 23:53:00,24.1,,-,19,N/A,30.04,68.0,6:53 PM,,10.0,South,9.2,170,Tulsa,Oklahoma,74104
19,Clear,2016-03-29 00:53:00,30.9,,-,31,N/A,30.04,62.1,7:53 PM,,10.0,SE,8.1,130,Tulsa,Oklahoma,74104
20,Clear,2016-03-29 01:53:00,30.0,,-,32,N/A,30.04,60.1,8:53 PM,,10.0,SE,8.1,130,Tulsa,Oklahoma,74104
21,Clear,2016-03-29 02:53:00,30.9,,-,39,N/A,30.05,55.9,9:53 PM,,10.0,ESE,6.9,120,Tulsa,Oklahoma,74104
22,Clear,2016-03-29 03:53:00,30.0,,-,35,N/A,30.06,57.9,10:53 PM,,10.0,SE,8.1,140,Tulsa,Oklahoma,74104
23,Clear,2016-03-29 04:53:00,32.0,,-,43,N/A,30.07,54.0,11:53 PM,,10.0,SSE,5.8,160,Tulsa,Oklahoma,74104
0,Clear,2016-03-29 05:53:00,34.0,,-,45,N/A,30.07,55.0,12:53 AM,,10.0,SSE,6.9,150,Tulsa,Oklahoma,74104
1,Clear,2016-03-29 06:53:00,35.1,,-,50,N/A,30.08,53.1,1:53 AM,,10.0,South,3.5,170,Tulsa,Oklahoma,74104
2,Clear,2016-03-29 07:53:00,36.0,,-,71,N/A,30.09,45.0,2:53 AM,,10.0,Calm,Calm,0,Tulsa,Oklahoma,74104
3,Clear,2016-03-29 08:53:00,35.1,,-,66,N/A,30.08,46.0,3:53 AM,,10.0,SE,3.5,130,Tulsa,Oklahoma,74104
4,Clear,2016-03-29 09:53:00,35.1,,-,57,N/A,30.06,50.0,4:53 AM,,10.0,SE,9.2,140,Tulsa,Oklahoma,74104
5,Clear,2016-03-29 10:53:00,34.0,,-,54,N/A,30.07,50.0,5:53 AM,,10.0,SE,4.6,140,Tulsa,Oklahoma,74104
6,Clear,2016-03-29 11:53:00,35.1,,-,76,N/A,30.08,42.1,6:53 AM,,10.0,Calm,Calm,0,Tulsa,Oklahoma,74104
7,Clear,2016-03-29 12:53:00,34.0,,-,54,N/A,30.11,50.0,7:53 AM,,10.0,SSE,8.1,150,Tulsa,Oklahoma,74104
8,Overcast,2016-03-29 13:53:00,34.0,,23.0,47,N/A,30.11,54.0,8:53 AM,,10.0,SSE,12.7,150,Tulsa,Oklahoma,74104
9,Overcast,2016-03-29 14:53:00,34.0,,20.7,45,N/A,30.09,55.0,9:53 AM,,10.0,SSE,11.5,160,Tulsa,Oklahoma,74104
10,Overcast,2016-03-29 15:53:00,34.0,,-,38,N/A,30.10,60.1,10:53 AM,,10.0,South,13.8,170,Tulsa,Oklahoma,74104
11,Mostly Cloudy,2016-03-29 16:53:00,35.1,,25.3,34,N/A,30.07,64.0,11:53 AM,,10.0,SE,16.1,140,Tulsa,Oklahoma,74104
12,Mostly Cloudy,2016-03-29 17:53:00,36.0,,23.0,32,N/A,30.04,66.9,12:53 PM,,10.0,SE,12.7,140,Tulsa,Oklahoma,74104
13,Mostly Cloudy,2016-03-29 18:53:00,37.0,,25.3,30,N/A,30.01,70.0,1:53 PM,,10.0,SE,19.6,140,Tulsa,Oklahoma,74104
14,Clear,2016-03-29 19:53:00,39.9,,31.1,30,N/A,29.95,73.0,2:53 PM,,10.0,SSE,16.1,160,Tulsa,Oklahoma,74104
15,Clear,2016-03-29 20:53:00,41.0,,25.3,29,N/A,29.91,75.0,3:53 PM,,10.0,SSE,16.1,150,Tulsa,Oklahoma,74104
16,Clear,2016-03-29 21:53:00,39.9,,27.6,28,N/A,29.88,75.0,4:53 PM,,10.0,South,17.3,170,Tulsa,Oklahoma,74104
17,Clear,2016-03-29 22:53:00,42.1,,26.5,31,N/A,29.86,75.0,5:53 PM,,10.0,South,18.4,170,Tulsa,Oklahoma,74104
18,Clear,2016-03-29 23:53:00,43.0,,21.9,34,N/A,29.86,73.0,6:53 PM,,10.0,SSE,13.8,150,Tulsa,Oklahoma,74104
19,Mostly Cloudy,2016-03-30 00:53:00,42.1,,21.9,35,N/A,29.85,71.1,7:53 PM,,10.0,SSE,11.5,150,Tulsa,Oklahoma,74104
20,Overcast,2016-03-30 01:53:00,44.1,,-,39,N/A,29.86,70.0,8:53 PM,,10.0,SSE,13.8,160,Tulsa,Oklahoma,74104
21,Overcast,2016-03-30 02:53:00,46.0,,21.9,44,N/A,29.88,69.1,9:53 PM,,10.0,South,12.7,170,Tulsa,Oklahoma,74104
22,Overcast,2016-03-30 03:53:00,45.0,,-,43,N/A,29.87,68.0,10:53 PM,,10.0,South,15.0,170,Tulsa,Oklahoma,74104
23,Overcast,2016-03-30 04:53:00,46.0,,20.7,47,N/A,29.86,66.9,11:53 PM,,10.0,South,11.5,170,Tulsa,Oklahoma,74104
0,Overcast,2016-03-30 05:53:00,48.0,,-,51,N/A,29.84,66.9,12:53 AM,,10.0,SSE,11.5,160,Tulsa,Oklahoma,74104
1,Scattered Clouds,2016-03-30 06:53:00,50.0,,20.7,56,N/A,29.83,66.0,1:53 AM,,10.0,South,13.8,170,Tulsa,Oklahoma,74104
2,Overcast,2016-03-30 07:37:00,51.1,,20.7,59,N/A,29.80,66.0,2:37 AM,,10.0,SSE,12.7,160,Tulsa,Oklahoma,74104
3,Overcast,2016-03-30 07:53:00,51.1,,21.9,59,N/A,29.81,66.0,2:53 AM,,10.0,South,15.0,170,Tulsa,Oklahoma,74104
4,Overcast,2016-03-30 08:53:00,53.1,,-,63,N/A,29.78,66.0,3:53 AM,,10.0,South,12.7,170,Tulsa,Oklahoma,74104
5,Overcast,2016-03-30 09:53:00,54.0,,-,65,N/A,29.77,66.0,4:53 AM,,10.0,South,11.5,170,Tulsa,Oklahoma,74104
6,Overcast,2016-03-30 10:53:00,55.9,,-,70,N/A,29.75,66.0,5:53 AM,,10.0,South,11.5,170,Tulsa,Oklahoma,74104
7,Light Rain,2016-03-30 11:53:00,57.9,Rain,-,75,0.00,29.76,66.0,6:53 AM,,10.0,South,9.2,170,Tulsa,Oklahoma,74104
8,Overcast,2016-03-30 12:53:00,59.0,,-,78,0.00,29.76,66.0,7:53 AM,,10.0,South,6.9,170,Tulsa,Oklahoma,74104
9,Overcast,2016-03-30 13:53:00,60.1,,-,84,N/A,29.75,64.9,8:53 AM,,10.0,South,12.7,170,Tulsa,Oklahoma,74104
10,Overcast,2016-03-30 14:53:00,60.1,,-,81,N/A,29.75,66.0,9:53 AM,,10.0,South,9.2,170,Tulsa,Oklahoma,74104
11,Overcast,2016-03-30 15:53:00,62.1,,20.7,84,N/A,29.74,66.9,10:53 AM,,10.0,South,12.7,170,Tulsa,Oklahoma,74104
12,Light Rain,2016-03-30 16:33:00,63.0,Rain-Thunderstorm,-,87,0.02,29.70,66.9,11:33 AM,,10.0,South,9.2,170,Tulsa,Oklahoma,74104
13,Light Thunderstorms and Rain,2016-03-30 16:48:00,62.6,Rain-Thunderstorm,-,88,0.04,29.68,66.2,11:48 AM,,5.0,South,5.8,180,Tulsa,Oklahoma,74104
14,Light Thunderstorms and Rain,2016-03-30 16:53:00,64.0,Rain-Thunderstorm,-,90,0.04,29.69,66.9,11:53 AM,,5.0,South,5.8,170,Tulsa,Oklahoma,74104
15,Thunderstorm,2016-03-30 17:08:00,64.0,Thunderstorm,-,90,0.00,29.68,66.9,12:08 PM,,10.0,SE,5.8,140,Tulsa,Oklahoma,74104
16,Overcast,2016-03-30 17:28:00,64.0,Thunderstorm,20.7,87,0.01,29.64,68.0,12:28 PM,,10.0,SSE,9.2,160,Tulsa,Oklahoma,74104
17,Mostly Cloudy,2016-03-30 17:49:00,64.4,,-,83,0.01,29.64,69.8,12:49 PM,,10.0,South,8.1,170,Tulsa,Oklahoma,74104
18,Mostly Cloudy,2016-03-30 17:53:00,64.0,,-,81,0.01,29.66,70.0,12:53 PM,,10.0,South,11.5,170,Tulsa,Oklahoma,74104
19,Mostly Cloudy,2016-03-30 18:16:00,64.9,Thunderstorm,24.2,76,N/A,29.63,73.0,1:16 PM,,10.0,South,16.1,190,Tulsa,Oklahoma,74104
20,Thunderstorm,2016-03-30 18:35:00,63.0,Thunderstorm,-,73,N/A,29.63,72.0,1:35 PM,,10.0,South,16.1,190,Tulsa,Oklahoma,74104
21,Heavy Thunderstorms and Rain,2016-03-30 18:47:00,64.4,Rain-Thunderstorm,-,83,0.08,29.64,69.8,1:47 PM,,2.5,South,11.5,190,Tulsa,Oklahoma,74104
22,Light Thunderstorms and Rain,2016-03-30 18:53:00,64.0,Rain-Thunderstorm,18.4,84,0.10,29.65,69.1,1:53 PM,,3.0,SSW,12.7,200,Tulsa,Oklahoma,74104
23,Light Thunderstorms and Rain,2016-03-30 19:18:00,63.0,Rain-Thunderstorm,25.3,84,0.06,29.56,68.0,2:18 PM,,5.0,SSE,18.4,160,Tulsa,Oklahoma,74104
24,Clear,2016-03-30 19:42:00,57.0,Thunderstorm,-,81,0.06,29.59,63.0,2:42 PM,,10.0,South,8.1,170,Tulsa,Oklahoma,74104
25,Partly Cloudy,2016-03-30 19:53:00,57.9,Thunderstorm,-,84,0.06,29.61,63.0,2:53 PM,,10.0,SSE,6.9,150,Tulsa,Oklahoma,74104
26,Clear,2016-03-30 20:06:00,60.1,,-,84,N/A,29.59,64.9,3:06 PM,,10.0,South,8.1,170,Tulsa,Oklahoma,74104
27,Clear,2016-03-30 20:53:00,64.9,,21.9,73,N/A,29.56,73.9,3:53 PM,,10.0,South,13.8,180,Tulsa,Oklahoma,74104
28,Mostly Cloudy,2016-03-30 21:37:00,66.0,,19.6,73,N/A,29.51,75.0,4:37 PM,,10.0,SSE,10.4,160,Tulsa,Oklahoma,74104
29,Mostly Cloudy,2016-03-30 21:53:00,66.9,,-,71,N/A,29.51,77.0,4:53 PM,,10.0,South,13.8,180,Tulsa,Oklahoma,74104
30,Scattered Clouds,2016-03-30 22:01:00,66.0,,20.7,69,N/A,29.50,77.0,5:01 PM,,10.0,South,16.1,180,Tulsa,Oklahoma,74104
31,Partly Cloudy,2016-03-30 22:53:00,66.0,,-,66,N/A,29.50,78.1,5:53 PM,,10.0,South,11.5,170,Tulsa,Oklahoma,74104
32,Clear,2016-03-30 23:53:00,64.9,,-,66,N/A,29.48,77.0,6:53 PM,,10.0,South,11.5,170,Tulsa,Oklahoma,74104
33,Clear,2016-03-31 00:01:00,64.0,Thunderstorm,-,64,N/A,29.47,77.0,7:01 PM,,10.0,South,6.9,170,Tulsa,Oklahoma,74104
34,Thunderstorm,2016-03-31 00:18:00,63.0,Thunderstorm,-,62,N/A,29.47,77.0,7:18 PM,,10.0,South,9.2,180,Tulsa,Oklahoma,74104
35,Partly Cloudy,2016-03-31 00:42:00,63.0,Thunderstorm,-,62,N/A,29.47,77.0,7:42 PM,,10.0,South,13.8,180,Tulsa,Oklahoma,74104
36,Partly Cloudy,2016-03-31 00:53:00,63.0,,-,64,N/A,29.49,75.9,7:53 PM,,10.0,South,11.5,180,Tulsa,Oklahoma,74104
37,Clear,2016-03-31 01:53:00,62.1,,-,68,N/A,29.50,73.0,8:53 PM,,10.0,South,9.2,180,Tulsa,Oklahoma,74104
38,Clear,2016-03-31 02:53:00,64.0,,-,81,N/A,29.52,70.0,9:53 PM,,10.0,South,9.2,170,Tulsa,Oklahoma,74104
39,Clear,2016-03-31 03:53:00,64.9,,-,84,N/A,29.50,70.0,10:53 PM,,10.0,SSW,10.4,200,Tulsa,Oklahoma,74104
40,Clear,2016-03-31 04:53:00,64.9,,-,87,N/A,29.50,69.1,11:53 PM,,10.0,Variable,5.8,0,Tulsa,Oklahoma,74104
0,Scattered Clouds,2016-03-31 05:53:00,64.9,,-,87,N/A,29.52,69.1,12:53 AM,,10.0,WSW,5.8,240,Tulsa,Oklahoma,74104
1,Overcast,2016-03-31 06:16:00,64.0,Thunderstorm,25.3,84,0.00,29.52,69.1,1:16 AM,,10.0,SW,16.1,220,Tulsa,Oklahoma,74104
2,Scattered Clouds,2016-03-31 06:31:00,57.0,,-,63,0.00,29.52,70.0,1:31 AM,,10.0,WSW,8.1,240,Tulsa,Oklahoma,74104
3,Clear,2016-03-31 06:53:00,55.0,,-,61,0.00,29.52,69.1,1:53 AM,,10.0,West,3.5,260,Tulsa,Oklahoma,74104
4,Scattered Clouds,2016-03-31 07:53:00,48.9,,-,56,N/A,29.54,64.9,2:53 AM,,10.0,WSW,3.5,250,Tulsa,Oklahoma,74104
5,Clear,2016-03-31 08:53:00,42.1,,-,48,N/A,29.55,62.1,3:53 AM,,10.0,WSW,4.6,250,Tulsa,Oklahoma,74104
6,Clear,2016-03-31 09:53:00,39.0,,-,44,N/A,29.57,61.0,4:53 AM,,10.0,WNW,4.6,300,Tulsa,Oklahoma,74104
7,Partly Cloudy,2016-03-31 10:53:00,39.9,,-,49,N/A,29.60,59.0,5:53 AM,,10.0,West,8.1,280,Tulsa,Oklahoma,74104
8,Clear,2016-03-31 11:53:00,42.1,,20.7,60,N/A,29.64,55.9,6:53 AM,,10.0,WNW,9.2,290,Tulsa,Oklahoma,74104
9,Clear,2016-03-31 12:53:00,39.9,,-,61,N/A,29.67,53.1,7:53 AM,,10.0,Variable,4.6,0,Tulsa,Oklahoma,74104
10,Clear,2016-03-31 13:53:00,39.0,,20.7,61,N/A,29.69,52.0,8:53 AM,,10.0,NW,10.4,310,Tulsa,Oklahoma,74104
11,Clear,2016-03-31 14:53:00,39.9,,20.7,61,N/A,29.72,53.1,9:53 AM,,10.0,WNW,8.1,290,Tulsa,Oklahoma,74104
12,Clear,2016-03-31 15:53:00,42.1,,16.1,62,N/A,29.74,55.0,10:53 AM,,10.0,WNW,8.1,290,Tulsa,Oklahoma,74104
13,Partly Cloudy,2016-03-31 16:53:00,43.0,,18.4,53,N/A,29.75,60.1,11:53 AM,,10.0,WNW,8.1,290,Tulsa,Oklahoma,74104
14,Clear,2016-03-31 17:53:00,43.0,,20.7,52,N/A,29.76,61.0,12:53 PM,,10.0,Variable,6.9,0,Tulsa,Oklahoma,74104
15,Clear,2016-03-31 18:53:00,39.0,,20.7,41,N/A,29.75,63.0,1:53 PM,,10.0,WNW,8.1,300,Tulsa,Oklahoma,74104
16,Clear,2016-03-31 19:53:00,39.0,,19.6,40,N/A,29.75,64.0,2:53 PM,,10.0,WNW,11.5,290,Tulsa,Oklahoma,74104
17,Clear,2016-03-31 20:53:00,39.9,,21.9,40,N/A,29.76,64.9,3:53 PM,,10.0,WNW,8.1,300,Tulsa,Oklahoma,74104
18,Partly Cloudy,2016-03-31 21:53:00,37.9,,17.3,37,N/A,29.76,64.9,4:53 PM,,10.0,NW,10.4,310,Tulsa,Oklahoma,74104
19,Scattered Clouds,2016-03-31 22:53:00,37.0,,-,36,N/A,29.77,64.9,5:53 PM,,10.0,WNW,8.1,300,Tulsa,Oklahoma,74104
20,Clear,2016-03-31 23:53:00,35.1,,-,34,N/A,29.79,64.0,6:53 PM,,10.0,Variable,4.6,0,Tulsa,Oklahoma,74104
21,Partly Cloudy,2016-04-01 00:53:00,39.9,,-,55,N/A,29.79,55.9,7:53 PM,,10.0,Calm,Calm,0,Tulsa,Oklahoma,74104
22,Clear,2016-04-01 01:53:00,39.0,,-,59,N/A,29.82,53.1,8:53 PM,,10.0,Calm,Calm,0,Tulsa,Oklahoma,74104
23,Clear,2016-04-01 02:53:00,39.9,,-,66,N/A,29.86,51.1,9:53 PM,,10.0,Calm,Calm,0,Tulsa,Oklahoma,74104
24,Clear,2016-04-01 03:53:00,37.0,,-,47,N/A,29.92,57.0,10:53 PM,,10.0,NW,5.8,320,Tulsa,Oklahoma,74104
25,Clear,2016-04-01 04:53:00,39.0,,18.4,53,N/A,29.94,55.9,11:53 PM,,10.0,North,10.4,350,Tulsa,Oklahoma,74104
0,Clear,2016-04-01 05:53:00,37.0,,23.0,53,N/A,29.96,54.0,12:53 AM,,10.0,North,13.8,350,Tulsa,Oklahoma,74104
1,Clear,2016-04-01 06:53:00,33.1,,-,50,N/A,29.95,51.1,1:53 AM,,10.0,North,8.1,360,Tulsa,Oklahoma,74104
2,Clear,2016-04-01 07:53:00,32.0,,-,50,N/A,29.96,50.0,2:53 AM,,10.0,North,6.9,10,Tulsa,Oklahoma,74104
3,Clear,2016-04-01 08:53:00,34.0,,-,65,N/A,29.97,45.0,3:53 AM,,10.0,Calm,Calm,0,Tulsa,Oklahoma,74104
4,Clear,2016-04-01 09:53:00,33.1,,-,59,N/A,30.02,46.9,4:53 AM,,10.0,Calm,Calm,0,Tulsa,Oklahoma,74104
5,Clear,2016-04-01 10:53:00,30.0,,-,50,N/A,30.03,48.0,5:53 AM,,10.0,NNW,5.8,340,Tulsa,Oklahoma,74104
6,Clear,2016-04-01 11:53:00,28.0,,-,48,N/A,30.03,46.9,6:53 AM,,10.0,North,6.9,350,Tulsa,Oklahoma,74104
7,Clear,2016-04-01 12:53:00,28.0,,-,46,N/A,30.05,48.0,7:53 AM,,10.0,North,8.1,350,Tulsa,Oklahoma,74104
8,Clear,2016-04-01 13:53:00,28.9,,-,44,N/A,30.06,50.0,8:53 AM,,10.0,North,11.5,360,Tulsa,Oklahoma,74104
9,Clear,2016-04-01 14:53:00,28.9,,-,43,N/A,30.12,51.1,9:53 AM,,10.0,Variable,5.8,0,Tulsa,Oklahoma,74104
10,Clear,2016-04-01 15:53:00,27.0,,18.4,37,N/A,30.13,53.1,10:53 AM,,10.0,North,10.4,360,Tulsa,Oklahoma,74104
11,Clear,2016-04-01 16:53:00,28.0,,-,34,N/A,30.14,55.9,11:53 AM,,10.0,Variable,5.8,0,Tulsa,Oklahoma,74104
12,Clear,2016-04-01 17:53:00,27.0,,17.3,31,N/A,30.12,57.9,12:53 PM,,10.0,North,11.5,350,Tulsa,Oklahoma,74104
13,Clear,2016-04-01 18:53:00,30.0,,-,30,N/A,30.09,62.1,1:53 PM,,10.0,Variable,6.9,0,Tulsa,Oklahoma,74104
14,Clear,2016-04-01 19:53:00,27.0,,20.7,27,N/A,30.08,61.0,2:53 PM,,10.0,NW,9.2,320,Tulsa,Oklahoma,74104
15,Clear,2016-04-01 20:53:00,28.0,,19.6,27,N/A,30.04,63.0,3:53 PM,,10.0,WNW,10.4,290,Tulsa,Oklahoma,74104
16,Clear,2016-04-01 21:53:00,28.0,,24.2,28,N/A,30.04,62.1,4:53 PM,,10.0,NW,12.7,320,Tulsa,Oklahoma,74104
17,Partly Cloudy,2016-04-01 22:53:00,28.0,,21.9,28,N/A,30.04,62.1,5:53 PM,,10.0,NW,12.7,310,Tulsa,Oklahoma,74104
18,Partly Cloudy,2016-04-01 23:53:00,27.0,,23.0,28,N/A,30.06,60.1,6:53 PM,,9.0,NW,6.9,320,Tulsa,Oklahoma,74104
19,Clear,2016-04-02 00:53:00,25.0,,-,30,N/A,30.08,55.9,7:53 PM,,9.0,North,3.5,350,Tulsa,Oklahoma,74104
20,Clear,2016-04-02 01:53:00,27.0,,-,37,N/A,30.11,53.1,8:53 PM,,10.0,Variable,6.9,0,Tulsa,Oklahoma,74104
21,Clear,2016-04-02 02:53:00,27.0,,-,38,N/A,30.14,52.0,9:53 PM,,10.0,North,4.6,350,Tulsa,Oklahoma,74104
22,Clear,2016-04-02 03:53:00,28.0,,-,43,N/A,30.15,50.0,10:53 PM,,10.0,NW,3.5,320,Tulsa,Oklahoma,74104
23,Clear,2016-04-02 04:53:00,28.0,,-,44,N/A,30.16,48.9,11:53 PM,,10.0,Variable,3.5,0,Tulsa,Oklahoma,74104
0,Clear,2016-04-02 05:53:00,24.1,,-,38,N/A,30.17,48.9,12:53 AM,,10.0,North,10.4,360,Tulsa,Oklahoma,74104
1,Clear,2016-04-02 06:53:00,23.0,,-,40,N/A,30.16,46.0,1:53 AM,,10.0,North,5.8,350,Tulsa,Oklahoma,74104
2,Clear,2016-04-02 07:53:00,24.1,,-,47,N/A,30.17,43.0,2:53 AM,,10.0,Calm,Calm,0,Tulsa,Oklahoma,74104
3,Clear,2016-04-02 08:53:00,28.0,,-,68,N/A,30.17,37.9,3:53 AM,,10.0,Calm,Calm,0,Tulsa,Oklahoma,74104
4,Clear,2016-04-02 09:53:00,28.9,,-,82,N/A,30.18,34.0,4:53 AM,,10.0,Calm,Calm,0,Tulsa,Oklahoma,74104
5,Clear,2016-04-02 10:53:00,27.0,,-,75,N/A,30.18,34.0,5:53 AM,,10.0,Calm,Calm,0,Tulsa,Oklahoma,74104
6,Clear,2016-04-02 11:53:00,27.0,,-,78,N/A,30.20,33.1,6:53 AM,,10.0,SSW,3.5,210,Tulsa,Oklahoma,74104
7,Clear,2016-04-02 12:53:00,28.0,,-,70,N/A,30.22,37.0,7:53 AM,,10.0,Calm,Calm,0,Tulsa,Oklahoma,74104
8,Haze,2016-04-02 13:53:00,28.9,,-,55,N/A,30.23,44.1,8:53 AM,,6.0,Variable,3.5,0,Tulsa,Oklahoma,74104
9,Clear,2016-04-02 14:53:00,27.0,,-,43,N/A,30.23,48.9,9:53 AM,,9.0,Variable,4.6,0,Tulsa,Oklahoma,74104
10,Clear,2016-04-02 15:53:00,25.0,,-,30,N/A,30.23,55.9,10:53 AM,,10.0,Variable,6.9,0,Tulsa,Oklahoma,74104
11,Clear,2016-04-02 16:53:00,27.0,,-,28,N/A,30.22,60.1,11:53 AM,,10.0,West,6.9,270,Tulsa,Oklahoma,74104
12,Clear,2016-04-02 17:53:00,28.9,,-,27,N/A,30.22,64.0,12:53 PM,,10.0,Variable,4.6,0,Tulsa,Oklahoma,74104
13,Clear,2016-04-02 18:53:00,28.9,,17.3,25,N/A,30.19,66.0,1:53 PM,,10.0,WSW,6.9,250,Tulsa,Oklahoma,74104
14,Clear,2016-04-02 19:53:00,28.9,,18.4,22,N/A,30.17,69.1,2:53 PM,,10.0,NW,5.8,320,Tulsa,Oklahoma,74104
15,Clear,2016-04-02 20:53:00,28.9,,-,22,N/A,30.12,70.0,3:53 PM,,10.0,West,8.1,260,Tulsa,Oklahoma,74104
16,Clear,2016-04-02 21:53:00,30.0,,-,22,N/A,30.11,71.1,4:53 PM,,10.0,West,8.1,270,Tulsa,Oklahoma,74104
17,Clear,2016-04-02 22:53:00,30.0,,-,22,N/A,30.10,71.1,5:53 PM,,10.0,Variable,4.6,0,Tulsa,Oklahoma,74104
18,Clear,2016-04-02 23:53:00,30.9,,-,24,N/A,30.11,69.1,6:53 PM,,10.0,Variable,4.6,0,Tulsa,Oklahoma,74104
19,Clear,2016-04-03 00:53:00,37.9,,-,46,N/A,30.12,59.0,7:53 PM,,9.0,Calm,Calm,0,Tulsa,Oklahoma,74104
20,Clear,2016-04-03 01:53:00,37.9,,-,55,N/A,30.14,54.0,8:53 PM,,10.0,Calm,Calm,0,Tulsa,Oklahoma,74104
21,Clear,2016-04-03 02:53:00,37.9,,-,61,N/A,30.15,51.1,9:53 PM,,10.0,Calm,Calm,0,Tulsa,Oklahoma,74104
22,Clear,2016-04-03 03:53:00,37.9,,-,66,N/A,30.15,48.9,10:53 PM,,10.0,Calm,Calm,0,Tulsa,Oklahoma,74104
23,Clear,2016-04-03 04:53:00,39.0,,-,74,N/A,30.15,46.9,11:53 PM,,7.0,Calm,Calm,0,Tulsa,Oklahoma,74104
0,Clear,2016-04-03 05:53:00,37.9,,-,73,N/A,30.14,46.0,12:53 AM,,7.0,Calm,Calm,0,Tulsa,Oklahoma,74104
1,Clear,2016-04-03 06:53:00,37.9,,-,79,N/A,30.14,44.1,1:53 AM,,9.0,Calm,Calm,0,Tulsa,Oklahoma,74104
2,Clear,2016-04-03 07:53:00,37.0,,-,80,N/A,30.15,43.0,2:53 AM,,10.0,Calm,Calm,0,Tulsa,Oklahoma,74104
3,Clear,2016-04-03 08:53:00,37.0,,-,86,N/A,30.14,41.0,3:53 AM,,9.0,Calm,Calm,0,Tulsa,Oklahoma,74104
4,Clear,2016-04-03 09:53:00,36.0,,-,79,N/A,30.14,42.1,4:53 AM,,9.0,Calm,Calm,0,Tulsa,Oklahoma,74104
5,Clear,2016-04-03 10:53:00,36.0,,-,82,N/A,30.15,41.0,5:53 AM,,10.0,Calm,Calm,0,Tulsa,Oklahoma,74104
6,Clear,2016-04-03 11:53:00,36.0,,-,86,N/A,30.14,39.9,6:53 AM,,10.0,Calm,Calm,0,Tulsa,Oklahoma,74104
7,Clear,2016-04-03 12:53:00,37.0,,-,76,N/A,30.14,44.1,7:53 AM,,10.0,Calm,Calm,0,Tulsa,Oklahoma,74104
8,Clear,2016-04-03 13:53:00,37.9,,-,55,N/A,30.14,54.0,8:53 AM,,10.0,Calm,Calm,0,Tulsa,Oklahoma,74104
9,Clear,2016-04-03 14:53:00,37.9,,-,41,N/A,30.15,62.1,9:53 AM,,10.0,SSW,3.5,200,Tulsa,Oklahoma,74104
10,Clear,2016-04-03 15:53:00,37.0,,-,31,N/A,30.13,69.1,10:53 AM,,10.0,South,13.8,190,Tulsa,Oklahoma,74104
11,Clear,2016-04-03 16:53:00,35.1,,28.8,25,N/A,30.11,73.0,11:53 AM,,10.0,South,19.6,190,Tulsa,Oklahoma,74104
12,Clear,2016-04-03 17:53:00,35.1,,25.3,23,N/A,30.08,75.0,12:53 PM,,10.0,SSW,17.3,200,Tulsa,Oklahoma,74104
13,Clear,2016-04-03 18:53:00,35.1,,26.5,22,N/A,30.05,77.0,1:53 PM,,10.0,South,17.3,180,Tulsa,Oklahoma,74104
14,Clear,2016-04-03 19:53:00,35.1,,24.2,20,N/A,30.01,79.0,2:53 PM,,10.0,SSW,17.3,200,Tulsa,Oklahoma,74104
15,Clear,2016-04-03 20:53:00,33.1,,20.7,19,N/A,29.98,79.0,3:53 PM,,10.0,SSW,8.1,210,Tulsa,Oklahoma,74104
16,Clear,2016-04-03 21:53:00,34.0,,20.7,20,N/A,29.96,79.0,4:53 PM,,10.0,SW,12.7,220,Tulsa,Oklahoma,74104
17,Clear,2016-04-03 22:53:00,34.0,,19.6,20,N/A,29.96,79.0,5:53 PM,,10.0,SW,10.4,220,Tulsa,Oklahoma,74104
18,Clear,2016-04-03 23:53:00,34.0,,20.7,21,N/A,29.96,77.0,6:53 PM,,10.0,SSW,10.4,210,Tulsa,Oklahoma,74104
19,Clear,2016-04-04 00:53:00,33.1,,-,23,N/A,29.97,73.0,7:53 PM,,10.0,SSW,9.2,210,Tulsa,Oklahoma,74104
20,Clear,2016-04-04 01:53:00,34.0,,-,28,N/A,29.98,68.0,8:53 PM,,10.0,South,6.9,190,Tulsa,Oklahoma,74104
21,Clear,2016-04-04 02:53:00,36.0,,-,33,N/A,29.99,66.0,9:53 PM,,10.0,South,5.8,180,Tulsa,Oklahoma,74104
22,Clear,2016-04-04 03:53:00,37.0,,-,38,N/A,29.99,63.0,10:53 PM,,10.0,SSW,5.8,200,Tulsa,Oklahoma,74104
23,Clear,2016-04-04 04:53:00,39.9,,-,41,N/A,29.99,64.0,11:53 PM,,10.0,South,11.5,190,Tulsa,Oklahoma,74104
0,Clear,2016-04-04 05:53:00,39.0,,-,41,N/A,29.99,63.0,12:53 AM,,10.0,SSW,8.1,200,Tulsa,Oklahoma,74104
1,Clear,2016-04-04 06:53:00,39.0,,-,41,N/A,29.99,63.0,1:53 AM,,10.0,SSW,8.1,200,Tulsa,Oklahoma,74104
2,Clear,2016-04-04 07:53:00,39.0,,-,49,N/A,30.00,57.9,2:53 AM,,10.0,South,3.5,190,Tulsa,Oklahoma,74104
3,Clear,2016-04-04 08:53:00,39.9,,-,53,N/A,30.00,57.0,3:53 AM,,10.0,South,4.6,190,Tulsa,Oklahoma,74104
4,Clear,2016-04-04 09:53:00,41.0,,-,71,N/A,30.00,50.0,4:53 AM,,10.0,SSW,4.6,200,Tulsa,Oklahoma,74104
5,Clear,2016-04-04 10:53:00,41.0,,-,77,N/A,30.01,48.0,5:53 AM,,10.0,Calm,Calm,0,Tulsa,Oklahoma,74104
6,Clear,2016-04-04 11:53:00,41.0,,-,83,N/A,30.03,46.0,6:53 AM,,10.0,Calm,Calm,0,Tulsa,Oklahoma,74104
7,Clear,2016-04-04 12:53:00,42.1,,-,74,N/A,30.06,50.0,7:53 AM,,10.0,Calm,Calm,0,Tulsa,Oklahoma,74104
8,Clear,2016-04-04 13:53:00,42.1,,-,56,N/A,30.07,57.9,8:53 AM,,10.0,SSW,3.5,200,Tulsa,Oklahoma,74104
9,Clear,2016-04-04 14:53:00,39.0,,-,37,N/A,30.09,66.0,9:53 AM,,10.0,NNW,8.1,340,Tulsa,Oklahoma,74104
10,Clear,2016-04-04 15:53:00,39.9,,-,35,N/A,30.12,69.1,10:53 AM,,10.0,North,11.5,360,Tulsa,Oklahoma,74104
11,Clear,2016-04-04 16:53:00,42.1,,-,33,N/A,30.14,73.0,11:53 AM,,10.0,NNE,10.4,20,Tulsa,Oklahoma,74104
12,Clear,2016-04-04 17:53:00,44.1,,-,31,N/A,30.14,77.0,12:53 PM,,10.0,NNE,16.1,30,Tulsa,Oklahoma,74104
13,Clear,2016-04-04 18:53:00,41.0,,24.2,26,N/A,30.14,79.0,1:53 PM,,10.0,NE,16.1,50,Tulsa,Oklahoma,74104
14,Clear,2016-04-04 19:53:00,42.1,,23.0,26,N/A,30.13,80.1,2:53 PM,,10.0,NE,16.1,50,Tulsa,Oklahoma,74104
15,Clear,2016-04-04 20:53:00,42.1,,23.0,25,N/A,30.13,81.0,3:53 PM,,10.0,NE,17.3,40,Tulsa,Oklahoma,74104
16,Clear,2016-04-04 21:53:00,37.9,,23.0,22,N/A,30.13,80.1,4:53 PM,,10.0,NNE,16.1,30,Tulsa,Oklahoma,74104
17,Clear,2016-04-04 22:53:00,36.0,,-,22,N/A,30.14,78.1,5:53 PM,,10.0,NNE,12.7,20,Tulsa,Oklahoma,74104
18,Clear,2016-04-04 23:53:00,35.1,,-,23,N/A,30.16,75.9,6:53 PM,,10.0,NE,12.7,40,Tulsa,Oklahoma,74104
19,Clear,2016-04-05 00:53:00,35.1,,-,26,N/A,30.17,72.0,7:53 PM,,10.0,ENE,8.1,60,Tulsa,Oklahoma,74104
20,Clear,2016-04-05 01:53:00,36.0,,-,33,N/A,30.18,66.0,8:53 PM,,10.0,NNE,4.6,20,Tulsa,Oklahoma,74104
21,Clear,2016-04-05 02:53:00,37.9,,-,37,N/A,30.21,64.9,9:53 PM,,10.0,NNE,4.6,20,Tulsa,Oklahoma,74104
22,Clear,2016-04-05 03:53:00,37.9,,-,40,N/A,30.21,63.0,10:53 PM,,10.0,NNE,4.6,30,Tulsa,Oklahoma,74104
23,Clear,2016-04-05 04:53:00,39.0,,-,44,N/A,30.22,61.0,11:53 PM,,10.0,Calm,Calm,0,Tulsa,Oklahoma,74104
0,Clear,2016-04-05 05:53:00,39.0,,-,49,N/A,30.22,57.9,12:53 AM,,10.0,ENE,3.5,60,Tulsa,Oklahoma,74104
1,Clear,2016-04-05 06:53:00,42.1,,-,69,N/A,30.21,52.0,1:53 AM,,10.0,Calm,Calm,0,Tulsa,Oklahoma,74104
2,Clear,2016-04-05 07:53:00,42.1,,-,74,N/A,30.19,50.0,2:53 AM,,10.0,Calm,Calm,0,Tulsa,Oklahoma,74104
3,Clear,2016-04-05 08:53:00,42.1,,-,77,N/A,30.18,48.9,3:53 AM,,10.0,Calm,Calm,0,Tulsa,Oklahoma,74104
4,Clear,2016-04-05 09:53:00,42.1,,-,83,N/A,30.18,46.9,4:53 AM,,10.0,Calm,Calm,0,Tulsa,Oklahoma,74104
5,Clear,2016-04-05 10:53:00,42.1,,-,83,N/A,30.17,46.9,5:53 AM,,10.0,Calm,Calm,0,Tulsa,Oklahoma,74104
6,Clear,2016-04-05 11:53:00,41.0,,-,80,N/A,30.17,46.9,6:53 AM,,10.0,Calm,Calm,0,Tulsa,Oklahoma,74104
7,Clear,2016-04-05 12:53:00,37.9,,-,41,N/A,30.18,62.1,7:53 AM,,10.0,SSE,8.1,160,Tulsa,Oklahoma,74104
8,Clear,2016-04-05 13:53:00,39.0,,-,40,N/A,30.18,64.0,8:53 AM,,10.0,South,8.1,180,Tulsa,Oklahoma,74104
9,Clear,2016-04-05 14:53:00,39.9,,-,35,N/A,30.17,69.1,9:53 AM,,10.0,South,12.7,170,Tulsa,Oklahoma,74104
10,Clear,2016-04-05 15:53:00,42.1,,24.2,33,N/A,30.14,73.0,10:53 AM,,10.0,SSE,16.1,160,Tulsa,Oklahoma,74104
11,Clear,2016-04-05 16:53:00,44.1,,25.3,31,N/A,30.12,77.0,11:53 AM,,10.0,South,13.8,180,Tulsa,Oklahoma,74104
12,Clear,2016-04-05 17:53:00,46.0,,25.3,29,N/A,30.08,81.0,12:53 PM,,10.0,South,18.4,180,Tulsa,Oklahoma,74104
13,Clear,2016-04-05 18:53:00,46.9,,24.2,27,N/A,30.05,84.0,1:53 PM,,10.0,South,17.3,180,Tulsa,Oklahoma,74104
14,Clear,2016-04-05 19:53:00,44.1,,31.1,23,N/A,30.00,86.0,2:53 PM,,10.0,South,19.6,190,Tulsa,Oklahoma,74104
15,Clear,2016-04-05 20:53:00,44.1,,28.8,22,N/A,29.96,87.1,3:53 PM,,10.0,SSW,19.6,200,Tulsa,Oklahoma,74104
16,Clear,2016-04-05 21:53:00,46.0,,29.9,24,N/A,29.91,87.1,4:53 PM,,10.0,South,16.1,190,Tulsa,Oklahoma,74104
17,Clear,2016-04-05 22:53:00,46.0,,32.2,26,N/A,29.89,84.0,5:53 PM,,10.0,SSW,25.3,200,Tulsa,Oklahoma,74104
18,Clear,2016-04-05 23:53:00,48.0,,-,30,N/A,29.87,82.0,6:53 PM,,10.0,South,15.0,190,Tulsa,Oklahoma,74104
19,Clear,2016-04-06 00:53:00,43.0,,24.2,27,N/A,29.84,80.1,7:53 PM,,10.0,South,16.1,180,Tulsa,Oklahoma,74104
20,Clear,2016-04-06 01:53:00,44.1,,26.5,30,N/A,29.85,78.1,8:53 PM,,10.0,South,16.1,180,Tulsa,Oklahoma,74104
21,Clear,2016-04-06 02:53:00,43.0,,26.5,30,N/A,29.86,77.0,9:53 PM,,10.0,South,16.1,180,Tulsa,Oklahoma,74104
22,Clear,2016-04-06 03:53:00,44.1,,29.9,33,N/A,29.84,75.0,10:53 PM,,10.0,South,17.3,170,Tulsa,Oklahoma,74104
23,Clear,2016-04-06 04:53:00,46.0,,34.5,37,N/A,29.81,73.9,11:53 PM,,10.0,South,23.0,180,Tulsa,Oklahoma,74104
0,Light Rain,2016-04-06 05:53:00,46.9,Rain,33.4,38,0.00,29.78,73.9,12:53 AM,,10.0,South,19.6,180,Tulsa,Oklahoma,74104
1,Light Rain,2016-04-06 06:53:00,48.0,Rain,29.9,41,0.00,29.84,73.0,1:53 AM,,10.0,SSW,17.3,210,Tulsa,Oklahoma,74104
2,Partly Cloudy,2016-04-06 07:53:00,48.9,,27.6,44,0.00,29.82,72.0,2:53 AM,,10.0,SSW,12.7,200,Tulsa,Oklahoma,74104
3,Clear,2016-04-06 08:53:00,48.9,,20.7,45,N/A,29.82,71.1,3:53 AM,,10.0,SSW,12.7,200,Tulsa,Oklahoma,74104
4,Clear,2016-04-06 09:53:00,48.9,,-,49,N/A,29.81,69.1,4:53 AM,,10.0,SW,9.2,220,Tulsa,Oklahoma,74104
5,Overcast,2016-04-06 10:53:00,48.0,,-,51,N/A,29.83,66.9,5:53 AM,,10.0,North,-9999.0,0,Tulsa,Oklahoma,74104
6,Overcast,2016-04-06 11:53:00,42.1,,29.9,50,N/A,29.91,61.0,6:53 AM,,10.0,NW,13.8,320,Tulsa,Oklahoma,74104
7,Overcast,2016-04-06 12:53:00,39.0,,-,48,N/A,29.94,59.0,7:53 AM,,10.0,North,-9999.0,0,Tulsa,Oklahoma,74104
8,Scattered Clouds,2016-04-06 13:53:00,41.0,,-,51,N/A,29.97,59.0,8:53 AM,,10.0,Variable,5.8,0,Tulsa,Oklahoma,74104
9,Clear,2016-04-06 14:53:00,37.0,,21.9,38,N/A,29.98,63.0,9:53 AM,,10.0,NW,12.7,310,Tulsa,Oklahoma,74104
10,Clear,2016-04-06 15:53:00,34.0,,31.1,30,N/A,29.98,66.0,10:53 AM,,10.0,WNW,15.0,300,Tulsa,Oklahoma,74104
11,Clear,2016-04-06 16:53:00,33.1,,27.6,27,N/A,29.99,68.0,11:53 AM,,10.0,WNW,13.8,290,Tulsa,Oklahoma,74104
12,Clear,2016-04-06 17:53:00,30.0,,29.9,23,N/A,29.98,69.1,12:53 PM,,10.0,WNW,17.3,290,Tulsa,Oklahoma,74104
13,Clear,2016-04-06 18:53:00,32.0,,25.3,25,N/A,29.98,70.0,1:53 PM,,10.0,NW,9.2,310,Tulsa,Oklahoma,74104
14,Clear,2016-04-06 19:53:00,30.9,,27.6,24,N/A,29.97,70.0,2:53 PM,,10.0,WNW,11.5,300,Tulsa,Oklahoma,74104
15,Clear,2016-04-06 20:53:00,32.0,,24.2,23,N/A,29.96,72.0,3:53 PM,,10.0,WNW,9.2,300,Tulsa,Oklahoma,74104
16,Clear,2016-04-06 21:53:00,32.0,,21.9,23,N/A,29.95,72.0,4:53 PM,,10.0,NNW,11.5,340,Tulsa,Oklahoma,74104
17,Clear,2016-04-06 22:53:00,32.0,,23.0,24,N/A,29.94,71.1,5:53 PM,,10.0,West,10.4,280,Tulsa,Oklahoma,74104
18,Clear,2016-04-06 23:53:00,30.9,,21.9,24,N/A,29.96,70.0,6:53 PM,,10.0,WNW,10.4,290,Tulsa,Oklahoma,74104
19,Clear,2016-04-07 00:53:00,30.9,,-,26,N/A,29.95,66.9,7:53 PM,,10.0,Variable,3.5,0,Tulsa,Oklahoma,74104
20,Clear,2016-04-07 01:53:00,36.0,,-,45,N/A,29.97,57.0,8:53 PM,,10.0,Calm,Calm,0,Tulsa,Oklahoma,74104
21,Clear,2016-04-07 02:53:00,37.0,,-,55,N/A,29.99,53.1,9:53 PM,,10.0,Calm,Calm,0,Tulsa,Oklahoma,74104
22,Clear,2016-04-07 03:53:00,37.0,,-,57,N/A,29.99,52.0,10:53 PM,,10.0,Calm,Calm,0,Tulsa,Oklahoma,74104
23,Clear,2016-04-07 04:53:00,39.9,,-,71,N/A,29.99,48.9,11:53 PM,,10.0,Calm,Calm,0,Tulsa,Oklahoma,74104
0,Clear,2016-04-07 05:53:00,37.9,,-,68,N/A,29.96,48.0,12:53 AM,,10.0,Calm,Calm,0,Tulsa,Oklahoma,74104
1,Clear,2016-04-07 06:53:00,37.9,,-,73,N/A,29.94,46.0,1:53 AM,,10.0,Calm,Calm,0,Tulsa,Oklahoma,74104
2,Clear,2016-04-07 07:53:00,37.9,,-,79,N/A,29.94,44.1,2:53 AM,,10.0,Calm,Calm,0,Tulsa,Oklahoma,74104
3,Clear,2016-04-07 08:53:00,37.0,,-,76,N/A,29.93,44.1,3:53 AM,,10.0,Calm,Calm,0,Tulsa,Oklahoma,74104
4,Clear,2016-04-07 09:53:00,37.9,,-,82,N/A,29.95,43.0,4:53 AM,,10.0,Calm,Calm,0,Tulsa,Oklahoma,74104
5,Clear,2016-04-07 10:53:00,37.9,,-,79,N/A,29.96,44.1,5:53 AM,,9.0,Calm,Calm,0,Tulsa,Oklahoma,74104
6,Clear,2016-04-07 11:53:00,37.0,,-,86,N/A,29.95,41.0,6:53 AM,,10.0,North,3.5,10,Tulsa,Oklahoma,74104
7,Clear,2016-04-07 12:53:00,37.9,,-,59,N/A,29.96,52.0,7:53 AM,,10.0,NNE,3.5,20,Tulsa,Oklahoma,74104
8,Clear,2016-04-07 13:53:00,37.9,,-,44,N/A,29.99,60.1,8:53 AM,,10.0,NNE,4.6,30,Tulsa,Oklahoma,74104
9,Clear,2016-04-07 14:53:00,39.0,,23.0,36,N/A,30.01,66.9,9:53 AM,,10.0,North,16.1,10,Tulsa,Oklahoma,74104
10,Partly Cloudy,2016-04-07 15:53:00,39.9,,-,36,N/A,30.03,68.0,10:53 AM,,10.0,North,9.2,10,Tulsa,Oklahoma,74104
11,Mostly Cloudy,2016-04-07 16:53:00,37.9,,20.7,32,N/A,30.05,69.1,11:53 AM,,10.0,NNE,13.8,20,Tulsa,Oklahoma,74104
12,Clear,2016-04-07 17:53:00,34.0,,23.0,23,N/A,30.03,73.9,12:53 PM,,10.0,North,13.8,350,Tulsa,Oklahoma,74104
13,Clear,2016-04-07 18:53:00,30.0,,24.2,19,N/A,30.01,75.9,1:53 PM,,10.0,NW,11.5,320,Tulsa,Oklahoma,74104
14,Clear,2016-04-07 19:53:00,27.0,,26.5,16,N/A,30.00,77.0,2:53 PM,,10.0,North,16.1,350,Tulsa,Oklahoma,74104
15,Clear,2016-04-07 20:53:00,28.0,,21.9,17,N/A,29.99,77.0,3:53 PM,,10.0,NNW,10.4,340,Tulsa,Oklahoma,74104
16,Clear,2016-04-07 21:53:00,28.0,,29.9,18,N/A,30.01,75.0,4:53 PM,,10.0,NNW,13.8,330,Tulsa,Oklahoma,74104
17,Clear,2016-04-07 22:53:00,27.0,,21.9,18,N/A,30.01,73.9,5:53 PM,,10.0,North,10.4,350,Tulsa,Oklahoma,74104
18,Clear,2016-04-07 23:53:00,25.0,,21.9,17,N/A,30.03,72.0,6:53 PM,,10.0,NNW,9.2,340,Tulsa,Oklahoma,74104
19,Clear,2016-04-08 00:53:00,24.1,,-,19,N/A,30.05,68.0,7:53 PM,,10.0,Variable,6.9,0,Tulsa,Oklahoma,74104
20,Clear,2016-04-08 01:53:00,24.1,,-,20,N/A,30.07,66.0,8:53 PM,,10.0,North,8.1,350,Tulsa,Oklahoma,74104
21,Clear,2016-04-08 02:53:00,21.9,,-,19,N/A,30.12,64.9,9:53 PM,,10.0,North,8.1,350,Tulsa,Oklahoma,74104
22,Clear,2016-04-08 03:53:00,21.9,,-,21,N/A,30.15,62.1,10:53 PM,,10.0,NNW,5.8,340,Tulsa,Oklahoma,74104
23,Clear,2016-04-08 04:53:00,23.0,,-,25,N/A,30.16,59.0,11:53 PM,,10.0,Variable,4.6,0,Tulsa,Oklahoma,74104
0,Clear,2016-04-08 05:53:00,21.9,,-,25,N/A,30.17,57.9,12:53 AM,,10.0,North,6.9,350,Tulsa,Oklahoma,74104
1,Clear,2016-04-08 06:53:00,23.0,,-,27,N/A,30.18,57.0,1:53 AM,,10.0,North,8.1,10,Tulsa,Oklahoma,74104
2,Clear,2016-04-08 07:53:00,24.1,,-,31,N/A,30.16,54.0,2:53 AM,,10.0,North,5.8,360,Tulsa,Oklahoma,74104
3,Clear,2016-04-08 08:53:00,28.9,,-,50,N/A,30.17,46.9,3:53 AM,,10.0,Calm,Calm,0,Tulsa,Oklahoma,74104
4,Clear,2016-04-08 09:53:00,32.0,,-,67,N/A,30.17,42.1,4:53 AM,,10.0,Calm,Calm,0,Tulsa,Oklahoma,74104
5,Clear,2016-04-08 10:53:00,30.9,,-,65,N/A,30.17,42.1,5:53 AM,,10.0,Calm,Calm,0,Tulsa,Oklahoma,74104
6,Clear,2016-04-08 11:53:00,30.0,,-,60,N/A,30.20,43.0,6:53 AM,,10.0,WSW,3.5,250,Tulsa,Oklahoma,74104
7,Clear,2016-04-08 12:53:00,30.9,,-,54,N/A,30.23,46.9,7:53 AM,,10.0,Calm,Calm,0,Tulsa,Oklahoma,74104
8,Clear,2016-04-08 13:53:00,30.0,,-,40,N/A,30.24,54.0,8:53 AM,,10.0,Variable,3.5,0,Tulsa,Oklahoma,74104
9,Clear,2016-04-08 14:53:00,30.9,,-,36,N/A,30.25,57.9,9:53 AM,,10.0,Variable,5.8,0,Tulsa,Oklahoma,74104
10,Clear,2016-04-08 15:53:00,28.9,,-,30,N/A,30.27,61.0,10:53 AM,,10.0,NNW,5.8,330,Tulsa,Oklahoma,74104
11,Clear,2016-04-08 16:53:00,30.9,,-,29,N/A,30.27,64.0,11:53 AM,,10.0,NE,8.1,50,Tulsa,Oklahoma,74104
12,Clear,2016-04-08 17:53:00,28.0,,-,23,N/A,30.25,66.9,12:53 PM,,10.0,Variable,3.5,0,Tulsa,Oklahoma,74104
13,Clear,2016-04-08 18:53:00,28.0,,-,22,N/A,30.22,69.1,1:53 PM,,10.0,NW,8.1,320,Tulsa,Oklahoma,74104
14,Clear,2016-04-08 19:53:00,28.0,,-,20,N/A,30.20,71.1,2:53 PM,,10.0,NNW,5.8,340,Tulsa,Oklahoma,74104
15,Clear,2016-04-08 20:53:00,26.1,,-,19,N/A,30.17,70.0,3:53 PM,,10.0,Variable,6.9,0,Tulsa,Oklahoma,74104
16,Clear,2016-04-08 21:53:00,27.0,,-,19,N/A,30.15,72.0,4:53 PM,,10.0,Variable,3.5,0,Tulsa,Oklahoma,74104
17,Clear,2016-04-08 22:53:00,27.0,,-,20,N/A,30.14,70.0,5:53 PM,,10.0,Variable,6.9,0,Tulsa,Oklahoma,74104
18,Clear,2016-04-08 23:53:00,28.9,,-,22,N/A,30.14,69.1,6:53 PM,,10.0,Variable,4.6,0,Tulsa,Oklahoma,74104
19,Clear,2016-04-09 00:53:00,32.0,,-,30,N/A,30.14,64.0,7:53 PM,,10.0,Calm,Calm,0,Tulsa,Oklahoma,74104
20,Clear,2016-04-09 01:53:00,36.0,,-,49,N/A,30.12,55.0,8:53 PM,,10.0,WSW,3.5,250,Tulsa,Oklahoma,74104
21,Clear,2016-04-09 02:53:00,37.0,,-,57,N/A,30.13,52.0,9:53 PM,,10.0,Calm,Calm,0,Tulsa,Oklahoma,74104
22,Clear,2016-04-09 03:53:00,37.9,,-,66,N/A,30.12,48.9,10:53 PM,,10.0,Calm,Calm,0,Tulsa,Oklahoma,74104
23,Clear,2016-04-09 04:53:00,39.0,,-,74,N/A,30.13,46.9,11:53 PM,,10.0,Calm,Calm,0,Tulsa,Oklahoma,74104
0,Clear,2016-04-09 05:53:00,37.9,,-,73,N/A,30.13,46.0,12:53 AM,,10.0,Calm,Calm,0,Tulsa,Oklahoma,74104
1,Clear,2016-04-09 06:53:00,37.9,,-,76,N/A,30.13,45.0,1:53 AM,,10.0,Calm,Calm,0,Tulsa,Oklahoma,74104
2,Clear,2016-04-09 07:53:00,37.0,,-,76,N/A,30.12,44.1,2:53 AM,,10.0,Calm,Calm,0,Tulsa,Oklahoma,74104
3,Clear,2016-04-09 08:53:00,37.0,,-,66,N/A,30.14,48.0,3:53 AM,,10.0,Calm,Calm,0,Tulsa,Oklahoma,74104
4,Clear,2016-04-09 09:53:00,36.0,,-,66,N/A,30.14,46.9,4:53 AM,,10.0,NNE,4.6,20,Tulsa,Oklahoma,74104
5,Clear,2016-04-09 10:53:00,34.0,,-,56,N/A,30.15,48.9,5:53 AM,,10.0,NE,6.9,40,Tulsa,Oklahoma,74104
6,Clear,2016-04-09 11:53:00,33.1,,-,59,N/A,30.15,46.9,6:53 AM,,10.0,NNE,6.9,30,Tulsa,Oklahoma,74104
7,Clear,2016-04-09 12:53:00,33.1,,-,52,N/A,30.17,50.0,7:53 AM,,10.0,NE,5.8,40,Tulsa,Oklahoma,74104
8,Clear,2016-04-09 14:53:00,34.0,,-,42,N/A,30.15,57.0,9:53 AM,,10.0,ESE,5.8,110,Tulsa,Oklahoma,74104
9,Clear,2016-04-09 15:53:00,37.0,,-,39,N/A,30.16,62.1,10:53 AM,,10.0,ESE,6.9,120,Tulsa,Oklahoma,74104
10,Clear,2016-04-09 16:53:00,39.0,,-,33,N/A,30.14,69.1,11:53 AM,,10.0,Variable,5.8,0,Tulsa,Oklahoma,74104
11,Partly Cloudy,2016-04-09 17:53:00,39.9,,-,28,N/A,30.10,75.0,12:53 PM,,10.0,South,8.1,180,Tulsa,Oklahoma,74104
12,Clear,2016-04-09 18:53:00,41.0,,19.6,30,N/A,30.06,73.9,1:53 PM,,10.0,SSW,10.4,210,Tulsa,Oklahoma,74104
13,Partly Cloudy,2016-04-09 19:53:00,37.9,,21.9,26,N/A,30.03,75.0,2:53 PM,,10.0,SSW,15.0,200,Tulsa,Oklahoma,74104
14,Clear,2016-04-09 20:53:00,37.0,,29.9,25,N/A,30.01,75.0,3:53 PM,,10.0,South,16.1,190,Tulsa,Oklahoma,74104
15,Clear,2016-04-09 21:53:00,39.0,,29.9,29,N/A,30.00,73.0,4:53 PM,,10.0,SSW,15.0,200,Tulsa,Oklahoma,74104
16,Partly Cloudy,2016-04-09 22:53:00,42.1,,23.0,35,N/A,29.99,71.1,5:53 PM,,10.0,South,13.8,190,Tulsa,Oklahoma,74104
17,Mostly Cloudy,2016-04-09 23:53:00,39.9,,31.1,33,N/A,29.99,70.0,6:53 PM,,10.0,SSW,17.3,200,Tulsa,Oklahoma,74104
18,Overcast,2016-04-10 00:53:00,42.1,,21.9,42,N/A,29.99,66.0,7:53 PM,,10.0,SSW,12.7,200,Tulsa,Oklahoma,74104
19,Overcast,2016-04-10 01:53:00,44.1,,-,47,N/A,29.97,64.9,8:53 PM,,10.0,South,15.0,170,Tulsa,Oklahoma,74104
20,Overcast,2016-04-10 02:53:00,46.0,,31.1,54,N/A,29.98,63.0,9:53 PM,,10.0,South,20.7,180,Tulsa,Oklahoma,74104
21,Overcast,2016-04-10 03:53:00,46.9,,23.0,58,N/A,29.97,62.1,10:53 PM,,10.0,South,15.0,170,Tulsa,Oklahoma,74104
22,Overcast,2016-04-10 04:53:00,46.9,,21.9,60,N/A,29.95,61.0,11:53 PM,,10.0,South,13.8,170,Tulsa,Oklahoma,74104
0,Overcast,2016-04-10 05:53:00,46.9,,23.0,62,N/A,29.94,60.1,12:53 AM,,10.0,South,11.5,170,Tulsa,Oklahoma,74104
1,Overcast,2016-04-10 06:53:00,46.9,,-,62,N/A,29.91,60.1,1:53 AM,,10.0,South,11.5,180,Tulsa,Oklahoma,74104
2,Overcast,2016-04-10 07:53:00,48.0,,19.6,67,N/A,29.88,59.0,2:53 AM,,10.0,SSE,11.5,160,Tulsa,Oklahoma,74104
3,Overcast,2016-04-10 08:53:00,48.9,,23.0,67,N/A,29.85,60.1,3:53 AM,,10.0,South,11.5,170,Tulsa,Oklahoma,74104
4,Overcast,2016-04-10 09:53:00,50.0,,23.0,67,N/A,29.83,61.0,4:53 AM,,10.0,South,16.1,180,Tulsa,Oklahoma,74104
5,Overcast,2016-04-10 10:53:00,52.0,,26.5,67,N/A,29.81,63.0,5:53 AM,,10.0,South,17.3,190,Tulsa,Oklahoma,74104
6,Overcast,2016-04-10 11:53:00,53.1,,26.5,70,N/A,29.80,63.0,6:53 AM,,10.0,South,17.3,180,Tulsa,Oklahoma,74104
7,Overcast,2016-04-10 12:37:00,54.0,,25.3,72,N/A,29.79,63.0,7:37 AM,,10.0,South,15.0,190,Tulsa,Oklahoma,74104
8,Overcast,2016-04-10 12:53:00,54.0,,24.2,72,N/A,29.81,63.0,7:53 AM,,10.0,South,16.1,190,Tulsa,Oklahoma,74104
9,Overcast,2016-04-10 13:53:00,55.9,,28.8,75,N/A,29.81,64.0,8:53 AM,,10.0,South,18.4,190,Tulsa,Oklahoma,74104
10,Overcast,2016-04-10 14:53:00,57.0,,24.2,70,N/A,29.79,66.9,9:53 AM,,10.0,SSW,18.4,200,Tulsa,Oklahoma,74104
11,Overcast,2016-04-10 15:53:00,59.0,,29.9,64,N/A,29.78,72.0,10:53 AM,,10.0,SSW,17.3,210,Tulsa,Oklahoma,74104
12,Mostly Cloudy,2016-04-10 16:14:00,59.0,,27.6,59,N/A,29.77,73.9,11:14 AM,,10.0,SSW,15.0,210,Tulsa,Oklahoma,74104
13,Scattered Clouds,2016-04-10 16:53:00,59.0,,35.7,54,N/A,29.78,77.0,11:53 AM,,10.0,SSW,20.7,210,Tulsa,Oklahoma,74104
14,Clear,2016-04-10 17:53:00,59.0,,32.2,48,N/A,29.76,80.1,12:53 PM,,10.0,SSW,19.6,200,Tulsa,Oklahoma,74104
15,Partly Cloudy,2016-04-10 18:53:00,59.0,,29.9,45,N/A,29.76,82.0,1:53 PM,,10.0,SSW,18.4,200,Tulsa,Oklahoma,74104
16,Clear,2016-04-10 19:53:00,59.0,,29.9,47,N/A,29.75,81.0,2:53 PM,,10.0,South,19.6,180,Tulsa,Oklahoma,74104
17,Partly Cloudy,2016-04-10 20:53:00,60.1,,28.8,46,N/A,29.74,82.9,3:53 PM,,10.0,South,21.9,190,Tulsa,Oklahoma,74104
18,Partly Cloudy,2016-04-10 21:53:00,60.1,,26.5,49,N/A,29.73,81.0,4:53 PM,,10.0,SSW,17.3,200,Tulsa,Oklahoma,74104
19,Clear,2016-04-10 22:53:00,60.1,,28.8,50,N/A,29.73,80.1,5:53 PM,,10.0,South,17.3,170,Tulsa,Oklahoma,74104
20,Clear,2016-04-10 23:53:00,60.1,,24.2,58,N/A,29.75,75.9,6:53 PM,,10.0,South,17.3,190,Tulsa,Oklahoma,74104
21,Clear,2016-04-11 00:53:00,60.1,,-,62,N/A,29.75,73.9,7:53 PM,,10.0,South,13.8,170,Tulsa,Oklahoma,74104
22,Partly Cloudy,2016-04-11 01:53:00,60.1,,24.2,64,N/A,29.77,73.0,8:53 PM,,10.0,South,10.4,190,Tulsa,Oklahoma,74104
23,Partly Cloudy,2016-04-11 02:53:00,60.1,,-,66,N/A,29.79,72.0,9:53 PM,,10.0,SSW,12.7,200,Tulsa,Oklahoma,74104
24,Mostly Cloudy,2016-04-11 03:53:00,60.1,,-,66,N/A,29.82,72.0,10:53 PM,,10.0,SW,8.1,220,Tulsa,Oklahoma,74104
25,Overcast,2016-04-11 04:53:00,60.1,,-,71,N/A,29.83,70.0,11:53 PM,,10.0,Calm,Calm,0,Tulsa,Oklahoma,74104
0,Light Rain,2016-04-11 05:19:00,61.0,Rain-Thunderstorm,-,73,0.00,29.81,70.0,12:19 AM,,10.0,ESE,4.6,110,Tulsa,Oklahoma,74104
1,Light Thunderstorms and Rain,2016-04-11 05:48:00,62.6,Rain-Thunderstorm,-,78,0.01,29.79,69.8,12:48 AM,,7.0,SE,4.6,130,Tulsa,Oklahoma,74104
2,Light Thunderstorms and Rain,2016-04-11 05:53:00,62.1,Rain-Thunderstorm,-,76,0.02,29.81,70.0,12:53 AM,,8.0,ESE,4.6,120,Tulsa,Oklahoma,74104
3,Light Rain,2016-04-11 06:03:00,63.0,Rain-Thunderstorm,-,84,0.01,29.80,68.0,1:03 AM,,8.0,ESE,4.6,120,Tulsa,Oklahoma,74104
4,Light Thunderstorms and Rain,2016-04-11 06:15:00,63.0,Rain-Thunderstorm,-,84,0.04,29.80,68.0,1:15 AM,,5.0,ESE,5.8,110,Tulsa,Oklahoma,74104
5,Rain,2016-04-11 06:44:00,63.0,Rain-Thunderstorm,-,87,0.18,29.79,66.9,1:44 AM,,6.0,East,10.4,80,Tulsa,Oklahoma,74104
6,Heavy Thunderstorms and Rain,2016-04-11 06:53:00,63.0,Rain-Thunderstorm,20.7,90,0.23,29.78,66.0,1:53 AM,,4.0,East,13.8,90,Tulsa,Oklahoma,74104
7,Heavy Thunderstorms and Rain,2016-04-11 07:12:00,62.1,Rain-Thunderstorm,32.2,87,0.13,29.79,66.0,2:12 AM,,3.0,South,23.0,190,Tulsa,Oklahoma,74104
8,Rain,2016-04-11 07:21:00,60.1,Rain-Thunderstorm,29.9,87,0.17,29.74,64.0,2:21 AM,,4.0,South,12.7,190,Tulsa,Oklahoma,74104
9,Mostly Cloudy,2016-04-11 07:45:00,57.9,,21.9,86,0.19,29.77,62.1,2:45 AM,,10.0,SW,11.5,220,Tulsa,Oklahoma,74104
10,Mostly Cloudy,2016-04-11 07:53:00,57.9,,23.0,86,0.19,29.79,62.1,2:53 AM,,10.0,SSW,15.0,210,Tulsa,Oklahoma,74104
11,Mostly Cloudy,2016-04-11 08:02:00,57.9,,24.2,86,N/A,29.78,62.1,3:02 AM,,10.0,SW,15.0,220,Tulsa,Oklahoma,74104
12,Light Rain,2016-04-11 08:35:00,57.9,Rain,-,93,0.02,29.80,60.1,3:35 AM,,9.0,NW,8.1,320,Tulsa,Oklahoma,74104
13,Mostly Cloudy,2016-04-11 08:43:00,57.9,,18.4,93,0.02,29.79,60.1,3:43 AM,,10.0,North,10.4,350,Tulsa,Oklahoma,74104
14,Partly Cloudy,2016-04-11 08:53:00,57.0,,-,87,0.02,29.84,61.0,3:53 AM,,10.0,WNW,4.6,300,Tulsa,Oklahoma,74104
15,Overcast,2016-04-11 09:53:00,57.9,,-,93,N/A,29.88,60.1,4:53 AM,,10.0,West,3.5,280,Tulsa,Oklahoma,74104
16,Overcast,2016-04-11 10:00:00,57.0,,-,90,N/A,29.87,60.1,5:00 AM,,10.0,WNW,3.5,290,Tulsa,Oklahoma,74104
17,Scattered Clouds,2016-04-11 10:27:00,57.0,,-,93,N/A,29.88,59.0,5:27 AM,,10.0,WNW,3.5,290,Tulsa,Oklahoma,74104
18,Mostly Cloudy,2016-04-11 10:35:00,57.0,,-,93,N/A,29.88,59.0,5:35 AM,,10.0,Variable,3.5,0,Tulsa,Oklahoma,74104
19,Scattered Clouds,2016-04-11 10:45:00,57.0,,-,93,N/A,29.88,59.0,5:45 AM,,10.0,Variable,3.5,0,Tulsa,Oklahoma,74104
20,Scattered Clouds,2016-04-11 10:53:00,57.0,,-,93,N/A,29.90,59.0,5:53 AM,,10.0,Variable,3.5,0,Tulsa,Oklahoma,74104
21,Clear,2016-04-11 11:53:00,55.9,,-,93,N/A,29.92,57.9,6:53 AM,,10.0,Calm,Calm,0,Tulsa,Oklahoma,74104
22,Clear,2016-04-11 12:53:00,57.0,,-,93,N/A,29.96,59.0,7:53 AM,,10.0,Calm,Calm,0,Tulsa,Oklahoma,74104
23,Clear,2016-04-11 13:53:00,57.9,,-,86,N/A,29.96,62.1,8:53 AM,,10.0,Variable,4.6,0,Tulsa,Oklahoma,74104
24,Mostly Cloudy,2016-04-11 14:21:00,57.9,,-,86,N/A,29.95,62.1,9:21 AM,,10.0,North,6.9,350,Tulsa,Oklahoma,74104
25,Overcast,2016-04-11 14:53:00,57.9,,-,86,N/A,29.98,62.1,9:53 AM,,10.0,North,5.8,10,Tulsa,Oklahoma,74104
26,Overcast,2016-04-11 15:04:00,57.9,,18.4,86,N/A,29.98,62.1,10:04 AM,,10.0,North,11.5,10,Tulsa,Oklahoma,74104
27,Overcast,2016-04-11 15:25:00,51.1,,24.2,81,0.00,30.00,57.0,10:25 AM,,10.0,North,15.0,10,Tulsa,Oklahoma,74104
28,Overcast,2016-04-11 15:53:00,48.9,,-,74,0.00,30.03,57.0,10:53 AM,,10.0,NNE,18.4,20,Tulsa,Oklahoma,74104
29,Overcast,2016-04-11 16:13:00,50.0,,23.0,75,N/A,30.01,57.9,11:13 AM,,10.0,NNE,15.0,20,Tulsa,Oklahoma,74104
30,Overcast,2016-04-11 16:37:00,48.9,,31.1,72,N/A,30.03,57.9,11:37 AM,,10.0,NNE,19.6,30,Tulsa,Oklahoma,74104
31,Overcast,2016-04-11 16:53:00,48.0,,33.4,70,N/A,30.05,57.9,11:53 AM,,10.0,NE,21.9,40,Tulsa,Oklahoma,74104
32,Overcast,2016-04-11 17:37:00,46.9,,29.9,62,N/A,30.03,60.1,12:37 PM,,10.0,NNE,20.7,30,Tulsa,Oklahoma,74104
33,Overcast,2016-04-11 17:53:00,48.0,,25.3,62,N/A,30.05,61.0,12:53 PM,,10.0,NE,17.3,40,Tulsa,Oklahoma,74104
34,Overcast,2016-04-11 18:53:00,46.9,,23.0,52,N/A,30.05,64.9,1:53 PM,,10.0,NE,16.1,40,Tulsa,Oklahoma,74104
35,Partly Cloudy,2016-04-11 19:53:00,48.9,,28.8,54,N/A,30.04,66.0,2:53 PM,,10.0,NE,16.1,40,Tulsa,Oklahoma,74104
36,Clear,2016-04-11 20:53:00,45.0,,25.3,47,N/A,30.05,66.0,3:53 PM,,10.0,NE,17.3,50,Tulsa,Oklahoma,74104
37,Clear,2016-04-11 21:53:00,42.1,,23.0,46,N/A,30.08,63.0,4:53 PM,,10.0,NNE,16.1,30,Tulsa,Oklahoma,74104
38,Clear,2016-04-11 22:53:00,41.0,,27.6,46,N/A,30.06,62.1,5:53 PM,,10.0,NE,20.7,40,Tulsa,Oklahoma,74104
39,Scattered Clouds,2016-04-11 23:53:00,39.0,,20.7,44,N/A,30.11,61.0,6:53 PM,,10.0,NNE,11.5,20,Tulsa,Oklahoma,74104
40,Overcast,2016-04-12 00:53:00,37.9,,-,44,N/A,30.15,60.1,7:53 PM,,10.0,North,6.9,360,Tulsa,Oklahoma,74104
41,Scattered Clouds,2016-04-12 01:53:00,43.0,,-,62,0.00,30.15,55.9,8:53 PM,,10.0,NNE,11.5,20,Tulsa,Oklahoma,74104
42,Clear,2016-04-12 02:53:00,37.0,,-,49,N/A,30.17,55.9,9:53 PM,,10.0,NNE,10.4,30,Tulsa,Oklahoma,74104
43,Clear,2016-04-12 03:53:00,35.1,,-,47,N/A,30.20,55.0,10:53 PM,,10.0,North,8.1,10,Tulsa,Oklahoma,74104
44,Mostly Cloudy,2016-04-12 04:53:00,35.1,,-,49,N/A,30.22,54.0,11:53 PM,,10.0,North,6.9,10,Tulsa,Oklahoma,74104
0,Overcast,2016-04-12 05:53:00,35.1,,-,49,N/A,30.25,54.0,12:53 AM,,10.0,NNE,6.9,30,Tulsa,Oklahoma,74104
1,Scattered Clouds,2016-04-12 06:53:00,35.1,,-,53,N/A,30.26,52.0,1:53 AM,,10.0,NNE,8.1,20,Tulsa,Oklahoma,74104
2,Mostly Cloudy,2016-04-12 07:53:00,35.1,,-,54,N/A,30.26,51.1,2:53 AM,,10.0,NNE,6.9,30,Tulsa,Oklahoma,74104
3,Clear,2016-04-12 08:53:00,35.1,,-,59,N/A,30.25,48.9,3:53 AM,,10.0,North,4.6,10,Tulsa,Oklahoma,74104
4,Clear,2016-04-12 09:53:00,36.0,,-,68,N/A,30.25,46.0,4:53 AM,,10.0,North,3.5,10,Tulsa,Oklahoma,74104
5,Clear,2016-04-12 10:53:00,35.1,,-,66,N/A,30.26,46.0,5:53 AM,,10.0,NNE,4.6,20,Tulsa,Oklahoma,74104
6,Clear,2016-04-12 11:53:00,35.1,,-,66,N/A,30.27,46.0,6:53 AM,,10.0,North,4.6,10,Tulsa,Oklahoma,74104
7,Clear,2016-04-12 12:53:00,37.0,,-,64,N/A,30.29,48.9,7:53 AM,,10.0,NNE,4.6,20,Tulsa,Oklahoma,74104
8,Clear,2016-04-12 13:53:00,34.0,,-,47,N/A,30.30,54.0,8:53 AM,,10.0,ENE,8.1,70,Tulsa,Oklahoma,74104
9,Clear,2016-04-12 14:53:00,33.1,,-,39,N/A,30.31,57.9,9:53 AM,,10.0,ENE,10.4,60,Tulsa,Oklahoma,74104
10,Clear,2016-04-12 15:53:00,32.0,,-,34,N/A,30.31,61.0,10:53 AM,,10.0,ENE,12.7,70,Tulsa,Oklahoma,74104
11,Clear,2016-04-12 16:53:00,32.0,,-,31,N/A,30.30,63.0,11:53 AM,,10.0,East,5.8,90,Tulsa,Oklahoma,74104
12,Clear,2016-04-12 17:53:00,34.0,,-,32,N/A,30.28,64.9,12:53 PM,,10.0,Calm,Calm,0,Tulsa,Oklahoma,74104
13,Clear,2016-04-12 18:53:00,36.0,,-,32,N/A,30.23,66.9,1:53 PM,,10.0,NNE,6.9,20,Tulsa,Oklahoma,74104
14,Clear,2016-04-12 19:53:00,35.1,,-,30,N/A,30.23,68.0,2:53 PM,,10.0,Variable,4.6,0,Tulsa,Oklahoma,74104
15,Clear,2016-04-12 20:53:00,35.1,,-,28,N/A,30.20,70.0,3:53 PM,,10.0,Calm,Calm,0,Tulsa,Oklahoma,74104
16,Clear,2016-04-12 21:53:00,35.1,,-,29,N/A,30.18,69.1,4:53 PM,,10.0,Calm,Calm,0,Tulsa,Oklahoma,74104
17,Clear,2016-04-12 22:53:00,36.0,,-,30,N/A,30.17,69.1,5:53 PM,,10.0,SE,5.8,130,Tulsa,Oklahoma,74104
18,Clear,2016-04-12 23:53:00,36.0,,-,32,N/A,30.16,66.9,6:53 PM,,10.0,South,4.6,170,Tulsa,Oklahoma,74104
19,Clear,2016-04-13 00:53:00,36.0,,-,33,N/A,30.17,66.0,7:53 PM,,10.0,SE,3.5,140,Tulsa,Oklahoma,74104
20,Clear,2016-04-13 01:53:00,41.0,,-,51,N/A,30.19,59.0,8:53 PM,,10.0,Calm,Calm,0,Tulsa,Oklahoma,74104
21,Clear,2016-04-13 02:53:00,45.0,,-,72,N/A,30.18,54.0,9:53 PM,,10.0,NNE,3.5,20,Tulsa,Oklahoma,74104
22,Clear,2016-04-13 03:53:00,45.0,,-,72,N/A,30.19,54.0,10:53 PM,,10.0,Calm,Calm,0,Tulsa,Oklahoma,74104
23,Clear,2016-04-13 04:53:00,46.0,,-,77,N/A,30.17,53.1,11:53 PM,,10.0,Calm,Calm,0,Tulsa,Oklahoma,74104
0,Clear,2016-04-13 05:53:00,45.0,,-,77,N/A,30.16,52.0,12:53 AM,,10.0,Calm,Calm,0,Tulsa,Oklahoma,74104
1,Clear,2016-04-13 06:53:00,46.0,,-,83,N/A,30.17,51.1,1:53 AM,,10.0,Calm,Calm,0,Tulsa,Oklahoma,74104
2,Scattered Clouds,2016-04-13 07:53:00,46.9,,-,86,N/A,30.16,51.1,2:53 AM,,10.0,Calm,Calm,0,Tulsa,Oklahoma,74104
3,Mostly Cloudy,2016-04-13 08:53:00,44.1,,-,62,N/A,30.15,57.0,3:53 AM,,10.0,SE,4.6,140,Tulsa,Oklahoma,74104
4,Mostly Cloudy,2016-04-13 09:53:00,45.0,,-,67,N/A,30.14,55.9,4:53 AM,,10.0,South,3.5,180,Tulsa,Oklahoma,74104
5,Light Rain,2016-04-13 10:53:00,46.9,Rain,-,77,0.00,30.14,54.0,5:53 AM,,10.0,SSW,3.5,210,Tulsa,Oklahoma,74104
6,Overcast,2016-04-13 11:53:00,48.9,,-,80,0.00,30.15,55.0,6:53 AM,,10.0,SSE,3.5,160,Tulsa,Oklahoma,74104
7,Overcast,2016-04-13 12:53:00,51.1,,-,90,N/A,30.17,54.0,7:53 AM,,10.0,South,8.1,190,Tulsa,Oklahoma,74104
8,Overcast,2016-04-13 13:01:00,51.1,,-,90,N/A,30.15,54.0,8:01 AM,,10.0,South,6.9,190,Tulsa,Oklahoma,74104
9,Overcast,2016-04-13 13:09:00,51.1,,-,90,N/A,30.15,54.0,8:09 AM,,10.0,South,6.9,190,Tulsa,Oklahoma,74104
10,Light Rain,2016-04-13 13:50:00,51.8,Rain,-,94,0.01,30.17,53.6,8:50 AM,,10.0,South,6.9,190,Tulsa,Oklahoma,74104
11,Light Rain,2016-04-13 13:53:00,51.1,Rain,-,90,0.01,30.19,54.0,8:53 AM,,10.0,South,6.9,190,Tulsa,Oklahoma,74104
12,Rain,2016-04-13 14:53:00,51.1,Rain,-,93,0.11,30.19,53.1,9:53 AM,,4.0,SSW,4.6,200,Tulsa,Oklahoma,74104
13,Rain,2016-04-13 15:07:00,51.1,Rain,-,93,0.03,30.19,53.1,10:07 AM,,3.0,SSW,8.1,200,Tulsa,Oklahoma,74104
14,Rain,2016-04-13 15:24:00,48.9,Rain,-,89,0.07,30.19,52.0,10:24 AM,,3.0,SSE,4.6,160,Tulsa,Oklahoma,74104
15,Rain,2016-04-13 15:32:00,48.9,Rain,-,89,0.11,30.20,52.0,10:32 AM,,2.5,SSE,5.8,150,Tulsa,Oklahoma,74104
16,Rain,2016-04-13 15:40:00,50.0,Rain,-,93,0.12,30.20,52.0,10:40 AM,,4.0,SSE,6.9,150,Tulsa,Oklahoma,74104
17,Rain,2016-04-13 15:53:00,50.0,Rain,-,89,0.15,30.21,53.1,10:53 AM,,4.0,SSE,5.8,160,Tulsa,Oklahoma,74104
18,Rain,2016-04-13 16:02:00,50.0,Rain,-,89,0.02,30.20,53.1,11:02 AM,,4.0,SSE,5.8,150,Tulsa,Oklahoma,74104
19,Rain,2016-04-13 16:07:00,50.0,Rain,16.1,89,0.03,30.20,53.1,11:07 AM,,4.0,ESE,12.7,120,Tulsa,Oklahoma,74104
20,Light Rain,2016-04-13 16:43:00,45.0,Rain,-,83,0.07,30.21,50.0,11:43 AM,,7.0,SE,10.4,140,Tulsa,Oklahoma,74104
21,Light Rain,2016-04-13 16:53:00,46.0,Rain,-,86,0.07,30.22,50.0,11:53 AM,,8.0,SE,8.1,140,Tulsa,Oklahoma,74104
22,Overcast,2016-04-13 17:53:00,46.9,,-,86,0.01,30.21,51.1,12:53 PM,,10.0,ESE,5.8,110,Tulsa,Oklahoma,74104
23,Overcast,2016-04-13 18:13:00,46.9,,-,86,N/A,30.19,51.1,1:13 PM,,10.0,ESE,4.6,110,Tulsa,Oklahoma,74104
24,Overcast,2016-04-13 18:53:00,48.0,,-,80,N/A,30.19,54.0,1:53 PM,,10.0,ENE,4.6,60,Tulsa,Oklahoma,74104
25,Mostly Cloudy,2016-04-13 19:53:00,48.0,,-,64,N/A,30.16,60.1,2:53 PM,,10.0,East,6.9,90,Tulsa,Oklahoma,74104
26,Overcast,2016-04-13 20:53:00,44.1,,-,52,N/A,30.12,62.1,3:53 PM,,10.0,East,6.9,90,Tulsa,Oklahoma,74104
27,Overcast,2016-04-13 21:53:00,41.0,,-,46,N/A,30.11,62.1,4:53 PM,,10.0,SSE,6.9,150,Tulsa,Oklahoma,74104
28,Clear,2016-04-13 22:53:00,44.1,,-,52,N/A,30.10,62.1,5:53 PM,,10.0,South,6.9,170,Tulsa,Oklahoma,74104
29,Scattered Clouds,2016-04-13 23:53:00,45.0,,-,56,N/A,30.10,61.0,6:53 PM,,10.0,SE,5.8,140,Tulsa,Oklahoma,74104
30,Clear,2016-04-14 00:53:00,44.1,,-,58,N/A,30.10,59.0,7:53 PM,,10.0,SSE,4.6,150,Tulsa,Oklahoma,74104
31,Clear,2016-04-14 01:53:00,46.0,,-,80,N/A,30.09,52.0,8:53 PM,,10.0,Calm,Calm,0,Tulsa,Oklahoma,74104
32,Mostly Cloudy,2016-04-14 02:53:00,48.0,,-,86,N/A,30.11,52.0,9:53 PM,,10.0,Calm,Calm,0,Tulsa,Oklahoma,74104
33,Overcast,2016-04-14 03:53:00,46.9,,-,77,N/A,30.10,54.0,10:53 PM,,10.0,ENE,3.5,60,Tulsa,Oklahoma,74104
34,Partly Cloudy,2016-04-14 04:53:00,46.0,,-,77,N/A,30.09,53.1,11:53 PM,,10.0,East,3.5,100,Tulsa,Oklahoma,74104
0,Scattered Clouds,2016-04-14 05:53:00,45.0,,-,83,N/A,30.10,50.0,12:53 AM,,10.0,Calm,Calm,0,Tulsa,Oklahoma,74104
1,Overcast,2016-04-14 06:53:00,46.0,,-,69,N/A,30.09,55.9,1:53 AM,,10.0,SSE,3.5,160,Tulsa,Oklahoma,74104
2,Overcast,2016-04-14 07:53:00,46.9,,-,86,N/A,30.11,51.1,2:53 AM,,10.0,Calm,Calm,0,Tulsa,Oklahoma,74104
3,Overcast,2016-04-14 08:53:00,48.0,,-,89,N/A,30.10,51.1,3:53 AM,,10.0,Calm,Calm,0,Tulsa,Oklahoma,74104
4,Overcast,2016-04-14 09:53:00,48.9,,-,89,N/A,30.11,52.0,4:53 AM,,10.0,Calm,Calm,0,Tulsa,Oklahoma,74104
5,Overcast,2016-04-14 10:53:00,46.9,,-,77,N/A,30.11,54.0,5:53 AM,,10.0,East,3.5,100,Tulsa,Oklahoma,74104
6,Overcast,2016-04-14 11:53:00,46.9,,-,80,N/A,30.12,53.1,6:53 AM,,10.0,Calm,Calm,0,Tulsa,Oklahoma,74104
7,Clear,2016-04-14 12:53:00,46.9,,-,80,N/A,30.12,53.1,7:53 AM,,10.0,East,3.5,90,Tulsa,Oklahoma,74104
8,Mostly Cloudy,2016-04-14 13:53:00,46.9,,-,69,N/A,30.12,57.0,8:53 AM,,10.0,Variable,3.5,0,Tulsa,Oklahoma,74104
9,Clear,2016-04-14 14:53:00,48.0,,-,67,N/A,30.13,59.0,9:53 AM,,10.0,Calm,Calm,0,Tulsa,Oklahoma,74104
10,Clear,2016-04-14 15:53:00,50.0,,-,60,N/A,30.12,64.0,10:53 AM,,10.0,Calm,Calm,0,Tulsa,Oklahoma,74104
11,Partly Cloudy,2016-04-14 16:53:00,50.0,,-,56,N/A,30.12,66.0,11:53 AM,,10.0,ENE,4.6,60,Tulsa,Oklahoma,74104
12,Clear,2016-04-14 17:53:00,48.9,,-,54,N/A,30.09,66.0,12:53 PM,,10.0,Variable,4.6,0,Tulsa,Oklahoma,74104
13,Mostly Cloudy,2016-04-14 18:53:00,51.1,,-,53,N/A,30.06,69.1,1:53 PM,,10.0,SE,4.6,140,Tulsa,Oklahoma,74104
14,Clear,2016-04-14 19:53:00,50.0,,-,51,N/A,30.04,69.1,2:53 PM,,10.0,Variable,5.8,0,Tulsa,Oklahoma,74104
15,Scattered Clouds,2016-04-14 20:53:00,51.1,,-,49,N/A,30.02,71.1,3:53 PM,,10.0,Calm,Calm,0,Tulsa,Oklahoma,74104
16,Clear,2016-04-14 21:53:00,50.0,,-,47,N/A,30.00,71.1,4:53 PM,,10.0,SSW,6.9,200,Tulsa,Oklahoma,74104
17,Clear,2016-04-14 22:53:00,48.0,,-,43,N/A,29.99,72.0,5:53 PM,,10.0,South,8.1,170,Tulsa,Oklahoma,74104
18,Clear,2016-04-14 23:53:00,48.9,,-,47,N/A,29.98,70.0,6:53 PM,,10.0,SE,6.9,130,Tulsa,Oklahoma,74104
19,Clear,2016-04-15 00:53:00,51.1,,-,57,N/A,29.98,66.9,7:53 PM,,10.0,South,6.9,180,Tulsa,Oklahoma,74104
20,Clear,2016-04-15 01:53:00,52.0,,-,75,N/A,29.98,60.1,8:53 PM,,10.0,Calm,Calm,0,Tulsa,Oklahoma,74104
21,Clear,2016-04-15 02:53:00,52.0,,-,83,N/A,29.99,57.0,9:53 PM,,10.0,Calm,Calm,0,Tulsa,Oklahoma,74104
22,Clear,2016-04-15 03:53:00,52.0,,-,89,N/A,29.99,55.0,10:53 PM,,10.0,Calm,Calm,0,Tulsa,Oklahoma,74104
23,Clear,2016-04-15 04:53:00,52.0,,-,93,N/A,29.99,54.0,11:53 PM,,10.0,Calm,Calm,0,Tulsa,Oklahoma,74104
0,Clear,2016-04-15 05:53:00,51.1,,-,93,N/A,29.98,53.1,12:53 AM,,10.0,Calm,Calm,0,Tulsa,Oklahoma,74104
1,Clear,2016-04-15 06:53:00,50.0,,-,93,N/A,29.97,52.0,1:53 AM,,8.0,Calm,Calm,0,Tulsa,Oklahoma,74104
2,Clear,2016-04-15 07:53:00,50.0,,-,93,N/A,29.96,52.0,2:53 AM,,7.0,Calm,Calm,0,Tulsa,Oklahoma,74104
3,Clear,2016-04-15 08:53:00,48.9,,-,92,N/A,29.96,51.1,3:53 AM,,7.0,Calm,Calm,0,Tulsa,Oklahoma,74104
4,Clear,2016-04-15 09:53:00,48.9,,-,92,N/A,29.96,51.1,4:53 AM,,6.0,Calm,Calm,0,Tulsa,Oklahoma,74104
5,Clear,2016-04-15 10:53:00,48.0,,-,93,N/A,29.96,50.0,5:53 AM,,5.0,Calm,Calm,0,Tulsa,Oklahoma,74104
6,Clear,2016-04-15 11:53:00,48.0,,-,97,N/A,29.98,48.9,6:53 AM,,4.0,Calm,Calm,0,Tulsa,Oklahoma,74104
7,Clear,2016-04-15 12:53:00,52.0,,-,93,N/A,30.00,54.0,7:53 AM,,10.0,Calm,Calm,0,Tulsa,Oklahoma,74104
8,Clear,2016-04-15 13:53:00,52.0,,-,75,N/A,30.01,60.1,8:53 AM,,10.0,Variable,4.6,0,Tulsa,Oklahoma,74104
9,Clear,2016-04-15 14:53:00,53.1,,-,67,N/A,30.00,64.0,9:53 AM,,10.0,SE,6.9,140,Tulsa,Oklahoma,74104
10,Clear,2016-04-15 15:53:00,53.1,,-,61,N/A,30.00,66.9,10:53 AM,,10.0,SE,6.9,140,Tulsa,Oklahoma,74104
11,Clear,2016-04-15 16:53:00,54.0,,19.6,55,N/A,29.98,71.1,11:53 AM,,10.0,SSE,11.5,150,Tulsa,Oklahoma,74104
12,Partly Cloudy,2016-04-15 17:53:00,55.0,,19.6,55,N/A,29.97,72.0,12:53 PM,,10.0,SE,10.4,130,Tulsa,Oklahoma,74104
13,Scattered Clouds,2016-04-15 18:53:00,55.0,,20.7,52,N/A,29.94,73.9,1:53 PM,,10.0,SSE,11.5,150,Tulsa,Oklahoma,74104
14,Partly Cloudy,2016-04-15 19:53:00,55.9,,-,55,N/A,29.93,73.0,2:53 PM,,10.0,East,12.7,100,Tulsa,Oklahoma,74104
15,Mostly Cloudy,2016-04-15 20:53:00,55.9,,-,55,N/A,29.92,73.0,3:53 PM,,10.0,ESE,12.7,110,Tulsa,Oklahoma,74104
16,Clear,2016-04-15 22:53:00,55.0,,21.9,52,N/A,29.90,73.9,5:53 PM,,10.0,ESE,11.5,110,Tulsa,Oklahoma,74104
17,Clear,2016-04-15 23:53:00,54.0,,-,53,N/A,29.89,72.0,6:53 PM,,10.0,SE,12.7,130,Tulsa,Oklahoma,74104
18,Clear,2016-04-16 00:53:00,55.0,,-,59,N/A,29.89,70.0,7:53 PM,,10.0,SE,12.7,130,Tulsa,Oklahoma,74104
19,Clear,2016-04-16 01:53:00,55.0,,-,63,N/A,29.90,68.0,8:53 PM,,10.0,SE,6.9,130,Tulsa,Oklahoma,74104
20,Partly Cloudy,2016-04-16 02:53:00,55.9,,19.6,65,N/A,29.91,68.0,9:53 PM,,10.0,SE,15.0,130,Tulsa,Oklahoma,74104
21,Clear,2016-04-16 03:53:00,57.9,,25.3,75,N/A,29.94,66.0,10:53 PM,,10.0,SE,13.8,140,Tulsa,Oklahoma,74104
22,Clear,2016-04-16 04:53:00,57.0,,24.2,75,N/A,29.93,64.9,11:53 PM,,10.0,SE,10.4,140,Tulsa,Oklahoma,74104
0,Partly Cloudy,2016-04-16 05:53:00,57.0,,-,81,N/A,29.93,63.0,12:53 AM,,10.0,SE,16.1,130,Tulsa,Oklahoma,74104
1,Clear,2016-04-16 06:53:00,57.0,,21.9,81,N/A,29.94,63.0,1:53 AM,,10.0,SE,12.7,130,Tulsa,Oklahoma,74104
2,Clear,2016-04-16 07:53:00,57.0,,-,84,N/A,29.93,62.1,2:53 AM,,10.0,SE,12.7,130,Tulsa,Oklahoma,74104
3,Clear,2016-04-16 08:53:00,55.9,,-,83,N/A,29.93,61.0,3:53 AM,,10.0,SE,9.2,130,Tulsa,Oklahoma,74104
4,Overcast,2016-04-16 09:53:00,57.0,,-,84,N/A,29.94,62.1,4:53 AM,,10.0,SE,10.4,130,Tulsa,Oklahoma,74104
5,Overcast,2016-04-16 10:53:00,57.0,,-,84,N/A,29.95,62.1,5:53 AM,,10.0,SE,9.2,140,Tulsa,Oklahoma,74104
6,Overcast,2016-04-16 11:53:00,57.0,,-,84,N/A,29.97,62.1,6:53 AM,,10.0,ESE,10.4,120,Tulsa,Oklahoma,74104
7,Overcast,2016-04-16 12:26:00,57.0,,17.3,84,N/A,29.97,62.1,7:26 AM,,10.0,SE,8.1,130,Tulsa,Oklahoma,74104
8,Overcast,2016-04-16 12:36:00,55.9,,-,80,N/A,29.97,62.1,7:36 AM,,10.0,SE,8.1,140,Tulsa,Oklahoma,74104
9,Overcast,2016-04-16 12:53:00,57.0,,-,84,N/A,29.99,62.1,7:53 AM,,10.0,ESE,9.2,120,Tulsa,Oklahoma,74104
10,Overcast,2016-04-16 13:53:00,57.0,,18.4,84,N/A,30.01,62.1,8:53 AM,,10.0,SE,8.1,130,Tulsa,Oklahoma,74104
11,Overcast,2016-04-16 14:53:00,57.0,,-,81,N/A,30.03,63.0,9:53 AM,,10.0,SSE,12.7,150,Tulsa,Oklahoma,74104
12,Overcast,2016-04-16 15:53:00,57.9,,20.7,78,N/A,30.04,64.9,10:53 AM,,10.0,SSE,12.7,150,Tulsa,Oklahoma,74104
13,Overcast,2016-04-16 16:48:00,59.0,,-,78,N/A,30.03,66.2,11:48 AM,,10.0,SE,11.5,140,Tulsa,Oklahoma,74104
14,Overcast,2016-04-16 16:53:00,59.0,,20.7,76,N/A,30.05,66.9,11:53 AM,,10.0,SE,15.0,130,Tulsa,Oklahoma,74104
15,Overcast,2016-04-16 17:53:00,59.0,,24.2,73,N/A,30.04,68.0,12:53 PM,,10.0,SE,13.8,130,Tulsa,Oklahoma,74104
16,Overcast,2016-04-16 18:53:00,59.0,,23.0,70,N/A,30.03,69.1,1:53 PM,,10.0,SE,13.8,140,Tulsa,Oklahoma,74104
17,Overcast,2016-04-16 19:53:00,59.0,,-,76,N/A,30.03,66.9,2:53 PM,,10.0,ESE,20.7,120,Tulsa,Oklahoma,74104
18,Overcast,2016-04-16 20:53:00,59.0,,23.0,73,N/A,30.02,68.0,3:53 PM,,10.0,SE,15.0,140,Tulsa,Oklahoma,74104
19,Overcast,2016-04-16 21:53:00,59.0,,21.9,73,N/A,30.01,68.0,4:53 PM,,10.0,ESE,13.8,110,Tulsa,Oklahoma,74104
20,Overcast,2016-04-16 22:53:00,59.0,,25.3,73,N/A,30.01,68.0,5:53 PM,,10.0,SE,12.7,130,Tulsa,Oklahoma,74104
21,Overcast,2016-04-16 23:27:00,59.0,,26.5,73,N/A,30.00,68.0,6:27 PM,,10.0,SE,18.4,130,Tulsa,Oklahoma,74104
22,Mostly Cloudy,2016-04-16 23:53:00,57.9,,27.6,70,N/A,30.02,68.0,6:53 PM,,10.0,SE,17.3,130,Tulsa,Oklahoma,74104
23,Mostly Cloudy,2016-04-17 00:53:00,57.9,,24.2,75,N/A,30.02,66.0,7:53 PM,,10.0,ESE,16.1,120,Tulsa,Oklahoma,74104
24,Mostly Cloudy,2016-04-17 01:53:00,57.9,,26.5,78,N/A,30.04,64.9,8:53 PM,,10.0,SE,12.7,130,Tulsa,Oklahoma,74104
25,Mostly Cloudy,2016-04-17 02:05:00,57.9,,-,78,N/A,30.02,64.9,9:05 PM,,10.0,ESE,16.1,120,Tulsa,Oklahoma,74104
26,Mostly Cloudy,2016-04-17 02:53:00,57.9,,23.0,80,N/A,30.05,64.0,9:53 PM,,10.0,SE,15.0,130,Tulsa,Oklahoma,74104
27,Scattered Clouds,2016-04-17 03:01:00,57.9,,27.6,80,N/A,30.03,64.0,10:01 PM,,10.0,ESE,19.6,110,Tulsa,Oklahoma,74104
28,Mostly Cloudy,2016-04-17 03:30:00,57.9,,24.2,80,N/A,30.04,64.0,10:30 PM,,10.0,ESE,16.1,120,Tulsa,Oklahoma,74104
29,Overcast,2016-04-17 03:53:00,57.9,,28.8,80,N/A,30.07,64.0,10:53 PM,,10.0,ESE,16.1,120,Tulsa,Oklahoma,74104
30,Overcast,2016-04-17 04:53:00,57.9,,21.9,80,N/A,30.07,64.0,11:53 PM,,10.0,ESE,15.0,120,Tulsa,Oklahoma,74104
0,Scattered Clouds,2016-04-17 05:32:00,57.0,,24.2,78,N/A,30.05,64.0,12:32 AM,,10.0,SE,15.0,130,Tulsa,Oklahoma,74104
1,Scattered Clouds,2016-04-17 05:53:00,57.0,,23.0,78,N/A,30.07,64.0,12:53 AM,,10.0,SE,13.8,130,Tulsa,Oklahoma,74104
2,Scattered Clouds,2016-04-17 06:53:00,57.0,,23.0,81,N/A,30.06,63.0,1:53 AM,,10.0,ESE,13.8,120,Tulsa,Oklahoma,74104
3,Mostly Cloudy,2016-04-17 07:53:00,57.0,,23.0,81,N/A,30.06,63.0,2:53 AM,,10.0,SE,15.0,130,Tulsa,Oklahoma,74104
4,Mostly Cloudy,2016-04-17 08:29:00,57.0,,23.0,81,N/A,30.03,63.0,3:29 AM,,10.0,ESE,16.1,120,Tulsa,Oklahoma,74104
5,Scattered Clouds,2016-04-17 08:42:00,57.0,,26.5,81,N/A,30.02,63.0,3:42 AM,,10.0,SE,19.6,130,Tulsa,Oklahoma,74104
6,Scattered Clouds,2016-04-17 08:53:00,57.0,,21.9,81,N/A,30.04,63.0,3:53 AM,,10.0,SE,11.5,130,Tulsa,Oklahoma,74104
7,Mostly Cloudy,2016-04-17 09:28:00,57.0,,-,81,N/A,30.04,63.0,4:28 AM,,10.0,SE,9.2,130,Tulsa,Oklahoma,74104
8,Overcast,2016-04-17 09:53:00,57.0,,-,81,N/A,30.07,63.0,4:53 AM,,10.0,SE,9.2,140,Tulsa,Oklahoma,74104
9,Overcast,2016-04-17 10:53:00,57.0,,17.3,81,N/A,30.08,63.0,5:53 AM,,10.0,SE,13.8,130,Tulsa,Oklahoma,74104
10,Overcast,2016-04-17 11:53:00,57.0,,-,81,N/A,30.09,63.0,6:53 AM,,10.0,SE,9.2,130,Tulsa,Oklahoma,74104
11,Overcast,2016-04-17 12:53:00,57.9,,-,80,N/A,30.10,64.0,7:53 AM,,10.0,ESE,10.4,110,Tulsa,Oklahoma,74104
12,Overcast,2016-04-17 13:53:00,57.9,,-,78,N/A,30.10,64.9,8:53 AM,,10.0,East,13.8,100,Tulsa,Oklahoma,74104
13,Overcast,2016-04-17 14:10:00,57.9,,-,75,N/A,30.09,66.0,9:10 AM,,10.0,ESE,15.0,120,Tulsa,Oklahoma,74104
14,Overcast,2016-04-17 14:39:00,57.9,,-,75,N/A,30.10,66.0,9:39 AM,,10.0,SE,15.0,130,Tulsa,Oklahoma,74104
15,Overcast,2016-04-17 14:53:00,59.0,,19.6,76,N/A,30.12,66.9,9:53 AM,,10.0,SE,12.7,130,Tulsa,Oklahoma,74104
16,Overcast,2016-04-17 15:16:00,59.0,,21.9,73,N/A,30.09,68.0,10:16 AM,,10.0,SE,10.4,130,Tulsa,Oklahoma,74104
17,Overcast,2016-04-17 15:53:00,59.0,,21.9,73,N/A,30.11,68.0,10:53 AM,,10.0,SE,15.0,130,Tulsa,Oklahoma,74104
18,Overcast,2016-04-17 16:53:00,59.0,,18.4,70,N/A,30.12,69.1,11:53 AM,,10.0,SE,11.5,140,Tulsa,Oklahoma,74104
19,Overcast,2016-04-17 17:15:00,59.0,Thunderstorm,-,70,N/A,30.11,69.1,12:15 PM,,10.0,South,5.8,170,Tulsa,Oklahoma,74104
20,Thunderstorm,2016-04-17 17:26:00,59.0,Thunderstorm,-,70,N/A,30.11,69.1,12:26 PM,,10.0,South,5.8,180,Tulsa,Oklahoma,74104
21,Heavy Thunderstorms and Rain,2016-04-17 17:37:00,61.0,Rain-Thunderstorm,-,84,0.08,30.11,66.0,12:37 PM,,1.5,SW,4.6,220,Tulsa,Oklahoma,74104
22,Rain,2016-04-17 17:53:00,62.1,Rain-Thunderstorm,-,93,0.17,30.14,64.0,12:53 PM,,2.0,SW,6.9,220,Tulsa,Oklahoma,74104
23,Thunderstorms and Rain,2016-04-17 18:00:00,62.1,Rain-Thunderstorm,-,93,0.01,30.11,64.0,1:00 PM,,3.0,SW,6.9,230,Tulsa,Oklahoma,74104
24,Heavy Thunderstorms and Rain,2016-04-17 18:06:00,62.1,Rain-Thunderstorm,-,93,0.06,30.11,64.0,1:06 PM,,1.8,West,6.9,260,Tulsa,Oklahoma,74104
25,Light Rain,2016-04-17 18:17:00,61.0,Rain-Thunderstorm,-,93,0.08,30.12,63.0,1:17 PM,,3.0,Variable,5.8,0,Tulsa,Oklahoma,74104
26,Rain,2016-04-17 18:21:00,61.0,Rain-Thunderstorm,-,93,0.12,30.12,63.0,1:21 PM,,1.8,WSW,5.8,250,Tulsa,Oklahoma,74104
27,Rain,2016-04-17 18:34:00,61.0,Rain-Thunderstorm,-,93,0.16,30.12,63.0,1:34 PM,,2.0,WSW,4.6,250,Tulsa,Oklahoma,74104
28,Thunderstorms and Rain,2016-04-17 18:39:00,61.0,Rain-Thunderstorm,-,93,0.22,30.12,63.0,1:39 PM,,1.2,Variable,3.5,0,Tulsa,Oklahoma,74104
29,Thunderstorms and Rain,2016-04-17 18:50:00,60.8,Rain-Thunderstorm,-,94,0.26,30.12,62.6,1:50 PM,,1.5,WSW,4.6,240,Tulsa,Oklahoma,74104
30,Thunderstorms and Rain,2016-04-17 18:53:00,61.0,Rain-Thunderstorm,-,93,0.27,30.14,63.0,1:53 PM,,1.8,WSW,4.6,240,Tulsa,Oklahoma,74104
31,Heavy Rain,2016-04-17 19:00:00,61.0,Rain-Thunderstorm,-,93,0.05,30.12,63.0,2:00 PM,,1.0,Calm,Calm,0,Tulsa,Oklahoma,74104
32,Heavy Rain,2016-04-17 19:16:00,62.1,Rain-Thunderstorm,-,97,0.17,30.12,63.0,2:16 PM,,1.0,Calm,Calm,0,Tulsa,Oklahoma,74104
33,Thunderstorms and Rain,2016-04-17 19:26:00,61.0,Rain-Thunderstorm,-,93,0.23,30.12,63.0,2:26 PM,,1.2,Calm,Calm,0,Tulsa,Oklahoma,74104
34,Heavy Rain,2016-04-17 19:41:00,62.1,Rain-Thunderstorm,-,97,0.33,30.12,63.0,2:41 PM,,1.0,Calm,Calm,0,Tulsa,Oklahoma,74104
35,Rain,2016-04-17 19:53:00,62.1,Rain,-,97,0.41,30.14,63.0,2:53 PM,,1.2,Calm,Calm,0,Tulsa,Oklahoma,74104
36,Light Rain,2016-04-17 19:59:00,61.0,Rain,-,93,0.01,30.11,63.0,2:59 PM,,3.0,Calm,Calm,0,Tulsa,Oklahoma,74104
37,Rain,2016-04-17 20:18:00,62.1,Rain,-,97,0.07,30.12,63.0,3:18 PM,,2.0,Calm,Calm,0,Tulsa,Oklahoma,74104
38,Light Rain,2016-04-17 20:29:00,62.1,Rain,-,93,0.10,30.12,64.0,3:29 PM,,5.0,SE,3.5,140,Tulsa,Oklahoma,74104
39,Light Rain,2016-04-17 20:36:00,62.1,Rain,-,93,0.10,30.12,64.0,3:36 PM,,9.0,South,3.5,180,Tulsa,Oklahoma,74104
40,Light Rain,2016-04-17 20:49:00,60.8,Rain-Thunderstorm,-,88,0.11,30.11,64.4,3:49 PM,,7.0,South,3.5,180,Tulsa,Oklahoma,74104
41,Light Rain,2016-04-17 20:53:00,61.0,Rain-Thunderstorm,-,90,0.12,30.13,64.0,3:53 PM,,6.0,SSE,3.5,150,Tulsa,Oklahoma,74104
42,Light Rain,2016-04-17 21:04:00,62.1,Rain,-,93,0.02,30.11,64.0,4:04 PM,,4.0,ESE,4.6,120,Tulsa,Oklahoma,74104
43,Light Rain,2016-04-17 21:53:00,61.0,Rain,-,93,0.07,30.09,63.0,4:53 PM,,10.0,East,11.5,80,Tulsa,Oklahoma,74104
44,Mostly Cloudy,2016-04-17 22:53:00,61.0,,-,87,0.00,30.09,64.9,5:53 PM,,10.0,ENE,5.8,60,Tulsa,Oklahoma,74104
45,Mostly Cloudy,2016-04-17 23:28:00,61.0,,-,87,N/A,30.08,64.9,6:28 PM,,10.0,ESE,8.1,110,Tulsa,Oklahoma,74104
46,Overcast,2016-04-17 23:53:00,62.1,,-,90,N/A,30.11,64.9,6:53 PM,,10.0,ESE,6.9,120,Tulsa,Oklahoma,74104
47,Mostly Cloudy,2016-04-18 00:41:00,61.0,,-,90,N/A,30.09,64.0,7:41 PM,,10.0,ESE,4.6,120,Tulsa,Oklahoma,74104
48,Mostly Cloudy,2016-04-18 00:53:00,61.0,,-,90,N/A,30.11,64.0,7:53 PM,,10.0,East,3.5,90,Tulsa,Oklahoma,74104
49,Scattered Clouds,2016-04-18 01:53:00,60.1,,-,93,N/A,30.12,62.1,8:53 PM,,10.0,NE,3.5,50,Tulsa,Oklahoma,74104
50,Overcast,2016-04-18 02:53:00,61.0,,-,93,N/A,30.15,63.0,9:53 PM,,9.0,Calm,Calm,0,Tulsa,Oklahoma,74104
51,Overcast,2016-04-18 03:12:00,61.0,,-,96,N/A,30.12,62.1,10:12 PM,,10.0,North,3.5,10,Tulsa,Oklahoma,74104
52,Light Rain,2016-04-18 03:24:00,61.0,Rain,-,93,0.00,30.13,63.0,10:24 PM,,10.0,NNE,3.5,20,Tulsa,Oklahoma,74104
53,Overcast,2016-04-18 03:38:00,61.0,,-,93,0.00,30.13,63.0,10:38 PM,,10.0,Calm,Calm,0,Tulsa,Oklahoma,74104
54,Overcast,2016-04-18 03:53:00,62.1,,-,97,0.00,30.15,63.0,10:53 PM,,10.0,North,3.5,350,Tulsa,Oklahoma,74104
55,Light Rain,2016-04-18 04:49:00,60.8,Rain,-,94,0.00,30.12,62.6,11:49 PM,,10.0,NNE,4.6,30,Tulsa,Oklahoma,74104
56,Light Rain,2016-04-18 04:53:00,61.0,Rain,-,93,0.01,30.14,63.0,11:53 PM,,10.0,NNE,5.8,30,Tulsa,Oklahoma,74104
0,Light Rain,2016-04-18 05:07:00,62.1,Rain,-,97,0.00,30.12,63.0,12:07 AM,,8.0,NNE,4.6,20,Tulsa,Oklahoma,74104
1,Rain,2016-04-18 05:53:00,62.1,Rain-Thunderstorm,-,93,0.04,30.14,64.0,12:53 AM,,8.0,NE,3.5,40,Tulsa,Oklahoma,74104
2,Heavy Rain,2016-04-18 06:06:00,62.1,Rain-Thunderstorm,-,93,0.11,30.12,64.0,1:06 AM,,2.5,ESE,4.6,120,Tulsa,Oklahoma,74104
3,Heavy Thunderstorms and Rain,2016-04-18 06:12:00,62.1,Rain-Thunderstorm,-,93,0.26,30.12,64.0,1:12 AM,,1.5,East,6.9,100,Tulsa,Oklahoma,74104
4,Heavy Thunderstorms and Rain,2016-04-18 06:19:00,62.1,Rain-Thunderstorm,-,93,0.29,30.11,64.0,1:19 AM,,2.5,East,9.2,100,Tulsa,Oklahoma,74104
5,Thunderstorms and Rain,2016-04-18 06:24:00,62.1,Rain-Thunderstorm,-,93,0.31,30.11,64.0,1:24 AM,,3.0,East,8.1,100,Tulsa,Oklahoma,74104
6,Light Rain,2016-04-18 06:37:00,62.1,Rain,-,93,0.33,30.10,64.0,1:37 AM,,7.0,East,6.9,100,Tulsa,Oklahoma,74104
7,Light Rain,2016-04-18 06:53:00,62.1,Rain,-,93,0.38,30.11,64.0,1:53 AM,,3.0,ESE,11.5,110,Tulsa,Oklahoma,74104
8,Overcast,2016-04-18 07:10:00,62.1,,-,93,0.00,30.09,64.0,2:10 AM,,10.0,ESE,13.8,120,Tulsa,Oklahoma,74104
9,Overcast,2016-04-18 07:20:00,62.1,,-,93,0.00,30.08,64.0,2:20 AM,,10.0,ESE,12.7,120,Tulsa,Oklahoma,74104
10,Overcast,2016-04-18 07:31:00,62.1,,-,93,0.00,30.08,64.0,2:31 AM,,10.0,ESE,13.8,120,Tulsa,Oklahoma,74104
11,Light Rain,2016-04-18 07:53:00,62.1,Rain,-,93,0.02,30.13,64.0,2:53 AM,,5.0,WSW,8.1,250,Tulsa,Oklahoma,74104
12,Heavy Rain,2016-04-18 07:59:00,60.1,Rain,-,90,0.09,30.10,63.0,2:59 AM,,1.8,West,6.9,270,Tulsa,Oklahoma,74104
13,Heavy Rain,2016-04-18 08:06:00,59.0,Rain,-,93,0.21,30.11,61.0,3:06 AM,,1.0,Calm,Calm,0,Tulsa,Oklahoma,74104
14,Rain,2016-04-18 08:42:00,59.0,Rain,-,96,0.70,30.11,60.1,3:42 AM,,3.0,ENE,4.6,70,Tulsa,Oklahoma,74104
15,Light Rain,2016-04-18 08:49:00,59.0,Rain,-,94,0.70,30.10,60.8,3:49 AM,,6.0,ENE,3.5,60,Tulsa,Oklahoma,74104
16,Rain,2016-04-18 08:53:00,59.0,Rain,-,96,0.71,30.12,60.1,3:53 AM,,6.0,ENE,4.6,70,Tulsa,Oklahoma,74104
17,Light Rain,2016-04-18 09:53:00,59.0,Rain,-,93,0.02,30.12,61.0,4:53 AM,,10.0,West,4.6,260,Tulsa,Oklahoma,74104
18,Light Rain,2016-04-18 10:03:00,59.0,Rain,-,93,0.01,30.10,61.0,5:03 AM,,10.0,Variable,4.6,0,Tulsa,Oklahoma,74104
19,Overcast,2016-04-18 10:25:00,59.0,,-,93,0.01,30.11,61.0,5:25 AM,,10.0,SW,4.6,230,Tulsa,Oklahoma,74104
20,Overcast,2016-04-18 10:53:00,59.0,,-,93,0.01,30.13,61.0,5:53 AM,,10.0,SSE,3.5,160,Tulsa,Oklahoma,74104
21,Light Rain,2016-04-18 11:03:00,59.0,Rain,-,93,0.00,30.12,61.0,6:03 AM,,10.0,South,9.2,180,Tulsa,Oklahoma,74104
22,Light Rain,2016-04-18 11:53:00,59.0,Rain,-,93,0.01,30.16,61.0,6:53 AM,,10.0,Calm,Calm,0,Tulsa,Oklahoma,74104
23,Overcast,2016-04-18 12:49:00,59.0,,-,94,0.00,30.14,60.8,7:49 AM,,10.0,Calm,Calm,0,Tulsa,Oklahoma,74104
24,Overcast,2016-04-18 12:53:00,60.1,,-,97,0.00,30.17,61.0,7:53 AM,,10.0,Calm,Calm,0,Tulsa,Oklahoma,74104
25,Light Rain,2016-04-18 13:53:00,61.0,Rain,-,96,0.00,30.17,62.1,8:53 AM,,8.0,Calm,Calm,0,Tulsa,Oklahoma,74104
26,Light Rain,2016-04-18 14:14:00,61.0,Rain,-,96,0.00,30.15,62.1,9:14 AM,,3.0,Calm,Calm,0,Tulsa,Oklahoma,74104
27,Overcast,2016-04-18 14:42:00,61.0,,-,93,0.01,30.16,63.0,9:42 AM,,4.0,Calm,Calm,0,Tulsa,Oklahoma,74104
28,Overcast,2016-04-18 14:48:00,60.8,,-,94,0.01,30.16,62.6,9:48 AM,,1.8,Calm,Calm,0,Tulsa,Oklahoma,74104
29,Light Rain,2016-04-18 14:53:00,61.0,Rain,-,93,0.01,30.18,63.0,9:53 AM,,1.2,Calm,Calm,0,Tulsa,Oklahoma,74104
30,Light Rain,2016-04-18 15:16:00,61.0,Rain,-,93,0.01,30.16,63.0,10:16 AM,,1.2,Calm,Calm,0,Tulsa,Oklahoma,74104
31,Light Rain,2016-04-18 15:27:00,61.0,Rain,-,93,0.02,30.16,63.0,10:27 AM,,1.2,Calm,Calm,0,Tulsa,Oklahoma,74104
32,Light Rain,2016-04-18 16:53:00,61.0,Rain,-,90,0.02,30.19,64.0,11:53 AM,,3.0,Variable,3.5,0,Tulsa,Oklahoma,74104
33,Light Rain,2016-04-18 16:57:00,61.0,Rain,-,90,0.01,30.17,64.0,11:57 AM,,2.5,Calm,Calm,0,Tulsa,Oklahoma,74104
34,Light Rain,2016-04-18 17:20:00,60.1,Rain,-,93,0.01,30.17,62.1,12:20 PM,,2.0,Variable,4.6,0,Tulsa,Oklahoma,74104
35,Light Rain,2016-04-18 17:38:00,60.1,Rain,-,93,0.02,30.17,62.1,12:38 PM,,1.8,Variable,4.6,0,Tulsa,Oklahoma,74104
36,Light Rain,2016-04-18 17:50:00,60.8,Rain,-,94,0.03,30.17,62.6,12:50 PM,,2.0,Variable,3.5,0,Tulsa,Oklahoma,74104
37,Light Rain,2016-04-18 17:53:00,60.1,Rain,-,93,0.03,30.19,62.1,12:53 PM,,2.0,NW,5.8,310,Tulsa,Oklahoma,74104
38,Light Rain,2016-04-18 18:16:00,60.1,Rain,-,93,0.02,30.17,62.1,1:16 PM,,1.8,Variable,3.5,0,Tulsa,Oklahoma,74104
39,Light Rain,2016-04-18 18:29:00,60.1,Rain,-,93,0.03,30.17,62.1,1:29 PM,,2.0,Calm,Calm,0,Tulsa,Oklahoma,74104
40,Light Rain,2016-04-18 18:39:00,60.1,Rain,-,93,0.04,30.17,62.1,1:39 PM,,1.8,Variable,3.5,0,Tulsa,Oklahoma,74104
41,Light Rain,2016-04-18 18:53:00,60.1,Rain,-,93,0.04,30.19,62.1,1:53 PM,,2.0,West,4.6,270,Tulsa,Oklahoma,74104
42,Light Rain,2016-04-18 19:32:00,59.0,Rain,-,90,0.01,30.18,62.1,2:32 PM,,4.0,Variable,5.8,0,Tulsa,Oklahoma,74104
43,Light Rain,2016-04-18 19:53:00,59.0,Rain,-,90,0.01,30.20,62.1,2:53 PM,,7.0,WNW,6.9,290,Tulsa,Oklahoma,74104
44,Overcast,2016-04-18 20:09:00,60.1,,-,87,0.00,30.17,64.0,3:09 PM,,10.0,Calm,Calm,0,Tulsa,Oklahoma,74104
45,Overcast,2016-04-18 20:26:00,60.1,,-,87,0.00,30.17,64.0,3:26 PM,,10.0,Variable,3.5,0,Tulsa,Oklahoma,74104
46,Overcast,2016-04-18 20:42:00,60.1,,-,87,0.00,30.17,64.0,3:42 PM,,10.0,Variable,4.6,0,Tulsa,Oklahoma,74104
47,Overcast,2016-04-18 20:53:00,60.1,,-,87,0.00,30.19,64.0,3:53 PM,,10.0,Calm,Calm,0,Tulsa,Oklahoma,74104
48,Overcast,2016-04-18 21:53:00,60.1,,-,84,N/A,30.19,64.9,4:53 PM,,10.0,Variable,3.5,0,Tulsa,Oklahoma,74104
49,Overcast,2016-04-18 22:22:00,60.1,,-,81,N/A,30.16,66.0,5:22 PM,,10.0,Calm,Calm,0,Tulsa,Oklahoma,74104
50,Overcast,2016-04-18 22:53:00,59.0,,-,81,N/A,30.18,64.9,5:53 PM,,10.0,Calm,Calm,0,Tulsa,Oklahoma,74104
51,Overcast,2016-04-19 00:42:00,57.0,,-,81,N/A,30.17,63.0,7:42 PM,,10.0,Calm,Calm,0,Tulsa,Oklahoma,74104
52,Overcast,2016-04-19 03:53:00,59.0,,-,90,N/A,30.22,62.1,10:53 PM,,10.0,Calm,Calm,0,Tulsa,Oklahoma,74104
53,Overcast,2016-04-19 04:53:00,59.0,,-,90,N/A,30.22,62.1,11:53 PM,,10.0,Calm,Calm,0,Tulsa,Oklahoma,74104
0,Overcast,2016-04-19 06:53:00,57.9,,-,90,N/A,30.20,61.0,1:53 AM,,10.0,North,3.5,350,Tulsa,Oklahoma,74104
1,Overcast,2016-04-19 07:53:00,57.0,,-,87,N/A,30.18,61.0,2:53 AM,,10.0,NE,8.1,40,Tulsa,Oklahoma,74104
2,Overcast,2016-04-19 09:48:00,57.2,,-,88,N/A,30.14,60.8,4:48 AM,,5.0,ENE,3.5,60,Tulsa,Oklahoma,74104
3,Overcast,2016-04-19 09:53:00,57.9,,-,93,N/A,30.16,60.1,4:53 AM,,7.0,NE,3.5,40,Tulsa,Oklahoma,74104
4,Heavy Rain,2016-04-19 13:19:00,57.9,Rain,-,93,0.07,30.17,60.1,8:19 AM,,1.8,North,5.8,10,Tulsa,Oklahoma,74104
5,Rain,2016-04-19 13:53:00,57.9,Rain,-,93,0.15,30.19,60.1,8:53 AM,,3.0,North,3.5,350,Tulsa,Oklahoma,74104
6,Heavy Rain,2016-04-19 13:57:00,57.9,Rain,-,93,0.04,30.17,60.1,8:57 AM,,1.8,North,3.5,350,Tulsa,Oklahoma,74104
7,Heavy Rain,2016-04-19 14:04:00,57.9,Rain,-,93,0.12,30.17,60.1,9:04 AM,,0.8,NNW,3.5,340,Tulsa,Oklahoma,74104
8,Heavy Rain,2016-04-19 14:10:00,57.9,Rain,-,93,0.16,30.17,60.1,9:10 AM,,1.0,Calm,Calm,0,Tulsa,Oklahoma,74104
9,Heavy Rain,2016-04-19 14:17:00,57.9,Rain,-,93,0.25,30.16,60.1,9:17 AM,,1.0,NNE,4.6,20,Tulsa,Oklahoma,74104
10,Heavy Rain,2016-04-19 14:35:00,57.9,Rain,-,96,0.38,30.16,59.0,9:35 AM,,2.0,North,4.6,10,Tulsa,Oklahoma,74104
11,Heavy Rain,2016-04-19 14:53:00,57.9,Rain,-,93,0.46,30.18,60.1,9:53 AM,,1.8,NNE,5.8,20,Tulsa,Oklahoma,74104
12,Rain,2016-04-19 15:06:00,59.0,Rain,-,96,0.03,30.16,60.1,10:06 AM,,2.5,NNE,4.6,20,Tulsa,Oklahoma,74104
13,Light Rain,2016-04-19 15:14:00,59.0,Rain,-,96,0.04,30.15,60.1,10:14 AM,,4.0,NNE,8.1,30,Tulsa,Oklahoma,74104
14,Light Rain,2016-04-19 15:25:00,59.0,Rain,-,96,0.07,30.15,60.1,10:25 AM,,2.5,NNE,6.9,30,Tulsa,Oklahoma,74104
15,Light Rain,2016-04-19 15:32:00,59.0,Rain,-,93,0.08,30.15,61.0,10:32 AM,,4.0,NNE,5.8,30,Tulsa,Oklahoma,74104
16,Overcast,2016-04-19 15:53:00,57.9,,-,90,0.08,30.17,61.0,10:53 AM,,8.0,NE,6.9,40,Tulsa,Oklahoma,74104
17,Rain,2016-04-19 16:19:00,59.0,Rain,-,96,0.07,30.15,60.1,11:19 AM,,2.0,North,4.6,10,Tulsa,Oklahoma,74104
18,Light Rain,2016-04-19 16:36:00,59.0,Rain,-,93,0.10,30.15,61.0,11:36 AM,,4.0,NNW,3.5,340,Tulsa,Oklahoma,74104
19,Light Rain,2016-04-19 16:53:00,59.0,Rain,-,93,0.10,30.17,61.0,11:53 AM,,10.0,North,3.5,350,Tulsa,Oklahoma,74104
20,Rain,2016-04-19 17:17:00,59.0,Rain,-,93,0.05,30.14,61.0,12:17 PM,,2.0,North,4.6,10,Tulsa,Oklahoma,74104
21,Rain,2016-04-19 17:23:00,59.0,Rain,-,93,0.06,30.14,61.0,12:23 PM,,1.8,North,3.5,10,Tulsa,Oklahoma,74104
22,Light Rain,2016-04-19 17:33:00,59.0,Rain,-,90,0.07,30.13,62.1,12:33 PM,,2.0,North,4.6,10,Tulsa,Oklahoma,74104
23,Light Rain,2016-04-19 17:44:00,60.1,Rain,-,93,0.07,30.13,62.1,12:44 PM,,4.0,North,5.8,360,Tulsa,Oklahoma,74104
24,Light Rain,2016-04-19 17:53:00,59.0,Rain,-,90,0.08,30.15,62.1,12:53 PM,,6.0,North,4.6,360,Tulsa,Oklahoma,74104
25,Overcast,2016-04-19 18:10:00,60.1,,-,90,0.00,30.12,63.0,1:10 PM,,10.0,NNE,3.5,20,Tulsa,Oklahoma,74104
26,Light Rain,2016-04-19 18:53:00,60.1,Rain,-,90,0.00,30.12,63.0,1:53 PM,,5.0,North,4.6,360,Tulsa,Oklahoma,74104
27,Rain,2016-04-19 19:22:00,61.0,Rain,-,93,0.04,30.09,63.0,2:22 PM,,3.0,NNE,5.8,20,Tulsa,Oklahoma,74104
28,Light Rain,2016-04-19 19:42:00,61.0,Rain,-,90,0.05,30.09,64.0,2:42 PM,,4.0,North,3.5,360,Tulsa,Oklahoma,74104
29,Light Rain,2016-04-19 19:53:00,61.0,Rain,-,90,0.05,30.10,64.0,2:53 PM,,4.0,NNE,4.6,30,Tulsa,Oklahoma,74104
30,Light Rain,2016-04-19 20:15:00,62.1,Rain,-,93,0.04,30.07,64.0,3:15 PM,,4.0,NNE,6.9,30,Tulsa,Oklahoma,74104
31,Light Rain,2016-04-19 20:45:00,61.0,Rain,-,90,0.05,30.07,64.0,3:45 PM,,4.0,NNE,5.8,30,Tulsa,Oklahoma,74104
32,Light Rain,2016-04-19 20:53:00,61.0,Rain,-,90,0.05,30.09,64.0,3:53 PM,,6.0,NE,4.6,40,Tulsa,Oklahoma,74104
33,Light Rain,2016-04-19 20:56:00,62.1,Rain,-,90,0.00,30.06,64.9,3:56 PM,,8.0,NNE,4.6,20,Tulsa,Oklahoma,74104
34,Overcast,2016-04-19 21:25:00,61.0,,-,87,0.00,30.05,64.9,4:25 PM,,10.0,NE,5.8,50,Tulsa,Oklahoma,74104
35,Overcast,2016-04-19 21:50:00,60.8,,-,83,0.00,30.04,66.2,4:50 PM,,10.0,NNE,4.6,30,Tulsa,Oklahoma,74104
36,Overcast,2016-04-19 21:53:00,61.0,,-,84,0.00,30.06,66.0,4:53 PM,,10.0,NE,4.6,40,Tulsa,Oklahoma,74104
37,Overcast,2016-04-19 22:53:00,61.0,,-,87,N/A,30.05,64.9,5:53 PM,,10.0,NNE,4.6,30,Tulsa,Oklahoma,74104
38,Overcast,2016-04-19 23:24:00,61.0,,-,87,N/A,30.02,64.9,6:24 PM,,10.0,ENE,3.5,60,Tulsa,Oklahoma,74104
39,Overcast,2016-04-19 23:39:00,61.0,,-,87,N/A,30.02,64.9,6:39 PM,,10.0,ENE,4.6,60,Tulsa,Oklahoma,74104
40,Overcast,2016-04-19 23:53:00,61.0,,-,87,N/A,30.04,64.9,6:53 PM,,10.0,NE,4.6,40,Tulsa,Oklahoma,74104
41,Overcast,2016-04-20 00:15:00,61.0,,-,87,N/A,30.01,64.9,7:15 PM,,10.0,ENE,3.5,60,Tulsa,Oklahoma,74104
42,Overcast,2016-04-20 00:53:00,61.0,,-,90,N/A,30.03,64.0,7:53 PM,,10.0,East,5.8,80,Tulsa,Oklahoma,74104
43,Overcast,2016-04-20 01:07:00,61.0,,-,90,N/A,30.01,64.0,8:07 PM,,10.0,East,4.6,90,Tulsa,Oklahoma,74104
44,Overcast,2016-04-20 01:53:00,61.0,,-,90,0.00,30.03,64.0,8:53 PM,,10.0,ESE,5.8,110,Tulsa,Oklahoma,74104
45,Overcast,2016-04-20 02:42:00,61.0,,-,90,N/A,30.00,64.0,9:42 PM,,10.0,ESE,4.6,110,Tulsa,Oklahoma,74104
46,Overcast,2016-04-20 02:51:00,60.8,,-,88,N/A,30.00,64.4,9:51 PM,,10.0,ESE,6.9,110,Tulsa,Oklahoma,74104
47,Overcast,2016-04-20 02:53:00,61.0,,-,90,N/A,30.02,64.0,9:53 PM,,10.0,ESE,6.9,110,Tulsa,Oklahoma,74104
48,Overcast,2016-04-20 03:05:00,61.0,,-,90,N/A,30.01,64.0,10:05 PM,,10.0,SE,3.5,130,Tulsa,Oklahoma,74104
49,Overcast,2016-04-20 03:14:00,61.0,,-,90,N/A,30.02,64.0,10:14 PM,,10.0,Calm,Calm,0,Tulsa,Oklahoma,74104
50,Overcast,2016-04-20 03:53:00,61.0,,-,90,N/A,30.04,64.0,10:53 PM,,10.0,Calm,Calm,0,Tulsa,Oklahoma,74104
51,Light Rain,2016-04-20 04:35:00,60.1,Rain-Thunderstorm,19.6,90,0.06,30.03,63.0,11:35 PM,,5.0,West,11.5,260,Tulsa,Oklahoma,74104
52,Heavy Rain,2016-04-20 04:38:00,57.0,Rain-Thunderstorm,20.7,87,0.23,30.04,61.0,11:38 PM,,1.8,West,9.2,270,Tulsa,Oklahoma,74104
53,Heavy Thunderstorms and Rain,2016-04-20 04:42:00,55.9,Rain-Thunderstorm,20.7,90,0.48,30.04,59.0,11:42 PM,,0.8,West,8.1,260,Tulsa,Oklahoma,74104
54,Heavy Thunderstorms and Rain,2016-04-20 04:53:00,55.9,Rain-Thunderstorm,-,93,0.67,30.06,57.9,11:53 PM,,1.0,Variable,4.6,0,Tulsa,Oklahoma,74104
0,Thunderstorms and Rain,2016-04-20 05:01:00,55.9,Rain-Thunderstorm,-,93,0.02,30.03,57.9,12:01 AM,,3.0,Calm,Calm,0,Tulsa,Oklahoma,74104
1,Rain,2016-04-20 05:27:00,55.9,Rain-Thunderstorm,-,93,0.08,30.02,57.9,12:27 AM,,6.0,East,4.6,90,Tulsa,Oklahoma,74104
2,Rain,2016-04-20 05:39:00,55.9,Rain,-,93,0.12,30.01,57.9,12:39 AM,,6.0,Calm,Calm,0,Tulsa,Oklahoma,74104
3,Light Rain,2016-04-20 05:53:00,55.9,Rain,-,93,0.15,30.01,57.9,12:53 AM,,8.0,East,8.1,80,Tulsa,Oklahoma,74104
4,Overcast,2016-04-20 06:53:00,57.0,,-,93,0.02,29.99,59.0,1:53 AM,,10.0,South,5.8,190,Tulsa,Oklahoma,74104
5,Overcast,2016-04-20 07:06:00,57.0,,-,97,N/A,29.97,57.9,2:06 AM,,10.0,South,4.6,190,Tulsa,Oklahoma,74104
6,Mostly Cloudy,2016-04-20 07:53:00,55.9,,-,93,N/A,29.97,57.9,2:53 AM,,10.0,SSW,3.5,210,Tulsa,Oklahoma,74104
7,Partly Cloudy,2016-04-20 08:53:00,55.9,,-,96,N/A,29.96,57.0,3:53 AM,,10.0,Calm,Calm,0,Tulsa,Oklahoma,74104
8,Overcast,2016-04-20 09:53:00,55.9,,-,96,N/A,29.96,57.0,4:53 AM,,10.0,SW,3.5,230,Tulsa,Oklahoma,74104
9,Overcast,2016-04-20 10:53:00,55.9,,-,93,N/A,29.96,57.9,5:53 AM,,10.0,Calm,Calm,0,Tulsa,Oklahoma,74104
10,Overcast,2016-04-20 11:33:00,55.9,,-,93,N/A,29.95,57.9,6:33 AM,,10.0,Calm,Calm,0,Tulsa,Oklahoma,74104
11,Mostly Cloudy,2016-04-20 11:53:00,55.9,,-,93,N/A,29.98,57.9,6:53 AM,,10.0,Calm,Calm,0,Tulsa,Oklahoma,74104
12,Overcast,2016-04-20 12:09:00,55.9,,-,93,N/A,29.96,57.9,7:09 AM,,10.0,Calm,Calm,0,Tulsa,Oklahoma,74104
13,Overcast,2016-04-20 12:29:00,57.0,,-,97,N/A,29.97,57.9,7:29 AM,,10.0,Calm,Calm,0,Tulsa,Oklahoma,74104
14,Overcast,2016-04-20 12:53:00,57.0,,-,93,N/A,30.00,59.0,7:53 AM,,10.0,Calm,Calm,0,Tulsa,Oklahoma,74104
15,Overcast,2016-04-20 13:17:00,57.0,,-,90,N/A,29.99,60.1,8:17 AM,,10.0,Calm,Calm,0,Tulsa,Oklahoma,74104
16,Overcast,2016-04-20 13:49:00,57.2,,-,88,N/A,30.00,60.8,8:49 AM,,10.0,Calm,Calm,0,Tulsa,Oklahoma,74104
17,Overcast,2016-04-20 13:53:00,57.0,,-,90,N/A,30.02,60.1,8:53 AM,,10.0,Calm,Calm,0,Tulsa,Oklahoma,74104
18,Overcast,2016-04-20 14:48:00,55.4,,-,82,N/A,30.01,60.8,9:48 AM,,10.0,WNW,4.6,300,Tulsa,Oklahoma,74104
19,Overcast,2016-04-20 14:53:00,55.9,,-,86,N/A,30.03,60.1,9:53 AM,,10.0,Variable,6.9,0,Tulsa,Oklahoma,74104
20,Overcast,2016-04-20 15:00:00,55.0,,-,83,N/A,30.01,60.1,10:00 AM,,10.0,Variable,5.8,0,Tulsa,Oklahoma,74104
21,Overcast,2016-04-20 15:07:00,55.9,,-,86,N/A,30.01,60.1,10:07 AM,,10.0,Variable,3.5,0,Tulsa,Oklahoma,74104
22,Overcast,2016-04-20 15:53:00,55.0,,-,78,N/A,30.04,62.1,10:53 AM,,10.0,Variable,5.8,0,Tulsa,Oklahoma,74104
23,Overcast,2016-04-20 16:06:00,55.0,,-,78,N/A,30.02,62.1,11:06 AM,,10.0,Variable,3.5,0,Tulsa,Oklahoma,74104
24,Overcast,2016-04-20 16:53:00,53.1,,-,70,N/A,30.05,63.0,11:53 AM,,10.0,Variable,3.5,0,Tulsa,Oklahoma,74104
25,Overcast,2016-04-20 17:53:00,54.0,,-,70,N/A,30.04,64.0,12:53 PM,,10.0,West,4.6,260,Tulsa,Oklahoma,74104
26,Mostly Cloudy,2016-04-20 18:49:00,53.6,,-,60,N/A,29.99,68.0,1:49 PM,,10.0,Variable,5.8,0,Tulsa,Oklahoma,74104
27,Mostly Cloudy,2016-04-20 18:53:00,54.0,,-,61,N/A,30.01,68.0,1:53 PM,,10.0,Variable,4.6,0,Tulsa,Oklahoma,74104
28,Mostly Cloudy,2016-04-20 19:53:00,54.0,,-,58,N/A,29.99,69.1,2:53 PM,,10.0,Variable,5.8,0,Tulsa,Oklahoma,74104
29,Mostly Cloudy,2016-04-20 20:53:00,52.0,,-,51,N/A,29.98,71.1,3:53 PM,,10.0,WSW,5.8,240,Tulsa,Oklahoma,74104
30,Scattered Clouds,2016-04-20 21:53:00,51.1,,-,48,N/A,29.96,72.0,4:53 PM,,10.0,Variable,5.8,0,Tulsa,Oklahoma,74104
31,Clear,2016-04-20 22:53:00,48.9,,-,45,N/A,29.96,71.1,5:53 PM,,10.0,Variable,4.6,0,Tulsa,Oklahoma,74104
32,Clear,2016-04-20 23:53:00,48.9,,-,47,N/A,29.96,70.0,6:53 PM,,10.0,WSW,3.5,250,Tulsa,Oklahoma,74104
33,Partly Cloudy,2016-04-21 00:20:00,48.9,,-,49,N/A,29.94,69.1,7:20 PM,,10.0,West,3.5,260,Tulsa,Oklahoma,74104
34,Clear,2016-04-21 00:53:00,52.0,,-,65,N/A,29.96,64.0,7:53 PM,,10.0,Calm,Calm,0,Tulsa,Oklahoma,74104
35,Clear,2016-04-21 01:53:00,53.1,,-,84,N/A,29.97,57.9,8:53 PM,,10.0,Calm,Calm,0,Tulsa,Oklahoma,74104
36,Clear,2016-04-21 02:53:00,53.1,,-,87,N/A,29.98,57.0,9:53 PM,,10.0,Calm,Calm,0,Tulsa,Oklahoma,74104
37,Clear,2016-04-21 03:53:00,53.1,,-,90,N/A,29.99,55.9,10:53 PM,,10.0,Calm,Calm,0,Tulsa,Oklahoma,74104
38,Clear,2016-04-21 04:53:00,52.0,,-,93,N/A,29.99,54.0,11:53 PM,,10.0,Calm,Calm,0,Tulsa,Oklahoma,74104
0,Clear,2016-04-21 05:53:00,52.0,,-,89,N/A,30.00,55.0,12:53 AM,,10.0,SSW,3.5,200,Tulsa,Oklahoma,74104
1,Clear,2016-04-21 06:53:00,51.1,,-,86,N/A,30.00,55.0,1:53 AM,,10.0,Calm,Calm,0,Tulsa,Oklahoma,74104
2,Mostly Cloudy,2016-04-21 07:53:00,51.1,,-,78,N/A,29.99,57.9,2:53 AM,,10.0,Calm,Calm,0,Tulsa,Oklahoma,74104
3,Overcast,2016-04-21 08:53:00,52.0,,-,83,N/A,29.94,57.0,3:53 AM,,10.0,SSE,3.5,150,Tulsa,Oklahoma,74104
4,Clear,2016-04-21 09:53:00,50.0,,-,93,N/A,29.95,52.0,4:53 AM,,10.0,West,3.5,260,Tulsa,Oklahoma,74104
5,Clear,2016-04-21 10:53:00,50.0,,-,96,N/A,29.97,51.1,5:53 AM,,10.0,Calm,Calm,0,Tulsa,Oklahoma,74104
6,Clear,2016-04-21 11:53:00,50.0,,-,96,N/A,29.99,51.1,6:53 AM,,4.0,Calm,Calm,0,Tulsa,Oklahoma,74104
7,Clear,2016-04-21 12:53:00,53.1,,-,84,N/A,30.00,57.9,7:53 AM,,10.0,Calm,Calm,0,Tulsa,Oklahoma,74104
8,Clear,2016-04-21 13:53:00,54.0,,-,78,N/A,30.01,61.0,8:53 AM,,10.0,Variable,3.5,0,Tulsa,Oklahoma,74104
9,Clear,2016-04-21 14:53:00,51.1,,-,63,N/A,30.00,64.0,9:53 AM,,10.0,NW,8.1,310,Tulsa,Oklahoma,74104
10,Clear,2016-04-21 15:53:00,51.1,,-,55,N/A,30.01,68.0,10:53 AM,,10.0,Variable,6.9,0,Tulsa,Oklahoma,74104
11,Clear,2016-04-21 16:53:00,50.0,,-,49,N/A,30.01,70.0,11:53 AM,,10.0,NNW,8.1,340,Tulsa,Oklahoma,74104
12,Clear,2016-04-21 17:53:00,46.9,,-,41,N/A,30.00,72.0,12:53 PM,,10.0,NW,8.1,320,Tulsa,Oklahoma,74104
13,Partly Cloudy,2016-04-21 18:53:00,48.0,,-,41,N/A,29.99,73.0,1:53 PM,,10.0,Variable,6.9,0,Tulsa,Oklahoma,74104
14,Mostly Cloudy,2016-04-21 19:53:00,48.0,,17.3,38,N/A,29.98,75.0,2:53 PM,,10.0,NW,8.1,320,Tulsa,Oklahoma,74104
15,Mostly Cloudy,2016-04-21 20:53:00,50.0,,-,41,N/A,29.97,75.0,3:53 PM,,10.0,Variable,5.8,0,Tulsa,Oklahoma,74104
16,Mostly Cloudy,2016-04-21 21:53:00,48.0,,18.4,41,N/A,29.97,73.0,4:53 PM,,10.0,NNW,9.2,330,Tulsa,Oklahoma,74104
17,Scattered Clouds,2016-04-21 22:53:00,46.9,,-,39,N/A,29.97,73.0,5:53 PM,,10.0,North,-9999.0,0,Tulsa,Oklahoma,74104
18,Clear,2016-04-21 23:53:00,46.9,,-,39,N/A,29.97,73.0,6:53 PM,,10.0,NW,6.9,310,Tulsa,Oklahoma,74104
19,Clear,2016-04-22 00:53:00,48.0,,-,47,N/A,29.99,69.1,7:53 PM,,10.0,Variable,3.5,0,Tulsa,Oklahoma,74104
20,Clear,2016-04-22 01:53:00,53.1,,-,75,N/A,30.00,61.0,8:53 PM,,10.0,Calm,Calm,0,Tulsa,Oklahoma,74104
21,Clear,2016-04-22 02:53:00,52.0,,-,81,N/A,30.02,57.9,9:53 PM,,10.0,Calm,Calm,0,Tulsa,Oklahoma,74104
22,Clear,2016-04-22 03:53:00,52.0,,-,87,N/A,30.02,55.9,10:53 PM,,10.0,Calm,Calm,0,Tulsa,Oklahoma,74104
23,Clear,2016-04-22 04:53:00,52.0,,-,93,N/A,30.03,54.0,11:53 PM,,10.0,Calm,Calm,0,Tulsa,Oklahoma,74104
0,Clear,2016-04-22 05:53:00,51.1,,-,93,N/A,30.04,53.1,12:53 AM,,10.0,Calm,Calm,0,Tulsa,Oklahoma,74104
1,Clear,2016-04-22 06:53:00,50.0,,-,93,N/A,30.05,52.0,1:53 AM,,10.0,Calm,Calm,0,Tulsa,Oklahoma,74104
2,Clear,2016-04-22 07:53:00,48.9,,-,92,N/A,30.05,51.1,2:53 AM,,9.0,Calm,Calm,0,Tulsa,Oklahoma,74104
3,Clear,2016-04-22 08:53:00,48.9,,-,92,N/A,30.05,51.1,3:53 AM,,8.0,Calm,Calm,0,Tulsa,Oklahoma,74104
4,Clear,2016-04-22 09:53:00,48.0,,-,93,N/A,30.06,50.0,4:53 AM,,8.0,Calm,Calm,0,Tulsa,Oklahoma,74104
5,Clear,2016-04-22 10:53:00,48.0,,-,93,N/A,30.08,50.0,5:53 AM,,7.0,Calm,Calm,0,Tulsa,Oklahoma,74104
6,Clear,2016-04-22 11:53:00,48.0,,-,93,N/A,30.09,50.0,6:53 AM,,8.0,Calm,Calm,0,Tulsa,Oklahoma,74104
7,Clear,2016-04-22 12:53:00,52.0,,-,89,N/A,30.11,55.0,7:53 AM,,10.0,Calm,Calm,0,Tulsa,Oklahoma,74104
8,Clear,2016-04-22 13:53:00,53.1,,-,67,N/A,30.12,64.0,8:53 AM,,10.0,NNW,3.5,340,Tulsa,Oklahoma,74104
9,Clear,2016-04-22 14:53:00,55.0,,-,63,N/A,30.12,68.0,9:53 AM,,-9999.0,Calm,Calm,0,Tulsa,Oklahoma,74104
10,Clear,2016-04-22 15:53:00,51.1,,-,46,N/A,30.13,73.0,10:53 AM,,10.0,NNE,5.8,30,Tulsa,Oklahoma,74104
11,Clear,2016-04-22 16:53:00,50.0,,-,41,N/A,30.13,75.0,11:53 AM,,10.0,North,-9999.0,0,Tulsa,Oklahoma,74104
12,Clear,2016-04-22 17:53:00,50.0,,-,39,N/A,30.12,77.0,12:53 PM,,10.0,WNW,8.1,290,Tulsa,Oklahoma,74104
13,Scattered Clouds,2016-04-22 18:53:00,51.1,,-,39,N/A,30.10,78.1,1:53 PM,,10.0,Variable,5.8,0,Tulsa,Oklahoma,74104
14,Mostly Cloudy,2016-04-22 19:53:00,50.0,,-,35,N/A,30.09,80.1,2:53 PM,,10.0,WNW,8.1,300,Tulsa,Oklahoma,74104
15,Mostly Cloudy,2016-04-22 20:53:00,48.9,,-,35,N/A,30.07,79.0,3:53 PM,,10.0,North,-9999.0,0,Tulsa,Oklahoma,74104
16,Partly Cloudy,2016-04-22 21:53:00,48.0,,-,32,N/A,30.06,80.1,4:53 PM,,10.0,NNW,6.9,330,Tulsa,Oklahoma,74104
17,Clear,2016-04-22 22:53:00,48.0,,-,34,N/A,30.06,79.0,5:53 PM,,10.0,Variable,4.6,0,Tulsa,Oklahoma,74104
18,Clear,2016-04-22 23:53:00,45.0,,-,32,N/A,30.06,77.0,6:53 PM,,10.0,North,6.9,10,Tulsa,Oklahoma,74104
19,Clear,2016-04-23 00:53:00,43.0,,-,35,N/A,30.06,72.0,7:53 PM,,10.0,North,4.6,360,Tulsa,Oklahoma,74104
20,Clear,2016-04-23 01:53:00,46.0,,-,47,N/A,30.06,66.9,8:53 PM,,10.0,North,4.6,10,Tulsa,Oklahoma,74104
21,Clear,2016-04-23 02:53:00,48.0,,-,58,N/A,30.07,63.0,9:53 PM,,10.0,North,4.6,360,Tulsa,Oklahoma,74104
22,Clear,2016-04-23 03:53:00,51.1,,-,75,N/A,30.09,59.0,10:53 PM,,10.0,Calm,Calm,0,Tulsa,Oklahoma,74104
23,Clear,2016-04-23 04:53:00,51.1,,-,84,N/A,30.09,55.9,11:53 PM,,10.0,Calm,Calm,0,Tulsa,Oklahoma,74104
0,Clear,2016-04-23 05:53:00,50.0,,-,80,N/A,30.09,55.9,12:53 AM,,10.0,Calm,Calm,0,Tulsa,Oklahoma,74104
1,Clear,2016-04-23 06:53:00,50.0,,-,86,N/A,30.10,54.0,1:53 AM,,10.0,Calm,Calm,0,Tulsa,Oklahoma,74104
2,Clear,2016-04-23 07:53:00,48.9,,-,92,N/A,30.09,51.1,2:53 AM,,6.0,Calm,Calm,0,Tulsa,Oklahoma,74104
3,Clear,2016-04-23 08:53:00,48.9,,-,92,N/A,30.09,51.1,3:53 AM,,5.0,Calm,Calm,0,Tulsa,Oklahoma,74104
4,Clear,2016-04-23 09:53:00,48.9,,-,96,N/A,30.09,50.0,4:53 AM,,4.0,Calm,Calm,0,Tulsa,Oklahoma,74104
5,Clear,2016-04-23 10:53:00,48.0,,-,93,N/A,30.09,50.0,5:53 AM,,4.0,Calm,Calm,0,Tulsa,Oklahoma,74104
6,Clear,2016-04-23 11:18:00,48.0,,-,93,N/A,30.07,50.0,6:18 AM,,2.0,Calm,Calm,0,Tulsa,Oklahoma,74104
7,Clear,2016-04-23 11:28:00,46.9,,-,93,N/A,30.08,48.9,6:28 AM,,3.0,Calm,Calm,0,Tulsa,Oklahoma,74104
8,Clear,2016-04-23 11:44:00,48.0,,-,93,N/A,30.08,50.0,6:44 AM,,2.0,Calm,Calm,0,Tulsa,Oklahoma,74104
9,Clear,2016-04-23 11:53:00,48.0,,-,97,N/A,30.10,48.9,6:53 AM,,2.5,Calm,Calm,0,Tulsa,Oklahoma,74104
10,Clear,2016-04-23 12:02:00,48.0,,-,93,N/A,30.08,50.0,7:02 AM,,1.5,Calm,Calm,0,Tulsa,Oklahoma,74104
11,Clear,2016-04-23 12:14:00,48.0,,-,93,N/A,30.08,50.0,7:14 AM,,3.0,Calm,Calm,0,Tulsa,Oklahoma,74104
12,Clear,2016-04-23 12:53:00,52.0,,-,93,N/A,30.11,54.0,7:53 AM,,9.0,Calm,Calm,0,Tulsa,Oklahoma,74104
13,Clear,2016-04-23 13:53:00,53.1,,-,78,N/A,30.11,60.1,8:53 AM,,10.0,Calm,Calm,0,Tulsa,Oklahoma,74104
14,Clear,2016-04-23 14:53:00,55.0,,-,68,N/A,30.10,66.0,9:53 AM,,10.0,Calm,Calm,0,Tulsa,Oklahoma,74104
15,Clear,2016-04-23 15:53:00,55.9,,-,55,N/A,30.09,73.0,10:53 AM,,10.0,SSW,3.5,210,Tulsa,Oklahoma,74104
16,Clear,2016-04-23 16:53:00,51.1,,-,38,N/A,30.07,79.0,11:53 AM,,10.0,South,11.5,170,Tulsa,Oklahoma,74104
17,Clear,2016-04-23 17:53:00,48.0,,-,31,N/A,30.05,81.0,12:53 PM,,10.0,South,10.4,190,Tulsa,Oklahoma,74104
18,Clear,2016-04-23 18:53:00,50.0,,-,34,N/A,30.02,81.0,1:53 PM,,10.0,Variable,4.6,0,Tulsa,Oklahoma,74104
19,Clear,2016-04-23 19:53:00,50.0,,-,32,N/A,30.00,82.9,2:53 PM,,10.0,South,11.5,180,Tulsa,Oklahoma,74104
20,Clear,2016-04-23 20:53:00,50.0,,18.4,32,N/A,29.98,82.9,3:53 PM,,10.0,South,12.7,180,Tulsa,Oklahoma,74104
21,Clear,2016-04-23 21:53:00,51.1,,-,34,N/A,29.94,82.0,4:53 PM,,10.0,South,13.8,190,Tulsa,Oklahoma,74104
22,Clear,2016-04-23 22:53:00,50.0,,-,32,N/A,29.92,82.9,5:53 PM,,10.0,South,12.7,190,Tulsa,Oklahoma,74104
23,Partly Cloudy,2016-04-23 23:33:00,51.1,,19.6,34,N/A,29.89,82.0,6:33 PM,,10.0,South,13.8,190,Tulsa,Oklahoma,74104
24,Clear,2016-04-23 23:53:00,51.1,,20.7,35,N/A,29.91,81.0,6:53 PM,,10.0,South,12.7,180,Tulsa,Oklahoma,74104
25,Clear,2016-04-24 00:53:00,51.1,,-,40,N/A,29.90,77.0,7:53 PM,,10.0,South,9.2,170,Tulsa,Oklahoma,74104
26,Clear,2016-04-24 01:53:00,53.1,,-,55,N/A,29.91,70.0,8:53 PM,,10.0,South,5.8,190,Tulsa,Oklahoma,74104
27,Clear,2016-04-24 02:53:00,53.1,,-,61,N/A,29.92,66.9,9:53 PM,,10.0,South,4.6,190,Tulsa,Oklahoma,74104
28,Clear,2016-04-24 03:53:00,53.1,,-,65,N/A,29.92,64.9,10:53 PM,,10.0,SSW,5.8,200,Tulsa,Oklahoma,74104
29,Clear,2016-04-24 04:53:00,53.1,,-,65,N/A,29.91,64.9,11:53 PM,,10.0,SSW,6.9,200,Tulsa,Oklahoma,74104
0,Clear,2016-04-24 05:53:00,52.0,,-,59,N/A,29.91,66.9,12:53 AM,,10.0,South,8.1,180,Tulsa,Oklahoma,74104
1,Clear,2016-04-24 06:53:00,53.1,,-,72,N/A,29.91,62.1,1:53 AM,,10.0,South,4.6,170,Tulsa,Oklahoma,74104
2,Clear,2016-04-24 07:53:00,53.1,,-,75,N/A,29.90,61.0,2:53 AM,,10.0,Calm,Calm,0,Tulsa,Oklahoma,74104
3,Clear,2016-04-24 08:53:00,53.1,,-,87,N/A,29.89,57.0,3:53 AM,,10.0,Calm,Calm,0,Tulsa,Oklahoma,74104
4,Clear,2016-04-24 09:53:00,53.1,,-,78,N/A,29.90,60.1,4:53 AM,,10.0,SSE,3.5,150,Tulsa,Oklahoma,74104
5,Clear,2016-04-24 10:53:00,53.1,,-,78,N/A,29.89,60.1,5:53 AM,,10.0,South,6.9,170,Tulsa,Oklahoma,74104
6,Clear,2016-04-24 11:53:00,52.0,,-,75,N/A,29.89,60.1,6:53 AM,,10.0,South,6.9,170,Tulsa,Oklahoma,74104
7,Clear,2016-04-24 12:53:00,53.1,,-,72,N/A,29.90,62.1,7:53 AM,,10.0,South,6.9,170,Tulsa,Oklahoma,74104
8,Clear,2016-04-24 13:53:00,54.0,,-,63,N/A,29.89,66.9,8:53 AM,,10.0,South,10.4,180,Tulsa,Oklahoma,74104
9,Clear,2016-04-24 14:53:00,54.0,,-,53,N/A,29.86,72.0,9:53 AM,,10.0,South,18.4,190,Tulsa,Oklahoma,74104
10,Clear,2016-04-24 15:53:00,54.0,,29.9,48,N/A,29.84,75.0,10:53 AM,,10.0,South,23.0,180,Tulsa,Oklahoma,74104
11,Clear,2016-04-24 16:53:00,55.0,,28.8,47,N/A,29.85,77.0,11:53 AM,,10.0,SSW,19.6,210,Tulsa,Oklahoma,74104
12,Clear,2016-04-24 17:53:00,55.0,,26.5,44,N/A,29.81,79.0,12:53 PM,,10.0,South,19.6,180,Tulsa,Oklahoma,74104
13,Clear,2016-04-24 18:53:00,54.0,,24.2,40,N/A,29.78,80.1,1:53 PM,,10.0,South,18.4,180,Tulsa,Oklahoma,74104
14,Clear,2016-04-24 19:53:00,54.0,,28.8,40,N/A,29.76,80.1,2:53 PM,,10.0,South,20.7,170,Tulsa,Oklahoma,74104
15,Scattered Clouds,2016-04-24 20:53:00,54.0,,28.8,40,N/A,29.74,80.1,3:53 PM,,10.0,South,18.4,180,Tulsa,Oklahoma,74104
16,Partly Cloudy,2016-04-24 21:53:00,54.0,,29.9,40,N/A,29.72,80.1,4:53 PM,,10.0,South,21.9,180,Tulsa,Oklahoma,74104
17,Clear,2016-04-24 22:53:00,53.1,,28.8,40,N/A,29.71,79.0,5:53 PM,,10.0,South,16.1,170,Tulsa,Oklahoma,74104
18,Clear,2016-04-24 23:53:00,55.0,,25.3,45,N/A,29.72,78.1,6:53 PM,,10.0,South,18.4,180,Tulsa,Oklahoma,74104
19,Clear,2016-04-25 00:53:00,53.1,,-,46,N/A,29.73,75.0,7:53 PM,,10.0,South,15.0,170,Tulsa,Oklahoma,74104
20,Clear,2016-04-25 01:53:00,53.1,,-,49,N/A,29.74,73.0,8:53 PM,,10.0,South,11.5,170,Tulsa,Oklahoma,74104
21,Clear,2016-04-25 02:53:00,53.1,,-,53,N/A,29.74,71.1,9:53 PM,,10.0,South,11.5,170,Tulsa,Oklahoma,74104
22,Clear,2016-04-25 03:53:00,54.0,,-,57,N/A,29.73,70.0,10:53 PM,,10.0,South,12.7,170,Tulsa,Oklahoma,74104
23,Clear,2016-04-25 04:53:00,55.0,,-,61,N/A,29.75,69.1,11:53 PM,,10.0,South,8.1,170,Tulsa,Oklahoma,74104
0,Clear,2016-04-25 05:53:00,55.0,,-,61,N/A,29.75,69.1,12:53 AM,,10.0,South,9.2,170,Tulsa,Oklahoma,74104
1,Clear,2016-04-25 06:53:00,55.9,,-,68,N/A,29.75,66.9,1:53 AM,,10.0,South,6.9,170,Tulsa,Oklahoma,74104
2,Clear,2016-04-25 07:53:00,57.0,,-,73,N/A,29.73,66.0,2:53 AM,,10.0,SSE,6.9,160,Tulsa,Oklahoma,74104
3,Mostly Cloudy,2016-04-25 08:40:00,57.9,,-,70,N/A,29.73,68.0,3:40 AM,,10.0,South,9.2,190,Tulsa,Oklahoma,74104
4,Overcast,2016-04-25 08:53:00,59.0,,-,73,N/A,29.74,68.0,3:53 AM,,10.0,South,10.4,190,Tulsa,Oklahoma,74104
5,Overcast,2016-04-25 09:53:00,60.1,,-,76,N/A,29.74,68.0,4:53 AM,,10.0,South,10.4,180,Tulsa,Oklahoma,74104
6,Overcast,2016-04-25 10:53:00,60.1,,-,76,N/A,29.73,68.0,5:53 AM,,10.0,South,9.2,170,Tulsa,Oklahoma,74104
7,Overcast,2016-04-25 11:53:00,61.0,,-,78,N/A,29.75,68.0,6:53 AM,,10.0,South,11.5,170,Tulsa,Oklahoma,74104
8,Overcast,2016-04-25 12:53:00,61.0,,-,78,N/A,29.76,68.0,7:53 AM,,10.0,South,10.4,170,Tulsa,Oklahoma,74104
9,Overcast,2016-04-25 13:53:00,62.1,,-,78,N/A,29.76,69.1,8:53 AM,,10.0,SSE,8.1,160,Tulsa,Oklahoma,74104
10,Overcast,2016-04-25 14:53:00,62.1,,-,73,N/A,29.77,71.1,9:53 AM,,10.0,South,9.2,180,Tulsa,Oklahoma,74104
11,Overcast,2016-04-25 15:53:00,62.1,,-,73,N/A,29.78,71.1,10:53 AM,,10.0,South,8.1,180,Tulsa,Oklahoma,74104
12,Overcast,2016-04-25 16:48:00,62.6,,-,73,N/A,29.76,71.6,11:48 AM,,10.0,SSE,6.9,160,Tulsa,Oklahoma,74104
13,Overcast,2016-04-25 16:53:00,63.0,,-,73,N/A,29.77,72.0,11:53 AM,,10.0,SSE,6.9,160,Tulsa,Oklahoma,74104
14,Overcast,2016-04-25 17:53:00,63.0,,-,66,N/A,29.75,75.0,12:53 PM,,10.0,SSE,9.2,160,Tulsa,Oklahoma,74104
15,Overcast,2016-04-25 18:53:00,64.0,,-,62,N/A,29.73,78.1,1:53 PM,,10.0,SSE,10.4,160,Tulsa,Oklahoma,74104
16,Mostly Cloudy,2016-04-25 19:53:00,64.0,,-,60,N/A,29.71,79.0,2:53 PM,,10.0,South,11.5,170,Tulsa,Oklahoma,74104
17,Scattered Clouds,2016-04-25 20:53:00,64.9,,-,54,N/A,29.69,82.9,3:53 PM,,10.0,South,12.7,170,Tulsa,Oklahoma,74104
18,Mostly Cloudy,2016-04-25 21:53:00,64.0,,24.2,53,N/A,29.68,82.9,4:53 PM,,10.0,South,17.3,170,Tulsa,Oklahoma,74104
19,Mostly Cloudy,2016-04-25 22:53:00,64.0,,-,54,N/A,29.67,82.0,5:53 PM,,10.0,South,13.8,170,Tulsa,Oklahoma,74104
20,Mostly Cloudy,2016-04-25 23:53:00,64.0,,-,56,N/A,29.67,81.0,6:53 PM,,10.0,South,9.2,170,Tulsa,Oklahoma,74104
21,Mostly Cloudy,2016-04-26 00:53:00,64.9,,-,62,N/A,29.67,79.0,7:53 PM,,10.0,South,10.4,170,Tulsa,Oklahoma,74104
22,Mostly Cloudy,2016-04-26 01:53:00,64.9,,-,66,N/A,29.69,77.0,8:53 PM,,10.0,South,8.1,170,Tulsa,Oklahoma,74104
23,Overcast,2016-04-26 02:53:00,64.9,,-,69,N/A,29.71,75.9,9:53 PM,,10.0,South,9.2,170,Tulsa,Oklahoma,74104
24,Mostly Cloudy,2016-04-26 03:53:00,64.9,,-,73,N/A,29.71,73.9,10:53 PM,,10.0,South,8.1,170,Tulsa,Oklahoma,74104
25,Mostly Cloudy,2016-04-26 04:53:00,64.9,,-,76,N/A,29.70,73.0,11:53 PM,,10.0,South,6.9,170,Tulsa,Oklahoma,74104
0,Clear,2016-04-26 05:53:00,64.9,,-,78,N/A,29.70,72.0,12:53 AM,,10.0,SSE,5.8,160,Tulsa,Oklahoma,74104
1,Scattered Clouds,2016-04-26 06:53:00,64.9,,-,81,N/A,29.70,71.1,1:53 AM,,10.0,SSE,4.6,160,Tulsa,Oklahoma,74104
2,Partly Cloudy,2016-04-26 07:53:00,64.9,,-,84,N/A,29.68,70.0,2:53 AM,,10.0,SSE,4.6,150,Tulsa,Oklahoma,74104
3,Clear,2016-04-26 08:53:00,64.9,,-,87,N/A,29.68,69.1,3:53 AM,,10.0,SSE,4.6,160,Tulsa,Oklahoma,74104
4,Clear,2016-04-26 09:53:00,64.9,,-,84,N/A,29.68,70.0,4:53 AM,,10.0,South,6.9,170,Tulsa,Oklahoma,74104
5,Mostly Cloudy,2016-04-26 10:36:00,66.0,,-,87,N/A,29.67,70.0,5:36 AM,,10.0,SSE,8.1,160,Tulsa,Oklahoma,74104
6,Overcast,2016-04-26 10:53:00,66.0,,-,84,N/A,29.68,71.1,5:53 AM,,10.0,SSE,9.2,160,Tulsa,Oklahoma,74104
7,Overcast,2016-04-26 11:53:00,66.9,,-,84,N/A,29.70,72.0,6:53 AM,,10.0,South,8.1,190,Tulsa,Oklahoma,74104
8,Overcast,2016-04-26 12:53:00,68.0,,-,82,N/A,29.70,73.9,7:53 AM,,9.0,South,9.2,180,Tulsa,Oklahoma,74104
9,Overcast,2016-04-26 13:53:00,66.9,,-,76,N/A,29.73,75.0,8:53 AM,,10.0,South,11.5,180,Tulsa,Oklahoma,74104
10,Overcast,2016-04-26 14:28:00,68.0,,20.7,74,N/A,29.70,77.0,9:28 AM,,10.0,South,12.7,180,Tulsa,Oklahoma,74104
11,Mostly Cloudy,2016-04-26 14:53:00,68.0,,21.9,71,N/A,29.70,78.1,9:53 AM,,10.0,South,15.0,180,Tulsa,Oklahoma,74104
12,Overcast,2016-04-26 15:20:00,66.9,,21.9,68,N/A,29.69,78.1,10:20 AM,,10.0,South,11.5,180,Tulsa,Oklahoma,74104
13,Overcast,2016-04-26 15:53:00,66.9,,23.0,66,N/A,29.68,79.0,10:53 AM,,10.0,South,18.4,180,Tulsa,Oklahoma,74104
14,Mostly Cloudy,2016-04-26 16:14:00,66.9,,21.9,66,N/A,29.67,79.0,11:14 AM,,10.0,South,16.1,180,Tulsa,Oklahoma,74104
15,Overcast,2016-04-26 16:24:00,66.0,,25.3,64,N/A,29.68,79.0,11:24 AM,,10.0,South,16.1,190,Tulsa,Oklahoma,74104
16,Overcast,2016-04-26 16:43:00,64.9,,24.2,64,N/A,29.68,78.1,11:43 AM,,10.0,SSW,18.4,200,Tulsa,Oklahoma,74104
17,Overcast,2016-04-26 16:53:00,64.9,,-,64,N/A,29.68,78.1,11:53 AM,,10.0,South,16.1,190,Tulsa,Oklahoma,74104
18,Partly Cloudy,2016-04-26 17:53:00,64.9,,21.9,66,N/A,29.67,77.0,12:53 PM,,10.0,South,15.0,190,Tulsa,Oklahoma,74104
19,Mostly Cloudy,2016-04-26 18:22:00,66.0,Thunderstorm,-,73,N/A,29.68,75.0,1:22 PM,,10.0,WSW,6.9,240,Tulsa,Oklahoma,74104
20,Light Thunderstorms and Rain,2016-04-26 18:34:00,66.0,Rain-Thunderstorm,-,73,0.03,29.68,75.0,1:34 PM,,4.0,Variable,3.5,0,Tulsa,Oklahoma,74104
21,Light Thunderstorms and Rain,2016-04-26 18:53:00,66.9,Rain-Thunderstorm,-,81,0.04,29.67,73.0,1:53 PM,,10.0,ESE,6.9,110,Tulsa,Oklahoma,74104
22,Partly Cloudy,2016-04-26 19:04:00,66.9,,-,79,0.00,29.65,73.9,2:04 PM,,10.0,SSE,5.8,150,Tulsa,Oklahoma,74104
23,Partly Cloudy,2016-04-26 19:53:00,69.1,,-,69,0.00,29.64,80.1,2:53 PM,,10.0,ESE,8.1,110,Tulsa,Oklahoma,74104
24,Overcast,2016-04-26 20:53:00,68.0,,-,65,N/A,29.61,81.0,3:53 PM,,10.0,SSE,9.2,160,Tulsa,Oklahoma,74104
25,Mostly Cloudy,2016-04-26 21:53:00,66.0,,19.6,56,N/A,29.58,82.9,4:53 PM,,10.0,SSE,13.8,160,Tulsa,Oklahoma,74104
26,Scattered Clouds,2016-04-26 22:53:00,64.9,,24.2,54,N/A,29.54,82.9,5:53 PM,,10.0,South,15.0,170,Tulsa,Oklahoma,74104
27,Overcast,2016-04-26 23:53:00,64.9,,24.2,58,N/A,29.54,81.0,6:53 PM,,10.0,South,16.1,170,Tulsa,Oklahoma,74104
28,Overcast,2016-04-27 00:53:00,64.9,,-,60,N/A,29.54,80.1,7:53 PM,,10.0,South,12.7,190,Tulsa,Oklahoma,74104
29,Overcast,2016-04-27 01:53:00,64.9,,-,62,N/A,29.55,79.0,8:53 PM,,10.0,South,10.4,170,Tulsa,Oklahoma,74104
30,Mostly Cloudy,2016-04-27 02:53:00,64.9,Thunderstorm,-,64,N/A,29.57,78.1,9:53 PM,,10.0,South,11.5,180,Tulsa,Oklahoma,74104
31,Light Rain,2016-04-27 03:26:00,57.9,Rain,31.1,75,0.01,29.64,66.0,10:26 PM,,8.0,West,11.5,270,Tulsa,Oklahoma,74104
32,Heavy Thunderstorms and Rain,2016-04-27 03:36:00,57.9,Rain-Thunderstorm,28.8,90,0.24,29.62,61.0,10:36 PM,,1.2,WNW,10.4,290,Tulsa,Oklahoma,74104
33,Heavy Thunderstorms and Rain,2016-04-27 03:44:00,57.9,Rain-Thunderstorm,25.3,90,0.28,29.65,61.0,10:44 PM,,2.0,WSW,10.4,250,Tulsa,Oklahoma,74104
34,Heavy Thunderstorms and Rain,2016-04-27 03:53:00,57.9,Rain-Thunderstorm,28.8,93,0.43,29.63,60.1,10:53 PM,,1.8,NW,9.2,310,Tulsa,Oklahoma,74104
35,Thunderstorms and Rain,2016-04-27 04:01:00,57.9,Rain-Thunderstorm,17.3,90,0.04,29.63,61.0,11:01 PM,,3.0,Variable,6.9,0,Tulsa,Oklahoma,74104
36,Heavy Rain,2016-04-27 04:32:00,57.9,Rain-Thunderstorm,-,90,0.14,29.70,61.0,11:32 PM,,3.0,Variable,4.6,0,Tulsa,Oklahoma,74104
37,Heavy Thunderstorms and Rain,2016-04-27 04:45:00,57.9,Rain-Thunderstorm,-,93,0.21,29.69,60.1,11:45 PM,,2.5,West,4.6,260,Tulsa,Oklahoma,74104
38,Heavy Thunderstorms and Rain,2016-04-27 04:53:00,57.9,Rain-Thunderstorm,-,93,0.27,29.71,60.1,11:53 PM,,2.0,Variable,3.5,0,Tulsa,Oklahoma,74104
0,Heavy Thunderstorms and Rain,2016-04-27 05:12:00,57.9,Rain-Thunderstorm,-,93,0.11,29.65,60.1,12:12 AM,,5.0,East,4.6,100,Tulsa,Oklahoma,74104
1,Thunderstorms and Rain,2016-04-27 05:53:00,57.9,Rain-Thunderstorm,-,93,0.22,29.56,60.1,12:53 AM,,7.0,ENE,16.1,60,Tulsa,Oklahoma,74104
2,Light Rain,2016-04-27 06:02:00,55.9,Rain-Thunderstorm,34.5,83,0.00,29.48,61.0,1:02 AM,,10.0,ENE,19.6,70,Tulsa,Oklahoma,74104
3,Clear,2016-04-27 06:29:00,57.0,,-,87,0.00,29.56,61.0,1:29 AM,,10.0,SE,9.2,130,Tulsa,Oklahoma,74104
4,Clear,2016-04-27 06:53:00,57.0,,-,90,0.00,29.58,60.1,1:53 AM,,10.0,ESE,9.2,120,Tulsa,Oklahoma,74104
5,Scattered Clouds,2016-04-27 07:21:00,57.0,,-,90,N/A,29.59,60.1,2:21 AM,,10.0,SSE,6.9,160,Tulsa,Oklahoma,74104
6,Partly Cloudy,2016-04-27 07:53:00,57.9,,-,93,N/A,29.60,60.1,2:53 AM,,10.0,South,5.8,170,Tulsa,Oklahoma,74104
7,Clear,2016-04-27 08:53:00,57.0,,-,93,N/A,29.55,59.0,3:53 AM,,10.0,ESE,4.6,120,Tulsa,Oklahoma,74104
8,Mostly Cloudy,2016-04-27 09:30:00,57.0,,-,93,N/A,29.59,59.0,4:30 AM,,10.0,SSW,5.8,210,Tulsa,Oklahoma,74104
9,Overcast,2016-04-27 09:53:00,57.0,,-,93,N/A,29.60,59.0,4:53 AM,,10.0,SSW,4.6,200,Tulsa,Oklahoma,74104
10,Scattered Clouds,2016-04-27 10:34:00,57.0,,-,90,N/A,29.58,60.1,5:34 AM,,10.0,South,8.1,180,Tulsa,Oklahoma,74104
11,Partly Cloudy,2016-04-27 10:53:00,57.0,,-,93,N/A,29.58,59.0,5:53 AM,,10.0,South,6.9,180,Tulsa,Oklahoma,74104
12,Clear,2016-04-27 11:53:00,55.9,,-,93,N/A,29.58,57.9,6:53 AM,,10.0,SW,5.8,220,Tulsa,Oklahoma,74104
13,Scattered Clouds,2016-04-27 12:53:00,57.0,,-,87,N/A,29.60,61.0,7:53 AM,,10.0,South,9.2,170,Tulsa,Oklahoma,74104
14,Mostly Cloudy,2016-04-27 13:03:00,57.0,,-,87,N/A,29.58,61.0,8:03 AM,,10.0,South,8.1,180,Tulsa,Oklahoma,74104
15,Overcast,2016-04-27 13:53:00,57.9,,-,86,N/A,29.62,62.1,8:53 AM,,10.0,SSW,6.9,210,Tulsa,Oklahoma,74104
16,Overcast,2016-04-27 14:28:00,57.9,,-,84,N/A,29.61,63.0,9:28 AM,,10.0,SSW,9.2,210,Tulsa,Oklahoma,74104
17,Overcast,2016-04-27 14:53:00,57.9,,-,80,N/A,29.63,64.0,9:53 AM,,10.0,SW,9.2,220,Tulsa,Oklahoma,74104
18,Mostly Cloudy,2016-04-27 15:53:00,57.0,,17.3,73,N/A,29.64,66.0,10:53 AM,,10.0,SW,8.1,230,Tulsa,Oklahoma,74104
19,Scattered Clouds,2016-04-27 16:01:00,57.9,,18.4,70,N/A,29.62,68.0,11:01 AM,,10.0,SW,8.1,230,Tulsa,Oklahoma,74104
20,Clear,2016-04-27 16:53:00,55.9,,-,61,N/A,29.65,70.0,11:53 AM,,10.0,SW,8.1,230,Tulsa,Oklahoma,74104
21,Partly Cloudy,2016-04-27 17:53:00,55.9,,-,57,N/A,29.66,72.0,12:53 PM,,10.0,WSW,9.2,250,Tulsa,Oklahoma,74104
22,Partly Cloudy,2016-04-27 18:53:00,55.9,,17.3,55,N/A,29.67,73.0,1:53 PM,,10.0,WSW,10.4,240,Tulsa,Oklahoma,74104
23,Partly Cloudy,2016-04-27 19:53:00,53.1,,-,49,N/A,29.68,73.0,2:53 PM,,10.0,Variable,5.8,0,Tulsa,Oklahoma,74104
24,Partly Cloudy,2016-04-27 19:59:00,53.1,,-,49,N/A,29.67,73.0,2:59 PM,,10.0,WSW,8.1,250,Tulsa,Oklahoma,74104
25,Clear,2016-04-27 20:53:00,52.0,,-,46,N/A,29.69,73.9,3:53 PM,,10.0,West,9.2,260,Tulsa,Oklahoma,74104
26,Clear,2016-04-27 21:53:00,48.9,,17.3,42,N/A,29.68,73.0,4:53 PM,,10.0,WSW,9.2,240,Tulsa,Oklahoma,74104
27,Clear,2016-04-27 22:53:00,48.9,,17.3,42,N/A,29.69,73.0,5:53 PM,,10.0,West,5.8,260,Tulsa,Oklahoma,74104
28,Clear,2016-04-27 23:53:00,48.9,,-,44,N/A,29.70,72.0,6:53 PM,,10.0,West,6.9,260,Tulsa,Oklahoma,74104
29,Clear,2016-04-28 00:53:00,50.0,,-,51,N/A,29.72,69.1,7:53 PM,,10.0,Variable,3.5,0,Tulsa,Oklahoma,74104
30,Clear,2016-04-28 01:53:00,55.0,,-,83,N/A,29.75,60.1,8:53 PM,,10.0,Calm,Calm,0,Tulsa,Oklahoma,74104
31,Clear,2016-04-28 02:53:00,54.0,,-,83,N/A,29.78,59.0,9:53 PM,,10.0,Calm,Calm,0,Tulsa,Oklahoma,74104
32,Clear,2016-04-28 03:53:00,53.1,,-,84,N/A,29.80,57.9,10:53 PM,,10.0,Calm,Calm,0,Tulsa,Oklahoma,74104
33,Clear,2016-04-28 04:53:00,52.0,,-,87,N/A,29.82,55.9,11:53 PM,,10.0,Calm,Calm,0,Tulsa,Oklahoma,74104
0,Clear,2016-04-28 05:53:00,46.0,,-,60,N/A,29.83,60.1,12:53 AM,,10.0,NNW,4.6,340,Tulsa,Oklahoma,74104
1,Clear,2016-04-28 06:53:00,46.0,,-,69,N/A,29.83,55.9,1:53 AM,,10.0,NNE,3.5,30,Tulsa,Oklahoma,74104
2,Clear,2016-04-28 07:53:00,48.0,,-,83,N/A,29.87,53.1,2:53 AM,,10.0,Calm,Calm,0,Tulsa,Oklahoma,74104
3,Clear,2016-04-28 08:53:00,48.0,,-,89,N/A,29.89,51.1,3:53 AM,,10.0,Calm,Calm,0,Tulsa,Oklahoma,74104
4,Clear,2016-04-28 09:53:00,46.9,,-,89,N/A,29.91,50.0,4:53 AM,,10.0,Calm,Calm,0,Tulsa,Oklahoma,74104
5,Clear,2016-04-28 10:53:00,46.0,,-,90,N/A,29.91,48.9,5:53 AM,,10.0,Calm,Calm,0,Tulsa,Oklahoma,74104
6,Clear,2016-04-28 11:53:00,46.0,,-,86,N/A,29.94,50.0,6:53 AM,,10.0,North,3.5,350,Tulsa,Oklahoma,74104
7,Clear,2016-04-28 12:53:00,45.0,,-,64,N/A,29.96,57.0,7:53 AM,,10.0,Calm,Calm,0,Tulsa,Oklahoma,74104
8,Clear,2016-04-28 13:53:00,41.0,,-,49,N/A,29.96,60.1,8:53 AM,,10.0,North,5.8,360,Tulsa,Oklahoma,74104
9,Clear,2016-04-28 14:53:00,42.1,,-,46,N/A,29.99,63.0,9:53 AM,,10.0,NNE,4.6,20,Tulsa,Oklahoma,74104
10,Clear,2016-04-28 15:53:00,43.0,,-,45,N/A,29.99,64.9,10:53 AM,,10.0,ENE,4.6,60,Tulsa,Oklahoma,74104
11,Clear,2016-04-28 16:53:00,44.1,,-,42,N/A,29.99,68.0,11:53 AM,,10.0,Variable,3.5,0,Tulsa,Oklahoma,74104
12,Clear,2016-04-28 17:53:00,45.0,,-,41,N/A,29.99,70.0,12:53 PM,,10.0,Calm,Calm,0,Tulsa,Oklahoma,74104
13,Clear,2016-04-28 18:53:00,46.9,,-,41,N/A,29.98,72.0,1:53 PM,,10.0,Variable,4.6,0,Tulsa,Oklahoma,74104
14,Clear,2016-04-28 19:53:00,46.9,,-,39,N/A,29.97,73.0,2:53 PM,,10.0,Variable,6.9,0,Tulsa,Oklahoma,74104
15,Clear,2016-04-28 20:53:00,50.0,,-,41,N/A,29.96,75.0,3:53 PM,,10.0,Variable,6.9,0,Tulsa,Oklahoma,74104
16,Clear,2016-04-28 21:53:00,48.9,,-,40,N/A,29.94,75.0,4:53 PM,,10.0,ENE,8.1,70,Tulsa,Oklahoma,74104
17,Clear,2016-04-28 22:53:00,48.9,,-,42,N/A,29.93,73.0,5:53 PM,,10.0,East,10.4,80,Tulsa,Oklahoma,74104
18,Clear,2016-04-28 23:53:00,50.0,,-,47,N/A,29.92,71.1,6:53 PM,,10.0,East,6.9,80,Tulsa,Oklahoma,74104
19,Clear,2016-04-29 00:53:00,48.9,,-,49,N/A,29.91,69.1,7:53 PM,,10.0,ENE,6.9,60,Tulsa,Oklahoma,74104
20,Clear,2016-04-29 01:53:00,48.9,,-,50,N/A,29.91,68.0,8:53 PM,,10.0,NE,8.1,50,Tulsa,Oklahoma,74104
21,Clear,2016-04-29 02:53:00,48.9,,-,54,N/A,29.94,66.0,9:53 PM,,10.0,NNE,6.9,30,Tulsa,Oklahoma,74104
22,Clear,2016-04-29 03:53:00,50.0,,-,56,N/A,29.94,66.0,10:53 PM,,10.0,NNE,6.9,30,Tulsa,Oklahoma,74104
23,Clear,2016-04-29 04:53:00,51.1,,-,63,N/A,29.93,64.0,11:53 PM,,10.0,NNE,9.2,30,Tulsa,Oklahoma,74104
0,Clear,2016-04-29 05:53:00,51.1,,-,63,N/A,29.94,64.0,12:53 AM,,10.0,NNE,9.2,30,Tulsa,Oklahoma,74104
1,Clear,2016-04-29 06:53:00,51.1,,-,65,N/A,29.92,63.0,1:53 AM,,10.0,NNE,10.4,30,Tulsa,Oklahoma,74104
2,Clear,2016-04-29 07:53:00,51.1,,-,67,N/A,29.88,62.1,2:53 AM,,10.0,NNE,9.2,30,Tulsa,Oklahoma,74104
3,Scattered Clouds,2016-04-29 08:53:00,51.1,,17.3,67,N/A,29.88,62.1,3:53 AM,,10.0,North,9.2,10,Tulsa,Oklahoma,74104
4,Light Rain,2016-04-29 09:46:00,51.1,Rain-Thunderstorm,-,67,0.00,29.85,62.1,4:46 AM,,10.0,NNE,11.5,20,Tulsa,Oklahoma,74104
5,Light Rain,2016-04-29 09:53:00,52.0,Rain-Thunderstorm,-,72,0.01,29.87,61.0,4:53 AM,,10.0,NNE,9.2,20,Tulsa,Oklahoma,74104
6,Rain,2016-04-29 10:01:00,52.0,Rain,-,75,0.01,29.85,60.1,5:01 AM,,10.0,NNE,12.7,30,Tulsa,Oklahoma,74104
7,Light Rain,2016-04-29 10:53:00,53.1,Rain,-,84,0.08,29.88,57.9,5:53 AM,,10.0,ENE,9.2,60,Tulsa,Oklahoma,74104
8,Light Rain,2016-04-29 11:53:00,54.0,Rain,20.7,89,0.11,29.88,57.0,6:53 AM,,10.0,NE,11.5,40,Tulsa,Oklahoma,74104
9,Mostly Cloudy,2016-04-29 12:49:00,53.6,,-,88,0.01,29.85,57.2,7:49 AM,,10.0,NE,8.1,40,Tulsa,Oklahoma,74104
10,Mostly Cloudy,2016-04-29 12:53:00,54.0,,-,89,0.01,29.87,57.0,7:53 AM,,10.0,NE,9.2,40,Tulsa,Oklahoma,74104
11,Overcast,2016-04-29 13:37:00,55.0,,-,90,N/A,29.84,57.9,8:37 AM,,10.0,NE,11.5,40,Tulsa,Oklahoma,74104
12,Mostly Cloudy,2016-04-29 13:50:00,55.4,,-,94,N/A,29.83,57.2,8:50 AM,,10.0,ENE,10.4,60,Tulsa,Oklahoma,74104
13,Mostly Cloudy,2016-04-29 13:53:00,55.0,,-,90,N/A,29.85,57.9,8:53 AM,,10.0,NE,10.4,50,Tulsa,Oklahoma,74104
14,Scattered Clouds,2016-04-29 14:08:00,55.0,,-,87,N/A,29.83,59.0,9:08 AM,,10.0,NNE,6.9,30,Tulsa,Oklahoma,74104
15,Mostly Cloudy,2016-04-29 14:42:00,57.0,,-,87,N/A,29.83,61.0,9:42 AM,,10.0,East,11.5,90,Tulsa,Oklahoma,74104
16,Overcast,2016-04-29 14:53:00,55.9,,-,83,N/A,29.85,61.0,9:53 AM,,10.0,East,11.5,90,Tulsa,Oklahoma,74104
17,Overcast,2016-04-29 15:06:00,57.0,,16.1,84,N/A,29.83,62.1,10:06 AM,,10.0,East,12.7,100,Tulsa,Oklahoma,74104
18,Overcast,2016-04-29 15:51:00,57.2,,18.4,82,N/A,29.82,62.6,10:51 AM,,10.0,ESE,13.8,110,Tulsa,Oklahoma,74104
19,Overcast,2016-04-29 15:53:00,57.0,,18.4,81,N/A,29.84,63.0,10:53 AM,,10.0,East,15.0,100,Tulsa,Oklahoma,74104
20,Light Rain,2016-04-29 16:53:00,59.0,Rain,-,84,0.01,29.82,64.0,11:53 AM,,9.0,East,6.9,80,Tulsa,Oklahoma,74104
21,Overcast,2016-04-29 17:53:00,60.1,,-,81,0.00,29.79,66.0,12:53 PM,,10.0,East,8.1,90,Tulsa,Oklahoma,74104
22,Overcast,2016-04-29 18:53:00,62.1,,-,78,N/A,29.75,69.1,1:53 PM,,10.0,East,12.7,80,Tulsa,Oklahoma,74104
23,Overcast,2016-04-29 19:53:00,62.1,,-,71,N/A,29.70,72.0,2:53 PM,,10.0,East,15.0,90,Tulsa,Oklahoma,74104
24,Mostly Cloudy,2016-04-29 20:53:00,62.1,,-,68,N/A,29.65,73.0,3:53 PM,,10.0,ESE,13.8,110,Tulsa,Oklahoma,74104
25,Light Thunderstorms and Rain,2016-04-29 21:41:00,62.1,Rain-Thunderstorm,-,73,0.00,29.63,71.1,4:41 PM,,10.0,ESE,12.7,120,Tulsa,Oklahoma,74104
26,Thunderstorm,2016-04-29 21:53:00,62.1,Thunderstorm,-,73,0.00,29.64,71.1,4:53 PM,,10.0,SE,9.2,130,Tulsa,Oklahoma,74104
27,Light Rain,2016-04-29 22:05:00,63.0,Rain-Thunderstorm,-,78,0.01,29.63,70.0,5:05 PM,,10.0,ESE,6.9,120,Tulsa,Oklahoma,74104
28,Overcast,2016-04-29 22:27:00,63.0,,-,78,0.01,29.64,70.0,5:27 PM,,10.0,SE,5.8,130,Tulsa,Oklahoma,74104
29,Light Rain,2016-04-29 22:37:00,63.0,Rain-Thunderstorm,-,78,0.01,29.63,70.0,5:37 PM,,10.0,Variable,3.5,0,Tulsa,Oklahoma,74104
30,Thunderstorms and Rain,2016-04-29 22:45:00,63.0,Rain-Thunderstorm,-,81,0.03,29.62,69.1,5:45 PM,,6.0,Variable,3.5,0,Tulsa,Oklahoma,74104
31,Heavy Thunderstorms and Rain,2016-04-29 22:53:00,63.0,Rain-Thunderstorm,-,84,0.07,29.64,68.0,5:53 PM,,3.0,East,4.6,100,Tulsa,Oklahoma,74104
32,Heavy Thunderstorms and Rain,2016-04-29 22:58:00,63.0,Rain-Thunderstorm,-,84,0.12,29.61,68.0,5:58 PM,,1.8,ESE,9.2,110,Tulsa,Oklahoma,74104
33,Light Rain,2016-04-29 23:10:00,64.0,Rain-Thunderstorm,-,90,0.18,29.61,66.9,6:10 PM,,3.0,East,5.8,100,Tulsa,Oklahoma,74104
34,Overcast,2016-04-29 23:38:00,63.0,,-,87,0.18,29.62,66.9,6:38 PM,,10.0,ESE,8.1,110,Tulsa,Oklahoma,74104
35,Overcast,2016-04-29 23:53:00,64.0,,-,90,0.18,29.64,66.9,6:53 PM,,10.0,ESE,6.9,110,Tulsa,Oklahoma,74104
36,Overcast,2016-04-29 23:57:00,63.0,Thunderstorm,-,87,N/A,29.61,66.9,6:57 PM,,10.0,East,8.1,90,Tulsa,Oklahoma,74104
37,Light Rain,2016-04-30 00:18:00,63.0,Rain-Thunderstorm,-,87,0.01,29.64,66.9,7:18 PM,,10.0,Variable,3.5,0,Tulsa,Oklahoma,74104
38,Heavy Thunderstorms and Rain,2016-04-30 00:31:00,64.0,Rain-Thunderstorm,23.0,93,0.06,29.60,66.0,7:31 PM,,4.0,East,16.1,80,Tulsa,Oklahoma,74104
39,Light Thunderstorms and Rain,2016-04-30 00:50:00,64.4,Rain-Thunderstorm,32.2,94,0.07,29.54,66.2,7:50 PM,,10.0,East,19.6,80,Tulsa,Oklahoma,74104
40,Light Thunderstorms and Rain,2016-04-30 00:53:00,64.0,Rain-Thunderstorm,32.2,93,0.07,29.55,66.0,7:53 PM,,10.0,ENE,17.3,70,Tulsa,Oklahoma,74104
41,Light Rain,2016-04-30 00:55:00,64.0,Rain-Thunderstorm,32.2,93,0.00,29.53,66.0,7:55 PM,,10.0,ENE,18.4,70,Tulsa,Oklahoma,74104
42,Light Thunderstorms and Rain,2016-04-30 01:09:00,64.0,Rain-Thunderstorm,23.0,93,0.00,29.55,66.0,8:09 PM,,10.0,East,12.7,100,Tulsa,Oklahoma,74104
43,Light Thunderstorms and Rain,2016-04-30 01:18:00,63.0,Rain-Thunderstorm,-,90,0.00,29.52,66.0,8:18 PM,,10.0,ENE,12.7,70,Tulsa,Oklahoma,74104
44,Light Rain,2016-04-30 01:28:00,62.1,Rain-Thunderstorm,-,84,0.00,29.54,66.9,8:28 PM,,10.0,Variable,5.8,0,Tulsa,Oklahoma,74104
45,Light Rain,2016-04-30 01:43:00,63.0,Rain,-,84,0.00,29.59,68.0,8:43 PM,,10.0,SSW,4.6,200,Tulsa,Oklahoma,74104
46,Light Rain,2016-04-30 01:53:00,63.0,Rain,-,84,0.00,29.61,68.0,8:53 PM,,10.0,South,6.9,190,Tulsa,Oklahoma,74104
47,Scattered Clouds,2016-04-30 02:28:00,63.0,,-,87,0.00,29.63,66.9,9:28 PM,,10.0,South,5.8,170,Tulsa,Oklahoma,74104
48,Mostly Cloudy,2016-04-30 02:53:00,63.0,,-,87,0.00,29.66,66.9,9:53 PM,,10.0,South,5.8,190,Tulsa,Oklahoma,74104
49,Clear,2016-04-30 03:53:00,62.1,,-,90,N/A,29.67,64.9,10:53 PM,,10.0,South,6.9,180,Tulsa,Oklahoma,74104
50,Overcast,2016-04-30 04:53:00,62.1,,-,90,N/A,29.66,64.9,11:53 PM,,10.0,Calm,Calm,0,Tulsa,Oklahoma,74104
0,Overcast,2016-04-30 05:49:00,62.6,,-,94,N/A,29.64,64.4,12:49 AM,,10.0,Calm,Calm,0,Tulsa,Oklahoma,74104
1,Overcast,2016-04-30 05:53:00,63.0,,-,93,N/A,29.66,64.9,12:53 AM,,10.0,Calm,Calm,0,Tulsa,Oklahoma,74104
2,Overcast,2016-04-30 06:25:00,63.0,,-,93,N/A,29.63,64.9,1:25 AM,,10.0,South,3.5,180,Tulsa,Oklahoma,74104
3,Overcast,2016-04-30 06:35:00,63.0,,-,93,N/A,29.64,64.9,1:35 AM,,10.0,Calm,Calm,0,Tulsa,Oklahoma,74104
4,Overcast,2016-04-30 06:53:00,63.0,,-,93,N/A,29.66,64.9,1:53 AM,,10.0,Calm,Calm,0,Tulsa,Oklahoma,74104
5,Overcast,2016-04-30 07:11:00,63.0,,-,93,N/A,29.65,64.9,2:11 AM,,10.0,Calm,Calm,0,Tulsa,Oklahoma,74104
6,Overcast,2016-04-30 07:36:00,63.0,,-,93,N/A,29.65,64.9,2:36 AM,,10.0,Calm,Calm,0,Tulsa,Oklahoma,74104
7,Overcast,2016-04-30 07:53:00,63.0,,-,93,N/A,29.66,64.9,2:53 AM,,10.0,Calm,Calm,0,Tulsa,Oklahoma,74104
8,Overcast,2016-04-30 08:08:00,63.0,,-,96,N/A,29.65,64.0,3:08 AM,,10.0,WSW,3.5,240,Tulsa,Oklahoma,74104
9,Overcast,2016-04-30 08:31:00,62.1,,-,93,N/A,29.64,64.0,3:31 AM,,10.0,SW,5.8,230,Tulsa,Oklahoma,74104
10,Overcast,2016-04-30 08:40:00,62.1,,-,93,N/A,29.64,64.0,3:40 AM,,10.0,WSW,4.6,240,Tulsa,Oklahoma,74104
11,Overcast,2016-04-30 08:53:00,61.0,,-,90,N/A,29.66,64.0,3:53 AM,,10.0,Variable,5.8,0,Tulsa,Oklahoma,74104
12,Overcast,2016-04-30 09:53:00,57.9,,-,93,N/A,29.69,60.1,4:53 AM,,5.0,Variable,4.6,0,Tulsa,Oklahoma,74104
13,Overcast,2016-04-30 10:15:00,57.0,,-,90,N/A,29.68,60.1,5:15 AM,,10.0,Variable,6.9,0,Tulsa,Oklahoma,74104
14,Overcast,2016-04-30 10:34:00,55.9,,-,90,N/A,29.68,59.0,5:34 AM,,10.0,Variable,5.8,0,Tulsa,Oklahoma,74104
15,Overcast,2016-04-30 10:53:00,55.0,,-,90,N/A,29.71,57.9,5:53 AM,,10.0,West,4.6,260,Tulsa,Oklahoma,74104
16,Overcast,2016-04-30 11:53:00,54.0,,-,89,N/A,29.75,57.0,6:53 AM,,10.0,WSW,4.6,240,Tulsa,Oklahoma,74104
17,Overcast,2016-04-30 12:43:00,54.0,,-,89,N/A,29.75,57.0,7:43 AM,,10.0,West,3.5,260,Tulsa,Oklahoma,74104
18,Overcast,2016-04-30 12:53:00,53.1,,-,84,N/A,29.78,57.9,7:53 AM,,10.0,Variable,3.5,0,Tulsa,Oklahoma,74104
19,Overcast,2016-04-30 13:28:00,52.0,,-,83,N/A,29.77,57.0,8:28 AM,,10.0,Variable,3.5,0,Tulsa,Oklahoma,74104
20,Overcast,2016-04-30 13:38:00,52.0,,-,83,N/A,29.77,57.0,8:38 AM,,10.0,WSW,4.6,250,Tulsa,Oklahoma,74104
21,Overcast,2016-04-30 13:51:00,51.8,,-,82,N/A,29.77,57.2,8:51 AM,,10.0,Variable,6.9,0,Tulsa,Oklahoma,74104
22,Overcast,2016-04-30 13:53:00,52.0,,-,83,N/A,29.79,57.0,8:53 AM,,10.0,Variable,4.6,0,Tulsa,Oklahoma,74104
23,Overcast,2016-04-30 14:19:00,51.1,,-,78,N/A,29.78,57.9,9:19 AM,,10.0,Variable,5.8,0,Tulsa,Oklahoma,74104
24,Mostly Cloudy,2016-04-30 14:53:00,52.0,,-,81,N/A,29.81,57.9,9:53 AM,,10.0,Variable,6.9,0,Tulsa,Oklahoma,74104
25,Mostly Cloudy,2016-04-30 15:05:00,51.1,,-,72,N/A,29.78,60.1,10:05 AM,,10.0,Variable,4.6,0,Tulsa,Oklahoma,74104
26,Scattered Clouds,2016-04-30 15:19:00,52.0,,-,78,N/A,29.78,59.0,10:19 AM,,10.0,Variable,5.8,0,Tulsa,Oklahoma,74104
27,Mostly Cloudy,2016-04-30 15:26:00,50.0,,-,72,N/A,29.78,59.0,10:26 AM,,10.0,Variable,6.9,0,Tulsa,Oklahoma,74104
28,Scattered Clouds,2016-04-30 15:34:00,50.0,,-,72,N/A,29.78,59.0,10:34 AM,,10.0,West,9.2,280,Tulsa,Oklahoma,74104
29,Partly Cloudy,2016-04-30 15:53:00,51.1,,-,72,N/A,29.81,60.1,10:53 AM,,10.0,Variable,4.6,0,Tulsa,Oklahoma,74104
30,Clear,2016-04-30 16:53:00,51.1,,-,67,N/A,29.81,62.1,11:53 AM,,10.0,WSW,9.2,250,Tulsa,Oklahoma,74104
31,Clear,2016-04-30 17:53:00,51.1,,-,67,N/A,29.83,62.1,12:53 PM,,10.0,Variable,6.9,0,Tulsa,Oklahoma,74104
32,Clear,2016-04-30 18:53:00,51.1,,-,65,N/A,29.82,63.0,1:53 PM,,10.0,West,8.1,280,Tulsa,Oklahoma,74104
33,Clear,2016-04-30 19:53:00,52.0,,-,60,N/A,29.81,66.0,2:53 PM,,10.0,Variable,6.9,0,Tulsa,Oklahoma,74104
34,Clear,2016-04-30 20:53:00,51.1,,-,55,N/A,29.80,68.0,3:53 PM,,10.0,NW,8.1,310,Tulsa,Oklahoma,74104
35,Clear,2016-04-30 21:53:00,51.1,,-,53,N/A,29.79,69.1,4:53 PM,,10.0,North,6.9,350,Tulsa,Oklahoma,74104
36,Clear,2016-04-30 22:53:00,51.1,,-,51,N/A,29.79,70.0,5:53 PM,,10.0,Variable,3.5,0,Tulsa,Oklahoma,74104
37,Clear,2016-04-30 23:53:00,50.0,,-,49,N/A,29.81,70.0,6:53 PM,,10.0,Variable,4.6,0,Tulsa,Oklahoma,74104
38,Clear,2016-05-01 00:53:00,48.9,,-,54,N/A,29.84,66.0,7:53 PM,,10.0,NNW,4.6,340,Tulsa,Oklahoma,74104
39,Clear,2016-05-01 01:53:00,50.0,,-,63,N/A,29.88,63.0,8:53 PM,,10.0,Variable,4.6,0,Tulsa,Oklahoma,74104
40,Clear,2016-05-01 02:53:00,48.0,,-,60,N/A,29.91,62.1,9:53 PM,,10.0,Calm,Calm,0,Tulsa,Oklahoma,74104
41,Clear,2016-05-01 03:53:00,46.9,,-,62,N/A,29.94,60.1,10:53 PM,,10.0,Variable,3.5,0,Tulsa,Oklahoma,74104
42,Clear,2016-05-01 04:53:00,46.0,,-,65,N/A,29.96,57.9,11:53 PM,,10.0,Variable,3.5,0,Tulsa,Oklahoma,74104
0,Clear,2016-05-01 05:53:00,48.0,,-,80,N/A,29.97,54.0,12:53 AM,,10.0,Calm,Calm,0,Tulsa,Oklahoma,74104
1,Clear,2016-05-01 06:53:00,46.9,,-,86,N/A,29.98,51.1,1:53 AM,,10.0,Calm,Calm,0,Tulsa,Oklahoma,74104
2,Clear,2016-05-01 07:53:00,46.9,,-,89,N/A,29.98,50.0,2:53 AM,,10.0,Calm,Calm,0,Tulsa,Oklahoma,74104
3,Clear,2016-05-01 08:53:00,46.0,,-,93,N/A,29.97,48.0,3:53 AM,,10.0,Calm,Calm,0,Tulsa,Oklahoma,74104
4,Clear,2016-05-01 09:53:00,46.0,,-,93,N/A,29.98,48.0,4:53 AM,,10.0,Calm,Calm,0,Tulsa,Oklahoma,74104
5,Clear,2016-05-01 10:53:00,46.9,,-,89,N/A,30.02,50.0,5:53 AM,,10.0,West,4.6,280,Tulsa,Oklahoma,74104
6,Clear,2016-05-01 11:53:00,44.1,,-,80,N/A,30.04,50.0,6:53 AM,,10.0,Variable,4.6,0,Tulsa,Oklahoma,74104
7,Clear,2016-05-01 12:53:00,42.1,,-,71,N/A,30.06,51.1,7:53 AM,,10.0,NW,5.8,320,Tulsa,Oklahoma,74104
8,Clear,2016-05-01 13:53:00,42.1,,-,66,N/A,30.08,53.1,8:53 AM,,10.0,Variable,5.8,0,Tulsa,Oklahoma,74104
9,Clear,2016-05-01 14:53:00,42.1,,17.3,62,N/A,30.10,55.0,9:53 AM,,10.0,WNW,10.4,300,Tulsa,Oklahoma,74104
10,Clear,2016-05-01 15:53:00,43.0,,-,59,N/A,30.10,57.0,10:53 AM,,10.0,Variable,4.6,0,Tulsa,Oklahoma,74104
11,Partly Cloudy,2016-05-01 16:53:00,43.0,,-,55,N/A,30.12,59.0,11:53 AM,,10.0,Variable,6.9,0,Tulsa,Oklahoma,74104
12,Clear,2016-05-01 17:53:00,43.0,,-,50,N/A,30.10,62.1,12:53 PM,,10.0,Variable,5.8,0,Tulsa,Oklahoma,74104
13,Partly Cloudy,2016-05-01 18:53:00,43.0,,21.9,46,N/A,30.09,64.0,1:53 PM,,10.0,Variable,6.9,0,Tulsa,Oklahoma,74104
14,Clear,2016-05-01 19:53:00,44.1,,-,44,N/A,30.07,66.9,2:53 PM,,10.0,Variable,5.8,0,Tulsa,Oklahoma,74104
15,Clear,2016-05-01 20:53:00,44.1,,-,44,N/A,30.06,66.9,3:53 PM,,10.0,North,9.2,360,Tulsa,Oklahoma,74104
16,Clear,2016-05-01 21:53:00,45.0,,-,45,N/A,30.07,66.9,4:53 PM,,10.0,North,8.1,10,Tulsa,Oklahoma,74104
17,Scattered Clouds,2016-05-01 22:53:00,45.0,,-,43,N/A,30.06,68.0,5:53 PM,,10.0,North,8.1,360,Tulsa,Oklahoma,74104
18,Overcast,2016-05-01 23:53:00,46.0,,-,50,N/A,30.06,64.9,6:53 PM,,10.0,NNW,8.1,340,Tulsa,Oklahoma,74104
19,Mostly Cloudy,2016-05-02 00:53:00,46.0,,-,56,N/A,30.09,62.1,7:53 PM,,10.0,North,9.2,360,Tulsa,Oklahoma,74104
20,Mostly Cloudy,2016-05-02 01:53:00,46.9,,-,60,N/A,30.12,61.0,8:53 PM,,10.0,North,9.2,350,Tulsa,Oklahoma,74104
21,Overcast,2016-05-02 02:53:00,48.0,,-,70,0.00,30.13,57.9,9:53 PM,,10.0,North,6.9,350,Tulsa,Oklahoma,74104
22,Overcast,2016-05-02 03:53:00,48.0,,-,72,0.00,30.15,57.0,10:53 PM,,10.0,Variable,4.6,0,Tulsa,Oklahoma,74104
23,Mostly Cloudy,2016-05-02 04:53:00,46.9,,-,72,N/A,30.15,55.9,11:53 PM,,10.0,NNW,5.8,330,Tulsa,Oklahoma,74104
0,Mostly Cloudy,2016-05-02 05:53:00,46.0,,-,72,N/A,30.17,55.0,12:53 AM,,10.0,NNW,5.8,340,Tulsa,Oklahoma,74104
1,Clear,2016-05-02 06:53:00,46.0,,-,75,N/A,30.16,54.0,1:53 AM,,10.0,North,3.5,350,Tulsa,Oklahoma,74104
2,Clear,2016-05-02 07:53:00,46.0,,-,80,N/A,30.15,52.0,2:53 AM,,10.0,NW,4.6,320,Tulsa,Oklahoma,74104
3,Clear,2016-05-02 08:53:00,46.0,,-,83,N/A,30.13,51.1,3:53 AM,,10.0,NNW,3.5,330,Tulsa,Oklahoma,74104
4,Clear,2016-05-02 09:53:00,46.0,,-,86,N/A,30.12,50.0,4:53 AM,,10.0,NNW,3.5,330,Tulsa,Oklahoma,74104
5,Mostly Cloudy,2016-05-02 10:50:00,46.4,,-,82,N/A,30.10,51.8,5:50 AM,,10.0,Variable,3.5,0,Tulsa,Oklahoma,74104
6,Mostly Cloudy,2016-05-02 10:53:00,46.0,,-,83,N/A,30.13,51.1,5:53 AM,,10.0,NNW,3.5,330,Tulsa,Oklahoma,74104
7,Overcast,2016-05-02 11:34:00,46.9,,-,83,N/A,30.11,52.0,6:34 AM,,10.0,NNW,3.5,330,Tulsa,Oklahoma,74104
8,Overcast,2016-05-02 11:53:00,46.9,,-,83,N/A,30.14,52.0,6:53 AM,,10.0,NNW,5.8,330,Tulsa,Oklahoma,74104
9,Overcast,2016-05-02 12:53:00,46.0,,-,77,N/A,30.16,53.1,7:53 AM,,10.0,NNW,6.9,340,Tulsa,Oklahoma,74104
10,Overcast,2016-05-02 13:03:00,46.0,,-,75,N/A,30.13,54.0,8:03 AM,,10.0,Variable,6.9,0,Tulsa,Oklahoma,74104
11,Overcast,2016-05-02 13:20:00,46.0,,-,75,N/A,30.14,54.0,8:20 AM,,10.0,NNW,5.8,340,Tulsa,Oklahoma,74104
12,Overcast,2016-05-02 13:28:00,46.0,,-,75,N/A,30.14,54.0,8:28 AM,,10.0,Variable,4.6,0,Tulsa,Oklahoma,74104
13,Overcast,2016-05-02 13:53:00,46.0,,-,75,N/A,30.17,54.0,8:53 AM,,10.0,North,4.6,350,Tulsa,Oklahoma,74104
14,Overcast,2016-05-02 14:53:00,46.0,,-,72,N/A,30.19,55.0,9:53 AM,,10.0,North,5.8,350,Tulsa,Oklahoma,74104
15,Overcast,2016-05-02 15:12:00,45.0,,-,69,N/A,30.16,55.0,10:12 AM,,10.0,NNW,5.8,340,Tulsa,Oklahoma,74104
16,Overcast,2016-05-02 15:53:00,45.0,,-,67,N/A,30.19,55.9,10:53 AM,,10.0,North,5.8,10,Tulsa,Oklahoma,74104
17,Overcast,2016-05-02 16:06:00,45.0,,-,69,N/A,30.17,55.0,11:06 AM,,10.0,NNW,6.9,340,Tulsa,Oklahoma,74104
18,Overcast,2016-05-02 16:53:00,45.0,,-,67,N/A,30.19,55.9,11:53 AM,,10.0,North,5.8,350,Tulsa,Oklahoma,74104
19,Overcast,2016-05-02 17:53:00,44.1,,-,64,N/A,30.18,55.9,12:53 PM,,10.0,Variable,5.8,0,Tulsa,Oklahoma,74104
20,Overcast,2016-05-02 18:53:00,44.1,,-,62,N/A,30.17,57.0,1:53 PM,,10.0,Variable,4.6,0,Tulsa,Oklahoma,74104
21,Mostly Cloudy,2016-05-02 19:53:00,44.1,,-,52,N/A,30.15,62.1,2:53 PM,,10.0,NNW,6.9,340,Tulsa,Oklahoma,74104
22,Mostly Cloudy,2016-05-02 20:53:00,44.1,,-,58,N/A,30.12,59.0,3:53 PM,,10.0,North,9.2,360,Tulsa,Oklahoma,74104
23,Overcast,2016-05-02 21:53:00,43.0,,-,52,N/A,30.12,61.0,4:53 PM,,10.0,NNW,5.8,330,Tulsa,Oklahoma,74104
24,Mostly Cloudy,2016-05-02 22:53:00,44.1,,-,54,N/A,30.12,61.0,5:53 PM,,10.0,North,6.9,10,Tulsa,Oklahoma,74104
25,Scattered Clouds,2016-05-02 23:53:00,44.1,,-,58,N/A,30.11,59.0,6:53 PM,,10.0,NNE,5.8,20,Tulsa,Oklahoma,74104
26,Partly Cloudy,2016-05-03 00:53:00,46.0,,-,69,N/A,30.09,55.9,7:53 PM,,10.0,NNW,3.5,340,Tulsa,Oklahoma,74104
27,Partly Cloudy,2016-05-03 01:53:00,46.9,,-,83,N/A,30.11,52.0,8:53 PM,,10.0,Calm,Calm,0,Tulsa,Oklahoma,74104
28,Clear,2016-05-03 02:53:00,46.9,,-,89,N/A,30.12,50.0,9:53 PM,,10.0,Calm,Calm,0,Tulsa,Oklahoma,74104
29,Clear,2016-05-03 03:53:00,46.9,,-,93,N/A,30.12,48.9,10:53 PM,,10.0,Calm,Calm,0,Tulsa,Oklahoma,74104
30,Clear,2016-05-03 04:53:00,46.0,,-,93,N/A,30.11,48.0,11:53 PM,,10.0,Calm,Calm,0,Tulsa,Oklahoma,74104
0,Clear,2016-05-03 05:53:00,45.0,,-,96,N/A,30.11,46.0,12:53 AM,,7.0,Calm,Calm,0,Tulsa,Oklahoma,74104
1,Clear,2016-05-03 06:25:00,44.1,,-,97,N/A,30.09,45.0,1:25 AM,,1.5,Calm,Calm,0,Tulsa,Oklahoma,74104
2,Clear,2016-05-03 06:36:00,44.1,,-,93,N/A,30.09,46.0,1:36 AM,,4.0,Calm,Calm,0,Tulsa,Oklahoma,74104
3,Clear,2016-05-03 06:53:00,44.1,,-,93,N/A,30.10,46.0,1:53 AM,,5.0,Calm,Calm,0,Tulsa,Oklahoma,74104
4,Clear,2016-05-03 07:53:00,43.0,,-,93,N/A,30.08,45.0,2:53 AM,,6.0,Calm,Calm,0,Tulsa,Oklahoma,74104
5,Clear,2016-05-03 08:53:00,43.0,,-,96,N/A,30.08,44.1,3:53 AM,,4.0,Calm,Calm,0,Tulsa,Oklahoma,74104
6,Clear,2016-05-03 09:53:00,41.0,,-,93,N/A,30.09,43.0,4:53 AM,,2.0,Calm,Calm,0,Tulsa,Oklahoma,74104
7,Clear,2016-05-03 10:03:00,42.1,,-,97,N/A,30.08,43.0,5:03 AM,,5.0,Calm,Calm,0,Tulsa,Oklahoma,74104
8,Clear,2016-05-03 10:12:00,41.0,,-,93,N/A,30.08,43.0,5:12 AM,,2.0,Calm,Calm,0,Tulsa,Oklahoma,74104
9,Clear,2016-05-03 10:19:00,41.0,,-,93,N/A,30.08,43.0,5:19 AM,,1.5,Calm,Calm,0,Tulsa,Oklahoma,74104
10,Clear,2016-05-03 10:25:00,41.0,,-,93,N/A,30.08,43.0,5:25 AM,,3.0,Calm,Calm,0,Tulsa,Oklahoma,74104
11,Clear,2016-05-03 10:53:00,41.0,,-,93,N/A,30.10,43.0,5:53 AM,,5.0,Calm,Calm,0,Tulsa,Oklahoma,74104
12,Clear,2016-05-03 11:46:00,41.0,,-,96,N/A,30.10,42.1,6:46 AM,,1.8,Calm,Calm,0,Tulsa,Oklahoma,74104
13,Clear,2016-05-03 11:53:00,42.1,,-,97,N/A,30.12,43.0,6:53 AM,,10.0,Calm,Calm,0,Tulsa,Oklahoma,74104
14,Clear,2016-05-03 12:53:00,46.9,,-,89,N/A,30.13,50.0,7:53 AM,,10.0,Calm,Calm,0,Tulsa,Oklahoma,74104
15,Clear,2016-05-03 13:53:00,48.9,,-,72,N/A,30.13,57.9,8:53 AM,,10.0,NNE,3.5,30,Tulsa,Oklahoma,74104
16,Clear,2016-05-03 14:53:00,45.0,,-,53,N/A,30.15,62.1,9:53 AM,,10.0,Variable,4.6,0,Tulsa,Oklahoma,74104
17,Clear,2016-05-03 15:53:00,45.0,,-,50,N/A,30.15,64.0,10:53 AM,,10.0,Variable,4.6,0,Tulsa,Oklahoma,74104
18,Partly Cloudy,2016-05-03 16:53:00,45.0,,-,45,N/A,30.14,66.9,11:53 AM,,10.0,Variable,4.6,0,Tulsa,Oklahoma,74104
19,Partly Cloudy,2016-05-03 17:53:00,45.0,,-,45,N/A,30.13,66.9,12:53 PM,,10.0,Variable,3.5,0,Tulsa,Oklahoma,74104
20,Scattered Clouds,2016-05-03 18:53:00,44.1,,-,39,N/A,30.10,70.0,1:53 PM,,10.0,Variable,5.8,0,Tulsa,Oklahoma,74104
21,Partly Cloudy,2016-05-03 19:53:00,42.1,,-,35,N/A,30.08,71.1,2:53 PM,,10.0,Variable,3.5,0,Tulsa,Oklahoma,74104
22,Partly Cloudy,2016-05-03 20:53:00,42.1,,-,34,N/A,30.05,72.0,3:53 PM,,10.0,Variable,5.8,0,Tulsa,Oklahoma,74104
23,Clear,2016-05-03 21:53:00,42.1,,-,33,N/A,30.04,73.0,4:53 PM,,10.0,Calm,Calm,0,Tulsa,Oklahoma,74104
24,Partly Cloudy,2016-05-03 22:53:00,42.1,,-,33,N/A,30.03,73.0,5:53 PM,,10.0,Calm,Calm,0,Tulsa,Oklahoma,74104
25,Partly Cloudy,2016-05-03 23:53:00,41.0,,-,34,N/A,30.03,71.1,6:53 PM,,10.0,Calm,Calm,0,Tulsa,Oklahoma,74104
26,Clear,2016-05-04 00:53:00,48.0,,-,56,N/A,30.02,64.0,7:53 PM,,10.0,Calm,Calm,0,Tulsa,Oklahoma,74104
27,Clear,2016-05-04 01:53:00,48.9,,-,72,N/A,30.03,57.9,8:53 PM,,10.0,Calm,Calm,0,Tulsa,Oklahoma,74104
28,Clear,2016-05-04 02:53:00,48.0,,-,75,N/A,30.04,55.9,9:53 PM,,10.0,Calm,Calm,0,Tulsa,Oklahoma,74104
29,Clear,2016-05-04 03:53:00,50.0,,-,83,N/A,30.04,55.0,10:53 PM,,10.0,Calm,Calm,0,Tulsa,Oklahoma,74104
30,Clear,2016-05-04 04:53:00,48.9,,-,86,N/A,30.04,53.1,11:53 PM,,10.0,Calm,Calm,0,Tulsa,Oklahoma,74104
0,Clear,2016-05-04 05:53:00,48.0,,-,86,N/A,30.04,52.0,12:53 AM,,10.0,Calm,Calm,0,Tulsa,Oklahoma,74104
1,Clear,2016-05-04 06:53:00,46.9,,-,86,N/A,30.03,51.1,1:53 AM,,10.0,Calm,Calm,0,Tulsa,Oklahoma,74104
2,Clear,2016-05-04 07:53:00,46.9,,-,86,N/A,30.02,51.1,2:53 AM,,10.0,Calm,Calm,0,Tulsa,Oklahoma,74104
3,Clear,2016-05-04 08:53:00,46.9,,-,74,N/A,30.02,55.0,3:53 AM,,10.0,WSW,4.6,250,Tulsa,Oklahoma,74104
4,Clear,2016-05-04 09:53:00,48.0,,-,83,N/A,30.01,53.1,4:53 AM,,10.0,WSW,3.5,240,Tulsa,Oklahoma,74104
5,Clear,2016-05-04 10:53:00,48.0,,-,86,N/A,30.00,52.0,5:53 AM,,10.0,Calm,Calm,0,Tulsa,Oklahoma,74104
6,Clear,2016-05-04 11:53:00,48.0,,-,86,N/A,30.00,52.0,6:53 AM,,10.0,Calm,Calm,0,Tulsa,Oklahoma,74104
7,Clear,2016-05-04 12:53:00,48.9,,-,74,N/A,30.02,57.0,7:53 AM,,10.0,Variable,3.5,0,Tulsa,Oklahoma,74104
8,Clear,2016-05-04 13:53:00,48.9,,-,58,N/A,30.03,64.0,8:53 AM,,10.0,Variable,3.5,0,Tulsa,Oklahoma,74104
9,Clear,2016-05-04 14:53:00,48.9,,-,49,N/A,30.01,69.1,9:53 AM,,10.0,Calm,Calm,0,Tulsa,Oklahoma,74104
10,Clear,2016-05-04 15:53:00,48.9,,19.6,42,N/A,30.01,73.0,10:53 AM,,10.0,WNW,11.5,300,Tulsa,Oklahoma,74104
11,Clear,2016-05-04 16:53:00,48.9,,16.1,37,N/A,30.00,77.0,11:53 AM,,10.0,NNW,9.2,330,Tulsa,Oklahoma,74104
12,Clear,2016-05-04 17:53:00,46.9,,21.9,34,N/A,30.00,77.0,12:53 PM,,10.0,North,12.7,10,Tulsa,Oklahoma,74104
13,Clear,2016-05-04 18:53:00,41.0,,19.6,27,N/A,29.99,78.1,1:53 PM,,10.0,NW,11.5,320,Tulsa,Oklahoma,74104
14,Clear,2016-05-04 19:53:00,37.0,,20.7,23,N/A,29.99,78.1,2:53 PM,,10.0,NNW,10.4,330,Tulsa,Oklahoma,74104
15,Clear,2016-05-04 20:53:00,36.0,,20.7,22,N/A,29.98,78.1,3:53 PM,,10.0,NNW,8.1,340,Tulsa,Oklahoma,74104
16,Clear,2016-05-04 21:53:00,33.1,,18.4,19,N/A,29.98,78.1,4:53 PM,,10.0,NNW,10.4,340,Tulsa,Oklahoma,74104
17,Clear,2016-05-04 22:53:00,37.0,,-,24,N/A,29.98,77.0,5:53 PM,,10.0,North,9.2,360,Tulsa,Oklahoma,74104
18,Clear,2016-05-04 23:53:00,34.0,,-,22,N/A,29.99,75.0,6:53 PM,,10.0,North,8.1,350,Tulsa,Oklahoma,74104
19,Clear,2016-05-05 00:53:00,35.1,,-,27,N/A,29.99,71.1,7:53 PM,,10.0,Variable,6.9,0,Tulsa,Oklahoma,74104
20,Clear,2016-05-05 01:53:00,39.0,,-,37,N/A,30.00,66.0,8:53 PM,,10.0,North,4.6,360,Tulsa,Oklahoma,74104
21,Clear,2016-05-05 02:53:00,44.1,,-,58,N/A,30.02,59.0,9:53 PM,,10.0,NNW,3.5,340,Tulsa,Oklahoma,74104
22,Clear,2016-05-05 03:53:00,44.1,,-,64,N/A,30.04,55.9,10:53 PM,,10.0,Calm,Calm,0,Tulsa,Oklahoma,74104
23,Clear,2016-05-05 04:53:00,46.0,,-,77,N/A,30.04,53.1,11:53 PM,,10.0,Calm,Calm,0,Tulsa,Oklahoma,74104
0,Clear,2016-05-05 05:53:00,44.1,,-,77,N/A,30.05,51.1,12:53 AM,,10.0,Calm,Calm,0,Tulsa,Oklahoma,74104
1,Clear,2016-05-05 06:53:00,46.0,,-,90,N/A,30.05,48.9,1:53 AM,,10.0,Calm,Calm,0,Tulsa,Oklahoma,74104
2,Clear,2016-05-05 07:53:00,45.0,,-,89,N/A,30.05,48.0,2:53 AM,,10.0,Calm,Calm,0,Tulsa,Oklahoma,74104
3,Clear,2016-05-05 08:53:00,44.1,,-,90,N/A,30.04,46.9,3:53 AM,,10.0,Calm,Calm,0,Tulsa,Oklahoma,74104
4,Clear,2016-05-05 09:53:00,44.1,,-,90,N/A,30.06,46.9,4:53 AM,,10.0,Calm,Calm,0,Tulsa,Oklahoma,74104
5,Clear,2016-05-05 10:53:00,43.0,,-,89,N/A,30.07,46.0,5:53 AM,,10.0,Calm,Calm,0,Tulsa,Oklahoma,74104
6,Clear,2016-05-05 11:53:00,44.1,,-,93,N/A,30.10,46.0,6:53 AM,,10.0,Calm,Calm,0,Tulsa,Oklahoma,74104
7,Clear,2016-05-05 12:53:00,48.0,,-,83,N/A,30.11,53.1,7:53 AM,,10.0,Calm,Calm,0,Tulsa,Oklahoma,74104
8,Clear,2016-05-05 13:53:00,50.0,,-,69,N/A,30.12,60.1,8:53 AM,,10.0,Calm,Calm,0,Tulsa,Oklahoma,74104
9,Clear,2016-05-05 14:53:00,48.9,,-,54,N/A,30.13,66.0,9:53 AM,,10.0,Calm,Calm,0,Tulsa,Oklahoma,74104
10,Clear,2016-05-05 15:53:00,41.0,,-,33,N/A,30.13,72.0,10:53 AM,,10.0,Variable,4.6,0,Tulsa,Oklahoma,74104
11,Clear,2016-05-05 16:53:00,41.0,,-,30,N/A,30.13,73.9,11:53 AM,,10.0,North,6.9,350,Tulsa,Oklahoma,74104
12,Clear,2016-05-05 17:53:00,43.0,,-,31,N/A,30.11,75.9,12:53 PM,,10.0,North,6.9,360,Tulsa,Oklahoma,74104
13,Clear,2016-05-05 18:53:00,43.0,,-,30,N/A,30.09,77.0,1:53 PM,,10.0,North,9.2,10,Tulsa,Oklahoma,74104
14,Clear,2016-05-05 19:53:00,45.0,,-,30,N/A,30.08,79.0,2:53 PM,,10.0,Variable,5.8,0,Tulsa,Oklahoma,74104
15,Clear,2016-05-05 20:53:00,44.1,,-,29,N/A,30.05,79.0,3:53 PM,,10.0,NNW,5.8,340,Tulsa,Oklahoma,74104
16,Clear,2016-05-05 21:53:00,43.0,,-,27,N/A,30.04,80.1,4:53 PM,,10.0,North,-9999.0,0,Tulsa,Oklahoma,74104
17,Clear,2016-05-05 22:53:00,44.1,,-,29,N/A,30.02,79.0,5:53 PM,,10.0,NNE,5.8,30,Tulsa,Oklahoma,74104
18,Clear,2016-05-05 23:53:00,45.0,,-,33,N/A,30.01,75.9,6:53 PM,,10.0,NNE,5.8,20,Tulsa,Oklahoma,74104
19,Clear,2016-05-06 00:53:00,48.9,,-,50,N/A,30.02,68.0,7:53 PM,,10.0,Calm,Calm,0,Tulsa,Oklahoma,74104
20,Clear,2016-05-06 01:53:00,48.9,,-,62,0.00,30.04,62.1,8:53 PM,,10.0,Calm,Calm,0,Tulsa,Oklahoma,74104
21,Clear,2016-05-06 02:53:00,50.0,,-,69,N/A,30.06,60.1,9:53 PM,,10.0,Calm,Calm,0,Tulsa,Oklahoma,74104
22,Clear,2016-05-06 03:53:00,50.0,,-,77,N/A,30.07,57.0,10:53 PM,,10.0,Calm,Calm,0,Tulsa,Oklahoma,74104
23,Clear,2016-05-06 04:53:00,51.1,,-,86,N/A,30.08,55.0,11:53 PM,,10.0,Calm,Calm,0,Tulsa,Oklahoma,74104
0,Clear,2016-05-06 05:53:00,50.0,,-,89,N/A,30.09,53.1,12:53 AM,,10.0,Calm,Calm,0,Tulsa,Oklahoma,74104
1,Clear,2016-05-06 06:53:00,50.0,,-,93,N/A,30.08,52.0,1:53 AM,,10.0,Calm,Calm,0,Tulsa,Oklahoma,74104
2,Clear,2016-05-06 07:53:00,48.9,,-,92,N/A,30.07,51.1,2:53 AM,,10.0,Calm,Calm,0,Tulsa,Oklahoma,74104
3,Clear,2016-05-06 08:53:00,48.9,,-,92,N/A,30.07,51.1,3:53 AM,,10.0,Calm,Calm,0,Tulsa,Oklahoma,74104
4,Clear,2016-05-06 09:43:00,48.0,,-,93,N/A,30.06,50.0,4:43 AM,,1.8,Calm,Calm,0,Tulsa,Oklahoma,74104
5,Clear,2016-05-06 09:53:00,48.0,,-,93,N/A,30.08,50.0,4:53 AM,,5.0,Calm,Calm,0,Tulsa,Oklahoma,74104
6,Clear,2016-05-06 10:53:00,48.0,,-,97,N/A,30.08,48.9,5:53 AM,,8.0,Calm,Calm,0,Tulsa,Oklahoma,74104
7,Clear,2016-05-06 11:53:00,48.0,,-,97,N/A,30.11,48.9,6:53 AM,,9.0,Calm,Calm,0,Tulsa,Oklahoma,74104
8,Clear,2016-05-06 12:53:00,52.0,,-,89,N/A,30.14,55.0,7:53 AM,,10.0,Calm,Calm,0,Tulsa,Oklahoma,74104
9,Clear,2016-05-06 13:53:00,53.1,,-,72,N/A,30.16,62.1,8:53 AM,,10.0,South,3.5,180,Tulsa,Oklahoma,74104
10,Clear,2016-05-06 14:53:00,46.0,,-,44,N/A,30.15,69.1,9:53 AM,,10.0,South,8.1,170,Tulsa,Oklahoma,74104
11,Clear,2016-05-06 15:53:00,46.9,,-,39,N/A,30.15,73.0,10:53 AM,,10.0,SSW,8.1,200,Tulsa,Oklahoma,74104
12,Clear,2016-05-06 16:53:00,48.0,,-,38,N/A,30.14,75.0,11:53 AM,,10.0,South,6.9,170,Tulsa,Oklahoma,74104
13,Clear,2016-05-06 17:53:00,50.0,,-,37,N/A,30.12,78.1,12:53 PM,,10.0,Variable,5.8,0,Tulsa,Oklahoma,74104
14,Clear,2016-05-06 18:53:00,50.0,,-,36,N/A,30.10,79.0,1:53 PM,,10.0,South,8.1,170,Tulsa,Oklahoma,74104
15,Clear,2016-05-06 19:53:00,50.0,,-,34,N/A,30.08,81.0,2:53 PM,,10.0,North,-9999.0,0,Tulsa,Oklahoma,74104
16,Clear,2016-05-06 20:53:00,51.1,,-,35,N/A,30.05,81.0,3:53 PM,,10.0,SE,6.9,130,Tulsa,Oklahoma,74104
17,Clear,2016-05-06 21:53:00,52.0,,-,35,N/A,30.03,82.0,4:53 PM,,10.0,SSE,5.8,150,Tulsa,Oklahoma,74104
18,Clear,2016-05-06 22:53:00,51.1,,-,35,N/A,30.01,81.0,5:53 PM,,10.0,SE,6.9,140,Tulsa,Oklahoma,74104
19,Clear,2016-05-06 23:53:00,52.0,,-,38,N/A,30.00,80.1,6:53 PM,,10.0,SSE,8.1,160,Tulsa,Oklahoma,74104
20,Clear,2016-05-07 00:53:00,52.0,,-,42,N/A,29.99,77.0,7:53 PM,,10.0,SSE,5.8,150,Tulsa,Oklahoma,74104
21,Clear,2016-05-07 01:53:00,51.1,,-,46,N/A,29.99,73.0,8:53 PM,,10.0,SSE,4.6,160,Tulsa,Oklahoma,74104
22,Clear,2016-05-07 02:53:00,54.0,,-,75,N/A,30.01,62.1,9:53 PM,,10.0,Calm,Calm,0,Tulsa,Oklahoma,74104
23,Clear,2016-05-07 03:53:00,53.1,,-,78,N/A,30.02,60.1,10:53 PM,,10.0,Calm,Calm,0,Tulsa,Oklahoma,74104
24,Clear,2016-05-07 04:53:00,53.1,,-,84,N/A,30.02,57.9,11:53 PM,,10.0,Calm,Calm,0,Tulsa,Oklahoma,74104
0,Clear,2016-05-07 05:53:00,53.1,,-,87,N/A,30.01,57.0,12:53 AM,,10.0,Calm,Calm,0,Tulsa,Oklahoma,74104
1,Clear,2016-05-07 06:53:00,53.1,,-,90,N/A,30.01,55.9,1:53 AM,,10.0,Calm,Calm,0,Tulsa,Oklahoma,74104
2,Clear,2016-05-07 07:53:00,52.0,,-,93,N/A,30.01,54.0,2:53 AM,,10.0,Calm,Calm,0,Tulsa,Oklahoma,74104
3,Clear,2016-05-07 08:53:00,51.1,,-,93,N/A,30.01,53.1,3:53 AM,,10.0,Calm,Calm,0,Tulsa,Oklahoma,74104
4,Clear,2016-05-07 09:53:00,51.1,,-,93,N/A,30.01,53.1,4:53 AM,,10.0,Calm,Calm,0,Tulsa,Oklahoma,74104
5,Clear,2016-05-07 10:53:00,51.1,,-,93,N/A,30.01,53.1,5:53 AM,,10.0,Calm,Calm,0,Tulsa,Oklahoma,74104
6,Clear,2016-05-07 11:53:00,52.0,,-,93,N/A,30.01,54.0,6:53 AM,,10.0,Calm,Calm,0,Tulsa,Oklahoma,74104
7,Clear,2016-05-07 12:53:00,53.1,,-,75,N/A,30.01,61.0,7:53 AM,,10.0,Calm,Calm,0,Tulsa,Oklahoma,74104
8,Clear,2016-05-07 13:53:00,52.0,,-,56,N/A,30.01,68.0,8:53 AM,,10.0,South,10.4,190,Tulsa,Oklahoma,74104
9,Clear,2016-05-07 14:53:00,52.0,,-,46,N/A,30.01,73.9,9:53 AM,,10.0,South,11.5,190,Tulsa,Oklahoma,74104
10,Clear,2016-05-07 15:53:00,54.0,,-,45,N/A,30.00,77.0,10:53 AM,,10.0,South,12.7,190,Tulsa,Oklahoma,74104
11,Clear,2016-05-07 16:53:00,54.0,,-,40,N/A,29.99,80.1,11:53 AM,,10.0,South,13.8,190,Tulsa,Oklahoma,74104
12,Clear,2016-05-07 17:53:00,54.0,,20.7,38,N/A,29.98,82.0,12:53 PM,,10.0,South,12.7,180,Tulsa,Oklahoma,74104
13,Clear,2016-05-07 18:53:00,52.0,,-,34,N/A,29.97,82.9,1:53 PM,,10.0,South,13.8,180,Tulsa,Oklahoma,74104
14,Clear,2016-05-07 19:53:00,52.0,,-,32,N/A,29.94,84.9,2:53 PM,,10.0,South,13.8,190,Tulsa,Oklahoma,74104
15,Clear,2016-05-07 20:53:00,46.9,,26.5,27,N/A,29.91,84.9,3:53 PM,,10.0,SSW,17.3,200,Tulsa,Oklahoma,74104
16,Clear,2016-05-07 21:53:00,52.0,,-,33,N/A,29.90,84.0,4:53 PM,,10.0,South,15.0,190,Tulsa,Oklahoma,74104
17,Clear,2016-05-07 22:53:00,53.1,,-,36,N/A,29.89,82.9,5:53 PM,,10.0,South,10.4,190,Tulsa,Oklahoma,74104
18,Clear,2016-05-07 23:53:00,55.0,,-,41,N/A,29.87,81.0,6:53 PM,,10.0,South,10.4,180,Tulsa,Oklahoma,74104
19,Clear,2016-05-08 00:53:00,54.0,,-,42,N/A,29.86,79.0,7:53 PM,,10.0,South,6.9,180,Tulsa,Oklahoma,74104
20,Clear,2016-05-08 01:53:00,55.0,,-,50,N/A,29.86,75.0,8:53 PM,,10.0,South,5.8,170,Tulsa,Oklahoma,74104
21,Clear,2016-05-08 02:53:00,55.9,,-,55,N/A,29.88,73.0,9:53 PM,,10.0,South,5.8,170,Tulsa,Oklahoma,74104
22,Clear,2016-05-08 03:53:00,55.9,,-,59,N/A,29.88,71.1,10:53 PM,,10.0,South,6.9,170,Tulsa,Oklahoma,74104
23,Clear,2016-05-08 04:53:00,55.0,,-,59,N/A,29.88,70.0,11:53 PM,,10.0,South,6.9,180,Tulsa,Oklahoma,74104
0,Clear,2016-05-08 05:53:00,55.0,,-,63,N/A,29.87,68.0,12:53 AM,,10.0,South,8.1,170,Tulsa,Oklahoma,74104
1,Clear,2016-05-08 06:53:00,55.0,,-,68,N/A,29.87,66.0,1:53 AM,,10.0,SSE,4.6,160,Tulsa,Oklahoma,74104
2,Clear,2016-05-08 07:53:00,55.9,,-,73,N/A,29.86,64.9,2:53 AM,,10.0,SSE,5.8,160,Tulsa,Oklahoma,74104
3,Clear,2016-05-08 08:53:00,55.9,,-,73,N/A,29.85,64.9,3:53 AM,,10.0,SSE,4.6,150,Tulsa,Oklahoma,74104
4,Clear,2016-05-08 09:53:00,57.0,,-,75,N/A,29.83,64.9,4:53 AM,,10.0,SSE,3.5,160,Tulsa,Oklahoma,74104
5,Clear,2016-05-08 10:53:00,57.0,,-,75,N/A,29.81,64.9,5:53 AM,,10.0,SSE,6.9,160,Tulsa,Oklahoma,74104
6,Clear,2016-05-08 11:53:00,57.0,,-,75,N/A,29.81,64.9,6:53 AM,,10.0,South,6.9,170,Tulsa,Oklahoma,74104
7,Clear,2016-05-08 12:53:00,57.9,,-,70,N/A,29.82,68.0,7:53 AM,,10.0,South,6.9,180,Tulsa,Oklahoma,74104
8,Clear,2016-05-08 13:53:00,59.0,,-,68,N/A,29.82,70.0,8:53 AM,,10.0,South,11.5,190,Tulsa,Oklahoma,74104
9,Clear,2016-05-08 14:53:00,60.1,,-,66,N/A,29.81,72.0,9:53 AM,,10.0,South,12.7,170,Tulsa,Oklahoma,74104
10,Mostly Cloudy,2016-05-08 15:53:00,61.0,,23.0,70,N/A,29.84,71.1,10:53 AM,,10.0,South,11.5,190,Tulsa,Oklahoma,74104
11,Scattered Clouds,2016-05-08 16:03:00,61.0,,-,70,N/A,29.82,71.1,11:03 AM,,10.0,South,10.4,170,Tulsa,Oklahoma,74104
12,Mostly Cloudy,2016-05-08 16:53:00,62.1,,-,76,0.00,29.83,70.0,11:53 AM,,10.0,South,9.2,180,Tulsa,Oklahoma,74104
13,Mostly Cloudy,2016-05-08 17:24:00,62.1,,-,73,N/A,29.80,71.1,12:24 PM,,10.0,South,9.2,180,Tulsa,Oklahoma,74104
14,Overcast,2016-05-08 17:53:00,61.0,,-,70,N/A,29.82,71.1,12:53 PM,,10.0,South,15.0,180,Tulsa,Oklahoma,74104
15,Scattered Clouds,2016-05-08 18:21:00,61.0,,-,68,N/A,29.77,72.0,1:21 PM,,10.0,South,13.8,180,Tulsa,Oklahoma,74104
16,Mostly Cloudy,2016-05-08 18:39:00,62.1,,23.0,68,N/A,29.76,73.0,1:39 PM,,10.0,South,15.0,180,Tulsa,Oklahoma,74104
17,Mostly Cloudy,2016-05-08 18:53:00,61.0,,-,68,N/A,29.75,72.0,1:53 PM,,10.0,South,13.8,170,Tulsa,Oklahoma,74104
18,Overcast,2016-05-08 19:53:00,62.1,,26.5,68,0.00,29.76,73.0,2:53 PM,,10.0,South,20.7,180,Tulsa,Oklahoma,74104
19,Overcast,2016-05-08 20:53:00,61.0,,26.5,68,N/A,29.76,72.0,3:53 PM,,10.0,South,16.1,170,Tulsa,Oklahoma,74104
20,Overcast,2016-05-08 21:53:00,62.1,,21.9,73,N/A,29.76,71.1,4:53 PM,,10.0,South,15.0,180,Tulsa,Oklahoma,74104
21,Overcast,2016-05-08 22:53:00,63.0,,-,75,N/A,29.73,71.1,5:53 PM,,10.0,South,8.1,170,Tulsa,Oklahoma,74104
22,Overcast,2016-05-08 23:53:00,64.0,,-,84,0.00,29.74,69.1,6:53 PM,,9.0,SSE,9.2,160,Tulsa,Oklahoma,74104
23,Mostly Cloudy,2016-05-09 00:53:00,64.0,,-,81,0.00,29.73,70.0,7:53 PM,,10.0,SSE,11.5,160,Tulsa,Oklahoma,74104
24,Scattered Clouds,2016-05-09 01:53:00,63.0,,-,78,N/A,29.72,70.0,8:53 PM,,10.0,South,6.9,170,Tulsa,Oklahoma,74104
25,Scattered Clouds,2016-05-09 02:53:00,62.1,,32.2,76,N/A,29.70,70.0,9:53 PM,,10.0,South,18.4,170,Tulsa,Oklahoma,74104
26,Clear,2016-05-09 03:53:00,62.1,,-,76,N/A,29.70,70.0,10:53 PM,,10.0,South,15.0,170,Tulsa,Oklahoma,74104
27,Mostly Cloudy,2016-05-09 04:17:00,62.1,,-,76,N/A,29.68,70.0,11:17 PM,,10.0,SSE,10.4,160,Tulsa,Oklahoma,74104
28,Mostly Cloudy,2016-05-09 04:53:00,62.1,,-,76,N/A,29.69,70.0,11:53 PM,,10.0,South,10.4,180,Tulsa,Oklahoma,74104
0,Partly Cloudy,2016-05-09 05:00:00,61.0,,-,73,N/A,29.68,70.0,12:00 AM,,10.0,South,8.1,190,Tulsa,Oklahoma,74104
1,Clear,2016-05-09 05:53:00,61.0,,-,75,N/A,29.72,69.1,12:53 AM,,10.0,South,5.8,180,Tulsa,Oklahoma,74104
2,Clear,2016-05-09 06:53:00,61.0,,-,78,N/A,29.71,68.0,1:53 AM,,10.0,South,4.6,180,Tulsa,Oklahoma,74104
3,Clear,2016-05-09 07:53:00,59.0,,-,76,N/A,29.72,66.9,2:53 AM,,10.0,South,8.1,180,Tulsa,Oklahoma,74104
4,Mostly Cloudy,2016-05-09 08:42:00,59.0,,21.9,73,N/A,29.71,68.0,3:42 AM,,10.0,South,12.7,180,Tulsa,Oklahoma,74104
5,Mostly Cloudy,2016-05-09 08:53:00,59.0,,-,73,N/A,29.71,68.0,3:53 AM,,10.0,South,16.1,170,Tulsa,Oklahoma,74104
6,Mostly Cloudy,2016-05-09 09:27:00,60.1,,-,79,N/A,29.69,66.9,4:27 AM,,10.0,South,12.7,170,Tulsa,Oklahoma,74104
7,Overcast,2016-05-09 09:53:00,61.0,,-,78,N/A,29.70,68.0,4:53 AM,,10.0,South,13.8,170,Tulsa,Oklahoma,74104
8,Overcast,2016-05-09 10:53:00,61.0,,-,78,N/A,29.69,68.0,5:53 AM,,10.0,South,11.5,180,Tulsa,Oklahoma,74104
9,Overcast,2016-05-09 11:53:00,61.0,,19.6,81,N/A,29.71,66.9,6:53 AM,,10.0,South,13.8,170,Tulsa,Oklahoma,74104
10,Overcast,2016-05-09 12:05:00,61.0,Thunderstorm,21.9,78,N/A,29.69,68.0,7:05 AM,,10.0,South,15.0,180,Tulsa,Oklahoma,74104
11,Overcast,2016-05-09 12:17:00,61.0,Thunderstorm,-,78,N/A,29.70,68.0,7:17 AM,,10.0,South,10.4,180,Tulsa,Oklahoma,74104
12,Overcast,2016-05-09 12:48:00,60.8,,20.7,78,N/A,29.70,68.0,7:48 AM,,10.0,South,15.0,180,Tulsa,Oklahoma,74104
13,Overcast,2016-05-09 12:53:00,61.0,,24.2,78,N/A,29.72,68.0,7:53 AM,,10.0,South,13.8,190,Tulsa,Oklahoma,74104
14,Overcast,2016-05-09 13:13:00,61.0,Thunderstorm,24.2,81,N/A,29.70,66.9,8:13 AM,,10.0,South,16.1,180,Tulsa,Oklahoma,74104
15,Light Rain,2016-05-09 13:53:00,61.0,Rain-Thunderstorm,21.9,84,0.00,29.72,66.0,8:53 AM,,10.0,South,13.8,180,Tulsa,Oklahoma,74104
16,Light Rain,2016-05-09 14:05:00,61.0,Rain,28.8,84,0.00,29.70,66.0,9:05 AM,,10.0,South,16.1,170,Tulsa,Oklahoma,74104
17,Light Rain,2016-05-09 14:53:00,61.0,Rain,-,87,0.10,29.71,64.9,9:53 AM,,6.0,SSE,16.1,160,Tulsa,Oklahoma,74104
18,Partly Cloudy,2016-05-09 15:53:00,61.0,,-,84,0.04,29.66,66.0,10:53 AM,,10.0,SSE,11.5,160,Tulsa,Oklahoma,74104
19,Clear,2016-05-09 16:53:00,61.0,,21.9,73,N/A,29.66,70.0,11:53 AM,,10.0,South,15.0,170,Tulsa,Oklahoma,74104
20,Partly Cloudy,2016-05-09 17:53:00,61.0,,28.8,64,N/A,29.67,73.9,12:53 PM,,10.0,South,16.1,170,Tulsa,Oklahoma,74104
21,Scattered Clouds,2016-05-09 18:53:00,60.1,,24.2,54,N/A,29.65,78.1,1:53 PM,,10.0,South,17.3,180,Tulsa,Oklahoma,74104
22,Mostly Cloudy,2016-05-09 19:53:00,60.1,,27.6,58,N/A,29.65,75.9,2:53 PM,,10.0,South,17.3,180,Tulsa,Oklahoma,74104
23,Overcast,2016-05-09 20:53:00,61.0,,24.2,62,N/A,29.63,75.0,3:53 PM,,10.0,South,18.4,170,Tulsa,Oklahoma,74104
24,Mostly Cloudy,2016-05-09 21:51:00,62.6,,24.2,69,N/A,29.59,73.4,4:51 PM,,10.0,SSE,15.0,160,Tulsa,Oklahoma,74104
25,Mostly Cloudy,2016-05-09 21:53:00,62.1,,24.2,66,N/A,29.60,73.9,4:53 PM,,10.0,SSE,12.7,160,Tulsa,Oklahoma,74104
26,Mostly Cloudy,2016-05-09 22:53:00,63.0,,-,66,N/A,29.60,75.0,5:53 PM,,10.0,South,12.7,180,Tulsa,Oklahoma,74104
27,Partly Cloudy,2016-05-09 23:53:00,63.0,,-,71,N/A,29.60,73.0,6:53 PM,,10.0,South,9.2,170,Tulsa,Oklahoma,74104
28,Clear,2016-05-10 00:53:00,64.0,,17.3,76,N/A,29.59,72.0,7:53 PM,,10.0,SSE,11.5,150,Tulsa,Oklahoma,74104
29,Clear,2016-05-10 01:53:00,64.0,,-,81,N/A,29.60,70.0,8:53 PM,,10.0,SSE,9.2,150,Tulsa,Oklahoma,74104
30,Clear,2016-05-10 02:53:00,63.0,,-,81,N/A,29.62,69.1,9:53 PM,,10.0,SSE,5.8,160,Tulsa,Oklahoma,74104
31,Scattered Clouds,2016-05-10 03:53:00,63.0,,-,81,N/A,29.63,69.1,10:53 PM,,10.0,South,6.9,170,Tulsa,Oklahoma,74104
32,Clear,2016-05-10 04:53:00,61.0,,-,81,N/A,29.63,66.9,11:53 PM,,10.0,SSE,5.8,160,Tulsa,Oklahoma,74104
0,Clear,2016-05-10 05:53:00,60.1,,-,93,N/A,29.65,62.1,12:53 AM,,10.0,Calm,Calm,0,Tulsa,Oklahoma,74104
1,Clear,2016-05-10 06:53:00,57.9,,-,93,N/A,29.66,60.1,1:53 AM,,10.0,Calm,Calm,0,Tulsa,Oklahoma,74104
2,Clear,2016-05-10 07:53:00,57.0,,-,97,N/A,29.68,57.9,2:53 AM,,7.0,Calm,Calm,0,Tulsa,Oklahoma,74104
3,Clear,2016-05-10 08:50:00,55.4,,-,94,N/A,29.67,57.2,3:50 AM,,1.8,Calm,Calm,0,Tulsa,Oklahoma,74104
4,Clear,2016-05-10 08:53:00,55.9,,-,93,N/A,29.69,57.9,3:53 AM,,1.5,Calm,Calm,0,Tulsa,Oklahoma,74104
5,Clear,2016-05-10 08:59:00,57.0,,-,97,N/A,29.67,57.9,3:59 AM,,3.0,Calm,Calm,0,Tulsa,Oklahoma,74104
6,Clear,2016-05-10 09:17:00,55.9,,-,93,N/A,29.68,57.9,4:17 AM,,1.8,Calm,Calm,0,Tulsa,Oklahoma,74104
7,Clear,2016-05-10 09:25:00,55.9,,-,96,N/A,29.69,57.0,4:25 AM,,4.0,Calm,Calm,0,Tulsa,Oklahoma,74104
8,Clear,2016-05-10 09:44:00,55.9,,-,96,N/A,29.69,57.0,4:44 AM,,1.8,Calm,Calm,0,Tulsa,Oklahoma,74104
9,Clear,2016-05-10 09:53:00,55.9,,-,96,N/A,29.71,57.0,4:53 AM,,3.0,Calm,Calm,0,Tulsa,Oklahoma,74104
10,Clear,2016-05-10 10:20:00,55.0,,-,97,N/A,29.70,55.9,5:20 AM,,2.5,Calm,Calm,0,Tulsa,Oklahoma,74104
11,Clear,2016-05-10 10:27:00,55.0,,-,97,N/A,29.70,55.9,5:27 AM,,7.0,Calm,Calm,0,Tulsa,Oklahoma,74104
12,Clear,2016-05-10 10:53:00,55.0,,-,97,N/A,29.73,55.9,5:53 AM,,6.0,Calm,Calm,0,Tulsa,Oklahoma,74104
13,Clear,2016-05-10 11:08:00,55.0,,-,97,N/A,29.72,55.9,6:08 AM,,1.5,Calm,Calm,0,Tulsa,Oklahoma,74104
14,Clear,2016-05-10 11:27:00,54.0,,-,96,N/A,29.73,55.0,6:27 AM,,0.8,Calm,Calm,0,Tulsa,Oklahoma,74104
15,Fog,2016-05-10 11:40:00,54.0,Fog,-,96,N/A,29.73,55.0,6:40 AM,,0.5,Calm,Calm,0,Tulsa,Oklahoma,74104
16,Clear,2016-05-10 11:49:00,55.4,,-,100,N/A,29.73,55.4,6:49 AM,,1.0,Calm,Calm,0,Tulsa,Oklahoma,74104
17,Clear,2016-05-10 11:51:00,55.4,,-,100,N/A,29.73,55.4,6:51 AM,,3.0,Calm,Calm,0,Tulsa,Oklahoma,74104
18,Clear,2016-05-10 11:53:00,55.0,,-,97,N/A,29.75,55.9,6:53 AM,,4.0,Calm,Calm,0,Tulsa,Oklahoma,74104
19,Clear,2016-05-10 12:53:00,60.1,,-,90,N/A,29.77,63.0,7:53 AM,,9.0,Calm,Calm,0,Tulsa,Oklahoma,74104
20,Clear,2016-05-10 13:53:00,59.0,,-,73,N/A,29.80,68.0,8:53 AM,,10.0,SW,4.6,220,Tulsa,Oklahoma,74104
21,Clear,2016-05-10 14:53:00,57.9,,-,57,N/A,29.81,73.9,9:53 AM,,10.0,SSW,6.9,210,Tulsa,Oklahoma,74104
22,Clear,2016-05-10 15:53:00,60.1,,-,54,N/A,29.81,78.1,10:53 AM,,10.0,North,-9999.0,0,Tulsa,Oklahoma,74104
23,Clear,2016-05-10 16:53:00,57.9,,-,44,N/A,29.83,82.0,11:53 AM,,10.0,South,8.1,180,Tulsa,Oklahoma,74104
24,Clear,2016-05-10 17:53:00,59.0,,-,43,N/A,29.82,84.0,12:53 PM,,10.0,Calm,Calm,0,Tulsa,Oklahoma,74104
25,Clear,2016-05-10 18:53:00,60.1,,-,40,N/A,29.82,87.1,1:53 PM,,10.0,SSE,9.2,160,Tulsa,Oklahoma,74104
26,Clear,2016-05-10 19:53:00,57.9,,-,36,N/A,29.81,88.0,2:53 PM,,10.0,SSE,8.1,150,Tulsa,Oklahoma,74104
27,Clear,2016-05-10 20:53:00,59.0,,19.6,36,N/A,29.80,89.1,3:53 PM,,10.0,South,10.4,170,Tulsa,Oklahoma,74104
28,Partly Cloudy,2016-05-10 21:53:00,66.9,,-,49,N/A,29.79,88.0,4:53 PM,,10.0,SE,9.2,140,Tulsa,Oklahoma,74104
29,Clear,2016-05-10 22:53:00,64.9,,-,45,N/A,29.79,89.1,5:53 PM,,10.0,South,9.2,170,Tulsa,Oklahoma,74104
30,Clear,2016-05-10 23:53:00,68.0,,-,53,N/A,29.79,87.1,6:53 PM,,10.0,SSE,6.9,150,Tulsa,Oklahoma,74104
31,Clear,2016-05-11 00:53:00,69.1,,-,59,N/A,29.79,84.9,7:53 PM,,10.0,SE,6.9,130,Tulsa,Oklahoma,74104
32,Clear,2016-05-11 01:53:00,70.0,,-,67,N/A,29.81,82.0,8:53 PM,,10.0,SE,4.6,130,Tulsa,Oklahoma,74104
33,Clear,2016-05-11 02:53:00,71.1,,-,72,N/A,29.82,81.0,9:53 PM,,10.0,SSE,8.1,160,Tulsa,Oklahoma,74104
34,Clear,2016-05-11 03:53:00,71.1,,-,74,N/A,29.84,80.1,10:53 PM,,10.0,SSE,8.1,160,Tulsa,Oklahoma,74104
35,Clear,2016-05-11 04:53:00,71.1,,-,77,N/A,29.84,79.0,11:53 PM,,9.0,South,8.1,170,Tulsa,Oklahoma,74104
0,Clear,2016-05-11 05:53:00,71.1,,-,82,N/A,29.85,77.0,12:53 AM,,8.0,South,6.9,170,Tulsa,Oklahoma,74104
1,Clear,2016-05-11 06:53:00,71.1,,-,85,N/A,29.87,75.9,1:53 AM,,7.0,South,5.8,170,Tulsa,Oklahoma,74104
2,Haze,2016-05-11 07:53:00,70.0,,-,84,N/A,29.86,75.0,2:53 AM,,6.0,South,4.6,180,Tulsa,Oklahoma,74104
3,Haze,2016-05-11 08:53:00,70.0,,-,84,N/A,29.84,75.0,3:53 AM,,6.0,South,9.2,180,Tulsa,Oklahoma,74104
4,Clear,2016-05-11 09:53:00,68.0,,-,84,N/A,29.86,73.0,4:53 AM,,7.0,South,5.8,190,Tulsa,Oklahoma,74104
5,Clear,2016-05-11 10:53:00,63.0,,-,71,N/A,29.87,73.0,5:53 AM,,10.0,South,9.2,190,Tulsa,Oklahoma,74104
6,Clear,2016-05-11 11:53:00,59.0,,-,66,N/A,29.88,71.1,6:53 AM,,10.0,South,8.1,190,Tulsa,Oklahoma,74104
7,Clear,2016-05-11 12:53:00,59.0,,-,64,N/A,29.90,72.0,7:53 AM,,10.0,South,5.8,190,Tulsa,Oklahoma,74104
8,Clear,2016-05-11 13:53:00,59.0,,-,59,N/A,29.93,73.9,8:53 AM,,10.0,South,10.4,190,Tulsa,Oklahoma,74104
9,Clear,2016-05-11 14:53:00,59.0,,-,56,N/A,29.96,75.9,9:53 AM,,10.0,SSW,11.5,210,Tulsa,Oklahoma,74104
10,Clear,2016-05-11 15:53:00,60.1,,-,52,N/A,29.96,79.0,10:53 AM,,10.0,SW,8.1,230,Tulsa,Oklahoma,74104
11,Partly Cloudy,2016-05-11 16:53:00,60.1,,-,49,N/A,29.96,81.0,11:53 AM,,10.0,SSW,9.2,210,Tulsa,Oklahoma,74104
12,Mostly Cloudy,2016-05-11 17:53:00,61.0,,-,49,N/A,29.94,82.0,12:53 PM,,10.0,SW,9.2,220,Tulsa,Oklahoma,74104
13,Scattered Clouds,2016-05-11 18:53:00,63.0,,-,49,N/A,29.94,84.0,1:53 PM,,10.0,SSW,8.1,200,Tulsa,Oklahoma,74104
14,Mostly Cloudy,2016-05-11 19:53:00,62.1,,17.3,46,N/A,29.94,84.9,2:53 PM,,10.0,South,10.4,190,Tulsa,Oklahoma,74104
15,Scattered Clouds,2016-05-11 20:53:00,62.1,,18.4,46,N/A,29.93,84.9,3:53 PM,,10.0,SSE,8.1,160,Tulsa,Oklahoma,74104
16,Mostly Cloudy,2016-05-11 21:53:00,63.0,,-,46,N/A,29.92,86.0,4:53 PM,,10.0,South,9.2,190,Tulsa,Oklahoma,74104
17,Partly Cloudy,2016-05-11 22:53:00,64.0,,-,51,N/A,29.93,84.0,5:53 PM,,10.0,SSW,8.1,210,Tulsa,Oklahoma,74104
18,Scattered Clouds,2016-05-11 23:53:00,64.0,,-,51,N/A,29.93,84.0,6:53 PM,,10.0,SSW,6.9,200,Tulsa,Oklahoma,74104
19,Partly Cloudy,2016-05-12 00:53:00,66.0,,-,66,N/A,29.95,78.1,7:53 PM,,10.0,Calm,Calm,0,Tulsa,Oklahoma,74104
20,Overcast,2016-05-12 01:53:00,68.0,,-,79,N/A,29.98,75.0,8:53 PM,,10.0,Calm,Calm,0,Tulsa,Oklahoma,74104
21,Mostly Cloudy,2016-05-12 02:53:00,62.1,,26.5,64,N/A,30.00,75.0,9:53 PM,,10.0,North,11.5,10,Tulsa,Oklahoma,74104
22,Mostly Cloudy,2016-05-12 03:53:00,60.1,,-,66,N/A,30.03,72.0,10:53 PM,,10.0,NNE,13.8,20,Tulsa,Oklahoma,74104
23,Partly Cloudy,2016-05-12 04:53:00,60.1,,20.7,68,N/A,30.03,71.1,11:53 PM,,10.0,NNE,11.5,20,Tulsa,Oklahoma,74104
0,Mostly Cloudy,2016-05-12 05:53:00,60.1,,21.9,71,N/A,30.03,70.0,12:53 AM,,10.0,NNE,13.8,20,Tulsa,Oklahoma,74104
1,Overcast,2016-05-12 06:53:00,57.9,,-,65,N/A,30.05,70.0,1:53 AM,,10.0,NNE,13.8,30,Tulsa,Oklahoma,74104
2,Rain,2016-05-12 07:53:00,61.0,Rain,19.6,84,0.06,30.07,66.0,2:53 AM,,7.0,North,13.8,10,Tulsa,Oklahoma,74104
3,Overcast,2016-05-12 08:53:00,54.0,,-,72,0.00,30.10,63.0,3:53 AM,,10.0,North,8.1,10,Tulsa,Oklahoma,74104
4,Mostly Cloudy,2016-05-12 09:53:00,57.0,,-,87,N/A,30.13,61.0,4:53 AM,,10.0,Calm,Calm,0,Tulsa,Oklahoma,74104
5,Scattered Clouds,2016-05-12 10:53:00,57.0,,-,90,N/A,30.13,60.1,5:53 AM,,10.0,NNW,3.5,330,Tulsa,Oklahoma,74104
6,Clear,2016-05-12 11:53:00,57.9,,-,90,N/A,30.17,61.0,6:53 AM,,10.0,NW,3.5,310,Tulsa,Oklahoma,74104
7,Clear,2016-05-12 12:53:00,59.0,,-,81,N/A,30.20,64.9,7:53 AM,,10.0,NNW,3.5,340,Tulsa,Oklahoma,74104
8,Clear,2016-05-12 13:53:00,59.0,,-,70,N/A,30.20,69.1,8:53 AM,,10.0,North,4.6,10,Tulsa,Oklahoma,74104
9,Scattered Clouds,2016-05-12 14:53:00,57.9,,-,65,N/A,30.21,70.0,9:53 AM,,10.0,NNE,5.8,20,Tulsa,Oklahoma,74104
10,Clear,2016-05-12 15:53:00,59.0,,-,61,N/A,30.22,73.0,10:53 AM,,10.0,NNE,10.4,20,Tulsa,Oklahoma,74104
11,Clear,2016-05-12 16:53:00,57.0,,-,53,N/A,30.23,75.0,11:53 AM,,10.0,North,8.1,360,Tulsa,Oklahoma,74104
12,Clear,2016-05-12 17:53:00,55.0,,-,47,N/A,30.22,77.0,12:53 PM,,10.0,North,10.4,350,Tulsa,Oklahoma,74104
13,Clear,2016-05-12 18:53:00,48.0,,17.3,36,N/A,30.23,77.0,1:53 PM,,10.0,NNW,11.5,330,Tulsa,Oklahoma,74104
14,Clear,2016-05-12 19:53:00,48.0,,-,35,N/A,30.22,78.1,2:53 PM,,10.0,North,12.7,10,Tulsa,Oklahoma,74104
15,Clear,2016-05-12 20:53:00,46.0,,-,32,N/A,30.20,78.1,3:53 PM,,10.0,NNE,6.9,20,Tulsa,Oklahoma,74104
16,Clear,2016-05-12 21:53:00,45.0,,-,31,N/A,30.19,78.1,4:53 PM,,10.0,North,6.9,360,Tulsa,Oklahoma,74104
17,Clear,2016-05-12 22:53:00,45.0,,-,31,N/A,30.18,78.1,5:53 PM,,10.0,North,8.1,350,Tulsa,Oklahoma,74104
18,Clear,2016-05-12 23:53:00,45.0,,-,32,N/A,30.17,77.0,6:53 PM,,10.0,North,3.5,360,Tulsa,Oklahoma,74104
19,Clear,2016-05-13 00:53:00,46.0,,-,40,N/A,30.17,72.0,7:53 PM,,10.0,NNW,4.6,340,Tulsa,Oklahoma,74104
20,Clear,2016-05-13 01:53:00,51.1,,-,65,N/A,30.19,63.0,8:53 PM,,10.0,Calm,Calm,0,Tulsa,Oklahoma,74104
21,Clear,2016-05-13 02:53:00,51.1,,-,70,N/A,30.21,61.0,9:53 PM,,10.0,Calm,Calm,0,Tulsa,Oklahoma,74104
22,Clear,2016-05-13 03:53:00,51.1,,-,78,N/A,30.22,57.9,10:53 PM,,10.0,Calm,Calm,0,Tulsa,Oklahoma,74104
23,Clear,2016-05-13 04:53:00,52.0,,-,87,N/A,30.22,55.9,11:53 PM,,10.0,Calm,Calm,0,Tulsa,Oklahoma,74104
0,Clear,2016-05-13 05:53:00,52.0,,-,89,N/A,30.22,55.0,12:53 AM,,10.0,Calm,Calm,0,Tulsa,Oklahoma,74104
1,Clear,2016-05-13 06:53:00,51.1,,-,90,N/A,30.22,54.0,1:53 AM,,10.0,Calm,Calm,0,Tulsa,Oklahoma,74104
2,Clear,2016-05-13 07:53:00,51.1,,-,93,N/A,30.20,53.1,2:53 AM,,10.0,Calm,Calm,0,Tulsa,Oklahoma,74104
3,Clear,2016-05-13 08:53:00,50.0,,-,89,N/A,30.20,53.1,3:53 AM,,10.0,Calm,Calm,0,Tulsa,Oklahoma,74104
4,Clear,2016-05-13 09:53:00,48.9,,-,92,N/A,30.20,51.1,4:53 AM,,10.0,Calm,Calm,0,Tulsa,Oklahoma,74104
5,Clear,2016-05-13 10:53:00,48.9,,-,92,N/A,30.20,51.1,5:53 AM,,10.0,Calm,Calm,0,Tulsa,Oklahoma,74104
6,Clear,2016-05-13 11:53:00,50.0,,-,96,N/A,30.21,51.1,6:53 AM,,10.0,Calm,Calm,0,Tulsa,Oklahoma,74104
7,Clear,2016-05-13 12:53:00,52.0,,-,78,N/A,30.22,59.0,7:53 AM,,10.0,Calm,Calm,0,Tulsa,Oklahoma,74104
8,Clear,2016-05-13 13:53:00,53.1,,-,63,N/A,30.22,66.0,8:53 AM,,10.0,SSW,3.5,210,Tulsa,Oklahoma,74104
9,Clear,2016-05-13 14:53:00,52.0,,-,46,N/A,30.22,73.9,9:53 AM,,10.0,South,6.9,180,Tulsa,Oklahoma,74104
10,Clear,2016-05-13 15:53:00,48.9,,-,37,N/A,30.20,77.0,10:53 AM,,10.0,SSW,9.2,200,Tulsa,Oklahoma,74104
11,Clear,2016-05-13 16:53:00,50.0,,-,35,N/A,30.18,80.1,11:53 AM,,10.0,SSW,13.8,210,Tulsa,Oklahoma,74104
12,Clear,2016-05-13 17:53:00,48.0,,24.2,30,N/A,30.15,82.0,12:53 PM,,10.0,SSW,15.0,200,Tulsa,Oklahoma,74104
13,Clear,2016-05-13 18:53:00,48.9,,21.9,29,N/A,30.12,84.0,1:53 PM,,10.0,SSW,11.5,200,Tulsa,Oklahoma,74104
14,Clear,2016-05-13 19:53:00,45.0,,26.5,25,N/A,30.09,84.9,2:53 PM,,10.0,SSW,17.3,200,Tulsa,Oklahoma,74104
15,Clear,2016-05-13 20:53:00,46.0,,24.2,26,N/A,30.06,84.9,3:53 PM,,10.0,SW,12.7,220,Tulsa,Oklahoma,74104
16,Clear,2016-05-13 21:53:00,43.0,,25.3,24,N/A,30.03,84.0,4:53 PM,,10.0,SSW,12.7,200,Tulsa,Oklahoma,74104
17,Clear,2016-05-13 22:53:00,44.1,,23.0,25,N/A,29.99,82.9,5:53 PM,,10.0,South,16.1,180,Tulsa,Oklahoma,74104
18,Clear,2016-05-13 23:53:00,48.0,,-,32,N/A,30.01,80.1,6:53 PM,,10.0,SSW,9.2,210,Tulsa,Oklahoma,74104
19,Clear,2016-05-14 00:53:00,46.9,,-,33,N/A,30.01,78.1,7:53 PM,,10.0,South,4.6,190,Tulsa,Oklahoma,74104
20,Scattered Clouds,2016-05-14 01:53:00,53.1,,-,53,N/A,30.06,71.1,8:53 PM,,10.0,Calm,Calm,0,Tulsa,Oklahoma,74104
21,Clear,2016-05-14 02:53:00,52.0,,-,53,0.00,30.06,70.0,9:53 PM,,10.0,Calm,Calm,0,Tulsa,Oklahoma,74104
22,Clear,2016-05-14 03:53:00,52.0,,-,53,N/A,30.09,70.0,10:53 PM,,10.0,North,5.8,350,Tulsa,Oklahoma,74104
23,Clear,2016-05-14 04:53:00,55.9,,17.3,68,N/A,30.12,66.9,11:53 PM,,10.0,North,9.2,360,Tulsa,Oklahoma,74104
0,Clear,2016-05-14 05:53:00,48.9,,24.2,64,N/A,30.16,61.0,12:53 AM,,10.0,North,12.7,10,Tulsa,Oklahoma,74104
1,Clear,2016-05-14 06:53:00,46.0,,21.9,62,N/A,30.17,59.0,1:53 AM,,10.0,NNE,11.5,20,Tulsa,Oklahoma,74104
2,Clear,2016-05-14 07:53:00,46.0,,23.0,67,N/A,30.21,57.0,2:53 AM,,10.0,North,11.5,10,Tulsa,Oklahoma,74104
3,Clear,2016-05-14 08:53:00,39.9,,25.3,59,N/A,30.25,54.0,3:53 AM,,10.0,NNE,16.1,20,Tulsa,Oklahoma,74104
4,Partly Cloudy,2016-05-14 09:53:00,37.9,,24.2,57,N/A,30.26,53.1,4:53 AM,,10.0,NNE,17.3,20,Tulsa,Oklahoma,74104
5,Overcast,2016-05-14 10:53:00,34.0,,28.8,48,N/A,30.30,53.1,5:53 AM,,10.0,North,13.8,10,Tulsa,Oklahoma,74104
6,Partly Cloudy,2016-05-14 11:53:00,34.0,,24.2,52,N/A,30.31,51.1,6:53 AM,,10.0,North,12.7,10,Tulsa,Oklahoma,74104
7,Clear,2016-05-14 12:53:00,35.1,,21.9,53,N/A,30.34,52.0,7:53 AM,,10.0,NNE,16.1,20,Tulsa,Oklahoma,74104
8,Clear,2016-05-14 13:53:00,35.1,,23.0,50,N/A,30.34,53.1,8:53 AM,,10.0,North,13.8,10,Tulsa,Oklahoma,74104
9,Clear,2016-05-14 14:53:00,33.1,,23.0,43,N/A,30.34,55.0,9:53 AM,,10.0,NNE,15.0,20,Tulsa,Oklahoma,74104
10,Clear,2016-05-14 15:53:00,34.0,,19.6,42,N/A,30.33,57.0,10:53 AM,,10.0,NNE,13.8,20,Tulsa,Oklahoma,74104
11,Clear,2016-05-14 16:53:00,35.1,,20.7,41,N/A,30.32,59.0,11:53 AM,,10.0,NNE,12.7,20,Tulsa,Oklahoma,74104
12,Partly Cloudy,2016-05-14 17:53:00,35.1,,21.9,38,N/A,30.30,61.0,12:53 PM,,10.0,NNE,17.3,30,Tulsa,Oklahoma,74104
13,Clear,2016-05-14 18:53:00,36.0,,18.4,38,N/A,30.28,62.1,1:53 PM,,10.0,NNE,12.7,20,Tulsa,Oklahoma,74104
14,Clear,2016-05-14 19:53:00,37.0,,-,38,N/A,30.25,63.0,2:53 PM,,10.0,North,9.2,350,Tulsa,Oklahoma,74104
15,Clear,2016-05-14 20:53:00,36.0,,17.3,35,N/A,30.23,64.0,3:53 PM,,10.0,North,9.2,360,Tulsa,Oklahoma,74104
16,Clear,2016-05-14 21:53:00,37.0,,-,36,N/A,30.21,64.9,4:53 PM,,10.0,North,9.2,10,Tulsa,Oklahoma,74104
17,Partly Cloudy,2016-05-14 22:53:00,37.0,,-,37,N/A,30.21,64.0,5:53 PM,,10.0,Variable,6.9,0,Tulsa,Oklahoma,74104
18,Partly Cloudy,2016-05-14 23:53:00,36.0,,-,37,N/A,30.19,63.0,6:53 PM,,10.0,North,6.9,10,Tulsa,Oklahoma,74104
19,Clear,2016-05-15 00:53:00,37.0,,-,42,N/A,30.19,60.1,7:53 PM,,10.0,North,5.8,10,Tulsa,Oklahoma,74104
20,Overcast,2016-05-15 01:53:00,36.0,,-,44,N/A,30.19,57.9,8:53 PM,,10.0,NNE,6.9,20,Tulsa,Oklahoma,74104
21,Mostly Cloudy,2016-05-15 02:53:00,37.0,,-,49,N/A,30.21,55.9,9:53 PM,,10.0,North,6.9,10,Tulsa,Oklahoma,74104
22,Overcast,2016-05-15 03:53:00,37.0,,-,47,N/A,30.24,57.0,10:53 PM,,10.0,North,3.5,10,Tulsa,Oklahoma,74104
23,Overcast,2016-05-15 04:53:00,37.9,,-,49,N/A,30.24,57.0,11:53 PM,,10.0,North,3.5,10,Tulsa,Oklahoma,74104
0,Overcast,2016-05-15 05:53:00,36.0,,-,45,N/A,30.25,57.0,12:53 AM,,10.0,North,5.8,10,Tulsa,Oklahoma,74104
1,Overcast,2016-05-15 06:53:00,37.9,,-,49,N/A,30.25,57.0,1:53 AM,,10.0,NNE,5.8,20,Tulsa,Oklahoma,74104
2,Overcast,2016-05-15 07:53:00,39.0,,-,53,N/A,30.25,55.9,2:53 AM,,10.0,NNE,5.8,20,Tulsa,Oklahoma,74104
3,Overcast,2016-05-15 08:53:00,39.0,,-,53,N/A,30.23,55.9,3:53 AM,,10.0,NE,8.1,40,Tulsa,Oklahoma,74104
4,Overcast,2016-05-15 09:53:00,37.9,,-,51,N/A,30.23,55.9,4:53 AM,,10.0,NE,5.8,40,Tulsa,Oklahoma,74104
5,Overcast,2016-05-15 10:53:00,36.0,,-,49,N/A,30.25,55.0,5:53 AM,,10.0,NNE,6.9,30,Tulsa,Oklahoma,74104
6,Overcast,2016-05-15 11:53:00,37.9,,-,53,N/A,30.25,55.0,6:53 AM,,10.0,NE,4.6,50,Tulsa,Oklahoma,74104
7,Mostly Cloudy,2016-05-15 12:53:00,37.9,,-,49,N/A,30.27,57.0,7:53 AM,,10.0,NE,8.1,50,Tulsa,Oklahoma,74104
8,Mostly Cloudy,2016-05-15 13:53:00,36.0,,-,44,N/A,30.27,57.9,8:53 AM,,10.0,East,8.1,80,Tulsa,Oklahoma,74104
9,Overcast,2016-05-15 14:53:00,37.0,,-,42,N/A,30.25,60.1,9:53 AM,,10.0,ENE,9.2,70,Tulsa,Oklahoma,74104
10,Scattered Clouds,2016-05-15 15:53:00,35.1,,-,34,N/A,30.24,64.0,10:53 AM,,10.0,East,12.7,80,Tulsa,Oklahoma,74104
11,Partly Cloudy,2016-05-15 16:53:00,37.0,,-,34,N/A,30.22,66.0,11:53 AM,,10.0,East,9.2,80,Tulsa,Oklahoma,74104
12,Partly Cloudy,2016-05-15 17:53:00,35.1,,17.3,30,N/A,30.21,68.0,12:53 PM,,10.0,East,10.4,100,Tulsa,Oklahoma,74104
13,Unknown,2016-05-15 18:53:00,37.9,,17.3,33,N/A,30.19,68.0,1:53 PM,,10.0,South,9.2,180,Tulsa,Oklahoma,74104
14,Mostly Cloudy,2016-05-15 19:53:00,37.9,,-,33,N/A,30.17,68.0,2:53 PM,,10.0,ENE,9.2,60,Tulsa,Oklahoma,74104
15,Scattered Clouds,2016-05-15 20:53:00,39.9,,-,33,N/A,30.15,70.0,3:53 PM,,10.0,Variable,5.8,0,Tulsa,Oklahoma,74104
16,Mostly Cloudy,2016-05-15 21:53:00,41.0,,-,37,N/A,30.12,68.0,4:53 PM,,10.0,South,4.6,170,Tulsa,Oklahoma,74104
17,Overcast,2016-05-15 22:53:00,43.0,,-,40,N/A,30.11,68.0,5:53 PM,,10.0,South,9.2,180,Tulsa,Oklahoma,74104
18,Overcast,2016-05-15 23:53:00,45.0,,-,45,N/A,30.09,66.9,6:53 PM,,10.0,ESE,8.1,120,Tulsa,Oklahoma,74104
19,Overcast,2016-05-16 00:53:00,46.0,,-,47,N/A,30.09,66.9,7:53 PM,,10.0,SE,6.9,140,Tulsa,Oklahoma,74104
20,Mostly Cloudy,2016-05-16 01:53:00,46.0,,-,50,N/A,30.09,64.9,8:53 PM,,10.0,SSE,6.9,150,Tulsa,Oklahoma,74104
21,Overcast,2016-05-16 02:53:00,46.9,,-,52,N/A,30.09,64.9,9:53 PM,,10.0,ESE,6.9,120,Tulsa,Oklahoma,74104
22,Overcast,2016-05-16 03:53:00,48.9,,-,60,0.00,30.11,63.0,10:53 PM,,10.0,SE,5.8,130,Tulsa,Oklahoma,74104
23,Light Rain,2016-05-16 04:53:00,52.0,Rain,-,70,0.01,30.11,62.1,11:53 PM,,10.0,South,6.9,170,Tulsa,Oklahoma,74104
0,Light Rain,2016-05-16 05:53:00,54.0,Rain,-,83,0.05,30.09,59.0,12:53 AM,,10.0,ESE,5.8,110,Tulsa,Oklahoma,74104
1,Rain,2016-05-16 06:53:00,55.0,Rain,-,90,0.12,30.07,57.9,1:53 AM,,4.0,East,3.5,90,Tulsa,Oklahoma,74104
2,Light Rain,2016-05-16 07:53:00,55.0,Rain,-,90,0.02,30.06,57.9,2:53 AM,,10.0,East,3.5,100,Tulsa,Oklahoma,74104
3,Overcast,2016-05-16 08:53:00,54.0,,-,87,0.00,30.04,57.9,3:53 AM,,10.0,ENE,4.6,70,Tulsa,Oklahoma,74104
4,Overcast,2016-05-16 09:53:00,54.0,,-,87,N/A,30.03,57.9,4:53 AM,,10.0,NE,5.8,50,Tulsa,Oklahoma,74104
5,Overcast,2016-05-16 10:53:00,54.0,,-,87,N/A,30.03,57.9,5:53 AM,,10.0,NE,5.8,50,Tulsa,Oklahoma,74104
6,Overcast,2016-05-16 11:53:00,54.0,,-,89,0.00,30.03,57.0,6:53 AM,,10.0,NE,8.1,50,Tulsa,Oklahoma,74104
7,Overcast,2016-05-16 12:53:00,54.0,,-,87,N/A,30.04,57.9,7:53 AM,,10.0,East,4.6,80,Tulsa,Oklahoma,74104
8,Light Rain,2016-05-16 13:19:00,54.0,Rain,-,87,0.01,30.01,57.9,8:19 AM,,8.0,East,4.6,80,Tulsa,Oklahoma,74104
9,Light Rain,2016-05-16 13:53:00,55.0,Rain,-,90,0.05,30.03,57.9,8:53 AM,,5.0,East,6.9,100,Tulsa,Oklahoma,74104
10,Overcast,2016-05-16 14:53:00,55.9,,-,90,0.02,30.03,59.0,9:53 AM,,10.0,East,4.6,90,Tulsa,Oklahoma,74104
11,Rain,2016-05-16 15:53:00,55.9,Rain,-,86,0.03,30.01,60.1,10:53 AM,,3.0,ESE,6.9,110,Tulsa,Oklahoma,74104
12,Rain,2016-05-16 16:02:00,55.9,Rain,-,90,0.02,30.00,59.0,11:02 AM,,2.5,ESE,5.8,120,Tulsa,Oklahoma,74104
13,Light Rain,2016-05-16 16:10:00,57.0,Rain,-,90,0.02,30.00,60.1,11:10 AM,,5.0,ESE,5.8,120,Tulsa,Oklahoma,74104
14,Light Rain,2016-05-16 16:53:00,55.9,Rain,-,86,0.03,30.02,60.1,11:53 AM,,9.0,South,4.6,170,Tulsa,Oklahoma,74104
15,Light Rain,2016-05-16 17:53:00,57.0,Rain,-,90,0.07,30.00,60.1,12:53 PM,,9.0,Calm,Calm,0,Tulsa,Oklahoma,74104
16,Overcast,2016-05-16 18:53:00,57.9,,-,90,0.00,29.98,61.0,1:53 PM,,10.0,ESE,4.6,110,Tulsa,Oklahoma,74104
17,Overcast,2016-05-16 19:24:00,57.9,,-,86,0.00,29.94,62.1,2:24 PM,,10.0,East,5.8,90,Tulsa,Oklahoma,74104
18,Overcast,2016-05-16 19:53:00,59.0,,-,87,0.00,29.96,63.0,2:53 PM,,10.0,ESE,6.9,120,Tulsa,Oklahoma,74104
19,Overcast,2016-05-16 20:46:00,59.0,,-,84,N/A,29.90,64.0,3:46 PM,,10.0,SE,10.4,140,Tulsa,Oklahoma,74104
20,Overcast,2016-05-16 20:53:00,59.0,,-,81,N/A,29.93,64.9,3:53 PM,,10.0,SSE,9.2,160,Tulsa,Oklahoma,74104
21,Overcast,2016-05-16 21:29:00,60.1,,-,84,N/A,29.90,64.9,4:29 PM,,10.0,SE,9.2,130,Tulsa,Oklahoma,74104
22,Overcast,2016-05-16 21:45:00,60.1,,-,79,N/A,29.89,66.9,4:45 PM,,10.0,SE,5.8,140,Tulsa,Oklahoma,74104
23,Overcast,2016-05-16 21:53:00,61.0,,-,81,N/A,29.91,66.9,4:53 PM,,10.0,South,5.8,170,Tulsa,Oklahoma,74104
24,Overcast,2016-05-16 22:53:00,62.1,,-,81,N/A,29.91,68.0,5:53 PM,,10.0,East,3.5,90,Tulsa,Oklahoma,74104
25,Light Rain,2016-05-16 23:53:00,62.1,Rain,-,81,0.00,29.90,68.0,6:53 PM,,10.0,East,8.1,100,Tulsa,Oklahoma,74104
26,Overcast,2016-05-17 00:00:00,62.1,,-,81,0.00,29.88,68.0,7:00 PM,,10.0,ESE,5.8,110,Tulsa,Oklahoma,74104
27,Overcast,2016-05-17 00:53:00,62.1,,-,84,0.00,29.91,66.9,7:53 PM,,10.0,SE,5.8,130,Tulsa,Oklahoma,74104
28,Overcast,2016-05-17 01:53:00,62.1,,-,90,0.01,29.91,64.9,8:53 PM,,10.0,SE,4.6,130,Tulsa,Oklahoma,74104
29,Overcast,2016-05-17 02:07:00,62.1,,-,90,N/A,29.89,64.9,9:07 PM,,10.0,SE,4.6,140,Tulsa,Oklahoma,74104
30,Overcast,2016-05-17 02:39:00,62.1,,-,90,N/A,29.89,64.9,9:39 PM,,10.0,SE,4.6,140,Tulsa,Oklahoma,74104
31,Overcast,2016-05-17 02:53:00,62.1,,-,90,N/A,29.91,64.9,9:53 PM,,10.0,SE,6.9,130,Tulsa,Oklahoma,74104
32,Overcast,2016-05-17 03:51:00,62.6,,-,94,N/A,29.89,64.4,10:51 PM,,10.0,SE,5.8,140,Tulsa,Oklahoma,74104
33,Overcast,2016-05-17 03:53:00,62.1,,-,90,N/A,29.91,64.9,10:53 PM,,10.0,SE,6.9,140,Tulsa,Oklahoma,74104
34,Overcast,2016-05-17 04:24:00,61.0,,-,87,N/A,29.89,64.9,11:24 PM,,10.0,SE,5.8,140,Tulsa,Oklahoma,74104
35,Overcast,2016-05-17 04:53:00,62.1,,-,90,N/A,29.91,64.9,11:53 PM,,10.0,SSE,8.1,150,Tulsa,Oklahoma,74104
0,Mostly Cloudy,2016-05-17 05:53:00,61.0,,-,87,N/A,29.91,64.9,12:53 AM,,10.0,SE,5.8,140,Tulsa,Oklahoma,74104
1,Overcast,2016-05-17 06:53:00,61.0,,-,87,N/A,29.93,64.9,1:53 AM,,10.0,SSE,4.6,150,Tulsa,Oklahoma,74104
2,Overcast,2016-05-17 07:21:00,61.0,,-,87,N/A,29.91,64.9,2:21 AM,,10.0,SE,4.6,140,Tulsa,Oklahoma,74104
3,Overcast,2016-05-17 07:53:00,61.0,,-,90,N/A,29.93,64.0,2:53 AM,,10.0,SE,6.9,130,Tulsa,Oklahoma,74104
4,Overcast,2016-05-17 07:58:00,61.0,,-,90,N/A,29.91,64.0,2:58 AM,,10.0,SE,6.9,130,Tulsa,Oklahoma,74104
5,Overcast,2016-05-17 08:05:00,61.0,,-,90,N/A,29.91,64.0,3:05 AM,,10.0,SSE,4.6,150,Tulsa,Oklahoma,74104
6,Rain,2016-05-17 08:53:00,61.0,Rain,-,90,0.03,29.92,64.0,3:53 AM,,4.0,SE,3.5,130,Tulsa,Oklahoma,74104
7,Light Rain,2016-05-17 09:10:00,61.0,Rain,-,93,0.03,29.89,63.0,4:10 AM,,6.0,ESE,4.6,120,Tulsa,Oklahoma,74104
8,Light Rain,2016-05-17 09:23:00,61.0,Rain,-,93,0.04,29.88,63.0,4:23 AM,,7.0,East,6.9,100,Tulsa,Oklahoma,74104
9,Light Rain,2016-05-17 09:44:00,62.1,Rain,-,93,0.06,29.91,64.0,4:44 AM,,5.0,Calm,Calm,0,Tulsa,Oklahoma,74104
10,Light Rain,2016-05-17 09:53:00,61.0,Rain,-,90,0.06,29.93,64.0,4:53 AM,,8.0,Variable,4.6,0,Tulsa,Oklahoma,74104
11,Heavy Rain,2016-05-17 10:28:00,59.0,Rain,21.9,93,0.12,29.92,61.0,5:28 AM,,2.0,North,15.0,10,Tulsa,Oklahoma,74104
12,Light Rain,2016-05-17 10:37:00,59.0,Rain,21.9,93,0.13,29.92,61.0,5:37 AM,,4.0,NNE,12.7,30,Tulsa,Oklahoma,74104
13,Light Rain,2016-05-17 10:48:00,59.0,Rain,-,94,0.13,29.92,60.8,5:48 AM,,10.0,NE,16.1,40,Tulsa,Oklahoma,74104
14,Light Rain,2016-05-17 10:53:00,59.0,Rain,21.9,93,0.13,29.93,61.0,5:53 AM,,10.0,NE,16.1,50,Tulsa,Oklahoma,74104
15,Mostly Cloudy,2016-05-17 11:11:00,59.0,,-,90,0.00,29.89,62.1,6:11 AM,,10.0,ENE,13.8,70,Tulsa,Oklahoma,74104
16,Partly Cloudy,2016-05-17 11:53:00,57.9,,-,86,0.00,29.90,62.1,6:53 AM,,10.0,East,5.8,90,Tulsa,Oklahoma,74104
17,Mostly Cloudy,2016-05-17 12:19:00,59.0,,-,90,N/A,29.92,62.1,7:19 AM,,10.0,ENE,4.6,70,Tulsa,Oklahoma,74104
18,Overcast,2016-05-17 12:53:00,60.1,,-,90,N/A,29.98,63.0,7:53 AM,,10.0,NNW,6.9,340,Tulsa,Oklahoma,74104
19,Light Rain,2016-05-17 13:24:00,60.1,Rain,-,93,0.00,29.97,62.1,8:24 AM,,2.0,North,5.8,350,Tulsa,Oklahoma,74104
20,Light Rain,2016-05-17 13:31:00,60.1,Rain,-,93,0.02,29.97,62.1,8:31 AM,,1.2,North,9.2,360,Tulsa,Oklahoma,74104
21,Light Rain,2016-05-17 13:53:00,57.9,Rain,-,93,0.03,30.01,60.1,8:53 AM,,2.5,Variable,6.9,0,Tulsa,Oklahoma,74104
22,Light Rain,2016-05-17 14:03:00,57.9,Rain,-,93,0.00,30.00,60.1,9:03 AM,,3.0,North,6.9,360,Tulsa,Oklahoma,74104
23,Light Rain,2016-05-17 14:26:00,57.9,Rain,18.4,93,0.01,30.00,60.1,9:26 AM,,2.5,North,10.4,360,Tulsa,Oklahoma,74104
24,Light Rain,2016-05-17 14:37:00,57.0,Rain,19.6,93,0.01,30.01,59.0,9:37 AM,,5.0,North,10.4,350,Tulsa,Oklahoma,74104
25,Overcast,2016-05-17 14:53:00,57.0,,20.7,93,0.01,30.04,59.0,9:53 AM,,6.0,North,11.5,10,Tulsa,Oklahoma,74104
26,Overcast,2016-05-17 15:53:00,54.0,,-,93,0.00,30.07,55.9,10:53 AM,,5.0,North,11.5,10,Tulsa,Oklahoma,74104
27,Overcast,2016-05-17 16:53:00,54.0,,-,89,N/A,30.10,57.0,11:53 AM,,10.0,North,11.5,360,Tulsa,Oklahoma,74104
28,Overcast,2016-05-17 17:48:00,53.6,,20.7,88,N/A,30.08,57.2,12:48 PM,,10.0,North,11.5,360,Tulsa,Oklahoma,74104
29,Overcast,2016-05-17 17:53:00,53.1,,-,84,N/A,30.10,57.9,12:53 PM,,10.0,North,12.7,10,Tulsa,Oklahoma,74104
30,Overcast,2016-05-17 18:53:00,52.0,,17.3,81,N/A,30.10,57.9,1:53 PM,,10.0,North,9.2,360,Tulsa,Oklahoma,74104
31,Overcast,2016-05-17 19:53:00,52.0,,24.2,78,N/A,30.09,59.0,2:53 PM,,10.0,NNE,15.0,20,Tulsa,Oklahoma,74104
32,Overcast,2016-05-17 20:15:00,52.0,,25.3,78,N/A,30.07,59.0,3:15 PM,,10.0,North,18.4,10,Tulsa,Oklahoma,74104
33,Overcast,2016-05-17 20:53:00,52.0,,21.9,75,N/A,30.08,60.1,3:53 PM,,10.0,NNE,15.0,20,Tulsa,Oklahoma,74104
34,Overcast,2016-05-17 21:53:00,51.1,,-,75,N/A,30.10,59.0,4:53 PM,,10.0,North,15.0,10,Tulsa,Oklahoma,74104
35,Overcast,2016-05-17 22:53:00,51.1,,-,75,N/A,30.14,59.0,5:53 PM,,10.0,North,8.1,360,Tulsa,Oklahoma,74104
36,Overcast,2016-05-17 23:53:00,51.1,,-,78,N/A,30.15,57.9,6:53 PM,,10.0,NNE,10.4,20,Tulsa,Oklahoma,74104
37,Overcast,2016-05-18 00:53:00,50.0,,-,75,N/A,30.17,57.9,7:53 PM,,10.0,NE,11.5,40,Tulsa,Oklahoma,74104
38,Overcast,2016-05-18 01:49:00,50.0,,-,77,N/A,30.16,57.2,8:49 PM,,10.0,NNE,11.5,20,Tulsa,Oklahoma,74104
39,Overcast,2016-05-18 01:53:00,50.0,,-,75,N/A,30.19,57.9,8:53 PM,,10.0,NNE,10.4,30,Tulsa,Oklahoma,74104
40,Overcast,2016-05-18 02:53:00,48.9,,-,72,N/A,30.20,57.9,9:53 PM,,10.0,NNE,11.5,30,Tulsa,Oklahoma,74104
41,Overcast,2016-05-18 03:53:00,48.9,,26.5,74,N/A,30.20,57.0,10:53 PM,,10.0,NNE,18.4,30,Tulsa,Oklahoma,74104
42,Overcast,2016-05-18 04:44:00,50.0,,-,77,N/A,30.18,57.0,11:44 PM,,10.0,NNE,8.1,30,Tulsa,Oklahoma,74104
43,Overcast,2016-05-18 04:53:00,50.0,,-,77,N/A,30.20,57.0,11:53 PM,,10.0,NNE,6.9,30,Tulsa,Oklahoma,74104
0,Overcast,2016-05-18 05:40:00,48.9,,18.4,77,N/A,30.18,55.9,12:40 AM,,10.0,NNE,12.7,30,Tulsa,Oklahoma,74104
1,Overcast,2016-05-18 05:53:00,48.9,,20.7,77,N/A,30.20,55.9,12:53 AM,,10.0,NNE,11.5,30,Tulsa,Oklahoma,74104
2,Overcast,2016-05-18 06:33:00,50.0,,-,80,N/A,30.17,55.9,1:33 AM,,10.0,North,6.9,10,Tulsa,Oklahoma,74104
3,Overcast,2016-05-18 06:43:00,50.0,,-,80,N/A,30.17,55.9,1:43 AM,,10.0,NNE,6.9,30,Tulsa,Oklahoma,74104
4,Overcast,2016-05-18 06:53:00,50.0,,-,80,N/A,30.20,55.9,1:53 AM,,10.0,NNE,9.2,30,Tulsa,Oklahoma,74104
5,Overcast,2016-05-18 07:53:00,48.9,,-,80,N/A,30.17,55.0,2:53 AM,,10.0,NNE,12.7,30,Tulsa,Oklahoma,74104
6,Overcast,2016-05-18 08:14:00,48.9,,-,80,N/A,30.15,55.0,3:14 AM,,10.0,NNE,8.1,20,Tulsa,Oklahoma,74104
7,Overcast,2016-05-18 08:46:00,48.9,,-,80,N/A,30.15,55.0,3:46 AM,,10.0,NNE,8.1,20,Tulsa,Oklahoma,74104
8,Overcast,2016-05-18 08:53:00,48.9,,-,80,N/A,30.18,55.0,3:53 AM,,10.0,NNE,9.2,30,Tulsa,Oklahoma,74104
9,Overcast,2016-05-18 09:23:00,46.9,,-,74,N/A,30.16,55.0,4:23 AM,,10.0,NNE,11.5,20,Tulsa,Oklahoma,74104
10,Overcast,2016-05-18 09:32:00,46.9,,20.7,74,N/A,30.16,55.0,4:32 AM,,10.0,NNE,16.1,30,Tulsa,Oklahoma,74104
11,Overcast,2016-05-18 09:53:00,46.9,,-,77,N/A,30.19,54.0,4:53 AM,,10.0,NNE,11.5,20,Tulsa,Oklahoma,74104
12,Overcast,2016-05-18 10:53:00,46.0,,-,75,N/A,30.21,54.0,5:53 AM,,10.0,NE,8.1,40,Tulsa,Oklahoma,74104
13,Overcast,2016-05-18 11:53:00,46.9,,-,77,N/A,30.21,54.0,6:53 AM,,10.0,NNE,10.4,30,Tulsa,Oklahoma,74104
14,Overcast,2016-05-18 12:53:00,46.0,,-,75,N/A,30.24,54.0,7:53 AM,,10.0,NE,10.4,40,Tulsa,Oklahoma,74104
15,Overcast,2016-05-18 13:53:00,46.0,,-,72,N/A,30.25,55.0,8:53 AM,,10.0,NE,10.4,50,Tulsa,Oklahoma,74104
16,Overcast,2016-05-18 14:53:00,48.0,,17.3,72,N/A,30.25,57.0,9:53 AM,,10.0,ENE,11.5,60,Tulsa,Oklahoma,74104
17,Overcast,2016-05-18 15:53:00,48.0,,-,70,N/A,30.26,57.9,10:53 AM,,10.0,NE,13.8,40,Tulsa,Oklahoma,74104
18,Overcast,2016-05-18 16:35:00,46.9,,-,62,N/A,30.24,60.1,11:35 AM,,10.0,NE,10.4,50,Tulsa,Oklahoma,74104
19,Overcast,2016-05-18 16:53:00,46.9,,-,62,N/A,30.26,60.1,11:53 AM,,10.0,ENE,15.0,60,Tulsa,Oklahoma,74104
20,Mostly Cloudy,2016-05-18 17:53:00,48.0,,23.0,58,N/A,30.25,63.0,12:53 PM,,10.0,ENE,12.7,70,Tulsa,Oklahoma,74104
21,Overcast,2016-05-18 18:53:00,48.0,,-,56,N/A,30.23,64.0,1:53 PM,,10.0,ENE,12.7,60,Tulsa,Oklahoma,74104
22,Scattered Clouds,2016-05-18 19:53:00,48.0,,-,52,N/A,30.21,66.0,2:53 PM,,10.0,NNE,9.2,20,Tulsa,Oklahoma,74104
23,Scattered Clouds,2016-05-18 20:53:00,48.0,,19.6,47,N/A,30.18,69.1,3:53 PM,,10.0,NE,12.7,50,Tulsa,Oklahoma,74104
24,Mostly Cloudy,2016-05-18 21:53:00,48.0,,-,51,N/A,30.17,66.9,4:53 PM,,10.0,NNE,12.7,20,Tulsa,Oklahoma,74104
25,Mostly Cloudy,2016-05-18 22:53:00,48.0,,-,51,N/A,30.16,66.9,5:53 PM,,10.0,NE,13.8,50,Tulsa,Oklahoma,74104
26,Mostly Cloudy,2016-05-18 23:53:00,46.9,,-,50,N/A,30.16,66.0,6:53 PM,,10.0,ENE,13.8,60,Tulsa,Oklahoma,74104
27,Scattered Clouds,2016-05-19 00:53:00,46.9,,-,52,N/A,30.15,64.9,7:53 PM,,10.0,ENE,8.1,60,Tulsa,Oklahoma,74104
28,Clear,2016-05-19 01:53:00,50.0,,-,75,N/A,30.16,57.9,8:53 PM,,10.0,Calm,Calm,0,Tulsa,Oklahoma,74104
29,Clear,2016-05-19 02:53:00,50.0,,-,80,N/A,30.18,55.9,9:53 PM,,10.0,Calm,Calm,0,Tulsa,Oklahoma,74104
30,Clear,2016-05-19 03:53:00,50.0,,-,89,N/A,30.18,53.1,10:53 PM,,10.0,Calm,Calm,0,Tulsa,Oklahoma,74104
31,Clear,2016-05-19 04:53:00,50.0,,-,93,N/A,30.18,52.0,11:53 PM,,10.0,Calm,Calm,0,Tulsa,Oklahoma,74104
0,Clear,2016-05-19 05:53:00,48.9,,-,92,N/A,30.17,51.1,12:53 AM,,8.0,Calm,Calm,0,Tulsa,Oklahoma,74104
1,Clear,2016-05-19 06:53:00,48.9,,-,92,N/A,30.14,51.1,1:53 AM,,6.0,Calm,Calm,0,Tulsa,Oklahoma,74104
2,Clear,2016-05-19 07:53:00,48.9,,-,92,N/A,30.13,51.1,2:53 AM,,5.0,Calm,Calm,0,Tulsa,Oklahoma,74104
3,Clear,2016-05-19 08:53:00,48.9,,-,96,N/A,30.12,50.0,3:53 AM,,5.0,Calm,Calm,0,Tulsa,Oklahoma,74104
4,Clear,2016-05-19 09:28:00,48.0,,-,93,N/A,30.11,50.0,4:28 AM,,2.0,Calm,Calm,0,Tulsa,Oklahoma,74104
5,Clear,2016-05-19 09:37:00,48.0,,-,93,N/A,30.11,50.0,4:37 AM,,4.0,Calm,Calm,0,Tulsa,Oklahoma,74104
6,Clear,2016-05-19 09:53:00,46.9,,-,93,N/A,30.14,48.9,4:53 AM,,8.0,SSW,3.5,210,Tulsa,Oklahoma,74104
7,Clear,2016-05-19 10:53:00,46.9,,-,93,N/A,30.14,48.9,5:53 AM,,4.0,Calm,Calm,0,Tulsa,Oklahoma,74104
8,Mostly Cloudy,2016-05-19 11:22:00,46.9,,-,93,N/A,30.13,48.9,6:22 AM,,2.5,Calm,Calm,0,Tulsa,Oklahoma,74104
9,Mostly Cloudy,2016-05-19 11:32:00,48.0,,-,93,N/A,30.12,50.0,6:32 AM,,4.0,Calm,Calm,0,Tulsa,Oklahoma,74104
10,Overcast,2016-05-19 11:53:00,48.9,,-,92,N/A,30.15,51.1,6:53 AM,,6.0,Calm,Calm,0,Tulsa,Oklahoma,74104
11,Overcast,2016-05-19 12:53:00,52.0,,-,89,N/A,30.16,55.0,7:53 AM,,8.0,Calm,Calm,0,Tulsa,Oklahoma,74104
12,Overcast,2016-05-19 13:53:00,52.0,,-,81,N/A,30.13,57.9,8:53 AM,,10.0,East,6.9,90,Tulsa,Oklahoma,74104
13,Mostly Cloudy,2016-05-19 14:53:00,52.0,,-,72,N/A,30.14,61.0,9:53 AM,,10.0,SE,4.6,130,Tulsa,Oklahoma,74104
14,Overcast,2016-05-19 15:53:00,52.0,,-,70,N/A,30.14,62.1,10:53 AM,,10.0,ESE,6.9,120,Tulsa,Oklahoma,74104
15,Overcast,2016-05-19 16:53:00,52.0,,-,67,N/A,30.12,63.0,11:53 AM,,10.0,ESE,5.8,110,Tulsa,Oklahoma,74104
16,Light Rain,2016-05-19 17:53:00,52.0,Rain,-,67,0.00,30.12,63.0,12:53 PM,,10.0,SSE,6.9,150,Tulsa,Oklahoma,74104
17,Overcast,2016-05-19 18:53:00,52.0,,-,67,0.01,30.10,63.0,1:53 PM,,10.0,ESE,9.2,120,Tulsa,Oklahoma,74104
18,Overcast,2016-05-19 19:53:00,53.1,,-,75,0.00,30.08,61.0,2:53 PM,,10.0,Calm,Calm,0,Tulsa,Oklahoma,74104
19,Overcast,2016-05-19 20:53:00,54.0,,-,75,0.00,30.06,62.1,3:53 PM,,10.0,Calm,Calm,0,Tulsa,Oklahoma,74104
20,Rain,2016-05-19 21:53:00,55.0,Rain,-,81,0.03,30.04,61.0,4:53 PM,,4.0,ENE,5.8,70,Tulsa,Oklahoma,74104
21,Light Rain,2016-05-19 22:53:00,55.9,Rain,-,90,0.02,30.01,59.0,5:53 PM,,6.0,North,4.6,360,Tulsa,Oklahoma,74104
22,Light Rain,2016-05-19 23:53:00,55.9,Rain,-,90,0.04,30.01,59.0,6:53 PM,,7.0,North,3.5,360,Tulsa,Oklahoma,74104
23,Overcast,2016-05-20 00:53:00,55.9,,-,90,0.00,30.03,59.0,7:53 PM,,5.0,NNE,3.5,20,Tulsa,Oklahoma,74104
24,Overcast,2016-05-20 01:53:00,55.9,,-,90,N/A,30.04,59.0,8:53 PM,,6.0,NNE,5.8,30,Tulsa,Oklahoma,74104
25,Rain,2016-05-20 02:53:00,55.9,Rain,-,93,0.10,29.99,57.9,9:53 PM,,3.0,NE,13.8,40,Tulsa,Oklahoma,74104
26,Mostly Cloudy,2016-05-20 03:32:00,55.9,,-,93,0.01,30.00,57.9,10:32 PM,,8.0,ESE,5.8,110,Tulsa,Oklahoma,74104
27,Mostly Cloudy,2016-05-20 03:53:00,55.9,,-,90,0.01,30.03,59.0,10:53 PM,,9.0,Calm,Calm,0,Tulsa,Oklahoma,74104
28,Mostly Cloudy,2016-05-20 04:07:00,55.9,,-,93,N/A,30.01,57.9,11:07 PM,,9.0,Calm,Calm,0,Tulsa,Oklahoma,74104
29,Overcast,2016-05-20 04:37:00,55.9,,-,93,N/A,30.00,57.9,11:37 PM,,2.5,Calm,Calm,0,Tulsa,Oklahoma,74104
30,Overcast,2016-05-20 04:53:00,57.0,,-,97,N/A,30.02,57.9,11:53 PM,,3.0,Calm,Calm,0,Tulsa,Oklahoma,74104
0,Overcast,2016-05-20 05:04:00,57.0,,-,97,N/A,29.99,57.9,12:04 AM,,2.0,Calm,Calm,0,Tulsa,Oklahoma,74104
1,Overcast,2016-05-20 05:18:00,57.0,,-,97,N/A,29.99,57.9,12:18 AM,,3.0,Calm,Calm,0,Tulsa,Oklahoma,74104
2,Overcast,2016-05-20 05:53:00,57.0,,-,93,N/A,30.02,59.0,12:53 AM,,4.0,Calm,Calm,0,Tulsa,Oklahoma,74104
3,Light Rain,2016-05-20 06:53:00,55.9,Rain,-,90,0.00,30.01,59.0,1:53 AM,,10.0,Calm,Calm,0,Tulsa,Oklahoma,74104
4,Light Rain,2016-05-20 07:23:00,55.9,Rain,-,90,0.01,29.98,59.0,2:23 AM,,5.0,Calm,Calm,0,Tulsa,Oklahoma,74104
5,Light Rain,2016-05-20 07:53:00,55.9,Rain,-,90,0.05,29.99,59.0,2:53 AM,,7.0,Calm,Calm,0,Tulsa,Oklahoma,74104
6,Rain,2016-05-20 08:35:00,55.9,Rain,-,93,0.10,29.97,57.9,3:35 AM,,2.0,Calm,Calm,0,Tulsa,Oklahoma,74104
7,Light Rain,2016-05-20 08:45:00,55.9,Rain,-,93,0.11,29.97,57.9,3:45 AM,,3.0,Calm,Calm,0,Tulsa,Oklahoma,74104
8,Light Rain,2016-05-20 08:53:00,57.0,Rain,-,97,0.11,29.99,57.9,3:53 AM,,3.0,Calm,Calm,0,Tulsa,Oklahoma,74104
9,Rain,2016-05-20 09:16:00,55.9,Rain,-,93,0.05,29.97,57.9,4:16 AM,,2.5,Calm,Calm,0,Tulsa,Oklahoma,74104
10,Light Rain,2016-05-20 09:25:00,57.0,Rain,-,97,0.06,29.97,57.9,4:25 AM,,4.0,Calm,Calm,0,Tulsa,Oklahoma,74104
11,Heavy Rain,2016-05-20 09:43:00,57.0,Rain,-,97,0.13,29.97,57.9,4:43 AM,,2.0,Calm,Calm,0,Tulsa,Oklahoma,74104
12,Heavy Rain,2016-05-20 09:53:00,57.0,Rain,-,97,0.18,30.00,57.9,4:53 AM,,2.5,ENE,3.5,70,Tulsa,Oklahoma,74104
13,Light Rain,2016-05-20 10:04:00,57.0,Rain,-,97,0.02,29.97,57.9,5:04 AM,,3.0,Calm,Calm,0,Tulsa,Oklahoma,74104
14,Light Rain,2016-05-20 10:12:00,57.0,Rain,-,97,0.02,29.98,57.9,5:12 AM,,5.0,Calm,Calm,0,Tulsa,Oklahoma,74104
15,Light Rain,2016-05-20 10:46:00,57.0,Rain,-,93,0.03,29.99,59.0,5:46 AM,,1.8,Calm,Calm,0,Tulsa,Oklahoma,74104
16,Light Rain,2016-05-20 10:53:00,57.0,Rain,-,93,0.04,30.01,59.0,5:53 AM,,1.8,Calm,Calm,0,Tulsa,Oklahoma,74104
17,Light Rain,2016-05-20 11:38:00,57.0,Rain,-,93,0.03,29.99,59.0,6:38 AM,,1.0,Calm,Calm,0,Tulsa,Oklahoma,74104
18,Light Rain,2016-05-20 11:45:00,57.0,Rain,-,93,0.03,30.00,59.0,6:45 AM,,1.0,Calm,Calm,0,Tulsa,Oklahoma,74104
19,Light Rain,2016-05-20 11:53:00,57.0,Rain,-,93,0.03,30.03,59.0,6:53 AM,,1.2,Calm,Calm,0,Tulsa,Oklahoma,74104
20,Light Rain,2016-05-20 12:17:00,57.0,Rain,-,93,0.01,30.01,59.0,7:17 AM,,1.5,Calm,Calm,0,Tulsa,Oklahoma,74104
21,Light Rain,2016-05-20 12:29:00,57.0,Rain,-,93,0.02,30.01,59.0,7:29 AM,,2.5,Calm,Calm,0,Tulsa,Oklahoma,74104
22,Overcast,2016-05-20 12:39:00,57.9,,-,96,0.02,30.01,59.0,7:39 AM,,4.0,Calm,Calm,0,Tulsa,Oklahoma,74104
23,Overcast,2016-05-20 12:53:00,57.0,,-,90,0.02,30.04,60.1,7:53 AM,,5.0,Calm,Calm,0,Tulsa,Oklahoma,74104
24,Overcast,2016-05-20 13:10:00,57.9,,-,93,N/A,30.02,60.1,8:10 AM,,7.0,Calm,Calm,0,Tulsa,Oklahoma,74104
25,Overcast,2016-05-20 13:53:00,57.9,,-,90,N/A,30.05,61.0,8:53 AM,,10.0,Calm,Calm,0,Tulsa,Oklahoma,74104
26,Overcast,2016-05-20 14:04:00,57.0,,-,87,N/A,30.03,61.0,9:04 AM,,10.0,Calm,Calm,0,Tulsa,Oklahoma,74104
27,Overcast,2016-05-20 14:53:00,57.9,,-,90,N/A,30.06,61.0,9:53 AM,,10.0,Calm,Calm,0,Tulsa,Oklahoma,74104
28,Overcast,2016-05-20 15:00:00,57.9,,-,90,N/A,30.04,61.0,10:00 AM,,10.0,Calm,Calm,0,Tulsa,Oklahoma,74104
29,Overcast,2016-05-20 15:35:00,57.9,,-,86,N/A,30.05,62.1,10:35 AM,,10.0,Calm,Calm,0,Tulsa,Oklahoma,74104
30,Overcast,2016-05-20 15:51:00,57.2,,-,82,N/A,30.05,62.6,10:51 AM,,10.0,Calm,Calm,0,Tulsa,Oklahoma,74104
31,Overcast,2016-05-20 15:53:00,57.9,,-,86,N/A,30.07,62.1,10:53 AM,,10.0,Calm,Calm,0,Tulsa,Oklahoma,74104
32,Overcast,2016-05-20 16:53:00,57.9,,-,84,N/A,30.08,63.0,11:53 AM,,10.0,Calm,Calm,0,Tulsa,Oklahoma,74104
33,Overcast,2016-05-20 17:39:00,57.9,,-,78,N/A,30.05,64.9,12:39 PM,,10.0,Variable,4.6,0,Tulsa,Oklahoma,74104
34,Overcast,2016-05-20 17:53:00,57.9,,-,78,N/A,30.07,64.9,12:53 PM,,10.0,Variable,4.6,0,Tulsa,Oklahoma,74104
35,Overcast,2016-05-20 18:34:00,57.9,,-,75,N/A,30.04,66.0,1:34 PM,,10.0,North,4.6,350,Tulsa,Oklahoma,74104
36,Overcast,2016-05-20 18:53:00,59.0,,-,76,N/A,30.06,66.9,1:53 PM,,10.0,Variable,3.5,0,Tulsa,Oklahoma,74104
37,Overcast,2016-05-20 19:24:00,57.0,,-,70,N/A,30.03,66.9,2:24 PM,,10.0,Calm,Calm,0,Tulsa,Oklahoma,74104
38,Overcast,2016-05-20 19:53:00,57.9,,-,73,N/A,30.05,66.9,2:53 PM,,10.0,WSW,4.6,240,Tulsa,Oklahoma,74104
39,Overcast,2016-05-20 20:53:00,57.0,,-,65,N/A,30.04,69.1,3:53 PM,,10.0,NNE,4.6,30,Tulsa,Oklahoma,74104
40,Overcast,2016-05-20 21:53:00,57.0,,-,63,N/A,30.03,70.0,4:53 PM,,10.0,ENE,4.6,60,Tulsa,Oklahoma,74104
41,Overcast,2016-05-20 22:53:00,55.9,,-,59,N/A,30.02,71.1,5:53 PM,,10.0,NE,3.5,50,Tulsa,Oklahoma,74104
42,Overcast,2016-05-20 23:17:00,57.9,,-,68,N/A,30.00,69.1,6:17 PM,,10.0,East,5.8,100,Tulsa,Oklahoma,74104
43,Mostly Cloudy,2016-05-20 23:39:00,57.9,,-,65,N/A,30.00,70.0,6:39 PM,,10.0,East,3.5,90,Tulsa,Oklahoma,74104
44,Scattered Clouds,2016-05-20 23:53:00,59.0,,-,68,N/A,30.02,70.0,6:53 PM,,10.0,ESE,6.9,120,Tulsa,Oklahoma,74104
45,Scattered Clouds,2016-05-21 00:53:00,57.9,,-,73,N/A,30.03,66.9,7:53 PM,,10.0,SE,4.6,130,Tulsa,Oklahoma,74104
46,Clear,2016-05-21 01:53:00,57.9,,-,84,N/A,30.04,63.0,8:53 PM,,10.0,ESE,3.5,110,Tulsa,Oklahoma,74104
47,Clear,2016-05-21 02:53:00,57.9,,-,93,N/A,30.07,60.1,9:53 PM,,9.0,Calm,Calm,0,Tulsa,Oklahoma,74104
48,Clear,2016-05-21 03:53:00,55.9,,-,96,N/A,30.09,57.0,10:53 PM,,2.0,Calm,Calm,0,Tulsa,Oklahoma,74104
49,Clear,2016-05-21 04:01:00,55.9,,-,93,N/A,30.07,57.9,11:01 PM,,6.0,Calm,Calm,0,Tulsa,Oklahoma,74104
50,Clear,2016-05-21 04:51:00,55.4,,-,94,N/A,30.08,57.2,11:51 PM,,2.0,Calm,Calm,0,Tulsa,Oklahoma,74104
51,Clear,2016-05-21 04:53:00,55.9,,-,96,N/A,30.10,57.0,11:53 PM,,2.0,Calm,Calm,0,Tulsa,Oklahoma,74104
0,Clear,2016-05-21 05:10:00,55.0,,-,97,N/A,30.08,55.9,12:10 AM,,1.0,Calm,Calm,0,Tulsa,Oklahoma,74104
1,Clear,2016-05-21 05:19:00,55.9,,-,93,N/A,30.08,57.9,12:19 AM,,3.0,Calm,Calm,0,Tulsa,Oklahoma,74104
2,Clear,2016-05-21 05:40:00,55.9,,-,96,N/A,30.08,57.0,12:40 AM,,2.5,Calm,Calm,0,Tulsa,Oklahoma,74104
3,Clear,2016-05-21 05:53:00,55.9,,-,96,N/A,30.11,57.0,12:53 AM,,2.5,Calm,Calm,0,Tulsa,Oklahoma,74104
4,Scattered Clouds,2016-05-21 06:19:00,55.9,,-,96,N/A,30.08,57.0,1:19 AM,,1.2,Calm,Calm,0,Tulsa,Oklahoma,74104
5,Mostly Cloudy,2016-05-21 06:29:00,55.9,,-,96,N/A,30.08,57.0,1:29 AM,,3.0,Calm,Calm,0,Tulsa,Oklahoma,74104
6,Overcast,2016-05-21 06:45:00,55.9,,-,93,N/A,30.08,57.9,1:45 AM,,2.5,Calm,Calm,0,Tulsa,Oklahoma,74104
7,Overcast,2016-05-21 06:53:00,55.9,,-,96,N/A,30.10,57.0,1:53 AM,,1.2,Calm,Calm,0,Tulsa,Oklahoma,74104
8,Overcast,2016-05-21 07:02:00,55.9,,-,96,N/A,30.08,57.0,2:02 AM,,3.0,Calm,Calm,0,Tulsa,Oklahoma,74104
9,Overcast,2016-05-21 07:53:00,57.9,,-,93,N/A,30.09,60.1,2:53 AM,,5.0,Calm,Calm,0,Tulsa,Oklahoma,74104
10,Overcast,2016-05-21 08:53:00,59.0,,-,96,N/A,30.09,60.1,3:53 AM,,5.0,Calm,Calm,0,Tulsa,Oklahoma,74104
11,Overcast,2016-05-21 09:53:00,59.0,,-,90,N/A,30.11,62.1,4:53 AM,,10.0,Calm,Calm,0,Tulsa,Oklahoma,74104
12,Overcast,2016-05-21 10:53:00,59.0,,-,96,N/A,30.12,60.1,5:53 AM,,6.0,Calm,Calm,0,Tulsa,Oklahoma,74104
13,Scattered Clouds,2016-05-21 11:26:00,57.0,,-,97,N/A,30.10,57.9,6:26 AM,,1.8,Calm,Calm,0,Tulsa,Oklahoma,74104
14,Fog,2016-05-21 11:37:00,57.0,Fog,-,97,N/A,30.10,57.9,6:37 AM,,0.5,Calm,Calm,0,Tulsa,Oklahoma,74104
15,Fog,2016-05-21 11:53:00,55.9,Fog,-,96,N/A,30.13,57.0,6:53 AM,,0.5,Calm,Calm,0,Tulsa,Oklahoma,74104
16,Clear,2016-05-21 11:56:00,57.0,,-,97,N/A,30.11,57.9,6:56 AM,,1.0,Calm,Calm,0,Tulsa,Oklahoma,74104
17,Clear,2016-05-21 12:02:00,57.0,,-,93,N/A,30.12,59.0,7:02 AM,,6.0,Calm,Calm,0,Tulsa,Oklahoma,74104
18,Clear,2016-05-21 12:53:00,59.0,,-,87,N/A,30.15,63.0,7:53 AM,,6.0,ENE,4.6,60,Tulsa,Oklahoma,74104
19,Mostly Cloudy,2016-05-21 13:53:00,60.1,,-,81,N/A,30.18,66.0,8:53 AM,,10.0,SE,5.8,130,Tulsa,Oklahoma,74104
20,Overcast,2016-05-21 14:53:00,60.1,,-,79,N/A,30.18,66.9,9:53 AM,,10.0,ESE,4.6,110,Tulsa,Oklahoma,74104
21,Overcast,2016-05-21 15:53:00,60.1,,-,68,N/A,30.17,71.1,10:53 AM,,10.0,ESE,6.9,120,Tulsa,Oklahoma,74104
22,Overcast,2016-05-21 16:53:00,60.1,,-,64,N/A,30.15,73.0,11:53 AM,,10.0,East,6.9,100,Tulsa,Oklahoma,74104
23,Clear,2016-05-21 17:53:00,60.1,,-,58,N/A,30.14,75.9,12:53 PM,,10.0,Variable,4.6,0,Tulsa,Oklahoma,74104
24,Scattered Clouds,2016-05-21 18:53:00,62.1,,-,58,N/A,30.12,78.1,1:53 PM,,10.0,South,6.9,170,Tulsa,Oklahoma,74104
25,Clear,2016-05-21 19:53:00,61.0,,-,54,N/A,30.09,79.0,2:53 PM,,10.0,Variable,4.6,0,Tulsa,Oklahoma,74104
26,Partly Cloudy,2016-05-21 20:53:00,61.0,,-,50,N/A,30.07,81.0,3:53 PM,,10.0,SSE,8.1,160,Tulsa,Oklahoma,74104
27,Partly Cloudy,2016-05-21 21:53:00,60.1,,-,50,N/A,30.06,80.1,4:53 PM,,10.0,SE,3.5,140,Tulsa,Oklahoma,74104
28,Partly Cloudy,2016-05-21 22:53:00,59.0,,-,48,N/A,30.05,80.1,5:53 PM,,10.0,South,5.8,180,Tulsa,Oklahoma,74104
29,Mostly Cloudy,2016-05-21 23:53:00,60.1,,-,52,N/A,30.05,79.0,6:53 PM,,10.0,SSE,5.8,150,Tulsa,Oklahoma,74104
30,Overcast,2016-05-22 00:53:00,61.0,,-,56,N/A,30.04,78.1,7:53 PM,,10.0,ESE,6.9,120,Tulsa,Oklahoma,74104
31,Mostly Cloudy,2016-05-22 01:53:00,62.1,,-,64,N/A,30.03,75.0,8:53 PM,,10.0,ESE,6.9,110,Tulsa,Oklahoma,74104
32,Clear,2016-05-22 02:53:00,62.1,,-,71,N/A,30.04,72.0,9:53 PM,,10.0,East,4.6,100,Tulsa,Oklahoma,74104
33,Clear,2016-05-22 03:53:00,61.0,,-,73,N/A,30.06,70.0,10:53 PM,,10.0,East,4.6,90,Tulsa,Oklahoma,74104
34,Clear,2016-05-22 04:53:00,61.0,,-,73,N/A,30.08,70.0,11:53 PM,,10.0,ESE,5.8,110,Tulsa,Oklahoma,74104
0,Clear,2016-05-22 05:53:00,60.1,,-,73,N/A,30.08,69.1,12:53 AM,,10.0,ESE,5.8,110,Tulsa,Oklahoma,74104
1,Mostly Cloudy,2016-05-22 06:53:00,59.0,,-,76,N/A,30.07,66.9,1:53 AM,,10.0,East,4.6,80,Tulsa,Oklahoma,74104
2,Overcast,2016-05-22 07:53:00,60.1,,-,73,N/A,30.06,69.1,2:53 AM,,10.0,ESE,5.8,120,Tulsa,Oklahoma,74104
3,Overcast,2016-05-22 08:53:00,60.1,,-,76,N/A,30.06,68.0,3:53 AM,,10.0,SSE,3.5,150,Tulsa,Oklahoma,74104
4,Overcast,2016-05-22 09:53:00,60.1,,-,79,N/A,30.08,66.9,4:53 AM,,10.0,SE,3.5,130,Tulsa,Oklahoma,74104
5,Clear,2016-05-22 10:53:00,59.0,,-,81,N/A,30.06,64.9,5:53 AM,,10.0,SE,3.5,130,Tulsa,Oklahoma,74104
6,Clear,2016-05-22 11:53:00,59.0,,-,81,N/A,30.08,64.9,6:53 AM,,10.0,ESE,5.8,110,Tulsa,Oklahoma,74104
7,Scattered Clouds,2016-05-22 12:53:00,60.1,,-,73,N/A,30.08,69.1,7:53 AM,,10.0,South,5.8,190,Tulsa,Oklahoma,74104
8,Clear,2016-05-22 13:53:00,60.1,,-,66,N/A,30.08,72.0,8:53 AM,,10.0,SSE,9.2,150,Tulsa,Oklahoma,74104
9,Clear,2016-05-22 14:53:00,62.1,,-,64,N/A,30.08,75.0,9:53 AM,,10.0,SSE,9.2,150,Tulsa,Oklahoma,74104
10,Clear,2016-05-22 15:53:00,62.1,,-,60,N/A,30.07,77.0,10:53 AM,,10.0,South,10.4,170,Tulsa,Oklahoma,74104
11,Clear,2016-05-22 16:53:00,64.0,,-,58,N/A,30.06,80.1,11:53 AM,,10.0,SSE,9.2,160,Tulsa,Oklahoma,74104
12,Clear,2016-05-22 17:53:00,64.0,,-,58,N/A,30.05,80.1,12:53 PM,,10.0,SE,10.4,130,Tulsa,Oklahoma,74104
13,Overcast,2016-05-22 18:53:00,64.0,,-,56,N/A,30.02,81.0,1:53 PM,,10.0,South,9.2,170,Tulsa,Oklahoma,74104
14,Overcast,2016-05-22 19:53:00,64.0,,17.3,56,N/A,30.01,81.0,2:53 PM,,10.0,SSE,11.5,160,Tulsa,Oklahoma,74104
15,Overcast,2016-05-22 20:53:00,64.0,,19.6,56,N/A,29.98,81.0,3:53 PM,,10.0,SSE,10.4,160,Tulsa,Oklahoma,74104
16,Overcast,2016-05-22 21:53:00,64.0,,-,56,N/A,29.96,81.0,4:53 PM,,10.0,SSE,12.7,160,Tulsa,Oklahoma,74104
17,Overcast,2016-05-22 22:53:00,64.0,,-,58,N/A,29.94,80.1,5:53 PM,,10.0,South,10.4,170,Tulsa,Oklahoma,74104
18,Clear,2016-05-22 23:53:00,64.0,,-,56,N/A,29.92,81.0,6:53 PM,,10.0,South,11.5,170,Tulsa,Oklahoma,74104
19,Clear,2016-05-23 00:53:00,64.0,,-,60,N/A,29.92,79.0,7:53 PM,,10.0,SSE,5.8,160,Tulsa,Oklahoma,74104
20,Clear,2016-05-23 01:53:00,64.9,,-,71,N/A,29.90,75.0,8:53 PM,,10.0,SE,5.8,130,Tulsa,Oklahoma,74104
21,Clear,2016-05-23 02:53:00,64.0,,-,69,N/A,29.94,75.0,9:53 PM,,10.0,SSE,5.8,160,Tulsa,Oklahoma,74104
22,Clear,2016-05-23 03:53:00,64.0,,-,73,N/A,29.96,73.0,10:53 PM,,10.0,South,5.8,180,Tulsa,Oklahoma,74104
23,Clear,2016-05-23 04:53:00,64.0,,-,76,N/A,29.96,72.0,11:53 PM,,10.0,SSE,4.6,150,Tulsa,Oklahoma,74104
0,Clear,2016-05-23 05:53:00,64.0,,-,78,N/A,29.95,71.1,12:53 AM,,10.0,South,4.6,170,Tulsa,Oklahoma,74104
1,Clear,2016-05-23 06:53:00,64.0,,-,81,0.00,29.93,70.0,1:53 AM,,10.0,South,4.6,170,Tulsa,Oklahoma,74104
2,Clear,2016-05-23 07:53:00,62.1,,-,76,N/A,29.89,70.0,2:53 AM,,10.0,SSE,8.1,160,Tulsa,Oklahoma,74104
3,Mostly Cloudy,2016-05-23 08:53:00,61.0,,-,75,N/A,29.88,69.1,3:53 AM,,10.0,South,4.6,170,Tulsa,Oklahoma,74104
4,Scattered Clouds,2016-05-23 09:53:00,59.0,,-,70,N/A,29.88,69.1,4:53 AM,,10.0,South,9.2,170,Tulsa,Oklahoma,74104
5,Scattered Clouds,2016-05-23 10:53:00,57.0,,-,65,N/A,29.87,69.1,5:53 AM,,10.0,South,6.9,170,Tulsa,Oklahoma,74104
6,Mostly Cloudy,2016-05-23 11:44:00,57.0,Thunderstorm,-,65,N/A,29.87,69.1,6:44 AM,,10.0,SSE,8.1,160,Tulsa,Oklahoma,74104
7,Light Rain,2016-05-23 11:53:00,57.9,Rain-Thunderstorm,-,68,0.00,29.88,69.1,6:53 AM,,10.0,SSE,8.1,160,Tulsa,Oklahoma,74104
8,Thunderstorm,2016-05-23 12:03:00,57.0,Thunderstorm,-,68,0.00,29.88,68.0,7:03 AM,,10.0,SSE,10.4,160,Tulsa,Oklahoma,74104
9,Light Rain,2016-05-23 12:53:00,57.9,Rain,-,73,0.01,29.88,66.9,7:53 AM,,10.0,SSE,10.4,150,Tulsa,Oklahoma,74104
10,Light Rain,2016-05-23 13:23:00,59.0,Rain-Thunderstorm,-,81,0.09,29.88,64.9,8:23 AM,,2.0,South,9.2,170,Tulsa,Oklahoma,74104
11,Light Thunderstorms and Rain,2016-05-23 13:27:00,59.0,Rain-Thunderstorm,-,81,0.09,29.89,64.9,8:27 AM,,1.8,South,10.4,170,Tulsa,Oklahoma,74104
12,Light Thunderstorms and Rain,2016-05-23 13:43:00,60.1,Rain-Thunderstorm,-,84,0.10,29.90,64.9,8:43 AM,,10.0,South,8.1,190,Tulsa,Oklahoma,74104
13,Thunderstorms and Rain,2016-05-23 13:53:00,60.1,Rain-Thunderstorm,-,87,0.15,29.93,64.0,8:53 AM,,2.5,South,9.2,170,Tulsa,Oklahoma,74104
14,Heavy Thunderstorms and Rain,2016-05-23 14:04:00,61.0,Rain-Thunderstorm,-,93,0.09,29.92,63.0,9:04 AM,,1.5,SSW,6.9,200,Tulsa,Oklahoma,74104
15,Thunderstorms and Rain,2016-05-23 14:16:00,61.0,Rain-Thunderstorm,-,93,0.13,29.92,63.0,9:16 AM,,2.5,South,3.5,170,Tulsa,Oklahoma,74104
16,Rain,2016-05-23 14:23:00,61.0,Rain-Thunderstorm,-,93,0.16,29.93,63.0,9:23 AM,,3.0,South,3.5,170,Tulsa,Oklahoma,74104
17,Rain,2016-05-23 14:37:00,61.0,Rain-Thunderstorm,-,93,0.21,29.92,63.0,9:37 AM,,2.5,South,4.6,190,Tulsa,Oklahoma,74104
18,Rain,2016-05-23 14:43:00,61.0,Rain,-,93,0.22,29.92,63.0,9:43 AM,,3.0,SSW,5.8,200,Tulsa,Oklahoma,74104
19,Rain,2016-05-23 14:53:00,61.0,Rain,-,93,0.24,29.94,63.0,9:53 AM,,4.0,South,4.6,170,Tulsa,Oklahoma,74104
20,Rain,2016-05-23 15:06:00,61.0,Rain-Thunderstorm,-,90,0.02,29.92,64.0,10:06 AM,,4.0,Calm,Calm,0,Tulsa,Oklahoma,74104
21,Rain,2016-05-23 15:21:00,61.0,Rain,-,93,0.05,29.92,63.0,10:21 AM,,5.0,NE,4.6,40,Tulsa,Oklahoma,74104
22,Light Rain,2016-05-23 15:53:00,62.1,Rain,-,93,0.09,29.92,64.0,10:53 AM,,7.0,NE,5.8,40,Tulsa,Oklahoma,74104
23,Light Rain,2016-05-23 16:14:00,62.1,Rain,-,93,0.02,29.89,64.0,11:14 AM,,6.0,SE,9.2,130,Tulsa,Oklahoma,74104
24,Light Rain,2016-05-23 16:23:00,62.1,Rain,-,93,0.02,29.89,64.0,11:23 AM,,8.0,SSE,9.2,160,Tulsa,Oklahoma,74104
25,Overcast,2016-05-23 16:53:00,63.0,,-,90,0.02,29.92,66.0,11:53 AM,,10.0,South,8.1,170,Tulsa,Oklahoma,74104
26,Scattered Clouds,2016-05-23 17:49:00,64.9,,-,81,N/A,29.88,71.1,12:49 PM,,10.0,South,9.2,190,Tulsa,Oklahoma,74104
27,Overcast,2016-05-23 18:53:00,64.0,,-,78,N/A,29.88,71.1,1:53 PM,,10.0,SSW,11.5,200,Tulsa,Oklahoma,74104
28,Overcast,2016-05-23 19:53:00,64.9,,-,76,N/A,29.91,73.0,2:53 PM,,10.0,Calm,Calm,0,Tulsa,Oklahoma,74104
29,Overcast,2016-05-23 20:53:00,64.9,,-,78,N/A,29.94,72.0,3:53 PM,,10.0,NNE,12.7,30,Tulsa,Oklahoma,74104
30,Overcast,2016-05-23 21:48:00,64.4,,-,78,0.01,29.92,71.6,4:48 PM,,10.0,ENE,10.4,60,Tulsa,Oklahoma,74104
31,Overcast,2016-05-23 21:53:00,64.9,,-,81,0.01,29.94,71.1,4:53 PM,,10.0,NE,11.5,50,Tulsa,Oklahoma,74104
32,Partly Cloudy,2016-05-23 22:53:00,64.9,,-,81,N/A,29.86,71.1,5:53 PM,,10.0,SE,11.5,130,Tulsa,Oklahoma,74104
33,Clear,2016-05-23 23:53:00,64.9,,-,78,N/A,29.85,72.0,6:53 PM,,10.0,South,8.1,170,Tulsa,Oklahoma,74104
34,Mostly Cloudy,2016-05-24 00:53:00,64.9,,-,76,N/A,29.86,73.0,7:53 PM,,10.0,SSE,5.8,150,Tulsa,Oklahoma,74104
35,Overcast,2016-05-24 01:53:00,64.9,,-,78,N/A,29.86,72.0,8:53 PM,,10.0,Variable,5.8,0,Tulsa,Oklahoma,74104
36,Overcast,2016-05-24 02:53:00,64.9,,-,78,N/A,29.88,72.0,9:53 PM,,10.0,SSE,6.9,150,Tulsa,Oklahoma,74104
37,Overcast,2016-05-24 03:53:00,64.9,,-,81,N/A,29.90,71.1,10:53 PM,,10.0,South,5.8,170,Tulsa,Oklahoma,74104
38,Overcast,2016-05-24 04:53:00,64.9,,-,81,N/A,29.92,71.1,11:53 PM,,10.0,SSE,5.8,160,Tulsa,Oklahoma,74104
0,Mostly Cloudy,2016-05-24 05:53:00,64.9,,-,81,N/A,29.89,71.1,12:53 AM,,10.0,South,6.9,170,Tulsa,Oklahoma,74104
1,Mostly Cloudy,2016-05-24 06:53:00,64.9,,-,84,N/A,29.88,70.0,1:53 AM,,10.0,SSE,5.8,150,Tulsa,Oklahoma,74104
2,Clear,2016-05-24 07:53:00,64.9,,-,87,N/A,29.85,69.1,2:53 AM,,10.0,South,4.6,170,Tulsa,Oklahoma,74104
3,Clear,2016-05-24 08:53:00,64.9,,-,87,N/A,29.86,69.1,3:53 AM,,10.0,SSE,6.9,150,Tulsa,Oklahoma,74104
4,Mostly Cloudy,2016-05-24 09:53:00,64.9,,-,87,N/A,29.86,69.1,4:53 AM,,10.0,SSE,5.8,160,Tulsa,Oklahoma,74104
5,Mostly Cloudy,2016-05-24 10:53:00,64.9,,-,87,N/A,29.86,69.1,5:53 AM,,10.0,SSE,9.2,160,Tulsa,Oklahoma,74104
6,Mostly Cloudy,2016-05-24 11:28:00,64.9,,-,87,N/A,29.85,69.1,6:28 AM,,10.0,SSE,9.2,150,Tulsa,Oklahoma,74104
7,Overcast,2016-05-24 11:53:00,64.9,,-,84,N/A,29.88,70.0,6:53 AM,,10.0,SSE,8.1,160,Tulsa,Oklahoma,74104
8,Overcast,2016-05-24 12:53:00,66.0,,18.4,84,N/A,29.89,71.1,7:53 AM,,10.0,SSE,9.2,150,Tulsa,Oklahoma,74104
9,Overcast,2016-05-24 13:39:00,68.0,,-,84,N/A,29.91,73.0,8:39 AM,,10.0,South,6.9,170,Tulsa,Oklahoma,74104
10,Overcast,2016-05-24 13:53:00,68.0,,-,84,N/A,29.94,73.0,8:53 AM,,10.0,South,6.9,180,Tulsa,Oklahoma,74104
11,Scattered Clouds,2016-05-24 14:08:00,68.0,,-,82,N/A,29.92,73.9,9:08 AM,,10.0,SSE,9.2,160,Tulsa,Oklahoma,74104
12,Clear,2016-05-24 14:53:00,70.0,,-,79,N/A,29.93,77.0,9:53 AM,,10.0,SSE,6.9,150,Tulsa,Oklahoma,74104
13,Scattered Clouds,2016-05-24 15:53:00,69.1,,-,72,N/A,29.94,79.0,10:53 AM,,10.0,Calm,Calm,0,Tulsa,Oklahoma,74104
14,Clear,2016-05-24 16:53:00,68.0,,-,60,N/A,29.93,82.9,11:53 AM,,10.0,South,6.9,190,Tulsa,Oklahoma,74104
15,Scattered Clouds,2016-05-24 17:53:00,68.0,,-,55,N/A,29.94,86.0,12:53 PM,,10.0,South,10.4,180,Tulsa,Oklahoma,74104
16,Partly Cloudy,2016-05-24 18:53:00,64.9,,-,49,N/A,29.93,86.0,1:53 PM,,10.0,South,9.2,190,Tulsa,Oklahoma,74104
17,Clear,2016-05-24 19:53:00,64.9,,19.6,48,N/A,29.92,87.1,2:53 PM,,10.0,South,9.2,180,Tulsa,Oklahoma,74104
18,Clear,2016-05-24 20:53:00,69.1,,-,61,N/A,29.91,84.0,3:53 PM,,10.0,South,10.4,170,Tulsa,Oklahoma,74104
19,Clear,2016-05-24 21:53:00,70.0,,-,69,N/A,29.91,81.0,4:53 PM,,10.0,ENE,3.5,70,Tulsa,Oklahoma,74104
20,Clear,2016-05-24 22:00:00,70.0,Thunderstorm,-,69,N/A,29.88,81.0,5:00 PM,,10.0,East,5.8,90,Tulsa,Oklahoma,74104
21,Scattered Clouds,2016-05-24 22:15:00,71.1,,-,74,N/A,29.91,80.1,5:15 PM,,10.0,East,4.6,100,Tulsa,Oklahoma,74104
22,Scattered Clouds,2016-05-24 22:34:00,71.1,Thunderstorm,-,72,N/A,29.91,81.0,5:34 PM,,10.0,ESE,5.8,120,Tulsa,Oklahoma,74104
23,Thunderstorm,2016-05-24 22:48:00,71.6,Thunderstorm,-,74,N/A,29.91,80.6,5:48 PM,,10.0,East,5.8,80,Tulsa,Oklahoma,74104
24,Thunderstorm,2016-05-24 22:53:00,71.1,Thunderstorm,-,72,N/A,29.93,81.0,5:53 PM,,10.0,ESE,10.4,120,Tulsa,Oklahoma,74104
25,Heavy Thunderstorms and Rain,2016-05-24 23:08:00,72.0,Rain-Thunderstorm,-,76,0.14,29.94,80.1,6:08 PM,,1.5,Variable,4.6,0,Tulsa,Oklahoma,74104
26,Heavy Thunderstorms and Rain,2016-05-24 23:11:00,73.0,Rain-Thunderstorm,-,84,0.21,29.94,78.1,6:11 PM,,0.8,West,5.8,270,Tulsa,Oklahoma,74104
27,Heavy Thunderstorms and Rain,2016-05-24 23:16:00,73.0,Fog-Rain-Thunderstorm,-,91,0.34,29.96,75.9,6:16 PM,,0.5,Variable,3.5,0,Tulsa,Oklahoma,74104
28,Thunderstorms and Rain,2016-05-24 23:24:00,73.0,Rain-Thunderstorm,-,91,0.38,29.98,75.9,6:24 PM,,1.0,WSW,9.2,250,Tulsa,Oklahoma,74104
29,Heavy Thunderstorms and Rain,2016-05-24 23:30:00,71.1,Rain-Thunderstorm,21.9,91,0.42,29.98,73.9,6:30 PM,,3.0,WSW,11.5,250,Tulsa,Oklahoma,74104
30,Thunderstorms and Rain,2016-05-24 23:43:00,62.1,Rain-Thunderstorm,-,71,0.50,29.96,72.0,6:43 PM,,2.5,SSE,11.5,150,Tulsa,Oklahoma,74104
31,Thunderstorms and Rain,2016-05-24 23:53:00,62.1,Rain-Thunderstorm,24.2,76,0.53,29.89,70.0,6:53 PM,,4.0,SSE,12.7,160,Tulsa,Oklahoma,74104
32,Light Thunderstorms and Rain,2016-05-25 00:03:00,66.9,Rain-Thunderstorm,26.5,87,0.01,29.87,71.1,7:03 PM,,10.0,Variable,4.6,0,Tulsa,Oklahoma,74104
33,Light Thunderstorms and Rain,2016-05-25 00:11:00,61.0,Rain-Thunderstorm,26.5,64,0.01,29.87,73.9,7:11 PM,,2.5,SSE,13.8,150,Tulsa,Oklahoma,74104
34,Thunderstorm,2016-05-25 00:20:00,59.0,Thunderstorm,24.2,59,0.01,29.86,73.9,7:20 PM,,10.0,SE,10.4,140,Tulsa,Oklahoma,74104
35,Partly Cloudy,2016-05-25 00:39:00,57.9,Thunderstorm,27.6,57,0.01,29.80,73.9,7:39 PM,,10.0,SE,16.1,140,Tulsa,Oklahoma,74104
36,Clear,2016-05-25 00:50:00,60.8,,-,65,0.01,29.83,73.4,7:50 PM,,10.0,Calm,Calm,0,Tulsa,Oklahoma,74104
37,Clear,2016-05-25 00:53:00,61.0,,-,68,0.01,29.86,72.0,7:53 PM,,10.0,Variable,3.5,0,Tulsa,Oklahoma,74104
38,Clear,2016-05-25 01:53:00,59.0,,-,66,N/A,29.91,71.1,8:53 PM,,10.0,South,6.9,170,Tulsa,Oklahoma,74104
39,Clear,2016-05-25 02:53:00,62.1,,-,78,N/A,29.90,69.1,9:53 PM,,10.0,SE,8.1,130,Tulsa,Oklahoma,74104
40,Clear,2016-05-25 03:53:00,64.0,,-,81,N/A,29.93,70.0,10:53 PM,,10.0,SSE,9.2,160,Tulsa,Oklahoma,74104
41,Partly Cloudy,2016-05-25 04:11:00,64.9,Thunderstorm,-,84,N/A,29.92,70.0,11:11 PM,,10.0,SSE,5.8,150,Tulsa,Oklahoma,74104
42,Light Thunderstorms and Rain,2016-05-25 04:35:00,66.0,Rain-Thunderstorm,-,81,0.00,29.92,72.0,11:35 PM,,10.0,SSE,8.1,160,Tulsa,Oklahoma,74104
43,Light Thunderstorms and Rain,2016-05-25 04:53:00,66.9,Rain-Thunderstorm,-,84,0.00,29.96,72.0,11:53 PM,,10.0,South,4.6,180,Tulsa,Oklahoma,74104
0,Heavy Thunderstorms and Rain,2016-05-25 05:31:00,69.1,Rain-Thunderstorm,27.6,87,0.24,29.94,73.0,12:31 AM,,2.0,SE,12.7,140,Tulsa,Oklahoma,74104
1,Heavy Thunderstorms and Rain,2016-05-25 05:38:00,66.9,Rain-Thunderstorm,32.2,87,0.40,29.92,71.1,12:38 AM,,1.2,SSE,21.9,150,Tulsa,Oklahoma,74104
2,Thunderstorms and Rain,2016-05-25 05:53:00,64.0,Rain-Thunderstorm,33.4,76,0.50,29.98,72.0,12:53 AM,,5.0,Variable,6.9,0,Tulsa,Oklahoma,74104
3,Thunderstorms and Rain,2016-05-25 06:22:00,64.9,Rain-Thunderstorm,27.6,81,0.20,29.90,71.1,1:22 AM,,2.5,SSE,17.3,150,Tulsa,Oklahoma,74104
4,Light Thunderstorms and Rain,2016-05-25 06:39:00,62.1,Rain-Thunderstorm,24.2,78,0.26,29.90,69.1,1:39 AM,,8.0,SSE,12.7,150,Tulsa,Oklahoma,74104
5,Light Thunderstorms and Rain,2016-05-25 06:53:00,66.0,Rain-Thunderstorm,23.0,90,0.26,29.87,69.1,1:53 AM,,3.0,SSE,8.1,160,Tulsa,Oklahoma,74104
6,Partly Cloudy,2016-05-25 07:21:00,66.0,Thunderstorm,-,87,0.00,29.87,70.0,2:21 AM,,10.0,South,10.4,180,Tulsa,Oklahoma,74104
7,Mostly Cloudy,2016-05-25 07:53:00,66.9,,19.6,90,0.00,29.88,70.0,2:53 AM,,10.0,South,11.5,170,Tulsa,Oklahoma,74104
8,Scattered Clouds,2016-05-25 08:09:00,64.9,,-,87,N/A,29.88,69.1,3:09 AM,,10.0,South,10.4,190,Tulsa,Oklahoma,74104
9,Mostly Cloudy,2016-05-25 08:53:00,64.9,,-,90,N/A,29.91,68.0,3:53 AM,,10.0,East,6.9,100,Tulsa,Oklahoma,74104
10,Mostly Cloudy,2016-05-25 09:53:00,64.9,,-,90,N/A,29.89,68.0,4:53 AM,,10.0,SE,8.1,140,Tulsa,Oklahoma,74104
11,Overcast,2016-05-25 10:53:00,64.9,,-,90,N/A,29.92,68.0,5:53 AM,,10.0,SE,8.1,130,Tulsa,Oklahoma,74104
12,Overcast,2016-05-25 11:53:00,64.9,,-,90,N/A,29.96,68.0,6:53 AM,,10.0,ESE,5.8,110,Tulsa,Oklahoma,74104
13,Overcast,2016-05-25 12:32:00,64.9,,20.7,90,N/A,29.99,68.0,7:32 AM,,10.0,NNE,15.0,20,Tulsa,Oklahoma,74104
14,Thunderstorm,2016-05-25 12:37:00,63.0,Thunderstorm,24.2,87,N/A,29.99,66.9,7:37 AM,,10.0,NNE,13.8,30,Tulsa,Oklahoma,74104
15,Light Thunderstorms and Rain,2016-05-25 12:53:00,63.0,Rain-Thunderstorm,24.2,87,0.03,30.03,66.9,7:53 AM,,6.0,North,16.1,10,Tulsa,Oklahoma,74104
16,Heavy Thunderstorms and Rain,2016-05-25 13:01:00,63.0,Rain-Thunderstorm,27.6,90,0.10,30.01,66.0,8:01 AM,,1.8,NNE,20.7,30,Tulsa,Oklahoma,74104
17,Heavy Thunderstorms and Rain,2016-05-25 13:09:00,63.0,Rain-Thunderstorm,25.3,90,0.23,30.02,66.0,8:09 AM,,1.5,ENE,13.8,60,Tulsa,Oklahoma,74104
18,Heavy Thunderstorms and Rain,2016-05-25 13:17:00,63.0,Rain-Thunderstorm,24.2,90,0.30,30.01,66.0,8:17 AM,,1.8,ENE,15.0,70,Tulsa,Oklahoma,74104
19,Heavy Rain,2016-05-25 13:25:00,63.0,Rain,27.6,90,0.37,30.01,66.0,8:25 AM,,2.0,East,16.1,80,Tulsa,Oklahoma,74104
20,Light Rain,2016-05-25 13:43:00,62.1,Rain,25.3,90,0.43,30.00,64.9,8:43 AM,,9.0,East,12.7,100,Tulsa,Oklahoma,74104
21,Mostly Cloudy,2016-05-25 13:53:00,63.0,,-,87,0.43,30.01,66.9,8:53 AM,,10.0,ESE,15.0,120,Tulsa,Oklahoma,74104
22,Clear,2016-05-25 14:53:00,64.0,,21.9,84,0.00,29.98,69.1,9:53 AM,,10.0,ESE,11.5,120,Tulsa,Oklahoma,74104
23,Partly Cloudy,2016-05-25 15:53:00,64.0,,24.2,73,N/A,29.96,73.0,10:53 AM,,10.0,SSE,16.1,150,Tulsa,Oklahoma,74104
24,Clear,2016-05-25 16:53:00,66.9,,23.0,68,N/A,29.94,78.1,11:53 AM,,10.0,SSE,16.1,160,Tulsa,Oklahoma,74104
25,Scattered Clouds,2016-05-25 17:53:00,70.0,,-,69,N/A,29.92,81.0,12:53 PM,,10.0,SSE,15.0,160,Tulsa,Oklahoma,74104
26,Mostly Cloudy,2016-05-25 18:00:00,70.0,,24.2,69,N/A,29.91,81.0,1:00 PM,,10.0,South,17.3,170,Tulsa,Oklahoma,74104
27,Overcast,2016-05-25 18:53:00,72.0,,24.2,67,N/A,29.90,84.0,1:53 PM,,10.0,South,16.1,170,Tulsa,Oklahoma,74104
28,Overcast,2016-05-25 19:10:00,72.0,,26.5,65,N/A,29.89,84.9,2:10 PM,,10.0,South,17.3,190,Tulsa,Oklahoma,74104
29,Mostly Cloudy,2016-05-25 19:53:00,72.0,,26.5,59,N/A,29.89,88.0,2:53 PM,,10.0,South,16.1,190,Tulsa,Oklahoma,74104
30,Scattered Clouds,2016-05-25 20:53:00,72.0,,25.3,61,N/A,29.88,87.1,3:53 PM,,10.0,South,17.3,180,Tulsa,Oklahoma,74104
31,Mostly Cloudy,2016-05-25 21:53:00,72.0,,26.5,61,0.00,29.87,87.1,4:53 PM,,10.0,South,16.1,180,Tulsa,Oklahoma,74104
32,Partly Cloudy,2016-05-25 22:53:00,72.0,,25.3,63,N/A,29.87,86.0,5:53 PM,,10.0,South,16.1,190,Tulsa,Oklahoma,74104
33,Partly Cloudy,2016-05-25 23:53:00,72.0,,-,65,N/A,29.86,84.9,6:53 PM,,10.0,South,17.3,190,Tulsa,Oklahoma,74104
34,Clear,2016-05-26 00:53:00,72.0,,-,67,N/A,29.86,84.0,7:53 PM,,10.0,South,10.4,170,Tulsa,Oklahoma,74104
35,Partly Cloudy,2016-05-26 01:53:00,72.0,,-,71,N/A,29.87,82.0,8:53 PM,,10.0,South,11.5,170,Tulsa,Oklahoma,74104
36,Overcast,2016-05-26 02:53:00,72.0,,-,74,N/A,29.89,81.0,9:53 PM,,10.0,South,5.8,170,Tulsa,Oklahoma,74104
37,Overcast,2016-05-26 03:20:00,73.0,,-,77,N/A,29.89,81.0,10:20 PM,,10.0,SSW,8.1,200,Tulsa,Oklahoma,74104
38,Overcast,2016-05-26 03:44:00,73.0,,-,79,N/A,29.90,80.1,10:44 PM,,10.0,SSW,6.9,200,Tulsa,Oklahoma,74104
39,Overcast,2016-05-26 03:53:00,73.0,,-,79,N/A,29.91,80.1,10:53 PM,,10.0,South,5.8,180,Tulsa,Oklahoma,74104
40,Overcast,2016-05-26 04:04:00,73.0,,-,77,N/A,29.90,81.0,11:04 PM,,10.0,South,9.2,180,Tulsa,Oklahoma,74104
41,Overcast,2016-05-26 04:53:00,73.0,,-,79,N/A,29.91,80.1,11:53 PM,,10.0,South,9.2,170,Tulsa,Oklahoma,74104
0,Overcast,2016-05-26 05:39:00,73.0,,-,82,N/A,29.90,79.0,12:39 AM,,10.0,South,8.1,170,Tulsa,Oklahoma,74104
1,Overcast,2016-05-26 05:53:00,73.0,,-,79,N/A,29.91,80.1,12:53 AM,,10.0,South,8.1,170,Tulsa,Oklahoma,74104
2,Overcast,2016-05-26 06:53:00,73.0,,-,84,N/A,29.90,78.1,1:53 AM,,8.0,South,8.1,170,Tulsa,Oklahoma,74104
3,Overcast,2016-05-26 07:53:00,73.0,,-,82,N/A,29.88,79.0,2:53 AM,,8.0,South,10.4,190,Tulsa,Oklahoma,74104
4,Overcast,2016-05-26 08:53:00,73.0,,-,82,N/A,29.88,79.0,3:53 AM,,8.0,South,8.1,180,Tulsa,Oklahoma,74104
5,Overcast,2016-05-26 09:53:00,72.0,,-,79,N/A,29.87,79.0,4:53 AM,,9.0,South,11.5,180,Tulsa,Oklahoma,74104
6,Overcast,2016-05-26 10:10:00,72.0,,-,79,N/A,29.87,79.0,5:10 AM,,9.0,SSW,12.7,200,Tulsa,Oklahoma,74104
7,Mostly Cloudy,2016-05-26 10:53:00,72.0,,-,81,N/A,29.87,78.1,5:53 AM,,9.0,South,12.7,190,Tulsa,Oklahoma,74104
8,Overcast,2016-05-26 11:22:00,72.0,,-,81,N/A,29.87,78.1,6:22 AM,,9.0,SSW,10.4,200,Tulsa,Oklahoma,74104
9,Mostly Cloudy,2016-05-26 11:43:00,72.0,,-,81,N/A,29.88,78.1,6:43 AM,,9.0,South,11.5,190,Tulsa,Oklahoma,74104
10,Mostly Cloudy,2016-05-26 11:53:00,72.0,,19.6,81,N/A,29.89,78.1,6:53 AM,,9.0,South,10.4,180,Tulsa,Oklahoma,74104
11,Overcast,2016-05-26 12:04:00,72.0,,-,81,N/A,29.88,78.1,7:04 AM,,9.0,South,12.7,180,Tulsa,Oklahoma,74104
12,Overcast,2016-05-26 12:53:00,72.0,,-,79,N/A,29.88,79.0,7:53 AM,,10.0,South,9.2,170,Tulsa,Oklahoma,74104
13,Mostly Cloudy,2016-05-26 14:53:00,72.0,,-,74,N/A,29.88,81.0,9:53 AM,,10.0,South,11.5,170,Tulsa,Oklahoma,74104
14,Overcast,2016-05-26 15:53:00,72.0,,20.7,76,0.00,29.89,80.1,10:53 AM,,10.0,South,10.4,180,Tulsa,Oklahoma,74104
15,Overcast,2016-05-26 16:53:00,73.0,,-,79,N/A,29.88,80.1,11:53 AM,,10.0,South,12.7,180,Tulsa,Oklahoma,74104
16,Light Rain,2016-05-26 17:43:00,73.0,Rain,-,84,0.00,29.87,78.1,12:43 PM,,7.0,SSE,9.2,160,Tulsa,Oklahoma,74104
17,Light Rain,2016-05-26 17:53:00,73.9,Rain,-,84,0.00,29.88,79.0,12:53 PM,,6.0,SSE,10.4,160,Tulsa,Oklahoma,74104
18,Mostly Cloudy,2016-05-26 18:17:00,73.9,,-,81,0.00,29.86,80.1,1:17 PM,,10.0,SSE,9.2,150,Tulsa,Oklahoma,74104
19,Overcast,2016-05-26 18:53:00,73.9,,-,79,0.00,29.85,81.0,1:53 PM,,10.0,SE,12.7,140,Tulsa,Oklahoma,74104
20,Mostly Cloudy,2016-05-26 19:53:00,73.0,,19.6,77,N/A,29.82,81.0,2:53 PM,,10.0,South,12.7,170,Tulsa,Oklahoma,74104
21,Mostly Cloudy,2016-05-26 20:53:00,73.0,,23.0,69,N/A,29.78,84.0,3:53 PM,,10.0,SSE,13.8,150,Tulsa,Oklahoma,74104
22,Mostly Cloudy,2016-05-26 21:24:00,72.0,,23.0,67,N/A,29.76,84.0,4:24 PM,,10.0,South,15.0,170,Tulsa,Oklahoma,74104
23,Mostly Cloudy,2016-05-26 21:53:00,72.0,,27.6,65,N/A,29.76,84.9,4:53 PM,,10.0,South,20.7,170,Tulsa,Oklahoma,74104
24,Scattered Clouds,2016-05-26 22:53:00,69.1,,21.9,61,N/A,29.77,84.0,5:53 PM,,10.0,South,12.7,170,Tulsa,Oklahoma,74104
25,Clear,2016-05-26 23:53:00,63.0,,31.1,49,N/A,29.77,84.0,6:53 PM,,10.0,South,17.3,180,Tulsa,Oklahoma,74104
26,Clear,2016-05-27 00:53:00,64.9,,27.6,58,N/A,29.77,81.0,7:53 PM,,10.0,SSE,13.8,160,Tulsa,Oklahoma,74104
27,Clear,2016-05-27 01:53:00,66.0,,-,69,N/A,29.75,77.0,8:53 PM,,10.0,SSE,10.4,150,Tulsa,Oklahoma,74104
28,Clear,2016-05-27 02:53:00,64.0,,18.4,67,N/A,29.70,75.9,9:53 PM,,10.0,South,10.4,170,Tulsa,Oklahoma,74104
29,Mostly Cloudy,2016-05-27 03:53:00,64.9,,-,73,N/A,29.78,73.9,10:53 PM,,10.0,South,9.2,170,Tulsa,Oklahoma,74104
30,Mostly Cloudy,2016-05-27 04:53:00,64.0,,-,71,N/A,29.78,73.9,11:53 PM,,10.0,South,10.4,170,Tulsa,Oklahoma,74104
0,Mostly Cloudy,2016-05-27 05:53:00,64.0,,-,71,N/A,29.76,73.9,12:53 AM,,10.0,South,11.5,170,Tulsa,Oklahoma,74104
1,Overcast,2016-05-27 06:53:00,64.0,,-,71,N/A,29.75,73.9,1:53 AM,,10.0,South,16.1,180,Tulsa,Oklahoma,74104
2,Mostly Cloudy,2016-05-27 07:10:00,64.9,,21.9,73,N/A,29.74,73.9,2:10 AM,,10.0,South,15.0,180,Tulsa,Oklahoma,74104
3,Clear,2016-05-27 07:53:00,64.9,,-,76,N/A,29.72,73.0,2:53 AM,,10.0,South,9.2,170,Tulsa,Oklahoma,74104
4,Mostly Cloudy,2016-05-27 08:53:00,64.9,,17.3,84,N/A,29.68,70.0,3:53 AM,,10.0,SE,11.5,140,Tulsa,Oklahoma,74104
5,Overcast,2016-05-27 09:53:00,64.0,,-,81,N/A,29.70,70.0,4:53 AM,,10.0,SSE,8.1,150,Tulsa,Oklahoma,74104
6,Scattered Clouds,2016-05-27 10:34:00,64.0,,-,81,N/A,29.73,70.0,5:34 AM,,10.0,South,5.8,170,Tulsa,Oklahoma,74104
7,Clear,2016-05-27 10:53:00,64.0,,-,81,N/A,29.75,70.0,5:53 AM,,10.0,South,6.9,170,Tulsa,Oklahoma,74104
8,Mostly Cloudy,2016-05-27 11:53:00,64.0,,-,81,N/A,29.77,70.0,6:53 AM,,10.0,South,5.8,170,Tulsa,Oklahoma,74104
9,Overcast,2016-05-27 12:53:00,64.9,,-,81,N/A,29.77,71.1,7:53 AM,,10.0,South,6.9,170,Tulsa,Oklahoma,74104
10,Scattered Clouds,2016-05-27 13:53:00,64.9,,-,78,N/A,29.73,72.0,8:53 AM,,10.0,SE,12.7,140,Tulsa,Oklahoma,74104
11,Clear,2016-05-27 14:53:00,64.0,,-,69,N/A,29.70,75.0,9:53 AM,,10.0,South,9.2,170,Tulsa,Oklahoma,74104
12,Partly Cloudy,2016-05-27 15:53:00,64.9,,19.6,71,N/A,29.67,75.0,10:53 AM,,10.0,SE,15.0,130,Tulsa,Oklahoma,74104
13,Clear,2016-05-27 16:53:00,64.9,,-,69,N/A,29.70,75.9,11:53 AM,,10.0,South,12.7,170,Tulsa,Oklahoma,74104
14,Scattered Clouds,2016-05-27 17:53:00,64.0,,-,62,N/A,29.75,78.1,12:53 PM,,10.0,SSW,12.7,200,Tulsa,Oklahoma,74104
15,Mostly Cloudy,2016-05-27 18:53:00,63.0,,19.6,60,N/A,29.73,78.1,1:53 PM,,10.0,SSW,12.7,200,Tulsa,Oklahoma,74104
16,Overcast,2016-05-27 19:53:00,63.0,,-,60,N/A,29.72,78.1,2:53 PM,,10.0,South,9.2,180,Tulsa,Oklahoma,74104
17,Overcast,2016-05-27 20:53:00,62.1,,-,56,N/A,29.71,79.0,3:53 PM,,10.0,South,8.1,170,Tulsa,Oklahoma,74104
18,Clear,2016-05-27 21:53:00,63.0,,-,56,N/A,29.70,80.1,4:53 PM,,10.0,South,10.4,190,Tulsa,Oklahoma,74104
19,Clear,2016-05-27 22:53:00,63.0,,-,58,N/A,29.68,79.0,5:53 PM,,10.0,South,11.5,170,Tulsa,Oklahoma,74104
20,Clear,2016-05-27 23:53:00,62.1,,20.7,60,N/A,29.68,77.0,6:53 PM,,10.0,South,11.5,180,Tulsa,Oklahoma,74104
21,Clear,2016-05-28 00:53:00,63.0,,-,64,N/A,29.68,75.9,7:53 PM,,10.0,South,8.1,170,Tulsa,Oklahoma,74104
22,Partly Cloudy,2016-05-28 01:53:00,64.0,,-,69,N/A,29.71,75.0,8:53 PM,,10.0,South,8.1,170,Tulsa,Oklahoma,74104
23,Mostly Cloudy,2016-05-28 02:22:00,64.0,,-,71,N/A,29.72,73.9,9:22 PM,,10.0,SSE,5.8,160,Tulsa,Oklahoma,74104
24,Scattered Clouds,2016-05-28 02:30:00,64.0,,-,71,N/A,29.72,73.9,9:30 PM,,10.0,SSE,6.9,160,Tulsa,Oklahoma,74104
25,Clear,2016-05-28 02:53:00,64.0,,-,73,N/A,29.74,73.0,9:53 PM,,10.0,SSE,5.8,160,Tulsa,Oklahoma,74104
26,Clear,2016-05-28 03:53:00,64.0,,-,76,N/A,29.75,72.0,10:53 PM,,10.0,SSE,6.9,150,Tulsa,Oklahoma,74104
27,Clear,2016-05-28 04:53:00,64.9,,-,87,N/A,29.77,69.1,11:53 PM,,10.0,SE,3.5,130,Tulsa,Oklahoma,74104
0,Clear,2016-05-28 05:53:00,57.0,,-,63,N/A,29.78,70.0,12:53 AM,,10.0,SSE,3.5,160,Tulsa,Oklahoma,74104
1,Clear,2016-05-28 06:53:00,59.0,,-,70,N/A,29.78,69.1,1:53 AM,,10.0,South,9.2,180,Tulsa,Oklahoma,74104
2,Clear,2016-05-28 07:53:00,60.1,,-,81,N/A,29.80,66.0,2:53 AM,,10.0,South,4.6,180,Tulsa,Oklahoma,74104
3,Mostly Cloudy,2016-05-28 08:37:00,60.1,,-,84,N/A,29.80,64.9,3:37 AM,,10.0,South,3.5,180,Tulsa,Oklahoma,74104
4,Mostly Cloudy,2016-05-28 08:53:00,61.0,,-,87,N/A,29.81,64.9,3:53 AM,,10.0,South,8.1,180,Tulsa,Oklahoma,74104
5,Overcast,2016-05-28 09:53:00,62.1,,-,84,N/A,29.84,66.9,4:53 AM,,10.0,South,6.9,190,Tulsa,Oklahoma,74104
6,Overcast,2016-05-28 10:53:00,62.1,,-,84,N/A,29.86,66.9,5:53 AM,,10.0,South,9.2,190,Tulsa,Oklahoma,74104
7,Overcast,2016-05-28 11:53:00,62.1,,-,84,N/A,29.88,66.9,6:53 AM,,10.0,South,9.2,190,Tulsa,Oklahoma,74104
8,Overcast,2016-05-28 12:49:00,62.6,,-,83,N/A,29.89,68.0,7:49 AM,,10.0,SSW,9.2,210,Tulsa,Oklahoma,74104
9,Overcast,2016-05-28 12:53:00,63.0,,-,84,N/A,29.90,68.0,7:53 AM,,10.0,SSW,11.5,200,Tulsa,Oklahoma,74104
10,Overcast,2016-05-28 13:14:00,63.0,,-,81,N/A,29.89,69.1,8:14 AM,,10.0,SSW,9.2,210,Tulsa,Oklahoma,74104
11,Overcast,2016-05-28 13:53:00,63.0,,-,78,N/A,29.92,70.0,8:53 AM,,10.0,SSW,10.4,210,Tulsa,Oklahoma,74104
12,Mostly Cloudy,2016-05-28 14:53:00,63.0,,-,75,N/A,29.94,71.1,9:53 AM,,10.0,SW,8.1,230,Tulsa,Oklahoma,74104
13,Scattered Clouds,2016-05-28 15:42:00,62.1,,17.3,66,N/A,29.93,73.9,10:42 AM,,10.0,SW,10.4,220,Tulsa,Oklahoma,74104
14,Partly Cloudy,2016-05-28 15:53:00,63.0,,-,68,N/A,29.95,73.9,10:53 AM,,10.0,SSW,10.4,210,Tulsa,Oklahoma,74104
15,Scattered Clouds,2016-05-28 16:53:00,62.1,,-,60,N/A,29.96,77.0,11:53 AM,,10.0,SSW,6.9,210,Tulsa,Oklahoma,74104
16,Partly Cloudy,2016-05-28 17:53:00,62.1,,-,58,N/A,29.96,78.1,12:53 PM,,10.0,SSW,8.1,200,Tulsa,Oklahoma,74104
17,Scattered Clouds,2016-05-28 18:53:00,63.0,,-,58,N/A,29.95,79.0,1:53 PM,,10.0,South,6.9,170,Tulsa,Oklahoma,74104
18,Mostly Cloudy,2016-05-28 19:53:00,63.0,,-,54,N/A,29.95,81.0,2:53 PM,,10.0,SSE,8.1,160,Tulsa,Oklahoma,74104
19,Mostly Cloudy,2016-05-28 20:53:00,63.0,,-,56,N/A,29.96,80.1,3:53 PM,,10.0,South,10.4,180,Tulsa,Oklahoma,74104
20,Mostly Cloudy,2016-05-28 21:53:00,63.0,,-,52,N/A,29.95,82.0,4:53 PM,,10.0,SSE,8.1,160,Tulsa,Oklahoma,74104
21,Scattered Clouds,2016-05-28 22:53:00,64.0,,-,53,N/A,29.95,82.9,5:53 PM,,10.0,SSW,8.1,210,Tulsa,Oklahoma,74104
22,Clear,2016-05-28 23:53:00,64.0,,-,60,N/A,29.96,79.0,6:53 PM,,10.0,SW,4.6,220,Tulsa,Oklahoma,74104
23,Clear,2016-05-29 00:53:00,64.9,,-,66,N/A,29.97,77.0,7:53 PM,,10.0,SSW,4.6,210,Tulsa,Oklahoma,74104
24,Clear,2016-05-29 01:53:00,66.0,,-,84,N/A,29.99,71.1,8:53 PM,,10.0,Calm,Calm,0,Tulsa,Oklahoma,74104
25,Clear,2016-05-29 02:53:00,66.0,,-,84,N/A,30.01,71.1,9:53 PM,,10.0,Calm,Calm,0,Tulsa,Oklahoma,74104
26,Clear,2016-05-29 03:53:00,66.0,,-,90,N/A,30.03,69.1,10:53 PM,,10.0,Calm,Calm,0,Tulsa,Oklahoma,74104
27,Clear,2016-05-29 04:53:00,66.0,,-,93,N/A,30.04,68.0,11:53 PM,,10.0,Calm,Calm,0,Tulsa,Oklahoma,74104
0,Clear,2016-05-29 05:53:00,64.9,,-,93,N/A,30.04,66.9,12:53 AM,,8.0,Calm,Calm,0,Tulsa,Oklahoma,74104
1,Clear,2016-05-29 06:53:00,64.9,,-,93,N/A,30.06,66.9,1:53 AM,,6.0,Calm,Calm,0,Tulsa,Oklahoma,74104
2,Clear,2016-05-29 07:53:00,64.0,,-,93,N/A,30.05,66.0,2:53 AM,,6.0,Calm,Calm,0,Tulsa,Oklahoma,74104
3,Clear,2016-05-29 08:53:00,64.9,,-,96,N/A,30.06,66.0,3:53 AM,,6.0,Calm,Calm,0,Tulsa,Oklahoma,74104
4,Clear,2016-05-29 09:53:00,64.0,,-,93,N/A,30.07,66.0,4:53 AM,,2.5,Calm,Calm,0,Tulsa,Oklahoma,74104
5,Clear,2016-05-29 10:01:00,64.9,,-,96,N/A,30.06,66.0,5:01 AM,,3.0,Calm,Calm,0,Tulsa,Oklahoma,74104
6,Clear,2016-05-29 10:53:00,64.0,,-,93,N/A,30.08,66.0,5:53 AM,,4.0,Calm,Calm,0,Tulsa,Oklahoma,74104
7,Clear,2016-05-29 11:10:00,64.9,,-,96,N/A,30.07,66.0,6:10 AM,,1.8,Calm,Calm,0,Tulsa,Oklahoma,74104
8,Clear,2016-05-29 11:27:00,64.0,,-,97,N/A,30.08,64.9,6:27 AM,,2.0,Calm,Calm,0,Tulsa,Oklahoma,74104
9,Clear,2016-05-29 11:44:00,64.9,,-,96,N/A,30.09,66.0,6:44 AM,,4.0,Calm,Calm,0,Tulsa,Oklahoma,74104
10,Clear,2016-05-29 11:53:00,64.9,,-,93,N/A,30.10,66.9,6:53 AM,,5.0,Calm,Calm,0,Tulsa,Oklahoma,74104
11,Clear,2016-05-29 12:53:00,66.9,,-,90,N/A,30.11,70.0,7:53 AM,,10.0,SSE,3.5,150,Tulsa,Oklahoma,74104
12,Clear,2016-05-29 13:53:00,68.0,,-,84,N/A,30.13,73.0,8:53 AM,,10.0,Calm,Calm,0,Tulsa,Oklahoma,74104
13,Clear,2016-05-29 14:53:00,69.1,,-,74,N/A,30.14,78.1,9:53 AM,,10.0,Calm,Calm,0,Tulsa,Oklahoma,74104
14,Clear,2016-05-29 15:53:00,66.9,,-,60,N/A,30.14,82.0,10:53 AM,,9.0,NNW,3.5,340,Tulsa,Oklahoma,74104
15,Clear,2016-05-29 16:53:00,66.0,,-,55,N/A,30.13,84.0,11:53 AM,,10.0,WSW,3.5,250,Tulsa,Oklahoma,74104
16,Partly Cloudy,2016-05-29 17:53:00,64.9,,-,51,N/A,30.13,84.9,12:53 PM,,10.0,SSW,9.2,210,Tulsa,Oklahoma,74104
17,Clear,2016-05-29 18:53:00,59.0,,-,40,N/A,30.11,86.0,1:53 PM,,10.0,South,8.1,180,Tulsa,Oklahoma,74104
18,Clear,2016-05-29 19:53:00,63.0,,-,44,N/A,30.07,87.1,2:53 PM,,10.0,SSW,4.6,200,Tulsa,Oklahoma,74104
19,Clear,2016-05-29 20:53:00,57.9,,-,36,N/A,30.05,88.0,3:53 PM,,10.0,South,4.6,170,Tulsa,Oklahoma,74104
20,Clear,2016-05-29 21:30:00,61.0,Thunderstorm,-,39,N/A,30.03,89.1,4:30 PM,,10.0,SW,4.6,220,Tulsa,Oklahoma,74104
21,Scattered Clouds,2016-05-29 21:53:00,59.0,,-,37,N/A,30.04,88.0,4:53 PM,,10.0,South,8.1,170,Tulsa,Oklahoma,74104
22,Mostly Cloudy,2016-05-29 22:37:00,66.9,Thunderstorm,-,60,N/A,30.02,82.0,5:37 PM,,10.0,North,9.2,10,Tulsa,Oklahoma,74104
23,Partly Cloudy,2016-05-29 22:53:00,66.0,Thunderstorm,-,60,N/A,30.02,81.0,5:53 PM,,10.0,Variable,4.6,0,Tulsa,Oklahoma,74104
24,Light Rain,2016-05-29 23:41:00,62.1,Rain,-,56,0.00,30.03,79.0,6:41 PM,,10.0,ENE,13.8,60,Tulsa,Oklahoma,74104
25,Light Rain,2016-05-29 23:53:00,57.0,Rain,24.2,50,0.00,30.04,77.0,6:53 PM,,10.0,ENE,15.0,70,Tulsa,Oklahoma,74104
26,Light Rain,2016-05-30 00:53:00,60.1,Rain,-,54,0.00,30.06,78.1,7:53 PM,,10.0,East,10.4,80,Tulsa,Oklahoma,74104
27,Clear,2016-05-30 01:53:00,59.0,,-,57,0.00,30.05,75.0,8:53 PM,,10.0,SE,5.8,130,Tulsa,Oklahoma,74104
28,Clear,2016-05-30 02:53:00,59.0,,-,57,N/A,30.06,75.0,9:53 PM,,10.0,South,5.8,170,Tulsa,Oklahoma,74104
29,Clear,2016-05-30 03:53:00,59.0,,-,59,N/A,30.07,73.9,10:53 PM,,10.0,SSE,4.6,160,Tulsa,Oklahoma,74104
30,Clear,2016-05-30 04:53:00,61.0,,-,73,N/A,30.07,70.0,11:53 PM,,10.0,SSW,4.6,210,Tulsa,Oklahoma,74104
0,Clear,2016-05-30 05:53:00,63.0,,-,81,N/A,30.05,69.1,12:53 AM,,10.0,Calm,Calm,0,Tulsa,Oklahoma,74104
1,Clear,2016-05-30 06:53:00,63.0,,-,84,N/A,30.04,68.0,1:53 AM,,10.0,WNW,3.5,300,Tulsa,Oklahoma,74104
2,Overcast,2016-05-30 07:37:00,64.0,Thunderstorm,-,76,N/A,30.03,72.0,2:37 AM,,10.0,Calm,Calm,0,Tulsa,Oklahoma,74104
3,Scattered Clouds,2016-05-30 07:53:00,64.0,,-,78,N/A,30.04,71.1,2:53 AM,,10.0,Calm,Calm,0,Tulsa,Oklahoma,74104
4,Clear,2016-05-30 08:53:00,64.9,,-,87,N/A,30.01,69.1,3:53 AM,,10.0,Calm,Calm,0,Tulsa,Oklahoma,74104
5,Partly Cloudy,2016-05-30 09:53:00,64.0,,-,81,N/A,30.03,70.0,4:53 AM,,10.0,SW,3.5,220,Tulsa,Oklahoma,74104
6,Clear,2016-05-30 10:53:00,62.1,,-,78,N/A,30.04,69.1,5:53 AM,,10.0,Calm,Calm,0,Tulsa,Oklahoma,74104
7,Clear,2016-05-30 11:53:00,63.0,,-,81,N/A,30.05,69.1,6:53 AM,,10.0,Calm,Calm,0,Tulsa,Oklahoma,74104
8,Partly Cloudy,2016-05-30 12:53:00,64.0,,-,81,N/A,30.07,70.0,7:53 AM,,10.0,Calm,Calm,0,Tulsa,Oklahoma,74104
9,Overcast,2016-05-30 13:53:00,64.0,,-,78,N/A,30.09,71.1,8:53 AM,,10.0,ESE,3.5,110,Tulsa,Oklahoma,74104
10,Overcast,2016-05-30 14:53:00,64.9,,-,81,0.00,30.09,71.1,9:53 AM,,10.0,South,5.8,180,Tulsa,Oklahoma,74104
11,Scattered Clouds,2016-05-30 15:53:00,62.1,,-,68,N/A,30.07,73.0,10:53 AM,,10.0,Calm,Calm,0,Tulsa,Oklahoma,74104
12,Mostly Cloudy,2016-05-30 16:53:00,63.0,,-,64,0.00,30.05,75.9,11:53 AM,,10.0,ESE,8.1,120,Tulsa,Oklahoma,74104
13,Mostly Cloudy,2016-05-30 17:53:00,63.0,,-,60,N/A,30.04,78.1,12:53 PM,,10.0,SE,10.4,140,Tulsa,Oklahoma,74104
14,Overcast,2016-05-30 18:53:00,64.0,,-,71,0.02,30.02,73.9,1:53 PM,,10.0,ESE,10.4,120,Tulsa,Oklahoma,74104
15,Overcast,2016-05-30 19:53:00,63.0,,-,64,N/A,30.01,75.9,2:53 PM,,10.0,SSE,12.7,150,Tulsa,Oklahoma,74104
16,Overcast,2016-05-30 20:53:00,64.0,,-,67,N/A,29.99,75.9,3:53 PM,,10.0,ESE,8.1,120,Tulsa,Oklahoma,74104
17,Overcast,2016-05-30 21:45:00,64.0,,-,67,0.01,29.96,75.9,4:45 PM,,10.0,SE,8.1,140,Tulsa,Oklahoma,74104
18,Overcast,2016-05-30 21:53:00,64.0,,-,67,0.01,29.97,75.9,4:53 PM,,10.0,SE,8.1,140,Tulsa,Oklahoma,74104
19,Overcast,2016-05-30 22:23:00,64.0,,-,67,N/A,29.95,75.9,5:23 PM,,10.0,SE,10.4,130,Tulsa,Oklahoma,74104
20,Overcast,2016-05-30 22:37:00,64.0,,-,67,N/A,29.95,75.9,5:37 PM,,10.0,SSE,11.5,150,Tulsa,Oklahoma,74104
21,Mostly Cloudy,2016-05-30 22:49:00,64.4,,-,69,N/A,29.95,75.2,5:49 PM,,10.0,ESE,10.4,120,Tulsa,Oklahoma,74104
22,Scattered Clouds,2016-05-30 22:53:00,64.0,,-,67,N/A,29.96,75.9,5:53 PM,,10.0,SE,8.1,140,Tulsa,Oklahoma,74104
23,Mostly Cloudy,2016-05-30 23:43:00,64.9,,-,71,N/A,29.93,75.0,6:43 PM,,10.0,ESE,9.2,110,Tulsa,Oklahoma,74104
24,Mostly Cloudy,2016-05-30 23:53:00,63.0,,-,66,N/A,29.95,75.0,6:53 PM,,10.0,SE,10.4,140,Tulsa,Oklahoma,74104
25,Overcast,2016-05-31 00:15:00,63.0,,-,68,N/A,29.93,73.9,7:15 PM,,10.0,SE,9.2,130,Tulsa,Oklahoma,74104
26,Clear,2016-05-31 00:53:00,63.0,,-,68,N/A,29.94,73.9,7:53 PM,,10.0,SE,9.2,130,Tulsa,Oklahoma,74104
27,Clear,2016-05-31 01:53:00,64.0,,-,76,N/A,29.95,72.0,8:53 PM,,10.0,East,6.9,100,Tulsa,Oklahoma,74104
28,Light Rain,2016-05-31 02:53:00,64.9,Rain,-,84,0.00,29.96,70.0,9:53 PM,,10.0,East,5.8,100,Tulsa,Oklahoma,74104
29,Clear,2016-05-31 03:53:00,63.0,,-,78,0.00,29.97,70.0,10:53 PM,,10.0,SSE,3.5,150,Tulsa,Oklahoma,74104
30,Partly Cloudy,2016-05-31 04:53:00,63.0,,-,87,N/A,29.96,66.9,11:53 PM,,10.0,Calm,Calm,0,Tulsa,Oklahoma,74104
0,Clear,2016-05-31 05:53:00,63.0,,-,90,N/A,29.94,66.0,12:53 AM,,10.0,Calm,Calm,0,Tulsa,Oklahoma,74104
1,Clear,2016-05-31 06:53:00,62.1,,-,93,N/A,29.93,64.0,1:53 AM,,8.0,Calm,Calm,0,Tulsa,Oklahoma,74104
2,Clear,2016-05-31 07:53:00,62.1,,-,93,N/A,29.92,64.0,2:53 AM,,5.0,Calm,Calm,0,Tulsa,Oklahoma,74104
3,Mostly Cloudy,2016-05-31 08:53:00,63.0,,-,96,N/A,29.93,64.0,3:53 AM,,6.0,Calm,Calm,0,Tulsa,Oklahoma,74104
4,Mostly Cloudy,2016-05-31 09:53:00,63.0,,-,93,N/A,29.92,64.9,4:53 AM,,6.0,Calm,Calm,0,Tulsa,Oklahoma,74104
5,Mostly Cloudy,2016-05-31 10:08:00,63.0,,-,93,N/A,29.90,64.9,5:08 AM,,6.0,Calm,Calm,0,Tulsa,Oklahoma,74104
6,Mostly Cloudy,2016-05-31 10:17:00,63.0,,-,93,N/A,29.89,64.9,5:17 AM,,7.0,Calm,Calm,0,Tulsa,Oklahoma,74104
7,Overcast,2016-05-31 10:48:00,64.4,,-,94,N/A,29.89,66.2,5:48 AM,,10.0,SSW,3.5,210,Tulsa,Oklahoma,74104
8,Overcast,2016-05-31 10:53:00,64.0,,-,93,N/A,29.91,66.0,5:53 AM,,10.0,South,4.6,190,Tulsa,Oklahoma,74104
9,Overcast,2016-05-31 11:28:00,66.0,,-,97,N/A,29.89,66.9,6:28 AM,,2.5,South,4.6,170,Tulsa,Oklahoma,74104
10,Overcast,2016-05-31 11:43:00,66.0,,-,97,N/A,29.89,66.9,6:43 AM,,1.0,South,8.1,170,Tulsa,Oklahoma,74104
11,Overcast,2016-05-31 11:51:00,66.2,,-,100,N/A,29.90,66.2,6:51 AM,,0.8,South,6.9,170,Tulsa,Oklahoma,74104
12,Overcast,2016-05-31 11:53:00,66.0,,-,97,N/A,29.91,66.9,6:53 AM,,0.8,South,6.9,170,Tulsa,Oklahoma,74104
13,Overcast,2016-05-31 12:07:00,66.0,,-,97,N/A,29.92,66.9,7:07 AM,,1.2,South,5.8,180,Tulsa,Oklahoma,74104
14,Overcast,2016-05-31 12:53:00,66.0,,-,97,N/A,29.95,66.9,7:53 AM,,2.0,South,3.5,180,Tulsa,Oklahoma,74104
15,Overcast,2016-05-31 13:03:00,66.0,,-,93,N/A,29.94,68.0,8:03 AM,,3.0,Variable,3.5,0,Tulsa,Oklahoma,74104
16,Overcast,2016-05-31 13:53:00,66.9,,-,93,N/A,29.97,69.1,8:53 AM,,5.0,Calm,Calm,0,Tulsa,Oklahoma,74104
17,Overcast,2016-05-31 14:20:00,66.9,,-,93,N/A,29.97,69.1,9:20 AM,,6.0,Calm,Calm,0,Tulsa,Oklahoma,74104
18,Overcast,2016-05-31 14:53:00,66.9,,-,93,N/A,29.98,69.1,9:53 AM,,7.0,WNW,3.5,300,Tulsa,Oklahoma,74104
19,Light Rain,2016-05-31 15:06:00,66.9,Rain-Thunderstorm,-,93,0.00,29.97,69.1,10:06 AM,,4.0,Calm,Calm,0,Tulsa,Oklahoma,74104
20,Light Rain,2016-05-31 15:11:00,66.9,Rain-Thunderstorm,-,93,0.00,29.96,69.1,10:11 AM,,1.8,Variable,3.5,0,Tulsa,Oklahoma,74104
21,Light Rain,2016-05-31 15:18:00,66.9,Rain,-,93,0.00,29.96,69.1,10:18 AM,,2.0,North,3.5,360,Tulsa,Oklahoma,74104
22,Light Rain,2016-05-31 15:26:00,66.9,Rain,-,90,0.00,29.94,70.0,10:26 AM,,6.0,NE,5.8,50,Tulsa,Oklahoma,74104
23,Light Rain,2016-05-31 15:38:00,66.9,Rain,-,90,0.00,29.91,70.0,10:38 AM,,6.0,East,10.4,80,Tulsa,Oklahoma,74104
24,Light Rain,2016-05-31 15:53:00,68.0,Rain,-,93,0.00,29.91,70.0,10:53 AM,,8.0,ESE,11.5,120,Tulsa,Oklahoma,74104
25,Clear,2016-05-31 16:53:00,69.1,,-,76,0.00,29.91,77.0,11:53 AM,,10.0,ESE,9.2,120,Tulsa,Oklahoma,74104
26,Partly Cloudy,2016-05-31 17:53:00,68.0,,17.3,69,N/A,29.89,79.0,12:53 PM,,10.0,SE,8.1,140,Tulsa,Oklahoma,74104
27,Mostly Cloudy,2016-05-31 18:43:00,68.0,,-,67,N/A,29.89,80.1,1:43 PM,,10.0,Variable,3.5,0,Tulsa,Oklahoma,74104
28,Mostly Cloudy,2016-05-31 18:53:00,66.9,,-,66,N/A,29.90,79.0,1:53 PM,,10.0,Variable,3.5,0,Tulsa,Oklahoma,74104
29,Mostly Cloudy,2016-05-31 19:11:00,68.0,,-,67,N/A,29.87,80.1,2:11 PM,,10.0,South,3.5,170,Tulsa,Oklahoma,74104
30,Mostly Cloudy,2016-05-31 19:48:00,66.2,,-,61,N/A,29.88,80.6,2:48 PM,,10.0,SE,10.4,140,Tulsa,Oklahoma,74104
31,Scattered Clouds,2016-05-31 19:53:00,66.0,,-,60,N/A,29.89,81.0,2:53 PM,,10.0,SSE,8.1,160,Tulsa,Oklahoma,74104
32,Partly Cloudy,2016-05-31 20:53:00,66.9,,-,64,N/A,29.88,80.1,3:53 PM,,10.0,SE,6.9,140,Tulsa,Oklahoma,74104
33,Clear,2016-05-31 21:53:00,64.0,,-,56,N/A,29.86,81.0,4:53 PM,,10.0,ESE,6.9,120,Tulsa,Oklahoma,74104
34,Clear,2016-05-31 22:53:00,64.9,,-,62,N/A,29.88,79.0,5:53 PM,,10.0,SE,6.9,130,Tulsa,Oklahoma,74104
35,Clear,2016-05-31 23:53:00,64.9,,-,64,N/A,29.88,78.1,6:53 PM,,10.0,SE,8.1,130,Tulsa,Oklahoma,74104
36,Partly Cloudy,2016-06-01 00:53:00,66.0,,-,69,N/A,29.89,77.0,7:53 PM,,10.0,SSE,6.9,160,Tulsa,Oklahoma,74104
37,Partly Cloudy,2016-06-01 01:53:00,64.0,,-,69,N/A,29.91,75.0,8:53 PM,,10.0,South,5.8,180,Tulsa,Oklahoma,74104
38,Clear,2016-06-01 02:53:00,64.0,,-,76,N/A,29.94,72.0,9:53 PM,,10.0,Calm,Calm,0,Tulsa,Oklahoma,74104
39,Mostly Cloudy,2016-06-01 03:53:00,64.0,,-,73,N/A,29.98,73.0,10:53 PM,,10.0,South,4.6,170,Tulsa,Oklahoma,74104
40,Overcast,2016-06-01 04:53:00,64.0,,-,78,N/A,29.97,71.1,11:53 PM,,10.0,Calm,Calm,0,Tulsa,Oklahoma,74104
0,Overcast,2016-06-01 05:53:00,64.0,,-,78,N/A,29.96,71.1,12:53 AM,,10.0,Calm,Calm,0,Tulsa,Oklahoma,74104
1,Overcast,2016-06-01 06:53:00,64.9,,-,84,N/A,29.96,70.0,1:53 AM,,10.0,Calm,Calm,0,Tulsa,Oklahoma,74104
2,Mostly Cloudy,2016-06-01 07:53:00,64.0,,-,81,N/A,29.96,70.0,2:53 AM,,10.0,Calm,Calm,0,Tulsa,Oklahoma,74104
3,Clear,2016-06-01 08:53:00,64.0,,-,87,N/A,29.95,68.0,3:53 AM,,10.0,SSW,3.5,200,Tulsa,Oklahoma,74104
4,Clear,2016-06-01 09:53:00,64.0,,-,87,N/A,29.95,68.0,4:53 AM,,10.0,Calm,Calm,0,Tulsa,Oklahoma,74104
5,Mostly Cloudy,2016-06-01 10:53:00,64.0,,-,87,N/A,29.97,68.0,5:53 AM,,10.0,Calm,Calm,0,Tulsa,Oklahoma,74104
6,Overcast,2016-06-01 11:32:00,64.0,,-,84,N/A,29.96,69.1,6:32 AM,,10.0,Calm,Calm,0,Tulsa,Oklahoma,74104
7,Mostly Cloudy,2016-06-01 11:53:00,64.0,,-,84,N/A,29.97,69.1,6:53 AM,,10.0,SSW,3.5,200,Tulsa,Oklahoma,74104
8,Scattered Clouds,2016-06-01 12:13:00,64.0,,-,84,N/A,29.97,69.1,7:13 AM,,10.0,Calm,Calm,0,Tulsa,Oklahoma,74104
9,Mostly Cloudy,2016-06-01 12:20:00,64.0,,-,84,N/A,29.97,69.1,7:20 AM,,10.0,Calm,Calm,0,Tulsa,Oklahoma,74104
10,Mostly Cloudy,2016-06-01 12:53:00,64.0,,-,78,N/A,29.98,71.1,7:53 AM,,10.0,Calm,Calm,0,Tulsa,Oklahoma,74104
11,Mostly Cloudy,2016-06-01 13:48:00,64.4,,-,78,N/A,29.98,71.6,8:48 AM,,10.0,Calm,Calm,0,Tulsa,Oklahoma,74104
12,Mostly Cloudy,2016-06-01 13:53:00,64.0,,-,76,N/A,30.00,72.0,8:53 AM,,10.0,Calm,Calm,0,Tulsa,Oklahoma,74104
13,Mostly Cloudy,2016-06-01 14:21:00,64.0,,-,73,N/A,29.98,73.0,9:21 AM,,10.0,Calm,Calm,0,Tulsa,Oklahoma,74104
14,Scattered Clouds,2016-06-01 14:53:00,64.0,,-,69,N/A,30.01,75.0,9:53 AM,,10.0,Calm,Calm,0,Tulsa,Oklahoma,74104
15,Mostly Cloudy,2016-06-01 15:04:00,64.0,,-,69,N/A,29.99,75.0,10:04 AM,,10.0,NNE,3.5,30,Tulsa,Oklahoma,74104
16,Overcast,2016-06-01 15:53:00,64.9,,-,73,N/A,30.01,73.9,10:53 AM,,10.0,Calm,Calm,0,Tulsa,Oklahoma,74104
17,Overcast,2016-06-01 16:53:00,64.9,,-,71,N/A,30.02,75.0,11:53 AM,,10.0,Calm,Calm,0,Tulsa,Oklahoma,74104
18,Overcast,2016-06-01 17:33:00,64.0,,-,64,N/A,30.00,77.0,12:33 PM,,10.0,ENE,3.5,70,Tulsa,Oklahoma,74104
19,Mostly Cloudy,2016-06-01 17:53:00,64.9,,-,60,N/A,30.00,80.1,12:53 PM,,10.0,East,4.6,80,Tulsa,Oklahoma,74104
20,Scattered Clouds,2016-06-01 18:14:00,66.0,Thunderstorm,-,60,N/A,29.99,81.0,1:14 PM,,10.0,East,5.8,90,Tulsa,Oklahoma,74104
21,Scattered Clouds,2016-06-01 18:36:00,66.0,,-,64,N/A,29.98,79.0,1:36 PM,,10.0,East,5.8,80,Tulsa,Oklahoma,74104
22,Light Rain,2016-06-01 18:53:00,64.9,Rain,-,64,0.00,29.99,78.1,1:53 PM,,10.0,South,4.6,170,Tulsa,Oklahoma,74104
23,Mostly Cloudy,2016-06-01 19:53:00,68.0,Thunderstorm,-,79,0.00,29.98,75.0,2:53 PM,,10.0,Variable,4.6,0,Tulsa,Oklahoma,74104
24,Light Rain,2016-06-01 20:16:00,68.0,Rain,-,79,0.00,29.96,75.0,3:16 PM,,10.0,Calm,Calm,0,Tulsa,Oklahoma,74104
25,Light Rain,2016-06-01 20:53:00,66.9,Rain,-,76,0.00,29.96,75.0,3:53 PM,,10.0,North,6.9,10,Tulsa,Oklahoma,74104
26,Mostly Cloudy,2016-06-01 21:53:00,66.9,,-,66,0.00,29.94,79.0,4:53 PM,,10.0,North,3.5,360,Tulsa,Oklahoma,74104
27,Mostly Cloudy,2016-06-01 22:53:00,68.0,,-,67,N/A,29.94,80.1,5:53 PM,,10.0,North,6.9,360,Tulsa,Oklahoma,74104
28,Scattered Clouds,2016-06-01 23:53:00,64.9,,-,64,N/A,29.94,78.1,6:53 PM,,10.0,NNE,6.9,20,Tulsa,Oklahoma,74104
29,Partly Cloudy,2016-06-02 00:33:00,64.0,Thunderstorm,-,67,N/A,29.95,75.9,7:33 PM,,10.0,NNE,4.6,20,Tulsa,Oklahoma,74104
30,Partly Cloudy,2016-06-02 00:53:00,64.9,,-,69,N/A,29.97,75.9,7:53 PM,,10.0,NNE,4.6,20,Tulsa,Oklahoma,74104
31,Light Rain,2016-06-02 01:53:00,66.9,Rain,-,81,0.00,29.99,73.0,8:53 PM,,10.0,Calm,Calm,0,Tulsa,Oklahoma,74104
32,Light Rain,2016-06-02 02:53:00,66.9,Rain,-,87,0.02,30.00,71.1,9:53 PM,,10.0,Calm,Calm,0,Tulsa,Oklahoma,74104
33,Scattered Clouds,2016-06-02 03:53:00,68.0,,-,90,0.00,30.01,71.1,10:53 PM,,10.0,Calm,Calm,0,Tulsa,Oklahoma,74104
34,Partly Cloudy,2016-06-02 04:53:00,66.9,,-,90,N/A,30.01,70.0,11:53 PM,,10.0,NNE,3.5,30,Tulsa,Oklahoma,74104
0,Partly Cloudy,2016-06-02 05:53:00,66.9,,-,90,N/A,30.00,70.0,12:53 AM,,10.0,Calm,Calm,0,Tulsa,Oklahoma,74104
1,Scattered Clouds,2016-06-02 06:53:00,66.9,,-,90,N/A,29.99,70.0,1:53 AM,,10.0,Calm,Calm,0,Tulsa,Oklahoma,74104
2,Light Rain,2016-06-02 07:53:00,66.9,Rain,-,93,0.00,29.99,69.1,2:53 AM,,10.0,North,3.5,360,Tulsa,Oklahoma,74104
3,Mostly Cloudy,2016-06-02 08:53:00,66.9,,-,90,0.00,29.99,70.0,3:53 AM,,10.0,Calm,Calm,0,Tulsa,Oklahoma,74104
4,Overcast,2016-06-02 09:53:00,66.9,,-,90,0.00,30.00,70.0,4:53 AM,,10.0,North,3.5,10,Tulsa,Oklahoma,74104
5,Mostly Cloudy,2016-06-02 10:53:00,68.0,,-,93,0.01,30.01,70.0,5:53 AM,,10.0,NNE,4.6,30,Tulsa,Oklahoma,74104
6,Mostly Cloudy,2016-06-02 11:53:00,68.0,,-,93,0.01,30.04,70.0,6:53 AM,,7.0,Calm,Calm,0,Tulsa,Oklahoma,74104
7,Mostly Cloudy,2016-06-02 12:53:00,68.0,,-,87,N/A,30.02,72.0,7:53 AM,,10.0,NNE,6.9,30,Tulsa,Oklahoma,74104
8,Partly Cloudy,2016-06-02 13:53:00,68.0,,-,84,N/A,30.04,73.0,8:53 AM,,10.0,NE,5.8,50,Tulsa,Oklahoma,74104
9,Partly Cloudy,2016-06-02 14:53:00,69.1,,-,79,N/A,30.05,75.9,9:53 AM,,10.0,East,8.1,90,Tulsa,Oklahoma,74104
10,Mostly Cloudy,2016-06-02 15:23:00,68.0,,-,74,N/A,30.03,77.0,10:23 AM,,10.0,ENE,9.2,70,Tulsa,Oklahoma,74104
11,Overcast,2016-06-02 15:53:00,68.0,,-,71,N/A,30.04,78.1,10:53 AM,,10.0,East,8.1,80,Tulsa,Oklahoma,74104
12,Mostly Cloudy,2016-06-02 16:20:00,68.0,,-,69,N/A,30.03,79.0,11:20 AM,,10.0,ENE,8.1,70,Tulsa,Oklahoma,74104
13,Scattered Clouds,2016-06-02 16:53:00,66.9,,-,64,N/A,30.04,80.1,11:53 AM,,10.0,ENE,10.4,70,Tulsa,Oklahoma,74104
14,Overcast,2016-06-02 17:53:00,66.0,,-,60,N/A,30.02,81.0,12:53 PM,,10.0,East,9.2,90,Tulsa,Oklahoma,74104
15,Overcast,2016-06-02 18:53:00,66.0,,-,62,N/A,30.01,80.1,1:53 PM,,10.0,ENE,9.2,60,Tulsa,Oklahoma,74104
16,Mostly Cloudy,2016-06-02 19:25:00,66.0,Thunderstorm,-,60,N/A,29.98,81.0,2:25 PM,,10.0,ENE,10.4,60,Tulsa,Oklahoma,74104
17,Overcast,2016-06-02 19:40:00,64.9,,27.6,69,N/A,29.99,75.9,2:40 PM,,10.0,ENE,16.1,60,Tulsa,Oklahoma,74104
18,Overcast,2016-06-02 19:53:00,64.0,,21.9,73,N/A,30.01,73.0,2:53 PM,,10.0,ENE,15.0,60,Tulsa,Oklahoma,74104
19,Overcast,2016-06-02 20:34:00,66.0,Thunderstorm,-,76,0.00,29.99,73.9,3:34 PM,,10.0,NE,6.9,40,Tulsa,Oklahoma,74104
20,Overcast,2016-06-02 20:49:00,66.2,,-,73,0.00,29.99,75.2,3:49 PM,,10.0,NE,6.9,50,Tulsa,Oklahoma,74104
21,Light Rain,2016-06-02 20:53:00,66.0,Rain,-,76,0.00,30.01,73.9,3:53 PM,,10.0,ENE,6.9,60,Tulsa,Oklahoma,74104
22,Heavy Rain,2016-06-02 21:53:00,66.9,Rain,-,81,0.03,30.00,73.0,4:53 PM,,4.0,ENE,11.5,70,Tulsa,Oklahoma,74104
23,Partly Cloudy,2016-06-02 22:53:00,66.9,,-,76,0.00,29.99,75.0,5:53 PM,,10.0,NNE,4.6,30,Tulsa,Oklahoma,74104
24,Overcast,2016-06-02 23:53:00,66.0,,-,73,N/A,29.99,75.0,6:53 PM,,10.0,NE,4.6,50,Tulsa,Oklahoma,74104
25,Overcast,2016-06-03 00:53:00,66.9,,-,79,N/A,30.00,73.9,7:53 PM,,10.0,Variable,3.5,0,Tulsa,Oklahoma,74104
26,Clear,2016-06-03 01:53:00,64.9,,-,84,N/A,30.01,70.0,8:53 PM,,10.0,Calm,Calm,0,Tulsa,Oklahoma,74104
27,Partly Cloudy,2016-06-03 02:53:00,66.0,,-,90,N/A,30.01,69.1,9:53 PM,,10.0,Calm,Calm,0,Tulsa,Oklahoma,74104
28,Mostly Cloudy,2016-06-03 03:53:00,66.0,,-,93,N/A,30.03,68.0,10:53 PM,,10.0,Calm,Calm,0,Tulsa,Oklahoma,74104
29,Mostly Cloudy,2016-06-03 04:53:00,66.0,,-,87,N/A,30.03,70.0,11:53 PM,,10.0,Calm,Calm,0,Tulsa,Oklahoma,74104
0,Mostly Cloudy,2016-06-03 05:53:00,66.0,,-,84,N/A,30.01,71.1,12:53 AM,,10.0,Calm,Calm,0,Tulsa,Oklahoma,74104
1,Scattered Clouds,2016-06-03 06:19:00,66.9,,-,93,N/A,29.99,69.1,1:19 AM,,10.0,Calm,Calm,0,Tulsa,Oklahoma,74104
2,Partly Cloudy,2016-06-03 06:53:00,66.0,,-,90,N/A,30.00,69.1,1:53 AM,,10.0,Calm,Calm,0,Tulsa,Oklahoma,74104
3,Partly Cloudy,2016-06-03 07:53:00,66.0,,-,90,N/A,30.00,69.1,2:53 AM,,10.0,Calm,Calm,0,Tulsa,Oklahoma,74104
4,Mostly Cloudy,2016-06-03 08:53:00,66.9,,-,93,0.00,30.00,69.1,3:53 AM,,10.0,Calm,Calm,0,Tulsa,Oklahoma,74104
5,Scattered Clouds,2016-06-03 09:53:00,66.0,,-,90,0.01,30.00,69.1,4:53 AM,,10.0,ENE,3.5,60,Tulsa,Oklahoma,74104
6,Light Rain,2016-06-03 10:53:00,64.9,Rain,-,87,0.00,30.00,69.1,5:53 AM,,10.0,NNE,3.5,20,Tulsa,Oklahoma,74104
7,Light Rain,2016-06-03 11:53:00,66.0,Rain,-,90,0.02,30.01,69.1,6:53 AM,,9.0,North,5.8,10,Tulsa,Oklahoma,74104
8,Scattered Clouds,2016-06-03 12:53:00,66.0,,-,90,0.00,30.00,69.1,7:53 AM,,10.0,NNE,5.8,30,Tulsa,Oklahoma,74104
9,Overcast,2016-06-03 13:53:00,66.0,,-,84,N/A,30.01,71.1,8:53 AM,,10.0,ENE,3.5,60,Tulsa,Oklahoma,74104
10,Overcast,2016-06-03 14:53:00,66.9,,-,76,N/A,30.01,75.0,9:53 AM,,10.0,ENE,4.6,70,Tulsa,Oklahoma,74104
11,Mostly Cloudy,2016-06-03 15:53:00,68.0,,-,76,N/A,30.01,75.9,10:53 AM,,10.0,Calm,Calm,0,Tulsa,Oklahoma,74104
12,Overcast,2016-06-03 16:21:00,66.9,,-,74,N/A,30.00,75.9,11:21 AM,,10.0,SE,6.9,130,Tulsa,Oklahoma,74104
13,Overcast,2016-06-03 16:45:00,66.9,,-,74,N/A,29.99,75.9,11:45 AM,,10.0,ESE,5.8,120,Tulsa,Oklahoma,74104
14,Mostly Cloudy,2016-06-03 16:53:00,66.9,,-,71,N/A,30.01,77.0,11:53 AM,,10.0,SSE,5.8,150,Tulsa,Oklahoma,74104
15,Partly Cloudy,2016-06-03 17:53:00,66.9,,-,68,N/A,30.00,78.1,12:53 PM,,10.0,Calm,Calm,0,Tulsa,Oklahoma,74104
16,Mostly Cloudy,2016-06-03 18:53:00,66.9,,-,76,N/A,29.99,75.0,1:53 PM,,10.0,SSE,8.1,160,Tulsa,Oklahoma,74104
17,Overcast,2016-06-03 19:53:00,68.0,,-,74,0.00,29.97,77.0,2:53 PM,,10.0,Calm,Calm,0,Tulsa,Oklahoma,74104
18,Mostly Cloudy,2016-06-03 20:53:00,66.9,,-,64,N/A,29.96,80.1,3:53 PM,,10.0,Variable,3.5,0,Tulsa,Oklahoma,74104
19,Overcast,2016-06-03 21:25:00,68.0,,-,74,N/A,29.95,77.0,4:25 PM,,10.0,East,4.6,100,Tulsa,Oklahoma,74104
20,Scattered Clouds,2016-06-03 21:51:00,66.2,,-,65,N/A,29.94,78.8,4:51 PM,,10.0,SSE,4.6,160,Tulsa,Oklahoma,74104
21,Scattered Clouds,2016-06-03 21:53:00,66.9,,-,68,N/A,29.95,78.1,4:53 PM,,10.0,South,4.6,170,Tulsa,Oklahoma,74104
22,Partly Cloudy,2016-06-03 22:53:00,68.0,,-,71,0.00,29.94,78.1,5:53 PM,,10.0,Calm,Calm,0,Tulsa,Oklahoma,74104
23,Clear,2016-06-03 23:53:00,66.0,,-,66,N/A,29.94,78.1,6:53 PM,,10.0,South,3.5,170,Tulsa,Oklahoma,74104
24,Clear,2016-06-04 00:53:00,69.1,,-,79,N/A,29.94,75.9,7:53 PM,,10.0,Variable,3.5,0,Tulsa,Oklahoma,74104
25,Clear,2016-06-04 01:53:00,68.0,,-,87,N/A,29.96,72.0,8:53 PM,,10.0,Calm,Calm,0,Tulsa,Oklahoma,74104
26,Clear,2016-06-04 02:53:00,68.0,,-,90,N/A,29.97,71.1,9:53 PM,,10.0,Calm,Calm,0,Tulsa,Oklahoma,74104
27,Clear,2016-06-04 03:53:00,66.9,,-,93,N/A,29.98,69.1,10:53 PM,,10.0,Calm,Calm,0,Tulsa,Oklahoma,74104
28,Clear,2016-06-04 04:53:00,66.9,,-,93,N/A,29.98,69.1,11:53 PM,,9.0,Calm,Calm,0,Tulsa,Oklahoma,74104
0,Clear,2016-06-04 05:53:00,66.0,,-,93,N/A,29.98,68.0,12:53 AM,,7.0,Calm,Calm,0,Tulsa,Oklahoma,74104
1,Clear,2016-06-04 06:53:00,66.9,,-,96,N/A,29.97,68.0,1:53 AM,,5.0,Calm,Calm,0,Tulsa,Oklahoma,74104
2,Clear,2016-06-04 07:19:00,66.0,,-,97,N/A,29.95,66.9,2:19 AM,,2.0,Calm,Calm,0,Tulsa,Oklahoma,74104
3,Clear,2016-06-04 07:29:00,66.9,,-,96,N/A,29.95,68.0,2:29 AM,,5.0,Calm,Calm,0,Tulsa,Oklahoma,74104
4,Mostly Cloudy,2016-06-04 07:53:00,66.0,,-,93,N/A,29.96,68.0,2:53 AM,,8.0,Calm,Calm,0,Tulsa,Oklahoma,74104
5,Clear,2016-06-04 08:53:00,66.0,,-,97,N/A,29.95,66.9,3:53 AM,,5.0,Calm,Calm,0,Tulsa,Oklahoma,74104
6,Clear,2016-06-04 09:17:00,64.9,,-,96,N/A,29.94,66.0,4:17 AM,,2.0,Calm,Calm,0,Tulsa,Oklahoma,74104
7,Clear,2016-06-04 09:26:00,64.9,,-,93,N/A,29.94,66.9,4:26 AM,,4.0,Calm,Calm,0,Tulsa,Oklahoma,74104
8,Clear,2016-06-04 09:53:00,64.9,,-,96,N/A,29.97,66.0,4:53 AM,,3.0,Calm,Calm,0,Tulsa,Oklahoma,74104
9,Partly Cloudy,2016-06-04 10:03:00,64.9,,-,96,N/A,29.95,66.0,5:03 AM,,1.8,Calm,Calm,0,Tulsa,Oklahoma,74104
10,Partly Cloudy,2016-06-04 10:07:00,64.9,,-,96,N/A,29.95,66.0,5:07 AM,,0.8,Calm,Calm,0,Tulsa,Oklahoma,74104
11,Partly Cloudy,2016-06-04 10:20:00,64.9,,-,96,N/A,29.95,66.0,5:20 AM,,2.5,Calm,Calm,0,Tulsa,Oklahoma,74104
12,Partly Cloudy,2016-06-04 10:27:00,64.9,,-,93,N/A,29.95,66.9,5:27 AM,,4.0,Calm,Calm,0,Tulsa,Oklahoma,74104
13,Clear,2016-06-04 10:36:00,64.9,,-,96,N/A,29.95,66.0,5:36 AM,,1.8,Calm,Calm,0,Tulsa,Oklahoma,74104
14,Clear,2016-06-04 10:40:00,64.9,,-,96,N/A,29.95,66.0,5:40 AM,,3.0,Calm,Calm,0,Tulsa,Oklahoma,74104
15,Clear,2016-06-04 10:53:00,64.9,,-,96,N/A,29.96,66.0,5:53 AM,,4.0,Calm,Calm,0,Tulsa,Oklahoma,74104
16,Clear,2016-06-04 11:14:00,64.0,,-,93,N/A,29.95,66.0,6:14 AM,,2.0,Calm,Calm,0,Tulsa,Oklahoma,74104
17,Clear,2016-06-04 11:21:00,64.0,,-,93,N/A,29.95,66.0,6:21 AM,,1.2,Calm,Calm,0,Tulsa,Oklahoma,74104
18,Clear,2016-06-04 11:27:00,64.0,,-,93,N/A,29.95,66.0,6:27 AM,,3.0,Calm,Calm,0,Tulsa,Oklahoma,74104
19,Scattered Clouds,2016-06-04 11:42:00,66.0,,-,97,N/A,29.95,66.9,6:42 AM,,2.5,SW,3.5,230,Tulsa,Oklahoma,74104
20,Mostly Cloudy,2016-06-04 11:46:00,66.0,,-,97,N/A,29.95,66.9,6:46 AM,,1.5,WSW,3.5,240,Tulsa,Oklahoma,74104
21,Mostly Cloudy,2016-06-04 11:53:00,66.0,,-,97,N/A,29.96,66.9,6:53 AM,,1.0,WSW,3.5,250,Tulsa,Oklahoma,74104
22,Mostly Cloudy,2016-06-04 12:06:00,66.0,,-,93,N/A,29.96,68.0,7:06 AM,,3.0,West,3.5,260,Tulsa,Oklahoma,74104
23,Scattered Clouds,2016-06-04 12:30:00,66.9,,-,96,N/A,29.97,68.0,7:30 AM,,5.0,Variable,3.5,0,Tulsa,Oklahoma,74104
24,Mostly Cloudy,2016-06-04 12:53:00,66.9,,-,93,N/A,29.99,69.1,7:53 AM,,9.0,SW,3.5,220,Tulsa,Oklahoma,74104
25,Heavy Rain,2016-06-04 13:31:00,68.0,Rain,-,93,0.04,29.99,70.0,8:31 AM,,2.5,Calm,Calm,0,Tulsa,Oklahoma,74104
26,Light Rain,2016-06-04 13:45:00,68.0,Rain,-,93,0.05,30.00,70.0,8:45 AM,,10.0,Calm,Calm,0,Tulsa,Oklahoma,74104
27,Overcast,2016-06-04 13:53:00,68.0,,-,93,0.05,30.02,70.0,8:53 AM,,10.0,Variable,3.5,0,Tulsa,Oklahoma,74104
28,Light Rain,2016-06-04 14:29:00,64.0,Rain,-,87,0.04,30.00,68.0,9:29 AM,,5.0,Calm,Calm,0,Tulsa,Oklahoma,74104
29,Overcast,2016-06-04 14:36:00,64.9,,-,87,0.04,30.00,69.1,9:36 AM,,10.0,NNE,3.5,30,Tulsa,Oklahoma,74104
30,Mostly Cloudy,2016-06-04 14:53:00,64.0,,-,87,0.04,30.02,68.0,9:53 AM,,10.0,East,4.6,100,Tulsa,Oklahoma,74104
31,Clear,2016-06-04 15:53:00,64.0,,-,76,N/A,30.02,72.0,10:53 AM,,10.0,SSE,5.8,150,Tulsa,Oklahoma,74104
32,Clear,2016-06-04 16:53:00,63.0,,-,66,N/A,30.01,75.0,11:53 AM,,10.0,Variable,3.5,0,Tulsa,Oklahoma,74104
33,Clear,2016-06-04 17:53:00,63.0,,-,58,N/A,29.99,79.0,12:53 PM,,10.0,Variable,3.5,0,Tulsa,Oklahoma,74104
34,Clear,2016-06-04 18:53:00,66.0,,-,58,N/A,29.97,82.0,1:53 PM,,10.0,Calm,Calm,0,Tulsa,Oklahoma,74104
35,Partly Cloudy,2016-06-04 19:53:00,60.1,,-,44,N/A,29.94,84.0,2:53 PM,,10.0,North,5.8,10,Tulsa,Oklahoma,74104
36,Partly Cloudy,2016-06-04 20:53:00,62.1,,-,44,N/A,29.92,86.0,3:53 PM,,10.0,Variable,4.6,0,Tulsa,Oklahoma,74104
37,Scattered Clouds,2016-06-04 21:53:00,57.0,,-,36,N/A,29.91,87.1,4:53 PM,,10.0,North,9.2,350,Tulsa,Oklahoma,74104
38,Clear,2016-06-04 22:53:00,51.1,,18.4,30,N/A,29.91,86.0,5:53 PM,,10.0,North,11.5,10,Tulsa,Oklahoma,74104
39,Clear,2016-06-04 23:53:00,51.1,,-,31,N/A,29.91,84.9,6:53 PM,,10.0,Variable,6.9,0,Tulsa,Oklahoma,74104
40,Clear,2016-06-05 00:53:00,48.9,,-,33,N/A,29.93,81.0,7:53 PM,,10.0,North,5.8,360,Tulsa,Oklahoma,74104
41,Clear,2016-06-05 01:53:00,51.1,,-,40,N/A,29.94,77.0,8:53 PM,,10.0,NNW,4.6,330,Tulsa,Oklahoma,74104
42,Clear,2016-06-05 02:53:00,57.0,,-,63,N/A,29.95,70.0,9:53 PM,,10.0,Calm,Calm,0,Tulsa,Oklahoma,74104
43,Clear,2016-06-05 03:53:00,57.9,,-,75,N/A,29.96,66.0,10:53 PM,,10.0,Calm,Calm,0,Tulsa,Oklahoma,74104
44,Clear,2016-06-05 04:53:00,57.0,,-,78,N/A,29.96,64.0,11:53 PM,,10.0,Calm,Calm,0,Tulsa,Oklahoma,74104
0,Clear,2016-06-05 05:53:00,57.0,,-,87,N/A,29.94,61.0,12:53 AM,,10.0,Calm,Calm,0,Tulsa,Oklahoma,74104
1,Clear,2016-06-05 06:53:00,55.9,,-,83,N/A,29.93,61.0,1:53 AM,,10.0,North,3.5,350,Tulsa,Oklahoma,74104
2,Clear,2016-06-05 07:53:00,53.1,,-,59,N/A,29.94,68.0,2:53 AM,,10.0,NNW,3.5,330,Tulsa,Oklahoma,74104
3,Clear,2016-06-05 08:53:00,52.0,,-,60,N/A,29.94,66.0,3:53 AM,,10.0,North,3.5,360,Tulsa,Oklahoma,74104
4,Clear,2016-06-05 09:53:00,52.0,,-,59,N/A,29.94,66.9,4:53 AM,,10.0,North,4.6,10,Tulsa,Oklahoma,74104
5,Clear,2016-06-05 10:53:00,53.1,,-,63,N/A,29.96,66.0,5:53 AM,,10.0,NNE,8.1,20,Tulsa,Oklahoma,74104
6,Clear,2016-06-05 11:53:00,54.0,,-,63,N/A,29.98,66.9,6:53 AM,,10.0,North,3.5,360,Tulsa,Oklahoma,74104
7,Clear,2016-06-05 12:53:00,55.9,,-,59,N/A,29.99,71.1,7:53 AM,,10.0,NNE,8.1,20,Tulsa,Oklahoma,74104
8,Clear,2016-06-05 13:53:00,55.9,,-,53,N/A,30.00,73.9,8:53 AM,,10.0,NNE,6.9,30,Tulsa,Oklahoma,74104
9,Clear,2016-06-05 14:53:00,55.9,,-,48,N/A,30.00,77.0,9:53 AM,,10.0,Variable,4.6,0,Tulsa,Oklahoma,74104
10,Clear,2016-06-05 15:53:00,57.0,,-,45,N/A,30.01,80.1,10:53 AM,,10.0,NNE,8.1,20,Tulsa,Oklahoma,74104
11,Clear,2016-06-05 16:53:00,57.0,,-,42,N/A,30.00,82.0,11:53 AM,,10.0,Variable,5.8,0,Tulsa,Oklahoma,74104
12,Partly Cloudy,2016-06-05 17:53:00,57.0,,-,44,N/A,29.99,81.0,12:53 PM,,10.0,North,9.2,360,Tulsa,Oklahoma,74104
13,Clear,2016-06-05 18:53:00,57.0,,-,40,N/A,29.97,84.0,1:53 PM,,10.0,Variable,5.8,0,Tulsa,Oklahoma,74104
14,Partly Cloudy,2016-06-05 19:53:00,55.9,,-,37,N/A,29.95,84.9,2:53 PM,,10.0,NNW,10.4,330,Tulsa,Oklahoma,74104
15,Scattered Clouds,2016-06-05 20:53:00,54.0,,17.3,35,N/A,29.95,84.0,3:53 PM,,10.0,North,12.7,10,Tulsa,Oklahoma,74104
16,Clear,2016-06-05 21:53:00,54.0,,-,35,N/A,29.93,84.0,4:53 PM,,10.0,NNE,6.9,20,Tulsa,Oklahoma,74104
17,Clear,2016-06-05 22:53:00,55.0,,-,37,N/A,29.93,84.0,5:53 PM,,10.0,Variable,6.9,0,Tulsa,Oklahoma,74104
18,Clear,2016-06-05 23:53:00,54.0,,-,37,N/A,29.92,82.9,6:53 PM,,10.0,North,6.9,10,Tulsa,Oklahoma,74104
19,Clear,2016-06-06 00:53:00,54.0,,-,42,N/A,29.92,79.0,7:53 PM,,10.0,NNE,5.8,20,Tulsa,Oklahoma,74104
20,Clear,2016-06-06 01:53:00,57.0,,-,63,N/A,29.93,70.0,8:53 PM,,10.0,Calm,Calm,0,Tulsa,Oklahoma,74104
21,Clear,2016-06-06 02:53:00,57.9,,-,70,N/A,29.93,68.0,9:53 PM,,10.0,Calm,Calm,0,Tulsa,Oklahoma,74104
22,Clear,2016-06-06 03:53:00,57.9,,-,75,N/A,29.95,66.0,10:53 PM,,10.0,Calm,Calm,0,Tulsa,Oklahoma,74104
23,Clear,2016-06-06 04:53:00,57.9,,-,84,N/A,29.96,63.0,11:53 PM,,10.0,Calm,Calm,0,Tulsa,Oklahoma,74104
0,Clear,2016-06-06 05:53:00,59.0,,-,90,N/A,29.96,62.1,12:53 AM,,10.0,Calm,Calm,0,Tulsa,Oklahoma,74104
1,Clear,2016-06-06 06:53:00,57.9,,-,90,N/A,29.96,61.0,1:53 AM,,10.0,Calm,Calm,0,Tulsa,Oklahoma,74104
2,Clear,2016-06-06 07:53:00,57.9,,-,90,N/A,29.95,61.0,2:53 AM,,10.0,Calm,Calm,0,Tulsa,Oklahoma,74104
3,Clear,2016-06-06 08:53:00,57.0,,-,93,N/A,29.95,59.0,3:53 AM,,10.0,Calm,Calm,0,Tulsa,Oklahoma,74104
4,Clear,2016-06-06 09:53:00,57.0,,-,93,N/A,29.95,59.0,4:53 AM,,10.0,Calm,Calm,0,Tulsa,Oklahoma,74104
5,Clear,2016-06-06 10:53:00,57.0,,-,97,N/A,29.96,57.9,5:53 AM,,10.0,Calm,Calm,0,Tulsa,Oklahoma,74104
6,Clear,2016-06-06 11:53:00,57.0,,-,87,N/A,29.96,61.0,6:53 AM,,10.0,Calm,Calm,0,Tulsa,Oklahoma,74104
7,Clear,2016-06-06 12:53:00,62.1,,-,87,N/A,29.97,66.0,7:53 AM,,10.0,Calm,Calm,0,Tulsa,Oklahoma,74104
8,Clear,2016-06-06 13:53:00,60.1,,-,62,N/A,29.97,73.9,8:53 AM,,10.0,North,3.5,10,Tulsa,Oklahoma,74104
9,Clear,2016-06-06 14:53:00,57.9,,-,50,N/A,29.97,78.1,9:53 AM,,10.0,Variable,4.6,0,Tulsa,Oklahoma,74104
10,Clear,2016-06-06 15:53:00,57.0,,-,44,N/A,29.96,81.0,10:53 AM,,10.0,North,8.1,350,Tulsa,Oklahoma,74104
11,Clear,2016-06-06 16:53:00,54.0,,-,37,N/A,29.96,82.9,11:53 AM,,10.0,Variable,5.8,0,Tulsa,Oklahoma,74104
12,Clear,2016-06-06 17:53:00,55.0,,-,37,N/A,29.94,84.0,12:53 PM,,10.0,Variable,3.5,0,Tulsa,Oklahoma,74104
13,Clear,2016-06-06 18:53:00,54.0,,-,32,N/A,29.92,87.1,1:53 PM,,10.0,NNE,6.9,20,Tulsa,Oklahoma,74104
14,Clear,2016-06-06 19:53:00,53.1,,-,30,N/A,29.91,88.0,2:53 PM,,10.0,NNW,5.8,340,Tulsa,Oklahoma,74104
15,Clear,2016-06-06 20:53:00,54.0,,-,31,N/A,29.90,88.0,3:53 PM,,10.0,Variable,4.6,0,Tulsa,Oklahoma,74104
16,Clear,2016-06-06 21:53:00,53.1,,-,30,N/A,29.88,88.0,4:53 PM,,10.0,Calm,Calm,0,Tulsa,Oklahoma,74104
17,Clear,2016-06-06 22:53:00,55.0,,-,32,N/A,29.86,88.0,5:53 PM,,10.0,Variable,3.5,0,Tulsa,Oklahoma,74104
18,Clear,2016-06-06 23:53:00,55.0,,-,33,N/A,29.86,87.1,6:53 PM,,10.0,North,3.5,10,Tulsa,Oklahoma,74104
19,Clear,2016-06-07 00:53:00,55.0,,-,36,N/A,29.86,84.9,7:53 PM,,10.0,SSE,5.8,160,Tulsa,Oklahoma,74104
20,Clear,2016-06-07 01:53:00,61.0,,-,68,N/A,29.88,72.0,8:53 PM,,10.0,Calm,Calm,0,Tulsa,Oklahoma,74104
21,Clear,2016-06-07 02:53:00,61.0,,-,73,N/A,29.89,70.0,9:53 PM,,10.0,Calm,Calm,0,Tulsa,Oklahoma,74104
22,Clear,2016-06-07 03:53:00,61.0,,-,81,N/A,29.92,66.9,10:53 PM,,10.0,Calm,Calm,0,Tulsa,Oklahoma,74104
23,Clear,2016-06-07 04:53:00,60.1,,-,81,N/A,29.94,66.0,11:53 PM,,10.0,Calm,Calm,0,Tulsa,Oklahoma,74104
0,Clear,2016-06-07 05:53:00,61.0,,-,87,N/A,29.94,64.9,12:53 AM,,10.0,Calm,Calm,0,Tulsa,Oklahoma,74104
1,Clear,2016-06-07 06:53:00,61.0,,-,90,N/A,29.93,64.0,1:53 AM,,10.0,Calm,Calm,0,Tulsa,Oklahoma,74104
2,Clear,2016-06-07 07:53:00,61.0,,-,93,N/A,29.92,63.0,2:53 AM,,10.0,Calm,Calm,0,Tulsa,Oklahoma,74104
3,Clear,2016-06-07 08:53:00,60.1,,-,93,N/A,29.91,62.1,3:53 AM,,10.0,Calm,Calm,0,Tulsa,Oklahoma,74104
4,Clear,2016-06-07 09:53:00,57.0,,-,90,N/A,29.92,60.1,4:53 AM,,10.0,Calm,Calm,0,Tulsa,Oklahoma,74104
5,Clear,2016-06-07 10:53:00,59.0,,-,93,N/A,29.93,61.0,5:53 AM,,10.0,Calm,Calm,0,Tulsa,Oklahoma,74104
6,Clear,2016-06-07 11:53:00,59.0,,-,81,N/A,29.96,64.9,6:53 AM,,10.0,North,4.6,10,Tulsa,Oklahoma,74104
7,Clear,2016-06-07 12:53:00,62.1,,-,71,N/A,29.97,72.0,7:53 AM,,10.0,Calm,Calm,0,Tulsa,Oklahoma,74104
8,Clear,2016-06-07 13:53:00,62.1,,-,62,N/A,29.98,75.9,8:53 AM,,10.0,SW,3.5,220,Tulsa,Oklahoma,74104
9,Clear,2016-06-07 14:53:00,60.1,,-,49,N/A,29.98,81.0,9:53 AM,,10.0,Variable,6.9,0,Tulsa,Oklahoma,74104
10,Clear,2016-06-07 15:53:00,60.1,,-,46,N/A,29.96,82.9,10:53 AM,,10.0,Variable,3.5,0,Tulsa,Oklahoma,74104
11,Clear,2016-06-07 16:53:00,59.0,,-,41,N/A,29.97,84.9,11:53 AM,,10.0,North,-9999.0,0,Tulsa,Oklahoma,74104
12,Clear,2016-06-07 17:53:00,60.1,,-,40,N/A,29.96,87.1,12:53 PM,,10.0,Variable,4.6,0,Tulsa,Oklahoma,74104
13,Clear,2016-06-07 18:53:00,62.1,,-,40,N/A,29.95,89.1,1:53 PM,,10.0,Variable,3.5,0,Tulsa,Oklahoma,74104
14,Clear,2016-06-07 19:53:00,61.0,,-,39,N/A,29.93,89.1,2:53 PM,,10.0,Calm,Calm,0,Tulsa,Oklahoma,74104
15,Clear,2016-06-07 20:53:00,61.0,,-,38,N/A,29.92,90.0,3:53 PM,,10.0,Variable,3.5,0,Tulsa,Oklahoma,74104
16,Clear,2016-06-07 21:53:00,61.0,,-,38,N/A,29.91,90.0,4:53 PM,,10.0,WNW,3.5,290,Tulsa,Oklahoma,74104
17,Clear,2016-06-07 22:53:00,61.0,,-,38,N/A,29.90,90.0,5:53 PM,,10.0,Calm,Calm,0,Tulsa,Oklahoma,74104
18,Clear,2016-06-07 23:53:00,64.9,,-,45,N/A,29.90,89.1,6:53 PM,,10.0,Variable,5.8,0,Tulsa,Oklahoma,74104
19,Clear,2016-06-08 00:53:00,64.0,,-,49,N/A,29.89,84.9,7:53 PM,,10.0,ENE,8.1,70,Tulsa,Oklahoma,74104
20,Clear,2016-06-08 01:53:00,62.1,,-,56,N/A,29.90,79.0,8:53 PM,,10.0,ENE,5.8,60,Tulsa,Oklahoma,74104
21,Clear,2016-06-08 02:53:00,62.1,,-,68,N/A,29.92,73.0,9:53 PM,,10.0,Calm,Calm,0,Tulsa,Oklahoma,74104
22,Clear,2016-06-08 03:53:00,63.0,,-,75,N/A,29.94,71.1,10:53 PM,,10.0,Calm,Calm,0,Tulsa,Oklahoma,74104
23,Clear,2016-06-08 04:53:00,63.0,,-,81,N/A,29.94,69.1,11:53 PM,,10.0,Calm,Calm,0,Tulsa,Oklahoma,74104
0,Clear,2016-06-08 05:53:00,63.0,,-,84,N/A,29.95,68.0,12:53 AM,,10.0,Calm,Calm,0,Tulsa,Oklahoma,74104
1,Clear,2016-06-08 06:53:00,64.0,,-,90,N/A,29.95,66.9,1:53 AM,,8.0,Calm,Calm,0,Tulsa,Oklahoma,74104
2,Clear,2016-06-08 07:53:00,63.0,,-,90,N/A,29.96,66.0,2:53 AM,,7.0,Calm,Calm,0,Tulsa,Oklahoma,74104
3,Mostly Cloudy,2016-06-08 08:53:00,64.0,,-,93,N/A,29.96,66.0,3:53 AM,,10.0,Calm,Calm,0,Tulsa,Oklahoma,74104
4,Clear,2016-06-08 09:53:00,63.0,,-,93,N/A,29.95,64.9,4:53 AM,,10.0,Calm,Calm,0,Tulsa,Oklahoma,74104
5,Clear,2016-06-08 10:53:00,63.0,,-,93,N/A,29.96,64.9,5:53 AM,,10.0,Calm,Calm,0,Tulsa,Oklahoma,74104
6,Clear,2016-06-08 11:53:00,64.0,,-,93,N/A,29.97,66.0,6:53 AM,,10.0,Calm,Calm,0,Tulsa,Oklahoma,74104
7,Clear,2016-06-08 12:53:00,66.0,,-,81,N/A,29.98,72.0,7:53 AM,,10.0,Calm,Calm,0,Tulsa,Oklahoma,74104
8,Clear,2016-06-08 13:53:00,64.9,,-,66,N/A,29.99,77.0,8:53 AM,,10.0,Variable,3.5,0,Tulsa,Oklahoma,74104
9,Clear,2016-06-08 14:53:00,64.9,,-,58,N/A,29.98,81.0,9:53 AM,,10.0,Variable,6.9,0,Tulsa,Oklahoma,74104
10,Clear,2016-06-08 15:53:00,64.9,,-,51,N/A,29.97,84.9,10:53 AM,,10.0,South,10.4,190,Tulsa,Oklahoma,74104
11,Clear,2016-06-08 16:53:00,64.9,,-,46,N/A,29.96,88.0,11:53 AM,,10.0,South,8.1,190,Tulsa,Oklahoma,74104
12,Clear,2016-06-08 17:53:00,64.9,,-,43,N/A,29.95,90.0,12:53 PM,,10.0,South,10.4,180,Tulsa,Oklahoma,74104
13,Clear,2016-06-08 18:53:00,64.0,,-,39,N/A,29.94,91.9,1:53 PM,,10.0,South,8.1,170,Tulsa,Oklahoma,74104
14,Clear,2016-06-08 19:53:00,61.0,,-,36,N/A,29.92,91.0,2:53 PM,,10.0,SSW,8.1,200,Tulsa,Oklahoma,74104
15,Clear,2016-06-08 20:53:00,61.0,,17.3,34,N/A,29.92,93.0,3:53 PM,,10.0,South,11.5,190,Tulsa,Oklahoma,74104
16,Clear,2016-06-08 21:53:00,63.0,,-,37,N/A,29.91,93.0,4:53 PM,,10.0,SSW,5.8,210,Tulsa,Oklahoma,74104
17,Clear,2016-06-08 22:53:00,62.1,,-,37,N/A,29.91,91.9,5:53 PM,,10.0,South,10.4,190,Tulsa,Oklahoma,74104
18,Clear,2016-06-08 23:53:00,61.0,,-,38,N/A,29.91,90.0,6:53 PM,,10.0,South,10.4,170,Tulsa,Oklahoma,74104
19,Clear,2016-06-09 00:53:00,64.0,,-,45,N/A,29.91,88.0,7:53 PM,,10.0,South,6.9,170,Tulsa,Oklahoma,74104
20,Clear,2016-06-09 01:53:00,66.0,,-,53,N/A,29.91,84.9,8:53 PM,,10.0,South,6.9,170,Tulsa,Oklahoma,74104
21,Clear,2016-06-09 02:53:00,66.9,,-,62,N/A,29.92,81.0,9:53 PM,,10.0,South,5.8,180,Tulsa,Oklahoma,74104
22,Clear,2016-06-09 03:53:00,68.0,,-,84,N/A,29.94,73.0,10:53 PM,,10.0,Calm,Calm,0,Tulsa,Oklahoma,74104
23,Clear,2016-06-09 04:53:00,66.9,,-,76,N/A,29.95,75.0,11:53 PM,,10.0,South,3.5,180,Tulsa,Oklahoma,74104
0,Clear,2016-06-09 05:53:00,66.9,,-,87,N/A,29.96,71.1,12:53 AM,,10.0,Calm,Calm,0,Tulsa,Oklahoma,74104
1,Clear,2016-06-09 06:53:00,66.0,,-,90,N/A,29.96,69.1,1:53 AM,,8.0,Calm,Calm,0,Tulsa,Oklahoma,74104
2,Clear,2016-06-09 07:53:00,66.0,,-,90,N/A,29.95,69.1,2:53 AM,,9.0,Calm,Calm,0,Tulsa,Oklahoma,74104
3,Clear,2016-06-09 08:53:00,66.0,,-,93,N/A,29.95,68.0,3:53 AM,,5.0,Calm,Calm,0,Tulsa,Oklahoma,74104
4,Clear,2016-06-09 09:53:00,66.9,,-,84,N/A,29.95,72.0,4:53 AM,,10.0,Calm,Calm,0,Tulsa,Oklahoma,74104
5,Clear,2016-06-09 10:53:00,64.9,,-,90,N/A,29.97,68.0,5:53 AM,,10.0,Calm,Calm,0,Tulsa,Oklahoma,74104
6,Clear,2016-06-09 11:53:00,66.0,,-,81,N/A,29.98,72.0,6:53 AM,,10.0,SE,4.6,140,Tulsa,Oklahoma,74104
7,Clear,2016-06-09 12:53:00,66.0,,-,73,N/A,30.00,75.0,7:53 AM,,10.0,South,4.6,170,Tulsa,Oklahoma,74104
8,Clear,2016-06-09 13:53:00,66.9,,-,66,N/A,30.00,79.0,8:53 AM,,10.0,South,4.6,170,Tulsa,Oklahoma,74104
9,Clear,2016-06-09 14:53:00,66.9,,-,58,N/A,30.00,82.9,9:53 AM,,10.0,South,6.9,170,Tulsa,Oklahoma,74104
10,Clear,2016-06-09 15:53:00,66.9,,-,53,N/A,30.00,86.0,10:53 AM,,10.0,South,13.8,180,Tulsa,Oklahoma,74104
11,Clear,2016-06-09 16:53:00,66.0,,-,48,N/A,29.99,88.0,11:53 AM,,10.0,SSW,15.0,210,Tulsa,Oklahoma,74104
12,Partly Cloudy,2016-06-09 17:53:00,64.0,,-,41,N/A,29.97,91.0,12:53 PM,,10.0,South,12.7,190,Tulsa,Oklahoma,74104
13,Clear,2016-06-09 18:53:00,63.0,,20.7,39,N/A,29.95,91.0,1:53 PM,,10.0,SSW,13.8,200,Tulsa,Oklahoma,74104
14,Partly Cloudy,2016-06-09 19:53:00,62.1,,21.9,37,N/A,29.94,91.9,2:53 PM,,10.0,South,13.8,190,Tulsa,Oklahoma,74104
15,Clear,2016-06-09 20:53:00,62.1,,-,37,N/A,29.92,91.9,3:53 PM,,10.0,SSW,13.8,200,Tulsa,Oklahoma,74104
16,Partly Cloudy,2016-06-09 21:53:00,61.0,,19.6,35,N/A,29.91,91.9,4:53 PM,,10.0,South,11.5,170,Tulsa,Oklahoma,74104
17,Partly Cloudy,2016-06-09 22:53:00,61.0,,19.6,36,N/A,29.91,91.0,5:53 PM,,10.0,South,13.8,180,Tulsa,Oklahoma,74104
18,Partly Cloudy,2016-06-09 23:53:00,62.1,,-,39,N/A,29.89,90.0,6:53 PM,,10.0,South,11.5,180,Tulsa,Oklahoma,74104
19,Clear,2016-06-10 00:53:00,64.0,,-,46,N/A,29.90,87.1,7:53 PM,,10.0,South,9.2,180,Tulsa,Oklahoma,74104
20,Clear,2016-06-10 01:53:00,64.9,,-,51,N/A,29.89,84.9,8:53 PM,,10.0,South,6.9,170,Tulsa,Oklahoma,74104
21,Clear,2016-06-10 02:53:00,64.9,,-,54,N/A,29.90,82.9,9:53 PM,,10.0,South,6.9,170,Tulsa,Oklahoma,74104
22,Clear,2016-06-10 03:53:00,64.9,,-,58,N/A,29.93,81.0,10:53 PM,,10.0,South,6.9,180,Tulsa,Oklahoma,74104
23,Clear,2016-06-10 04:53:00,66.0,,-,69,N/A,29.95,77.0,11:53 PM,,10.0,Calm,Calm,0,Tulsa,Oklahoma,74104
0,Clear,2016-06-10 05:53:00,66.0,,-,84,N/A,29.95,71.1,12:53 AM,,10.0,Calm,Calm,0,Tulsa,Oklahoma,74104
1,Clear,2016-06-10 06:53:00,66.0,,-,69,N/A,29.94,77.0,1:53 AM,,10.0,South,5.8,170,Tulsa,Oklahoma,74104
2,Partly Cloudy,2016-06-10 07:53:00,66.0,,-,69,N/A,29.94,77.0,2:53 AM,,10.0,South,6.9,180,Tulsa,Oklahoma,74104
3,Clear,2016-06-10 08:53:00,64.9,,-,69,N/A,29.95,75.9,3:53 AM,,10.0,South,4.6,170,Tulsa,Oklahoma,74104
4,Mostly Cloudy,2016-06-10 09:53:00,64.9,,-,71,N/A,29.96,75.0,4:53 AM,,10.0,South,5.8,170,Tulsa,Oklahoma,74104
5,Mostly Cloudy,2016-06-10 10:53:00,66.0,,-,76,N/A,29.97,73.9,5:53 AM,,10.0,Calm,Calm,0,Tulsa,Oklahoma,74104
6,Clear,2016-06-10 11:53:00,66.0,,-,76,N/A,29.99,73.9,6:53 AM,,10.0,SSE,3.5,160,Tulsa,Oklahoma,74104
7,Clear,2016-06-10 12:53:00,66.0,,-,69,N/A,30.01,77.0,7:53 AM,,10.0,South,6.9,170,Tulsa,Oklahoma,74104
8,Clear,2016-06-10 13:53:00,66.9,,-,64,N/A,30.02,80.1,8:53 AM,,10.0,SSE,6.9,160,Tulsa,Oklahoma,74104
9,Clear,2016-06-10 14:53:00,66.9,,-,58,N/A,30.02,82.9,9:53 AM,,10.0,South,10.4,170,Tulsa,Oklahoma,74104
10,Clear,2016-06-10 15:53:00,68.0,,-,55,N/A,30.02,86.0,10:53 AM,,10.0,South,9.2,170,Tulsa,Oklahoma,74104
11,Clear,2016-06-10 16:53:00,68.0,,19.6,50,N/A,30.01,89.1,11:53 AM,,10.0,South,13.8,180,Tulsa,Oklahoma,74104
12,Partly Cloudy,2016-06-10 17:53:00,68.0,,25.3,48,N/A,30.01,90.0,12:53 PM,,10.0,South,11.5,180,Tulsa,Oklahoma,74104
13,Scattered Clouds,2016-06-10 18:53:00,68.0,,-,50,N/A,30.00,89.1,1:53 PM,,10.0,South,12.7,170,Tulsa,Oklahoma,74104
14,Partly Cloudy,2016-06-10 19:53:00,66.9,,-,44,N/A,29.98,91.9,2:53 PM,,10.0,South,11.5,180,Tulsa,Oklahoma,74104
15,Clear,2016-06-10 20:53:00,66.0,,-,42,N/A,29.96,91.9,3:53 PM,,10.0,South,11.5,180,Tulsa,Oklahoma,74104
16,Partly Cloudy,2016-06-10 21:53:00,66.0,,-,45,N/A,29.96,90.0,4:53 PM,,10.0,South,10.4,170,Tulsa,Oklahoma,74104
17,Partly Cloudy,2016-06-10 22:53:00,66.0,,-,45,N/A,29.95,90.0,5:53 PM,,10.0,South,9.2,180,Tulsa,Oklahoma,74104
18,Clear,2016-06-10 23:53:00,66.0,,-,45,N/A,29.96,90.0,6:53 PM,,10.0,South,10.4,170,Tulsa,Oklahoma,74104
19,Clear,2016-06-11 00:53:00,68.0,,-,51,N/A,29.95,88.0,7:53 PM,,10.0,South,6.9,170,Tulsa,Oklahoma,74104
20,Clear,2016-06-11 01:53:00,68.0,,-,55,N/A,29.96,86.0,8:53 PM,,10.0,SSE,4.6,160,Tulsa,Oklahoma,74104
21,Clear,2016-06-11 02:53:00,68.0,,-,58,N/A,29.97,84.0,9:53 PM,,10.0,South,4.6,170,Tulsa,Oklahoma,74104
22,Clear,2016-06-11 03:53:00,69.1,,-,74,N/A,29.98,78.1,10:53 PM,,10.0,Calm,Calm,0,Tulsa,Oklahoma,74104
23,Clear,2016-06-11 04:53:00,69.1,,-,85,N/A,30.00,73.9,11:53 PM,,10.0,Calm,Calm,0,Tulsa,Oklahoma,74104
0,Clear,2016-06-11 05:53:00,69.1,,-,91,N/A,30.01,72.0,12:53 AM,,10.0,Calm,Calm,0,Tulsa,Oklahoma,74104
1,Clear,2016-06-11 06:53:00,68.0,,-,87,N/A,30.01,72.0,1:53 AM,,9.0,Calm,Calm,0,Tulsa,Oklahoma,74104
2,Clear,2016-06-11 07:53:00,68.0,,-,90,N/A,30.01,71.1,2:53 AM,,8.0,Calm,Calm,0,Tulsa,Oklahoma,74104
3,Clear,2016-06-11 08:53:00,68.0,,-,90,N/A,30.02,71.1,3:53 AM,,7.0,Calm,Calm,0,Tulsa,Oklahoma,74104
4,Clear,2016-06-11 09:53:00,68.0,,-,93,N/A,30.03,70.0,4:53 AM,,6.0,Calm,Calm,0,Tulsa,Oklahoma,74104
5,Clear,2016-06-11 10:53:00,66.9,,-,93,N/A,30.04,69.1,5:53 AM,,4.0,Calm,Calm,0,Tulsa,Oklahoma,74104
6,Clear,2016-06-11 11:14:00,66.9,,-,93,N/A,30.03,69.1,6:14 AM,,2.5,Calm,Calm,0,Tulsa,Oklahoma,74104
7,Clear,2016-06-11 11:23:00,66.9,,-,90,N/A,30.03,70.0,6:23 AM,,3.0,Calm,Calm,0,Tulsa,Oklahoma,74104
8,Clear,2016-06-11 11:53:00,68.0,,-,90,N/A,30.05,71.1,6:53 AM,,4.0,Calm,Calm,0,Tulsa,Oklahoma,74104
9,Clear,2016-06-11 12:53:00,68.0,,-,76,N/A,30.06,75.9,7:53 AM,,10.0,South,5.8,170,Tulsa,Oklahoma,74104
10,Clear,2016-06-11 13:53:00,69.1,,-,67,N/A,30.06,81.0,8:53 AM,,10.0,South,9.2,170,Tulsa,Oklahoma,74104
11,Clear,2016-06-11 14:53:00,69.1,,-,59,N/A,30.06,84.9,9:53 AM,,10.0,South,8.1,190,Tulsa,Oklahoma,74104
12,Clear,2016-06-11 20:53:00,68.0,,17.3,44,N/A,30.01,93.0,3:53 PM,,10.0,South,11.5,180,Tulsa,Oklahoma,74104
13,Partly Cloudy,2016-06-11 21:53:00,68.0,,-,44,N/A,29.99,93.0,4:53 PM,,10.0,South,6.9,190,Tulsa,Oklahoma,74104
14,Partly Cloudy,2016-06-11 22:53:00,69.1,,18.4,47,N/A,30.00,91.9,5:53 PM,,10.0,South,13.8,190,Tulsa,Oklahoma,74104
15,Partly Cloudy,2016-06-11 23:53:00,68.0,,-,47,N/A,29.99,91.0,6:53 PM,,10.0,South,9.2,170,Tulsa,Oklahoma,74104
16,Clear,2016-06-12 00:53:00,69.1,,-,52,N/A,29.99,89.1,7:53 PM,,10.0,South,8.1,170,Tulsa,Oklahoma,74104
17,Clear,2016-06-12 01:53:00,70.0,,-,61,N/A,30.00,84.9,8:53 PM,,10.0,SSE,4.6,150,Tulsa,Oklahoma,74104
18,Clear,2016-06-12 02:53:00,70.0,,-,61,N/A,30.00,84.9,9:53 PM,,10.0,SSE,5.8,150,Tulsa,Oklahoma,74104
19,Clear,2016-06-12 03:53:00,71.1,,-,65,N/A,30.03,84.0,10:53 PM,,10.0,South,8.1,170,Tulsa,Oklahoma,74104
20,Clear,2016-06-12 04:53:00,71.1,,-,69,N/A,30.04,82.0,11:53 PM,,10.0,SSW,6.9,200,Tulsa,Oklahoma,74104
0,Clear,2016-06-12 05:53:00,71.1,,-,79,N/A,30.05,78.1,12:53 AM,,10.0,Calm,Calm,0,Tulsa,Oklahoma,74104
1,Clear,2016-06-12 06:53:00,71.1,,-,85,N/A,30.04,75.9,1:53 AM,,10.0,Calm,Calm,0,Tulsa,Oklahoma,74104
2,Clear,2016-06-12 07:53:00,72.0,,-,87,N/A,30.03,75.9,2:53 AM,,10.0,Calm,Calm,0,Tulsa,Oklahoma,74104
3,Clear,2016-06-12 08:53:00,72.0,,-,87,N/A,30.03,75.9,3:53 AM,,10.0,Calm,Calm,0,Tulsa,Oklahoma,74104
4,Clear,2016-06-12 09:53:00,72.0,,-,93,N/A,30.03,73.9,4:53 AM,,10.0,Calm,Calm,0,Tulsa,Oklahoma,74104
5,Clear,2016-06-12 10:53:00,71.1,,-,93,N/A,30.03,73.0,5:53 AM,,8.0,Calm,Calm,0,Tulsa,Oklahoma,74104
6,Clear,2016-06-12 11:53:00,72.0,,-,87,N/A,30.05,75.9,6:53 AM,,10.0,Calm,Calm,0,Tulsa,Oklahoma,74104
7,Mostly Cloudy,2016-06-12 12:53:00,73.0,,-,79,N/A,30.05,80.1,7:53 AM,,10.0,South,5.8,180,Tulsa,Oklahoma,74104
8,Partly Cloudy,2016-06-12 13:53:00,72.0,,-,71,N/A,30.07,82.0,8:53 AM,,10.0,South,6.9,180,Tulsa,Oklahoma,74104
9,Mostly Cloudy,2016-06-12 14:17:00,72.0,,-,74,N/A,30.07,81.0,9:17 AM,,10.0,SSW,8.1,210,Tulsa,Oklahoma,74104
10,Scattered Clouds,2016-06-12 14:25:00,70.0,,-,67,N/A,30.07,82.0,9:25 AM,,10.0,SW,10.4,220,Tulsa,Oklahoma,74104
11,Clear,2016-06-12 14:53:00,69.1,,16.1,61,N/A,30.07,84.0,9:53 AM,,10.0,SSW,10.4,200,Tulsa,Oklahoma,74104
12,Mostly Cloudy,2016-06-12 15:53:00,66.9,,-,55,N/A,30.08,84.9,10:53 AM,,10.0,SSW,11.5,200,Tulsa,Oklahoma,74104
13,Mostly Cloudy,2016-06-12 16:53:00,68.0,,19.6,58,N/A,30.08,84.0,11:53 AM,,10.0,SSE,11.5,160,Tulsa,Oklahoma,74104
14,Mostly Cloudy,2016-06-12 17:37:00,69.1,,25.3,61,N/A,30.09,84.0,12:37 PM,,10.0,South,18.4,180,Tulsa,Oklahoma,74104
15,Mostly Cloudy,2016-06-12 17:53:00,69.1,,36.8,67,N/A,30.10,81.0,12:53 PM,,10.0,SSW,16.1,200,Tulsa,Oklahoma,74104
16,Clear,2016-06-12 18:53:00,66.0,,-,62,N/A,30.05,80.1,1:53 PM,,10.0,SSW,4.6,210,Tulsa,Oklahoma,74104
17,Clear,2016-06-12 19:53:00,66.0,,-,56,N/A,30.04,82.9,2:53 PM,,10.0,South,5.8,190,Tulsa,Oklahoma,74104
18,Clear,2016-06-12 20:53:00,66.0,,-,58,N/A,30.04,82.0,3:53 PM,,10.0,East,6.9,100,Tulsa,Oklahoma,74104
19,Clear,2016-06-12 21:53:00,66.0,,-,53,N/A,30.01,84.9,4:53 PM,,10.0,SE,9.2,130,Tulsa,Oklahoma,74104
20,Overcast,2016-06-12 22:53:00,66.9,,-,55,N/A,30.00,84.9,5:53 PM,,10.0,SSE,9.2,160,Tulsa,Oklahoma,74104
21,Clear,2016-06-12 23:53:00,68.0,,-,57,N/A,29.98,84.9,6:53 PM,,10.0,SSE,8.1,150,Tulsa,Oklahoma,74104
22,Clear,2016-06-13 00:53:00,68.0,,-,62,N/A,29.99,82.0,7:53 PM,,10.0,South,9.2,170,Tulsa,Oklahoma,74104
23,Clear,2016-06-13 01:53:00,66.9,,-,64,N/A,30.01,80.1,8:53 PM,,10.0,SSE,8.1,150,Tulsa,Oklahoma,74104
24,Clear,2016-06-13 02:53:00,69.1,,-,74,N/A,30.02,78.1,9:53 PM,,10.0,SE,3.5,130,Tulsa,Oklahoma,74104
25,Mostly Cloudy,2016-06-13 03:11:00,70.0,,-,74,N/A,30.01,79.0,10:11 PM,,10.0,SE,4.6,140,Tulsa,Oklahoma,74104
26,Overcast,2016-06-13 03:53:00,71.1,,-,77,N/A,30.03,79.0,10:53 PM,,10.0,ESE,5.8,120,Tulsa,Oklahoma,74104
27,Overcast,2016-06-13 04:53:00,72.0,,-,81,N/A,30.02,78.1,11:53 PM,,10.0,ESE,5.8,120,Tulsa,Oklahoma,74104
0,Overcast,2016-06-13 05:40:00,71.1,,-,79,N/A,30.00,78.1,12:40 AM,,10.0,SE,3.5,130,Tulsa,Oklahoma,74104
1,Overcast,2016-06-13 05:53:00,71.1,,-,79,N/A,30.01,78.1,12:53 AM,,10.0,SE,6.9,140,Tulsa,Oklahoma,74104
2,Overcast,2016-06-13 06:20:00,71.1,,-,79,N/A,30.00,78.1,1:20 AM,,10.0,SSE,6.9,160,Tulsa,Oklahoma,74104
3,Mostly Cloudy,2016-06-13 06:53:00,70.0,,-,79,N/A,30.00,77.0,1:53 AM,,10.0,South,8.1,170,Tulsa,Oklahoma,74104
4,Scattered Clouds,2016-06-13 07:53:00,70.0,,-,82,N/A,29.98,75.9,2:53 AM,,10.0,SSW,4.6,200,Tulsa,Oklahoma,74104
5,Clear,2016-06-13 08:53:00,70.0,,-,87,N/A,29.96,73.9,3:53 AM,,10.0,South,4.6,190,Tulsa,Oklahoma,74104
6,Mostly Cloudy,2016-06-13 09:12:00,70.0,,-,87,N/A,29.96,73.9,4:12 AM,,10.0,SSW,3.5,210,Tulsa,Oklahoma,74104
7,Scattered Clouds,2016-06-13 09:53:00,70.0,,-,87,N/A,29.97,73.9,4:53 AM,,10.0,SSE,3.5,160,Tulsa,Oklahoma,74104
8,Mostly Cloudy,2016-06-13 10:21:00,70.0,,-,87,N/A,29.96,73.9,5:21 AM,,10.0,South,4.6,170,Tulsa,Oklahoma,74104
9,Scattered Clouds,2016-06-13 10:32:00,70.0,,-,87,N/A,29.96,73.9,5:32 AM,,10.0,South,4.6,170,Tulsa,Oklahoma,74104
10,Scattered Clouds,2016-06-13 10:53:00,70.0,,-,90,N/A,29.98,73.0,5:53 AM,,10.0,South,3.5,190,Tulsa,Oklahoma,74104
11,Overcast,2016-06-13 11:53:00,70.0,,-,90,N/A,30.01,73.0,6:53 AM,,7.0,Calm,Calm,0,Tulsa,Oklahoma,74104
12,Overcast,2016-06-13 12:25:00,70.0,,-,87,N/A,30.02,73.9,7:25 AM,,10.0,SSW,3.5,200,Tulsa,Oklahoma,74104
13,Overcast,2016-06-13 12:44:00,70.0,,-,84,N/A,30.03,75.0,7:44 AM,,10.0,Calm,Calm,0,Tulsa,Oklahoma,74104
14,Overcast,2016-06-13 12:53:00,70.0,,-,84,N/A,30.04,75.0,7:53 AM,,10.0,Calm,Calm,0,Tulsa,Oklahoma,74104
15,Overcast,2016-06-13 13:09:00,70.0,,-,82,N/A,30.03,75.9,8:09 AM,,10.0,South,3.5,180,Tulsa,Oklahoma,74104
16,Overcast,2016-06-13 13:21:00,70.0,,-,82,N/A,30.03,75.9,8:21 AM,,10.0,South,4.6,190,Tulsa,Oklahoma,74104
17,Overcast,2016-06-13 13:53:00,70.0,,-,82,N/A,30.04,75.9,8:53 AM,,10.0,WSW,3.5,240,Tulsa,Oklahoma,74104
18,Haze,2016-06-13 14:33:00,70.0,,-,82,N/A,30.03,75.9,9:33 AM,,2.0,WSW,3.5,240,Tulsa,Oklahoma,74104
19,Light Rain,2016-06-13 14:43:00,71.1,Rain,-,85,0.00,30.02,75.9,9:43 AM,,10.0,Calm,Calm,0,Tulsa,Oklahoma,74104
20,Overcast,2016-06-13 14:53:00,71.1,,-,82,0.00,30.02,77.0,9:53 AM,,10.0,South,4.6,170,Tulsa,Oklahoma,74104
21,Overcast,2016-06-13 15:53:00,70.0,,-,82,N/A,30.00,75.9,10:53 AM,,10.0,South,8.1,170,Tulsa,Oklahoma,74104
22,Overcast,2016-06-13 16:53:00,71.1,,-,77,N/A,29.95,79.0,11:53 AM,,10.0,SE,11.5,140,Tulsa,Oklahoma,74104
23,Overcast,2016-06-13 17:11:00,70.0,,-,71,N/A,29.94,80.1,12:11 PM,,10.0,South,12.7,170,Tulsa,Oklahoma,74104
24,Overcast,2016-06-13 17:53:00,70.0,,-,69,N/A,29.95,81.0,12:53 PM,,10.0,South,9.2,170,Tulsa,Oklahoma,74104
25,Overcast,2016-06-13 18:28:00,70.0,,-,69,N/A,29.95,81.0,1:28 PM,,10.0,SSW,8.1,200,Tulsa,Oklahoma,74104
26,Overcast,2016-06-13 18:53:00,71.1,,-,72,N/A,29.96,81.0,1:53 PM,,10.0,SW,5.8,220,Tulsa,Oklahoma,74104
27,Mostly Cloudy,2016-06-13 19:40:00,71.1,,-,65,N/A,29.92,84.0,2:40 PM,,10.0,Variable,6.9,0,Tulsa,Oklahoma,74104
28,Scattered Clouds,2016-06-13 19:53:00,70.0,,-,63,N/A,29.92,84.0,2:53 PM,,10.0,Variable,4.6,0,Tulsa,Oklahoma,74104
29,Mostly Cloudy,2016-06-13 20:21:00,70.0,,-,61,N/A,29.89,84.9,3:21 PM,,10.0,ESE,9.2,110,Tulsa,Oklahoma,74104
30,Overcast,2016-06-13 20:45:00,70.0,,-,61,N/A,29.89,84.9,3:45 PM,,10.0,ESE,6.9,120,Tulsa,Oklahoma,74104
31,Overcast,2016-06-13 20:53:00,71.1,,-,63,N/A,29.90,84.9,3:53 PM,,10.0,Variable,5.8,0,Tulsa,Oklahoma,74104
32,Scattered Clouds,2016-06-13 21:53:00,70.0,,-,57,N/A,29.87,87.1,4:53 PM,,10.0,SE,4.6,140,Tulsa,Oklahoma,74104
33,Mostly Cloudy,2016-06-13 22:53:00,70.0,,-,55,N/A,29.85,88.0,5:53 PM,,10.0,South,9.2,170,Tulsa,Oklahoma,74104
34,Clear,2016-06-13 23:53:00,70.0,,-,57,N/A,29.84,87.1,6:53 PM,,10.0,SSE,6.9,160,Tulsa,Oklahoma,74104
35,Clear,2016-06-14 00:53:00,70.0,,-,61,N/A,29.83,84.9,7:53 PM,,10.0,South,5.8,170,Tulsa,Oklahoma,74104
36,Clear,2016-06-14 01:53:00,71.1,,-,67,N/A,29.83,82.9,8:53 PM,,10.0,South,4.6,170,Tulsa,Oklahoma,74104
37,Overcast,2016-06-14 02:53:00,72.0,,-,81,N/A,29.86,78.1,9:53 PM,,10.0,Calm,Calm,0,Tulsa,Oklahoma,74104
38,Mostly Cloudy,2016-06-14 03:53:00,72.0,,-,79,N/A,29.87,79.0,10:53 PM,,10.0,Calm,Calm,0,Tulsa,Oklahoma,74104
39,Clear,2016-06-14 04:53:00,72.0,,-,87,N/A,29.88,75.9,11:53 PM,,10.0,Calm,Calm,0,Tulsa,Oklahoma,74104
0,Clear,2016-06-14 05:53:00,71.1,,-,91,N/A,29.87,73.9,12:53 AM,,7.0,Calm,Calm,0,Tulsa,Oklahoma,74104
1,Partly Cloudy,2016-06-14 06:53:00,72.0,,-,93,N/A,29.88,73.9,1:53 AM,,9.0,Calm,Calm,0,Tulsa,Oklahoma,74104
2,Clear,2016-06-14 07:53:00,71.1,,-,93,N/A,29.84,73.0,2:53 AM,,6.0,Calm,Calm,0,Tulsa,Oklahoma,74104
3,Scattered Clouds,2016-06-14 08:53:00,71.1,,-,93,N/A,29.83,73.0,3:53 AM,,6.0,Calm,Calm,0,Tulsa,Oklahoma,74104
4,Mostly Cloudy,2016-06-14 09:53:00,71.1,,-,91,N/A,29.83,73.9,4:53 AM,,9.0,Calm,Calm,0,Tulsa,Oklahoma,74104
5,Mostly Cloudy,2016-06-14 10:02:00,71.1,,-,91,N/A,29.82,73.9,5:02 AM,,9.0,Calm,Calm,0,Tulsa,Oklahoma,74104
6,Scattered Clouds,2016-06-14 10:13:00,71.1,,-,93,N/A,29.79,73.0,5:13 AM,,9.0,ESE,5.8,120,Tulsa,Oklahoma,74104
7,Clear,2016-06-14 10:53:00,71.1,,-,91,N/A,29.81,73.9,5:53 AM,,10.0,South,4.6,190,Tulsa,Oklahoma,74104
8,Clear,2016-06-14 11:53:00,72.0,,-,87,N/A,29.80,75.9,6:53 AM,,10.0,SE,5.8,140,Tulsa,Oklahoma,74104
9,Partly Cloudy,2016-06-14 12:40:00,73.0,,-,84,N/A,29.81,78.1,7:40 AM,,10.0,South,8.1,170,Tulsa,Oklahoma,74104
10,Scattered Clouds,2016-06-14 12:53:00,73.0,,-,82,N/A,29.82,79.0,7:53 AM,,10.0,SE,5.8,130,Tulsa,Oklahoma,74104
11,Mostly Cloudy,2016-06-14 13:07:00,73.0,,-,82,N/A,29.81,79.0,8:07 AM,,10.0,Calm,Calm,0,Tulsa,Oklahoma,74104
12,Mostly Cloudy,2016-06-14 13:28:00,73.9,,-,81,N/A,29.80,80.1,8:28 AM,,10.0,South,6.9,190,Tulsa,Oklahoma,74104
13,Scattered Clouds,2016-06-14 13:41:00,73.0,,-,79,N/A,29.81,80.1,8:41 AM,,10.0,Variable,4.6,0,Tulsa,Oklahoma,74104
14,Partly Cloudy,2016-06-14 13:53:00,73.9,,-,79,N/A,29.80,81.0,8:53 AM,,10.0,East,5.8,100,Tulsa,Oklahoma,74104
15,Mostly Cloudy,2016-06-14 14:49:00,73.4,,-,74,N/A,29.85,82.4,9:49 AM,,10.0,SSW,5.8,210,Tulsa,Oklahoma,74104
16,Mostly Cloudy,2016-06-14 14:53:00,73.9,,-,72,N/A,29.86,84.0,9:53 AM,,10.0,SW,9.2,220,Tulsa,Oklahoma,74104
17,Scattered Clouds,2016-06-14 15:25:00,73.0,,-,65,N/A,29.83,86.0,10:25 AM,,10.0,South,9.2,190,Tulsa,Oklahoma,74104
18,Clear,2016-06-14 15:53:00,73.0,,-,63,N/A,29.83,87.1,10:53 AM,,10.0,SE,5.8,130,Tulsa,Oklahoma,74104
19,Clear,2016-06-14 16:53:00,70.0,,-,55,N/A,29.83,88.0,11:53 AM,,10.0,South,11.5,190,Tulsa,Oklahoma,74104
20,Clear,2016-06-14 17:53:00,71.1,,-,57,N/A,29.82,88.0,12:53 PM,,10.0,SSW,9.2,210,Tulsa,Oklahoma,74104
21,Clear,2016-06-14 18:53:00,72.0,,-,55,N/A,29.81,90.0,1:53 PM,,10.0,SW,8.1,220,Tulsa,Oklahoma,74104
22,Clear,2016-06-14 19:53:00,62.1,,-,35,N/A,29.80,93.9,2:53 PM,,10.0,South,8.1,180,Tulsa,Oklahoma,74104
23,Clear,2016-06-14 20:53:00,63.0,,-,37,N/A,29.79,93.0,3:53 PM,,10.0,South,11.5,190,Tulsa,Oklahoma,74104
24,Clear,2016-06-14 21:53:00,66.9,,-,41,N/A,29.78,93.9,4:53 PM,,10.0,SSW,12.7,200,Tulsa,Oklahoma,74104
25,Clear,2016-06-14 22:53:00,68.0,,-,45,N/A,29.77,91.9,5:53 PM,,10.0,SSW,8.1,200,Tulsa,Oklahoma,74104
26,Clear,2016-06-14 23:53:00,70.0,,-,50,N/A,29.76,91.0,6:53 PM,,10.0,SSW,8.1,200,Tulsa,Oklahoma,74104
27,Partly Cloudy,2016-06-15 00:53:00,71.1,,-,54,N/A,29.76,90.0,7:53 PM,,10.0,South,6.9,180,Tulsa,Oklahoma,74104
28,Partly Cloudy,2016-06-15 01:53:00,73.0,,-,63,N/A,29.78,87.1,8:53 PM,,10.0,South,4.6,170,Tulsa,Oklahoma,74104
29,Scattered Clouds,2016-06-15 02:53:00,73.0,,-,63,N/A,29.80,87.1,9:53 PM,,10.0,SSE,4.6,160,Tulsa,Oklahoma,74104
30,Clear,2016-06-15 03:53:00,75.9,,-,74,N/A,29.81,84.9,10:53 PM,,10.0,South,6.9,190,Tulsa,Oklahoma,74104
31,Clear,2016-06-15 04:53:00,75.9,,-,76,N/A,29.82,84.0,11:53 PM,,10.0,South,6.9,190,Tulsa,Oklahoma,74104
0,Overcast,2016-06-15 05:53:00,75.9,,-,79,N/A,29.82,82.9,12:53 AM,,10.0,SSW,6.9,200,Tulsa,Oklahoma,74104
1,Mostly Cloudy,2016-06-15 06:53:00,75.9,,-,82,N/A,29.83,82.0,1:53 AM,,10.0,South,4.6,190,Tulsa,Oklahoma,74104
2,Scattered Clouds,2016-06-15 07:53:00,75.0,,-,82,N/A,29.82,81.0,2:53 AM,,10.0,SSW,5.8,200,Tulsa,Oklahoma,74104
3,Partly Cloudy,2016-06-15 08:53:00,73.9,,-,84,N/A,29.82,79.0,3:53 AM,,10.0,SSW,3.5,200,Tulsa,Oklahoma,74104
4,Partly Cloudy,2016-06-15 09:53:00,73.0,,-,84,N/A,29.83,78.1,4:53 AM,,10.0,SSW,4.6,200,Tulsa,Oklahoma,74104
5,Clear,2016-06-15 10:53:00,73.0,,-,82,N/A,29.85,79.0,5:53 AM,,10.0,South,5.8,190,Tulsa,Oklahoma,74104
6,Clear,2016-06-15 11:53:00,73.0,,-,82,N/A,29.86,79.0,6:53 AM,,10.0,South,6.9,190,Tulsa,Oklahoma,74104
7,Clear,2016-06-15 12:53:00,73.9,,-,76,N/A,29.88,82.0,7:53 AM,,10.0,SSW,8.1,200,Tulsa,Oklahoma,74104
8,Clear,2016-06-15 13:53:00,73.9,,-,69,N/A,29.90,84.9,8:53 AM,,10.0,South,8.1,190,Tulsa,Oklahoma,74104
9,Clear,2016-06-15 14:53:00,75.0,,-,63,N/A,29.90,89.1,9:53 AM,,10.0,Variable,5.8,0,Tulsa,Oklahoma,74104
10,Clear,2016-06-15 15:53:00,75.9,,-,61,N/A,29.90,91.0,10:53 AM,,10.0,South,8.1,190,Tulsa,Oklahoma,74104
11,Clear,2016-06-15 16:53:00,75.9,,-,59,N/A,29.90,91.9,11:53 AM,,10.0,South,10.4,190,Tulsa,Oklahoma,74104
12,Clear,2016-06-15 17:53:00,77.0,,-,54,N/A,29.88,96.1,12:53 PM,,10.0,SSW,9.2,200,Tulsa,Oklahoma,74104
13,Clear,2016-06-15 18:53:00,75.0,,-,49,N/A,29.87,97.0,1:53 PM,,10.0,South,9.2,190,Tulsa,Oklahoma,74104
14,Partly Cloudy,2016-06-15 19:53:00,77.0,,18.4,51,N/A,29.86,98.1,2:53 PM,,10.0,South,11.5,170,Tulsa,Oklahoma,74104
15,Clear,2016-06-15 20:53:00,75.9,,-,49,N/A,29.85,98.1,3:53 PM,,10.0,South,10.4,190,Tulsa,Oklahoma,74104
16,Partly Cloudy,2016-06-15 21:53:00,77.0,,-,51,N/A,29.84,98.1,4:53 PM,,10.0,South,11.5,190,Tulsa,Oklahoma,74104
17,Clear,2016-06-15 22:53:00,75.9,,-,51,N/A,29.81,97.0,5:53 PM,,10.0,South,10.4,190,Tulsa,Oklahoma,74104
18,Partly Cloudy,2016-06-15 23:53:00,75.9,,-,54,N/A,29.81,95.0,6:53 PM,,10.0,SSW,10.4,200,Tulsa,Oklahoma,74104
19,Clear,2016-06-16 00:53:00,77.0,,-,62,N/A,29.83,91.9,7:53 PM,,10.0,South,9.2,190,Tulsa,Oklahoma,74104
20,Clear,2016-06-16 01:53:00,77.0,,-,67,N/A,29.84,89.1,8:53 PM,,10.0,South,9.2,180,Tulsa,Oklahoma,74104
21,Clear,2016-06-16 02:53:00,77.0,,-,72,N/A,29.87,87.1,9:53 PM,,10.0,South,6.9,180,Tulsa,Oklahoma,74104
22,Clear,2016-06-16 03:53:00,75.9,,-,72,N/A,29.89,86.0,10:53 PM,,10.0,South,8.1,190,Tulsa,Oklahoma,74104
23,Clear,2016-06-16 04:53:00,75.9,,-,76,N/A,29.92,84.0,11:53 PM,,10.0,South,8.1,190,Tulsa,Oklahoma,74104
0,Clear,2016-06-16 05:53:00,75.9,,-,79,N/A,29.92,82.9,12:53 AM,,10.0,South,4.6,180,Tulsa,Oklahoma,74104
1,Partly Cloudy,2016-06-16 06:53:00,75.9,,-,87,N/A,29.95,80.1,1:53 AM,,9.0,Calm,Calm,0,Tulsa,Oklahoma,74104
2,Overcast,2016-06-16 07:53:00,75.0,,-,79,N/A,29.95,82.0,2:53 AM,,9.0,NNE,9.2,20,Tulsa,Oklahoma,74104
3,Clear,2016-06-16 08:53:00,73.9,,-,74,N/A,29.91,82.9,3:53 AM,,10.0,SSE,4.6,160,Tulsa,Oklahoma,74104
4,Clear,2016-06-16 09:53:00,73.9,,-,79,N/A,29.90,81.0,4:53 AM,,9.0,SE,5.8,130,Tulsa,Oklahoma,74104
5,Clear,2016-06-16 10:53:00,75.0,,-,88,N/A,29.88,79.0,5:53 AM,,8.0,East,3.5,100,Tulsa,Oklahoma,74104
6,Clear,2016-06-16 11:53:00,73.9,,-,84,N/A,29.90,79.0,6:53 AM,,7.0,SE,4.6,130,Tulsa,Oklahoma,74104
7,Clear,2016-06-16 12:53:00,73.9,,-,76,N/A,29.89,82.0,7:53 AM,,8.0,SSE,5.8,150,Tulsa,Oklahoma,74104
8,Clear,2016-06-16 13:53:00,73.9,,-,69,N/A,29.91,84.9,8:53 AM,,10.0,SSE,5.8,160,Tulsa,Oklahoma,74104
9,Clear,2016-06-16 14:53:00,73.9,,-,63,N/A,29.90,88.0,9:53 AM,,10.0,SW,10.4,220,Tulsa,Oklahoma,74104
10,Clear,2016-06-16 15:53:00,73.0,,-,59,N/A,29.91,89.1,10:53 AM,,10.0,SW,8.1,230,Tulsa,Oklahoma,74104
11,Clear,2016-06-16 16:53:00,73.9,,-,59,N/A,29.91,90.0,11:53 AM,,10.0,South,8.1,180,Tulsa,Oklahoma,74104
12,Clear,2016-06-16 17:53:00,72.0,,-,52,N/A,29.90,91.9,12:53 PM,,10.0,SW,11.5,220,Tulsa,Oklahoma,74104
13,Clear,2016-06-16 18:53:00,73.0,,-,49,N/A,29.88,95.0,1:53 PM,,10.0,SSW,8.1,210,Tulsa,Oklahoma,74104
14,Clear,2016-06-16 19:53:00,72.0,,19.6,43,N/A,29.86,98.1,2:53 PM,,10.0,SSW,11.5,200,Tulsa,Oklahoma,74104
15,Partly Cloudy,2016-06-16 20:53:00,70.0,,-,40,N/A,29.85,98.1,3:53 PM,,10.0,SSW,15.0,200,Tulsa,Oklahoma,74104
16,Clear,2016-06-16 21:53:00,72.0,,-,44,N/A,29.83,97.0,4:53 PM,,10.0,SSW,10.4,200,Tulsa,Oklahoma,74104
17,Clear,2016-06-16 22:53:00,75.0,,-,51,N/A,29.83,96.1,5:53 PM,,10.0,South,15.0,180,Tulsa,Oklahoma,74104
18,Mostly Cloudy,2016-06-16 23:53:00,77.0,,-,56,N/A,29.83,95.0,6:53 PM,,10.0,South,13.8,180,Tulsa,Oklahoma,74104
19,Mostly Cloudy,2016-06-17 00:53:00,77.0,,-,59,N/A,29.84,93.0,7:53 PM,,10.0,South,8.1,170,Tulsa,Oklahoma,74104
20,Clear,2016-06-17 01:53:00,77.0,,-,65,N/A,29.84,90.0,8:53 PM,,10.0,South,11.5,190,Tulsa,Oklahoma,74104
21,Clear,2016-06-17 02:53:00,73.9,,-,63,N/A,29.86,88.0,9:53 PM,,10.0,South,6.9,180,Tulsa,Oklahoma,74104
22,Clear,2016-06-17 03:53:00,73.9,,-,67,N/A,29.88,86.0,10:53 PM,,10.0,South,6.9,180,Tulsa,Oklahoma,74104
23,Clear,2016-06-17 04:53:00,73.9,,-,74,N/A,29.88,82.9,11:53 PM,,10.0,South,5.8,190,Tulsa,Oklahoma,74104
0,Clear,2016-06-17 05:53:00,73.9,,-,72,N/A,29.88,84.0,12:53 AM,,10.0,SSW,5.8,200,Tulsa,Oklahoma,74104
1,Clear,2016-06-17 06:53:00,73.9,,-,81,N/A,29.88,80.1,1:53 AM,,10.0,Calm,Calm,0,Tulsa,Oklahoma,74104
2,Clear,2016-06-17 07:53:00,73.0,,-,82,N/A,29.88,79.0,2:53 AM,,10.0,SSW,3.5,200,Tulsa,Oklahoma,74104
3,Clear,2016-06-17 08:53:00,73.0,,-,84,N/A,29.87,78.1,3:53 AM,,10.0,Calm,Calm,0,Tulsa,Oklahoma,74104
4,Clear,2016-06-17 09:53:00,72.0,,-,84,N/A,29.89,77.0,4:53 AM,,10.0,Calm,Calm,0,Tulsa,Oklahoma,74104
5,Clear,2016-06-17 10:53:00,72.0,,-,84,N/A,29.89,77.0,5:53 AM,,10.0,Calm,Calm,0,Tulsa,Oklahoma,74104
6,Clear,2016-06-17 11:53:00,71.1,,-,77,N/A,29.91,79.0,6:53 AM,,10.0,South,3.5,170,Tulsa,Oklahoma,74104
7,Partly Cloudy,2016-06-17 12:53:00,72.0,,-,71,N/A,29.91,82.0,7:53 AM,,10.0,South,5.8,180,Tulsa,Oklahoma,74104
8,Clear,2016-06-17 13:53:00,72.0,,-,65,N/A,29.92,84.9,8:53 AM,,10.0,SSW,8.1,200,Tulsa,Oklahoma,74104
9,Clear,2016-06-17 14:53:00,73.0,,-,61,N/A,29.93,88.0,9:53 AM,,10.0,SSW,9.2,210,Tulsa,Oklahoma,74104
10,Clear,2016-06-17 15:53:00,73.9,,-,59,N/A,29.94,90.0,10:53 AM,,10.0,Variable,3.5,0,Tulsa,Oklahoma,74104
11,Clear,2016-06-17 16:53:00,73.9,,-,54,N/A,29.94,93.0,11:53 AM,,10.0,South,6.9,170,Tulsa,Oklahoma,74104
12,Clear,2016-06-17 17:53:00,75.0,,-,52,N/A,29.93,95.0,12:53 PM,,10.0,Variable,5.8,0,Tulsa,Oklahoma,74104
13,Clear,2016-06-17 18:53:00,73.9,,-,46,N/A,29.91,98.1,1:53 PM,,10.0,South,8.1,190,Tulsa,Oklahoma,74104
14,Partly Cloudy,2016-06-17 19:53:00,75.9,,-,49,N/A,29.90,98.1,2:53 PM,,10.0,SSE,6.9,160,Tulsa,Oklahoma,74104
15,Clear,2016-06-17 20:53:00,75.0,,-,46,N/A,29.89,99.0,3:53 PM,,10.0,South,8.1,190,Tulsa,Oklahoma,74104
16,Clear,2016-06-17 21:53:00,75.0,,-,48,N/A,29.88,98.1,4:53 PM,,10.0,Variable,4.6,0,Tulsa,Oklahoma,74104
17,Clear,2016-06-17 22:53:00,75.9,,-,49,N/A,29.87,98.1,5:53 PM,,10.0,SSE,6.9,160,Tulsa,Oklahoma,74104
18,Clear,2016-06-17 23:53:00,77.0,,-,54,N/A,29.86,96.1,6:53 PM,,10.0,South,10.4,170,Tulsa,Oklahoma,74104
19,Clear,2016-06-18 00:53:00,77.0,,-,58,N/A,29.86,93.9,7:53 PM,,10.0,SSE,8.1,160,Tulsa,Oklahoma,74104
20,Clear,2016-06-18 01:53:00,78.1,,-,64,N/A,29.88,91.9,8:53 PM,,10.0,SSE,5.8,150,Tulsa,Oklahoma,74104
21,Partly Cloudy,2016-06-18 02:53:00,77.0,,-,63,N/A,29.92,91.0,9:53 PM,,10.0,SSE,4.6,160,Tulsa,Oklahoma,74104
22,Clear,2016-06-18 03:53:00,75.9,,-,67,N/A,29.93,88.0,10:53 PM,,10.0,South,3.5,180,Tulsa,Oklahoma,74104
23,Clear,2016-06-18 04:53:00,77.0,,-,85,N/A,29.95,82.0,11:53 PM,,10.0,Calm,Calm,0,Tulsa,Oklahoma,74104
0,Clear,2016-06-18 05:53:00,77.0,,-,88,N/A,29.95,81.0,12:53 AM,,10.0,Calm,Calm,0,Tulsa,Oklahoma,74104
1,Clear,2016-06-18 06:53:00,77.0,,-,90,N/A,29.95,80.1,1:53 AM,,9.0,Calm,Calm,0,Tulsa,Oklahoma,74104
2,Clear,2016-06-18 07:53:00,75.9,,-,90,N/A,29.94,79.0,2:53 AM,,7.0,Calm,Calm,0,Tulsa,Oklahoma,74104
3,Clear,2016-06-18 08:53:00,75.9,,-,93,N/A,29.93,78.1,3:53 AM,,6.0,Calm,Calm,0,Tulsa,Oklahoma,74104
4,Clear,2016-06-18 09:53:00,75.9,,-,93,N/A,29.98,78.1,4:53 AM,,7.0,Calm,Calm,0,Tulsa,Oklahoma,74104
5,Partly Cloudy,2016-06-18 10:53:00,75.9,,-,90,N/A,30.02,79.0,5:53 AM,,7.0,Calm,Calm,0,Tulsa,Oklahoma,74104
6,Clear,2016-06-18 11:53:00,77.0,,-,88,N/A,30.01,81.0,6:53 AM,,8.0,Calm,Calm,0,Tulsa,Oklahoma,74104
7,Mostly Cloudy,2016-06-18 12:53:00,77.0,,-,85,N/A,30.06,82.0,7:53 AM,,9.0,SSW,4.6,210,Tulsa,Oklahoma,74104
8,Mostly Cloudy,2016-06-18 13:38:00,69.1,,20.7,72,N/A,30.08,79.0,8:38 AM,,10.0,Variable,6.9,0,Tulsa,Oklahoma,74104
9,Overcast,2016-06-18 13:53:00,68.0,,-,69,N/A,30.08,79.0,8:53 AM,,10.0,Variable,6.9,0,Tulsa,Oklahoma,74104
10,Heavy Rain,2016-06-18 13:59:00,69.1,Rain,-,76,0.05,30.07,77.0,8:59 AM,,2.5,North,9.2,350,Tulsa,Oklahoma,74104
11,Light Rain,2016-06-18 14:09:00,69.1,Rain,-,76,0.05,30.07,77.0,9:09 AM,,5.0,Variable,6.9,0,Tulsa,Oklahoma,74104
12,Haze,2016-06-18 14:53:00,69.1,,-,65,0.05,30.05,82.0,9:53 AM,,5.0,North,6.9,360,Tulsa,Oklahoma,74104
13,Clear,2016-06-18 15:53:00,70.0,,-,57,N/A,30.06,87.1,10:53 AM,,10.0,Variable,3.5,0,Tulsa,Oklahoma,74104
14,Clear,2016-06-18 16:53:00,70.0,,-,53,N/A,30.05,89.1,11:53 AM,,10.0,Calm,Calm,0,Tulsa,Oklahoma,74104
15,Clear,2016-06-18 17:53:00,73.0,,-,54,N/A,30.04,91.9,12:53 PM,,10.0,East,12.7,90,Tulsa,Oklahoma,74104
16,Clear,2016-06-18 18:53:00,73.0,,-,54,N/A,30.04,91.9,1:53 PM,,10.0,ESE,8.1,110,Tulsa,Oklahoma,74104
17,Clear,2016-06-18 19:53:00,73.9,,-,54,N/A,30.04,93.0,2:53 PM,,10.0,Variable,5.8,0,Tulsa,Oklahoma,74104
18,Mostly Cloudy,2016-06-18 20:53:00,73.9,,-,50,N/A,30.04,95.0,3:53 PM,,10.0,SSE,9.2,150,Tulsa,Oklahoma,74104
19,Scattered Clouds,2016-06-18 21:53:00,73.0,,-,51,N/A,30.01,93.9,4:53 PM,,10.0,South,5.8,190,Tulsa,Oklahoma,74104
20,Thunderstorm,2016-06-18 22:40:00,72.0,Thunderstorm,-,49,N/A,30.00,93.9,5:40 PM,,10.0,Variable,6.9,0,Tulsa,Oklahoma,74104
21,Thunderstorm,2016-06-18 22:53:00,72.0,Thunderstorm,26.5,53,N/A,30.02,91.0,5:53 PM,,10.0,ESE,18.4,120,Tulsa,Oklahoma,74104
22,Heavy Thunderstorms and Rain,2016-06-18 23:09:00,73.0,Rain-Thunderstorm,41.4,82,0.26,30.03,79.0,6:09 PM,,0.8,South,32.2,180,Tulsa,Oklahoma,74104
23,Heavy Thunderstorms and Rain,2016-06-18 23:13:00,70.0,Rain-Thunderstorm,41.4,76,0.41,30.05,78.1,6:13 PM,,0.5,South,20.7,180,Tulsa,Oklahoma,74104
24,Heavy Thunderstorms and Rain,2016-06-18 23:21:00,71.1,Rain-Thunderstorm,21.9,79,0.64,30.04,78.1,6:21 PM,,0.5,SW,10.4,220,Tulsa,Oklahoma,74104
25,Light Thunderstorms and Rain,2016-06-18 23:28:00,71.1,Rain-Thunderstorm,-,79,0.68,30.03,78.1,6:28 PM,,1.0,SSW,9.2,200,Tulsa,Oklahoma,74104
26,Light Thunderstorms and Rain,2016-06-18 23:33:00,71.1,Rain-Thunderstorm,-,79,0.69,30.03,78.1,6:33 PM,,4.0,SSW,4.6,210,Tulsa,Oklahoma,74104
27,Thunderstorm,2016-06-18 23:53:00,72.0,Thunderstorm,-,87,0.70,30.04,75.9,6:53 PM,,10.0,NW,6.9,320,Tulsa,Oklahoma,74104
28,Scattered Clouds,2016-06-19 00:14:00,73.0,Thunderstorm,-,88,N/A,30.05,77.0,7:14 PM,,9.0,North,3.5,360,Tulsa,Oklahoma,74104
29,Clear,2016-06-19 00:43:00,72.0,,-,84,N/A,30.06,77.0,7:43 PM,,10.0,West,4.6,260,Tulsa,Oklahoma,74104
30,Clear,2016-06-19 00:53:00,72.0,,-,84,N/A,30.08,77.0,7:53 PM,,10.0,West,4.6,260,Tulsa,Oklahoma,74104
31,Clear,2016-06-19 01:53:00,73.0,,-,91,N/A,30.09,75.9,8:53 PM,,10.0,NNE,4.6,20,Tulsa,Oklahoma,74104
32,Partly Cloudy,2016-06-19 02:53:00,73.0,,-,94,N/A,30.12,75.0,9:53 PM,,8.0,SSW,3.5,210,Tulsa,Oklahoma,74104
33,Overcast,2016-06-19 03:53:00,73.9,,-,90,N/A,30.12,77.0,10:53 PM,,9.0,Calm,Calm,0,Tulsa,Oklahoma,74104
34,Clear,2016-06-19 04:53:00,73.0,,-,91,N/A,30.12,75.9,11:53 PM,,10.0,North,3.5,10,Tulsa,Oklahoma,74104
0,Clear,2016-06-19 05:53:00,73.0,,-,94,N/A,30.13,75.0,12:53 AM,,5.0,Calm,Calm,0,Tulsa,Oklahoma,74104
1,Clear,2016-06-19 06:53:00,72.0,,-,90,N/A,30.13,75.0,1:53 AM,,9.0,ESE,3.5,120,Tulsa,Oklahoma,74104
2,Clear,2016-06-19 07:53:00,70.0,,-,76,N/A,30.11,78.1,2:53 AM,,10.0,SSE,3.5,150,Tulsa,Oklahoma,74104
3,Mostly Cloudy,2016-06-19 08:53:00,69.1,,-,76,N/A,30.12,77.0,3:53 AM,,10.0,SE,4.6,130,Tulsa,Oklahoma,74104
4,Mostly Cloudy,2016-06-19 09:53:00,68.0,,-,74,N/A,30.12,77.0,4:53 AM,,10.0,Variable,4.6,0,Tulsa,Oklahoma,74104
5,Clear,2016-06-19 10:53:00,66.9,,-,74,N/A,30.12,75.9,5:53 AM,,10.0,SSE,4.6,160,Tulsa,Oklahoma,74104
6,Mostly Cloudy,2016-06-19 11:53:00,68.0,,-,76,N/A,30.15,75.9,6:53 AM,,10.0,ESE,3.5,120,Tulsa,Oklahoma,74104
7,Clear,2016-06-19 12:53:00,69.1,,-,74,N/A,30.16,78.1,7:53 AM,,10.0,SE,4.6,130,Tulsa,Oklahoma,74104
8,Clear,2016-06-19 13:53:00,68.0,,-,65,N/A,30.17,81.0,8:53 AM,,10.0,SSE,8.1,160,Tulsa,Oklahoma,74104
9,Mostly Cloudy,2016-06-19 14:53:00,68.0,,-,58,N/A,30.18,84.0,9:53 AM,,10.0,SSE,6.9,150,Tulsa,Oklahoma,74104
10,Clear,2016-06-19 15:53:00,69.1,,-,57,N/A,30.17,86.0,10:53 AM,,10.0,SSE,8.1,160,Tulsa,Oklahoma,74104
11,Clear,2016-06-19 16:53:00,66.9,,-,49,N/A,30.18,88.0,11:53 AM,,10.0,South,10.4,170,Tulsa,Oklahoma,74104
12,Partly Cloudy,2016-06-19 17:53:00,69.1,,-,52,N/A,30.17,89.1,12:53 PM,,10.0,South,3.5,170,Tulsa,Oklahoma,74104
13,Scattered Clouds,2016-06-19 18:53:00,69.1,,-,48,N/A,30.15,91.0,1:53 PM,,10.0,SE,8.1,130,Tulsa,Oklahoma,74104
14,Clear,2016-06-19 19:53:00,68.0,,-,45,N/A,30.15,91.9,2:53 PM,,10.0,South,9.2,170,Tulsa,Oklahoma,74104
15,Clear,2016-06-19 20:53:00,66.9,,-,44,N/A,30.13,91.9,3:53 PM,,10.0,South,5.8,180,Tulsa,Oklahoma,74104
16,Clear,2016-06-19 21:53:00,66.0,,19.6,42,N/A,30.11,91.9,4:53 PM,,10.0,South,8.1,190,Tulsa,Oklahoma,74104
17,Partly Cloudy,2016-06-19 22:53:00,66.0,,-,42,N/A,30.10,91.9,5:53 PM,,10.0,SSE,9.2,150,Tulsa,Oklahoma,74104
18,Clear,2016-06-19 23:53:00,64.9,,-,42,N/A,30.10,91.0,6:53 PM,,10.0,South,6.9,170,Tulsa,Oklahoma,74104
19,Clear,2016-06-20 00:53:00,64.0,,-,43,N/A,30.11,89.1,7:53 PM,,10.0,SSE,5.8,160,Tulsa,Oklahoma,74104
20,Clear,2016-06-20 01:53:00,66.9,,-,51,N/A,30.12,87.1,8:53 PM,,10.0,South,3.5,170,Tulsa,Oklahoma,74104
21,Clear,2016-06-20 02:53:00,70.0,,-,79,N/A,30.14,77.0,9:53 PM,,10.0,Calm,Calm,0,Tulsa,Oklahoma,74104
22,Clear,2016-06-20 03:53:00,71.1,,-,82,N/A,30.17,77.0,10:53 PM,,10.0,SE,3.5,130,Tulsa,Oklahoma,74104
23,Clear,2016-06-20 04:53:00,70.0,,-,76,N/A,30.17,78.1,11:53 PM,,10.0,South,3.5,170,Tulsa,Oklahoma,74104
0,Clear,2016-06-20 05:53:00,71.1,,-,85,N/A,30.17,75.9,12:53 AM,,10.0,Calm,Calm,0,Tulsa,Oklahoma,74104
1,Clear,2016-06-20 06:53:00,71.1,,-,91,N/A,30.17,73.9,1:53 AM,,9.0,Calm,Calm,0,Tulsa,Oklahoma,74104
2,Clear,2016-06-20 07:53:00,70.0,,-,90,N/A,30.17,73.0,2:53 AM,,7.0,Calm,Calm,0,Tulsa,Oklahoma,74104
3,Clear,2016-06-20 08:53:00,71.1,,-,87,N/A,30.17,75.0,3:53 AM,,10.0,SSE,3.5,160,Tulsa,Oklahoma,74104
4,Clear,2016-06-20 09:53:00,69.1,,-,91,N/A,30.18,72.0,4:53 AM,,9.0,SSE,3.5,150,Tulsa,Oklahoma,74104
5,Clear,2016-06-20 10:53:00,69.1,,-,85,N/A,30.19,73.9,5:53 AM,,10.0,South,3.5,170,Tulsa,Oklahoma,74104
6,Clear,2016-06-20 11:53:00,69.1,,-,85,N/A,30.20,73.9,6:53 AM,,10.0,Calm,Calm,0,Tulsa,Oklahoma,74104
7,Clear,2016-06-20 13:53:00,69.1,,-,67,N/A,30.22,81.0,8:53 AM,,10.0,SSW,5.8,200,Tulsa,Oklahoma,74104
8,Clear,2016-06-20 14:53:00,70.0,,-,61,N/A,30.23,84.9,9:53 AM,,10.0,South,6.9,190,Tulsa,Oklahoma,74104
9,Clear,2016-06-20 15:53:00,69.1,,-,53,N/A,30.22,88.0,10:53 AM,,10.0,South,4.6,180,Tulsa,Oklahoma,74104
10,Clear,2016-06-20 16:53:00,68.0,,-,50,N/A,30.22,89.1,11:53 AM,,10.0,WSW,5.8,240,Tulsa,Oklahoma,74104
11,Scattered Clouds,2016-06-20 17:53:00,66.0,,-,45,N/A,30.21,90.0,12:53 PM,,10.0,North,-9999.0,0,Tulsa,Oklahoma,74104
12,Mostly Cloudy,2016-06-20 18:53:00,69.1,,-,45,N/A,30.20,93.0,1:53 PM,,10.0,Variable,5.8,0,Tulsa,Oklahoma,74104
13,Mostly Cloudy,2016-06-20 19:53:00,66.9,,-,42,N/A,30.18,93.0,2:53 PM,,10.0,Variable,3.5,0,Tulsa,Oklahoma,74104
14,Mostly Cloudy,2016-06-20 20:53:00,66.0,,-,40,N/A,30.16,93.9,3:53 PM,,10.0,Variable,5.8,0,Tulsa,Oklahoma,74104
15,Clear,2016-06-20 21:53:00,64.9,,-,38,N/A,30.15,93.9,4:53 PM,,10.0,Variable,6.9,0,Tulsa,Oklahoma,74104
16,Clear,2016-06-20 22:53:00,64.0,,-,37,N/A,30.13,93.9,5:53 PM,,10.0,South,6.9,180,Tulsa,Oklahoma,74104
17,Clear,2016-06-20 23:53:00,63.0,,-,38,N/A,30.11,91.9,6:53 PM,,10.0,SSE,6.9,160,Tulsa,Oklahoma,74104
18,Clear,2016-06-21 00:53:00,63.0,,-,39,N/A,30.11,91.0,7:53 PM,,10.0,South,6.9,170,Tulsa,Oklahoma,74104
19,Clear,2016-06-21 01:53:00,66.9,,-,66,N/A,30.12,79.0,8:53 PM,,10.0,SSW,3.5,200,Tulsa,Oklahoma,74104
20,Clear,2016-06-21 02:53:00,69.1,,-,79,N/A,30.15,75.9,9:53 PM,,10.0,Calm,Calm,0,Tulsa,Oklahoma,74104
21,Clear,2016-06-21 03:53:00,69.1,,-,79,N/A,30.17,75.9,10:53 PM,,10.0,Calm,Calm,0,Tulsa,Oklahoma,74104
22,Clear,2016-06-21 04:53:00,70.0,,-,84,N/A,30.16,75.0,11:53 PM,,10.0,Calm,Calm,0,Tulsa,Oklahoma,74104
0,Clear,2016-06-21 05:53:00,70.0,,-,90,N/A,30.16,73.0,12:53 AM,,10.0,Calm,Calm,0,Tulsa,Oklahoma,74104
1,Clear,2016-06-21 06:53:00,70.0,,-,90,N/A,30.13,73.0,1:53 AM,,10.0,Calm,Calm,0,Tulsa,Oklahoma,74104
2,Clear,2016-06-21 07:53:00,69.1,,-,91,N/A,30.14,72.0,2:53 AM,,9.0,Calm,Calm,0,Tulsa,Oklahoma,74104
3,Clear,2016-06-21 08:53:00,69.1,,-,93,N/A,30.13,71.1,3:53 AM,,9.0,Calm,Calm,0,Tulsa,Oklahoma,74104
4,Clear,2016-06-21 09:53:00,68.0,,-,90,N/A,30.12,71.1,4:53 AM,,7.0,Calm,Calm,0,Tulsa,Oklahoma,74104
5,Clear,2016-06-21 10:53:00,68.0,,-,90,N/A,30.12,71.1,5:53 AM,,7.0,Calm,Calm,0,Tulsa,Oklahoma,74104
6,Clear,2016-06-21 11:53:00,69.1,,-,87,N/A,30.12,73.0,6:53 AM,,9.0,Calm,Calm,0,Tulsa,Oklahoma,74104
7,Clear,2016-06-21 12:53:00,70.0,,-,76,N/A,30.12,78.1,7:53 AM,,10.0,South,4.6,180,Tulsa,Oklahoma,74104
8,Mostly Cloudy,2016-06-21 13:53:00,72.0,,-,71,N/A,30.13,82.0,8:53 AM,,10.0,South,8.1,180,Tulsa,Oklahoma,74104
9,Clear,2016-06-21 14:53:00,72.0,,-,63,N/A,30.11,86.0,9:53 AM,,10.0,Variable,4.6,0,Tulsa,Oklahoma,74104
10,Clear,2016-06-21 15:53:00,70.0,,-,53,N/A,30.10,89.1,10:53 AM,,10.0,SW,6.9,220,Tulsa,Oklahoma,74104
11,Clear,2016-06-21 16:53:00,70.0,,-,50,N/A,30.10,91.0,11:53 AM,,10.0,SW,8.1,230,Tulsa,Oklahoma,74104
12,Clear,2016-06-21 17:53:00,70.0,,-,48,N/A,30.09,91.9,12:53 PM,,10.0,WSW,5.8,240,Tulsa,Oklahoma,74104
13,Mostly Cloudy,2016-06-21 18:53:00,68.0,,-,41,N/A,30.07,95.0,1:53 PM,,10.0,North,-9999.0,0,Tulsa,Oklahoma,74104
14,Partly Cloudy,2016-06-21 19:53:00,69.1,,-,41,N/A,30.05,96.1,2:53 PM,,10.0,South,9.2,170,Tulsa,Oklahoma,74104
15,Partly Cloudy,2016-06-21 20:53:00,69.1,,-,41,N/A,30.03,96.1,3:53 PM,,10.0,SW,10.4,220,Tulsa,Oklahoma,74104
16,Clear,2016-06-21 21:53:00,66.0,,-,37,N/A,30.01,96.1,4:53 PM,,10.0,Variable,6.9,0,Tulsa,Oklahoma,74104
17,Clear,2016-06-21 22:53:00,66.0,,-,38,N/A,29.98,95.0,5:53 PM,,10.0,SSW,9.2,210,Tulsa,Oklahoma,74104
18,Clear,2016-06-21 23:53:00,68.0,,-,43,N/A,29.97,93.9,6:53 PM,,10.0,SSW,8.1,210,Tulsa,Oklahoma,74104
19,Clear,2016-06-22 00:53:00,68.0,,-,45,N/A,29.96,91.9,7:53 PM,,10.0,South,8.1,190,Tulsa,Oklahoma,74104
20,Clear,2016-06-22 01:53:00,69.1,,-,53,N/A,29.96,88.0,8:53 PM,,10.0,South,6.9,190,Tulsa,Oklahoma,74104
21,Clear,2016-06-22 02:53:00,70.0,,-,59,N/A,29.96,86.0,9:53 PM,,10.0,South,8.1,190,Tulsa,Oklahoma,74104
22,Clear,2016-06-22 03:53:00,70.0,,-,67,N/A,29.97,82.0,10:53 PM,,10.0,South,5.8,190,Tulsa,Oklahoma,74104
23,Clear,2016-06-22 04:53:00,71.1,,-,74,N/A,29.96,80.1,11:53 PM,,10.0,SSW,4.6,200,Tulsa,Oklahoma,74104
0,Clear,2016-06-22 05:53:00,71.1,,-,79,N/A,29.96,78.1,12:53 AM,,10.0,SSW,3.5,210,Tulsa,Oklahoma,74104
1,Clear,2016-06-22 06:53:00,70.0,,-,69,N/A,29.94,81.0,1:53 AM,,10.0,South,6.9,190,Tulsa,Oklahoma,74104
2,Clear,2016-06-22 07:53:00,71.1,,-,74,N/A,29.94,80.1,2:53 AM,,10.0,South,6.9,190,Tulsa,Oklahoma,74104
3,Clear,2016-06-22 08:53:00,71.1,,-,74,N/A,29.93,80.1,3:53 AM,,10.0,South,5.8,190,Tulsa,Oklahoma,74104
4,Clear,2016-06-22 09:53:00,71.1,,-,77,N/A,29.93,79.0,4:53 AM,,10.0,South,5.8,190,Tulsa,Oklahoma,74104
5,Clear,2016-06-22 10:53:00,71.1,,-,79,N/A,29.93,78.1,5:53 AM,,10.0,SSW,8.1,200,Tulsa,Oklahoma,74104
6,Clear,2016-06-22 11:53:00,72.0,,-,79,N/A,29.94,79.0,6:53 AM,,10.0,SSW,8.1,200,Tulsa,Oklahoma,74104
7,Clear,2016-06-22 12:53:00,71.1,,-,69,N/A,29.94,82.0,7:53 AM,,10.0,SSW,10.4,200,Tulsa,Oklahoma,74104
8,Clear,2016-06-22 13:53:00,71.1,,20.7,61,N/A,29.96,86.0,8:53 AM,,10.0,SSW,12.7,210,Tulsa,Oklahoma,74104
9,Unknown,2016-06-22 14:53:00,-9999,,-,N/A,N/A,29.95,-9999,9:53 AM,,-9999.0,North,-9999.0,0,Tulsa,Oklahoma,74104
10,Unknown,2016-06-22 15:53:00,-9999,,-,N/A,N/A,29.94,-9999,10:53 AM,,-9999.0,North,-9999.0,0,Tulsa,Oklahoma,74104
11,Unknown,2016-06-22 16:53:00,-9999,,-,N/A,N/A,29.94,-9999,11:53 AM,,-9999.0,North,-9999.0,0,Tulsa,Oklahoma,74104
12,Unknown,2016-06-22 17:53:00,-9999,,-,N/A,N/A,29.93,-9999,12:53 PM,,-9999.0,North,-9999.0,0,Tulsa,Oklahoma,74104
13,Clear,2016-06-22 18:53:00,69.1,,21.9,43,N/A,29.92,95.0,1:53 PM,,10.0,SW,13.8,220,Tulsa,Oklahoma,74104
14,Clear,2016-06-22 19:53:00,66.9,,31.1,36,N/A,29.91,98.1,2:53 PM,,10.0,South,21.9,190,Tulsa,Oklahoma,74104
15,Clear,2016-06-22 20:53:00,68.0,,23.0,40,N/A,29.90,96.1,3:53 PM,,10.0,SSW,15.0,210,Tulsa,Oklahoma,74104
16,Partly Cloudy,2016-06-22 21:53:00,69.1,,26.5,43,N/A,29.90,95.0,4:53 PM,,10.0,SSW,18.4,210,Tulsa,Oklahoma,74104
17,Clear,2016-06-22 22:53:00,69.1,,21.9,43,N/A,29.89,95.0,5:53 PM,,10.0,SSW,11.5,210,Tulsa,Oklahoma,74104
18,Clear,2016-06-22 23:53:00,71.1,,-,47,N/A,29.89,93.9,6:53 PM,,10.0,SW,10.4,220,Tulsa,Oklahoma,74104
19,Clear,2016-06-23 00:53:00,71.1,,18.4,50,N/A,29.89,91.9,7:53 PM,,10.0,SSW,8.1,210,Tulsa,Oklahoma,74104
20,Clear,2016-06-23 01:53:00,72.0,,-,55,N/A,29.91,90.0,8:53 PM,,10.0,South,6.9,180,Tulsa,Oklahoma,74104
21,Clear,2016-06-23 02:53:00,72.0,,-,59,N/A,29.92,88.0,9:53 PM,,10.0,South,6.9,180,Tulsa,Oklahoma,74104
22,Clear,2016-06-23 03:53:00,72.0,,-,63,N/A,29.93,86.0,10:53 PM,,10.0,South,8.1,180,Tulsa,Oklahoma,74104
23,Clear,2016-06-23 04:53:00,72.0,,-,65,N/A,29.94,84.9,11:53 PM,,10.0,South,8.1,190,Tulsa,Oklahoma,74104
0,Clear,2016-06-23 05:53:00,72.0,,-,67,N/A,29.94,84.0,12:53 AM,,10.0,SSW,9.2,200,Tulsa,Oklahoma,74104
1,Clear,2016-06-23 06:53:00,72.0,,-,71,N/A,29.94,82.0,1:53 AM,,10.0,SSW,6.9,200,Tulsa,Oklahoma,74104
2,Clear,2016-06-23 07:53:00,72.0,,-,74,N/A,29.95,81.0,2:53 AM,,10.0,SSW,8.1,200,Tulsa,Oklahoma,74104
3,Clear,2016-06-23 08:53:00,72.0,,-,79,N/A,29.96,79.0,3:53 AM,,10.0,SSW,4.6,200,Tulsa,Oklahoma,74104
4,Clear,2016-06-23 09:53:00,72.0,,-,76,N/A,29.97,80.1,4:53 AM,,10.0,South,5.8,190,Tulsa,Oklahoma,74104
5,Scattered Clouds,2016-06-23 10:53:00,72.0,,-,76,N/A,29.99,80.1,5:53 AM,,10.0,SSW,8.1,200,Tulsa,Oklahoma,74104
6,Mostly Cloudy,2016-06-23 11:53:00,72.0,,-,76,N/A,29.99,80.1,6:53 AM,,10.0,South,6.9,190,Tulsa,Oklahoma,74104
7,Clear,2016-06-23 12:53:00,73.0,,-,74,N/A,30.00,82.0,7:53 AM,,10.0,SSW,8.1,200,Tulsa,Oklahoma,74104
8,Clear,2016-06-23 13:53:00,73.0,,-,67,N/A,30.00,84.9,8:53 AM,,10.0,SW,10.4,220,Tulsa,Oklahoma,74104
9,Clear,2016-06-23 14:53:00,73.9,,-,61,N/A,30.00,89.1,9:53 AM,,10.0,SSW,11.5,200,Tulsa,Oklahoma,74104
10,Clear,2016-06-23 15:53:00,73.9,,-,59,N/A,29.99,90.0,10:53 AM,,10.0,South,12.7,190,Tulsa,Oklahoma,74104
11,Clear,2016-06-23 16:53:00,73.9,,-,54,N/A,29.98,93.0,11:53 AM,,10.0,SSW,10.4,200,Tulsa,Oklahoma,74104
12,Clear,2016-06-23 17:53:00,75.0,,-,52,N/A,29.96,95.0,12:53 PM,,10.0,SSW,9.2,200,Tulsa,Oklahoma,74104
13,Clear,2016-06-23 18:53:00,73.0,,-,47,N/A,29.96,96.1,1:53 PM,,10.0,SSW,10.4,210,Tulsa,Oklahoma,74104
14,Partly Cloudy,2016-06-23 19:53:00,73.9,,18.4,47,N/A,29.96,97.0,2:53 PM,,10.0,South,11.5,170,Tulsa,Oklahoma,74104
15,Partly Cloudy,2016-06-23 20:53:00,73.9,,18.4,46,N/A,29.94,98.1,3:53 PM,,10.0,South,11.5,190,Tulsa,Oklahoma,74104
16,Partly Cloudy,2016-06-23 21:53:00,73.0,,-,47,N/A,29.94,96.1,4:53 PM,,10.0,SSW,9.2,200,Tulsa,Oklahoma,74104
17,Mostly Cloudy,2016-06-23 22:53:00,73.9,,-,50,N/A,29.94,95.0,5:53 PM,,10.0,South,12.7,190,Tulsa,Oklahoma,74104
18,Clear,2016-06-23 23:53:00,73.9,,-,54,N/A,29.93,93.0,6:53 PM,,10.0,SSW,12.7,200,Tulsa,Oklahoma,74104
19,Clear,2016-06-24 00:53:00,73.9,,-,55,N/A,29.93,91.9,7:53 PM,,10.0,SSW,9.2,200,Tulsa,Oklahoma,74104
20,Clear,2016-06-24 01:53:00,73.9,,-,59,N/A,29.95,90.0,8:53 PM,,10.0,South,4.6,170,Tulsa,Oklahoma,74104
21,Clear,2016-06-24 02:53:00,73.9,,-,67,N/A,29.97,86.0,9:53 PM,,10.0,Calm,Calm,0,Tulsa,Oklahoma,74104
22,Partly Cloudy,2016-06-24 03:53:00,75.0,,-,79,N/A,29.98,82.0,10:53 PM,,10.0,Calm,Calm,0,Tulsa,Oklahoma,74104
23,Mostly Cloudy,2016-06-24 04:53:00,71.1,,-,69,N/A,30.00,82.0,11:53 PM,,10.0,NNE,4.6,20,Tulsa,Oklahoma,74104
0,Light Rain,2016-06-24 05:53:00,70.0,Rain,-,67,0.00,30.01,82.0,12:53 AM,,10.0,NNE,4.6,30,Tulsa,Oklahoma,74104
1,Mostly Cloudy,2016-06-24 06:53:00,71.1,,-,74,0.00,29.99,80.1,1:53 AM,,10.0,NNE,3.5,30,Tulsa,Oklahoma,74104
2,Mostly Cloudy,2016-06-24 07:53:00,70.0,,-,69,N/A,29.98,81.0,2:53 AM,,10.0,SE,5.8,140,Tulsa,Oklahoma,74104
3,Scattered Clouds,2016-06-24 08:53:00,71.1,,-,82,N/A,29.98,77.0,3:53 AM,,10.0,Calm,Calm,0,Tulsa,Oklahoma,74104
4,Clear,2016-06-24 09:53:00,72.0,,-,74,N/A,29.99,81.0,4:53 AM,,10.0,SSE,4.6,160,Tulsa,Oklahoma,74104
5,Clear,2016-06-24 10:53:00,71.1,,-,74,N/A,30.00,80.1,5:53 AM,,10.0,South,4.6,190,Tulsa,Oklahoma,74104
6,Clear,2016-06-24 11:53:00,72.0,,-,79,N/A,30.03,79.0,6:53 AM,,10.0,South,3.5,190,Tulsa,Oklahoma,74104
7,Clear,2016-06-24 12:53:00,72.0,,-,76,N/A,30.03,80.1,7:53 AM,,10.0,SSW,8.1,200,Tulsa,Oklahoma,74104
8,Mostly Cloudy,2016-06-24 13:53:00,71.1,,-,69,N/A,30.04,82.0,8:53 AM,,10.0,SSW,5.8,200,Tulsa,Oklahoma,74104
9,Clear,2016-06-24 14:53:00,71.1,,-,61,N/A,30.03,86.0,9:53 AM,,10.0,SSW,9.2,210,Tulsa,Oklahoma,74104
10,Clear,2016-06-24 15:53:00,71.1,,-,59,N/A,30.02,87.1,10:53 AM,,10.0,SSW,5.8,200,Tulsa,Oklahoma,74104
11,Clear,2016-06-24 16:53:00,72.0,,-,55,N/A,30.01,90.0,11:53 AM,,10.0,Variable,5.8,0,Tulsa,Oklahoma,74104
12,Clear,2016-06-24 17:53:00,70.0,,-,50,N/A,30.02,91.0,12:53 PM,,10.0,South,6.9,180,Tulsa,Oklahoma,74104
13,Scattered Clouds,2016-06-24 18:53:00,71.1,,-,50,N/A,30.01,91.9,1:53 PM,,10.0,South,6.9,170,Tulsa,Oklahoma,74104
14,Scattered Clouds,2016-06-24 19:53:00,71.1,,-,49,N/A,29.99,93.0,2:53 PM,,10.0,South,6.9,190,Tulsa,Oklahoma,74104
15,Mostly Cloudy,2016-06-24 20:53:00,72.0,,-,50,N/A,29.98,93.0,3:53 PM,,10.0,South,10.4,170,Tulsa,Oklahoma,74104
16,Clear,2016-06-24 21:53:00,70.0,,-,47,N/A,29.97,93.0,4:53 PM,,10.0,South,11.5,180,Tulsa,Oklahoma,74104
17,Clear,2016-06-24 22:53:00,69.1,,-,44,N/A,29.96,93.9,5:53 PM,,10.0,South,12.7,190,Tulsa,Oklahoma,74104
18,Clear,2016-06-24 23:53:00,70.0,,-,48,N/A,29.95,91.9,6:53 PM,,10.0,South,11.5,190,Tulsa,Oklahoma,74104
19,Clear,2016-06-25 00:53:00,70.0,,-,52,N/A,29.94,90.0,7:53 PM,,10.0,South,9.2,180,Tulsa,Oklahoma,74104
20,Clear,2016-06-25 01:53:00,70.0,,-,57,N/A,29.94,87.1,8:53 PM,,10.0,South,5.8,180,Tulsa,Oklahoma,74104
21,Clear,2016-06-25 02:53:00,70.0,,-,61,N/A,29.96,84.9,9:53 PM,,10.0,South,5.8,180,Tulsa,Oklahoma,74104
22,Clear,2016-06-25 03:53:00,70.0,,-,67,N/A,29.98,82.0,10:53 PM,,10.0,South,5.8,190,Tulsa,Oklahoma,74104
23,Clear,2016-06-25 04:53:00,69.1,,-,74,N/A,30.00,78.1,11:53 PM,,10.0,Calm,Calm,0,Tulsa,Oklahoma,74104
0,Clear,2016-06-25 05:53:00,70.0,,-,84,N/A,30.00,75.0,12:53 AM,,10.0,Calm,Calm,0,Tulsa,Oklahoma,74104
1,Clear,2016-06-25 06:53:00,70.0,,-,87,N/A,30.00,73.9,1:53 AM,,10.0,Calm,Calm,0,Tulsa,Oklahoma,74104
2,Clear,2016-06-25 07:53:00,69.1,,-,82,N/A,29.99,75.0,2:53 AM,,10.0,Calm,Calm,0,Tulsa,Oklahoma,74104
3,Clear,2016-06-25 08:53:00,68.0,,-,79,N/A,29.99,75.0,3:53 AM,,10.0,SSW,5.8,210,Tulsa,Oklahoma,74104
4,Clear,2016-06-25 09:53:00,68.0,,-,76,N/A,29.99,75.9,4:53 AM,,10.0,SSW,4.6,200,Tulsa,Oklahoma,74104
5,Clear,2016-06-25 10:53:00,66.9,,-,74,N/A,30.01,75.9,5:53 AM,,10.0,South,4.6,170,Tulsa,Oklahoma,74104
6,Clear,2016-06-25 11:53:00,68.0,,-,71,N/A,30.02,78.1,6:53 AM,,10.0,South,5.8,170,Tulsa,Oklahoma,74104
7,Clear,2016-06-25 12:53:00,68.0,,-,67,N/A,30.03,80.1,7:53 AM,,10.0,South,9.2,180,Tulsa,Oklahoma,74104
8,Clear,2016-06-25 13:53:00,70.0,,-,65,N/A,30.04,82.9,8:53 AM,,10.0,SSW,11.5,200,Tulsa,Oklahoma,74104
9,Clear,2016-06-25 14:53:00,71.1,,-,61,N/A,30.04,86.0,9:53 AM,,10.0,SSW,9.2,200,Tulsa,Oklahoma,74104
10,Clear,2016-06-25 15:53:00,71.1,,21.9,55,N/A,30.03,89.1,10:53 AM,,10.0,SW,11.5,220,Tulsa,Oklahoma,74104
11,Partly Cloudy,2016-06-25 16:53:00,71.1,,-,52,N/A,30.03,91.0,11:53 AM,,10.0,South,12.7,190,Tulsa,Oklahoma,74104
12,Partly Cloudy,2016-06-25 17:53:00,71.1,,-,47,N/A,30.01,93.9,12:53 PM,,10.0,South,10.4,180,Tulsa,Oklahoma,74104
13,Scattered Clouds,2016-06-25 18:53:00,70.0,,-,46,N/A,30.00,93.9,1:53 PM,,10.0,South,12.7,190,Tulsa,Oklahoma,74104
14,Partly Cloudy,2016-06-25 19:53:00,69.1,,20.7,43,N/A,29.99,95.0,2:53 PM,,10.0,SSW,13.8,210,Tulsa,Oklahoma,74104
15,Clear,2016-06-25 20:53:00,66.9,,-,40,N/A,29.98,95.0,3:53 PM,,10.0,South,13.8,180,Tulsa,Oklahoma,74104
16,Partly Cloudy,2016-06-25 21:53:00,66.9,,-,40,N/A,29.97,95.0,4:53 PM,,10.0,SSW,13.8,200,Tulsa,Oklahoma,74104
17,Partly Cloudy,2016-06-25 22:53:00,68.0,,-,41,N/A,29.96,95.0,5:53 PM,,10.0,SSW,15.0,200,Tulsa,Oklahoma,74104
18,Clear,2016-06-25 23:53:00,68.0,,-,44,N/A,29.95,93.0,6:53 PM,,10.0,South,15.0,180,Tulsa,Oklahoma,74104
19,Clear,2016-06-26 00:53:00,69.1,,19.6,48,N/A,29.94,91.0,7:53 PM,,10.0,South,10.4,180,Tulsa,Oklahoma,74104
20,Clear,2016-06-26 01:53:00,70.0,,-,53,N/A,29.94,89.1,8:53 PM,,10.0,South,6.9,170,Tulsa,Oklahoma,74104
21,Clear,2016-06-26 02:53:00,70.0,,-,57,N/A,29.99,87.1,9:53 PM,,10.0,South,5.8,180,Tulsa,Oklahoma,74104
22,Clear,2016-06-26 03:53:00,70.0,,-,61,N/A,30.03,84.9,10:53 PM,,10.0,SSE,4.6,160,Tulsa,Oklahoma,74104
23,Scattered Clouds,2016-06-26 04:53:00,71.1,,-,67,N/A,30.04,82.9,11:53 PM,,10.0,South,4.6,170,Tulsa,Oklahoma,74104
0,Clear,2016-06-26 05:53:00,71.1,,-,72,N/A,30.04,81.0,12:53 AM,,10.0,South,3.5,170,Tulsa,Oklahoma,74104
1,Clear,2016-06-26 06:53:00,71.1,,-,77,N/A,30.04,79.0,1:53 AM,,10.0,Calm,Calm,0,Tulsa,Oklahoma,74104
2,Clear,2016-06-26 07:53:00,71.1,,-,82,N/A,30.05,77.0,2:53 AM,,10.0,Calm,Calm,0,Tulsa,Oklahoma,74104
3,Clear,2016-06-26 08:53:00,71.1,,-,82,N/A,30.05,77.0,3:53 AM,,10.0,SSW,5.8,200,Tulsa,Oklahoma,74104
4,Clear,2016-06-26 09:53:00,72.0,,-,84,N/A,30.06,77.0,4:53 AM,,10.0,SSW,3.5,200,Tulsa,Oklahoma,74104
5,Clear,2016-06-26 10:53:00,71.1,,-,85,N/A,30.06,75.9,5:53 AM,,10.0,Calm,Calm,0,Tulsa,Oklahoma,74104
6,Clear,2016-06-26 11:53:00,72.0,,-,84,N/A,30.08,77.0,6:53 AM,,10.0,Calm,Calm,0,Tulsa,Oklahoma,74104
7,Clear,2016-06-26 12:53:00,72.0,,-,74,N/A,30.08,81.0,7:53 AM,,10.0,South,4.6,180,Tulsa,Oklahoma,74104
8,Clear,2016-06-26 13:53:00,72.0,,-,69,N/A,30.09,82.9,8:53 AM,,10.0,SW,5.8,220,Tulsa,Oklahoma,74104
9,Clear,2016-06-26 14:53:00,72.0,,-,61,N/A,30.09,87.1,9:53 AM,,10.0,SSW,9.2,210,Tulsa,Oklahoma,74104
10,Clear,2016-06-26 15:53:00,72.0,,-,57,N/A,30.09,89.1,10:53 AM,,10.0,SSW,9.2,210,Tulsa,Oklahoma,74104
11,Scattered Clouds,2016-06-26 16:53:00,72.0,,-,55,N/A,30.09,90.0,11:53 AM,,10.0,Variable,5.8,0,Tulsa,Oklahoma,74104
12,Clear,2016-06-26 17:53:00,71.1,,-,50,N/A,30.08,91.9,12:53 PM,,10.0,SSW,6.9,210,Tulsa,Oklahoma,74104
13,Scattered Clouds,2016-06-26 18:53:00,71.1,,-,49,N/A,30.07,93.0,1:53 PM,,10.0,SSW,8.1,200,Tulsa,Oklahoma,74104
14,Partly Cloudy,2016-06-26 19:53:00,70.0,,-,43,N/A,30.04,96.1,2:53 PM,,10.0,SSW,9.2,210,Tulsa,Oklahoma,74104
15,Partly Cloudy,2016-06-26 20:53:00,70.0,,-,43,N/A,30.01,96.1,3:53 PM,,10.0,South,9.2,190,Tulsa,Oklahoma,74104
16,Clear,2016-06-26 21:53:00,70.0,,21.9,44,N/A,29.99,95.0,4:53 PM,,10.0,SSW,6.9,210,Tulsa,Oklahoma,74104
17,Clear,2016-06-26 22:53:00,69.1,,-,41,N/A,30.00,96.1,5:53 PM,,10.0,South,9.2,190,Tulsa,Oklahoma,74104
18,Clear,2016-06-26 23:53:00,72.0,,-,55,N/A,30.01,90.0,6:53 PM,,10.0,SW,4.6,230,Tulsa,Oklahoma,74104
19,Overcast,2016-06-27 00:30:00,68.0,Thunderstorm,20.7,62,N/A,30.06,82.0,7:30 PM,,10.0,WNW,10.4,290,Tulsa,Oklahoma,74104
20,Light Rain,2016-06-27 00:45:00,68.0,Rain,23.0,74,0.00,30.08,77.0,7:45 PM,,10.0,WNW,8.1,290,Tulsa,Oklahoma,74104
21,Light Rain,2016-06-27 00:53:00,69.1,Rain,25.3,82,0.00,30.08,75.0,7:53 PM,,8.0,WNW,10.4,300,Tulsa,Oklahoma,74104
22,Rain,2016-06-27 01:03:00,69.1,Rain-Thunderstorm,20.7,85,0.03,30.05,73.9,8:03 PM,,3.0,NNW,11.5,340,Tulsa,Oklahoma,74104
23,Light Rain,2016-06-27 01:18:00,69.1,Rain,-,85,0.04,30.02,73.9,8:18 PM,,10.0,Variable,6.9,0,Tulsa,Oklahoma,74104
24,Clear,2016-06-27 01:53:00,69.1,,-,87,0.04,30.05,73.0,8:53 PM,,10.0,SW,8.1,230,Tulsa,Oklahoma,74104
25,Light Rain,2016-06-27 02:53:00,70.0,Rain-Thunderstorm,-,87,0.00,30.10,73.9,9:53 PM,,10.0,Calm,Calm,0,Tulsa,Oklahoma,74104
26,Light Rain,2016-06-27 03:07:00,70.0,Rain,-,87,0.00,30.09,73.9,10:07 PM,,10.0,Calm,Calm,0,Tulsa,Oklahoma,74104
27,Light Thunderstorms and Rain,2016-06-27 03:17:00,70.0,Rain-Thunderstorm,-,90,0.01,30.10,73.0,10:17 PM,,8.0,SW,3.5,220,Tulsa,Oklahoma,74104
28,Rain,2016-06-27 03:38:00,70.0,Rain,-,87,0.04,30.13,73.9,10:38 PM,,6.0,Calm,Calm,0,Tulsa,Oklahoma,74104
29,Rain,2016-06-27 03:53:00,71.1,Rain,-,93,0.07,30.14,73.0,10:53 PM,,5.0,SW,3.5,230,Tulsa,Oklahoma,74104
30,Light Rain,2016-06-27 04:53:00,71.1,Rain,-,91,0.07,30.16,73.9,11:53 PM,,10.0,Calm,Calm,0,Tulsa,Oklahoma,74104
0,Light Rain,2016-06-27 05:53:00,72.0,Rain,-,90,0.01,30.09,75.0,12:53 AM,,10.0,Calm,Calm,0,Tulsa,Oklahoma,74104
1,Clear,2016-06-27 06:53:00,72.0,,-,93,0.00,30.06,73.9,1:53 AM,,9.0,Calm,Calm,0,Tulsa,Oklahoma,74104
2,Clear,2016-06-27 07:53:00,72.0,,-,93,N/A,30.09,73.9,2:53 AM,,10.0,Calm,Calm,0,Tulsa,Oklahoma,74104
3,Mostly Cloudy,2016-06-27 08:53:00,72.0,,-,93,N/A,30.11,73.9,3:53 AM,,10.0,SW,3.5,230,Tulsa,Oklahoma,74104
4,Partly Cloudy,2016-06-27 09:53:00,72.0,,-,93,N/A,30.13,73.9,4:53 AM,,10.0,Calm,Calm,0,Tulsa,Oklahoma,74104
5,Clear,2016-06-27 10:53:00,72.0,,-,93,N/A,30.11,73.9,5:53 AM,,7.0,Calm,Calm,0,Tulsa,Oklahoma,74104
6,Partly Cloudy,2016-06-27 11:53:00,72.0,,-,93,N/A,30.11,73.9,6:53 AM,,10.0,Calm,Calm,0,Tulsa,Oklahoma,74104
7,Mostly Cloudy,2016-06-27 12:15:00,72.0,,-,93,N/A,30.13,73.9,7:15 AM,,10.0,Calm,Calm,0,Tulsa,Oklahoma,74104
8,Light Rain,2016-06-27 12:28:00,72.0,Rain,-,93,0.00,30.14,73.9,7:28 AM,,10.0,Calm,Calm,0,Tulsa,Oklahoma,74104
9,Light Rain,2016-06-27 12:36:00,72.0,Rain,-,93,0.00,30.14,73.9,7:36 AM,,10.0,Variable,3.5,0,Tulsa,Oklahoma,74104
10,Mostly Cloudy,2016-06-27 12:53:00,72.0,,-,90,0.00,30.16,75.0,7:53 AM,,10.0,Calm,Calm,0,Tulsa,Oklahoma,74104
11,Clear,2016-06-27 13:53:00,73.0,,-,88,N/A,30.17,77.0,8:53 AM,,10.0,Calm,Calm,0,Tulsa,Oklahoma,74104
12,Clear,2016-06-27 14:53:00,72.0,,-,76,N/A,30.17,80.1,9:53 AM,,10.0,NNE,3.5,30,Tulsa,Oklahoma,74104
13,Partly Cloudy,2016-06-27 15:53:00,72.0,,-,67,N/A,30.17,84.0,10:53 AM,,10.0,NNE,6.9,20,Tulsa,Oklahoma,74104
14,Clear,2016-06-27 16:53:00,72.0,,-,63,N/A,30.16,86.0,11:53 AM,,10.0,NNW,4.6,340,Tulsa,Oklahoma,74104
15,Clear,2016-06-27 17:53:00,69.1,,-,57,N/A,30.15,86.0,12:53 PM,,10.0,Calm,Calm,0,Tulsa,Oklahoma,74104
16,Scattered Clouds,2016-06-27 18:53:00,71.1,,-,57,N/A,30.12,88.0,1:53 PM,,10.0,Variable,3.5,0,Tulsa,Oklahoma,74104
17,Partly Cloudy,2016-06-27 19:53:00,71.1,,-,52,N/A,30.10,91.0,2:53 PM,,10.0,Variable,3.5,0,Tulsa,Oklahoma,74104
18,Partly Cloudy,2016-06-27 20:53:00,66.9,,-,42,N/A,30.08,93.0,3:53 PM,,10.0,NNE,4.6,20,Tulsa,Oklahoma,74104
19,Clear,2016-06-27 21:53:00,66.0,,-,41,N/A,30.06,93.0,4:53 PM,,10.0,Variable,3.5,0,Tulsa,Oklahoma,74104
20,Clear,2016-06-27 22:53:00,68.0,,-,44,N/A,30.04,93.0,5:53 PM,,10.0,North,3.5,350,Tulsa,Oklahoma,74104
21,Clear,2016-06-27 23:53:00,68.0,,-,45,N/A,30.04,91.9,6:53 PM,,10.0,Calm,Calm,0,Tulsa,Oklahoma,74104
22,Overcast,2016-06-28 00:53:00,71.1,,-,54,N/A,30.06,90.0,7:53 PM,,10.0,Calm,Calm,0,Tulsa,Oklahoma,74104
23,Partly Cloudy,2016-06-28 01:53:00,73.0,,-,74,N/A,30.08,82.0,8:53 PM,,10.0,Calm,Calm,0,Tulsa,Oklahoma,74104
24,Partly Cloudy,2016-06-28 02:53:00,70.0,,-,63,N/A,30.09,84.0,9:53 PM,,10.0,East,3.5,90,Tulsa,Oklahoma,74104
25,Clear,2016-06-28 03:53:00,72.0,,-,79,N/A,30.11,79.0,10:53 PM,,10.0,Calm,Calm,0,Tulsa,Oklahoma,74104
26,Clear,2016-06-28 04:53:00,72.0,,-,84,N/A,30.12,77.0,11:53 PM,,10.0,Calm,Calm,0,Tulsa,Oklahoma,74104
0,Clear,2016-06-28 05:53:00,72.0,,-,81,N/A,30.11,78.1,12:53 AM,,10.0,Calm,Calm,0,Tulsa,Oklahoma,74104
1,Clear,2016-06-28 06:53:00,72.0,,-,87,N/A,30.09,75.9,1:53 AM,,10.0,Calm,Calm,0,Tulsa,Oklahoma,74104
2,Clear,2016-06-28 07:53:00,72.0,,-,90,N/A,30.08,75.0,2:53 AM,,10.0,Calm,Calm,0,Tulsa,Oklahoma,74104
3,Clear,2016-06-28 08:53:00,72.0,,-,93,N/A,30.09,73.9,3:53 AM,,10.0,Calm,Calm,0,Tulsa,Oklahoma,74104
4,Clear,2016-06-28 09:53:00,71.1,,-,91,N/A,30.08,73.9,4:53 AM,,10.0,Calm,Calm,0,Tulsa,Oklahoma,74104
5,Clear,2016-06-28 10:53:00,71.1,,-,93,N/A,30.09,73.0,5:53 AM,,10.0,Calm,Calm,0,Tulsa,Oklahoma,74104
6,Clear,2016-06-28 11:53:00,70.0,,-,82,N/A,30.13,75.9,6:53 AM,,10.0,East,4.6,100,Tulsa,Oklahoma,74104
7,Clear,2016-06-28 12:53:00,70.0,,-,71,N/A,30.15,80.1,7:53 AM,,10.0,East,3.5,80,Tulsa,Oklahoma,74104
8,Clear,2016-06-28 13:53:00,66.0,,-,56,N/A,30.16,82.9,8:53 AM,,10.0,SE,4.6,140,Tulsa,Oklahoma,74104
9,Clear,2016-06-28 14:53:00,64.0,,-,46,N/A,30.16,87.1,9:53 AM,,10.0,Calm,Calm,0,Tulsa,Oklahoma,74104
10,Clear,2016-06-28 15:53:00,66.0,,-,46,N/A,30.15,89.1,10:53 AM,,10.0,Variable,4.6,0,Tulsa,Oklahoma,74104
11,Clear,2016-06-28 16:53:00,64.9,,-,42,N/A,30.14,91.0,11:53 AM,,10.0,NNE,4.6,30,Tulsa,Oklahoma,74104
12,Clear,2016-06-28 17:53:00,63.0,,-,37,N/A,30.14,93.0,12:53 PM,,10.0,ENE,6.9,70,Tulsa,Oklahoma,74104
13,Clear,2016-06-28 18:53:00,63.0,,-,34,N/A,30.12,95.0,1:53 PM,,10.0,ENE,5.8,60,Tulsa,Oklahoma,74104
14,Clear,2016-06-28 19:53:00,60.1,,-,30,N/A,30.09,96.1,2:53 PM,,10.0,ENE,11.5,60,Tulsa,Oklahoma,74104
15,Clear,2016-06-28 20:53:00,60.1,,-,30,N/A,30.06,96.1,3:53 PM,,10.0,East,8.1,90,Tulsa,Oklahoma,74104
16,Clear,2016-06-28 21:53:00,59.0,,-,29,N/A,30.03,96.1,4:53 PM,,10.0,Variable,6.9,0,Tulsa,Oklahoma,74104
17,Clear,2016-06-28 22:53:00,55.0,,-,25,N/A,30.02,96.1,5:53 PM,,10.0,NE,10.4,50,Tulsa,Oklahoma,74104
18,Clear,2016-06-28 23:53:00,54.0,,-,27,N/A,30.04,91.9,6:53 PM,,10.0,East,6.9,90,Tulsa,Oklahoma,74104
19,Clear,2016-06-29 00:53:00,62.1,,-,42,N/A,30.04,88.0,7:53 PM,,10.0,SSE,3.5,160,Tulsa,Oklahoma,74104
20,Clear,2016-06-29 01:53:00,64.9,,-,62,N/A,30.04,79.0,8:53 PM,,10.0,Calm,Calm,0,Tulsa,Oklahoma,74104
21,Clear,2016-06-29 02:53:00,66.0,,-,69,N/A,30.04,77.0,9:53 PM,,10.0,Calm,Calm,0,Tulsa,Oklahoma,74104
22,Clear,2016-06-29 03:53:00,64.0,,-,67,N/A,30.04,75.9,10:53 PM,,10.0,Calm,Calm,0,Tulsa,Oklahoma,74104
23,Clear,2016-06-29 04:53:00,64.9,,-,73,N/A,30.05,73.9,11:53 PM,,10.0,Calm,Calm,0,Tulsa,Oklahoma,74104
0,Clear,2016-06-29 05:53:00,66.0,,-,81,N/A,30.07,72.0,12:53 AM,,10.0,Calm,Calm,0,Tulsa,Oklahoma,74104
1,Clear,2016-06-29 06:53:00,64.0,,-,78,N/A,30.06,71.1,1:53 AM,,10.0,Calm,Calm,0,Tulsa,Oklahoma,74104
2,Clear,2016-06-29 07:53:00,64.9,,-,84,N/A,30.06,70.0,2:53 AM,,10.0,Calm,Calm,0,Tulsa,Oklahoma,74104
3,Clear,2016-06-29 08:53:00,64.9,,-,90,N/A,30.06,68.0,3:53 AM,,10.0,Calm,Calm,0,Tulsa,Oklahoma,74104
4,Clear,2016-06-29 09:53:00,64.9,,-,90,N/A,30.05,68.0,4:53 AM,,10.0,Calm,Calm,0,Tulsa,Oklahoma,74104
5,Clear,2016-06-29 10:53:00,64.9,,-,93,N/A,30.05,66.9,5:53 AM,,10.0,Calm,Calm,0,Tulsa,Oklahoma,74104
6,Clear,2016-06-29 11:53:00,66.0,,-,87,N/A,30.06,70.0,6:53 AM,,10.0,Calm,Calm,0,Tulsa,Oklahoma,74104
7,Clear,2016-06-29 12:53:00,68.0,,-,82,N/A,30.08,73.9,7:53 AM,,10.0,Calm,Calm,0,Tulsa,Oklahoma,74104
8,Clear,2016-06-29 13:53:00,64.9,,-,62,N/A,30.08,79.0,8:53 AM,,10.0,Variable,4.6,0,Tulsa,Oklahoma,74104
9,Clear,2016-06-29 14:53:00,66.0,,-,56,N/A,30.09,82.9,9:53 AM,,10.0,SSW,4.6,210,Tulsa,Oklahoma,74104
10,Clear,2016-06-29 15:53:00,66.0,,-,51,N/A,30.08,86.0,10:53 AM,,10.0,SW,9.2,220,Tulsa,Oklahoma,74104
11,Clear,2016-06-29 16:53:00,63.0,,-,40,N/A,30.07,90.0,11:53 AM,,10.0,South,9.2,190,Tulsa,Oklahoma,74104
12,Clear,2016-06-29 17:53:00,62.1,,-,38,N/A,30.05,91.0,12:53 PM,,10.0,South,5.8,180,Tulsa,Oklahoma,74104
13,Clear,2016-06-29 18:53:00,57.9,,-,30,N/A,30.03,93.9,1:53 PM,,10.0,South,10.4,190,Tulsa,Oklahoma,74104
14,Partly Cloudy,2016-06-29 19:53:00,55.9,,-,28,N/A,30.02,93.9,2:53 PM,,10.0,SSW,8.1,210,Tulsa,Oklahoma,74104
15,Clear,2016-06-29 20:53:00,60.1,,-,30,N/A,30.00,96.1,3:53 PM,,10.0,South,11.5,170,Tulsa,Oklahoma,74104
16,Clear,2016-06-29 21:53:00,57.0,,-,28,N/A,29.99,95.0,4:53 PM,,10.0,South,10.4,190,Tulsa,Oklahoma,74104
17,Clear,2016-06-29 22:53:00,62.1,,-,37,N/A,29.98,91.9,5:53 PM,,10.0,SW,5.8,230,Tulsa,Oklahoma,74104
18,Partly Cloudy,2016-06-29 23:53:00,64.0,,-,38,N/A,29.97,93.0,6:53 PM,,10.0,SSW,9.2,200,Tulsa,Oklahoma,74104
19,Clear,2016-06-30 00:53:00,66.0,,-,49,N/A,29.97,87.1,7:53 PM,,10.0,SW,5.8,230,Tulsa,Oklahoma,74104
20,Clear,2016-06-30 01:53:00,68.0,,-,65,N/A,29.96,81.0,8:53 PM,,10.0,Calm,Calm,0,Tulsa,Oklahoma,74104
21,Clear,2016-06-30 02:53:00,68.0,,-,74,N/A,29.98,77.0,9:53 PM,,10.0,Calm,Calm,0,Tulsa,Oklahoma,74104
22,Mostly Cloudy,2016-06-30 03:53:00,68.0,,-,76,N/A,30.00,75.9,10:53 PM,,10.0,Calm,Calm,0,Tulsa,Oklahoma,74104
23,Mostly Cloudy,2016-06-30 04:53:00,66.9,,-,66,N/A,30.02,79.0,11:53 PM,,10.0,South,4.6,180,Tulsa,Oklahoma,74104
0,Clear,2016-06-30 05:53:00,66.9,,-,66,N/A,30.01,79.0,12:53 AM,,10.0,South,3.5,180,Tulsa,Oklahoma,74104
1,Clear,2016-06-30 06:53:00,66.9,,-,76,N/A,29.99,75.0,1:53 AM,,10.0,Calm,Calm,0,Tulsa,Oklahoma,74104
2,Clear,2016-06-30 07:53:00,66.9,,-,79,N/A,29.99,73.9,2:53 AM,,10.0,Calm,Calm,0,Tulsa,Oklahoma,74104
3,Clear,2016-06-30 08:53:00,66.0,,-,76,N/A,29.99,73.9,3:53 AM,,10.0,Calm,Calm,0,Tulsa,Oklahoma,74104
4,Clear,2016-06-30 09:53:00,66.0,,-,84,N/A,29.99,71.1,4:53 AM,,10.0,Calm,Calm,0,Tulsa,Oklahoma,74104
5,Clear,2016-06-30 10:53:00,66.0,,-,84,N/A,30.00,71.1,5:53 AM,,10.0,Calm,Calm,0,Tulsa,Oklahoma,74104
6,Clear,2016-06-30 11:53:00,66.0,,-,81,N/A,30.01,72.0,6:53 AM,,10.0,Calm,Calm,0,Tulsa,Oklahoma,74104
7,Clear,2016-06-30 12:53:00,68.0,,-,76,N/A,30.02,75.9,7:53 AM,,10.0,SSW,3.5,210,Tulsa,Oklahoma,74104
8,Partly Cloudy,2016-06-30 13:53:00,66.9,,-,64,N/A,30.03,80.1,8:53 AM,,10.0,SSW,6.9,200,Tulsa,Oklahoma,74104
9,Clear,2016-06-30 14:53:00,69.1,,-,61,N/A,30.03,84.0,9:53 AM,,10.0,Variable,4.6,0,Tulsa,Oklahoma,74104
10,Clear,2016-06-30 15:53:00,68.0,,-,55,N/A,30.02,86.0,10:53 AM,,10.0,SW,10.4,220,Tulsa,Oklahoma,74104
11,Clear,2016-06-30 16:53:00,69.1,,-,52,N/A,30.00,89.1,11:53 AM,,10.0,SW,9.2,220,Tulsa,Oklahoma,74104
12,Clear,2016-06-30 17:53:00,66.9,,-,45,N/A,29.98,91.0,12:53 PM,,10.0,SW,10.4,220,Tulsa,Oklahoma,74104
13,Clear,2016-06-30 18:53:00,66.9,,-,41,N/A,29.97,93.9,1:53 PM,,10.0,SSW,11.5,210,Tulsa,Oklahoma,74104
14,Partly Cloudy,2016-06-30 19:53:00,70.0,,18.4,46,N/A,29.96,93.9,2:53 PM,,10.0,SSW,12.7,200,Tulsa,Oklahoma,74104
15,Clear,2016-06-30 20:53:00,68.0,,18.4,44,N/A,29.95,93.0,3:53 PM,,10.0,SSW,9.2,210,Tulsa,Oklahoma,74104
16,Clear,2016-06-30 21:53:00,66.9,,-,41,N/A,29.93,93.9,4:53 PM,,10.0,SSW,9.2,200,Tulsa,Oklahoma,74104
17,Clear,2016-06-30 22:53:00,66.9,,-,46,N/A,29.92,90.0,5:53 PM,,10.0,SW,6.9,230,Tulsa,Oklahoma,74104
18,Clear,2016-06-30 23:53:00,68.0,,-,48,N/A,29.92,90.0,6:53 PM,,10.0,SSW,8.1,200,Tulsa,Oklahoma,74104
19,Partly Cloudy,2016-07-01 00:45:00,68.0,Thunderstorm,-,53,N/A,29.95,87.1,7:45 PM,,10.0,Calm,Calm,0,Tulsa,Oklahoma,74104
20,Mostly Cloudy,2016-07-01 00:53:00,68.0,Thunderstorm,20.7,57,N/A,29.98,84.9,7:53 PM,,10.0,NNE,15.0,20,Tulsa,Oklahoma,74104
21,Scattered Clouds,2016-07-01 01:46:00,70.0,,-,76,0.00,29.93,78.1,8:46 PM,,10.0,Calm,Calm,0,Tulsa,Oklahoma,74104
22,Scattered Clouds,2016-07-01 01:53:00,71.1,,-,82,0.00,29.94,77.0,8:53 PM,,10.0,Calm,Calm,0,Tulsa,Oklahoma,74104
23,Scattered Clouds,2016-07-01 02:53:00,72.0,,-,90,0.01,29.95,75.0,9:53 PM,,10.0,NNE,3.5,20,Tulsa,Oklahoma,74104
24,Clear,2016-07-01 03:53:00,72.0,,-,93,N/A,29.97,73.9,10:53 PM,,7.0,Calm,Calm,0,Tulsa,Oklahoma,74104
25,Clear,2016-07-01 04:53:00,72.0,,-,93,N/A,29.97,73.9,11:53 PM,,6.0,Calm,Calm,0,Tulsa,Oklahoma,74104
0,Clear,2016-07-01 05:53:00,72.0,,-,93,N/A,29.99,73.9,12:53 AM,,6.0,Calm,Calm,0,Tulsa,Oklahoma,74104
1,Clear,2016-07-01 06:53:00,72.0,,-,93,N/A,29.99,73.9,1:53 AM,,6.0,Calm,Calm,0,Tulsa,Oklahoma,74104
2,Clear,2016-07-01 07:53:00,72.0,,-,93,N/A,29.99,73.9,2:53 AM,,6.0,Calm,Calm,0,Tulsa,Oklahoma,74104
3,Partly Cloudy,2016-07-01 08:53:00,72.0,,-,93,N/A,29.98,73.9,3:53 AM,,5.0,Calm,Calm,0,Tulsa,Oklahoma,74104
4,Mostly Cloudy,2016-07-01 09:53:00,72.0,,-,90,N/A,29.99,75.0,4:53 AM,,10.0,Calm,Calm,0,Tulsa,Oklahoma,74104
5,Mostly Cloudy,2016-07-01 10:53:00,72.0,,-,93,N/A,30.01,73.9,5:53 AM,,8.0,Calm,Calm,0,Tulsa,Oklahoma,74104
6,Scattered Clouds,2016-07-01 11:53:00,71.1,,-,87,N/A,30.04,75.0,6:53 AM,,9.0,Calm,Calm,0,Tulsa,Oklahoma,74104
7,Mostly Cloudy,2016-07-01 12:53:00,69.1,,-,82,N/A,30.05,75.0,7:53 AM,,10.0,North,3.5,350,Tulsa,Oklahoma,74104
8,Light Rain,2016-07-01 13:53:00,69.1,Rain,-,85,0.03,30.08,73.9,8:53 AM,,10.0,Calm,Calm,0,Tulsa,Oklahoma,74104
9,Scattered Clouds,2016-07-01 14:53:00,70.0,,-,87,0.00,30.09,73.9,9:53 AM,,10.0,Calm,Calm,0,Tulsa,Oklahoma,74104
10,Partly Cloudy,2016-07-01 15:53:00,70.0,,-,84,N/A,30.08,75.0,10:53 AM,,10.0,Calm,Calm,0,Tulsa,Oklahoma,74104
11,Clear,2016-07-01 16:53:00,69.1,,-,76,N/A,30.08,77.0,11:53 AM,,10.0,Variable,3.5,0,Tulsa,Oklahoma,74104
12,Clear,2016-07-01 17:53:00,70.0,,-,71,N/A,30.09,80.1,12:53 PM,,10.0,Variable,3.5,0,Tulsa,Oklahoma,74104
13,Clear,2016-07-01 18:53:00,70.0,,-,67,N/A,30.06,82.0,1:53 PM,,10.0,Calm,Calm,0,Tulsa,Oklahoma,74104
14,Clear,2016-07-01 19:53:00,69.1,,-,59,N/A,30.04,84.9,2:53 PM,,10.0,Variable,3.5,0,Tulsa,Oklahoma,74104
15,Partly Cloudy,2016-07-01 20:53:00,70.0,,-,61,N/A,30.04,84.9,3:53 PM,,10.0,Calm,Calm,0,Tulsa,Oklahoma,74104
16,Partly Cloudy,2016-07-01 21:53:00,71.1,,-,65,0.00,30.03,84.0,4:53 PM,,10.0,Calm,Calm,0,Tulsa,Oklahoma,74104
17,Light Rain,2016-07-01 22:53:00,73.0,Rain,-,77,0.01,30.01,81.0,5:53 PM,,10.0,North,4.6,350,Tulsa,Oklahoma,74104
18,Mostly Cloudy,2016-07-01 23:53:00,73.9,,-,79,0.00,30.00,81.0,6:53 PM,,10.0,North,3.5,350,Tulsa,Oklahoma,74104
19,Scattered Clouds,2016-07-02 00:53:00,75.0,,-,85,N/A,30.00,80.1,7:53 PM,,10.0,North,3.5,360,Tulsa,Oklahoma,74104
20,Overcast,2016-07-02 01:25:00,70.0,,-,71,N/A,30.00,80.1,8:25 PM,,10.0,ENE,11.5,60,Tulsa,Oklahoma,74104
21,Overcast,2016-07-02 01:37:00,69.1,,-,72,N/A,30.00,79.0,8:37 PM,,10.0,East,9.2,80,Tulsa,Oklahoma,74104
22,Overcast,2016-07-02 01:53:00,69.1,,-,72,N/A,30.01,79.0,8:53 PM,,10.0,East,8.1,100,Tulsa,Oklahoma,74104
23,Light Rain,2016-07-02 02:53:00,70.0,Rain,-,76,0.00,30.04,78.1,9:53 PM,,10.0,ESE,5.8,120,Tulsa,Oklahoma,74104
24,Overcast,2016-07-02 03:53:00,69.1,,-,72,0.00,30.05,79.0,10:53 PM,,10.0,East,4.6,100,Tulsa,Oklahoma,74104
25,Scattered Clouds,2016-07-02 04:53:00,69.1,,-,76,N/A,30.03,77.0,11:53 PM,,10.0,ENE,4.6,60,Tulsa,Oklahoma,74104
0,Overcast,2016-07-02 05:53:00,69.1,,-,79,N/A,30.02,75.9,12:53 AM,,10.0,East,3.5,90,Tulsa,Oklahoma,74104
1,Partly Cloudy,2016-07-02 06:53:00,69.1,,-,79,N/A,30.00,75.9,1:53 AM,,10.0,ESE,3.5,120,Tulsa,Oklahoma,74104
2,Scattered Clouds,2016-07-02 07:53:00,69.1,,-,79,N/A,29.98,75.9,2:53 AM,,10.0,SSE,3.5,150,Tulsa,Oklahoma,74104
3,Mostly Cloudy,2016-07-02 08:53:00,70.0,,-,82,N/A,29.97,75.9,3:53 AM,,10.0,SSE,4.6,150,Tulsa,Oklahoma,74104
4,Clear,2016-07-02 09:53:00,70.0,,-,82,N/A,29.97,75.9,4:53 AM,,10.0,South,6.9,170,Tulsa,Oklahoma,74104
5,Clear,2016-07-02 10:53:00,70.0,,-,84,N/A,29.97,75.0,5:53 AM,,10.0,South,5.8,170,Tulsa,Oklahoma,74104
6,Clear,2016-07-02 11:53:00,70.0,,-,84,N/A,29.98,75.0,6:53 AM,,10.0,South,5.8,170,Tulsa,Oklahoma,74104
7,Clear,2016-07-02 12:53:00,71.1,,-,82,N/A,30.00,77.0,7:53 AM,,10.0,South,3.5,170,Tulsa,Oklahoma,74104
8,Clear,2016-07-02 13:53:00,71.1,,-,77,N/A,30.02,79.0,8:53 AM,,10.0,Calm,Calm,0,Tulsa,Oklahoma,74104
9,Partly Cloudy,2016-07-02 14:53:00,71.1,,-,65,N/A,30.02,84.0,9:53 AM,,10.0,Variable,3.5,0,Tulsa,Oklahoma,74104
10,Clear,2016-07-02 15:53:00,71.1,,-,61,N/A,29.99,86.0,10:53 AM,,10.0,Variable,4.6,0,Tulsa,Oklahoma,74104
11,Partly Cloudy,2016-07-02 16:53:00,71.1,,-,54,N/A,29.98,90.0,11:53 AM,,10.0,SW,9.2,220,Tulsa,Oklahoma,74104
12,Partly Cloudy,2016-07-02 17:53:00,70.0,,20.7,46,N/A,29.97,93.9,12:53 PM,,10.0,SSW,13.8,200,Tulsa,Oklahoma,74104
13,Scattered Clouds,2016-07-02 18:53:00,70.0,,-,48,N/A,29.95,91.9,1:53 PM,,10.0,SW,11.5,220,Tulsa,Oklahoma,74104
14,Partly Cloudy,2016-07-02 19:53:00,68.0,,18.4,39,N/A,29.93,97.0,2:53 PM,,10.0,SSW,12.7,210,Tulsa,Oklahoma,74104
15,Partly Cloudy,2016-07-02 20:53:00,68.0,,-,39,N/A,29.92,97.0,3:53 PM,,10.0,South,11.5,180,Tulsa,Oklahoma,74104
16,Clear,2016-07-02 21:53:00,66.0,,-,37,N/A,29.89,96.1,4:53 PM,,10.0,South,15.0,180,Tulsa,Oklahoma,74104
17,Clear,2016-07-02 22:53:00,66.0,,-,37,N/A,29.86,96.1,5:53 PM,,10.0,SSW,12.7,200,Tulsa,Oklahoma,74104
18,Clear,2016-07-02 23:53:00,66.0,,-,40,N/A,29.86,93.9,6:53 PM,,10.0,South,13.8,180,Tulsa,Oklahoma,74104
19,Clear,2016-07-03 00:53:00,66.9,,-,44,N/A,29.84,91.9,7:53 PM,,10.0,South,12.7,170,Tulsa,Oklahoma,74104
20,Clear,2016-07-03 01:53:00,68.0,,-,50,N/A,29.85,89.1,8:53 PM,,10.0,South,10.4,170,Tulsa,Oklahoma,74104
21,Clear,2016-07-03 02:53:00,69.1,,-,55,N/A,29.86,87.1,9:53 PM,,10.0,South,6.9,170,Tulsa,Oklahoma,74104
22,Clear,2016-07-03 03:53:00,69.1,,-,59,N/A,29.88,84.9,10:53 PM,,10.0,South,8.1,170,Tulsa,Oklahoma,74104
23,Clear,2016-07-03 04:53:00,69.1,,-,59,N/A,29.88,84.9,11:53 PM,,10.0,South,11.5,170,Tulsa,Oklahoma,74104
0,Scattered Clouds,2016-07-03 05:53:00,69.1,,-,61,N/A,29.86,84.0,12:53 AM,,10.0,South,9.2,170,Tulsa,Oklahoma,74104
1,Scattered Clouds,2016-07-03 06:53:00,69.1,,-,61,N/A,29.85,84.0,1:53 AM,,10.0,South,9.2,170,Tulsa,Oklahoma,74104
2,Mostly Cloudy,2016-07-03 07:53:00,70.0,,-,65,0.00,29.84,82.9,2:53 AM,,10.0,South,9.2,180,Tulsa,Oklahoma,74104
3,Overcast,2016-07-03 08:53:00,70.0,,-,65,N/A,29.84,82.9,3:53 AM,,10.0,South,6.9,190,Tulsa,Oklahoma,74104
4,Light Rain,2016-07-03 09:53:00,73.9,Rain,-,90,0.02,29.85,77.0,4:53 AM,,7.0,Calm,Calm,0,Tulsa,Oklahoma,74104
5,Rain,2016-07-03 10:53:00,73.0,Rain,-,91,0.04,29.85,75.9,5:53 AM,,5.0,North,8.1,10,Tulsa,Oklahoma,74104
6,Heavy Rain,2016-07-03 11:08:00,72.0,Rain-Thunderstorm,-,90,0.11,29.85,75.0,6:08 AM,,2.0,NNE,8.1,30,Tulsa,Oklahoma,74104
7,Light Rain,2016-07-03 11:19:00,72.0,Rain-Thunderstorm,-,93,0.12,29.86,73.9,6:19 AM,,8.0,NNE,4.6,30,Tulsa,Oklahoma,74104
8,Overcast,2016-07-03 11:36:00,71.1,,-,93,0.12,29.85,73.0,6:36 AM,,10.0,NNE,9.2,30,Tulsa,Oklahoma,74104
9,Overcast,2016-07-03 11:53:00,71.1,,-,93,0.12,29.86,73.0,6:53 AM,,10.0,North,9.2,10,Tulsa,Oklahoma,74104
10,Rain,2016-07-03 12:03:00,71.1,Rain-Thunderstorm,-,93,0.09,29.87,73.0,7:03 AM,,2.0,NNE,5.8,30,Tulsa,Oklahoma,74104
11,Heavy Rain,2016-07-03 12:06:00,71.1,Rain-Thunderstorm,-,93,0.14,29.87,73.0,7:06 AM,,1.2,ENE,4.6,60,Tulsa,Oklahoma,74104
12,Heavy Rain,2016-07-03 12:10:00,71.1,Rain-Thunderstorm,-,93,0.24,29.86,73.0,7:10 AM,,0.8,Variable,6.9,0,Tulsa,Oklahoma,74104
13,Heavy Rain,2016-07-03 12:13:00,71.1,Rain-Thunderstorm,-,93,0.25,29.87,73.0,7:13 AM,,1.0,NNW,8.1,340,Tulsa,Oklahoma,74104
14,Heavy Thunderstorms and Rain,2016-07-03 12:18:00,71.1,Rain-Thunderstorm,-,93,0.29,29.87,73.0,7:18 AM,,1.5,Variable,4.6,0,Tulsa,Oklahoma,74104
15,Heavy Thunderstorms and Rain,2016-07-03 12:21:00,71.1,Rain-Thunderstorm,-,93,0.33,29.87,73.0,7:21 AM,,2.0,North,8.1,10,Tulsa,Oklahoma,74104
16,Thunderstorms and Rain,2016-07-03 12:29:00,71.1,Rain-Thunderstorm,19.6,93,0.38,29.86,73.0,7:29 AM,,2.5,NNE,9.2,30,Tulsa,Oklahoma,74104
17,Thunderstorms and Rain,2016-07-03 12:38:00,71.1,Rain-Thunderstorm,-,93,0.40,29.85,73.0,7:38 AM,,5.0,ENE,9.2,60,Tulsa,Oklahoma,74104
18,Light Rain,2016-07-03 12:46:00,71.1,Rain-Thunderstorm,-,93,0.40,29.86,73.0,7:46 AM,,8.0,NE,9.2,50,Tulsa,Oklahoma,74104
19,Light Rain,2016-07-03 12:53:00,71.1,Rain-Thunderstorm,-,93,0.40,29.88,73.0,7:53 AM,,10.0,ENE,10.4,60,Tulsa,Oklahoma,74104
20,Light Rain,2016-07-03 13:02:00,71.1,Rain,-,93,0.00,29.88,73.0,8:02 AM,,10.0,ENE,10.4,70,Tulsa,Oklahoma,74104
21,Overcast,2016-07-03 13:33:00,71.1,Thunderstorm,-,93,0.00,29.90,73.0,8:33 AM,,10.0,ENE,8.1,70,Tulsa,Oklahoma,74104
22,Overcast,2016-07-03 13:46:00,71.1,,-,91,0.00,29.90,73.9,8:46 AM,,10.0,East,6.9,80,Tulsa,Oklahoma,74104
23,Overcast,2016-07-03 13:53:00,71.1,,-,91,0.00,29.91,73.9,8:53 AM,,10.0,East,10.4,100,Tulsa,Oklahoma,74104
24,Overcast,2016-07-03 14:05:00,71.1,,-,91,N/A,29.89,73.9,9:05 AM,,10.0,East,8.1,100,Tulsa,Oklahoma,74104
25,Overcast,2016-07-03 14:40:00,72.0,,-,90,N/A,29.88,75.0,9:40 AM,,10.0,ESE,6.9,110,Tulsa,Oklahoma,74104
26,Overcast,2016-07-03 14:53:00,72.0,,-,90,N/A,29.89,75.0,9:53 AM,,10.0,SE,5.8,130,Tulsa,Oklahoma,74104
27,Overcast,2016-07-03 15:14:00,72.0,,-,84,N/A,29.88,77.0,10:14 AM,,10.0,Variable,5.8,0,Tulsa,Oklahoma,74104
28,Mostly Cloudy,2016-07-03 15:31:00,72.0,,-,81,N/A,29.88,78.1,10:31 AM,,10.0,SSE,5.8,150,Tulsa,Oklahoma,74104
29,Overcast,2016-07-03 15:53:00,73.0,,-,79,N/A,29.88,80.1,10:53 AM,,10.0,South,9.2,170,Tulsa,Oklahoma,74104
30,Overcast,2016-07-03 16:07:00,73.9,,-,79,N/A,29.88,81.0,11:07 AM,,10.0,SSE,8.1,160,Tulsa,Oklahoma,74104
31,Mostly Cloudy,2016-07-03 16:23:00,73.0,,-,74,N/A,29.88,82.0,11:23 AM,,10.0,South,11.5,170,Tulsa,Oklahoma,74104
32,Overcast,2016-07-03 16:44:00,73.9,,-,74,N/A,29.88,82.9,11:44 AM,,10.0,SSE,10.4,160,Tulsa,Oklahoma,74104
33,Overcast,2016-07-03 16:53:00,73.9,,-,74,N/A,29.88,82.9,11:53 AM,,10.0,South,10.4,180,Tulsa,Oklahoma,74104
34,Mostly Cloudy,2016-07-03 17:53:00,73.9,,-,67,N/A,29.87,86.0,12:53 PM,,10.0,South,10.4,170,Tulsa,Oklahoma,74104
35,Mostly Cloudy,2016-07-03 18:00:00,73.9,,-,67,N/A,29.87,86.0,1:00 PM,,10.0,South,10.4,190,Tulsa,Oklahoma,74104
36,Mostly Cloudy,2016-07-03 18:38:00,75.0,,-,63,N/A,29.86,89.1,1:38 PM,,10.0,South,10.4,170,Tulsa,Oklahoma,74104
37,Overcast,2016-07-03 18:53:00,73.9,,-,63,N/A,29.86,88.0,1:53 PM,,10.0,South,9.2,170,Tulsa,Oklahoma,74104
38,Overcast,2016-07-03 19:13:00,73.9,,-,61,N/A,29.85,89.1,2:13 PM,,10.0,SSW,11.5,200,Tulsa,Oklahoma,74104
39,Overcast,2016-07-03 19:22:00,73.9,,-,61,N/A,29.85,89.1,2:22 PM,,10.0,South,11.5,180,Tulsa,Oklahoma,74104
40,Overcast,2016-07-03 19:32:00,73.9,,-,61,N/A,29.84,89.1,2:32 PM,,10.0,South,15.0,190,Tulsa,Oklahoma,74104
41,Overcast,2016-07-03 19:42:00,73.9,,-,61,N/A,29.84,89.1,2:42 PM,,10.0,South,11.5,180,Tulsa,Oklahoma,74104
42,Overcast,2016-07-03 19:53:00,73.9,,-,59,N/A,29.85,90.0,2:53 PM,,10.0,South,13.8,180,Tulsa,Oklahoma,74104
43,Mostly Cloudy,2016-07-03 20:53:00,73.9,,-,61,N/A,29.82,89.1,3:53 PM,,10.0,South,12.7,170,Tulsa,Oklahoma,74104
44,Mostly Cloudy,2016-07-03 21:53:00,73.9,,-,61,N/A,29.81,89.1,4:53 PM,,10.0,South,12.7,170,Tulsa,Oklahoma,74104
45,Clear,2016-07-03 22:53:00,75.0,,-,67,N/A,29.82,87.1,5:53 PM,,10.0,South,6.9,180,Tulsa,Oklahoma,74104
46,Mostly Cloudy,2016-07-03 23:15:00,75.0,Thunderstorm,-,67,N/A,29.80,87.1,6:15 PM,,10.0,South,5.8,180,Tulsa,Oklahoma,74104
47,Thunderstorm,2016-07-03 23:26:00,73.9,Thunderstorm,-,65,N/A,29.80,87.1,6:26 PM,,10.0,SSW,4.6,200,Tulsa,Oklahoma,74104
48,Light Thunderstorms and Rain,2016-07-03 23:53:00,75.9,Rain-Thunderstorm,-,82,0.00,29.82,82.0,6:53 PM,,8.0,West,5.8,260,Tulsa,Oklahoma,74104
49,Thunderstorms and Rain,2016-07-04 00:05:00,75.9,Rain-Thunderstorm,19.6,82,0.08,29.83,82.0,7:05 PM,,1.8,WSW,13.8,240,Tulsa,Oklahoma,74104
50,Light Thunderstorms and Rain,2016-07-04 00:23:00,66.9,Rain-Thunderstorm,23.0,71,0.31,29.78,77.0,7:23 PM,,2.0,South,15.0,180,Tulsa,Oklahoma,74104
51,Light Thunderstorms and Rain,2016-07-04 00:30:00,66.9,Rain-Thunderstorm,23.0,74,0.31,29.79,75.9,7:30 PM,,10.0,SW,9.2,220,Tulsa,Oklahoma,74104
52,Thunderstorms and Rain,2016-07-04 00:53:00,70.0,Rain-Thunderstorm,19.6,87,0.34,29.84,73.9,7:53 PM,,4.0,SW,13.8,220,Tulsa,Oklahoma,74104
53,Mostly Cloudy,2016-07-04 01:23:00,66.0,Thunderstorm,-,81,0.00,29.82,72.0,8:23 PM,,10.0,SW,5.8,220,Tulsa,Oklahoma,74104
54,Scattered Clouds,2016-07-04 01:34:00,66.0,,-,81,0.00,29.82,72.0,8:34 PM,,10.0,Calm,Calm,0,Tulsa,Oklahoma,74104
55,Clear,2016-07-04 01:53:00,66.9,,-,87,0.00,29.83,71.1,8:53 PM,,10.0,Calm,Calm,0,Tulsa,Oklahoma,74104
56,Clear,2016-07-04 02:53:00,68.0,Thunderstorm,-,93,N/A,29.83,70.0,9:53 PM,,8.0,Calm,Calm,0,Tulsa,Oklahoma,74104
57,Clear,2016-07-04 03:02:00,68.0,,-,90,N/A,29.83,71.1,10:02 PM,,5.0,Calm,Calm,0,Tulsa,Oklahoma,74104
58,Mostly Cloudy,2016-07-04 03:53:00,69.1,,-,91,N/A,29.86,72.0,10:53 PM,,8.0,Calm,Calm,0,Tulsa,Oklahoma,74104
59,Partly Cloudy,2016-07-04 04:53:00,69.1,,-,91,N/A,29.87,72.0,11:53 PM,,9.0,Calm,Calm,0,Tulsa,Oklahoma,74104
0,Overcast,2016-07-04 05:53:00,68.0,,-,84,N/A,29.87,73.0,12:53 AM,,10.0,SSW,6.9,200,Tulsa,Oklahoma,74104
1,Overcast,2016-07-04 06:53:00,68.0,,-,87,N/A,29.86,72.0,1:53 AM,,10.0,South,5.8,180,Tulsa,Oklahoma,74104
2,Partly Cloudy,2016-07-04 07:53:00,68.0,,-,87,N/A,29.85,72.0,2:53 AM,,10.0,SSW,3.5,200,Tulsa,Oklahoma,74104
3,Overcast,2016-07-04 08:53:00,69.1,,-,93,N/A,29.86,71.1,3:53 AM,,10.0,Calm,Calm,0,Tulsa,Oklahoma,74104
4,Mostly Cloudy,2016-07-04 09:53:00,69.1,,-,91,N/A,29.86,72.0,4:53 AM,,10.0,South,4.6,170,Tulsa,Oklahoma,74104
5,Mostly Cloudy,2016-07-04 10:53:00,69.1,,-,91,N/A,29.86,72.0,5:53 AM,,10.0,South,4.6,170,Tulsa,Oklahoma,74104
6,Mostly Cloudy,2016-07-04 11:21:00,69.1,,-,91,N/A,29.85,72.0,6:21 AM,,10.0,South,3.5,180,Tulsa,Oklahoma,74104
7,Mostly Cloudy,2016-07-04 11:40:00,69.1,,-,91,N/A,29.86,72.0,6:40 AM,,10.0,South,4.6,190,Tulsa,Oklahoma,74104
8,Mostly Cloudy,2016-07-04 11:53:00,69.1,,-,91,N/A,29.88,72.0,6:53 AM,,10.0,SW,3.5,220,Tulsa,Oklahoma,74104
9,Mostly Cloudy,2016-07-04 12:05:00,69.1,,-,87,N/A,29.87,73.0,7:05 AM,,10.0,Calm,Calm,0,Tulsa,Oklahoma,74104
10,Scattered Clouds,2016-07-04 12:53:00,70.0,,-,87,N/A,29.90,73.9,7:53 AM,,10.0,SSW,3.5,200,Tulsa,Oklahoma,74104
11,Mostly Cloudy,2016-07-04 13:28:00,70.0,,-,87,N/A,29.88,73.9,8:28 AM,,10.0,Calm,Calm,0,Tulsa,Oklahoma,74104
12,Overcast,2016-07-04 13:53:00,71.1,,-,87,N/A,29.91,75.0,8:53 AM,,10.0,SSW,3.5,210,Tulsa,Oklahoma,74104
13,Scattered Clouds,2016-07-04 14:39:00,72.0,,-,81,N/A,29.90,78.1,9:39 AM,,10.0,Variable,4.6,0,Tulsa,Oklahoma,74104
14,Mostly Cloudy,2016-07-04 14:48:00,71.6,,-,78,N/A,29.90,78.8,9:48 AM,,10.0,WSW,5.8,240,Tulsa,Oklahoma,74104
15,Mostly Cloudy,2016-07-04 14:53:00,72.0,,-,81,N/A,29.91,78.1,9:53 AM,,10.0,Variable,4.6,0,Tulsa,Oklahoma,74104
16,Overcast,2016-07-04 15:53:00,72.0,,-,76,N/A,29.91,80.1,10:53 AM,,10.0,Calm,Calm,0,Tulsa,Oklahoma,74104
17,Mostly Cloudy,2016-07-04 16:18:00,73.0,,-,77,N/A,29.90,81.0,11:18 AM,,10.0,Calm,Calm,0,Tulsa,Oklahoma,74104
18,Mostly Cloudy,2016-07-04 16:53:00,73.9,,-,72,N/A,29.92,84.0,11:53 AM,,10.0,WNW,5.8,290,Tulsa,Oklahoma,74104
19,Scattered Clouds,2016-07-04 17:34:00,73.0,,-,65,N/A,29.91,86.0,12:34 PM,,10.0,Variable,3.5,0,Tulsa,Oklahoma,74104
20,Clear,2016-07-04 17:53:00,73.0,,-,67,N/A,29.92,84.9,12:53 PM,,10.0,Calm,Calm,0,Tulsa,Oklahoma,74104
21,Scattered Clouds,2016-07-04 18:53:00,72.0,,-,59,N/A,29.91,88.0,1:53 PM,,10.0,West,3.5,280,Tulsa,Oklahoma,74104
22,Scattered Clouds,2016-07-04 19:53:00,73.0,,-,59,N/A,29.90,89.1,2:53 PM,,10.0,Variable,4.6,0,Tulsa,Oklahoma,74104
23,Partly Cloudy,2016-07-04 20:53:00,73.0,,-,54,N/A,29.88,91.9,3:53 PM,,10.0,Variable,4.6,0,Tulsa,Oklahoma,74104
24,Clear,2016-07-04 21:53:00,71.1,,-,50,N/A,29.87,91.9,4:53 PM,,10.0,SW,4.6,230,Tulsa,Oklahoma,74104
25,Clear,2016-07-04 22:53:00,69.1,,-,47,N/A,29.86,91.9,5:53 PM,,10.0,Variable,3.5,0,Tulsa,Oklahoma,74104
26,Clear,2016-07-04 23:53:00,73.0,,-,55,N/A,29.84,91.0,6:53 PM,,10.0,SW,4.6,230,Tulsa,Oklahoma,74104
27,Partly Cloudy,2016-07-05 00:53:00,73.0,,-,55,N/A,29.85,91.0,7:53 PM,,10.0,South,5.8,180,Tulsa,Oklahoma,74104
28,Clear,2016-07-05 01:53:00,73.9,,-,72,N/A,29.86,84.0,8:53 PM,,10.0,South,4.6,170,Tulsa,Oklahoma,74104
29,Partly Cloudy,2016-07-05 02:53:00,75.0,,-,70,N/A,29.87,86.0,9:53 PM,,10.0,South,8.1,190,Tulsa,Oklahoma,74104
30,Clear,2016-07-05 03:53:00,75.0,,-,74,N/A,29.88,84.0,10:53 PM,,10.0,SSW,5.8,200,Tulsa,Oklahoma,74104
31,Clear,2016-07-05 04:53:00,75.0,,-,77,N/A,29.88,82.9,11:53 PM,,10.0,South,4.6,180,Tulsa,Oklahoma,74104
0,Clear,2016-07-05 05:53:00,75.0,,-,85,N/A,29.88,80.1,12:53 AM,,9.0,South,4.6,180,Tulsa,Oklahoma,74104
1,Clear,2016-07-05 06:53:00,75.0,,-,85,N/A,29.87,80.1,1:53 AM,,10.0,South,3.5,180,Tulsa,Oklahoma,74104
2,Clear,2016-07-05 07:53:00,73.9,,-,94,N/A,29.87,75.9,2:53 AM,,7.0,SSW,3.5,200,Tulsa,Oklahoma,74104
3,Clear,2016-07-05 08:53:00,73.9,,-,84,N/A,29.88,79.0,3:53 AM,,10.0,South,6.9,180,Tulsa,Oklahoma,74104
4,Clear,2016-07-05 09:53:00,73.9,,-,87,N/A,29.88,78.1,4:53 AM,,10.0,South,4.6,190,Tulsa,Oklahoma,74104
5,Clear,2016-07-05 10:53:00,73.9,,-,94,N/A,29.89,75.9,5:53 AM,,8.0,Calm,Calm,0,Tulsa,Oklahoma,74104
6,Clear,2016-07-05 11:53:00,73.9,,-,87,N/A,29.89,78.1,6:53 AM,,8.0,South,4.6,180,Tulsa,Oklahoma,74104
7,Clear,2016-07-05 12:53:00,75.0,,-,88,N/A,29.90,79.0,7:53 AM,,10.0,South,4.6,190,Tulsa,Oklahoma,74104
8,Clear,2016-07-05 13:53:00,75.0,,-,77,N/A,29.90,82.9,8:53 AM,,10.0,South,9.2,180,Tulsa,Oklahoma,74104
9,Clear,2016-07-05 14:53:00,73.9,,-,65,N/A,29.90,87.1,9:53 AM,,10.0,South,8.1,170,Tulsa,Oklahoma,74104
10,Clear,2016-07-05 15:53:00,73.9,,-,57,N/A,29.89,91.0,10:53 AM,,10.0,South,9.2,190,Tulsa,Oklahoma,74104
11,Clear,2016-07-05 16:53:00,73.9,,-,55,N/A,29.89,91.9,11:53 AM,,10.0,South,12.7,180,Tulsa,Oklahoma,74104
12,Clear,2016-07-05 17:53:00,73.0,,-,54,N/A,29.90,91.9,12:53 PM,,10.0,South,11.5,180,Tulsa,Oklahoma,74104
13,Clear,2016-07-05 18:53:00,73.9,,-,52,N/A,29.88,93.9,1:53 PM,,10.0,South,10.4,190,Tulsa,Oklahoma,74104
14,Clear,2016-07-05 19:53:00,72.0,,-,46,N/A,29.86,96.1,2:53 PM,,10.0,SSW,11.5,200,Tulsa,Oklahoma,74104
15,Clear,2016-07-05 20:53:00,71.1,,-,43,N/A,29.85,97.0,3:53 PM,,10.0,South,13.8,180,Tulsa,Oklahoma,74104
16,Clear,2016-07-05 21:53:00,70.0,,-,41,N/A,29.84,97.0,4:53 PM,,10.0,SSW,12.7,200,Tulsa,Oklahoma,74104
17,Clear,2016-07-05 22:53:00,70.0,,-,43,N/A,29.83,96.1,5:53 PM,,10.0,South,13.8,170,Tulsa,Oklahoma,74104
18,Clear,2016-07-05 23:53:00,71.1,,21.9,47,N/A,29.82,93.9,6:53 PM,,10.0,South,11.5,180,Tulsa,Oklahoma,74104
19,Clear,2016-07-06 00:53:00,73.0,,-,54,N/A,29.82,91.9,7:53 PM,,10.0,South,6.9,170,Tulsa,Oklahoma,74104
20,Clear,2016-07-06 01:53:00,73.0,,-,59,N/A,29.82,89.1,8:53 PM,,10.0,South,8.1,170,Tulsa,Oklahoma,74104
21,Clear,2016-07-06 02:53:00,73.0,,-,61,N/A,29.83,88.0,9:53 PM,,10.0,South,11.5,180,Tulsa,Oklahoma,74104
22,Clear,2016-07-06 03:53:00,73.9,,-,67,N/A,29.86,86.0,10:53 PM,,10.0,South,9.2,170,Tulsa,Oklahoma,74104
23,Clear,2016-07-06 04:53:00,73.0,,-,67,N/A,29.86,84.9,11:53 PM,,10.0,South,9.2,190,Tulsa,Oklahoma,74104
0,Clear,2016-07-06 05:53:00,73.0,,-,67,N/A,29.85,84.9,12:53 AM,,10.0,South,9.2,180,Tulsa,Oklahoma,74104
1,Clear,2016-07-06 06:53:00,73.0,,-,69,N/A,29.84,84.0,1:53 AM,,10.0,South,9.2,190,Tulsa,Oklahoma,74104
2,Clear,2016-07-06 07:53:00,73.0,,-,72,N/A,29.85,82.9,2:53 AM,,10.0,South,9.2,180,Tulsa,Oklahoma,74104
3,Clear,2016-07-06 08:53:00,73.0,,-,74,N/A,29.83,82.0,3:53 AM,,10.0,SSE,5.8,160,Tulsa,Oklahoma,74104
4,Clear,2016-07-06 09:53:00,73.0,,-,77,N/A,29.83,81.0,4:53 AM,,10.0,South,5.8,170,Tulsa,Oklahoma,74104
5,Clear,2016-07-06 10:53:00,73.0,,-,77,N/A,29.84,81.0,5:53 AM,,10.0,South,8.1,180,Tulsa,Oklahoma,74104
6,Clear,2016-07-06 11:53:00,73.0,,-,74,N/A,29.94,82.0,6:53 AM,,10.0,NW,4.6,310,Tulsa,Oklahoma,74104
7,Mostly Cloudy,2016-07-06 12:53:00,75.0,,-,82,0.01,29.94,81.0,7:53 AM,,10.0,Calm,Calm,0,Tulsa,Oklahoma,74104
8,Clear,2016-07-06 13:53:00,75.0,,-,77,N/A,29.92,82.9,8:53 AM,,10.0,South,9.2,170,Tulsa,Oklahoma,74104
9,Clear,2016-07-06 14:53:00,75.0,,23.0,72,N/A,29.86,84.9,9:53 AM,,10.0,South,15.0,180,Tulsa,Oklahoma,74104
10,Clear,2016-07-06 15:53:00,75.0,,23.0,65,N/A,29.87,88.0,10:53 AM,,10.0,South,13.8,180,Tulsa,Oklahoma,74104
11,Clear,2016-07-06 16:53:00,75.0,,25.3,61,N/A,29.87,90.0,11:53 AM,,10.0,SSW,17.3,200,Tulsa,Oklahoma,74104
12,Clear,2016-07-06 17:53:00,75.9,,23.0,61,N/A,29.85,91.0,12:53 PM,,10.0,SSW,11.5,210,Tulsa,Oklahoma,74104
13,Clear,2016-07-06 18:53:00,75.9,,-,54,N/A,29.83,95.0,1:53 PM,,10.0,South,12.7,190,Tulsa,Oklahoma,74104
14,Clear,2016-07-06 19:53:00,75.0,,23.0,52,N/A,29.81,95.0,2:53 PM,,10.0,SSW,13.8,210,Tulsa,Oklahoma,74104
15,Clear,2016-07-06 20:53:00,73.9,,25.3,49,N/A,29.80,96.1,3:53 PM,,10.0,South,17.3,190,Tulsa,Oklahoma,74104
16,Clear,2016-07-06 21:53:00,73.0,,21.9,46,N/A,29.79,97.0,4:53 PM,,10.0,South,17.3,190,Tulsa,Oklahoma,74104
17,Haze,2016-07-06 22:53:00,73.0,,23.0,47,N/A,29.79,96.1,5:53 PM,,6.0,South,11.5,190,Tulsa,Oklahoma,74104
18,Clear,2016-07-06 23:53:00,73.0,,19.6,49,N/A,29.78,95.0,6:53 PM,,10.0,South,13.8,170,Tulsa,Oklahoma,74104
19,Clear,2016-07-07 00:53:00,73.0,,-,52,N/A,29.79,93.0,7:53 PM,,10.0,South,11.5,170,Tulsa,Oklahoma,74104
20,Clear,2016-07-07 01:53:00,73.9,,-,59,N/A,29.79,90.0,8:53 PM,,10.0,South,8.1,170,Tulsa,Oklahoma,74104
21,Clear,2016-07-07 02:53:00,73.0,,-,59,N/A,29.81,89.1,9:53 PM,,10.0,South,10.4,180,Tulsa,Oklahoma,74104
22,Clear,2016-07-07 03:53:00,73.0,,-,61,N/A,29.82,88.0,10:53 PM,,10.0,South,9.2,180,Tulsa,Oklahoma,74104
23,Clear,2016-07-07 04:53:00,72.0,,-,61,N/A,29.83,87.1,11:53 PM,,10.0,South,9.2,180,Tulsa,Oklahoma,74104
0,Clear,2016-07-07 05:53:00,73.0,,-,69,N/A,29.82,84.0,12:53 AM,,10.0,South,11.5,170,Tulsa,Oklahoma,74104
1,Clear,2016-07-07 06:53:00,72.0,,-,67,N/A,29.79,84.0,1:53 AM,,10.0,South,10.4,170,Tulsa,Oklahoma,74104
2,Clear,2016-07-07 07:53:00,71.1,,-,65,N/A,29.76,84.0,2:53 AM,,10.0,South,10.4,170,Tulsa,Oklahoma,74104
3,Clear,2016-07-07 08:53:00,71.1,,25.3,65,N/A,29.74,84.0,3:53 AM,,10.0,South,13.8,180,Tulsa,Oklahoma,74104
4,Clear,2016-07-07 09:53:00,71.1,,20.7,67,N/A,29.75,82.9,4:53 AM,,10.0,South,15.0,190,Tulsa,Oklahoma,74104
5,Clear,2016-07-07 10:53:00,70.0,,-,67,N/A,29.77,82.0,5:53 AM,,10.0,South,11.5,190,Tulsa,Oklahoma,74104
6,Clear,2016-07-07 11:53:00,70.0,,-,69,N/A,29.80,81.0,6:53 AM,,10.0,South,11.5,190,Tulsa,Oklahoma,74104
7,Clear,2016-07-07 12:53:00,70.0,,-,69,N/A,29.81,81.0,7:53 AM,,10.0,South,8.1,180,Tulsa,Oklahoma,74104
8,Clear,2016-07-07 13:53:00,71.1,,20.7,67,N/A,29.83,82.9,8:53 AM,,10.0,SSW,12.7,200,Tulsa,Oklahoma,74104
9,Clear,2016-07-07 14:53:00,72.0,,24.2,61,N/A,29.82,87.1,9:53 AM,,10.0,SSW,16.1,210,Tulsa,Oklahoma,74104
10,Clear,2016-07-07 15:53:00,72.0,,23.0,59,N/A,29.81,88.0,10:53 AM,,10.0,SSW,11.5,200,Tulsa,Oklahoma,74104
11,Clear,2016-07-07 16:53:00,72.0,,17.3,57,N/A,29.86,89.1,11:53 AM,,10.0,SSW,9.2,200,Tulsa,Oklahoma,74104
12,Clear,2016-07-07 17:53:00,73.0,,20.7,57,N/A,29.83,90.0,12:53 PM,,10.0,SSE,12.7,150,Tulsa,Oklahoma,74104
13,Clear,2016-07-07 18:53:00,73.9,,20.7,55,N/A,29.82,91.9,1:53 PM,,10.0,SSE,13.8,150,Tulsa,Oklahoma,74104
14,Clear,2016-07-07 19:53:00,72.0,,28.8,49,N/A,29.79,93.9,2:53 PM,,10.0,South,20.7,170,Tulsa,Oklahoma,74104
15,Clear,2016-07-07 20:53:00,72.0,,27.6,47,N/A,29.79,95.0,3:53 PM,,10.0,South,20.7,170,Tulsa,Oklahoma,74104
16,Clear,2016-07-07 21:53:00,71.1,,23.0,44,N/A,29.78,96.1,4:53 PM,,10.0,South,16.1,180,Tulsa,Oklahoma,74104
17,Clear,2016-07-07 22:53:00,70.0,,28.8,43,N/A,29.78,96.1,5:53 PM,,10.0,South,19.6,180,Tulsa,Oklahoma,74104
18,Clear,2016-07-07 23:53:00,71.1,,24.2,46,N/A,29.77,95.0,6:53 PM,,10.0,South,16.1,190,Tulsa,Oklahoma,74104
19,Clear,2016-07-08 00:53:00,72.0,,21.9,50,N/A,29.80,93.0,7:53 PM,,10.0,South,11.5,190,Tulsa,Oklahoma,74104
20,Clear,2016-07-08 01:53:00,72.0,,-,55,N/A,29.81,90.0,8:53 PM,,10.0,South,11.5,190,Tulsa,Oklahoma,74104
21,Clear,2016-07-08 02:53:00,71.1,,-,57,N/A,29.80,88.0,9:53 PM,,10.0,South,10.4,190,Tulsa,Oklahoma,74104
22,Clear,2016-07-08 03:53:00,71.1,,-,59,N/A,29.82,87.1,10:53 PM,,10.0,South,10.4,190,Tulsa,Oklahoma,74104
23,Clear,2016-07-08 04:53:00,71.1,,-,61,N/A,29.84,86.0,11:53 PM,,10.0,South,4.6,180,Tulsa,Oklahoma,74104
0,Clear,2016-07-08 05:53:00,71.1,,-,63,N/A,29.87,84.9,12:53 AM,,10.0,South,4.6,170,Tulsa,Oklahoma,74104
1,Clear,2016-07-08 06:53:00,72.0,,-,79,N/A,29.89,79.0,1:53 AM,,10.0,Calm,Calm,0,Tulsa,Oklahoma,74104
2,Clear,2016-07-08 07:53:00,73.0,,-,88,N/A,29.89,77.0,2:53 AM,,10.0,NE,4.6,40,Tulsa,Oklahoma,74104
3,Clear,2016-07-08 08:53:00,72.0,,-,76,N/A,29.89,80.1,3:53 AM,,10.0,East,5.8,80,Tulsa,Oklahoma,74104
4,Clear,2016-07-08 09:53:00,72.0,,-,74,N/A,29.93,81.0,4:53 AM,,10.0,ESE,6.9,110,Tulsa,Oklahoma,74104
5,Clear,2016-07-08 10:53:00,72.0,,-,74,N/A,29.92,81.0,5:53 AM,,10.0,SSE,6.9,150,Tulsa,Oklahoma,74104
6,Clear,2016-07-08 11:53:00,72.0,,-,74,N/A,29.95,81.0,6:53 AM,,10.0,South,6.9,170,Tulsa,Oklahoma,74104
7,Mostly Cloudy,2016-07-08 12:53:00,72.0,,-,74,N/A,29.96,81.0,7:53 AM,,10.0,SSW,6.9,200,Tulsa,Oklahoma,74104
8,Mostly Cloudy,2016-07-08 13:53:00,72.0,,-,76,N/A,30.04,80.1,8:53 AM,,10.0,WSW,4.6,250,Tulsa,Oklahoma,74104
9,Thunderstorm,2016-07-08 14:12:00,64.0,Thunderstorm,-,62,0.00,30.02,78.1,9:12 AM,,10.0,North,-9999.0,0,Tulsa,Oklahoma,74104
10,Light Thunderstorms and Rain,2016-07-08 14:53:00,64.0,Rain-Thunderstorm,-,67,0.00,30.02,75.9,9:53 AM,,10.0,SW,4.6,220,Tulsa,Oklahoma,74104
11,Light Thunderstorms and Rain,2016-07-08 15:45:00,66.9,Rain-Thunderstorm,-,87,0.10,30.00,71.1,10:45 AM,,2.5,North,5.8,360,Tulsa,Oklahoma,74104
12,Light Thunderstorms and Rain,2016-07-08 15:53:00,66.9,Rain-Thunderstorm,-,87,0.11,30.00,71.1,10:53 AM,,10.0,SE,8.1,130,Tulsa,Oklahoma,74104
13,Light Rain,2016-07-08 16:16:00,68.0,Rain,-,84,0.01,29.96,73.0,11:16 AM,,10.0,SSE,9.2,150,Tulsa,Oklahoma,74104
14,Light Rain,2016-07-08 16:53:00,68.0,Rain,20.7,84,0.02,30.01,73.0,11:53 AM,,10.0,West,5.8,280,Tulsa,Oklahoma,74104
15,Light Rain,2016-07-08 17:53:00,72.0,Rain,-,84,0.00,30.01,77.0,12:53 PM,,10.0,SSW,8.1,210,Tulsa,Oklahoma,74104
16,Light Rain,2016-07-08 18:53:00,73.0,Rain,-,82,0.00,29.97,79.0,1:53 PM,,10.0,South,10.4,180,Tulsa,Oklahoma,74104
17,Partly Cloudy,2016-07-08 19:18:00,73.9,Thunderstorm,-,76,0.00,29.96,82.0,2:18 PM,,10.0,Variable,4.6,0,Tulsa,Oklahoma,74104
18,Clear,2016-07-08 19:33:00,73.0,,-,74,0.00,29.98,82.0,2:33 PM,,10.0,Variable,3.5,0,Tulsa,Oklahoma,74104
19,Clear,2016-07-08 19:53:00,73.9,,-,76,0.00,29.98,82.0,2:53 PM,,10.0,Variable,3.5,0,Tulsa,Oklahoma,74104
20,Clear,2016-07-08 20:53:00,73.9,,-,67,N/A,29.96,86.0,3:53 PM,,10.0,SSW,12.7,210,Tulsa,Oklahoma,74104
21,Partly Cloudy,2016-07-08 21:53:00,73.0,,-,65,N/A,29.94,86.0,4:53 PM,,10.0,South,8.1,180,Tulsa,Oklahoma,74104
22,Partly Cloudy,2016-07-08 22:53:00,75.0,,-,70,N/A,29.95,86.0,5:53 PM,,10.0,North,3.5,350,Tulsa,Oklahoma,74104
23,Clear,2016-07-08 23:53:00,75.0,,-,72,N/A,29.91,84.9,6:53 PM,,10.0,SE,5.8,140,Tulsa,Oklahoma,74104
24,Overcast,2016-07-09 00:24:00,75.9,,-,76,N/A,29.92,84.0,7:24 PM,,10.0,NE,6.9,40,Tulsa,Oklahoma,74104
25,Overcast,2016-07-09 00:53:00,73.9,,-,72,N/A,29.94,84.0,7:53 PM,,10.0,NE,8.1,50,Tulsa,Oklahoma,74104
26,Overcast,2016-07-09 01:01:00,73.9,,-,72,N/A,29.93,84.0,8:01 PM,,10.0,ENE,5.8,60,Tulsa,Oklahoma,74104
27,Light Rain,2016-07-09 01:53:00,73.9,Rain,-,74,0.00,29.96,82.9,8:53 PM,,10.0,East,5.8,90,Tulsa,Oklahoma,74104
28,Partly Cloudy,2016-07-09 02:53:00,75.0,,-,82,0.00,30.01,81.0,9:53 PM,,10.0,ENE,3.5,70,Tulsa,Oklahoma,74104
29,Clear,2016-07-09 03:53:00,75.0,,-,88,N/A,30.01,79.0,10:53 PM,,10.0,Calm,Calm,0,Tulsa,Oklahoma,74104
30,Clear,2016-07-09 04:53:00,75.0,,-,90,N/A,29.99,78.1,11:53 PM,,10.0,Calm,Calm,0,Tulsa,Oklahoma,74104
0,Clear,2016-07-09 05:53:00,75.0,,-,90,N/A,29.95,78.1,12:53 AM,,10.0,Calm,Calm,0,Tulsa,Oklahoma,74104
1,Clear,2016-07-09 06:53:00,75.0,,-,88,N/A,29.99,79.0,1:53 AM,,10.0,ESE,5.8,110,Tulsa,Oklahoma,74104
2,Partly Cloudy,2016-07-09 07:53:00,75.0,,-,90,N/A,30.00,78.1,2:53 AM,,10.0,Calm,Calm,0,Tulsa,Oklahoma,74104
3,Partly Cloudy,2016-07-09 08:53:00,75.0,,-,90,N/A,30.01,78.1,3:53 AM,,10.0,SSW,4.6,210,Tulsa,Oklahoma,74104
4,Light Rain,2016-07-09 09:33:00,73.9,Rain,-,87,0.00,30.01,78.1,4:33 AM,,10.0,SSE,3.5,160,Tulsa,Oklahoma,74104
5,Light Rain,2016-07-09 09:42:00,73.9,Rain,-,87,0.00,30.00,78.1,4:42 AM,,10.0,South,4.6,170,Tulsa,Oklahoma,74104
6,Light Rain,2016-07-09 09:53:00,73.9,Rain,-,87,0.00,30.00,78.1,4:53 AM,,10.0,Calm,Calm,0,Tulsa,Oklahoma,74104
7,Mostly Cloudy,2016-07-09 10:33:00,75.0,,-,94,0.00,30.01,77.0,5:33 AM,,9.0,SE,3.5,140,Tulsa,Oklahoma,74104
8,Overcast,2016-07-09 10:53:00,75.0,,-,90,0.00,30.02,78.1,5:53 AM,,8.0,South,4.6,170,Tulsa,Oklahoma,74104
9,Scattered Clouds,2016-07-09 11:37:00,73.9,,-,90,N/A,30.01,77.0,6:37 AM,,9.0,East,3.5,80,Tulsa,Oklahoma,74104
10,Mostly Cloudy,2016-07-09 11:44:00,73.9,,-,90,N/A,30.02,77.0,6:44 AM,,10.0,ENE,4.6,70,Tulsa,Oklahoma,74104
11,Partly Cloudy,2016-07-09 11:53:00,73.9,,-,90,N/A,30.03,77.0,6:53 AM,,10.0,Calm,Calm,0,Tulsa,Oklahoma,74104
12,Clear,2016-07-09 12:53:00,73.0,,-,88,N/A,30.04,77.0,7:53 AM,,10.0,ESE,4.6,120,Tulsa,Oklahoma,74104
13,Scattered Clouds,2016-07-09 13:53:00,73.0,,-,82,N/A,30.04,79.0,8:53 AM,,10.0,South,11.5,170,Tulsa,Oklahoma,74104
14,Partly Cloudy,2016-07-09 14:53:00,70.0,,-,76,N/A,30.06,78.1,9:53 AM,,10.0,South,10.4,170,Tulsa,Oklahoma,74104
15,Clear,2016-07-09 15:53:00,70.0,,-,67,N/A,30.07,82.0,10:53 AM,,10.0,SE,6.9,140,Tulsa,Oklahoma,74104
16,Clear,2016-07-09 16:53:00,72.0,,-,65,N/A,30.06,84.9,11:53 AM,,10.0,SSE,8.1,160,Tulsa,Oklahoma,74104
17,Clear,2016-07-09 17:53:00,73.9,,-,63,N/A,30.03,88.0,12:53 PM,,10.0,South,16.1,190,Tulsa,Oklahoma,74104
18,Mostly Cloudy,2016-07-09 18:53:00,73.9,,-,61,N/A,30.02,89.1,1:53 PM,,10.0,SSW,10.4,200,Tulsa,Oklahoma,74104
19,Overcast,2016-07-09 19:29:00,73.9,,-,61,N/A,30.02,89.1,2:29 PM,,10.0,South,11.5,170,Tulsa,Oklahoma,74104
20,Overcast,2016-07-09 19:53:00,73.9,,-,61,N/A,30.02,89.1,2:53 PM,,10.0,SE,11.5,140,Tulsa,Oklahoma,74104
21,Mostly Cloudy,2016-07-09 20:36:00,73.0,Thunderstorm,20.7,65,0.00,30.01,86.0,3:36 PM,,10.0,South,13.8,170,Tulsa,Oklahoma,74104
22,Scattered Clouds,2016-07-09 20:53:00,73.0,Thunderstorm,-,65,0.00,30.02,86.0,3:53 PM,,10.0,South,13.8,170,Tulsa,Oklahoma,74104
23,Clear,2016-07-09 21:36:00,73.0,,-,65,0.00,30.00,86.0,4:36 PM,,10.0,South,9.2,190,Tulsa,Oklahoma,74104
24,Clear,2016-07-09 21:53:00,73.0,,-,63,0.00,30.00,87.1,4:53 PM,,10.0,South,9.2,190,Tulsa,Oklahoma,74104
25,Clear,2016-07-09 22:53:00,73.0,,-,61,N/A,29.97,88.0,5:53 PM,,10.0,South,5.8,180,Tulsa,Oklahoma,74104
26,Clear,2016-07-09 23:53:00,71.1,,-,54,N/A,29.95,90.0,6:53 PM,,10.0,South,10.4,170,Tulsa,Oklahoma,74104
27,Clear,2016-07-10 00:53:00,71.1,,-,59,N/A,29.96,87.1,7:53 PM,,10.0,South,11.5,190,Tulsa,Oklahoma,74104
28,Clear,2016-07-10 01:53:00,71.1,,-,63,N/A,29.98,84.9,8:53 PM,,10.0,SSE,5.8,160,Tulsa,Oklahoma,74104
29,Clear,2016-07-10 02:53:00,70.0,,-,67,N/A,30.00,82.0,9:53 PM,,10.0,SSE,5.8,160,Tulsa,Oklahoma,74104
30,Clear,2016-07-10 03:53:00,72.0,,-,74,N/A,29.99,81.0,10:53 PM,,10.0,South,5.8,170,Tulsa,Oklahoma,74104
31,Clear,2016-07-10 04:53:00,72.0,,-,79,N/A,29.99,79.0,11:53 PM,,10.0,South,6.9,180,Tulsa,Oklahoma,74104
0,Clear,2016-07-10 05:53:00,72.0,,-,90,N/A,30.00,75.0,12:53 AM,,10.0,Calm,Calm,0,Tulsa,Oklahoma,74104
1,Clear,2016-07-10 06:53:00,71.1,,-,87,N/A,30.00,75.0,1:53 AM,,10.0,East,3.5,100,Tulsa,Oklahoma,74104
2,Clear,2016-07-10 07:53:00,71.1,,-,91,N/A,29.97,73.9,2:53 AM,,10.0,SSW,3.5,210,Tulsa,Oklahoma,74104
3,Clear,2016-07-10 08:53:00,70.0,,-,93,N/A,29.96,72.0,3:53 AM,,8.0,Calm,Calm,0,Tulsa,Oklahoma,74104
4,Clear,2016-07-10 09:53:00,71.1,,-,91,N/A,29.96,73.9,4:53 AM,,10.0,South,3.5,170,Tulsa,Oklahoma,74104
5,Clear,2016-07-10 10:53:00,70.0,,-,93,N/A,29.99,72.0,5:53 AM,,10.0,ESE,5.8,110,Tulsa,Oklahoma,74104
6,Partly Cloudy,2016-07-10 11:05:00,71.1,,-,91,N/A,29.98,73.9,6:05 AM,,10.0,Calm,Calm,0,Tulsa,Oklahoma,74104
7,Clear,2016-07-10 11:53:00,71.1,,-,93,N/A,29.99,73.0,6:53 AM,,10.0,ESE,3.5,120,Tulsa,Oklahoma,74104
8,Partly Cloudy,2016-07-10 12:09:00,72.0,,-,90,N/A,29.99,75.0,7:09 AM,,10.0,SE,3.5,140,Tulsa,Oklahoma,74104
9,Clear,2016-07-10 15:53:00,72.0,,-,61,N/A,29.97,87.1,10:53 AM,,10.0,South,12.7,180,Tulsa,Oklahoma,74104
10,Clear,2016-07-10 16:53:00,71.1,,-,54,N/A,29.96,90.0,11:53 AM,,10.0,South,9.2,190,Tulsa,Oklahoma,74104
11,Clear,2016-07-10 17:53:00,69.1,,-,47,N/A,29.94,91.9,12:53 PM,,10.0,South,10.4,170,Tulsa,Oklahoma,74104
12,Clear,2016-07-10 18:53:00,70.0,,-,46,N/A,29.92,93.9,1:53 PM,,10.0,South,11.5,180,Tulsa,Oklahoma,74104
13,Scattered Clouds,2016-07-10 19:53:00,72.0,,-,47,N/A,29.89,95.0,2:53 PM,,10.0,South,11.5,180,Tulsa,Oklahoma,74104
14,Partly Cloudy,2016-07-10 20:53:00,71.1,,18.4,46,N/A,29.88,95.0,3:53 PM,,10.0,South,12.7,190,Tulsa,Oklahoma,74104
15,Clear,2016-07-10 21:53:00,71.1,,-,47,N/A,29.86,93.9,4:53 PM,,10.0,South,11.5,180,Tulsa,Oklahoma,74104
16,Clear,2016-07-10 22:53:00,70.0,,-,44,N/A,29.84,95.0,5:53 PM,,10.0,SSE,9.2,160,Tulsa,Oklahoma,74104
17,Clear,2016-07-10 23:53:00,71.1,,-,49,N/A,29.84,93.0,6:53 PM,,10.0,South,12.7,170,Tulsa,Oklahoma,74104
18,Clear,2016-07-11 00:53:00,72.0,,-,53,N/A,29.84,91.0,7:53 PM,,10.0,South,10.4,170,Tulsa,Oklahoma,74104
19,Clear,2016-07-11 01:53:00,72.0,,-,57,N/A,29.85,89.1,8:53 PM,,10.0,SSE,6.9,160,Tulsa,Oklahoma,74104
20,Clear,2016-07-11 02:53:00,72.0,,-,61,N/A,29.86,87.1,9:53 PM,,10.0,SSE,6.9,160,Tulsa,Oklahoma,74104
21,Clear,2016-07-11 03:53:00,72.0,,-,67,N/A,29.89,84.0,10:53 PM,,10.0,SE,11.5,140,Tulsa,Oklahoma,74104
22,Clear,2016-07-11 04:53:00,71.1,,18.4,69,N/A,29.89,82.0,11:53 PM,,10.0,SSE,9.2,150,Tulsa,Oklahoma,74104
0,Clear,2016-07-11 05:53:00,70.0,,-,71,N/A,29.88,80.1,12:53 AM,,10.0,South,8.1,170,Tulsa,Oklahoma,74104
1,Clear,2016-07-11 06:53:00,70.0,,-,74,N/A,29.86,79.0,1:53 AM,,10.0,South,8.1,170,Tulsa,Oklahoma,74104
2,Clear,2016-07-11 07:53:00,70.0,,-,76,N/A,29.86,78.1,2:53 AM,,10.0,SSE,4.6,160,Tulsa,Oklahoma,74104
3,Clear,2016-07-11 08:53:00,69.1,,-,76,N/A,29.86,77.0,3:53 AM,,10.0,South,5.8,180,Tulsa,Oklahoma,74104
4,Clear,2016-07-11 09:53:00,70.0,,-,82,N/A,29.86,75.9,4:53 AM,,10.0,SSE,5.8,160,Tulsa,Oklahoma,74104
5,Clear,2016-07-11 10:53:00,70.0,,-,82,N/A,29.86,75.9,5:53 AM,,10.0,SSE,5.8,160,Tulsa,Oklahoma,74104
6,Clear,2016-07-11 11:53:00,70.0,,-,82,N/A,29.88,75.9,6:53 AM,,10.0,SSE,5.8,160,Tulsa,Oklahoma,74104
7,Clear,2016-07-11 12:53:00,71.1,,-,79,N/A,29.89,78.1,7:53 AM,,10.0,SSE,10.4,160,Tulsa,Oklahoma,74104
8,Clear,2016-07-11 13:53:00,71.1,,20.7,69,N/A,29.89,82.0,8:53 AM,,10.0,South,16.1,170,Tulsa,Oklahoma,74104
9,Clear,2016-07-11 14:53:00,71.1,,23.0,65,N/A,29.88,84.0,9:53 AM,,10.0,South,17.3,170,Tulsa,Oklahoma,74104
10,Partly Cloudy,2016-07-11 15:53:00,72.0,,-,61,N/A,29.88,87.1,10:53 AM,,10.0,South,17.3,190,Tulsa,Oklahoma,74104
11,Mostly Cloudy,2016-07-11 16:53:00,73.0,,-,57,N/A,29.88,90.0,11:53 AM,,10.0,South,13.8,180,Tulsa,Oklahoma,74104
12,Clear,2016-07-11 17:53:00,73.0,,24.2,55,N/A,29.86,91.0,12:53 PM,,10.0,South,13.8,170,Tulsa,Oklahoma,74104
13,Clear,2016-07-11 18:53:00,73.0,,27.6,52,N/A,29.80,93.0,1:53 PM,,10.0,South,17.3,170,Tulsa,Oklahoma,74104
14,Clear,2016-07-11 19:53:00,73.0,,28.8,52,N/A,29.78,93.0,2:53 PM,,10.0,South,20.7,170,Tulsa,Oklahoma,74104
15,Partly Cloudy,2016-07-11 20:53:00,73.0,,26.5,51,N/A,29.79,93.9,3:53 PM,,10.0,South,17.3,170,Tulsa,Oklahoma,74104
16,Partly Cloudy,2016-07-11 21:53:00,73.0,,24.2,52,N/A,29.78,93.0,4:53 PM,,10.0,South,18.4,170,Tulsa,Oklahoma,74104
17,Clear,2016-07-11 22:53:00,73.0,,24.2,52,N/A,29.77,93.0,5:53 PM,,10.0,South,12.7,170,Tulsa,Oklahoma,74104
18,Clear,2016-07-11 23:53:00,73.0,,24.2,55,N/A,29.76,91.0,6:53 PM,,10.0,South,12.7,170,Tulsa,Oklahoma,74104
19,Clear,2016-07-12 00:53:00,73.0,,-,57,N/A,29.77,90.0,7:53 PM,,10.0,South,12.7,170,Tulsa,Oklahoma,74104
20,Clear,2016-07-12 01:53:00,73.0,,-,61,N/A,29.78,88.0,8:53 PM,,10.0,South,8.1,170,Tulsa,Oklahoma,74104
21,Clear,2016-07-12 02:53:00,73.0,,-,63,N/A,29.79,87.1,9:53 PM,,10.0,South,8.1,170,Tulsa,Oklahoma,74104
22,Clear,2016-07-12 03:53:00,73.0,,-,65,N/A,29.80,86.0,10:53 PM,,10.0,South,11.5,170,Tulsa,Oklahoma,74104
23,Clear,2016-07-12 04:53:00,71.1,,-,63,N/A,29.79,84.9,11:53 PM,,10.0,South,11.5,170,Tulsa,Oklahoma,74104
0,Clear,2016-07-12 05:53:00,69.1,,-,59,N/A,29.79,84.9,12:53 AM,,10.0,South,10.4,170,Tulsa,Oklahoma,74104
1,Partly Cloudy,2016-07-12 06:53:00,68.0,,-,57,N/A,29.80,84.9,1:53 AM,,10.0,South,9.2,170,Tulsa,Oklahoma,74104
2,Clear,2016-07-12 07:53:00,66.9,,-,56,N/A,29.81,84.0,2:53 AM,,10.0,South,10.4,180,Tulsa,Oklahoma,74104
3,Clear,2016-07-12 08:53:00,66.9,,-,56,N/A,29.80,84.0,3:53 AM,,10.0,South,15.0,180,Tulsa,Oklahoma,74104
4,Clear,2016-07-12 09:53:00,66.9,,23.0,58,N/A,29.79,82.9,4:53 AM,,10.0,South,11.5,180,Tulsa,Oklahoma,74104
5,Clear,2016-07-12 10:53:00,66.9,,-,60,N/A,29.81,82.0,5:53 AM,,10.0,South,16.1,180,Tulsa,Oklahoma,74104
6,Light Rain,2016-07-12 11:53:00,68.0,Rain,-,65,0.00,29.83,81.0,6:53 AM,,10.0,South,11.5,180,Tulsa,Oklahoma,74104
7,Light Thunderstorms and Rain,2016-07-12 12:06:00,68.0,Rain-Thunderstorm,-,67,0.00,29.82,80.1,7:06 AM,,10.0,South,15.0,180,Tulsa,Oklahoma,74104
8,Clear,2016-07-12 12:21:00,66.9,,24.2,62,0.00,29.82,81.0,7:21 AM,,10.0,South,17.3,190,Tulsa,Oklahoma,74104
9,Clear,2016-07-12 12:53:00,68.0,,25.3,67,0.03,29.84,80.1,7:53 AM,,-9999.0,South,16.1,180,Tulsa,Oklahoma,74104
10,Thunderstorm,2016-07-12 13:48:00,69.8,Thunderstorm,-,70,N/A,29.94,80.6,8:48 AM,,10.0,NNE,10.4,20,Tulsa,Oklahoma,74104
11,Thunderstorm,2016-07-12 13:53:00,69.1,Thunderstorm,-,67,N/A,29.94,81.0,8:53 AM,,10.0,NNE,9.2,30,Tulsa,Oklahoma,74104
12,Light Thunderstorms and Rain,2016-07-12 14:53:00,70.0,Rain-Thunderstorm,-,74,0.01,29.96,79.0,9:53 AM,,10.0,East,5.8,90,Tulsa,Oklahoma,74104
13,Light Rain,2016-07-12 15:10:00,71.1,Rain-Thunderstorm,-,77,0.00,29.96,79.0,10:10 AM,,10.0,ENE,4.6,70,Tulsa,Oklahoma,74104
14,Light Thunderstorms and Rain,2016-07-12 15:21:00,71.1,Rain-Thunderstorm,-,79,0.00,29.96,78.1,10:21 AM,,9.0,East,5.8,100,Tulsa,Oklahoma,74104
15,Light Rain,2016-07-12 15:36:00,71.1,Rain,-,79,0.00,29.95,78.1,10:36 AM,,10.0,East,9.2,100,Tulsa,Oklahoma,74104
16,Light Rain,2016-07-12 15:46:00,70.0,Rain-Thunderstorm,-,79,0.00,29.95,77.0,10:46 AM,,10.0,ESE,9.2,110,Tulsa,Oklahoma,74104
17,Thunderstorm,2016-07-12 15:53:00,70.0,Thunderstorm,-,76,0.00,29.96,78.1,10:53 AM,,10.0,East,9.2,100,Tulsa,Oklahoma,74104
18,Clear,2016-07-12 16:08:00,71.1,Thunderstorm,-,79,N/A,29.95,78.1,11:08 AM,,10.0,East,11.5,100,Tulsa,Oklahoma,74104
19,Partly Cloudy,2016-07-12 16:23:00,71.1,,20.7,79,N/A,29.94,78.1,11:23 AM,,10.0,ESE,12.7,120,Tulsa,Oklahoma,74104
20,Light Thunderstorms and Rain,2016-07-12 16:39:00,71.1,Rain-Thunderstorm,19.6,77,0.00,29.93,79.0,11:39 AM,,10.0,SE,11.5,140,Tulsa,Oklahoma,74104
21,Heavy Thunderstorms and Rain,2016-07-12 16:53:00,71.1,Rain-Thunderstorm,18.4,79,0.07,29.94,78.1,11:53 AM,,4.0,SE,11.5,140,Tulsa,Oklahoma,74104
22,Heavy Thunderstorms and Rain,2016-07-12 17:02:00,72.0,Rain-Thunderstorm,-,81,0.13,29.92,78.1,12:02 PM,,2.0,SE,12.7,140,Tulsa,Oklahoma,74104
23,Light Rain,2016-07-12 17:12:00,72.0,Rain,21.9,81,0.13,29.92,78.1,12:12 PM,,8.0,SSE,9.2,160,Tulsa,Oklahoma,74104
24,Light Rain,2016-07-12 17:14:00,72.0,Rain-Thunderstorm,-,81,0.13,29.92,78.1,12:14 PM,,10.0,SSE,11.5,150,Tulsa,Oklahoma,74104
25,Partly Cloudy,2016-07-12 17:34:00,73.0,,18.4,77,0.13,29.89,81.0,12:34 PM,,10.0,SSE,11.5,150,Tulsa,Oklahoma,74104
26,Light Rain,2016-07-12 17:53:00,73.0,Rain,19.6,77,0.13,29.90,81.0,12:53 PM,,10.0,SSE,11.5,160,Tulsa,Oklahoma,74104
27,Clear,2016-07-12 18:53:00,72.0,,25.3,59,0.00,29.89,88.0,1:53 PM,,10.0,South,15.0,170,Tulsa,Oklahoma,74104
28,Clear,2016-07-12 19:53:00,72.0,,32.2,53,N/A,29.85,91.0,2:53 PM,,10.0,South,16.1,170,Tulsa,Oklahoma,74104
29,Partly Cloudy,2016-07-12 20:53:00,72.0,,27.6,50,N/A,29.84,93.0,3:53 PM,,10.0,South,20.7,180,Tulsa,Oklahoma,74104
30,Clear,2016-07-12 21:53:00,71.1,,-,47,N/A,29.83,93.9,4:53 PM,,10.0,South,11.5,190,Tulsa,Oklahoma,74104
31,Clear,2016-07-12 22:53:00,70.0,,23.0,46,N/A,29.82,93.9,5:53 PM,,10.0,South,16.1,190,Tulsa,Oklahoma,74104
32,Clear,2016-07-12 23:53:00,70.0,,-,46,N/A,29.81,93.9,6:53 PM,,10.0,South,11.5,180,Tulsa,Oklahoma,74104
33,Clear,2016-07-13 00:53:00,68.0,,-,47,N/A,29.82,91.0,7:53 PM,,10.0,South,13.8,190,Tulsa,Oklahoma,74104
34,Clear,2016-07-13 01:53:00,68.0,,-,53,N/A,29.85,87.1,8:53 PM,,10.0,SSW,6.9,200,Tulsa,Oklahoma,74104
35,Clear,2016-07-13 02:53:00,69.1,,-,63,N/A,29.88,82.9,9:53 PM,,10.0,South,3.5,190,Tulsa,Oklahoma,74104
36,Clear,2016-07-13 03:53:00,70.0,,-,63,N/A,29.91,84.0,10:53 PM,,10.0,South,4.6,170,Tulsa,Oklahoma,74104
37,Clear,2016-07-13 04:53:00,70.0,,-,65,N/A,29.91,82.9,11:53 PM,,10.0,SSE,4.6,160,Tulsa,Oklahoma,74104
0,Clear,2016-07-13 05:53:00,70.0,,-,69,N/A,29.91,81.0,12:53 AM,,10.0,SSE,5.8,150,Tulsa,Oklahoma,74104
1,Clear,2016-07-13 06:53:00,70.0,,-,69,N/A,29.90,81.0,1:53 AM,,10.0,South,5.8,170,Tulsa,Oklahoma,74104
2,Clear,2016-07-13 07:53:00,69.1,,-,67,N/A,29.89,81.0,2:53 AM,,10.0,South,6.9,170,Tulsa,Oklahoma,74104
3,Clear,2016-07-13 08:53:00,69.1,,-,69,N/A,29.88,80.1,3:53 AM,,10.0,SSE,5.8,150,Tulsa,Oklahoma,74104
4,Clear,2016-07-13 09:53:00,69.1,,-,69,N/A,29.88,80.1,4:53 AM,,10.0,SSE,5.8,160,Tulsa,Oklahoma,74104
5,Clear,2016-07-13 10:53:00,69.1,,-,72,N/A,29.89,79.0,5:53 AM,,10.0,SSE,5.8,160,Tulsa,Oklahoma,74104
6,Clear,2016-07-13 11:53:00,70.0,,-,71,N/A,29.90,80.1,6:53 AM,,10.0,South,8.1,180,Tulsa,Oklahoma,74104
7,Clear,2016-07-13 12:53:00,70.0,,20.7,65,N/A,29.91,82.9,7:53 AM,,10.0,South,11.5,190,Tulsa,Oklahoma,74104
8,Clear,2016-07-13 13:53:00,71.1,,21.9,65,N/A,29.94,84.0,8:53 AM,,10.0,South,13.8,190,Tulsa,Oklahoma,74104
9,Clear,2016-07-13 14:53:00,72.0,,21.9,61,N/A,29.93,87.1,9:53 AM,,10.0,South,13.8,190,Tulsa,Oklahoma,74104
10,Clear,2016-07-13 15:53:00,72.0,,24.2,57,N/A,29.91,89.1,10:53 AM,,10.0,South,15.0,190,Tulsa,Oklahoma,74104
11,Clear,2016-07-13 16:53:00,72.0,,29.9,52,N/A,29.91,91.9,11:53 AM,,10.0,SSW,16.1,200,Tulsa,Oklahoma,74104
12,Partly Cloudy,2016-07-13 17:53:00,72.0,,18.4,53,N/A,29.94,91.0,12:53 PM,,10.0,SSW,10.4,200,Tulsa,Oklahoma,74104
13,Clear,2016-07-13 18:53:00,72.0,,23.0,49,N/A,29.89,93.9,1:53 PM,,10.0,South,17.3,170,Tulsa,Oklahoma,74104
14,Partly Cloudy,2016-07-13 19:53:00,72.0,,27.6,47,N/A,29.86,95.0,2:53 PM,,10.0,South,16.1,170,Tulsa,Oklahoma,74104
15,Clear,2016-07-13 20:53:00,70.0,,28.8,41,N/A,29.83,97.0,3:53 PM,,10.0,South,18.4,190,Tulsa,Oklahoma,74104
16,Clear,2016-07-13 21:53:00,71.1,,24.2,44,N/A,29.83,96.1,4:53 PM,,10.0,SSW,17.3,200,Tulsa,Oklahoma,74104
17,Clear,2016-07-13 22:53:00,72.0,,20.7,47,N/A,29.85,95.0,5:53 PM,,10.0,SW,15.0,220,Tulsa,Oklahoma,74104
18,Clear,2016-07-13 23:53:00,73.0,,-,54,N/A,29.86,91.9,6:53 PM,,10.0,SSW,9.2,210,Tulsa,Oklahoma,74104
19,Clear,2016-07-14 00:53:00,72.0,,20.7,52,N/A,29.87,91.9,7:53 PM,,10.0,SSW,10.4,200,Tulsa,Oklahoma,74104
20,Mostly Cloudy,2016-07-14 01:53:00,72.0,,-,53,N/A,29.88,91.0,8:53 PM,,10.0,South,6.9,180,Tulsa,Oklahoma,74104
21,Clear,2016-07-14 02:53:00,72.0,,-,57,N/A,29.89,89.1,9:53 PM,,10.0,South,9.2,180,Tulsa,Oklahoma,74104
22,Clear,2016-07-14 03:53:00,71.1,,-,55,N/A,29.92,89.1,10:53 PM,,10.0,South,5.8,190,Tulsa,Oklahoma,74104
23,Clear,2016-07-14 04:53:00,72.0,,-,61,N/A,29.92,87.1,11:53 PM,,10.0,South,4.6,190,Tulsa,Oklahoma,74104
0,Thunderstorm,2016-07-14 05:53:00,72.0,Thunderstorm,-,61,N/A,29.91,87.1,12:53 AM,,10.0,South,6.9,190,Tulsa,Oklahoma,74104
1,Heavy Thunderstorms and Rain,2016-07-14 06:53:00,62.1,Rain-Thunderstorm,38.0,73,0.14,30.01,71.1,1:53 AM,,3.0,SW,18.4,230,Tulsa,Oklahoma,74104
2,Heavy Thunderstorms and Rain,2016-07-14 06:57:00,62.1,Rain-Thunderstorm,38.0,78,0.08,30.00,69.1,1:57 AM,,2.5,SSW,18.4,210,Tulsa,Oklahoma,74104
3,Thunderstorms and Rain,2016-07-14 07:13:00,62.1,Rain-Thunderstorm,24.2,76,0.19,29.96,70.0,2:13 AM,,6.0,SW,11.5,230,Tulsa,Oklahoma,74104
4,Mostly Cloudy,2016-07-14 07:44:00,61.0,Thunderstorm,20.7,60,0.19,29.94,75.9,2:44 AM,,10.0,WSW,10.4,250,Tulsa,Oklahoma,74104
5,Light Rain,2016-07-14 07:53:00,61.0,Rain-Thunderstorm,26.5,60,0.19,29.94,75.9,2:53 AM,,10.0,SW,16.1,230,Tulsa,Oklahoma,74104
6,Light Thunderstorms and Rain,2016-07-14 08:00:00,55.0,Rain-Thunderstorm,32.2,35,0.00,29.92,86.0,3:00 AM,,10.0,WSW,18.4,240,Tulsa,Oklahoma,74104
7,Light Rain,2016-07-14 08:15:00,51.1,Rain-Thunderstorm,25.3,25,0.00,29.94,91.9,3:15 AM,,10.0,South,17.3,190,Tulsa,Oklahoma,74104
8,Light Thunderstorms and Rain,2016-07-14 08:22:00,54.0,Rain-Thunderstorm,26.5,30,0.00,29.92,89.1,3:22 AM,,10.0,ESE,11.5,110,Tulsa,Oklahoma,74104
9,Light Rain,2016-07-14 08:42:00,55.0,Rain-Thunderstorm,25.3,37,0.01,29.90,84.0,3:42 AM,,10.0,North,12.7,360,Tulsa,Oklahoma,74104
10,Light Rain,2016-07-14 08:53:00,54.0,Rain,24.2,34,0.01,29.91,84.9,3:53 AM,,10.0,NNE,13.8,20,Tulsa,Oklahoma,74104
11,Light Rain,2016-07-14 09:20:00,57.0,Rain,-,42,0.00,29.84,82.0,4:20 AM,,10.0,ESE,16.1,120,Tulsa,Oklahoma,74104
12,Scattered Clouds,2016-07-14 09:31:00,54.0,,20.7,33,0.00,29.82,86.0,4:31 AM,,10.0,SSW,11.5,200,Tulsa,Oklahoma,74104
13,Partly Cloudy,2016-07-14 09:53:00,55.0,,-,37,0.00,29.85,84.0,4:53 AM,,10.0,SW,8.1,220,Tulsa,Oklahoma,74104
14,Clear,2016-07-14 10:53:00,59.0,,-,57,N/A,29.94,75.0,5:53 AM,,10.0,NE,9.2,50,Tulsa,Oklahoma,74104
15,Clear,2016-07-14 11:53:00,61.0,,-,66,N/A,29.97,73.0,6:53 AM,,10.0,Calm,Calm,0,Tulsa,Oklahoma,74104
16,Clear,2016-07-14 12:53:00,66.9,,-,71,N/A,29.97,77.0,7:53 AM,,10.0,Calm,Calm,0,Tulsa,Oklahoma,74104
17,Clear,2016-07-14 13:53:00,63.0,,-,51,N/A,29.99,82.9,8:53 AM,,10.0,Calm,Calm,0,Tulsa,Oklahoma,74104
18,Clear,2016-07-14 14:53:00,66.9,,-,53,N/A,29.99,86.0,9:53 AM,,10.0,South,4.6,190,Tulsa,Oklahoma,74104
19,Clear,2016-07-14 15:53:00,72.0,,-,59,N/A,29.99,88.0,10:53 AM,,10.0,South,10.4,180,Tulsa,Oklahoma,74104
20,Mostly Cloudy,2016-07-14 16:53:00,73.0,,-,63,N/A,30.01,87.1,11:53 AM,,10.0,South,6.9,170,Tulsa,Oklahoma,74104
21,Mostly Cloudy,2016-07-14 17:16:00,73.9,Thunderstorm,-,69,N/A,30.00,84.9,12:16 PM,,10.0,Calm,Calm,0,Tulsa,Oklahoma,74104
22,Light Thunderstorms and Rain,2016-07-14 17:23:00,75.9,Rain-Thunderstorm,-,79,0.02,30.02,82.9,12:23 PM,,8.0,West,5.8,280,Tulsa,Oklahoma,74104
23,Heavy Thunderstorms and Rain,2016-07-14 17:27:00,75.0,Rain-Thunderstorm,-,82,0.22,30.07,81.0,12:27 PM,,1.2,North,-9999.0,0,Tulsa,Oklahoma,74104
24,Heavy Thunderstorms and Rain,2016-07-14 17:34:00,68.0,Rain-Thunderstorm,47.2,84,0.61,30.15,73.0,12:34 PM,,0.5,NNW,23.0,330,Tulsa,Oklahoma,74104
25,Heavy Thunderstorms and Rain,2016-07-14 17:40:00,68.0,Fog-Rain-Thunderstorm,52.9,100,1.28,30.14,68.0,12:40 PM,,0.2,North,34.5,360,Tulsa,Oklahoma,74104
26,Heavy Thunderstorms and Rain,2016-07-14 17:53:00,-9999,Rain-Thunderstorm,42.6,N/A,1.64,30.12,66.9,12:53 PM,,0.8,North,23.0,10,Tulsa,Oklahoma,74104
27,Heavy Thunderstorms and Rain,2016-07-14 18:01:00,-9999,Rain-Thunderstorm,41.4,N/A,0.07,30.09,66.9,1:01 PM,,1.2,NNE,28.8,20,Tulsa,Oklahoma,74104
28,Heavy Thunderstorms and Rain,2016-07-14 18:10:00,-9999,Rain-Thunderstorm,42.6,N/A,0.11,30.07,66.9,1:10 PM,,3.0,NNE,19.6,20,Tulsa,Oklahoma,74104
29,Light Thunderstorms and Rain,2016-07-14 18:53:00,66.0,Rain-Thunderstorm,38.0,90,0.15,30.08,69.1,1:53 PM,,10.0,NNE,21.9,30,Tulsa,Oklahoma,74104
30,Light Rain,2016-07-14 18:57:00,64.9,Rain-Thunderstorm,34.5,84,0.00,30.07,70.0,1:57 PM,,10.0,NNE,24.2,30,Tulsa,Oklahoma,74104
31,Light Thunderstorms and Rain,2016-07-14 19:21:00,64.9,Rain-Thunderstorm,34.5,87,0.01,30.01,69.1,2:21 PM,,10.0,ENE,23.0,70,Tulsa,Oklahoma,74104
32,Light Rain,2016-07-14 19:51:00,64.4,Rain-Thunderstorm,35.7,83,0.03,29.98,69.8,2:51 PM,,10.0,NNE,12.7,20,Tulsa,Oklahoma,74104
33,Light Rain,2016-07-14 19:53:00,64.9,Rain-Thunderstorm,32.2,84,0.03,30.00,70.0,2:53 PM,,10.0,NNE,13.8,20,Tulsa,Oklahoma,74104
34,Light Rain,2016-07-14 20:00:00,64.9,Rain-Thunderstorm,21.9,81,0.00,30.00,71.1,3:00 PM,,10.0,NE,8.1,40,Tulsa,Oklahoma,74104
35,Light Rain,2016-07-14 20:10:00,66.0,Rain,-,87,0.00,30.00,70.0,3:10 PM,,10.0,NW,3.5,320,Tulsa,Oklahoma,74104
36,Clear,2016-07-14 20:53:00,64.9,,18.4,81,0.00,30.01,71.1,3:53 PM,,10.0,NNE,8.1,20,Tulsa,Oklahoma,74104
37,Clear,2016-07-14 21:53:00,66.0,,-,69,N/A,29.97,77.0,4:53 PM,,10.0,East,11.5,90,Tulsa,Oklahoma,74104
38,Clear,2016-07-14 22:53:00,64.9,,-,66,N/A,29.97,77.0,5:53 PM,,10.0,SSE,11.5,160,Tulsa,Oklahoma,74104
39,Clear,2016-07-14 23:53:00,66.0,,-,66,N/A,29.97,78.1,6:53 PM,,10.0,South,9.2,170,Tulsa,Oklahoma,74104
40,Clear,2016-07-15 00:53:00,68.0,,-,71,N/A,29.98,78.1,7:53 PM,,10.0,SSW,8.1,210,Tulsa,Oklahoma,74104
41,Clear,2016-07-15 01:53:00,70.0,,-,87,N/A,29.99,73.9,8:53 PM,,10.0,SSW,3.5,210,Tulsa,Oklahoma,74104
42,Mostly Cloudy,2016-07-15 02:53:00,70.0,,-,93,N/A,30.01,72.0,9:53 PM,,10.0,Calm,Calm,0,Tulsa,Oklahoma,74104
43,Clear,2016-07-15 03:53:00,69.1,,-,91,N/A,30.04,72.0,10:53 PM,,10.0,NNE,5.8,20,Tulsa,Oklahoma,74104
44,Clear,2016-07-15 04:53:00,69.1,,-,91,N/A,30.04,72.0,11:53 PM,,10.0,NNE,4.6,30,Tulsa,Oklahoma,74104
0,Clear,2016-07-15 05:53:00,69.1,,-,91,N/A,30.06,72.0,12:53 AM,,10.0,ENE,5.8,70,Tulsa,Oklahoma,74104
1,Scattered Clouds,2016-07-15 06:53:00,68.0,,-,87,N/A,30.06,72.0,1:53 AM,,10.0,ESE,3.5,110,Tulsa,Oklahoma,74104
2,Partly Cloudy,2016-07-15 07:53:00,68.0,,-,87,N/A,30.06,72.0,2:53 AM,,10.0,East,3.5,100,Tulsa,Oklahoma,74104
3,Partly Cloudy,2016-07-15 08:53:00,69.1,,-,93,N/A,30.05,71.1,3:53 AM,,10.0,Calm,Calm,0,Tulsa,Oklahoma,74104
4,Scattered Clouds,2016-07-15 09:01:00,68.0,Thunderstorm,-,87,N/A,30.02,72.0,4:01 AM,,10.0,SSE,4.6,150,Tulsa,Oklahoma,74104
5,Light Rain,2016-07-15 09:16:00,69.1,Rain,-,93,0.00,30.02,71.1,4:16 AM,,10.0,Calm,Calm,0,Tulsa,Oklahoma,74104
6,Mostly Cloudy,2016-07-15 09:53:00,69.1,,-,93,0.00,30.04,71.1,4:53 AM,,10.0,South,4.6,190,Tulsa,Oklahoma,74104
7,Thunderstorm,2016-07-15 10:22:00,68.0,Thunderstorm,-,90,0.00,30.01,71.1,5:22 AM,,10.0,SSE,5.8,150,Tulsa,Oklahoma,74104
8,Clear,2016-07-15 10:37:00,68.0,,-,90,0.00,30.02,71.1,5:37 AM,,10.0,SE,5.8,130,Tulsa,Oklahoma,74104
9,Clear,2016-07-15 10:53:00,68.0,,-,90,0.00,30.07,71.1,5:53 AM,,10.0,North,4.6,10,Tulsa,Oklahoma,74104
10,Mostly Cloudy,2016-07-15 11:19:00,69.1,,-,93,N/A,30.06,71.1,6:19 AM,,10.0,North,5.8,360,Tulsa,Oklahoma,74104
11,Light Rain,2016-07-15 11:31:00,68.0,Rain,-,90,0.00,30.05,71.1,6:31 AM,,10.0,Variable,3.5,0,Tulsa,Oklahoma,74104
12,Clear,2016-07-15 11:53:00,68.0,,-,90,0.00,30.05,71.1,6:53 AM,,10.0,ENE,3.5,60,Tulsa,Oklahoma,74104
13,Clear,2016-07-15 12:53:00,69.1,,-,91,N/A,30.06,72.0,7:53 AM,,10.0,East,5.8,100,Tulsa,Oklahoma,74104
14,Clear,2016-07-15 13:53:00,68.0,,-,84,N/A,30.08,73.0,8:53 AM,,10.0,East,12.7,80,Tulsa,Oklahoma,74104
15,Clear,2016-07-15 14:53:00,69.1,,-,82,N/A,30.08,75.0,9:53 AM,,10.0,ESE,9.2,120,Tulsa,Oklahoma,74104
16,Clear,2016-07-15 15:53:00,69.1,,18.4,69,N/A,30.07,80.1,10:53 AM,,10.0,SSE,10.4,150,Tulsa,Oklahoma,74104
17,Clear,2016-07-15 16:53:00,69.1,,21.9,63,N/A,30.07,82.9,11:53 AM,,10.0,South,13.8,170,Tulsa,Oklahoma,74104
18,Clear,2016-07-15 17:53:00,69.1,,24.2,61,N/A,30.07,84.0,12:53 PM,,10.0,South,12.7,180,Tulsa,Oklahoma,74104
19,Clear,2016-07-15 18:53:00,69.1,,19.6,57,N/A,30.04,86.0,1:53 PM,,10.0,South,10.4,170,Tulsa,Oklahoma,74104
20,Clear,2016-07-15 19:53:00,70.0,,-,59,N/A,30.03,86.0,2:53 PM,,10.0,South,9.2,190,Tulsa,Oklahoma,74104
21,Clear,2016-07-15 20:53:00,70.0,,-,57,N/A,30.01,87.1,3:53 PM,,10.0,Variable,4.6,0,Tulsa,Oklahoma,74104
22,Clear,2016-07-15 21:53:00,68.0,,-,51,N/A,29.99,88.0,4:53 PM,,10.0,Variable,3.5,0,Tulsa,Oklahoma,74104
23,Partly Cloudy,2016-07-15 22:53:00,70.0,,-,55,N/A,29.96,88.0,5:53 PM,,10.0,South,5.8,180,Tulsa,Oklahoma,74104
24,Clear,2016-07-15 23:53:00,71.1,,-,59,N/A,29.96,87.1,6:53 PM,,10.0,SSE,8.1,150,Tulsa,Oklahoma,74104
25,Clear,2016-07-16 00:53:00,70.0,,-,61,N/A,29.97,84.9,7:53 PM,,10.0,SSE,5.8,150,Tulsa,Oklahoma,74104
26,Clear,2016-07-16 01:53:00,70.0,,-,65,N/A,29.99,82.9,8:53 PM,,10.0,SSE,3.5,160,Tulsa,Oklahoma,74104
27,Clear,2016-07-16 02:53:00,73.0,,-,94,N/A,30.00,75.0,9:53 PM,,10.0,Calm,Calm,0,Tulsa,Oklahoma,74104
28,Clear,2016-07-16 03:53:00,72.0,,-,96,N/A,30.00,73.0,10:53 PM,,10.0,Calm,Calm,0,Tulsa,Oklahoma,74104
29,Clear,2016-07-16 04:53:00,71.1,,-,93,N/A,30.02,73.0,11:53 PM,,10.0,Calm,Calm,0,Tulsa,Oklahoma,74104
0,Clear,2016-07-16 05:53:00,71.1,,-,93,N/A,30.02,73.0,12:53 AM,,10.0,Calm,Calm,0,Tulsa,Oklahoma,74104
1,Clear,2016-07-16 06:53:00,71.1,,-,85,N/A,30.03,75.9,1:53 AM,,10.0,SSE,4.6,150,Tulsa,Oklahoma,74104
2,Clear,2016-07-16 07:53:00,71.1,,-,87,N/A,30.01,75.0,2:53 AM,,10.0,East,5.8,90,Tulsa,Oklahoma,74104
3,Clear,2016-07-16 08:53:00,71.1,,-,87,N/A,30.01,75.0,3:53 AM,,10.0,SE,3.5,130,Tulsa,Oklahoma,74104
4,Clear,2016-07-16 09:53:00,72.0,,-,93,N/A,30.01,73.9,4:53 AM,,10.0,Calm,Calm,0,Tulsa,Oklahoma,74104
5,Clear,2016-07-16 10:53:00,71.1,,-,91,N/A,30.01,73.9,5:53 AM,,10.0,South,3.5,180,Tulsa,Oklahoma,74104
6,Mostly Cloudy,2016-07-16 11:53:00,72.0,,-,93,N/A,30.03,73.9,6:53 AM,,10.0,Calm,Calm,0,Tulsa,Oklahoma,74104
7,Partly Cloudy,2016-07-16 12:53:00,73.0,,-,91,N/A,30.05,75.9,7:53 AM,,10.0,Calm,Calm,0,Tulsa,Oklahoma,74104
8,Mostly Cloudy,2016-07-16 13:53:00,73.9,,-,87,N/A,30.05,78.1,8:53 AM,,10.0,ESE,4.6,110,Tulsa,Oklahoma,74104
9,Clear,2016-07-16 14:53:00,73.9,,-,81,N/A,30.03,80.1,9:53 AM,,10.0,ESE,6.9,120,Tulsa,Oklahoma,74104
10,Clear,2016-07-16 15:53:00,73.9,,-,72,N/A,30.01,84.0,10:53 AM,,10.0,SE,8.1,140,Tulsa,Oklahoma,74104
11,Partly Cloudy,2016-07-16 16:53:00,73.9,,-,67,N/A,30.02,86.0,11:53 AM,,10.0,South,10.4,180,Tulsa,Oklahoma,74104
12,Partly Cloudy,2016-07-16 17:53:00,73.9,,-,61,N/A,30.01,89.1,12:53 PM,,10.0,South,10.4,180,Tulsa,Oklahoma,74104
13,Mostly Cloudy,2016-07-16 18:53:00,73.9,,-,59,N/A,30.00,90.0,1:53 PM,,10.0,South,8.1,170,Tulsa,Oklahoma,74104
14,Scattered Clouds,2016-07-16 19:53:00,73.0,,-,57,N/A,29.98,90.0,2:53 PM,,10.0,South,6.9,170,Tulsa,Oklahoma,74104
15,Partly Cloudy,2016-07-16 20:53:00,73.9,,-,55,N/A,29.96,91.9,3:53 PM,,10.0,South,10.4,180,Tulsa,Oklahoma,74104
16,Scattered Clouds,2016-07-16 21:53:00,73.9,,-,57,N/A,29.95,91.0,4:53 PM,,10.0,SSE,8.1,160,Tulsa,Oklahoma,74104
17,Light Rain,2016-07-16 22:53:00,78.1,Rain,-,77,0.00,29.94,86.0,5:53 PM,,6.0,WSW,6.9,250,Tulsa,Oklahoma,74104
18,Partly Cloudy,2016-07-16 23:53:00,75.9,,-,61,0.01,29.92,91.0,6:53 PM,,10.0,South,9.2,190,Tulsa,Oklahoma,74104
19,Clear,2016-07-17 00:53:00,75.9,,-,63,N/A,29.94,90.0,7:53 PM,,10.0,South,6.9,170,Tulsa,Oklahoma,74104
20,Clear,2016-07-17 01:53:00,75.9,,-,69,N/A,29.94,87.1,8:53 PM,,10.0,South,4.6,170,Tulsa,Oklahoma,74104
21,Scattered Clouds,2016-07-17 02:53:00,73.0,,-,69,N/A,29.97,84.0,9:53 PM,,10.0,SSE,9.2,150,Tulsa,Oklahoma,74104
22,Mostly Cloudy,2016-07-17 03:53:00,73.0,,-,72,N/A,29.98,82.9,10:53 PM,,10.0,SSE,6.9,150,Tulsa,Oklahoma,74104
23,Mostly Cloudy,2016-07-17 04:03:00,73.9,Thunderstorm,-,74,N/A,29.98,82.9,11:03 PM,,10.0,SSE,9.2,160,Tulsa,Oklahoma,74104
24,Mostly Cloudy,2016-07-17 04:24:00,73.9,,-,74,N/A,29.99,82.9,11:24 PM,,10.0,South,10.4,180,Tulsa,Oklahoma,74104
25,Clear,2016-07-17 04:53:00,73.0,,-,74,N/A,29.98,82.0,11:53 PM,,10.0,SSE,5.8,160,Tulsa,Oklahoma,74104
0,Partly Cloudy,2016-07-17 05:53:00,73.0,,-,79,N/A,29.98,80.1,12:53 AM,,10.0,South,4.6,170,Tulsa,Oklahoma,74104
1,Partly Cloudy,2016-07-17 06:53:00,75.0,,-,85,N/A,29.97,80.1,1:53 AM,,10.0,South,8.1,180,Tulsa,Oklahoma,74104
2,Clear,2016-07-17 07:53:00,73.9,,-,87,N/A,29.96,78.1,2:53 AM,,10.0,Calm,Calm,0,Tulsa,Oklahoma,74104
3,Clear,2016-07-17 08:53:00,71.1,,-,77,N/A,29.95,79.0,3:53 AM,,10.0,SSW,6.9,200,Tulsa,Oklahoma,74104
4,Clear,2016-07-17 09:53:00,71.1,,-,82,N/A,29.96,77.0,4:53 AM,,10.0,South,5.8,190,Tulsa,Oklahoma,74104
5,Clear,2016-07-17 10:53:00,71.1,,-,79,N/A,29.99,78.1,5:53 AM,,10.0,South,4.6,170,Tulsa,Oklahoma,74104
6,Clear,2016-07-17 11:53:00,70.0,,-,76,N/A,30.00,78.1,6:53 AM,,10.0,South,3.5,170,Tulsa,Oklahoma,74104
7,Clear,2016-07-17 12:53:00,70.0,,-,74,N/A,30.02,79.0,7:53 AM,,10.0,SSE,6.9,160,Tulsa,Oklahoma,74104
8,Clear,2016-07-17 13:53:00,71.1,,-,67,N/A,30.04,82.9,8:53 AM,,10.0,South,10.4,170,Tulsa,Oklahoma,74104
9,Clear,2016-07-17 14:53:00,72.0,,-,65,N/A,30.03,84.9,9:53 AM,,10.0,South,11.5,190,Tulsa,Oklahoma,74104
10,Clear,2016-07-17 15:53:00,73.0,,-,59,N/A,30.04,89.1,10:53 AM,,10.0,SSW,11.5,200,Tulsa,Oklahoma,74104
11,Clear,2016-07-17 16:53:00,73.9,,-,57,N/A,30.04,91.0,11:53 AM,,10.0,SSW,12.7,200,Tulsa,Oklahoma,74104
12,Clear,2016-07-17 17:53:00,73.9,,20.7,54,N/A,30.04,93.0,12:53 PM,,10.0,South,16.1,180,Tulsa,Oklahoma,74104
13,Clear,2016-07-17 18:53:00,73.9,,21.9,52,N/A,30.03,93.9,1:53 PM,,10.0,South,16.1,190,Tulsa,Oklahoma,74104
14,Clear,2016-07-17 19:53:00,73.9,,-,50,N/A,30.02,95.0,2:53 PM,,10.0,South,16.1,180,Tulsa,Oklahoma,74104
15,Clear,2016-07-17 20:53:00,72.0,,21.9,46,N/A,30.01,96.1,3:53 PM,,10.0,South,13.8,180,Tulsa,Oklahoma,74104
16,Clear,2016-07-17 21:53:00,69.1,,25.3,43,N/A,30.00,95.0,4:53 PM,,10.0,South,15.0,190,Tulsa,Oklahoma,74104
17,Clear,2016-07-17 22:53:00,71.1,,20.7,46,N/A,30.00,95.0,5:53 PM,,10.0,South,12.7,190,Tulsa,Oklahoma,74104
18,Clear,2016-07-17 23:53:00,70.0,,-,47,N/A,30.00,93.0,6:53 PM,,10.0,South,12.7,180,Tulsa,Oklahoma,74104
19,Clear,2016-07-18 00:53:00,72.0,,-,53,N/A,30.01,91.0,7:53 PM,,10.0,South,9.2,170,Tulsa,Oklahoma,74104
20,Clear,2016-07-18 01:53:00,73.0,,-,61,N/A,30.02,88.0,8:53 PM,,10.0,SSE,5.8,160,Tulsa,Oklahoma,74104
21,Clear,2016-07-18 02:53:00,73.0,,-,63,N/A,30.04,87.1,9:53 PM,,10.0,South,6.9,180,Tulsa,Oklahoma,74104
22,Clear,2016-07-18 03:53:00,73.9,,-,76,N/A,30.07,82.0,10:53 PM,,10.0,Calm,Calm,0,Tulsa,Oklahoma,74104
23,Clear,2016-07-18 04:53:00,73.9,,-,90,N/A,30.09,77.0,11:53 PM,,10.0,SW,3.5,230,Tulsa,Oklahoma,74104
0,Clear,2016-07-18 05:53:00,75.0,,-,94,N/A,30.10,77.0,12:53 AM,,10.0,Calm,Calm,0,Tulsa,Oklahoma,74104
1,Clear,2016-07-18 06:53:00,73.9,,-,96,N/A,30.11,75.0,1:53 AM,,10.0,Calm,Calm,0,Tulsa,Oklahoma,74104
2,Clear,2016-07-18 07:53:00,73.9,,-,96,N/A,30.11,75.0,2:53 AM,,10.0,Calm,Calm,0,Tulsa,Oklahoma,74104
3,Clear,2016-07-18 08:53:00,73.0,,-,94,N/A,30.10,75.0,3:53 AM,,10.0,Calm,Calm,0,Tulsa,Oklahoma,74104
4,Clear,2016-07-18 09:53:00,72.0,,-,93,N/A,30.10,73.9,4:53 AM,,10.0,Calm,Calm,0,Tulsa,Oklahoma,74104
5,Clear,2016-07-18 10:53:00,71.1,,-,93,N/A,30.12,73.0,5:53 AM,,10.0,Calm,Calm,0,Tulsa,Oklahoma,74104
6,Clear,2016-07-18 11:53:00,72.0,,-,96,N/A,30.14,73.0,6:53 AM,,10.0,Calm,Calm,0,Tulsa,Oklahoma,74104
7,Clear,2016-07-18 12:53:00,73.0,,-,84,N/A,30.15,78.1,7:53 AM,,10.0,SSW,3.5,210,Tulsa,Oklahoma,74104
8,Clear,2016-07-18 13:53:00,73.0,,-,74,N/A,30.17,82.0,8:53 AM,,10.0,South,4.6,190,Tulsa,Oklahoma,74104
9,Clear,2016-07-18 14:53:00,73.9,,-,67,N/A,30.16,86.0,9:53 AM,,10.0,SSW,6.9,210,Tulsa,Oklahoma,74104
10,Clear,2016-07-18 15:53:00,75.0,,-,65,N/A,30.18,88.0,10:53 AM,,10.0,SW,4.6,220,Tulsa,Oklahoma,74104
11,Clear,2016-07-18 16:53:00,75.0,,-,58,N/A,30.17,91.9,11:53 AM,,10.0,South,9.2,180,Tulsa,Oklahoma,74104
12,Clear,2016-07-18 17:53:00,73.0,,-,52,N/A,30.16,93.0,12:53 PM,,10.0,South,9.2,180,Tulsa,Oklahoma,74104
13,Partly Cloudy,2016-07-18 18:53:00,73.0,,17.3,51,N/A,30.15,93.9,1:53 PM,,10.0,South,10.4,170,Tulsa,Oklahoma,74104
14,Partly Cloudy,2016-07-18 19:53:00,69.1,,-,41,N/A,30.14,96.1,2:53 PM,,10.0,South,10.4,180,Tulsa,Oklahoma,74104
15,Clear,2016-07-18 20:53:00,72.0,,-,47,N/A,30.13,95.0,3:53 PM,,10.0,South,9.2,190,Tulsa,Oklahoma,74104
16,Clear,2016-07-18 21:53:00,73.0,,-,51,N/A,30.12,93.9,4:53 PM,,10.0,South,9.2,170,Tulsa,Oklahoma,74104
17,Clear,2016-07-18 22:53:00,73.0,,-,49,N/A,30.11,95.0,5:53 PM,,10.0,SSE,6.9,160,Tulsa,Oklahoma,74104
18,Clear,2016-07-18 23:53:00,73.0,,-,52,N/A,30.10,93.0,6:53 PM,,10.0,South,8.1,190,Tulsa,Oklahoma,74104
19,Clear,2016-07-19 00:53:00,72.0,,-,52,N/A,30.10,91.9,7:53 PM,,10.0,South,8.1,170,Tulsa,Oklahoma,74104
20,Clear,2016-07-19 01:53:00,75.0,,-,74,N/A,30.11,84.0,8:53 PM,,10.0,SSW,3.5,200,Tulsa,Oklahoma,74104
21,Clear,2016-07-19 02:53:00,75.0,,-,85,N/A,30.13,80.1,9:53 PM,,10.0,Calm,Calm,0,Tulsa,Oklahoma,74104
22,Clear,2016-07-19 03:53:00,75.9,,-,90,N/A,30.14,79.0,10:53 PM,,10.0,Calm,Calm,0,Tulsa,Oklahoma,74104
23,Clear,2016-07-19 04:53:00,77.0,,-,94,N/A,30.14,79.0,11:53 PM,,10.0,Calm,Calm,0,Tulsa,Oklahoma,74104
0,Clear,2016-07-19 05:53:00,75.9,,-,82,N/A,30.14,82.0,12:53 AM,,10.0,SSE,3.5,150,Tulsa,Oklahoma,74104
1,Clear,2016-07-19 06:53:00,75.9,,-,93,N/A,30.14,78.1,1:53 AM,,10.0,Calm,Calm,0,Tulsa,Oklahoma,74104
2,Clear,2016-07-19 07:53:00,75.9,,-,96,N/A,30.14,77.0,2:53 AM,,10.0,Calm,Calm,0,Tulsa,Oklahoma,74104
3,Clear,2016-07-19 08:53:00,75.0,,-,82,N/A,30.16,81.0,3:53 AM,,10.0,SSE,3.5,160,Tulsa,Oklahoma,74104
4,Clear,2016-07-19 09:53:00,75.0,,-,94,N/A,30.18,77.0,4:53 AM,,10.0,Calm,Calm,0,Tulsa,Oklahoma,74104
5,Clear,2016-07-19 10:53:00,75.0,,-,90,N/A,30.19,78.1,5:53 AM,,10.0,South,3.5,180,Tulsa,Oklahoma,74104
6,Clear,2016-07-19 11:53:00,75.0,,-,88,N/A,30.19,79.0,6:53 AM,,10.0,South,4.6,180,Tulsa,Oklahoma,74104
7,Clear,2016-07-19 12:53:00,75.0,,-,85,N/A,30.19,80.1,7:53 AM,,10.0,Calm,Calm,0,Tulsa,Oklahoma,74104
8,Clear,2016-07-19 13:53:00,75.0,,-,74,N/A,30.21,84.0,8:53 AM,,10.0,South,4.6,170,Tulsa,Oklahoma,74104
9,Clear,2016-07-19 14:53:00,75.9,,-,69,N/A,30.21,87.1,9:53 AM,,10.0,SSW,3.5,200,Tulsa,Oklahoma,74104
10,Clear,2016-07-19 15:53:00,75.9,,-,63,N/A,30.20,90.0,10:53 AM,,10.0,WSW,4.6,240,Tulsa,Oklahoma,74104
11,Clear,2016-07-19 16:53:00,75.0,,-,58,N/A,30.19,91.9,11:53 AM,,10.0,Variable,5.8,0,Tulsa,Oklahoma,74104
12,Clear,2016-07-19 17:53:00,75.0,,-,54,N/A,30.17,93.9,12:53 PM,,10.0,North,-9999.0,0,Tulsa,Oklahoma,74104
13,Partly Cloudy,2016-07-19 18:53:00,73.0,,-,51,N/A,30.16,93.9,1:53 PM,,10.0,SSW,6.9,210,Tulsa,Oklahoma,74104
14,Scattered Clouds,2016-07-19 19:53:00,73.9,,-,52,N/A,30.14,93.9,2:53 PM,,10.0,South,6.9,190,Tulsa,Oklahoma,74104
15,Scattered Clouds,2016-07-19 20:53:00,73.0,,-,51,N/A,30.12,93.9,3:53 PM,,10.0,South,6.9,180,Tulsa,Oklahoma,74104
16,Clear,2016-07-19 21:53:00,73.9,,-,50,N/A,30.11,95.0,4:53 PM,,10.0,South,6.9,180,Tulsa,Oklahoma,74104
17,Clear,2016-07-19 22:53:00,73.9,,-,52,N/A,30.11,93.9,5:53 PM,,10.0,South,6.9,180,Tulsa,Oklahoma,74104
18,Clear,2016-07-19 23:53:00,73.0,,-,51,N/A,30.10,93.9,6:53 PM,,10.0,South,8.1,170,Tulsa,Oklahoma,74104
19,Partly Cloudy,2016-07-20 00:53:00,75.0,,-,58,N/A,30.09,91.9,7:53 PM,,10.0,South,8.1,170,Tulsa,Oklahoma,74104
20,Clear,2016-07-20 01:53:00,75.9,,-,63,N/A,30.10,90.0,8:53 PM,,10.0,South,5.8,170,Tulsa,Oklahoma,74104
21,Clear,2016-07-20 02:53:00,77.0,,-,70,N/A,30.11,88.0,9:53 PM,,10.0,SSE,4.6,150,Tulsa,Oklahoma,74104
22,Clear,2016-07-20 03:53:00,75.9,,-,72,N/A,30.12,86.0,10:53 PM,,10.0,SSE,4.6,160,Tulsa,Oklahoma,74104
23,Clear,2016-07-20 04:53:00,77.0,,-,85,N/A,30.13,82.0,11:53 PM,,10.0,Calm,Calm,0,Tulsa,Oklahoma,74104
0,Clear,2016-07-20 05:53:00,75.9,,-,79,N/A,30.12,82.9,12:53 AM,,10.0,South,5.8,170,Tulsa,Oklahoma,74104
1,Clear,2016-07-20 06:53:00,75.9,,-,82,N/A,30.11,82.0,1:53 AM,,10.0,SSE,5.8,160,Tulsa,Oklahoma,74104
2,Clear,2016-07-20 07:53:00,75.9,,-,85,N/A,30.12,81.0,2:53 AM,,10.0,SSE,3.5,150,Tulsa,Oklahoma,74104
3,Clear,2016-07-20 08:53:00,77.0,,-,88,N/A,30.12,81.0,3:53 AM,,10.0,SSE,3.5,150,Tulsa,Oklahoma,74104
4,Clear,2016-07-20 09:53:00,77.0,,-,90,N/A,30.13,80.1,4:53 AM,,10.0,Calm,Calm,0,Tulsa,Oklahoma,74104
5,Clear,2016-07-20 10:53:00,75.9,,-,90,N/A,30.14,79.0,5:53 AM,,10.0,South,3.5,170,Tulsa,Oklahoma,74104
6,Clear,2016-07-20 11:53:00,75.9,,-,90,N/A,30.16,79.0,6:53 AM,,10.0,SSE,3.5,160,Tulsa,Oklahoma,74104
7,Clear,2016-07-20 12:53:00,75.9,,-,85,N/A,30.17,81.0,7:53 AM,,10.0,SSE,4.6,160,Tulsa,Oklahoma,74104
8,Clear,2016-07-20 13:53:00,75.9,,-,74,N/A,30.16,84.9,8:53 AM,,10.0,SSW,8.1,200,Tulsa,Oklahoma,74104
9,Clear,2016-07-20 14:53:00,75.0,,-,65,N/A,30.17,88.0,9:53 AM,,10.0,SSW,8.1,210,Tulsa,Oklahoma,74104
10,Clear,2016-07-20 15:53:00,75.0,,-,59,N/A,30.17,91.0,10:53 AM,,10.0,SSW,10.4,210,Tulsa,Oklahoma,74104
11,Clear,2016-07-20 16:53:00,75.0,,-,56,N/A,30.16,93.0,11:53 AM,,10.0,SSW,10.4,210,Tulsa,Oklahoma,74104
12,Clear,2016-07-20 17:53:00,75.9,,-,57,N/A,30.15,93.0,12:53 PM,,10.0,SW,9.2,220,Tulsa,Oklahoma,74104
13,Clear,2016-07-20 18:53:00,75.0,,-,52,N/A,30.13,95.0,1:53 PM,,10.0,South,9.2,190,Tulsa,Oklahoma,74104
14,Partly Cloudy,2016-07-20 19:53:00,73.9,,-,47,N/A,30.11,97.0,2:53 PM,,10.0,SSW,10.4,200,Tulsa,Oklahoma,74104
15,Partly Cloudy,2016-07-20 20:53:00,73.9,,-,47,N/A,30.09,97.0,3:53 PM,,10.0,South,10.4,190,Tulsa,Oklahoma,74104
16,Partly Cloudy,2016-07-20 21:53:00,73.0,,17.3,46,N/A,30.08,97.0,4:53 PM,,10.0,South,11.5,190,Tulsa,Oklahoma,74104
17,Partly Cloudy,2016-07-20 22:53:00,73.0,,-,47,N/A,30.07,96.1,5:53 PM,,10.0,SSW,10.4,200,Tulsa,Oklahoma,74104
18,Clear,2016-07-20 23:53:00,73.9,,-,52,N/A,30.07,93.9,6:53 PM,,10.0,SSW,8.1,200,Tulsa,Oklahoma,74104
19,Clear,2016-07-21 00:53:00,75.0,,-,58,N/A,30.07,91.9,7:53 PM,,10.0,SSW,6.9,200,Tulsa,Oklahoma,74104
20,Clear,2016-07-21 01:53:00,75.9,,-,69,N/A,30.08,87.1,8:53 PM,,10.0,South,4.6,170,Tulsa,Oklahoma,74104
21,Clear,2016-07-21 02:53:00,77.0,,-,67,N/A,30.08,89.1,9:53 PM,,10.0,South,6.9,170,Tulsa,Oklahoma,74104
22,Clear,2016-07-21 03:53:00,77.0,,-,79,N/A,30.09,84.0,10:53 PM,,10.0,SSW,3.5,200,Tulsa,Oklahoma,74104
23,Clear,2016-07-21 04:53:00,77.0,,-,85,N/A,30.09,82.0,11:53 PM,,10.0,Calm,Calm,0,Tulsa,Oklahoma,74104
0,Clear,2016-07-21 05:53:00,78.1,,-,94,N/A,30.08,80.1,12:53 AM,,10.0,Calm,Calm,0,Tulsa,Oklahoma,74104
1,Clear,2016-07-21 06:53:00,77.0,,-,90,N/A,30.07,80.1,1:53 AM,,10.0,Calm,Calm,0,Tulsa,Oklahoma,74104
2,Clear,2016-07-21 07:53:00,75.9,,-,93,N/A,30.07,78.1,2:53 AM,,10.0,Calm,Calm,0,Tulsa,Oklahoma,74104
3,Clear,2016-07-21 08:53:00,75.9,,-,93,N/A,30.07,78.1,3:53 AM,,10.0,Calm,Calm,0,Tulsa,Oklahoma,74104
4,Clear,2016-07-21 09:53:00,75.0,,-,100,N/A,30.07,75.0,4:53 AM,,10.0,Calm,Calm,0,Tulsa,Oklahoma,74104
5,Clear,2016-07-21 10:53:00,73.9,,-,96,N/A,30.08,75.0,5:53 AM,,9.0,Calm,Calm,0,Tulsa,Oklahoma,74104
6,Clear,2016-07-21 11:53:00,73.9,,-,96,N/A,30.10,75.0,6:53 AM,,10.0,Calm,Calm,0,Tulsa,Oklahoma,74104
7,Clear,2016-07-21 12:53:00,73.0,,-,77,N/A,30.12,81.0,7:53 AM,,10.0,SSW,3.5,200,Tulsa,Oklahoma,74104
8,Clear,2016-07-21 13:53:00,73.9,,-,69,N/A,30.13,84.9,8:53 AM,,10.0,SW,5.8,220,Tulsa,Oklahoma,74104
9,Clear,2016-07-21 14:53:00,73.0,,-,59,N/A,30.12,89.1,9:53 AM,,10.0,South,10.4,190,Tulsa,Oklahoma,74104
10,Clear,2016-07-21 15:53:00,72.0,,-,52,N/A,30.11,91.9,10:53 AM,,10.0,South,11.5,190,Tulsa,Oklahoma,74104
11,Clear,2016-07-21 16:53:00,73.0,,-,52,N/A,30.11,93.0,11:53 AM,,10.0,SSW,12.7,210,Tulsa,Oklahoma,74104
12,Clear,2016-07-21 17:53:00,72.0,,20.7,44,N/A,30.09,97.0,12:53 PM,,10.0,SSW,11.5,200,Tulsa,Oklahoma,74104
13,Clear,2016-07-21 18:53:00,73.0,,20.7,46,N/A,30.08,97.0,1:53 PM,,10.0,SSW,12.7,200,Tulsa,Oklahoma,74104
14,Clear,2016-07-21 19:53:00,73.0,,-,44,N/A,30.06,98.1,2:53 PM,,10.0,South,11.5,190,Tulsa,Oklahoma,74104
15,Clear,2016-07-21 20:53:00,73.0,,18.4,44,N/A,30.05,98.1,3:53 PM,,10.0,South,13.8,190,Tulsa,Oklahoma,74104
16,Clear,2016-07-21 21:53:00,72.0,,-,42,N/A,30.04,99.0,4:53 PM,,10.0,South,10.4,190,Tulsa,Oklahoma,74104
17,Clear,2016-07-21 22:53:00,73.0,,18.4,44,N/A,30.02,98.1,5:53 PM,,10.0,South,12.7,190,Tulsa,Oklahoma,74104
18,Clear,2016-07-21 23:53:00,73.0,,-,47,N/A,30.01,96.1,6:53 PM,,10.0,SSW,6.9,210,Tulsa,Oklahoma,74104
19,Clear,2016-07-22 00:53:00,73.9,,-,54,N/A,30.01,93.0,7:53 PM,,10.0,South,4.6,190,Tulsa,Oklahoma,74104
20,Clear,2016-07-22 01:53:00,75.9,,-,69,N/A,30.01,87.1,8:53 PM,,10.0,Calm,Calm,0,Tulsa,Oklahoma,74104
21,Clear,2016-07-22 02:53:00,77.0,,-,85,N/A,30.03,82.0,9:53 PM,,10.0,SSW,3.5,200,Tulsa,Oklahoma,74104
22,Clear,2016-07-22 03:53:00,75.9,,-,85,N/A,30.04,81.0,10:53 PM,,10.0,Calm,Calm,0,Tulsa,Oklahoma,74104
23,Clear,2016-07-22 04:53:00,75.9,,-,87,N/A,30.05,80.1,11:53 PM,,10.0,Calm,Calm,0,Tulsa,Oklahoma,74104
0,Clear,2016-07-22 05:53:00,75.9,,-,93,N/A,30.05,78.1,12:53 AM,,10.0,Calm,Calm,0,Tulsa,Oklahoma,74104
1,Clear,2016-07-22 06:53:00,73.9,,-,81,N/A,30.04,80.1,1:53 AM,,10.0,SSW,3.5,200,Tulsa,Oklahoma,74104
2,Clear,2016-07-22 07:53:00,73.9,,-,94,N/A,30.03,75.9,2:53 AM,,10.0,Calm,Calm,0,Tulsa,Oklahoma,74104
3,Clear,2016-07-22 08:53:00,73.0,,-,94,N/A,30.03,75.0,3:53 AM,,10.0,Calm,Calm,0,Tulsa,Oklahoma,74104
4,Clear,2016-07-22 09:53:00,73.0,,-,97,N/A,30.03,73.9,4:53 AM,,10.0,Calm,Calm,0,Tulsa,Oklahoma,74104
5,Clear,2016-07-22 10:53:00,72.0,,-,96,N/A,30.04,73.0,5:53 AM,,10.0,Calm,Calm,0,Tulsa,Oklahoma,74104
6,Clear,2016-07-22 11:53:00,73.0,,-,97,N/A,30.05,73.9,6:53 AM,,10.0,Calm,Calm,0,Tulsa,Oklahoma,74104
7,Clear,2016-07-22 12:53:00,72.0,,-,76,N/A,30.06,80.1,7:53 AM,,10.0,Variable,3.5,0,Tulsa,Oklahoma,74104
8,Clear,2016-07-22 13:53:00,73.0,,-,67,N/A,30.07,84.9,8:53 AM,,10.0,SSW,5.8,210,Tulsa,Oklahoma,74104
9,Clear,2016-07-22 14:53:00,72.0,,-,55,N/A,30.06,90.0,9:53 AM,,10.0,Variable,6.9,0,Tulsa,Oklahoma,74104
10,Clear,2016-07-22 15:53:00,72.0,,-,50,N/A,30.08,93.0,10:53 AM,,10.0,South,8.1,170,Tulsa,Oklahoma,74104
11,Clear,2016-07-22 16:53:00,72.0,,-,47,N/A,30.07,95.0,11:53 AM,,10.0,SSW,6.9,200,Tulsa,Oklahoma,74104
12,Clear,2016-07-22 17:53:00,72.0,,-,43,N/A,30.06,98.1,12:53 PM,,10.0,South,5.8,180,Tulsa,Oklahoma,74104
13,Clear,2016-07-22 18:53:00,70.0,,-,39,N/A,30.03,99.0,1:53 PM,,10.0,SSW,11.5,200,Tulsa,Oklahoma,74104
14,Clear,2016-07-22 19:53:00,71.1,,18.4,39,N/A,30.00,100.0,2:53 PM,,10.0,South,12.7,190,Tulsa,Oklahoma,74104
15,Clear,2016-07-22 20:53:00,69.1,,-,37,N/A,29.98,100.0,3:53 PM,,10.0,South,12.7,180,Tulsa,Oklahoma,74104
16,Clear,2016-07-22 21:53:00,73.0,,-,44,N/A,29.96,98.1,4:53 PM,,10.0,SSW,5.8,210,Tulsa,Oklahoma,74104
17,Clear,2016-07-22 22:53:00,73.0,,-,44,N/A,29.95,98.1,5:53 PM,,10.0,SW,6.9,220,Tulsa,Oklahoma,74104
18,Clear,2016-07-22 23:53:00,73.0,,-,47,N/A,29.95,96.1,6:53 PM,,10.0,SW,4.6,220,Tulsa,Oklahoma,74104
19,Clear,2016-07-23 00:53:00,75.9,,-,63,N/A,29.95,90.0,7:53 PM,,10.0,SSW,3.5,200,Tulsa,Oklahoma,74104
20,Clear,2016-07-23 01:53:00,75.9,,-,79,N/A,29.95,82.9,8:53 PM,,10.0,SSW,3.5,200,Tulsa,Oklahoma,74104
21,Clear,2016-07-23 02:53:00,75.9,,-,82,N/A,29.97,82.0,9:53 PM,,10.0,Calm,Calm,0,Tulsa,Oklahoma,74104
22,Clear,2016-07-23 03:53:00,75.9,,-,87,N/A,29.98,80.1,10:53 PM,,10.0,Calm,Calm,0,Tulsa,Oklahoma,74104
23,Clear,2016-07-23 04:53:00,75.0,,-,85,N/A,29.97,80.1,11:53 PM,,10.0,Calm,Calm,0,Tulsa,Oklahoma,74104
0,Clear,2016-07-23 05:53:00,75.0,,-,88,N/A,29.96,79.0,12:53 AM,,10.0,Calm,Calm,0,Tulsa,Oklahoma,74104
1,Clear,2016-07-23 06:53:00,75.0,,-,94,N/A,29.95,77.0,1:53 AM,,10.0,Calm,Calm,0,Tulsa,Oklahoma,74104
2,Clear,2016-07-23 07:53:00,75.0,,-,94,N/A,29.96,77.0,2:53 AM,,10.0,Calm,Calm,0,Tulsa,Oklahoma,74104
3,Clear,2016-07-23 08:53:00,73.9,,-,96,N/A,29.96,75.0,3:53 AM,,10.0,Calm,Calm,0,Tulsa,Oklahoma,74104
4,Clear,2016-07-23 09:53:00,73.9,,-,96,N/A,29.96,75.0,4:53 AM,,10.0,Calm,Calm,0,Tulsa,Oklahoma,74104
5,Clear,2016-07-23 10:53:00,73.0,,-,97,N/A,29.95,73.9,5:53 AM,,10.0,Calm,Calm,0,Tulsa,Oklahoma,74104
6,Clear,2016-07-23 11:53:00,73.0,,-,94,N/A,29.96,75.0,6:53 AM,,10.0,Calm,Calm,0,Tulsa,Oklahoma,74104
7,Clear,2016-07-23 12:53:00,73.0,,-,79,N/A,29.97,80.1,7:53 AM,,10.0,Calm,Calm,0,Tulsa,Oklahoma,74104
8,Clear,2016-07-23 13:53:00,73.0,,-,65,N/A,29.99,86.0,8:53 AM,,10.0,WSW,4.6,240,Tulsa,Oklahoma,74104
9,Clear,2016-07-23 14:53:00,73.0,,-,57,N/A,29.98,90.0,9:53 AM,,10.0,SSW,8.1,210,Tulsa,Oklahoma,74104
10,Clear,2016-07-23 15:53:00,72.0,,-,50,N/A,29.97,93.0,10:53 AM,,10.0,SW,8.1,220,Tulsa,Oklahoma,74104
11,Clear,2016-07-23 16:53:00,73.0,,-,47,N/A,29.96,96.1,11:53 AM,,10.0,SSW,9.2,210,Tulsa,Oklahoma,74104
12,Clear,2016-07-23 17:53:00,71.1,,-,43,N/A,29.95,97.0,12:53 PM,,10.0,SW,9.2,220,Tulsa,Oklahoma,74104
13,Clear,2016-07-23 18:53:00,70.0,,-,38,N/A,29.92,100.0,1:53 PM,,10.0,South,10.4,180,Tulsa,Oklahoma,74104
14,Clear,2016-07-23 19:53:00,70.0,,-,38,N/A,29.91,100.0,2:53 PM,,10.0,South,12.7,180,Tulsa,Oklahoma,74104
15,Clear,2016-07-23 20:53:00,70.0,,20.7,39,N/A,29.89,99.0,3:53 PM,,10.0,South,15.0,190,Tulsa,Oklahoma,74104
16,Clear,2016-07-23 21:53:00,70.0,,-,38,N/A,29.87,100.0,4:53 PM,,10.0,South,13.8,180,Tulsa,Oklahoma,74104
17,Clear,2016-07-23 22:53:00,71.1,,-,40,N/A,29.86,99.0,5:53 PM,,10.0,South,11.5,190,Tulsa,Oklahoma,74104
18,Clear,2016-07-23 23:53:00,71.1,,-,42,N/A,29.85,98.1,6:53 PM,,10.0,SSW,4.6,210,Tulsa,Oklahoma,74104
19,Clear,2016-07-24 00:53:00,73.9,,-,57,N/A,29.86,91.0,7:53 PM,,10.0,South,4.6,190,Tulsa,Oklahoma,74104
20,Clear,2016-07-24 01:53:00,75.9,,-,72,N/A,29.88,86.0,8:53 PM,,10.0,Calm,Calm,0,Tulsa,Oklahoma,74104
21,Clear,2016-07-24 02:53:00,73.9,,-,57,N/A,29.90,91.0,9:53 PM,,10.0,SSE,3.5,160,Tulsa,Oklahoma,74104
22,Clear,2016-07-24 03:53:00,75.0,,-,79,N/A,29.90,82.0,10:53 PM,,10.0,Calm,Calm,0,Tulsa,Oklahoma,74104
23,Clear,2016-07-24 04:53:00,73.0,,-,65,N/A,29.90,86.0,11:53 PM,,10.0,South,9.2,190,Tulsa,Oklahoma,74104
0,Clear,2016-07-24 05:53:00,73.9,,-,69,N/A,29.90,84.9,12:53 AM,,10.0,SSW,6.9,200,Tulsa,Oklahoma,74104
1,Clear,2016-07-24 06:53:00,73.0,,-,77,N/A,29.91,81.0,1:53 AM,,10.0,Calm,Calm,0,Tulsa,Oklahoma,74104
2,Clear,2016-07-24 07:53:00,73.0,,-,79,N/A,29.90,80.1,2:53 AM,,10.0,SSW,3.5,210,Tulsa,Oklahoma,74104
3,Clear,2016-07-24 08:53:00,72.0,,-,76,N/A,29.91,80.1,3:53 AM,,10.0,SSW,4.6,210,Tulsa,Oklahoma,74104
4,Clear,2016-07-24 09:53:00,72.0,,-,79,N/A,29.91,79.0,4:53 AM,,10.0,SSW,5.8,200,Tulsa,Oklahoma,74104
5,Clear,2016-07-24 10:53:00,71.1,,-,79,N/A,29.92,78.1,5:53 AM,,10.0,SSW,4.6,210,Tulsa,Oklahoma,74104
6,Clear,2016-07-24 11:53:00,72.0,,-,84,N/A,29.94,77.0,6:53 AM,,10.0,South,3.5,190,Tulsa,Oklahoma,74104
7,Clear,2016-07-24 12:53:00,72.0,,-,76,N/A,29.96,80.1,7:53 AM,,10.0,South,3.5,190,Tulsa,Oklahoma,74104
8,Clear,2016-07-24 13:53:00,73.0,,-,72,N/A,29.97,82.9,8:53 AM,,10.0,SSW,6.9,200,Tulsa,Oklahoma,74104
9,Clear,2016-07-24 14:53:00,75.0,,-,67,N/A,29.98,87.1,9:53 AM,,10.0,SW,5.8,230,Tulsa,Oklahoma,74104
10,Clear,2016-07-24 15:53:00,75.0,,-,61,N/A,29.98,90.0,10:53 AM,,10.0,SW,8.1,220,Tulsa,Oklahoma,74104
11,Clear,2016-07-24 16:53:00,75.0,,-,54,N/A,29.97,93.9,11:53 AM,,10.0,SW,6.9,220,Tulsa,Oklahoma,74104
12,Clear,2016-07-24 17:53:00,72.0,,-,44,N/A,29.95,97.0,12:53 PM,,10.0,South,9.2,180,Tulsa,Oklahoma,74104
13,Clear,2016-07-24 18:53:00,73.0,,-,44,N/A,29.94,98.1,1:53 PM,,10.0,SW,8.1,220,Tulsa,Oklahoma,74104
14,Clear,2016-07-24 19:53:00,72.0,,-,39,N/A,29.92,100.9,2:53 PM,,10.0,South,11.5,190,Tulsa,Oklahoma,74104
15,Clear,2016-07-24 20:53:00,70.0,,-,39,N/A,29.91,99.0,3:53 PM,,10.0,SSE,8.1,160,Tulsa,Oklahoma,74104
16,Clear,2016-07-24 21:53:00,70.0,,-,39,N/A,29.90,99.0,4:53 PM,,10.0,South,4.6,170,Tulsa,Oklahoma,74104
17,Clear,2016-07-24 22:53:00,69.1,,-,38,N/A,29.90,99.0,5:53 PM,,10.0,South,8.1,180,Tulsa,Oklahoma,74104
18,Clear,2016-07-24 23:53:00,73.9,,-,47,N/A,29.89,97.0,6:53 PM,,10.0,SSW,5.8,210,Tulsa,Oklahoma,74104
19,Clear,2016-07-25 00:53:00,75.9,,-,61,N/A,29.90,91.0,7:53 PM,,10.0,SSW,3.5,210,Tulsa,Oklahoma,74104
20,Clear,2016-07-25 01:53:00,75.9,,-,74,N/A,29.91,84.9,8:53 PM,,10.0,Calm,Calm,0,Tulsa,Oklahoma,74104
21,Clear,2016-07-25 02:53:00,77.0,,-,82,N/A,29.94,82.9,9:53 PM,,10.0,Calm,Calm,0,Tulsa,Oklahoma,74104
22,Clear,2016-07-25 03:53:00,77.0,,-,85,N/A,29.95,82.0,10:53 PM,,10.0,Calm,Calm,0,Tulsa,Oklahoma,74104
23,Clear,2016-07-25 04:53:00,75.0,,-,67,N/A,29.96,87.1,11:53 PM,,10.0,South,5.8,170,Tulsa,Oklahoma,74104
0,Clear,2016-07-25 05:53:00,75.9,,-,69,N/A,29.96,87.1,12:53 AM,,10.0,SSE,4.6,160,Tulsa,Oklahoma,74104
1,Clear,2016-07-25 06:53:00,75.0,,-,82,N/A,29.94,81.0,1:53 AM,,10.0,Calm,Calm,0,Tulsa,Oklahoma,74104
2,Clear,2016-07-25 07:53:00,73.9,,-,74,N/A,29.92,82.9,2:53 AM,,10.0,South,3.5,190,Tulsa,Oklahoma,74104
3,Clear,2016-07-25 08:53:00,73.9,,-,74,N/A,29.96,82.9,3:53 AM,,10.0,South,4.6,170,Tulsa,Oklahoma,74104
4,Clear,2016-07-25 09:53:00,73.9,,-,76,N/A,29.97,82.0,4:53 AM,,10.0,SSE,4.6,160,Tulsa,Oklahoma,74104
5,Clear,2016-07-25 10:53:00,75.0,,-,85,N/A,29.98,80.1,5:53 AM,,10.0,SSW,3.5,200,Tulsa,Oklahoma,74104
6,Mostly Cloudy,2016-07-25 11:53:00,75.0,,-,82,N/A,29.98,81.0,6:53 AM,,10.0,SSW,3.5,210,Tulsa,Oklahoma,74104
7,Mostly Cloudy,2016-07-25 12:53:00,75.0,,-,79,N/A,30.00,82.0,7:53 AM,,10.0,WSW,5.8,240,Tulsa,Oklahoma,74104
8,Clear,2016-07-25 13:53:00,73.9,,-,72,N/A,30.01,84.0,8:53 AM,,10.0,NNW,6.9,340,Tulsa,Oklahoma,74104
9,Clear,2016-07-25 14:53:00,73.9,,20.7,65,N/A,30.03,87.1,9:53 AM,,10.0,North,16.1,10,Tulsa,Oklahoma,74104
10,Clear,2016-07-25 15:53:00,75.0,,23.0,65,N/A,30.02,88.0,10:53 AM,,10.0,NNE,13.8,30,Tulsa,Oklahoma,74104
11,Partly Cloudy,2016-07-25 16:53:00,75.9,,-,65,N/A,30.02,89.1,11:53 AM,,10.0,ENE,9.2,70,Tulsa,Oklahoma,74104
12,Mostly Cloudy,2016-07-25 17:07:00,75.9,,-,65,N/A,30.02,89.1,12:07 PM,,10.0,ENE,12.7,70,Tulsa,Oklahoma,74104
13,Mostly Cloudy,2016-07-25 17:17:00,75.9,,19.6,63,N/A,30.02,90.0,12:17 PM,,10.0,ENE,13.8,60,Tulsa,Oklahoma,74104
14,Mostly Cloudy,2016-07-25 17:53:00,75.9,,21.9,65,N/A,30.03,89.1,12:53 PM,,10.0,NE,15.0,40,Tulsa,Oklahoma,74104
15,Partly Cloudy,2016-07-25 18:53:00,77.0,,-,65,N/A,30.00,90.0,1:53 PM,,10.0,ESE,11.5,110,Tulsa,Oklahoma,74104
16,Clear,2016-07-25 19:53:00,75.9,,-,63,N/A,29.96,90.0,2:53 PM,,10.0,East,8.1,90,Tulsa,Oklahoma,74104
17,Clear,2016-07-25 20:53:00,75.9,,-,61,N/A,29.94,91.0,3:53 PM,,10.0,Variable,5.8,0,Tulsa,Oklahoma,74104
18,Clear,2016-07-25 21:53:00,73.9,,-,57,N/A,29.93,91.0,4:53 PM,,10.0,South,8.1,170,Tulsa,Oklahoma,74104
19,Clear,2016-07-25 22:53:00,75.9,,-,59,N/A,29.92,91.9,5:53 PM,,10.0,ESE,3.5,110,Tulsa,Oklahoma,74104
20,Clear,2016-07-25 23:53:00,79.0,,-,72,N/A,29.91,89.1,6:53 PM,,10.0,Calm,Calm,0,Tulsa,Oklahoma,74104
21,Mostly Cloudy,2016-07-26 00:53:00,75.0,,-,67,N/A,29.95,87.1,7:53 PM,,10.0,NE,10.4,40,Tulsa,Oklahoma,74104
22,Clear,2016-07-26 01:53:00,75.0,,23.0,72,N/A,29.97,84.9,8:53 PM,,10.0,NE,15.0,40,Tulsa,Oklahoma,74104
23,Mostly Cloudy,2016-07-26 02:53:00,73.0,,-,72,N/A,29.97,82.9,9:53 PM,,10.0,NE,11.5,50,Tulsa,Oklahoma,74104
24,Scattered Clouds,2016-07-26 03:53:00,73.9,,-,76,N/A,29.99,82.0,10:53 PM,,10.0,NE,12.7,50,Tulsa,Oklahoma,74104
25,Clear,2016-07-26 04:53:00,75.0,,-,79,N/A,30.01,82.0,11:53 PM,,10.0,East,8.1,80,Tulsa,Oklahoma,74104
0,Mostly Cloudy,2016-07-26 05:53:00,75.0,,-,82,N/A,30.01,81.0,12:53 AM,,10.0,ESE,5.8,110,Tulsa,Oklahoma,74104
1,Partly Cloudy,2016-07-26 06:53:00,75.0,,-,82,N/A,30.00,81.0,1:53 AM,,10.0,Calm,Calm,0,Tulsa,Oklahoma,74104
2,Scattered Clouds,2016-07-26 07:53:00,75.0,,-,88,N/A,29.99,79.0,2:53 AM,,10.0,SW,3.5,230,Tulsa,Oklahoma,74104
3,Clear,2016-07-26 08:53:00,75.0,,-,88,N/A,29.99,79.0,3:53 AM,,10.0,Variable,3.5,0,Tulsa,Oklahoma,74104
4,Clear,2016-07-26 09:53:00,75.0,,-,88,N/A,29.99,79.0,4:53 AM,,10.0,Calm,Calm,0,Tulsa,Oklahoma,74104
5,Clear,2016-07-26 10:53:00,75.0,,-,90,N/A,29.98,78.1,5:53 AM,,10.0,Calm,Calm,0,Tulsa,Oklahoma,74104
6,Clear,2016-07-26 11:53:00,75.9,,-,96,N/A,29.98,77.0,6:53 AM,,10.0,Calm,Calm,0,Tulsa,Oklahoma,74104
7,Clear,2016-07-26 12:53:00,75.9,,-,87,N/A,30.00,80.1,7:53 AM,,10.0,East,4.6,80,Tulsa,Oklahoma,74104
8,Mostly Cloudy,2016-07-26 13:38:00,75.9,,-,87,N/A,30.00,80.1,8:38 AM,,10.0,North,6.9,10,Tulsa,Oklahoma,74104
9,Mostly Cloudy,2016-07-26 13:53:00,75.9,,-,87,N/A,30.01,80.1,8:53 AM,,10.0,North,5.8,360,Tulsa,Oklahoma,74104
10,Scattered Clouds,2016-07-26 14:07:00,75.9,,-,85,N/A,30.01,81.0,9:07 AM,,10.0,North,6.9,10,Tulsa,Oklahoma,74104
11,Clear,2016-07-26 14:53:00,75.9,,-,79,N/A,30.01,82.9,9:53 AM,,10.0,Calm,Calm,0,Tulsa,Oklahoma,74104
12,Clear,2016-07-26 15:53:00,73.9,,-,69,N/A,30.01,84.9,10:53 AM,,10.0,South,3.5,190,Tulsa,Oklahoma,74104
13,Partly Cloudy,2016-07-26 16:53:00,75.0,,-,63,N/A,30.00,89.1,11:53 AM,,10.0,Variable,3.5,0,Tulsa,Oklahoma,74104
14,Partly Cloudy,2016-07-26 17:53:00,73.9,,-,57,N/A,29.99,91.0,12:53 PM,,10.0,Calm,Calm,0,Tulsa,Oklahoma,74104
15,Mostly Cloudy,2016-07-26 18:53:00,75.0,,-,61,N/A,29.96,90.0,1:53 PM,,10.0,Variable,4.6,0,Tulsa,Oklahoma,74104
16,Scattered Clouds,2016-07-26 19:53:00,75.0,,-,67,N/A,29.94,87.1,2:53 PM,,10.0,SW,5.8,220,Tulsa,Oklahoma,74104
17,Clear,2016-07-26 20:53:00,73.9,,-,57,N/A,29.93,91.0,3:53 PM,,10.0,Variable,3.5,0,Tulsa,Oklahoma,74104
18,Clear,2016-07-26 21:20:00,75.9,Thunderstorm,-,63,N/A,29.91,90.0,4:20 PM,,10.0,SSW,4.6,210,Tulsa,Oklahoma,74104
19,Clear,2016-07-26 21:35:00,75.0,,-,58,N/A,29.90,91.9,4:35 PM,,10.0,Variable,3.5,0,Tulsa,Oklahoma,74104
20,Clear,2016-07-26 21:53:00,73.9,,-,54,N/A,29.91,93.0,4:53 PM,,10.0,Calm,Calm,0,Tulsa,Oklahoma,74104
21,Thunderstorm,2016-07-26 22:39:00,75.9,Thunderstorm,-,61,N/A,29.90,91.0,5:39 PM,,10.0,NE,12.7,40,Tulsa,Oklahoma,74104
22,Thunderstorm,2016-07-26 22:53:00,75.9,Thunderstorm,-,65,N/A,29.91,89.1,5:53 PM,,10.0,East,10.4,80,Tulsa,Oklahoma,74104
23,Mostly Cloudy,2016-07-26 23:23:00,75.0,,24.2,77,N/A,29.93,82.9,6:23 PM,,10.0,SE,11.5,140,Tulsa,Oklahoma,74104
24,Scattered Clouds,2016-07-26 23:53:00,75.9,,-,82,N/A,29.94,82.0,6:53 PM,,10.0,SSE,6.9,150,Tulsa,Oklahoma,74104
25,Mostly Cloudy,2016-07-27 00:53:00,73.9,,-,76,N/A,29.94,82.0,7:53 PM,,10.0,South,6.9,170,Tulsa,Oklahoma,74104
26,Mostly Cloudy,2016-07-27 01:53:00,73.9,,-,79,N/A,29.94,81.0,8:53 PM,,10.0,SSE,4.6,150,Tulsa,Oklahoma,74104
27,Clear,2016-07-27 02:53:00,75.0,,-,85,N/A,29.95,80.1,9:53 PM,,10.0,SE,3.5,140,Tulsa,Oklahoma,74104
28,Clear,2016-07-27 03:53:00,75.0,,-,90,N/A,29.96,78.1,10:53 PM,,10.0,ESE,4.6,120,Tulsa,Oklahoma,74104
29,Scattered Clouds,2016-07-27 04:53:00,73.9,,-,87,N/A,29.96,78.1,11:53 PM,,10.0,SE,4.6,130,Tulsa,Oklahoma,74104
0,Overcast,2016-07-27 05:53:00,73.9,,-,87,N/A,29.96,78.1,12:53 AM,,10.0,Calm,Calm,0,Tulsa,Oklahoma,74104
1,Scattered Clouds,2016-07-27 06:53:00,73.9,,-,96,N/A,29.96,75.0,1:53 AM,,10.0,Calm,Calm,0,Tulsa,Oklahoma,74104
2,Clear,2016-07-27 07:53:00,73.9,,-,96,N/A,29.94,75.0,2:53 AM,,10.0,Calm,Calm,0,Tulsa,Oklahoma,74104
3,Clear,2016-07-27 08:53:00,73.9,,-,100,N/A,29.94,73.9,3:53 AM,,10.0,Calm,Calm,0,Tulsa,Oklahoma,74104
4,Clear,2016-07-27 09:53:00,73.9,,-,100,N/A,29.96,73.9,4:53 AM,,8.0,Calm,Calm,0,Tulsa,Oklahoma,74104
5,Clear,2016-07-27 10:53:00,73.9,,-,96,N/A,29.97,75.0,5:53 AM,,10.0,Calm,Calm,0,Tulsa,Oklahoma,74104
6,Clear,2016-07-27 11:53:00,73.9,,-,100,N/A,29.98,73.9,6:53 AM,,8.0,Calm,Calm,0,Tulsa,Oklahoma,74104
7,Clear,2016-07-27 12:53:00,75.0,,-,90,N/A,29.98,78.1,7:53 AM,,10.0,Calm,Calm,0,Tulsa,Oklahoma,74104
8,Clear,2016-07-27 13:53:00,75.0,,-,82,N/A,30.00,81.0,8:53 AM,,10.0,NE,6.9,50,Tulsa,Oklahoma,74104
9,Mostly Cloudy,2016-07-27 14:42:00,73.9,,-,74,N/A,29.98,82.9,9:42 AM,,10.0,Calm,Calm,0,Tulsa,Oklahoma,74104
10,Mostly Cloudy,2016-07-27 14:53:00,75.0,,-,77,N/A,29.99,82.9,9:53 AM,,10.0,North,3.5,350,Tulsa,Oklahoma,74104
11,Scattered Clouds,2016-07-27 15:06:00,75.0,,-,74,N/A,29.98,84.0,10:06 AM,,10.0,NNE,5.8,20,Tulsa,Oklahoma,74104
12,Mostly Cloudy,2016-07-27 15:15:00,75.0,,-,74,N/A,29.98,84.0,10:15 AM,,10.0,Calm,Calm,0,Tulsa,Oklahoma,74104
13,Scattered Clouds,2016-07-27 15:30:00,75.0,,-,72,N/A,29.97,84.9,10:30 AM,,10.0,East,5.8,90,Tulsa,Oklahoma,74104
14,Partly Cloudy,2016-07-27 15:53:00,73.9,,-,72,N/A,29.99,84.0,10:53 AM,,10.0,Variable,4.6,0,Tulsa,Oklahoma,74104
15,Mostly Cloudy,2016-07-27 16:08:00,75.0,,-,72,N/A,29.98,84.9,11:08 AM,,10.0,Calm,Calm,0,Tulsa,Oklahoma,74104
16,Scattered Clouds,2016-07-27 16:32:00,75.0,,-,65,N/A,29.98,88.0,11:32 AM,,10.0,Variable,6.9,0,Tulsa,Oklahoma,74104
17,Mostly Cloudy,2016-07-27 16:53:00,75.0,,-,65,N/A,29.98,88.0,11:53 AM,,10.0,Variable,4.6,0,Tulsa,Oklahoma,74104
18,Scattered Clouds,2016-07-27 17:03:00,75.0,,-,67,N/A,29.97,87.1,12:03 PM,,10.0,South,6.9,180,Tulsa,Oklahoma,74104
19,Mostly Cloudy,2016-07-27 17:25:00,75.0,,-,65,N/A,29.97,88.0,12:25 PM,,10.0,Variable,6.9,0,Tulsa,Oklahoma,74104
20,Mostly Cloudy,2016-07-27 17:32:00,75.9,,-,65,N/A,29.96,89.1,12:32 PM,,10.0,SE,5.8,130,Tulsa,Oklahoma,74104
21,Partly Cloudy,2016-07-27 17:53:00,75.0,,-,63,N/A,29.95,89.1,12:53 PM,,10.0,South,8.1,170,Tulsa,Oklahoma,74104
22,Clear,2016-07-27 18:53:00,73.9,,-,57,N/A,29.93,91.0,1:53 PM,,10.0,Variable,3.5,0,Tulsa,Oklahoma,74104
23,Clear,2016-07-27 19:53:00,73.0,,-,54,N/A,29.93,91.9,2:53 PM,,10.0,East,5.8,100,Tulsa,Oklahoma,74104
24,Clear,2016-07-27 20:53:00,73.0,,-,52,N/A,29.91,93.0,3:53 PM,,10.0,Variable,6.9,0,Tulsa,Oklahoma,74104
25,Clear,2016-07-27 21:53:00,75.0,,-,61,N/A,29.90,90.0,4:53 PM,,10.0,East,5.8,100,Tulsa,Oklahoma,74104
26,Thunderstorm,2016-07-27 22:27:00,75.0,Thunderstorm,-,61,N/A,29.90,90.0,5:27 PM,,10.0,SSE,6.9,150,Tulsa,Oklahoma,74104
27,Mostly Cloudy,2016-07-27 22:42:00,75.0,Thunderstorm,-,63,N/A,29.90,89.1,5:42 PM,,10.0,South,8.1,170,Tulsa,Oklahoma,74104
28,Thunderstorm,2016-07-27 22:49:00,75.2,Thunderstorm,-,62,N/A,29.90,89.6,5:49 PM,,9.0,South,9.2,190,Tulsa,Oklahoma,74104
29,Thunderstorm,2016-07-27 22:53:00,75.9,Thunderstorm,-,67,N/A,29.92,88.0,5:53 PM,,9.0,Variable,6.9,0,Tulsa,Oklahoma,74104
30,Light Rain,2016-07-27 23:46:00,75.0,Rain,-,97,0.05,29.87,75.9,6:46 PM,,5.0,Calm,Calm,0,Tulsa,Oklahoma,74104
31,Light Rain,2016-07-27 23:53:00,75.9,Rain,-,96,0.05,29.88,77.0,6:53 PM,,9.0,Variable,4.6,0,Tulsa,Oklahoma,74104
32,Clear,2016-07-28 00:53:00,78.1,,-,97,0.00,29.92,79.0,7:53 PM,,10.0,Calm,Calm,0,Tulsa,Oklahoma,74104
33,Partly Cloudy,2016-07-28 01:53:00,78.1,,-,97,N/A,29.92,79.0,8:53 PM,,10.0,SSW,4.6,200,Tulsa,Oklahoma,74104
34,Clear,2016-07-28 02:53:00,77.0,,-,96,N/A,29.94,78.1,9:53 PM,,10.0,SSW,3.5,210,Tulsa,Oklahoma,74104
35,Clear,2016-07-28 03:53:00,75.9,,-,96,N/A,29.96,77.0,10:53 PM,,10.0,Calm,Calm,0,Tulsa,Oklahoma,74104
36,Partly Cloudy,2016-07-28 04:53:00,75.9,,-,100,N/A,29.96,75.9,11:53 PM,,8.0,Calm,Calm,0,Tulsa,Oklahoma,74104
0,Clear,2016-07-28 05:53:00,75.0,,-,100,N/A,29.96,75.0,12:53 AM,,6.0,Calm,Calm,0,Tulsa,Oklahoma,74104
1,Clear,2016-07-28 06:53:00,75.0,,-,100,N/A,29.94,75.0,1:53 AM,,4.0,Calm,Calm,0,Tulsa,Oklahoma,74104
2,Clear,2016-07-28 07:53:00,73.9,,-,100,N/A,29.94,73.9,2:53 AM,,4.0,Calm,Calm,0,Tulsa,Oklahoma,74104
3,Clear,2016-07-28 08:53:00,75.0,,-,100,N/A,29.94,75.0,3:53 AM,,4.0,Calm,Calm,0,Tulsa,Oklahoma,74104
4,Clear,2016-07-28 09:53:00,73.9,,-,100,N/A,29.96,73.9,4:53 AM,,7.0,Calm,Calm,0,Tulsa,Oklahoma,74104
5,Clear,2016-07-28 10:53:00,73.9,,-,100,N/A,29.96,73.9,5:53 AM,,5.0,Calm,Calm,0,Tulsa,Oklahoma,74104
6,Clear,2016-07-28 11:53:00,73.9,,-,100,N/A,29.99,73.9,6:53 AM,,2.5,Calm,Calm,0,Tulsa,Oklahoma,74104
7,Clear,2016-07-28 12:00:00,73.9,,-,100,N/A,29.98,73.9,7:00 AM,,3.0,Calm,Calm,0,Tulsa,Oklahoma,74104
8,Clear,2016-07-28 12:53:00,75.0,,-,94,N/A,29.99,77.0,7:53 AM,,9.0,SSW,3.5,210,Tulsa,Oklahoma,74104
9,Clear,2016-07-28 13:53:00,77.0,,-,90,N/A,29.99,80.1,8:53 AM,,10.0,Variable,3.5,0,Tulsa,Oklahoma,74104
10,Clear,2016-07-28 14:53:00,78.1,,-,85,N/A,29.98,82.9,9:53 AM,,10.0,Variable,4.6,0,Tulsa,Oklahoma,74104
11,Clear,2016-07-28 15:53:00,75.9,,-,67,N/A,29.96,88.0,10:53 AM,,10.0,Calm,Calm,0,Tulsa,Oklahoma,74104
12,Clear,2016-07-28 16:53:00,75.0,,-,59,N/A,29.96,91.0,11:53 AM,,10.0,Variable,3.5,0,Tulsa,Oklahoma,74104
13,Scattered Clouds,2016-07-28 17:53:00,75.0,,-,56,N/A,29.96,93.0,12:53 PM,,10.0,Variable,4.6,0,Tulsa,Oklahoma,74104
14,Clear,2016-07-28 18:53:00,73.9,,-,50,N/A,29.94,95.0,1:53 PM,,10.0,Calm,Calm,0,Tulsa,Oklahoma,74104
15,Scattered Clouds,2016-07-28 19:53:00,73.9,,-,49,N/A,29.92,96.1,2:53 PM,,10.0,North,-9999.0,0,Tulsa,Oklahoma,74104
16,Clear,2016-07-28 20:53:00,75.0,,-,51,N/A,29.91,96.1,3:53 PM,,10.0,South,6.9,190,Tulsa,Oklahoma,74104
17,Clear,2016-07-28 21:53:00,73.0,,-,49,N/A,29.90,95.0,4:53 PM,,10.0,SW,4.6,230,Tulsa,Oklahoma,74104
18,Thunderstorm,2016-07-28 22:15:00,73.0,Thunderstorm,-,47,N/A,29.88,96.1,5:15 PM,,10.0,South,8.1,170,Tulsa,Oklahoma,74104
19,Light Thunderstorms and Rain,2016-07-28 22:53:00,71.1,Rain-Thunderstorm,41.4,85,0.00,29.94,75.9,5:53 PM,,10.0,NNE,15.0,20,Tulsa,Oklahoma,74104
20,Thunderstorms and Rain,2016-07-28 23:02:00,71.1,Rain-Thunderstorm,33.4,82,0.12,29.96,77.0,6:02 PM,,1.8,North,18.4,360,Tulsa,Oklahoma,74104
21,Heavy Thunderstorms and Rain,2016-07-28 23:08:00,69.1,Rain-Thunderstorm,41.4,85,0.37,29.98,73.9,6:08 PM,,0.5,NNE,29.9,30,Tulsa,Oklahoma,74104
22,Heavy Thunderstorms and Rain,2016-07-28 23:11:00,69.1,Rain-Thunderstorm,41.4,76,0.54,30.00,77.0,6:11 PM,,0.5,NE,21.9,50,Tulsa,Oklahoma,74104
23,Heavy Thunderstorms and Rain,2016-07-28 23:24:00,70.0,Rain-Thunderstorm,17.3,90,0.92,29.92,73.0,6:24 PM,,0.8,WSW,8.1,240,Tulsa,Oklahoma,74104
24,Thunderstorms and Rain,2016-07-28 23:30:00,68.0,Rain-Thunderstorm,17.3,84,0.94,29.91,73.0,6:30 PM,,2.0,SSW,8.1,210,Tulsa,Oklahoma,74104
25,Light Thunderstorms and Rain,2016-07-28 23:34:00,68.0,Rain-Thunderstorm,-,82,0.94,29.90,73.9,6:34 PM,,4.0,SSW,8.1,210,Tulsa,Oklahoma,74104
26,Light Thunderstorms and Rain,2016-07-28 23:53:00,66.9,Rain-Thunderstorm,-,76,0.95,29.90,75.0,6:53 PM,,10.0,SW,6.9,220,Tulsa,Oklahoma,74104
27,Partly Cloudy,2016-07-29 00:04:00,69.1,Thunderstorm,-,87,0.00,29.90,73.0,7:04 PM,,10.0,Calm,Calm,0,Tulsa,Oklahoma,74104
28,Partly Cloudy,2016-07-29 00:17:00,71.1,,-,93,0.00,29.90,73.0,7:17 PM,,10.0,Calm,Calm,0,Tulsa,Oklahoma,74104
29,Partly Cloudy,2016-07-29 00:53:00,71.1,,-,87,0.00,29.91,75.0,7:53 PM,,10.0,East,4.6,90,Tulsa,Oklahoma,74104
30,Clear,2016-07-29 01:53:00,72.0,,-,100,N/A,29.90,72.0,8:53 PM,,10.0,Calm,Calm,0,Tulsa,Oklahoma,74104
31,Clear,2016-07-29 02:53:00,73.9,,-,100,N/A,29.96,73.9,9:53 PM,,10.0,North,3.5,360,Tulsa,Oklahoma,74104
32,Clear,2016-07-29 03:53:00,73.0,,-,97,N/A,29.99,73.9,10:53 PM,,10.0,NW,3.5,320,Tulsa,Oklahoma,74104
33,Clear,2016-07-29 04:53:00,71.1,,-,85,N/A,29.99,75.9,11:53 PM,,10.0,NNE,4.6,20,Tulsa,Oklahoma,74104
0,Clear,2016-07-29 05:33:00,72.0,Thunderstorm,-,84,N/A,29.97,77.0,12:33 AM,,10.0,NNE,10.4,20,Tulsa,Oklahoma,74104
1,Clear,2016-07-29 05:48:00,71.6,,17.3,83,N/A,29.97,77.0,12:48 AM,,10.0,NNE,11.5,20,Tulsa,Oklahoma,74104
2,Clear,2016-07-29 05:53:00,71.1,,17.3,82,N/A,29.97,77.0,12:53 AM,,10.0,NNE,8.1,20,Tulsa,Oklahoma,74104
3,Scattered Clouds,2016-07-29 06:53:00,72.0,,-,96,N/A,29.98,73.0,1:53 AM,,10.0,SSW,3.5,200,Tulsa,Oklahoma,74104
4,Clear,2016-07-29 07:53:00,72.0,,-,100,N/A,29.94,72.0,2:53 AM,,10.0,WSW,3.5,240,Tulsa,Oklahoma,74104
5,Clear,2016-07-29 08:53:00,72.0,,-,96,N/A,29.92,73.0,3:53 AM,,10.0,SSW,4.6,210,Tulsa,Oklahoma,74104
6,Clear,2016-07-29 09:53:00,72.0,,-,96,N/A,29.92,73.0,4:53 AM,,10.0,Calm,Calm,0,Tulsa,Oklahoma,74104
7,Clear,2016-07-29 10:53:00,72.0,,-,96,N/A,29.96,73.0,5:53 AM,,10.0,Calm,Calm,0,Tulsa,Oklahoma,74104
8,Mostly Cloudy,2016-07-29 11:53:00,73.0,,-,97,N/A,30.00,73.9,6:53 AM,,10.0,Calm,Calm,0,Tulsa,Oklahoma,74104
9,Mostly Cloudy,2016-07-29 12:43:00,69.1,,-,85,N/A,30.01,73.9,7:43 AM,,10.0,NNW,5.8,340,Tulsa,Oklahoma,74104
10,Scattered Clouds,2016-07-29 12:53:00,68.0,Thunderstorm,-,79,N/A,30.01,75.0,7:53 AM,,10.0,Variable,3.5,0,Tulsa,Oklahoma,74104
11,Thunderstorm,2016-07-29 13:50:00,69.8,Thunderstorm,-,88,N/A,30.00,73.4,8:50 AM,,10.0,WSW,4.6,250,Tulsa,Oklahoma,74104
12,Thunderstorm,2016-07-29 13:53:00,70.0,Thunderstorm,-,87,N/A,30.01,73.9,8:53 AM,,10.0,WSW,5.8,250,Tulsa,Oklahoma,74104
13,Mostly Cloudy,2016-07-29 14:40:00,66.0,,-,81,0.00,30.01,72.0,9:40 AM,,10.0,South,6.9,190,Tulsa,Oklahoma,74104
14,Partly Cloudy,2016-07-29 14:53:00,66.9,,-,87,0.00,30.01,71.1,9:53 AM,,10.0,South,8.1,190,Tulsa,Oklahoma,74104
15,Partly Cloudy,2016-07-29 15:53:00,66.9,,-,81,0.00,30.04,73.0,10:53 AM,,10.0,Calm,Calm,0,Tulsa,Oklahoma,74104
16,Partly Cloudy,2016-07-29 16:53:00,68.0,,-,71,0.00,30.01,78.1,11:53 AM,,10.0,Calm,Calm,0,Tulsa,Oklahoma,74104
17,Clear,2016-07-29 17:53:00,68.0,,-,67,0.00,30.00,80.1,12:53 PM,,10.0,ENE,4.6,60,Tulsa,Oklahoma,74104
18,Clear,2016-07-29 18:53:00,70.0,,-,67,N/A,29.97,82.0,1:53 PM,,10.0,Calm,Calm,0,Tulsa,Oklahoma,74104
19,Clear,2016-07-29 19:53:00,69.1,,-,55,N/A,29.96,87.1,2:53 PM,,10.0,North,4.6,10,Tulsa,Oklahoma,74104
20,Clear,2016-07-29 20:53:00,69.1,,-,52,N/A,29.95,89.1,3:53 PM,,10.0,North,4.6,350,Tulsa,Oklahoma,74104
21,Clear,2016-07-29 21:53:00,68.0,,-,47,N/A,29.95,91.0,4:53 PM,,10.0,North,4.6,350,Tulsa,Oklahoma,74104
22,Scattered Clouds,2016-07-29 22:53:00,66.9,,-,46,N/A,29.95,90.0,5:53 PM,,10.0,North,6.9,10,Tulsa,Oklahoma,74104
23,Clear,2016-07-29 23:53:00,68.0,,-,51,N/A,29.94,88.0,6:53 PM,,10.0,North,4.6,350,Tulsa,Oklahoma,74104
24,Clear,2016-07-30 00:53:00,69.1,,-,61,N/A,29.94,84.0,7:53 PM,,10.0,North,3.5,10,Tulsa,Oklahoma,74104
25,Clear,2016-07-30 01:53:00,69.1,,-,69,N/A,29.95,80.1,8:53 PM,,10.0,North,3.5,360,Tulsa,Oklahoma,74104
26,Clear,2016-07-30 02:53:00,70.0,,-,79,N/A,29.97,77.0,9:53 PM,,10.0,North,3.5,350,Tulsa,Oklahoma,74104
27,Clear,2016-07-30 03:53:00,71.1,,-,87,N/A,29.99,75.0,10:53 PM,,10.0,Calm,Calm,0,Tulsa,Oklahoma,74104
28,Clear,2016-07-30 04:53:00,71.1,,-,85,N/A,30.00,75.9,11:53 PM,,10.0,SSW,3.5,200,Tulsa,Oklahoma,74104
0,Clear,2016-07-30 05:53:00,71.1,,-,91,N/A,29.99,73.9,12:53 AM,,10.0,Calm,Calm,0,Tulsa,Oklahoma,74104
1,Clear,2016-07-30 06:53:00,71.1,,-,91,N/A,29.98,73.9,1:53 AM,,10.0,Calm,Calm,0,Tulsa,Oklahoma,74104
2,Clear,2016-07-30 07:53:00,71.1,,-,91,N/A,29.98,73.9,2:53 AM,,10.0,Calm,Calm,0,Tulsa,Oklahoma,74104
3,Clear,2016-07-30 08:53:00,71.1,,-,97,N/A,29.98,72.0,3:53 AM,,10.0,Calm,Calm,0,Tulsa,Oklahoma,74104
4,Clear,2016-07-30 09:53:00,71.1,,-,97,N/A,29.98,72.0,4:53 AM,,10.0,Calm,Calm,0,Tulsa,Oklahoma,74104
5,Clear,2016-07-30 10:53:00,71.1,,-,100,N/A,29.97,71.1,5:53 AM,,10.0,Calm,Calm,0,Tulsa,Oklahoma,74104
6,Scattered Clouds,2016-07-30 11:53:00,72.0,,-,100,N/A,29.98,72.0,6:53 AM,,10.0,Calm,Calm,0,Tulsa,Oklahoma,74104
7,Clear,2016-07-30 12:53:00,72.0,,-,84,N/A,29.99,77.0,7:53 AM,,10.0,Calm,Calm,0,Tulsa,Oklahoma,74104
8,Scattered Clouds,2016-07-30 13:53:00,73.0,,-,79,N/A,29.99,80.1,8:53 AM,,10.0,ESE,3.5,110,Tulsa,Oklahoma,74104
9,Thunderstorm,2016-07-30 14:53:00,73.9,Thunderstorm,-,76,N/A,29.99,82.0,9:53 AM,,10.0,Variable,5.8,0,Tulsa,Oklahoma,74104
10,Light Thunderstorms and Rain,2016-07-30 15:25:00,75.0,Rain-Thunderstorm,-,88,0.06,30.01,79.0,10:25 AM,,2.5,West,5.8,270,Tulsa,Oklahoma,74104
11,Heavy Thunderstorms and Rain,2016-07-30 15:28:00,75.0,Rain-Thunderstorm,-,90,0.17,30.02,78.1,10:28 AM,,0.8,Variable,6.9,0,Tulsa,Oklahoma,74104
12,Heavy Thunderstorms and Rain,2016-07-30 15:30:00,75.0,Fog-Rain-Thunderstorm,21.9,94,0.29,30.03,77.0,10:30 AM,,0.5,NW,13.8,310,Tulsa,Oklahoma,74104
13,Heavy Thunderstorms and Rain,2016-07-30 15:44:00,71.1,Fog-Rain-Thunderstorm,31.1,100,1.17,30.05,71.1,10:44 AM,,0.2,North,13.8,360,Tulsa,Oklahoma,74104
14,Heavy Thunderstorms and Rain,2016-07-30 15:53:00,70.0,Fog-Rain-Thunderstorm,-,100,1.39,30.04,70.0,10:53 AM,,0.5,NE,8.1,40,Tulsa,Oklahoma,74104
15,Thunderstorms and Rain,2016-07-30 15:55:00,70.0,Rain-Thunderstorm,-,100,0.00,30.03,70.0,10:55 AM,,1.0,North,5.8,360,Tulsa,Oklahoma,74104
16,Light Thunderstorms and Rain,2016-07-30 15:58:00,70.0,Rain-Thunderstorm,-,96,0.00,30.02,71.1,10:58 AM,,3.0,North,4.6,360,Tulsa,Oklahoma,74104
17,Light Thunderstorms and Rain,2016-07-30 16:05:00,71.1,Rain-Thunderstorm,-,100,0.01,30.01,71.1,11:05 AM,,9.0,North,4.6,10,Tulsa,Oklahoma,74104
18,Light Thunderstorms and Rain,2016-07-30 16:19:00,71.1,Rain-Thunderstorm,-,97,0.01,30.02,72.0,11:19 AM,,10.0,ENE,4.6,60,Tulsa,Oklahoma,74104
19,Partly Cloudy,2016-07-30 16:33:00,72.0,,-,100,0.01,30.03,72.0,11:33 AM,,10.0,North,3.5,10,Tulsa,Oklahoma,74104
20,Scattered Clouds,2016-07-30 16:53:00,72.0,,-,96,0.01,30.05,73.0,11:53 AM,,10.0,North,6.9,10,Tulsa,Oklahoma,74104
21,Clear,2016-07-30 17:53:00,73.0,,-,94,0.00,30.00,75.0,12:53 PM,,10.0,NNE,4.6,30,Tulsa,Oklahoma,74104
22,Clear,2016-07-30 18:53:00,73.9,,-,87,N/A,29.98,78.1,1:53 PM,,10.0,ESE,9.2,120,Tulsa,Oklahoma,74104
23,Clear,2016-07-30 19:53:00,72.0,,-,74,N/A,29.97,81.0,2:53 PM,,10.0,SSE,6.9,160,Tulsa,Oklahoma,74104
24,Clear,2016-07-30 20:53:00,71.1,,-,65,N/A,29.95,84.0,3:53 PM,,10.0,South,6.9,170,Tulsa,Oklahoma,74104
25,Clear,2016-07-30 21:53:00,71.1,,-,61,N/A,29.95,86.0,4:53 PM,,10.0,South,8.1,190,Tulsa,Oklahoma,74104
26,Clear,2016-07-30 22:53:00,71.1,,-,61,N/A,29.93,86.0,5:53 PM,,10.0,SSE,5.8,160,Tulsa,Oklahoma,74104
27,Clear,2016-07-30 23:53:00,71.1,,-,59,N/A,29.93,87.1,6:53 PM,,10.0,ESE,5.8,120,Tulsa,Oklahoma,74104
28,Clear,2016-07-31 00:53:00,71.1,,-,65,N/A,29.92,84.0,7:53 PM,,10.0,East,5.8,100,Tulsa,Oklahoma,74104
29,Clear,2016-07-31 01:53:00,72.0,,-,74,N/A,29.94,81.0,8:53 PM,,10.0,East,4.6,90,Tulsa,Oklahoma,74104
30,Clear,2016-07-31 02:53:00,73.0,,-,77,N/A,29.94,81.0,9:53 PM,,10.0,ESE,8.1,120,Tulsa,Oklahoma,74104
31,Clear,2016-07-31 03:53:00,73.9,,-,79,N/A,29.96,81.0,10:53 PM,,10.0,SE,4.6,130,Tulsa,Oklahoma,74104
32,Clear,2016-07-31 04:53:00,73.9,,-,81,N/A,29.95,80.1,11:53 PM,,10.0,SSE,4.6,160,Tulsa,Oklahoma,74104
0,Clear,2016-07-31 05:53:00,73.0,,-,79,N/A,29.96,80.1,12:53 AM,,10.0,SSE,8.1,160,Tulsa,Oklahoma,74104
1,Clear,2016-07-31 06:53:00,72.0,,-,81,N/A,29.94,78.1,1:53 AM,,10.0,South,5.8,170,Tulsa,Oklahoma,74104
2,Clear,2016-07-31 07:53:00,72.0,,-,84,N/A,29.93,77.0,2:53 AM,,10.0,South,6.9,170,Tulsa,Oklahoma,74104
3,Clear,2016-07-31 08:53:00,72.0,,-,87,N/A,29.93,75.9,3:53 AM,,10.0,South,4.6,170,Tulsa,Oklahoma,74104
4,Clear,2016-07-31 09:53:00,72.0,,-,87,N/A,29.93,75.9,4:53 AM,,10.0,South,5.8,170,Tulsa,Oklahoma,74104
5,Clear,2016-07-31 10:53:00,71.1,,-,87,N/A,29.93,75.0,5:53 AM,,10.0,South,5.8,170,Tulsa,Oklahoma,74104
6,Clear,2016-07-31 11:53:00,71.1,,-,87,N/A,29.94,75.0,6:53 AM,,10.0,SSE,3.5,160,Tulsa,Oklahoma,74104
7,Clear,2016-07-31 12:53:00,72.0,,-,84,N/A,29.96,77.0,7:53 AM,,10.0,South,5.8,180,Tulsa,Oklahoma,74104
8,Clear,2016-07-31 13:53:00,73.0,,-,77,N/A,29.96,81.0,8:53 AM,,10.0,South,8.1,190,Tulsa,Oklahoma,74104
9,Clear,2016-07-31 14:53:00,73.9,,-,69,N/A,29.96,84.9,9:53 AM,,10.0,SSW,11.5,200,Tulsa,Oklahoma,74104
10,Clear,2016-07-31 15:53:00,75.0,,18.4,65,N/A,29.96,88.0,10:53 AM,,10.0,SSW,6.9,200,Tulsa,Oklahoma,74104
11,Clear,2016-07-31 16:53:00,73.9,,-,55,N/A,29.95,91.9,11:53 AM,,10.0,South,16.1,190,Tulsa,Oklahoma,74104
12,Clear,2016-07-31 17:53:00,75.0,,20.7,56,N/A,29.94,93.0,12:53 PM,,10.0,SSW,12.7,200,Tulsa,Oklahoma,74104
13,Clear,2016-07-31 18:53:00,77.0,,-,58,N/A,29.94,93.9,1:53 PM,,10.0,SSW,8.1,200,Tulsa,Oklahoma,74104
14,Clear,2016-07-31 19:53:00,75.0,,-,51,N/A,29.92,96.1,2:53 PM,,10.0,SSW,10.4,200,Tulsa,Oklahoma,74104
15,Partly Cloudy,2016-07-31 20:53:00,73.9,,-,49,N/A,29.90,96.1,3:53 PM,,10.0,SSW,11.5,210,Tulsa,Oklahoma,74104
16,Partly Cloudy,2016-07-31 21:53:00,73.9,,-,46,N/A,29.88,98.1,4:53 PM,,10.0,SSW,11.5,200,Tulsa,Oklahoma,74104
17,Partly Cloudy,2016-07-31 22:53:00,75.0,,19.6,51,N/A,29.88,96.1,5:53 PM,,10.0,SSW,8.1,210,Tulsa,Oklahoma,74104
18,Clear,2016-07-31 23:53:00,71.1,,-,49,N/A,29.88,93.0,6:53 PM,,10.0,South,13.8,190,Tulsa,Oklahoma,74104
19,Clear,2016-08-01 00:53:00,72.0,,-,55,N/A,29.89,90.0,7:53 PM,,10.0,South,10.4,190,Tulsa,Oklahoma,74104
20,Clear,2016-08-01 01:53:00,73.0,,-,63,N/A,29.90,87.1,8:53 PM,,10.0,South,6.9,170,Tulsa,Oklahoma,74104
21,Clear,2016-08-01 02:53:00,73.9,,-,69,N/A,29.93,84.9,9:53 PM,,10.0,South,5.8,180,Tulsa,Oklahoma,74104
22,Clear,2016-08-01 03:53:00,75.0,,-,82,N/A,29.95,81.0,10:53 PM,,10.0,South,3.5,190,Tulsa,Oklahoma,74104
23,Clear,2016-08-01 04:53:00,73.9,,-,74,N/A,29.95,82.9,11:53 PM,,10.0,South,5.8,180,Tulsa,Oklahoma,74104
0,Clear,2016-08-01 05:53:00,73.9,,-,76,N/A,29.95,82.0,12:53 AM,,10.0,South,5.8,170,Tulsa,Oklahoma,74104
1,Clear,2016-08-01 06:53:00,73.0,,-,77,N/A,29.94,81.0,1:53 AM,,10.0,South,5.8,190,Tulsa,Oklahoma,74104
2,Clear,2016-08-01 07:53:00,71.1,,-,69,N/A,29.94,82.0,2:53 AM,,10.0,South,6.9,190,Tulsa,Oklahoma,74104
3,Clear,2016-08-01 08:53:00,71.1,,-,79,N/A,29.94,78.1,3:53 AM,,10.0,SSW,3.5,200,Tulsa,Oklahoma,74104
4,Clear,2016-08-01 09:53:00,72.0,,-,87,N/A,29.95,75.9,4:53 AM,,10.0,South,3.5,190,Tulsa,Oklahoma,74104
5,Clear,2016-08-01 10:53:00,72.0,,-,81,N/A,29.96,78.1,5:53 AM,,10.0,South,4.6,170,Tulsa,Oklahoma,74104
6,Clear,2016-08-01 11:53:00,72.0,,-,81,N/A,29.97,78.1,6:53 AM,,10.0,South,5.8,170,Tulsa,Oklahoma,74104
7,Clear,2016-08-01 12:53:00,73.0,,-,77,N/A,29.97,81.0,7:53 AM,,10.0,South,6.9,190,Tulsa,Oklahoma,74104
8,Clear,2016-08-01 13:53:00,73.9,,-,72,N/A,29.98,84.0,8:53 AM,,10.0,South,6.9,190,Tulsa,Oklahoma,74104
9,Clear,2016-08-01 14:53:00,73.0,,-,61,N/A,29.99,88.0,9:53 AM,,10.0,SSW,12.7,200,Tulsa,Oklahoma,74104
10,Clear,2016-08-01 15:53:00,73.9,,20.7,59,N/A,29.99,90.0,10:53 AM,,10.0,South,15.0,190,Tulsa,Oklahoma,74104
11,Clear,2016-08-01 16:53:00,75.0,,19.6,56,N/A,29.99,93.0,11:53 AM,,10.0,SSW,11.5,210,Tulsa,Oklahoma,74104
12,Clear,2016-08-01 17:53:00,75.0,,-,54,N/A,29.98,93.9,12:53 PM,,10.0,South,9.2,190,Tulsa,Oklahoma,74104
13,Clear,2016-08-01 18:53:00,75.0,,-,51,N/A,29.97,96.1,1:53 PM,,10.0,South,11.5,180,Tulsa,Oklahoma,74104
14,Clear,2016-08-01 19:53:00,75.0,,-,49,N/A,29.96,97.0,2:53 PM,,10.0,South,10.4,190,Tulsa,Oklahoma,74104
15,Clear,2016-08-01 20:53:00,73.0,,-,44,N/A,29.94,98.1,3:53 PM,,10.0,SSW,12.7,210,Tulsa,Oklahoma,74104
16,Clear,2016-08-01 21:53:00,72.0,,-,43,N/A,29.93,98.1,4:53 PM,,10.0,South,11.5,190,Tulsa,Oklahoma,74104
17,Clear,2016-08-01 22:53:00,72.0,,-,43,N/A,29.92,98.1,5:53 PM,,10.0,SSW,10.4,200,Tulsa,Oklahoma,74104
18,Mostly Cloudy,2016-08-01 23:53:00,73.0,,-,46,N/A,29.91,97.0,6:53 PM,,10.0,South,11.5,180,Tulsa,Oklahoma,74104
19,Clear,2016-08-02 00:53:00,73.9,,-,52,N/A,29.92,93.9,7:53 PM,,10.0,South,6.9,170,Tulsa,Oklahoma,74104
20,Clear,2016-08-02 01:53:00,73.0,,-,54,N/A,29.94,91.9,8:53 PM,,10.0,South,6.9,170,Tulsa,Oklahoma,74104
21,Clear,2016-08-02 02:53:00,73.9,,-,65,N/A,29.96,87.1,9:53 PM,,10.0,South,5.8,190,Tulsa,Oklahoma,74104
22,Clear,2016-08-02 03:53:00,73.9,,-,76,N/A,29.99,82.0,10:53 PM,,10.0,SSW,3.5,210,Tulsa,Oklahoma,74104
23,Clear,2016-08-02 04:53:00,72.0,,-,63,N/A,29.99,86.0,11:53 PM,,10.0,South,4.6,170,Tulsa,Oklahoma,74104
0,Clear,2016-08-02 05:53:00,70.0,,-,61,N/A,30.00,84.9,12:53 AM,,10.0,South,5.8,170,Tulsa,Oklahoma,74104
1,Clear,2016-08-02 06:53:00,71.1,,-,72,N/A,30.00,81.0,1:53 AM,,10.0,SSW,4.6,200,Tulsa,Oklahoma,74104
2,Clear,2016-08-02 07:53:00,69.1,,-,65,N/A,30.00,82.0,2:53 AM,,10.0,South,5.8,190,Tulsa,Oklahoma,74104
3,Clear,2016-08-02 08:53:00,69.1,,-,74,N/A,29.99,78.1,3:53 AM,,10.0,SSW,4.6,200,Tulsa,Oklahoma,74104
4,Clear,2016-08-02 09:53:00,70.0,,-,87,N/A,29.99,73.9,4:53 AM,,10.0,Calm,Calm,0,Tulsa,Oklahoma,74104
5,Clear,2016-08-02 10:53:00,69.1,,-,82,N/A,30.01,75.0,5:53 AM,,10.0,SSW,3.5,200,Tulsa,Oklahoma,74104
6,Clear,2016-08-02 11:53:00,69.1,,-,82,N/A,30.02,75.0,6:53 AM,,10.0,Calm,Calm,0,Tulsa,Oklahoma,74104
7,Clear,2016-08-02 12:53:00,68.0,,-,69,N/A,30.04,79.0,7:53 AM,,10.0,South,4.6,180,Tulsa,Oklahoma,74104
8,Clear,2016-08-02 13:53:00,69.1,,-,63,N/A,30.04,82.9,8:53 AM,,10.0,South,5.8,190,Tulsa,Oklahoma,74104
9,Clear,2016-08-02 14:53:00,70.0,,-,57,N/A,30.04,87.1,9:53 AM,,10.0,SSW,5.8,210,Tulsa,Oklahoma,74104
10,Clear,2016-08-02 15:53:00,71.1,,-,54,N/A,30.04,90.0,10:53 AM,,10.0,SSW,8.1,200,Tulsa,Oklahoma,74104
11,Clear,2016-08-02 16:53:00,72.0,,-,52,N/A,30.04,91.9,11:53 AM,,10.0,Variable,5.8,0,Tulsa,Oklahoma,74104
12,Clear,2016-08-02 17:53:00,73.0,,17.3,51,N/A,30.02,93.9,12:53 PM,,10.0,SW,9.2,220,Tulsa,Oklahoma,74104
13,Clear,2016-08-02 18:53:00,75.0,,-,49,N/A,30.01,97.0,1:53 PM,,10.0,SSW,8.1,210,Tulsa,Oklahoma,74104
14,Clear,2016-08-02 19:53:00,73.9,,-,45,N/A,29.99,99.0,2:53 PM,,10.0,South,9.2,180,Tulsa,Oklahoma,74104
15,Clear,2016-08-02 20:53:00,73.0,,-,43,N/A,29.97,99.0,3:53 PM,,10.0,South,10.4,170,Tulsa,Oklahoma,74104
16,Clear,2016-08-02 21:53:00,72.0,,-,42,N/A,29.96,99.0,4:53 PM,,10.0,South,10.4,190,Tulsa,Oklahoma,74104
17,Clear,2016-08-02 22:53:00,72.0,,-,42,N/A,29.95,99.0,5:53 PM,,10.0,South,6.9,190,Tulsa,Oklahoma,74104
18,Clear,2016-08-02 23:53:00,71.1,,-,47,N/A,29.95,93.9,6:53 PM,,10.0,SW,5.8,220,Tulsa,Oklahoma,74104
19,Clear,2016-08-03 00:53:00,73.9,,-,67,N/A,29.95,86.0,7:53 PM,,10.0,SW,3.5,220,Tulsa,Oklahoma,74104
20,Clear,2016-08-03 01:53:00,75.0,,-,82,N/A,29.96,81.0,8:53 PM,,10.0,Calm,Calm,0,Tulsa,Oklahoma,74104
21,Clear,2016-08-03 02:53:00,75.0,,-,85,N/A,29.98,80.1,9:53 PM,,10.0,Calm,Calm,0,Tulsa,Oklahoma,74104
22,Clear,2016-08-03 03:53:00,75.0,,-,88,N/A,30.00,79.0,10:53 PM,,10.0,Calm,Calm,0,Tulsa,Oklahoma,74104
23,Clear,2016-08-03 04:53:00,75.0,,-,82,N/A,30.01,81.0,11:53 PM,,10.0,Calm,Calm,0,Tulsa,Oklahoma,74104
0,Clear,2016-08-03 05:53:00,70.0,,-,63,N/A,30.00,84.0,12:53 AM,,10.0,SSW,3.5,200,Tulsa,Oklahoma,74104
1,Clear,2016-08-03 06:53:00,69.1,,-,67,N/A,29.99,81.0,1:53 AM,,10.0,SSW,3.5,210,Tulsa,Oklahoma,74104
2,Clear,2016-08-03 07:53:00,68.0,,-,67,N/A,29.99,80.1,2:53 AM,,10.0,SSW,3.5,210,Tulsa,Oklahoma,74104
3,Clear,2016-08-03 08:53:00,68.0,,-,67,N/A,29.99,80.1,3:53 AM,,10.0,Calm,Calm,0,Tulsa,Oklahoma,74104
4,Clear,2016-08-03 09:53:00,70.0,,-,84,N/A,30.00,75.0,4:53 AM,,10.0,Calm,Calm,0,Tulsa,Oklahoma,74104
5,Clear,2016-08-03 10:53:00,70.0,,-,87,N/A,30.00,73.9,5:53 AM,,10.0,Calm,Calm,0,Tulsa,Oklahoma,74104
6,Clear,2016-08-03 11:53:00,69.1,,-,82,N/A,30.01,75.0,6:53 AM,,10.0,Calm,Calm,0,Tulsa,Oklahoma,74104
7,Clear,2016-08-03 12:53:00,72.0,,-,87,N/A,30.03,75.9,7:53 AM,,10.0,Calm,Calm,0,Tulsa,Oklahoma,74104
8,Clear,2016-08-03 13:53:00,71.1,,-,65,N/A,30.02,84.0,8:53 AM,,10.0,Calm,Calm,0,Tulsa,Oklahoma,74104
9,Clear,2016-08-03 14:53:00,71.1,,-,65,N/A,30.02,84.0,9:53 AM,,10.0,South,5.8,180,Tulsa,Oklahoma,74104
10,Clear,2016-08-03 15:53:00,73.0,,-,65,N/A,30.02,86.0,10:53 AM,,10.0,SSE,3.5,150,Tulsa,Oklahoma,74104
11,Clear,2016-08-03 16:53:00,73.9,,-,57,N/A,30.01,91.0,11:53 AM,,10.0,SSE,3.5,150,Tulsa,Oklahoma,74104
12,Clear,2016-08-03 17:53:00,73.0,,-,47,N/A,29.99,96.1,12:53 PM,,10.0,Variable,6.9,0,Tulsa,Oklahoma,74104
13,Clear,2016-08-03 18:53:00,66.0,,-,33,N/A,29.97,100.0,1:53 PM,,10.0,South,10.4,180,Tulsa,Oklahoma,74104
14,Clear,2016-08-03 19:53:00,66.0,,-,33,N/A,29.95,100.0,2:53 PM,,10.0,South,11.5,170,Tulsa,Oklahoma,74104
15,Clear,2016-08-03 20:53:00,69.1,,-,38,N/A,29.93,99.0,3:53 PM,,10.0,SSW,9.2,210,Tulsa,Oklahoma,74104
16,Clear,2016-08-03 21:53:00,71.1,,-,40,N/A,29.91,99.0,4:53 PM,,10.0,SSE,10.4,160,Tulsa,Oklahoma,74104
17,Clear,2016-08-03 22:53:00,71.1,,-,40,N/A,29.91,99.0,5:53 PM,,10.0,ESE,10.4,120,Tulsa,Oklahoma,74104
18,Clear,2016-08-03 23:53:00,71.1,,-,42,N/A,29.89,98.1,6:53 PM,,10.0,SSE,9.2,160,Tulsa,Oklahoma,74104
19,Clear,2016-08-04 00:53:00,71.1,,-,44,N/A,29.89,96.1,7:53 PM,,10.0,South,5.8,170,Tulsa,Oklahoma,74104
20,Clear,2016-08-04 01:53:00,72.0,,-,53,N/A,29.89,91.0,8:53 PM,,10.0,SE,5.8,140,Tulsa,Oklahoma,74104
21,Clear,2016-08-04 02:53:00,73.9,,-,69,N/A,29.91,84.9,9:53 PM,,10.0,SSE,3.5,150,Tulsa,Oklahoma,74104
22,Clear,2016-08-04 03:53:00,75.0,,-,82,N/A,29.92,81.0,10:53 PM,,10.0,Calm,Calm,0,Tulsa,Oklahoma,74104
23,Clear,2016-08-04 04:53:00,75.9,,-,87,N/A,29.91,80.1,11:53 PM,,10.0,Calm,Calm,0,Tulsa,Oklahoma,74104
0,Clear,2016-08-04 05:53:00,75.0,,-,90,N/A,29.91,78.1,12:53 AM,,10.0,Calm,Calm,0,Tulsa,Oklahoma,74104
1,Clear,2016-08-04 06:53:00,73.9,,-,87,N/A,29.90,78.1,1:53 AM,,10.0,Calm,Calm,0,Tulsa,Oklahoma,74104
2,Clear,2016-08-04 07:53:00,73.9,,-,90,N/A,29.90,77.0,2:53 AM,,10.0,Calm,Calm,0,Tulsa,Oklahoma,74104
3,Clear,2016-08-04 08:53:00,72.0,,-,84,N/A,29.90,77.0,3:53 AM,,10.0,Calm,Calm,0,Tulsa,Oklahoma,74104
4,Clear,2016-08-04 09:53:00,72.0,,-,87,N/A,29.91,75.9,4:53 AM,,10.0,Calm,Calm,0,Tulsa,Oklahoma,74104
5,Clear,2016-08-04 10:53:00,72.0,,-,90,N/A,29.91,75.0,5:53 AM,,10.0,South,3.5,180,Tulsa,Oklahoma,74104
6,Clear,2016-08-04 11:53:00,72.0,,-,87,N/A,29.92,75.9,6:53 AM,,10.0,Calm,Calm,0,Tulsa,Oklahoma,74104
7,Clear,2016-08-04 12:53:00,72.0,,-,74,N/A,29.94,81.0,7:53 AM,,10.0,South,3.5,170,Tulsa,Oklahoma,74104
8,Clear,2016-08-04 13:53:00,73.0,,-,67,N/A,29.96,84.9,8:53 AM,,-9999.0,SSW,5.8,200,Tulsa,Oklahoma,74104
9,Clear,2016-08-04 14:53:00,73.0,,-,59,N/A,29.96,89.1,9:53 AM,,10.0,SW,9.2,220,Tulsa,Oklahoma,74104
10,Partly Cloudy,2016-08-04 15:53:00,75.0,,-,59,N/A,29.96,91.0,10:53 AM,,10.0,Variable,4.6,0,Tulsa,Oklahoma,74104
11,Clear,2016-08-04 16:53:00,73.9,,-,50,N/A,29.95,95.0,11:53 AM,,10.0,SSW,9.2,200,Tulsa,Oklahoma,74104
12,Clear,2016-08-04 17:53:00,73.9,,-,47,N/A,29.93,97.0,12:53 PM,,10.0,SSW,11.5,210,Tulsa,Oklahoma,74104
13,Partly Cloudy,2016-08-04 18:53:00,75.0,,-,48,N/A,29.92,98.1,1:53 PM,,10.0,SSW,12.7,200,Tulsa,Oklahoma,74104
14,Clear,2016-08-04 19:53:00,73.0,,-,43,N/A,29.90,99.0,2:53 PM,,10.0,SSW,10.4,210,Tulsa,Oklahoma,74104
15,Clear,2016-08-04 20:53:00,72.0,,18.4,40,N/A,29.89,100.0,3:53 PM,,10.0,SSW,9.2,200,Tulsa,Oklahoma,74104
16,Clear,2016-08-04 21:53:00,72.0,,-,40,N/A,29.88,100.0,4:53 PM,,10.0,South,8.1,190,Tulsa,Oklahoma,74104
17,Clear,2016-08-04 22:53:00,72.0,,-,42,N/A,29.86,99.0,5:53 PM,,10.0,South,11.5,180,Tulsa,Oklahoma,74104
18,Clear,2016-08-04 23:53:00,72.0,,-,43,N/A,29.86,98.1,6:53 PM,,10.0,South,9.2,180,Tulsa,Oklahoma,74104
19,Clear,2016-08-05 00:53:00,75.0,,-,61,N/A,29.85,90.0,7:53 PM,,10.0,SW,4.6,220,Tulsa,Oklahoma,74104
20,Clear,2016-08-05 01:53:00,77.0,,-,82,N/A,29.85,82.9,8:53 PM,,10.0,Calm,Calm,0,Tulsa,Oklahoma,74104
21,Clear,2016-08-05 02:53:00,75.9,,-,82,N/A,29.88,82.0,9:53 PM,,10.0,Calm,Calm,0,Tulsa,Oklahoma,74104
22,Clear,2016-08-05 03:53:00,75.9,,-,85,N/A,29.91,81.0,10:53 PM,,10.0,Calm,Calm,0,Tulsa,Oklahoma,74104
23,Clear,2016-08-05 04:53:00,75.9,,-,90,N/A,29.90,79.0,11:53 PM,,10.0,Calm,Calm,0,Tulsa,Oklahoma,74104
0,Clear,2016-08-05 05:53:00,73.9,,-,84,N/A,29.89,79.0,12:53 AM,,10.0,Calm,Calm,0,Tulsa,Oklahoma,74104
1,Clear,2016-08-05 06:53:00,71.1,,-,72,N/A,29.88,81.0,1:53 AM,,10.0,Calm,Calm,0,Tulsa,Oklahoma,74104
2,Clear,2016-08-05 07:53:00,73.0,,-,88,N/A,29.89,77.0,2:53 AM,,10.0,Calm,Calm,0,Tulsa,Oklahoma,74104
3,Clear,2016-08-05 08:53:00,73.0,,-,91,N/A,29.90,75.9,3:53 AM,,10.0,Calm,Calm,0,Tulsa,Oklahoma,74104
4,Partly Cloudy,2016-08-05 09:53:00,73.0,,-,94,N/A,29.93,75.0,4:53 AM,,10.0,Calm,Calm,0,Tulsa,Oklahoma,74104
5,Overcast,2016-08-05 10:53:00,72.0,,-,74,N/A,29.96,81.0,5:53 AM,,10.0,Calm,Calm,0,Tulsa,Oklahoma,74104
6,Mostly Cloudy,2016-08-05 11:53:00,73.9,,-,87,N/A,29.97,78.1,6:53 AM,,10.0,Calm,Calm,0,Tulsa,Oklahoma,74104
7,Mostly Cloudy,2016-08-05 12:53:00,72.0,,-,69,N/A,29.99,82.9,7:53 AM,,10.0,Variable,3.5,0,Tulsa,Oklahoma,74104
8,Partly Cloudy,2016-08-05 13:53:00,73.0,,-,67,N/A,29.99,84.9,8:53 AM,,10.0,Variable,3.5,0,Tulsa,Oklahoma,74104
9,Clear,2016-08-05 14:53:00,75.0,,-,74,N/A,29.99,84.0,9:53 AM,,10.0,SW,3.5,230,Tulsa,Oklahoma,74104
10,Clear,2016-08-05 15:53:00,73.9,,-,59,N/A,29.99,90.0,10:53 AM,,10.0,Calm,Calm,0,Tulsa,Oklahoma,74104
11,Clear,2016-08-05 16:53:00,73.0,,-,52,N/A,29.98,93.0,11:53 AM,,10.0,Calm,Calm,0,Tulsa,Oklahoma,74104
12,Clear,2016-08-05 17:53:00,73.0,,-,52,N/A,29.96,93.0,12:53 PM,,10.0,ENE,3.5,70,Tulsa,Oklahoma,74104
13,Clear,2016-08-05 18:53:00,75.0,,-,54,N/A,29.94,93.9,1:53 PM,,10.0,NW,3.5,310,Tulsa,Oklahoma,74104
14,Clear,2016-08-05 19:53:00,75.0,,-,49,N/A,29.93,97.0,2:53 PM,,10.0,NNE,3.5,20,Tulsa,Oklahoma,74104
15,Clear,2016-08-05 20:53:00,75.9,,-,49,N/A,29.91,98.1,3:53 PM,,10.0,NNW,4.6,330,Tulsa,Oklahoma,74104
16,Clear,2016-08-05 21:53:00,77.0,,-,54,N/A,29.90,96.1,4:53 PM,,10.0,Calm,Calm,0,Tulsa,Oklahoma,74104
17,Clear,2016-08-05 22:53:00,75.9,,-,54,N/A,29.89,95.0,5:53 PM,,10.0,West,3.5,280,Tulsa,Oklahoma,74104
18,Clear,2016-08-05 23:53:00,78.1,,-,62,N/A,29.89,93.0,6:53 PM,,10.0,Calm,Calm,0,Tulsa,Oklahoma,74104
19,Clear,2016-08-06 00:53:00,78.1,,-,68,N/A,29.89,90.0,7:53 PM,,10.0,North,4.6,10,Tulsa,Oklahoma,74104
20,Clear,2016-08-06 01:53:00,75.0,,-,65,N/A,29.90,88.0,8:53 PM,,10.0,North,5.8,10,Tulsa,Oklahoma,74104
21,Clear,2016-08-06 02:53:00,73.9,,-,65,N/A,29.93,87.1,9:53 PM,,10.0,NE,5.8,40,Tulsa,Oklahoma,74104
22,Clear,2016-08-06 03:53:00,73.9,,-,69,N/A,29.94,84.9,10:53 PM,,10.0,NE,3.5,50,Tulsa,Oklahoma,74104
23,Clear,2016-08-06 04:53:00,73.9,,-,67,N/A,29.96,86.0,11:53 PM,,10.0,NE,5.8,50,Tulsa,Oklahoma,74104
0,Clear,2016-08-06 05:53:00,72.0,,-,63,N/A,29.94,86.0,12:53 AM,,10.0,ENE,5.8,70,Tulsa,Oklahoma,74104
1,Partly Cloudy,2016-08-06 06:53:00,73.0,,-,69,N/A,29.94,84.0,1:53 AM,,10.0,NE,4.6,50,Tulsa,Oklahoma,74104
2,Overcast,2016-08-06 07:53:00,73.9,Thunderstorm,-,72,N/A,29.94,84.0,2:53 AM,,10.0,NNE,5.8,20,Tulsa,Oklahoma,74104
3,Heavy Thunderstorms and Rain,2016-08-06 08:15:00,77.0,Rain-Thunderstorm,23.0,96,0.26,29.97,78.1,3:15 AM,,2.0,North,12.7,350,Tulsa,Oklahoma,74104
4,Heavy Thunderstorms and Rain,2016-08-06 08:22:00,77.0,Rain-Thunderstorm,-,96,0.45,29.97,78.1,3:22 AM,,1.2,NNE,13.8,20,Tulsa,Oklahoma,74104
5,Heavy Thunderstorms and Rain,2016-08-06 08:29:00,77.0,Rain-Thunderstorm,23.0,96,0.63,30.00,78.1,3:29 AM,,1.2,NW,9.2,310,Tulsa,Oklahoma,74104
6,Unknown,2016-08-06 08:41:00,73.0,Thunderstorm,31.1,100,1.16,30.03,73.0,3:41 AM,,0.8,North,19.6,360,Tulsa,Oklahoma,74104
7,Heavy Thunderstorms and Rain,2016-08-06 08:48:00,71.6,Fog-Rain-Thunderstorm,35.7,100,1.74,29.98,71.6,3:48 AM,,0.2,North,23.0,10,Tulsa,Oklahoma,74104
8,Heavy Thunderstorms and Rain,2016-08-06 08:53:00,72.0,Rain-Thunderstorm,35.7,100,1.81,29.97,72.0,3:53 AM,,0.8,NNE,21.9,20,Tulsa,Oklahoma,74104
9,Heavy Thunderstorms and Rain,2016-08-06 08:59:00,72.0,Rain-Thunderstorm,35.7,96,0.04,29.96,73.0,3:59 AM,,2.0,NNE,17.3,30,Tulsa,Oklahoma,74104
10,Light Thunderstorms and Rain,2016-08-06 09:06:00,71.1,Rain-Thunderstorm,-,91,0.05,29.95,73.9,4:06 AM,,6.0,ENE,16.1,60,Tulsa,Oklahoma,74104
11,Light Thunderstorms and Rain,2016-08-06 09:15:00,72.0,Rain-Thunderstorm,-,90,0.05,29.94,75.0,4:15 AM,,10.0,ENE,11.5,70,Tulsa,Oklahoma,74104
12,Light Rain,2016-08-06 09:41:00,72.0,Rain,-,93,0.05,29.95,73.9,4:41 AM,,10.0,North,6.9,10,Tulsa,Oklahoma,74104
13,Light Rain,2016-08-06 09:53:00,72.0,Rain-Thunderstorm,-,96,0.05,29.98,73.0,4:53 AM,,10.0,NNW,8.1,340,Tulsa,Oklahoma,74104
14,Light Thunderstorms and Rain,2016-08-06 10:08:00,73.0,Rain-Thunderstorm,-,100,0.06,30.00,73.0,5:08 AM,,6.0,Variable,6.9,0,Tulsa,Oklahoma,74104
15,Heavy Thunderstorms and Rain,2016-08-06 10:13:00,73.0,Rain-Thunderstorm,-,100,0.19,29.99,73.0,5:13 AM,,1.8,NE,10.4,50,Tulsa,Oklahoma,74104
16,Heavy Thunderstorms and Rain,2016-08-06 10:23:00,73.0,Rain-Thunderstorm,-,100,0.26,29.99,73.0,5:23 AM,,3.0,SSE,5.8,150,Tulsa,Oklahoma,74104
17,Heavy Thunderstorms and Rain,2016-08-06 10:46:00,72.0,Rain-Thunderstorm,19.6,93,0.52,29.97,73.9,5:46 AM,,2.5,ESE,15.0,120,Tulsa,Oklahoma,74104
18,Light Thunderstorms and Rain,2016-08-06 10:53:00,72.0,Rain-Thunderstorm,19.6,90,0.52,29.98,75.0,5:53 AM,,7.0,NNE,9.2,30,Tulsa,Oklahoma,74104
19,Rain,2016-08-06 11:25:00,72.0,Rain-Thunderstorm,-,90,0.19,29.98,75.0,6:25 AM,,5.0,ENE,4.6,60,Tulsa,Oklahoma,74104
20,Light Thunderstorms and Rain,2016-08-06 11:53:00,73.0,Rain-Thunderstorm,-,97,0.20,30.01,73.9,6:53 AM,,10.0,NW,4.6,320,Tulsa,Oklahoma,74104
21,Heavy Thunderstorms and Rain,2016-08-06 12:02:00,73.0,Rain-Thunderstorm,-,100,0.08,30.01,73.0,7:02 AM,,1.8,Variable,3.5,0,Tulsa,Oklahoma,74104
22,Light Thunderstorms and Rain,2016-08-06 12:14:00,73.0,Rain-Thunderstorm,-,100,0.12,29.99,73.0,7:14 AM,,3.0,WSW,3.5,250,Tulsa,Oklahoma,74104
23,Light Rain,2016-08-06 12:34:00,73.0,Rain-Thunderstorm,-,97,0.13,30.00,73.9,7:34 AM,,10.0,Calm,Calm,0,Tulsa,Oklahoma,74104
24,Overcast,2016-08-06 12:53:00,73.9,Thunderstorm,-,100,0.13,30.01,73.9,7:53 AM,,10.0,West,3.5,270,Tulsa,Oklahoma,74104
25,Overcast,2016-08-06 13:04:00,73.9,,-,100,N/A,30.01,73.9,8:04 AM,,10.0,Variable,3.5,0,Tulsa,Oklahoma,74104
26,Heavy Rain,2016-08-06 13:15:00,73.9,Rain-Thunderstorm,-,100,0.04,30.02,73.9,8:15 AM,,2.5,NW,8.1,310,Tulsa,Oklahoma,74104
27,Heavy Thunderstorms and Rain,2016-08-06 13:23:00,73.9,Rain-Thunderstorm,-,100,0.14,30.03,73.9,8:23 AM,,1.0,Variable,5.8,0,Tulsa,Oklahoma,74104
28,Heavy Thunderstorms and Rain,2016-08-06 13:33:00,73.0,Fog-Rain-Thunderstorm,-,97,0.31,30.04,73.9,8:33 AM,,0.5,North,-9999.0,0,Tulsa,Oklahoma,74104
29,Heavy Thunderstorms and Rain,2016-08-06 13:51:00,71.6,Fog-Rain-Thunderstorm,23.0,100,0.88,30.05,71.6,8:51 AM,,0.5,NW,10.4,320,Tulsa,Oklahoma,74104
30,Heavy Thunderstorms and Rain,2016-08-06 13:53:00,71.1,Fog-Rain-Thunderstorm,18.4,97,0.90,30.06,72.0,8:53 AM,,0.5,NW,9.2,320,Tulsa,Oklahoma,74104
31,Heavy Thunderstorms and Rain,2016-08-06 13:57:00,70.0,Rain-Thunderstorm,18.4,93,0.03,30.05,72.0,8:57 AM,,1.0,WNW,8.1,300,Tulsa,Oklahoma,74104
32,Thunderstorms and Rain,2016-08-06 14:09:00,70.0,Rain-Thunderstorm,18.4,93,0.08,30.07,72.0,9:09 AM,,3.0,Variable,6.9,0,Tulsa,Oklahoma,74104
33,Heavy Thunderstorms and Rain,2016-08-06 14:16:00,70.0,Rain-Thunderstorm,-,96,0.12,30.07,71.1,9:16 AM,,2.0,NW,8.1,310,Tulsa,Oklahoma,74104
34,Heavy Rain,2016-08-06 14:23:00,70.0,Rain-Thunderstorm,-,93,0.18,30.08,72.0,9:23 AM,,1.2,Variable,6.9,0,Tulsa,Oklahoma,74104
35,Heavy Thunderstorms and Rain,2016-08-06 14:37:00,71.1,Rain-Thunderstorm,-,97,0.26,30.08,72.0,9:37 AM,,1.8,Calm,Calm,0,Tulsa,Oklahoma,74104
36,Thunderstorms and Rain,2016-08-06 14:43:00,72.0,Rain-Thunderstorm,-,100,0.27,30.08,72.0,9:43 AM,,3.0,NW,5.8,310,Tulsa,Oklahoma,74104
37,Light Rain,2016-08-06 14:53:00,72.0,Rain-Thunderstorm,-,100,0.28,30.09,72.0,9:53 AM,,5.0,Calm,Calm,0,Tulsa,Oklahoma,74104
38,Heavy Rain,2016-08-06 15:15:00,72.0,Rain-Thunderstorm,-,100,0.07,30.07,72.0,10:15 AM,,1.8,NW,5.8,310,Tulsa,Oklahoma,74104
39,Light Thunderstorms and Rain,2016-08-06 15:24:00,72.0,Rain-Thunderstorm,-,100,0.09,30.07,72.0,10:24 AM,,2.0,WSW,3.5,240,Tulsa,Oklahoma,74104
40,Thunderstorms and Rain,2016-08-06 15:32:00,72.0,Rain-Thunderstorm,-,100,0.11,30.05,72.0,10:32 AM,,3.0,WSW,3.5,240,Tulsa,Oklahoma,74104
41,Light Rain,2016-08-06 15:53:00,72.0,Rain,-,100,0.14,30.04,72.0,10:53 AM,,5.0,NNW,3.5,340,Tulsa,Oklahoma,74104
42,Light Rain,2016-08-06 16:53:00,73.0,Rain,-,94,0.04,30.03,75.0,11:53 AM,,10.0,Calm,Calm,0,Tulsa,Oklahoma,74104
43,Scattered Clouds,2016-08-06 17:53:00,75.0,,-,94,0.00,30.01,77.0,12:53 PM,,10.0,SW,4.6,230,Tulsa,Oklahoma,74104
44,Clear,2016-08-06 18:53:00,75.9,,-,85,N/A,29.99,81.0,1:53 PM,,10.0,ESE,3.5,110,Tulsa,Oklahoma,74104
45,Partly Cloudy,2016-08-06 19:53:00,73.9,,-,69,N/A,29.97,84.9,2:53 PM,,10.0,East,5.8,80,Tulsa,Oklahoma,74104
46,Clear,2016-08-06 20:53:00,77.0,,-,70,N/A,29.95,88.0,3:53 PM,,10.0,ENE,8.1,60,Tulsa,Oklahoma,74104
47,Clear,2016-08-06 21:53:00,75.0,,-,65,N/A,29.95,88.0,4:53 PM,,10.0,ENE,3.5,60,Tulsa,Oklahoma,74104
48,Clear,2016-08-06 22:53:00,70.0,,-,59,N/A,29.94,86.0,5:53 PM,,10.0,NNE,6.9,20,Tulsa,Oklahoma,74104
49,Clear,2016-08-06 23:53:00,70.0,,-,61,N/A,29.94,84.9,6:53 PM,,10.0,ENE,6.9,60,Tulsa,Oklahoma,74104
50,Clear,2016-08-07 00:53:00,73.0,,-,74,N/A,29.94,82.0,7:53 PM,,10.0,NNE,4.6,20,Tulsa,Oklahoma,74104
51,Clear,2016-08-07 01:53:00,73.9,,-,76,N/A,29.96,82.0,8:53 PM,,10.0,ENE,4.6,60,Tulsa,Oklahoma,74104
52,Clear,2016-08-07 02:53:00,73.9,,-,81,N/A,29.96,80.1,9:53 PM,,10.0,NE,3.5,40,Tulsa,Oklahoma,74104
53,Clear,2016-08-07 03:53:00,75.0,,-,82,N/A,29.96,81.0,10:53 PM,,10.0,NE,6.9,40,Tulsa,Oklahoma,74104
54,Clear,2016-08-07 04:53:00,75.9,,-,87,N/A,29.97,80.1,11:53 PM,,10.0,NE,6.9,50,Tulsa,Oklahoma,74104
0,Overcast,2016-08-07 05:53:00,77.0,,-,90,N/A,29.98,80.1,12:53 AM,,10.0,ENE,5.8,70,Tulsa,Oklahoma,74104
1,Clear,2016-08-07 06:53:00,75.9,,-,90,N/A,29.96,79.0,1:53 AM,,10.0,ENE,6.9,70,Tulsa,Oklahoma,74104
2,Clear,2016-08-07 07:53:00,75.9,,-,93,N/A,29.95,78.1,2:53 AM,,10.0,NE,5.8,50,Tulsa,Oklahoma,74104
3,Clear,2016-08-07 08:53:00,75.9,,-,93,N/A,29.94,78.1,3:53 AM,,10.0,NE,4.6,50,Tulsa,Oklahoma,74104
4,Partly Cloudy,2016-08-07 09:53:00,75.9,,-,93,N/A,29.94,78.1,4:53 AM,,10.0,NNE,3.5,30,Tulsa,Oklahoma,74104
5,Clear,2016-08-07 10:53:00,75.9,,-,96,0.00,29.94,77.0,5:53 AM,,10.0,Calm,Calm,0,Tulsa,Oklahoma,74104
6,Clear,2016-08-07 11:53:00,75.9,,-,93,N/A,29.95,78.1,6:53 AM,,10.0,East,3.5,100,Tulsa,Oklahoma,74104
7,Clear,2016-08-07 12:53:00,77.0,,-,96,N/A,29.96,78.1,7:53 AM,,10.0,Calm,Calm,0,Tulsa,Oklahoma,74104
8,Scattered Clouds,2016-08-07 13:53:00,75.9,,-,87,N/A,29.95,80.1,8:53 AM,,10.0,SE,4.6,130,Tulsa,Oklahoma,74104
9,Clear,2016-08-07 14:53:00,77.0,,-,79,N/A,29.96,84.0,9:53 AM,,10.0,Calm,Calm,0,Tulsa,Oklahoma,74104
10,Partly Cloudy,2016-08-07 15:53:00,77.0,,-,72,N/A,29.96,87.1,10:53 AM,,10.0,East,3.5,80,Tulsa,Oklahoma,74104
11,Clear,2016-08-07 16:53:00,77.0,,-,67,N/A,29.95,89.1,11:53 AM,,10.0,Variable,3.5,0,Tulsa,Oklahoma,74104
12,Clear,2016-08-07 17:53:00,77.0,,-,65,N/A,29.93,90.0,12:53 PM,,10.0,SE,6.9,130,Tulsa,Oklahoma,74104
13,Clear,2016-08-07 18:53:00,78.1,,-,66,N/A,29.92,91.0,1:53 PM,,10.0,SSE,5.8,150,Tulsa,Oklahoma,74104
14,Clear,2016-08-07 19:53:00,77.0,,-,59,N/A,29.90,93.0,2:53 PM,,10.0,North,-9999.0,0,Tulsa,Oklahoma,74104
15,Clear,2016-08-07 20:53:00,80.1,,-,64,N/A,29.88,93.9,3:53 PM,,10.0,East,9.2,100,Tulsa,Oklahoma,74104
16,Clear,2016-08-07 21:53:00,79.0,,-,62,N/A,29.86,93.9,4:53 PM,,10.0,ESE,6.9,120,Tulsa,Oklahoma,74104
17,Clear,2016-08-07 22:53:00,77.0,,-,62,N/A,29.86,91.9,5:53 PM,,10.0,SSE,8.1,150,Tulsa,Oklahoma,74104
18,Clear,2016-08-07 23:53:00,78.1,,-,68,N/A,29.86,90.0,6:53 PM,,10.0,SSE,8.1,150,Tulsa,Oklahoma,74104
19,Clear,2016-08-08 00:53:00,75.0,,-,65,N/A,29.86,88.0,7:53 PM,,10.0,SE,10.4,140,Tulsa,Oklahoma,74104
20,Clear,2016-08-08 01:53:00,75.0,,-,74,N/A,29.87,84.0,8:53 PM,,10.0,SSE,10.4,160,Tulsa,Oklahoma,74104
21,Clear,2016-08-08 02:53:00,73.0,,-,74,N/A,29.88,82.0,9:53 PM,,10.0,SSE,9.2,160,Tulsa,Oklahoma,74104
22,Clear,2016-08-08 03:53:00,72.0,,-,76,N/A,29.88,80.1,10:53 PM,,10.0,SSE,8.1,150,Tulsa,Oklahoma,74104
23,Clear,2016-08-08 04:53:00,73.0,,-,82,N/A,29.88,79.0,11:53 PM,,10.0,SSE,5.8,160,Tulsa,Oklahoma,74104
0,Clear,2016-08-08 05:53:00,73.0,,-,84,N/A,29.91,78.1,12:53 AM,,10.0,SSE,6.9,160,Tulsa,Oklahoma,74104
1,Clear,2016-08-08 06:53:00,73.0,,-,84,N/A,29.91,78.1,1:53 AM,,10.0,Calm,Calm,0,Tulsa,Oklahoma,74104
2,Partly Cloudy,2016-08-08 07:53:00,73.0,,-,94,N/A,29.91,75.0,2:53 AM,,10.0,Calm,Calm,0,Tulsa,Oklahoma,74104
3,Mostly Cloudy,2016-08-08 08:53:00,73.0,,-,91,N/A,29.92,75.9,3:53 AM,,10.0,South,4.6,170,Tulsa,Oklahoma,74104
4,Clear,2016-08-08 09:53:00,72.0,,-,84,N/A,29.91,77.0,4:53 AM,,10.0,SSE,5.8,160,Tulsa,Oklahoma,74104
5,Partly Cloudy,2016-08-08 10:53:00,72.0,,-,90,N/A,29.93,75.0,5:53 AM,,10.0,NNW,3.5,330,Tulsa,Oklahoma,74104
6,Mostly Cloudy,2016-08-08 11:53:00,73.0,,-,94,N/A,29.94,75.0,6:53 AM,,10.0,Calm,Calm,0,Tulsa,Oklahoma,74104
7,Clear,2016-08-08 12:53:00,72.0,,-,84,N/A,29.92,77.0,7:53 AM,,10.0,South,4.6,170,Tulsa,Oklahoma,74104
8,Clear,2016-08-08 13:53:00,71.1,,-,77,N/A,29.93,79.0,8:53 AM,,10.0,SSE,8.1,160,Tulsa,Oklahoma,74104
9,Partly Cloudy,2016-08-08 14:53:00,72.0,,-,71,N/A,29.94,82.0,9:53 AM,,10.0,South,8.1,180,Tulsa,Oklahoma,74104
10,Clear,2016-08-08 15:53:00,73.0,,-,67,N/A,29.94,84.9,10:53 AM,,10.0,South,6.9,170,Tulsa,Oklahoma,74104
11,Partly Cloudy,2016-08-08 16:53:00,73.0,,-,69,N/A,29.94,84.0,11:53 AM,,10.0,Variable,4.6,0,Tulsa,Oklahoma,74104
12,Clear,2016-08-08 17:53:00,73.9,,-,69,N/A,29.94,84.9,12:53 PM,,10.0,Calm,Calm,0,Tulsa,Oklahoma,74104
13,Clear,2016-08-08 18:53:00,75.0,,-,70,N/A,29.92,86.0,1:53 PM,,10.0,ESE,4.6,110,Tulsa,Oklahoma,74104
14,Clear,2016-08-08 19:53:00,75.0,,-,63,N/A,29.91,89.1,2:53 PM,,10.0,Calm,Calm,0,Tulsa,Oklahoma,74104
15,Mostly Cloudy,2016-08-08 20:53:00,75.0,,-,65,N/A,29.88,88.0,3:53 PM,,10.0,Calm,Calm,0,Tulsa,Oklahoma,74104
16,Clear,2016-08-08 21:53:00,77.0,,-,70,N/A,29.85,88.0,4:53 PM,,10.0,Calm,Calm,0,Tulsa,Oklahoma,74104
17,Clear,2016-08-08 22:53:00,73.9,,-,63,N/A,29.85,88.0,5:53 PM,,10.0,East,3.5,100,Tulsa,Oklahoma,74104
18,Clear,2016-08-08 23:53:00,75.9,,-,74,N/A,29.85,84.9,6:53 PM,,10.0,South,4.6,170,Tulsa,Oklahoma,74104
19,Clear,2016-08-09 00:53:00,77.0,,-,77,N/A,29.86,84.9,7:53 PM,,10.0,South,4.6,190,Tulsa,Oklahoma,74104
20,Partly Cloudy,2016-08-09 01:53:00,77.0,,-,82,0.00,29.87,82.9,8:53 PM,,10.0,South,4.6,170,Tulsa,Oklahoma,74104
21,Clear,2016-08-09 02:53:00,73.9,,-,84,N/A,29.90,79.0,9:53 PM,,10.0,SSW,5.8,200,Tulsa,Oklahoma,74104
22,Clear,2016-08-09 03:53:00,73.9,,-,84,N/A,29.91,79.0,10:53 PM,,10.0,South,3.5,170,Tulsa,Oklahoma,74104
23,Clear,2016-08-09 04:53:00,72.0,,-,81,N/A,29.91,78.1,11:53 PM,,10.0,South,6.9,190,Tulsa,Oklahoma,74104
0,Clear,2016-08-09 05:53:00,73.0,,-,91,N/A,29.91,75.9,12:53 AM,,10.0,Calm,Calm,0,Tulsa,Oklahoma,74104
1,Clear,2016-08-09 06:53:00,72.0,,-,87,N/A,29.91,75.9,1:53 AM,,10.0,SSE,3.5,160,Tulsa,Oklahoma,74104
2,Clear,2016-08-09 07:53:00,73.0,,-,94,N/A,29.91,75.0,2:53 AM,,10.0,SSE,3.5,160,Tulsa,Oklahoma,74104
3,Clear,2016-08-09 08:53:00,73.0,,-,97,N/A,29.92,73.9,3:53 AM,,10.0,Variable,3.5,0,Tulsa,Oklahoma,74104
4,Clear,2016-08-09 09:53:00,73.0,,-,94,N/A,29.92,75.0,4:53 AM,,10.0,South,3.5,180,Tulsa,Oklahoma,74104
5,Clear,2016-08-09 10:53:00,72.0,,-,96,N/A,29.92,73.0,5:53 AM,,10.0,Calm,Calm,0,Tulsa,Oklahoma,74104
6,Clear,2016-08-09 11:53:00,73.0,,-,100,N/A,29.94,73.0,6:53 AM,,10.0,Calm,Calm,0,Tulsa,Oklahoma,74104
7,Clear,2016-08-09 12:53:00,73.9,,-,94,N/A,29.96,75.9,7:53 AM,,10.0,SE,4.6,130,Tulsa,Oklahoma,74104
8,Clear,2016-08-09 13:53:00,73.9,,-,87,N/A,29.96,78.1,8:53 AM,,10.0,SE,4.6,130,Tulsa,Oklahoma,74104
9,Partly Cloudy,2016-08-09 14:53:00,75.9,,-,82,N/A,29.98,82.0,9:53 AM,,10.0,South,5.8,180,Tulsa,Oklahoma,74104
10,Partly Cloudy,2016-08-09 15:53:00,77.0,,-,79,N/A,29.97,84.0,10:53 AM,,10.0,Variable,3.5,0,Tulsa,Oklahoma,74104
11,Clear,2016-08-09 16:53:00,77.0,,-,70,N/A,29.95,88.0,11:53 AM,,10.0,SSW,4.6,210,Tulsa,Oklahoma,74104
12,Clear,2016-08-09 17:53:00,75.9,,-,61,N/A,29.95,91.0,12:53 PM,,10.0,Variable,5.8,0,Tulsa,Oklahoma,74104
13,Clear,2016-08-09 18:53:00,75.9,,-,59,N/A,29.94,91.9,1:53 PM,,10.0,SW,6.9,230,Tulsa,Oklahoma,74104
14,Clear,2016-08-09 19:53:00,78.1,,-,60,N/A,29.91,93.9,2:53 PM,,10.0,Variable,4.6,0,Tulsa,Oklahoma,74104
15,Clear,2016-08-09 20:53:00,75.9,,-,52,N/A,29.89,96.1,3:53 PM,,10.0,Calm,Calm,0,Tulsa,Oklahoma,74104
16,Mostly Cloudy,2016-08-09 21:53:00,73.0,Thunderstorm,18.4,57,N/A,29.90,90.0,4:53 PM,,10.0,South,13.8,190,Tulsa,Oklahoma,74104
17,Mostly Cloudy,2016-08-09 22:28:00,73.9,,-,69,0.02,29.90,84.9,5:28 PM,,10.0,South,8.1,180,Tulsa,Oklahoma,74104
18,Clear,2016-08-09 22:53:00,72.0,,-,63,0.02,29.91,86.0,5:53 PM,,10.0,South,6.9,190,Tulsa,Oklahoma,74104
19,Clear,2016-08-09 23:53:00,72.0,,-,67,N/A,29.91,84.0,6:53 PM,,10.0,SE,12.7,130,Tulsa,Oklahoma,74104
20,Clear,2016-08-10 00:53:00,71.1,,-,69,N/A,29.91,82.0,7:53 PM,,10.0,SE,8.1,130,Tulsa,Oklahoma,74104
21,Clear,2016-08-10 01:53:00,69.1,,-,65,N/A,29.92,82.0,8:53 PM,,10.0,South,5.8,180,Tulsa,Oklahoma,74104
22,Clear,2016-08-10 02:53:00,70.0,,-,71,N/A,29.95,80.1,9:53 PM,,10.0,South,4.6,180,Tulsa,Oklahoma,74104
23,Clear,2016-08-10 03:53:00,72.0,,-,84,N/A,29.98,77.0,10:53 PM,,10.0,SE,3.5,140,Tulsa,Oklahoma,74104
24,Clear,2016-08-10 04:53:00,73.0,,-,88,N/A,29.97,77.0,11:53 PM,,10.0,SE,4.6,130,Tulsa,Oklahoma,74104
0,Clear,2016-08-10 05:53:00,73.9,,-,87,N/A,29.99,78.1,12:53 AM,,10.0,SSW,3.5,200,Tulsa,Oklahoma,74104
1,Clear,2016-08-10 06:53:00,73.0,,-,88,N/A,29.99,77.0,1:53 AM,,10.0,SE,4.6,140,Tulsa,Oklahoma,74104
2,Clear,2016-08-10 07:53:00,73.0,,-,88,N/A,29.98,77.0,2:53 AM,,10.0,South,4.6,180,Tulsa,Oklahoma,74104
3,Clear,2016-08-10 08:53:00,73.0,,-,88,N/A,29.97,77.0,3:53 AM,,10.0,SSE,3.5,160,Tulsa,Oklahoma,74104
4,Clear,2016-08-10 09:53:00,73.9,,-,96,N/A,29.97,75.0,4:53 AM,,10.0,Calm,Calm,0,Tulsa,Oklahoma,74104
5,Clear,2016-08-10 10:53:00,73.9,,-,96,N/A,29.98,75.0,5:53 AM,,10.0,South,3.5,170,Tulsa,Oklahoma,74104
6,Clear,2016-08-10 11:53:00,73.0,,-,91,N/A,29.99,75.9,6:53 AM,,10.0,Calm,Calm,0,Tulsa,Oklahoma,74104
7,Clear,2016-08-10 12:53:00,73.9,,-,87,N/A,30.01,78.1,7:53 AM,,10.0,SSE,4.6,160,Tulsa,Oklahoma,74104
8,Partly Cloudy,2016-08-10 13:53:00,75.0,,-,82,N/A,30.01,81.0,8:53 AM,,10.0,South,5.8,170,Tulsa,Oklahoma,74104
9,Clear,2016-08-10 14:53:00,75.9,,-,72,N/A,30.01,86.0,9:53 AM,,10.0,SSE,6.9,160,Tulsa,Oklahoma,74104
10,Clear,2016-08-10 15:53:00,77.0,,-,65,N/A,30.01,90.0,10:53 AM,,10.0,South,8.1,180,Tulsa,Oklahoma,74104
11,Clear,2016-08-10 16:53:00,77.0,,-,63,N/A,30.01,91.0,11:53 AM,,10.0,SSW,9.2,200,Tulsa,Oklahoma,74104
12,Clear,2016-08-10 17:53:00,77.0,,19.6,56,N/A,30.01,95.0,12:53 PM,,10.0,SSW,9.2,200,Tulsa,Oklahoma,74104
13,Clear,2016-08-10 18:53:00,77.0,,-,54,N/A,29.99,96.1,1:53 PM,,10.0,South,9.2,170,Tulsa,Oklahoma,74104
14,Partly Cloudy,2016-08-10 19:53:00,75.0,,-,49,N/A,29.96,97.0,2:53 PM,,10.0,South,10.4,170,Tulsa,Oklahoma,74104
15,Mostly Cloudy,2016-08-10 20:53:00,73.9,,-,47,N/A,29.94,97.0,3:53 PM,,10.0,South,11.5,180,Tulsa,Oklahoma,74104
16,Scattered Clouds,2016-08-10 21:53:00,75.9,,-,49,N/A,29.92,98.1,4:53 PM,,10.0,SSE,9.2,160,Tulsa,Oklahoma,74104
17,Clear,2016-08-10 22:53:00,75.0,,-,51,N/A,29.91,96.1,5:53 PM,,10.0,SE,8.1,140,Tulsa,Oklahoma,74104
18,Clear,2016-08-10 23:53:00,75.9,,21.9,57,N/A,29.91,93.0,6:53 PM,,10.0,SE,10.4,140,Tulsa,Oklahoma,74104
19,Clear,2016-08-11 00:53:00,75.9,,-,61,N/A,29.92,91.0,7:53 PM,,10.0,SSE,6.9,150,Tulsa,Oklahoma,74104
20,Clear,2016-08-11 01:53:00,75.0,,-,63,N/A,29.94,89.1,8:53 PM,,10.0,SSE,8.1,150,Tulsa,Oklahoma,74104
21,Clear,2016-08-11 02:53:00,75.0,,-,67,N/A,29.95,87.1,9:53 PM,,10.0,SSE,4.6,150,Tulsa,Oklahoma,74104
22,Clear,2016-08-11 03:53:00,73.9,,-,67,N/A,29.96,86.0,10:53 PM,,10.0,SSE,6.9,160,Tulsa,Oklahoma,74104
23,Clear,2016-08-11 04:53:00,73.9,,-,69,N/A,29.95,84.9,11:53 PM,,10.0,SSE,5.8,150,Tulsa,Oklahoma,74104
0,Clear,2016-08-11 05:53:00,73.9,,-,72,N/A,29.95,84.0,12:53 AM,,10.0,South,6.9,170,Tulsa,Oklahoma,74104
1,Clear,2016-08-11 06:53:00,75.0,,-,79,N/A,29.95,82.0,1:53 AM,,10.0,South,4.6,170,Tulsa,Oklahoma,74104
2,Clear,2016-08-11 07:53:00,75.0,,-,82,N/A,29.95,81.0,2:53 AM,,10.0,South,4.6,190,Tulsa,Oklahoma,74104
3,Clear,2016-08-11 08:53:00,75.0,,-,82,N/A,29.94,81.0,3:53 AM,,10.0,SSE,3.5,160,Tulsa,Oklahoma,74104
4,Clear,2016-08-11 09:53:00,75.0,,-,85,N/A,29.94,80.1,4:53 AM,,10.0,SSE,3.5,160,Tulsa,Oklahoma,74104
5,Clear,2016-08-11 10:53:00,75.9,,-,87,N/A,29.94,80.1,5:53 AM,,10.0,South,4.6,170,Tulsa,Oklahoma,74104
6,Clear,2016-08-11 11:53:00,75.9,,-,90,N/A,29.95,79.0,6:53 AM,,10.0,South,3.5,170,Tulsa,Oklahoma,74104
7,Clear,2016-08-11 12:53:00,75.9,,-,85,N/A,29.96,81.0,7:53 AM,,10.0,South,5.8,170,Tulsa,Oklahoma,74104
8,Clear,2016-08-11 13:53:00,77.0,,-,77,N/A,29.96,84.9,8:53 AM,,10.0,South,5.8,180,Tulsa,Oklahoma,74104
9,Clear,2016-08-11 14:53:00,75.9,,-,67,N/A,29.96,88.0,9:53 AM,,10.0,SSW,9.2,200,Tulsa,Oklahoma,74104
10,Clear,2016-08-11 15:53:00,77.0,,-,62,N/A,29.95,91.9,10:53 AM,,10.0,South,9.2,180,Tulsa,Oklahoma,74104
11,Clear,2016-08-11 16:53:00,75.9,,-,54,N/A,29.94,95.0,11:53 AM,,10.0,South,10.4,180,Tulsa,Oklahoma,74104
12,Clear,2016-08-11 17:53:00,75.0,,-,51,N/A,29.92,96.1,12:53 PM,,10.0,SSW,10.4,210,Tulsa,Oklahoma,74104
13,Clear,2016-08-11 18:53:00,75.0,,-,49,N/A,29.90,97.0,1:53 PM,,10.0,SSW,9.2,210,Tulsa,Oklahoma,74104
14,Clear,2016-08-11 19:53:00,73.0,,-,42,N/A,29.88,100.0,2:53 PM,,10.0,South,10.4,180,Tulsa,Oklahoma,74104
15,Clear,2016-08-11 20:53:00,75.0,,-,48,N/A,29.86,98.1,3:53 PM,,10.0,SSW,10.4,210,Tulsa,Oklahoma,74104
16,Clear,2016-08-11 21:53:00,75.0,,-,46,N/A,29.83,99.0,4:53 PM,,10.0,SW,8.1,230,Tulsa,Oklahoma,74104
17,Scattered Clouds,2016-08-11 22:53:00,73.9,,-,45,N/A,29.83,99.0,5:53 PM,,10.0,South,8.1,170,Tulsa,Oklahoma,74104
18,Clear,2016-08-11 23:53:00,73.9,,-,47,N/A,29.81,97.0,6:53 PM,,10.0,SSE,9.2,150,Tulsa,Oklahoma,74104
19,Clear,2016-08-12 00:53:00,73.9,,-,50,N/A,29.80,95.0,7:53 PM,,10.0,SSE,6.9,160,Tulsa,Oklahoma,74104
20,Clear,2016-08-12 01:53:00,73.9,,-,54,N/A,29.81,93.0,8:53 PM,,10.0,South,6.9,170,Tulsa,Oklahoma,74104
21,Clear,2016-08-12 02:53:00,73.9,,-,59,N/A,29.84,90.0,9:53 PM,,10.0,Variable,3.5,0,Tulsa,Oklahoma,74104
22,Clear,2016-08-12 03:53:00,73.9,,-,61,N/A,29.85,89.1,10:53 PM,,10.0,SSE,5.8,160,Tulsa,Oklahoma,74104
23,Clear,2016-08-12 04:53:00,75.0,,-,67,N/A,29.85,87.1,11:53 PM,,10.0,South,6.9,180,Tulsa,Oklahoma,74104
0,Clear,2016-08-12 05:53:00,75.9,,-,72,N/A,29.84,86.0,12:53 AM,,10.0,South,6.9,170,Tulsa,Oklahoma,74104
1,Clear,2016-08-12 06:53:00,75.9,,-,74,N/A,29.83,84.9,1:53 AM,,10.0,South,4.6,170,Tulsa,Oklahoma,74104
2,Clear,2016-08-12 07:53:00,75.9,,-,74,N/A,29.82,84.9,2:53 AM,,10.0,South,4.6,190,Tulsa,Oklahoma,74104
3,Clear,2016-08-12 08:53:00,77.0,,-,90,N/A,29.82,80.1,3:53 AM,,10.0,NW,3.5,320,Tulsa,Oklahoma,74104
4,Clear,2016-08-12 09:53:00,75.9,,-,87,N/A,29.82,80.1,4:53 AM,,10.0,Calm,Calm,0,Tulsa,Oklahoma,74104
5,Mostly Cloudy,2016-08-12 10:53:00,75.9,,-,90,N/A,29.83,79.0,5:53 AM,,10.0,Calm,Calm,0,Tulsa,Oklahoma,74104
6,Clear,2016-08-12 11:53:00,75.9,,-,96,N/A,29.83,77.0,6:53 AM,,10.0,Calm,Calm,0,Tulsa,Oklahoma,74104
7,Clear,2016-08-12 12:53:00,75.0,,-,79,N/A,29.81,82.0,7:53 AM,,10.0,South,4.6,180,Tulsa,Oklahoma,74104
8,Clear,2016-08-12 13:53:00,75.9,,-,74,N/A,29.82,84.9,8:53 AM,,10.0,South,3.5,170,Tulsa,Oklahoma,74104
9,Mostly Cloudy,2016-08-12 14:53:00,75.9,,-,72,N/A,29.83,86.0,9:53 AM,,10.0,Calm,Calm,0,Tulsa,Oklahoma,74104
10,Partly Cloudy,2016-08-12 15:53:00,77.0,,-,70,N/A,29.87,88.0,10:53 AM,,10.0,Variable,4.6,0,Tulsa,Oklahoma,74104
11,Light Rain,2016-08-12 16:53:00,78.1,Rain,-,77,0.00,29.87,86.0,11:53 AM,,10.0,North,3.5,10,Tulsa,Oklahoma,74104
12,Mostly Cloudy,2016-08-12 17:53:00,78.1,,-,85,0.01,29.87,82.9,12:53 PM,,10.0,North,3.5,10,Tulsa,Oklahoma,74104
13,Mostly Cloudy,2016-08-12 18:53:00,78.1,,-,72,N/A,29.84,88.0,1:53 PM,,10.0,NE,8.1,50,Tulsa,Oklahoma,74104
14,Light Rain,2016-08-12 19:53:00,80.1,Rain,-,82,0.00,29.85,86.0,2:53 PM,,8.0,North,3.5,350,Tulsa,Oklahoma,74104
15,Scattered Clouds,2016-08-12 20:53:00,81.0,,-,85,0.01,29.84,86.0,3:53 PM,,10.0,Calm,Calm,0,Tulsa,Oklahoma,74104
16,Scattered Clouds,2016-08-12 21:53:00,80.1,,-,80,N/A,29.83,87.1,4:53 PM,,10.0,Variable,4.6,0,Tulsa,Oklahoma,74104
17,Mostly Cloudy,2016-08-12 22:53:00,78.1,,-,72,N/A,29.83,88.0,5:53 PM,,10.0,North,10.4,350,Tulsa,Oklahoma,74104
18,Clear,2016-08-12 23:53:00,75.9,,-,69,N/A,29.82,87.1,6:53 PM,,10.0,North,8.1,10,Tulsa,Oklahoma,74104
19,Clear,2016-08-13 00:53:00,75.9,,-,76,N/A,29.83,84.0,7:53 PM,,10.0,North,4.6,360,Tulsa,Oklahoma,74104
20,Clear,2016-08-13 01:53:00,77.0,,-,88,N/A,29.85,81.0,8:53 PM,,10.0,North,3.5,360,Tulsa,Oklahoma,74104
21,Clear,2016-08-13 02:53:00,77.0,,-,82,N/A,29.88,82.9,9:53 PM,,10.0,North,4.6,360,Tulsa,Oklahoma,74104
22,Clear,2016-08-13 03:53:00,77.0,,-,88,N/A,29.90,81.0,10:53 PM,,10.0,NNW,3.5,340,Tulsa,Oklahoma,74104
23,Partly Cloudy,2016-08-13 04:53:00,77.0,,-,88,N/A,29.90,81.0,11:53 PM,,10.0,North,3.5,10,Tulsa,Oklahoma,74104
0,Overcast,2016-08-13 05:24:00,75.9,,-,82,N/A,29.90,82.0,12:24 AM,,10.0,North,10.4,10,Tulsa,Oklahoma,74104
1,Scattered Clouds,2016-08-13 05:51:00,75.2,,-,84,N/A,29.90,80.6,12:51 AM,,10.0,North,6.9,360,Tulsa,Oklahoma,74104
2,Scattered Clouds,2016-08-13 05:53:00,75.0,,-,82,N/A,29.91,81.0,12:53 AM,,10.0,North,6.9,10,Tulsa,Oklahoma,74104
3,Mostly Cloudy,2016-08-13 06:53:00,73.9,,-,81,N/A,29.90,80.1,1:53 AM,,10.0,NNE,9.2,20,Tulsa,Oklahoma,74104
4,Clear,2016-08-13 07:53:00,73.0,,-,84,N/A,29.91,78.1,2:53 AM,,10.0,North,6.9,10,Tulsa,Oklahoma,74104
5,Clear,2016-08-13 08:53:00,72.0,,-,87,N/A,29.92,75.9,3:53 AM,,10.0,North,8.1,10,Tulsa,Oklahoma,74104
6,Clear,2016-08-13 09:53:00,71.1,,-,87,N/A,29.91,75.0,4:53 AM,,10.0,North,10.4,10,Tulsa,Oklahoma,74104
7,Clear,2016-08-13 10:53:00,70.0,,-,87,N/A,29.93,73.9,5:53 AM,,10.0,North,8.1,10,Tulsa,Oklahoma,74104
8,Clear,2016-08-13 11:53:00,70.0,,-,90,N/A,29.94,73.0,6:53 AM,,10.0,North,9.2,10,Tulsa,Oklahoma,74104
9,Clear,2016-08-13 12:53:00,70.0,,20.7,87,N/A,29.95,73.9,7:53 AM,,10.0,North,9.2,10,Tulsa,Oklahoma,74104
10,Clear,2016-08-13 13:53:00,71.1,,-,87,N/A,29.96,75.0,8:53 AM,,10.0,NNE,8.1,20,Tulsa,Oklahoma,74104
11,Partly Cloudy,2016-08-13 14:53:00,72.0,,-,76,N/A,29.97,80.1,9:53 AM,,10.0,NNE,10.4,30,Tulsa,Oklahoma,74104
12,Mostly Cloudy,2016-08-13 15:53:00,72.0,,-,69,N/A,29.98,82.9,10:53 AM,,10.0,NNE,10.4,30,Tulsa,Oklahoma,74104
13,Scattered Clouds,2016-08-13 16:30:00,71.1,,24.2,65,N/A,29.98,84.0,11:30 AM,,10.0,NE,15.0,40,Tulsa,Oklahoma,74104
14,Mostly Cloudy,2016-08-13 16:53:00,72.0,,19.6,63,N/A,29.98,86.0,11:53 AM,,10.0,NE,15.0,50,Tulsa,Oklahoma,74104
15,Partly Cloudy,2016-08-13 17:53:00,70.0,,18.4,57,N/A,29.96,87.1,12:53 PM,,10.0,NNE,8.1,20,Tulsa,Oklahoma,74104
16,Clear,2016-08-13 18:53:00,66.9,,19.6,46,N/A,29.95,90.0,1:53 PM,,10.0,NNE,13.8,30,Tulsa,Oklahoma,74104
17,Clear,2016-08-13 19:53:00,64.0,,17.3,41,N/A,29.93,91.0,2:53 PM,,10.0,North,10.4,10,Tulsa,Oklahoma,74104
18,Clear,2016-08-13 20:53:00,63.0,,24.2,40,N/A,29.91,90.0,3:53 PM,,10.0,North,12.7,10,Tulsa,Oklahoma,74104
19,Clear,2016-08-13 21:53:00,60.1,,27.6,35,N/A,29.89,91.0,4:53 PM,,10.0,North,19.6,10,Tulsa,Oklahoma,74104
20,Clear,2016-08-13 22:53:00,57.9,,23.0,33,N/A,29.89,91.0,5:53 PM,,10.0,NE,19.6,40,Tulsa,Oklahoma,74104
21,Clear,2016-08-13 23:53:00,57.9,,24.2,36,N/A,29.90,88.0,6:53 PM,,10.0,NE,15.0,40,Tulsa,Oklahoma,74104
22,Clear,2016-08-14 00:53:00,62.1,,24.2,47,N/A,29.92,84.0,7:53 PM,,10.0,NNE,13.8,20,Tulsa,Oklahoma,74104
23,Clear,2016-08-14 01:53:00,63.0,,18.4,54,N/A,29.94,81.0,8:53 PM,,10.0,NNE,10.4,30,Tulsa,Oklahoma,74104
24,Clear,2016-08-14 02:53:00,63.0,,-,56,N/A,29.96,80.1,9:53 PM,,10.0,NNE,9.2,30,Tulsa,Oklahoma,74104
25,Clear,2016-08-14 03:53:00,63.0,,-,58,N/A,29.98,79.0,10:53 PM,,10.0,NNE,8.1,20,Tulsa,Oklahoma,74104
26,Clear,2016-08-14 04:53:00,64.9,,-,69,N/A,29.98,75.9,11:53 PM,,10.0,North,5.8,10,Tulsa,Oklahoma,74104
0,Clear,2016-08-14 05:53:00,66.0,,-,73,N/A,29.98,75.0,12:53 AM,,10.0,North,4.6,360,Tulsa,Oklahoma,74104
1,Clear,2016-08-14 06:53:00,66.9,,-,81,N/A,29.98,73.0,1:53 AM,,10.0,NNW,4.6,340,Tulsa,Oklahoma,74104
2,Clear,2016-08-14 07:53:00,66.9,,-,81,N/A,29.96,73.0,2:53 AM,,10.0,NNE,6.9,20,Tulsa,Oklahoma,74104
3,Clear,2016-08-14 08:53:00,66.9,,-,81,N/A,29.96,73.0,3:53 AM,,10.0,North,3.5,360,Tulsa,Oklahoma,74104
4,Clear,2016-08-14 09:53:00,66.9,,-,84,N/A,29.96,72.0,4:53 AM,,10.0,North,5.8,360,Tulsa,Oklahoma,74104
5,Clear,2016-08-14 10:53:00,66.9,,-,87,N/A,29.98,71.1,5:53 AM,,10.0,North,4.6,10,Tulsa,Oklahoma,74104
6,Clear,2016-08-14 11:53:00,66.9,,-,90,N/A,30.00,70.0,6:53 AM,,10.0,North,5.8,10,Tulsa,Oklahoma,74104
7,Clear,2016-08-14 12:53:00,66.9,,-,84,N/A,30.01,72.0,7:53 AM,,10.0,North,8.1,10,Tulsa,Oklahoma,74104
8,Clear,2016-08-14 13:53:00,68.0,,-,74,N/A,30.02,77.0,8:53 AM,,10.0,NNE,10.4,20,Tulsa,Oklahoma,74104
9,Clear,2016-08-14 14:53:00,69.1,,-,72,N/A,30.03,79.0,9:53 AM,,10.0,NNE,11.5,30,Tulsa,Oklahoma,74104
10,Clear,2016-08-14 15:53:00,66.9,,19.6,56,N/A,30.04,84.0,10:53 AM,,10.0,NE,13.8,40,Tulsa,Oklahoma,74104
11,Clear,2016-08-14 16:53:00,64.0,,21.9,49,N/A,30.04,84.9,11:53 AM,,10.0,NE,16.1,40,Tulsa,Oklahoma,74104
12,Clear,2016-08-14 17:53:00,66.0,,-,53,N/A,30.02,84.9,12:53 PM,,10.0,NNE,13.8,20,Tulsa,Oklahoma,74104
13,Clear,2016-08-14 18:53:00,63.0,,25.3,46,N/A,30.01,86.0,1:53 PM,,10.0,NNE,13.8,30,Tulsa,Oklahoma,74104
14,Clear,2016-08-14 19:53:00,66.0,,-,51,N/A,29.99,86.0,2:53 PM,,10.0,NNE,12.7,30,Tulsa,Oklahoma,74104
15,Clear,2016-08-14 20:53:00,64.9,,-,48,N/A,29.98,87.1,3:53 PM,,10.0,NE,12.7,50,Tulsa,Oklahoma,74104
16,Clear,2016-08-14 21:53:00,64.0,,-,48,N/A,29.96,86.0,4:53 PM,,10.0,NNE,10.4,30,Tulsa,Oklahoma,74104
17,Clear,2016-08-14 22:53:00,66.0,,-,55,N/A,29.98,84.0,5:53 PM,,10.0,NNE,8.1,30,Tulsa,Oklahoma,74104
18,Clear,2016-08-14 23:53:00,66.9,,-,58,N/A,29.97,82.9,6:53 PM,,10.0,ENE,5.8,60,Tulsa,Oklahoma,74104
19,Clear,2016-08-15 00:53:00,66.9,,-,62,N/A,29.99,81.0,7:53 PM,,10.0,ENE,8.1,60,Tulsa,Oklahoma,74104
20,Clear,2016-08-15 01:53:00,66.9,,-,68,N/A,30.00,78.1,8:53 PM,,10.0,Calm,Calm,0,Tulsa,Oklahoma,74104
21,Clear,2016-08-15 02:53:00,68.0,,-,79,N/A,30.02,75.0,9:53 PM,,10.0,NNE,3.5,30,Tulsa,Oklahoma,74104
22,Clear,2016-08-15 03:53:00,64.0,,-,69,N/A,30.01,75.0,10:53 PM,,10.0,NNE,4.6,30,Tulsa,Oklahoma,74104
23,Clear,2016-08-15 04:53:00,66.0,,-,79,N/A,29.99,73.0,11:53 PM,,10.0,North,3.5,10,Tulsa,Oklahoma,74104
0,Clear,2016-08-15 05:53:00,68.0,,-,87,N/A,30.00,72.0,12:53 AM,,10.0,Calm,Calm,0,Tulsa,Oklahoma,74104
1,Clear,2016-08-15 06:53:00,66.9,,-,90,N/A,30.00,70.0,1:53 AM,,10.0,Calm,Calm,0,Tulsa,Oklahoma,74104
2,Clear,2016-08-15 07:53:00,66.9,,-,96,N/A,30.00,68.0,2:53 AM,,10.0,Calm,Calm,0,Tulsa,Oklahoma,74104
3,Clear,2016-08-15 08:53:00,68.0,,-,96,N/A,29.99,69.1,3:53 AM,,10.0,Calm,Calm,0,Tulsa,Oklahoma,74104
4,Clear,2016-08-15 09:53:00,66.9,,-,90,N/A,30.00,70.0,4:53 AM,,10.0,Calm,Calm,0,Tulsa,Oklahoma,74104
5,Clear,2016-08-15 10:53:00,68.0,,-,93,N/A,30.01,70.0,5:53 AM,,10.0,Calm,Calm,0,Tulsa,Oklahoma,74104
6,Clear,2016-08-15 11:53:00,68.0,,-,96,N/A,30.02,69.1,6:53 AM,,10.0,Calm,Calm,0,Tulsa,Oklahoma,74104
7,Clear,2016-08-15 12:53:00,69.1,,-,97,N/A,30.04,70.0,7:53 AM,,10.0,Calm,Calm,0,Tulsa,Oklahoma,74104
8,Clear,2016-08-15 13:53:00,69.1,,-,87,N/A,30.04,73.0,8:53 AM,,10.0,Calm,Calm,0,Tulsa,Oklahoma,74104
9,Clear,2016-08-15 14:53:00,69.1,,-,85,N/A,30.05,73.9,9:53 AM,,10.0,Variable,3.5,0,Tulsa,Oklahoma,74104
10,Clear,2016-08-15 15:53:00,70.0,,-,87,N/A,30.06,73.9,10:53 AM,,10.0,Calm,Calm,0,Tulsa,Oklahoma,74104
11,Clear,2016-08-15 16:53:00,69.1,,-,82,N/A,30.06,75.0,11:53 AM,,10.0,Calm,Calm,0,Tulsa,Oklahoma,74104
12,Clear,2016-08-15 17:53:00,68.0,,-,74,N/A,30.06,77.0,12:53 PM,,10.0,Calm,Calm,0,Tulsa,Oklahoma,74104
13,Clear,2016-08-15 18:53:00,66.9,,-,68,N/A,30.06,78.1,1:53 PM,,10.0,Calm,Calm,0,Tulsa,Oklahoma,74104
14,Clear,2016-08-15 19:53:00,66.0,,-,60,N/A,30.05,81.0,2:53 PM,,10.0,Calm,Calm,0,Tulsa,Oklahoma,74104
15,Clear,2016-08-15 20:53:00,68.0,,-,58,N/A,30.02,84.0,3:53 PM,,10.0,Calm,Calm,0,Tulsa,Oklahoma,74104
16,Clear,2016-08-15 21:53:00,66.9,,-,55,N/A,30.01,84.9,4:53 PM,,10.0,Calm,Calm,0,Tulsa,Oklahoma,74104
17,Clear,2016-08-15 22:53:00,66.9,,-,58,N/A,30.01,82.9,5:53 PM,,10.0,ESE,4.6,110,Tulsa,Oklahoma,74104
18,Clear,2016-08-15 23:53:00,68.0,,-,62,N/A,30.01,82.0,6:53 PM,,10.0,Variable,3.5,0,Tulsa,Oklahoma,74104
19,Clear,2016-08-16 00:53:00,68.0,,-,67,N/A,30.03,80.1,7:53 PM,,10.0,SSE,6.9,150,Tulsa,Oklahoma,74104
20,Clear,2016-08-16 01:53:00,69.1,,-,76,N/A,30.05,77.0,8:53 PM,,10.0,SSE,4.6,150,Tulsa,Oklahoma,74104
21,Clear,2016-08-16 02:53:00,69.1,,-,93,N/A,30.06,71.1,9:53 PM,,10.0,Calm,Calm,0,Tulsa,Oklahoma,74104
22,Clear,2016-08-16 03:53:00,68.0,,-,96,N/A,30.09,69.1,10:53 PM,,10.0,Calm,Calm,0,Tulsa,Oklahoma,74104
23,Clear,2016-08-16 04:53:00,68.0,,-,100,N/A,30.09,68.0,11:53 PM,,10.0,Calm,Calm,0,Tulsa,Oklahoma,74104
0,Clear,2016-08-16 05:53:00,66.9,,-,100,N/A,30.10,66.9,12:53 AM,,10.0,Calm,Calm,0,Tulsa,Oklahoma,74104
1,Clear,2016-08-16 06:53:00,66.0,,-,100,N/A,30.09,66.0,1:53 AM,,7.0,Calm,Calm,0,Tulsa,Oklahoma,74104
2,Clear,2016-08-16 07:53:00,64.9,,-,100,N/A,30.09,64.9,2:53 AM,,5.0,Calm,Calm,0,Tulsa,Oklahoma,74104
3,Clear,2016-08-16 08:53:00,64.0,,-,100,N/A,30.10,64.0,3:53 AM,,3.0,Calm,Calm,0,Tulsa,Oklahoma,74104
4,Clear,2016-08-16 09:12:00,63.0,,-,100,N/A,30.08,63.0,4:12 AM,,1.2,Calm,Calm,0,Tulsa,Oklahoma,74104
5,Clear,2016-08-16 09:31:00,64.0,,-,100,N/A,30.09,64.0,4:31 AM,,3.0,Calm,Calm,0,Tulsa,Oklahoma,74104
6,Clear,2016-08-16 09:53:00,64.0,,-,100,N/A,30.10,64.0,4:53 AM,,4.0,Calm,Calm,0,Tulsa,Oklahoma,74104
7,Clear,2016-08-16 10:18:00,63.0,,-,100,N/A,30.09,63.0,5:18 AM,,2.0,Calm,Calm,0,Tulsa,Oklahoma,74104
8,Clear,2016-08-16 10:27:00,64.0,,-,100,N/A,30.09,64.0,5:27 AM,,4.0,Calm,Calm,0,Tulsa,Oklahoma,74104
9,Clear,2016-08-16 10:53:00,63.0,,-,100,N/A,30.10,63.0,5:53 AM,,4.0,Calm,Calm,0,Tulsa,Oklahoma,74104
10,Clear,2016-08-16 11:53:00,63.0,,-,100,N/A,30.10,63.0,6:53 AM,,9.0,Calm,Calm,0,Tulsa,Oklahoma,74104
11,Clear,2016-08-16 12:53:00,66.0,,-,97,N/A,30.13,66.9,7:53 AM,,10.0,Calm,Calm,0,Tulsa,Oklahoma,74104
12,Clear,2016-08-16 13:53:00,66.9,,-,90,N/A,30.13,70.0,8:53 AM,,10.0,Calm,Calm,0,Tulsa,Oklahoma,74104
13,Clear,2016-08-16 14:53:00,69.1,,-,79,N/A,30.13,75.9,9:53 AM,,10.0,Variable,4.6,0,Tulsa,Oklahoma,74104
14,Clear,2016-08-16 15:53:00,66.9,,-,64,N/A,30.14,80.1,10:53 AM,,10.0,Variable,4.6,0,Tulsa,Oklahoma,74104
15,Clear,2016-08-16 16:53:00,66.9,,-,58,N/A,30.13,82.9,11:53 AM,,10.0,Variable,4.6,0,Tulsa,Oklahoma,74104
16,Clear,2016-08-16 17:53:00,64.9,,-,49,N/A,30.12,86.0,12:53 PM,,10.0,NE,5.8,50,Tulsa,Oklahoma,74104
17,Clear,2016-08-16 18:53:00,66.0,,-,46,N/A,30.10,89.1,1:53 PM,,10.0,East,9.2,90,Tulsa,Oklahoma,74104
18,Clear,2016-08-16 19:53:00,66.0,,-,45,N/A,30.08,90.0,2:53 PM,,10.0,Variable,3.5,0,Tulsa,Oklahoma,74104
19,Clear,2016-08-16 20:53:00,63.0,,-,40,N/A,30.06,90.0,3:53 PM,,10.0,SE,5.8,140,Tulsa,Oklahoma,74104
20,Clear,2016-08-16 21:53:00,62.1,,-,39,N/A,30.04,90.0,4:53 PM,,10.0,South,6.9,180,Tulsa,Oklahoma,74104
21,Clear,2016-08-16 22:53:00,61.0,,-,38,N/A,30.04,90.0,5:53 PM,,10.0,South,5.8,180,Tulsa,Oklahoma,74104
22,Clear,2016-08-16 23:53:00,63.0,,-,42,N/A,30.04,89.1,6:53 PM,,10.0,South,9.2,170,Tulsa,Oklahoma,74104
23,Clear,2016-08-17 00:53:00,66.0,,-,62,N/A,30.05,80.1,7:53 PM,,10.0,SSW,3.5,210,Tulsa,Oklahoma,74104
24,Clear,2016-08-17 01:53:00,64.0,,-,53,N/A,30.07,82.9,8:53 PM,,10.0,South,5.8,170,Tulsa,Oklahoma,74104
25,Clear,2016-08-17 02:53:00,64.9,,-,60,N/A,30.09,80.1,9:53 PM,,10.0,SSE,4.6,160,Tulsa,Oklahoma,74104
26,Clear,2016-08-17 03:53:00,66.0,,-,66,N/A,30.10,78.1,10:53 PM,,10.0,SSE,5.8,160,Tulsa,Oklahoma,74104
27,Clear,2016-08-17 04:53:00,66.9,,-,74,N/A,30.11,75.9,11:53 PM,,10.0,South,3.5,180,Tulsa,Oklahoma,74104
0,Clear,2016-08-17 05:53:00,66.9,,-,87,N/A,30.12,71.1,12:53 AM,,10.0,Calm,Calm,0,Tulsa,Oklahoma,74104
1,Clear,2016-08-17 06:53:00,68.0,,-,93,N/A,30.11,70.0,1:53 AM,,10.0,SSW,3.5,200,Tulsa,Oklahoma,74104
2,Clear,2016-08-17 07:53:00,68.0,,-,100,N/A,30.10,68.0,2:53 AM,,10.0,Calm,Calm,0,Tulsa,Oklahoma,74104
3,Clear,2016-08-17 08:53:00,68.0,,-,100,N/A,30.10,68.0,3:53 AM,,10.0,Calm,Calm,0,Tulsa,Oklahoma,74104
4,Partly Cloudy,2016-08-17 09:53:00,66.9,,-,100,N/A,30.11,66.9,4:53 AM,,10.0,Calm,Calm,0,Tulsa,Oklahoma,74104
5,Mostly Cloudy,2016-08-17 10:07:00,66.9,,-,100,N/A,30.10,66.9,5:07 AM,,10.0,Calm,Calm,0,Tulsa,Oklahoma,74104
6,Scattered Clouds,2016-08-17 10:17:00,66.9,,-,100,N/A,30.10,66.9,5:17 AM,,10.0,Calm,Calm,0,Tulsa,Oklahoma,74104
7,Clear,2016-08-17 10:53:00,66.9,,-,100,N/A,30.11,66.9,5:53 AM,,10.0,Calm,Calm,0,Tulsa,Oklahoma,74104
8,Scattered Clouds,2016-08-17 11:02:00,68.0,,-,100,N/A,30.10,68.0,6:02 AM,,10.0,Calm,Calm,0,Tulsa,Oklahoma,74104
9,Mostly Cloudy,2016-08-17 11:11:00,69.1,,-,100,N/A,30.10,69.1,6:11 AM,,10.0,Calm,Calm,0,Tulsa,Oklahoma,74104
10,Overcast,2016-08-17 11:38:00,71.1,,-,100,N/A,30.11,71.1,6:38 AM,,7.0,South,8.1,190,Tulsa,Oklahoma,74104
11,Overcast,2016-08-17 11:53:00,71.1,,-,100,N/A,30.13,71.1,6:53 AM,,6.0,SSW,8.1,200,Tulsa,Oklahoma,74104
12,Overcast,2016-08-17 12:53:00,72.0,,-,100,N/A,30.14,72.0,7:53 AM,,6.0,South,5.8,190,Tulsa,Oklahoma,74104
13,Overcast,2016-08-17 13:18:00,72.0,,-,96,N/A,30.14,73.0,8:18 AM,,9.0,SSW,5.8,200,Tulsa,Oklahoma,74104
14,Overcast,2016-08-17 13:53:00,72.0,,-,96,N/A,30.15,73.0,8:53 AM,,8.0,South,3.5,190,Tulsa,Oklahoma,74104
15,Overcast,2016-08-17 14:18:00,72.0,,-,93,N/A,30.15,73.9,9:18 AM,,9.0,Calm,Calm,0,Tulsa,Oklahoma,74104
16,Overcast,2016-08-17 14:53:00,73.0,,-,94,N/A,30.17,75.0,9:53 AM,,10.0,SW,4.6,220,Tulsa,Oklahoma,74104
17,Overcast,2016-08-17 15:30:00,72.0,,-,87,N/A,30.16,75.9,10:30 AM,,10.0,SSW,3.5,210,Tulsa,Oklahoma,74104
18,Overcast,2016-08-17 15:53:00,73.0,,-,82,N/A,30.17,79.0,10:53 AM,,10.0,Calm,Calm,0,Tulsa,Oklahoma,74104
19,Overcast,2016-08-17 16:39:00,72.0,,-,74,N/A,30.15,81.0,11:39 AM,,10.0,Variable,4.6,0,Tulsa,Oklahoma,74104
20,Overcast,2016-08-17 16:48:00,71.6,,-,74,N/A,30.15,80.6,11:48 AM,,10.0,South,4.6,190,Tulsa,Oklahoma,74104
21,Overcast,2016-08-17 16:53:00,72.0,,-,76,N/A,30.16,80.1,11:53 AM,,10.0,Calm,Calm,0,Tulsa,Oklahoma,74104
22,Scattered Clouds,2016-08-17 17:22:00,72.0,,-,69,N/A,30.14,82.9,12:22 PM,,10.0,Variable,3.5,0,Tulsa,Oklahoma,74104
23,Partly Cloudy,2016-08-17 17:53:00,71.1,,-,65,N/A,30.14,84.0,12:53 PM,,10.0,Variable,3.5,0,Tulsa,Oklahoma,74104
24,Scattered Clouds,2016-08-17 18:53:00,71.1,,-,63,N/A,30.11,84.9,1:53 PM,,10.0,Variable,3.5,0,Tulsa,Oklahoma,74104
25,Scattered Clouds,2016-08-17 19:53:00,70.0,,-,53,N/A,30.07,89.1,2:53 PM,,10.0,Variable,5.8,0,Tulsa,Oklahoma,74104
26,Clear,2016-08-17 20:53:00,69.1,,-,50,N/A,30.04,90.0,3:53 PM,,10.0,South,8.1,180,Tulsa,Oklahoma,74104
27,Partly Cloudy,2016-08-17 21:53:00,69.1,,-,48,N/A,30.03,91.0,4:53 PM,,10.0,East,4.6,80,Tulsa,Oklahoma,74104
28,Clear,2016-08-17 22:53:00,68.0,,-,48,N/A,30.02,90.0,5:53 PM,,10.0,Variable,5.8,0,Tulsa,Oklahoma,74104
29,Clear,2016-08-17 23:53:00,66.9,,-,46,N/A,30.02,90.0,6:53 PM,,10.0,SSE,5.8,160,Tulsa,Oklahoma,74104
30,Clear,2016-08-18 00:53:00,66.9,,-,49,N/A,30.04,88.0,7:53 PM,,10.0,SSE,3.5,150,Tulsa,Oklahoma,74104
31,Clear,2016-08-18 01:53:00,70.0,,18.4,61,N/A,30.05,84.9,8:53 PM,,10.0,SSE,11.5,160,Tulsa,Oklahoma,74104
32,Clear,2016-08-18 02:53:00,72.0,,18.4,71,N/A,30.08,82.0,9:53 PM,,10.0,South,8.1,190,Tulsa,Oklahoma,74104
33,Clear,2016-08-18 03:53:00,72.0,,-,79,N/A,30.09,79.0,10:53 PM,,10.0,South,4.6,190,Tulsa,Oklahoma,74104
34,Clear,2016-08-18 04:53:00,72.0,,-,87,N/A,30.11,75.9,11:53 PM,,10.0,South,5.8,190,Tulsa,Oklahoma,74104
0,Clear,2016-08-18 05:53:00,72.0,,-,93,N/A,30.11,73.9,12:53 AM,,10.0,Calm,Calm,0,Tulsa,Oklahoma,74104
1,Clear,2016-08-18 06:53:00,72.0,,-,96,N/A,30.10,73.0,1:53 AM,,10.0,Calm,Calm,0,Tulsa,Oklahoma,74104
2,Clear,2016-08-18 07:53:00,72.0,,-,93,N/A,30.08,73.9,2:53 AM,,10.0,SSE,3.5,160,Tulsa,Oklahoma,74104
3,Clear,2016-08-18 08:53:00,72.0,,-,96,N/A,30.08,73.0,3:53 AM,,10.0,SSE,3.5,160,Tulsa,Oklahoma,74104
4,Clear,2016-08-18 09:53:00,72.0,,-,100,N/A,30.08,72.0,4:53 AM,,10.0,South,3.5,180,Tulsa,Oklahoma,74104
5,Mostly Cloudy,2016-08-18 10:36:00,72.0,,-,100,N/A,30.07,72.0,5:36 AM,,10.0,South,3.5,170,Tulsa,Oklahoma,74104
6,Mostly Cloudy,2016-08-18 10:53:00,71.1,,-,100,N/A,30.08,71.1,5:53 AM,,10.0,Calm,Calm,0,Tulsa,Oklahoma,74104
7,Mostly Cloudy,2016-08-18 11:07:00,71.1,,-,97,N/A,30.07,72.0,6:07 AM,,10.0,Calm,Calm,0,Tulsa,Oklahoma,74104
8,Overcast,2016-08-18 11:53:00,72.0,,-,100,N/A,30.08,72.0,6:53 AM,,10.0,Calm,Calm,0,Tulsa,Oklahoma,74104
9,Overcast,2016-08-18 12:53:00,73.0,,-,97,N/A,30.09,73.9,7:53 AM,,10.0,SSE,3.5,160,Tulsa,Oklahoma,74104
10,Mostly Cloudy,2016-08-18 13:53:00,73.9,,-,94,N/A,30.09,75.9,8:53 AM,,10.0,SSE,5.8,150,Tulsa,Oklahoma,74104
11,Overcast,2016-08-18 14:18:00,73.9,,-,90,N/A,30.07,77.0,9:18 AM,,10.0,South,6.9,170,Tulsa,Oklahoma,74104
12,Overcast,2016-08-18 14:53:00,73.9,,-,87,N/A,30.08,78.1,9:53 AM,,10.0,South,4.6,170,Tulsa,Oklahoma,74104
13,Overcast,2016-08-18 15:17:00,73.0,,-,84,N/A,30.07,78.1,10:17 AM,,10.0,SSE,5.8,160,Tulsa,Oklahoma,74104
14,Overcast,2016-08-18 15:28:00,73.9,,-,81,N/A,30.07,80.1,10:28 AM,,10.0,South,4.6,190,Tulsa,Oklahoma,74104
15,Overcast,2016-08-18 15:53:00,73.9,,-,81,N/A,30.08,80.1,10:53 AM,,10.0,Variable,3.5,0,Tulsa,Oklahoma,74104
16,Overcast,2016-08-18 16:53:00,73.0,,-,74,N/A,30.07,82.0,11:53 AM,,10.0,SSW,6.9,200,Tulsa,Oklahoma,74104
17,Overcast,2016-08-18 17:20:00,73.0,,-,77,N/A,30.05,81.0,12:20 PM,,10.0,SW,4.6,230,Tulsa,Oklahoma,74104
18,Overcast,2016-08-18 17:53:00,72.0,,-,71,N/A,30.06,82.0,12:53 PM,,10.0,South,5.8,170,Tulsa,Oklahoma,74104
19,Overcast,2016-08-18 18:09:00,73.0,,-,72,0.00,30.04,82.9,1:09 PM,,10.0,Variable,4.6,0,Tulsa,Oklahoma,74104
20,Mostly Cloudy,2016-08-18 18:53:00,73.0,,-,67,0.00,30.03,84.9,1:53 PM,,10.0,Variable,3.5,0,Tulsa,Oklahoma,74104
21,Partly Cloudy,2016-08-18 19:53:00,73.0,,-,63,N/A,30.01,87.1,2:53 PM,,10.0,ESE,8.1,120,Tulsa,Oklahoma,74104
22,Partly Cloudy,2016-08-18 20:53:00,73.0,,-,63,N/A,29.98,87.1,3:53 PM,,10.0,SE,8.1,130,Tulsa,Oklahoma,74104
23,Clear,2016-08-18 21:53:00,73.0,,-,63,N/A,29.96,87.1,4:53 PM,,10.0,SSE,8.1,150,Tulsa,Oklahoma,74104
24,Clear,2016-08-18 22:53:00,73.9,,-,67,N/A,29.95,86.0,5:53 PM,,10.0,ESE,11.5,110,Tulsa,Oklahoma,74104
25,Partly Cloudy,2016-08-18 23:53:00,73.0,,-,69,N/A,29.95,84.0,6:53 PM,,10.0,SSE,13.8,160,Tulsa,Oklahoma,74104
26,Clear,2016-08-19 00:53:00,73.9,,-,79,N/A,29.95,81.0,7:53 PM,,10.0,SSE,9.2,150,Tulsa,Oklahoma,74104
27,Clear,2016-08-19 01:53:00,75.0,,-,88,N/A,29.96,79.0,8:53 PM,,10.0,South,5.8,170,Tulsa,Oklahoma,74104
28,Clear,2016-08-19 02:53:00,75.0,,-,88,0.00,29.97,79.0,9:53 PM,,10.0,South,4.6,170,Tulsa,Oklahoma,74104
29,Clear,2016-08-19 03:53:00,75.0,,-,90,N/A,29.97,78.1,10:53 PM,,10.0,South,6.9,170,Tulsa,Oklahoma,74104
30,Clear,2016-08-19 04:53:00,75.0,,-,94,N/A,29.98,77.0,11:53 PM,,10.0,South,6.9,180,Tulsa,Oklahoma,74104
0,Mostly Cloudy,2016-08-19 05:28:00,75.0,,-,94,N/A,29.97,77.0,12:28 AM,,10.0,SSE,4.6,160,Tulsa,Oklahoma,74104
1,Overcast,2016-08-19 05:53:00,75.0,,-,97,N/A,29.98,75.9,12:53 AM,,10.0,South,4.6,190,Tulsa,Oklahoma,74104
2,Scattered Clouds,2016-08-19 06:10:00,73.9,,-,96,N/A,29.96,75.0,1:10 AM,,10.0,SSW,3.5,210,Tulsa,Oklahoma,74104
3,Clear,2016-08-19 06:53:00,73.9,,-,94,N/A,29.97,75.9,1:53 AM,,10.0,South,3.5,170,Tulsa,Oklahoma,74104
4,Partly Cloudy,2016-08-19 07:53:00,73.9,,-,100,N/A,29.97,73.9,2:53 AM,,10.0,Calm,Calm,0,Tulsa,Oklahoma,74104
5,Mostly Cloudy,2016-08-19 08:11:00,73.9,,-,96,N/A,29.96,75.0,3:11 AM,,10.0,South,4.6,170,Tulsa,Oklahoma,74104
6,Overcast,2016-08-19 08:53:00,73.9,,-,96,N/A,29.97,75.0,3:53 AM,,10.0,South,5.8,180,Tulsa,Oklahoma,74104
7,Overcast,2016-08-19 09:53:00,73.9,,-,96,N/A,29.97,75.0,4:53 AM,,10.0,South,8.1,190,Tulsa,Oklahoma,74104
8,Overcast,2016-08-19 10:23:00,73.9,,-,96,N/A,29.96,75.0,5:23 AM,,10.0,South,6.9,180,Tulsa,Oklahoma,74104
9,Overcast,2016-08-19 10:53:00,73.9,,-,96,N/A,29.97,75.0,5:53 AM,,10.0,South,5.8,180,Tulsa,Oklahoma,74104
10,Overcast,2016-08-19 11:26:00,73.9,,-,96,N/A,29.96,75.0,6:26 AM,,10.0,South,4.6,170,Tulsa,Oklahoma,74104
11,Overcast,2016-08-19 11:38:00,73.9,,-,96,N/A,29.96,75.0,6:38 AM,,10.0,South,5.8,180,Tulsa,Oklahoma,74104
12,Overcast,2016-08-19 11:53:00,73.9,,-,96,N/A,29.97,75.0,6:53 AM,,10.0,South,8.1,180,Tulsa,Oklahoma,74104
13,Overcast,2016-08-19 12:01:00,73.9,,-,96,N/A,29.97,75.0,7:01 AM,,10.0,South,6.9,190,Tulsa,Oklahoma,74104
14,Overcast,2016-08-19 12:53:00,73.0,,-,91,N/A,29.97,75.9,7:53 AM,,10.0,SSW,6.9,200,Tulsa,Oklahoma,74104
15,Overcast,2016-08-19 13:24:00,73.9,,-,94,N/A,29.95,75.9,8:24 AM,,10.0,South,5.8,190,Tulsa,Oklahoma,74104
16,Mostly Cloudy,2016-08-19 13:51:00,73.4,,-,83,N/A,29.95,78.8,8:51 AM,,10.0,South,10.4,190,Tulsa,Oklahoma,74104
17,Mostly Cloudy,2016-08-19 13:53:00,73.0,,-,84,N/A,29.96,78.1,8:53 AM,,10.0,South,9.2,190,Tulsa,Oklahoma,74104
18,Mostly Cloudy,2016-08-19 14:53:00,73.0,,-,79,N/A,29.95,80.1,9:53 AM,,10.0,SSW,8.1,200,Tulsa,Oklahoma,74104
19,Mostly Cloudy,2016-08-19 15:53:00,73.0,,-,72,N/A,29.94,82.9,10:53 AM,,10.0,SSW,9.2,200,Tulsa,Oklahoma,74104
20,Scattered Clouds,2016-08-19 16:31:00,73.0,,-,69,N/A,29.92,84.0,11:31 AM,,10.0,South,12.7,180,Tulsa,Oklahoma,74104
21,Partly Cloudy,2016-08-19 16:53:00,73.0,,-,67,N/A,29.93,84.9,11:53 AM,,10.0,South,10.4,180,Tulsa,Oklahoma,74104
22,Mostly Cloudy,2016-08-19 17:53:00,73.0,,20.7,63,N/A,29.91,87.1,12:53 PM,,10.0,SSW,12.7,200,Tulsa,Oklahoma,74104
23,Scattered Clouds,2016-08-19 18:53:00,73.0,,-,61,N/A,29.91,88.0,1:53 PM,,10.0,South,12.7,190,Tulsa,Oklahoma,74104
24,Partly Cloudy,2016-08-19 19:53:00,73.9,,21.9,59,N/A,29.87,90.0,2:53 PM,,10.0,SSW,10.4,210,Tulsa,Oklahoma,74104
25,Partly Cloudy,2016-08-19 20:53:00,73.0,,21.9,55,N/A,29.83,91.0,3:53 PM,,10.0,SSW,17.3,200,Tulsa,Oklahoma,74104
26,Partly Cloudy,2016-08-19 21:53:00,71.1,,27.6,54,N/A,29.81,90.0,4:53 PM,,10.0,SSW,17.3,200,Tulsa,Oklahoma,74104
27,Clear,2016-08-19 22:53:00,71.1,,23.0,55,N/A,29.81,89.1,5:53 PM,,10.0,SSW,13.8,200,Tulsa,Oklahoma,74104
28,Partly Cloudy,2016-08-19 23:53:00,71.1,,23.0,61,N/A,29.81,86.0,6:53 PM,,10.0,SSW,17.3,200,Tulsa,Oklahoma,74104
29,Clear,2016-08-20 00:53:00,70.0,,19.6,65,N/A,29.80,82.9,7:53 PM,,10.0,SSW,9.2,200,Tulsa,Oklahoma,74104
30,Clear,2016-08-20 01:53:00,70.0,,-,71,N/A,29.79,80.1,8:53 PM,,10.0,South,10.4,190,Tulsa,Oklahoma,74104
31,Clear,2016-08-20 02:53:00,70.0,,-,74,N/A,29.84,79.0,9:53 PM,,10.0,South,9.2,180,Tulsa,Oklahoma,74104
32,Clear,2016-08-20 03:53:00,71.1,,-,82,N/A,29.87,77.0,10:53 PM,,10.0,South,6.9,190,Tulsa,Oklahoma,74104
33,Clear,2016-08-20 04:53:00,71.1,,-,82,N/A,29.88,77.0,11:53 PM,,10.0,Calm,Calm,0,Tulsa,Oklahoma,74104
0,Overcast,2016-08-20 05:53:00,71.1,,-,85,N/A,29.89,75.9,12:53 AM,,10.0,Calm,Calm,0,Tulsa,Oklahoma,74104
1,Light Rain,2016-08-20 06:08:00,71.1,Rain-Thunderstorm,-,87,0.05,29.89,75.0,1:08 AM,,2.5,Variable,3.5,0,Tulsa,Oklahoma,74104
2,Heavy Thunderstorms and Rain,2016-08-20 06:13:00,72.0,Rain-Thunderstorm,-,93,0.09,29.89,73.9,1:13 AM,,1.5,Calm,Calm,0,Tulsa,Oklahoma,74104
3,Heavy Thunderstorms and Rain,2016-08-20 06:30:00,72.0,Rain-Thunderstorm,-,100,0.41,29.87,72.0,1:30 AM,,1.0,South,4.6,190,Tulsa,Oklahoma,74104
4,Heavy Thunderstorms and Rain,2016-08-20 06:37:00,72.0,Rain-Thunderstorm,-,100,0.54,29.87,72.0,1:37 AM,,1.0,SSE,4.6,160,Tulsa,Oklahoma,74104
5,Light Thunderstorms and Rain,2016-08-20 06:43:00,72.0,Rain-Thunderstorm,-,100,0.54,29.87,72.0,1:43 AM,,3.0,South,5.8,170,Tulsa,Oklahoma,74104
6,Thunderstorm,2016-08-20 06:53:00,72.0,Thunderstorm,-,100,0.54,29.87,72.0,1:53 AM,,10.0,Calm,Calm,0,Tulsa,Oklahoma,74104
7,Mostly Cloudy,2016-08-20 07:06:00,73.0,,-,100,N/A,29.85,73.0,2:06 AM,,10.0,SSE,4.6,160,Tulsa,Oklahoma,74104
8,Overcast,2016-08-20 07:53:00,72.0,,-,96,N/A,29.83,73.0,2:53 AM,,10.0,South,6.9,180,Tulsa,Oklahoma,74104
9,Scattered Clouds,2016-08-20 08:53:00,72.0,,-,100,N/A,29.85,72.0,3:53 AM,,10.0,Calm,Calm,0,Tulsa,Oklahoma,74104
10,Light Rain,2016-08-20 09:53:00,71.1,Rain,-,97,0.01,29.84,72.0,4:53 AM,,10.0,SW,5.8,230,Tulsa,Oklahoma,74104
11,Light Rain,2016-08-20 10:53:00,71.1,Rain,-,100,0.01,29.84,71.1,5:53 AM,,10.0,Calm,Calm,0,Tulsa,Oklahoma,74104
12,Light Rain,2016-08-20 11:48:00,71.6,Rain,-,100,0.00,29.84,71.6,6:48 AM,,10.0,Calm,Calm,0,Tulsa,Oklahoma,74104
13,Light Rain,2016-08-20 11:53:00,72.0,Rain,-,100,0.00,29.85,72.0,6:53 AM,,10.0,Calm,Calm,0,Tulsa,Oklahoma,74104
14,Light Rain,2016-08-20 12:03:00,72.0,Rain,-,100,0.00,29.84,72.0,7:03 AM,,10.0,Calm,Calm,0,Tulsa,Oklahoma,74104
15,Scattered Clouds,2016-08-20 12:53:00,71.1,,-,93,0.00,29.82,73.0,7:53 AM,,10.0,Calm,Calm,0,Tulsa,Oklahoma,74104
16,Mostly Cloudy,2016-08-20 13:35:00,72.0,,-,96,N/A,29.84,73.0,8:35 AM,,10.0,North,3.5,350,Tulsa,Oklahoma,74104
17,Overcast,2016-08-20 13:49:00,71.6,,-,94,N/A,29.85,73.4,8:49 AM,,10.0,NNW,3.5,340,Tulsa,Oklahoma,74104
18,Overcast,2016-08-20 13:53:00,72.0,,-,96,N/A,29.86,73.0,8:53 AM,,10.0,North,3.5,360,Tulsa,Oklahoma,74104
19,Light Rain,2016-08-20 14:03:00,73.0,Rain,-,100,0.00,29.85,73.0,9:03 AM,,5.0,Calm,Calm,0,Tulsa,Oklahoma,74104
20,Light Rain,2016-08-20 14:23:00,73.0,Rain,-,100,0.00,29.86,73.0,9:23 AM,,6.0,NNW,4.6,340,Tulsa,Oklahoma,74104
21,Light Rain,2016-08-20 14:53:00,72.0,Rain,-,96,0.00,29.88,73.0,9:53 AM,,10.0,North,10.4,360,Tulsa,Oklahoma,74104
22,Overcast,2016-08-20 15:00:00,72.0,,-,96,0.00,29.88,73.0,10:00 AM,,10.0,North,10.4,360,Tulsa,Oklahoma,74104
23,Overcast,2016-08-20 15:41:00,71.1,,-,97,0.00,29.89,72.0,10:41 AM,,10.0,North,5.8,360,Tulsa,Oklahoma,74104
24,Overcast,2016-08-20 15:51:00,71.6,,-,94,0.00,29.89,73.4,10:51 AM,,10.0,North,5.8,10,Tulsa,Oklahoma,74104
25,Overcast,2016-08-20 15:53:00,71.1,,-,93,0.00,29.91,73.0,10:53 AM,,10.0,North,6.9,10,Tulsa,Oklahoma,74104
26,Overcast,2016-08-20 16:27:00,71.1,,-,93,N/A,29.91,73.0,11:27 AM,,10.0,North,3.5,360,Tulsa,Oklahoma,74104
27,Overcast,2016-08-20 16:43:00,71.1,,-,93,N/A,29.92,73.0,11:43 AM,,10.0,Calm,Calm,0,Tulsa,Oklahoma,74104
28,Overcast,2016-08-20 16:53:00,71.1,,-,93,N/A,29.93,73.0,11:53 AM,,10.0,Calm,Calm,0,Tulsa,Oklahoma,74104
29,Overcast,2016-08-20 17:51:00,71.6,,-,89,0.00,29.91,75.2,12:51 PM,,10.0,NNE,5.8,20,Tulsa,Oklahoma,74104
30,Overcast,2016-08-20 17:53:00,71.1,,-,82,0.00,29.92,77.0,12:53 PM,,10.0,NNE,6.9,20,Tulsa,Oklahoma,74104
31,Scattered Clouds,2016-08-20 18:53:00,70.0,,-,69,N/A,29.91,81.0,1:53 PM,,10.0,North,6.9,10,Tulsa,Oklahoma,74104
32,Mostly Cloudy,2016-08-20 19:53:00,68.0,,-,60,N/A,29.90,82.9,2:53 PM,,10.0,Variable,4.6,0,Tulsa,Oklahoma,74104
33,Mostly Cloudy,2016-08-20 20:53:00,66.9,,-,60,N/A,29.89,82.0,3:53 PM,,10.0,North,5.8,360,Tulsa,Oklahoma,74104
34,Partly Cloudy,2016-08-20 21:53:00,64.9,,-,51,N/A,29.88,84.9,4:53 PM,,10.0,North,5.8,10,Tulsa,Oklahoma,74104
35,Partly Cloudy,2016-08-20 22:53:00,64.9,,-,53,N/A,29.88,84.0,5:53 PM,,10.0,North,4.6,350,Tulsa,Oklahoma,74104
36,Mostly Cloudy,2016-08-20 23:53:00,64.0,,-,56,N/A,29.89,81.0,6:53 PM,,10.0,NNW,4.6,340,Tulsa,Oklahoma,74104
37,Partly Cloudy,2016-08-21 00:53:00,63.0,,-,60,N/A,29.89,78.1,7:53 PM,,10.0,North,6.9,350,Tulsa,Oklahoma,74104
38,Clear,2016-08-21 01:53:00,63.0,,-,66,N/A,29.91,75.0,8:53 PM,,10.0,North,4.6,360,Tulsa,Oklahoma,74104
39,Clear,2016-08-21 02:53:00,63.0,,-,68,N/A,29.94,73.9,9:53 PM,,10.0,North,5.8,10,Tulsa,Oklahoma,74104
40,Clear,2016-08-21 03:53:00,62.1,,-,68,N/A,29.97,73.0,10:53 PM,,10.0,North,4.6,360,Tulsa,Oklahoma,74104
41,Clear,2016-08-21 04:53:00,61.0,,-,70,N/A,30.00,71.1,11:53 PM,,10.0,North,5.8,350,Tulsa,Oklahoma,74104
0,Clear,2016-08-21 05:53:00,60.1,,-,68,N/A,30.01,71.1,12:53 AM,,10.0,North,6.9,10,Tulsa,Oklahoma,74104
1,Clear,2016-08-21 06:53:00,60.1,,-,73,N/A,30.03,69.1,1:53 AM,,10.0,North,4.6,10,Tulsa,Oklahoma,74104
2,Clear,2016-08-21 07:53:00,60.1,,-,79,N/A,30.04,66.9,2:53 AM,,10.0,North,3.5,360,Tulsa,Oklahoma,74104
3,Clear,2016-08-21 08:53:00,61.0,,-,96,N/A,30.05,62.1,3:53 AM,,10.0,Calm,Calm,0,Tulsa,Oklahoma,74104
4,Clear,2016-08-21 09:53:00,61.0,,-,100,N/A,30.06,61.0,4:53 AM,,10.0,NNW,3.5,340,Tulsa,Oklahoma,74104
5,Clear,2016-08-21 10:53:00,60.1,,-,100,N/A,30.06,60.1,5:53 AM,,10.0,Calm,Calm,0,Tulsa,Oklahoma,74104
6,Clear,2016-08-21 11:53:00,59.0,,-,100,N/A,30.09,59.0,6:53 AM,,9.0,Calm,Calm,0,Tulsa,Oklahoma,74104
7,Clear,2016-08-21 12:53:00,62.1,,-,97,N/A,30.10,63.0,7:53 AM,,10.0,Calm,Calm,0,Tulsa,Oklahoma,74104
8,Clear,2016-08-21 13:53:00,62.1,,-,78,N/A,30.11,69.1,8:53 AM,,10.0,NE,3.5,40,Tulsa,Oklahoma,74104
9,Clear,2016-08-21 14:53:00,62.1,,-,66,N/A,30.12,73.9,9:53 AM,,10.0,Calm,Calm,0,Tulsa,Oklahoma,74104
10,Clear,2016-08-21 15:53:00,57.9,,-,52,N/A,30.13,77.0,10:53 AM,,10.0,ENE,5.8,70,Tulsa,Oklahoma,74104
11,Clear,2016-08-21 16:53:00,55.0,,-,45,N/A,30.13,78.1,11:53 AM,,10.0,Calm,Calm,0,Tulsa,Oklahoma,74104
12,Clear,2016-08-21 17:53:00,55.9,,-,42,N/A,30.12,81.0,12:53 PM,,10.0,East,6.9,90,Tulsa,Oklahoma,74104
13,Clear,2016-08-21 18:53:00,55.0,,-,39,N/A,30.10,82.0,1:53 PM,,10.0,Variable,6.9,0,Tulsa,Oklahoma,74104
14,Clear,2016-08-21 19:53:00,55.0,,-,38,N/A,30.09,82.9,2:53 PM,,10.0,NE,8.1,40,Tulsa,Oklahoma,74104
15,Clear,2016-08-21 20:53:00,54.0,,-,35,N/A,30.07,84.0,3:53 PM,,10.0,Variable,4.6,0,Tulsa,Oklahoma,74104
16,Clear,2016-08-21 21:53:00,54.0,,-,35,N/A,30.06,84.0,4:53 PM,,10.0,East,4.6,100,Tulsa,Oklahoma,74104
17,Clear,2016-08-21 22:53:00,55.9,,-,38,N/A,30.06,84.0,5:53 PM,,10.0,SSW,5.8,210,Tulsa,Oklahoma,74104
18,Clear,2016-08-21 23:53:00,55.0,,-,38,N/A,30.05,82.9,6:53 PM,,10.0,South,5.8,170,Tulsa,Oklahoma,74104
19,Clear,2016-08-22 00:53:00,55.9,,-,48,N/A,30.06,77.0,7:53 PM,,10.0,ESE,5.8,120,Tulsa,Oklahoma,74104
20,Clear,2016-08-22 01:53:00,61.0,,-,78,N/A,30.07,68.0,8:53 PM,,10.0,Calm,Calm,0,Tulsa,Oklahoma,74104
21,Clear,2016-08-22 02:53:00,61.0,,-,84,N/A,30.09,66.0,9:53 PM,,10.0,Calm,Calm,0,Tulsa,Oklahoma,74104
22,Clear,2016-08-22 03:53:00,61.0,,-,90,N/A,30.09,64.0,10:53 PM,,10.0,Calm,Calm,0,Tulsa,Oklahoma,74104
23,Clear,2016-08-22 04:53:00,62.1,,-,97,N/A,30.10,63.0,11:53 PM,,10.0,Calm,Calm,0,Tulsa,Oklahoma,74104
0,Clear,2016-08-22 05:53:00,62.1,,-,97,N/A,30.10,63.0,12:53 AM,,10.0,Calm,Calm,0,Tulsa,Oklahoma,74104
1,Clear,2016-08-22 06:53:00,61.0,,-,96,N/A,30.10,62.1,1:53 AM,,10.0,Calm,Calm,0,Tulsa,Oklahoma,74104
2,Clear,2016-08-22 07:53:00,60.1,,-,100,N/A,30.10,60.1,2:53 AM,,10.0,Calm,Calm,0,Tulsa,Oklahoma,74104
3,Clear,2016-08-22 08:53:00,60.1,,-,100,N/A,30.11,60.1,3:53 AM,,10.0,Calm,Calm,0,Tulsa,Oklahoma,74104
4,Clear,2016-08-22 09:53:00,60.1,,-,100,N/A,30.12,60.1,4:53 AM,,10.0,Calm,Calm,0,Tulsa,Oklahoma,74104
5,Clear,2016-08-22 10:53:00,60.1,,-,100,N/A,30.11,60.1,5:53 AM,,9.0,Calm,Calm,0,Tulsa,Oklahoma,74104
6,Partly Cloudy,2016-08-22 11:53:00,60.1,,-,100,N/A,30.13,60.1,6:53 AM,,8.0,Calm,Calm,0,Tulsa,Oklahoma,74104
7,Clear,2016-08-22 12:53:00,62.1,,-,90,N/A,30.14,64.9,7:53 AM,,10.0,Calm,Calm,0,Tulsa,Oklahoma,74104
8,Partly Cloudy,2016-08-22 13:53:00,63.0,,-,81,N/A,30.15,69.1,8:53 AM,,10.0,SSE,4.6,150,Tulsa,Oklahoma,74104
9,Clear,2016-08-22 14:53:00,66.0,,-,79,N/A,30.16,73.0,9:53 AM,,10.0,SSE,5.8,160,Tulsa,Oklahoma,74104
10,Partly Cloudy,2016-08-22 15:53:00,68.0,,-,69,N/A,30.15,79.0,10:53 AM,,10.0,SSE,8.1,150,Tulsa,Oklahoma,74104
11,Scattered Clouds,2016-08-22 16:53:00,68.0,,-,65,N/A,30.15,81.0,11:53 AM,,10.0,Variable,6.9,0,Tulsa,Oklahoma,74104
12,Partly Cloudy,2016-08-22 17:53:00,66.9,,-,56,N/A,30.12,84.0,12:53 PM,,10.0,SE,9.2,140,Tulsa,Oklahoma,74104
13,Partly Cloudy,2016-08-22 18:53:00,64.0,,-,48,N/A,30.09,86.0,1:53 PM,,10.0,SSE,9.2,150,Tulsa,Oklahoma,74104
14,Partly Cloudy,2016-08-22 19:53:00,66.0,,-,51,N/A,30.07,86.0,2:53 PM,,10.0,SE,8.1,130,Tulsa,Oklahoma,74104
15,Partly Cloudy,2016-08-22 20:53:00,66.0,,21.9,49,N/A,30.05,87.1,3:53 PM,,10.0,SSE,12.7,150,Tulsa,Oklahoma,74104
16,Partly Cloudy,2016-08-22 21:53:00,64.9,,17.3,46,N/A,30.04,88.0,4:53 PM,,10.0,SE,10.4,140,Tulsa,Oklahoma,74104
17,Scattered Clouds,2016-08-22 22:53:00,68.0,,20.7,55,N/A,30.04,86.0,5:53 PM,,10.0,SSE,9.2,150,Tulsa,Oklahoma,74104
18,Clear,2016-08-22 23:53:00,70.0,,-,63,N/A,30.04,84.0,6:53 PM,,10.0,SSE,11.5,150,Tulsa,Oklahoma,74104
19,Scattered Clouds,2016-08-23 00:53:00,69.1,,20.7,67,N/A,30.05,81.0,7:53 PM,,10.0,SSE,11.5,160,Tulsa,Oklahoma,74104
20,Mostly Cloudy,2016-08-23 01:53:00,70.0,,-,74,N/A,30.07,79.0,8:53 PM,,10.0,SSE,9.2,160,Tulsa,Oklahoma,74104
21,Partly Cloudy,2016-08-23 02:53:00,71.1,,-,82,N/A,30.08,77.0,9:53 PM,,10.0,SSE,6.9,160,Tulsa,Oklahoma,74104
22,Clear,2016-08-23 03:53:00,71.1,,-,85,N/A,30.08,75.9,10:53 PM,,10.0,South,8.1,170,Tulsa,Oklahoma,74104
23,Mostly Cloudy,2016-08-23 04:09:00,72.0,,-,84,N/A,30.06,77.0,11:09 PM,,10.0,SSE,8.1,160,Tulsa,Oklahoma,74104
24,Overcast,2016-08-23 04:53:00,72.0,,-,87,N/A,30.07,75.9,11:53 PM,,10.0,SSE,9.2,160,Tulsa,Oklahoma,74104
0,Mostly Cloudy,2016-08-23 05:53:00,72.0,,-,87,N/A,30.07,75.9,12:53 AM,,10.0,South,8.1,170,Tulsa,Oklahoma,74104
1,Overcast,2016-08-23 06:53:00,73.0,,-,94,N/A,30.07,75.0,1:53 AM,,10.0,SSE,6.9,160,Tulsa,Oklahoma,74104
2,Overcast,2016-08-23 07:03:00,73.0,,-,94,N/A,30.06,75.0,2:03 AM,,10.0,SSE,5.8,160,Tulsa,Oklahoma,74104
3,Overcast,2016-08-23 07:22:00,73.0,,-,94,N/A,30.06,75.0,2:22 AM,,10.0,South,5.8,170,Tulsa,Oklahoma,74104
4,Overcast,2016-08-23 07:53:00,73.0,,-,94,N/A,30.07,75.0,2:53 AM,,10.0,SSE,4.6,160,Tulsa,Oklahoma,74104
5,Overcast,2016-08-23 08:53:00,73.0,,-,94,N/A,30.05,75.0,3:53 AM,,10.0,South,8.1,180,Tulsa,Oklahoma,74104
6,Overcast,2016-08-23 09:53:00,73.0,,-,94,N/A,30.06,75.0,4:53 AM,,10.0,South,8.1,180,Tulsa,Oklahoma,74104
7,Overcast,2016-08-23 10:53:00,73.9,,-,94,N/A,30.06,75.9,5:53 AM,,10.0,South,9.2,170,Tulsa,Oklahoma,74104
8,Overcast,2016-08-23 11:53:00,73.9,,-,94,N/A,30.06,75.9,6:53 AM,,10.0,SSE,5.8,160,Tulsa,Oklahoma,74104
9,Scattered Clouds,2016-08-23 12:24:00,73.9,,-,94,N/A,30.06,75.9,7:24 AM,,10.0,SSE,5.8,160,Tulsa,Oklahoma,74104
10,Partly Cloudy,2016-08-23 12:53:00,75.0,,-,94,N/A,30.08,77.0,7:53 AM,,10.0,South,6.9,170,Tulsa,Oklahoma,74104
11,Mostly Cloudy,2016-08-23 13:14:00,75.0,,-,94,N/A,30.07,77.0,8:14 AM,,10.0,South,8.1,170,Tulsa,Oklahoma,74104
12,Overcast,2016-08-23 13:53:00,75.0,,-,88,N/A,30.09,79.0,8:53 AM,,10.0,South,6.9,180,Tulsa,Oklahoma,74104
13,Mostly Cloudy,2016-08-23 14:53:00,75.9,,-,85,0.00,30.09,81.0,9:53 AM,,10.0,South,11.5,180,Tulsa,Oklahoma,74104
14,Light Rain,2016-08-23 15:53:00,77.0,Rain,-,85,0.00,30.10,82.0,10:53 AM,,10.0,South,9.2,190,Tulsa,Oklahoma,74104
15,Mostly Cloudy,2016-08-23 16:53:00,73.9,,-,72,0.01,30.09,84.0,11:53 AM,,10.0,South,16.1,190,Tulsa,Oklahoma,74104
16,Overcast,2016-08-23 17:08:00,73.9,,26.5,74,N/A,30.08,82.9,12:08 PM,,10.0,SSW,17.3,200,Tulsa,Oklahoma,74104
17,Mostly Cloudy,2016-08-23 17:53:00,73.9,,-,72,N/A,30.08,84.0,12:53 PM,,10.0,SSW,12.7,200,Tulsa,Oklahoma,74104
18,Light Rain,2016-08-23 18:53:00,75.9,Rain,21.9,85,0.00,30.07,81.0,1:53 PM,,10.0,South,11.5,180,Tulsa,Oklahoma,74104
19,Light Rain,2016-08-23 19:53:00,78.1,Rain,-,94,0.03,30.04,80.1,2:53 PM,,10.0,South,6.9,170,Tulsa,Oklahoma,74104
20,Scattered Clouds,2016-08-23 20:53:00,78.1,,-,74,0.00,30.02,87.1,3:53 PM,,10.0,Calm,Calm,0,Tulsa,Oklahoma,74104
21,Overcast,2016-08-23 21:53:00,73.0,,-,61,N/A,30.00,88.0,4:53 PM,,10.0,South,9.2,170,Tulsa,Oklahoma,74104
22,Mostly Cloudy,2016-08-23 22:53:00,72.0,,24.2,53,0.00,29.99,91.0,5:53 PM,,10.0,South,11.5,170,Tulsa,Oklahoma,74104
23,Scattered Clouds,2016-08-23 23:53:00,73.0,,21.9,59,N/A,29.97,89.1,6:53 PM,,10.0,South,15.0,170,Tulsa,Oklahoma,74104
24,Partly Cloudy,2016-08-24 00:53:00,73.0,,-,63,N/A,29.97,87.1,7:53 PM,,10.0,South,11.5,170,Tulsa,Oklahoma,74104
25,Clear,2016-08-24 01:53:00,73.0,,-,67,N/A,29.99,84.9,8:53 PM,,10.0,South,10.4,170,Tulsa,Oklahoma,74104
26,Clear,2016-08-24 02:53:00,73.0,,-,69,N/A,30.00,84.0,9:53 PM,,10.0,South,11.5,170,Tulsa,Oklahoma,74104
27,Clear,2016-08-24 03:53:00,73.0,,-,69,N/A,30.02,84.0,10:53 PM,,10.0,South,10.4,190,Tulsa,Oklahoma,74104
28,Clear,2016-08-24 04:53:00,72.0,,-,67,N/A,30.01,84.0,11:53 PM,,10.0,South,11.5,190,Tulsa,Oklahoma,74104
0,Clear,2016-08-24 05:53:00,72.0,,-,69,N/A,29.99,82.9,12:53 AM,,10.0,South,12.7,180,Tulsa,Oklahoma,74104
1,Clear,2016-08-24 06:53:00,72.0,,21.9,69,N/A,29.99,82.9,1:53 AM,,10.0,South,13.8,180,Tulsa,Oklahoma,74104
2,Clear,2016-08-24 07:53:00,72.0,,23.0,69,N/A,30.00,82.9,2:53 AM,,10.0,SSW,13.8,200,Tulsa,Oklahoma,74104
3,Clear,2016-08-24 08:53:00,72.0,,21.9,71,N/A,29.99,82.0,3:53 AM,,10.0,SSW,12.7,200,Tulsa,Oklahoma,74104
4,Clear,2016-08-24 09:53:00,73.0,,-,77,N/A,30.00,81.0,4:53 AM,,10.0,SSW,12.7,200,Tulsa,Oklahoma,74104
5,Clear,2016-08-24 10:53:00,73.0,,-,79,N/A,30.02,80.1,5:53 AM,,10.0,SSW,5.8,210,Tulsa,Oklahoma,74104
6,Clear,2016-08-24 11:53:00,73.0,,-,82,N/A,30.03,79.0,6:53 AM,,10.0,South,5.8,170,Tulsa,Oklahoma,74104
7,Clear,2016-08-24 12:53:00,73.0,,-,79,N/A,30.04,80.1,7:53 AM,,10.0,South,8.1,190,Tulsa,Oklahoma,74104
8,Clear,2016-08-24 13:53:00,73.0,,-,74,N/A,30.05,82.0,8:53 AM,,10.0,SSW,10.4,210,Tulsa,Oklahoma,74104
9,Clear,2016-08-24 14:53:00,73.0,,20.7,67,N/A,30.05,84.9,9:53 AM,,10.0,SSW,11.5,210,Tulsa,Oklahoma,74104
10,Clear,2016-08-24 15:53:00,73.9,,-,63,N/A,30.06,88.0,10:53 AM,,10.0,SW,10.4,230,Tulsa,Oklahoma,74104
11,Clear,2016-08-24 16:53:00,73.0,,19.6,55,N/A,30.05,91.0,11:53 AM,,10.0,SSW,13.8,210,Tulsa,Oklahoma,74104
12,Clear,2016-08-24 17:53:00,73.0,,19.6,52,N/A,30.03,93.0,12:53 PM,,10.0,SSW,12.7,210,Tulsa,Oklahoma,74104
13,Clear,2016-08-24 18:53:00,71.1,,18.4,46,N/A,30.01,95.0,1:53 PM,,10.0,SSW,12.7,210,Tulsa,Oklahoma,74104
14,Clear,2016-08-24 19:53:00,66.9,,24.2,37,N/A,29.99,97.0,2:53 PM,,10.0,South,16.1,190,Tulsa,Oklahoma,74104
15,Partly Cloudy,2016-08-24 20:53:00,68.0,,-,39,N/A,29.97,97.0,3:53 PM,,10.0,South,11.5,180,Tulsa,Oklahoma,74104
16,Partly Cloudy,2016-08-24 21:53:00,66.9,,23.0,37,N/A,29.96,97.0,4:53 PM,,10.0,South,15.0,170,Tulsa,Oklahoma,74104
17,Clear,2016-08-24 22:53:00,66.9,,17.3,37,N/A,29.96,97.0,5:53 PM,,10.0,South,10.4,190,Tulsa,Oklahoma,74104
18,Clear,2016-08-24 23:53:00,66.0,,-,40,N/A,29.95,93.9,6:53 PM,,10.0,South,15.0,180,Tulsa,Oklahoma,74104
19,Clear,2016-08-25 00:53:00,66.9,,21.9,45,N/A,29.97,91.0,7:53 PM,,10.0,South,12.7,170,Tulsa,Oklahoma,74104
20,Clear,2016-08-25 01:53:00,68.0,,-,51,N/A,29.99,88.0,8:53 PM,,10.0,South,11.5,170,Tulsa,Oklahoma,74104
21,Clear,2016-08-25 02:53:00,68.0,,-,55,N/A,30.02,86.0,9:53 PM,,10.0,South,12.7,180,Tulsa,Oklahoma,74104
22,Clear,2016-08-25 03:53:00,68.0,,-,57,N/A,30.03,84.9,10:53 PM,,10.0,South,9.2,180,Tulsa,Oklahoma,74104
23,Clear,2016-08-25 04:53:00,69.1,,-,63,N/A,30.03,82.9,11:53 PM,,10.0,South,6.9,170,Tulsa,Oklahoma,74104
0,Clear,2016-08-25 05:53:00,69.1,,-,67,N/A,30.04,81.0,12:53 AM,,10.0,South,5.8,170,Tulsa,Oklahoma,74104
1,Clear,2016-08-25 06:53:00,70.0,,-,71,N/A,30.04,80.1,1:53 AM,,10.0,South,3.5,190,Tulsa,Oklahoma,74104
2,Clear,2016-08-25 07:53:00,71.1,,-,85,N/A,30.04,75.9,2:53 AM,,10.0,Calm,Calm,0,Tulsa,Oklahoma,74104
3,Clear,2016-08-25 08:53:00,71.1,,-,91,N/A,30.04,73.9,3:53 AM,,10.0,South,3.5,190,Tulsa,Oklahoma,74104
4,Clear,2016-08-25 09:53:00,71.1,,-,87,N/A,30.03,75.0,4:53 AM,,10.0,Calm,Calm,0,Tulsa,Oklahoma,74104
5,Clear,2016-08-25 10:53:00,71.1,,-,91,N/A,30.05,73.9,5:53 AM,,10.0,Calm,Calm,0,Tulsa,Oklahoma,74104
6,Clear,2016-08-25 11:53:00,71.1,,-,97,N/A,30.06,72.0,6:53 AM,,10.0,Calm,Calm,0,Tulsa,Oklahoma,74104
7,Overcast,2016-08-25 12:53:00,72.0,,-,87,N/A,30.08,75.9,7:53 AM,,10.0,South,4.6,170,Tulsa,Oklahoma,74104
8,Clear,2016-08-25 13:53:00,73.0,,-,82,N/A,30.08,79.0,8:53 AM,,10.0,South,6.9,190,Tulsa,Oklahoma,74104
9,Clear,2016-08-25 14:53:00,73.9,,-,72,N/A,30.08,84.0,9:53 AM,,10.0,SSW,8.1,210,Tulsa,Oklahoma,74104
10,Clear,2016-08-25 15:53:00,73.9,,-,65,N/A,30.09,87.1,10:53 AM,,10.0,SSW,5.8,210,Tulsa,Oklahoma,74104
11,Clear,2016-08-25 16:53:00,73.0,,-,57,N/A,30.07,90.0,11:53 AM,,10.0,Variable,5.8,0,Tulsa,Oklahoma,74104
12,Clear,2016-08-25 17:53:00,73.0,,-,52,N/A,30.06,93.0,12:53 PM,,10.0,South,8.1,190,Tulsa,Oklahoma,74104
13,Partly Cloudy,2016-08-25 18:53:00,73.0,,-,51,N/A,30.04,93.9,1:53 PM,,10.0,South,9.2,190,Tulsa,Oklahoma,74104
14,Scattered Clouds,2016-08-25 19:53:00,70.0,,-,44,N/A,30.01,95.0,2:53 PM,,10.0,South,9.2,180,Tulsa,Oklahoma,74104
15,Scattered Clouds,2016-08-25 20:53:00,69.1,,-,41,N/A,29.96,96.1,3:53 PM,,10.0,SSW,9.2,200,Tulsa,Oklahoma,74104
16,Mostly Cloudy,2016-08-25 21:53:00,70.0,,-,43,N/A,29.96,96.1,4:53 PM,,10.0,South,9.2,190,Tulsa,Oklahoma,74104
17,Partly Cloudy,2016-08-25 22:27:00,69.1,Thunderstorm,-,43,N/A,29.95,95.0,5:27 PM,,10.0,Variable,5.8,0,Tulsa,Oklahoma,74104
18,Mostly Cloudy,2016-08-25 22:53:00,71.1,,-,59,N/A,29.97,87.1,5:53 PM,,10.0,Variable,6.9,0,Tulsa,Oklahoma,74104
19,Clear,2016-08-25 23:53:00,72.0,,-,65,N/A,29.97,84.9,6:53 PM,,10.0,Calm,Calm,0,Tulsa,Oklahoma,74104
20,Mostly Cloudy,2016-08-26 00:53:00,73.0,,-,72,N/A,30.00,82.9,7:53 PM,,10.0,North,3.5,360,Tulsa,Oklahoma,74104
21,Mostly Cloudy,2016-08-26 01:12:00,73.9,Thunderstorm,-,76,N/A,29.99,82.0,8:12 PM,,10.0,Calm,Calm,0,Tulsa,Oklahoma,74104
22,Mostly Cloudy,2016-08-26 01:27:00,73.0,,-,74,N/A,29.99,82.0,8:27 PM,,10.0,NE,5.8,50,Tulsa,Oklahoma,74104
23,Mostly Cloudy,2016-08-26 01:53:00,73.0,,-,74,N/A,30.01,82.0,8:53 PM,,10.0,NE,11.5,50,Tulsa,Oklahoma,74104
24,Mostly Cloudy,2016-08-26 02:53:00,71.1,,-,74,N/A,30.04,80.1,9:53 PM,,10.0,East,9.2,80,Tulsa,Oklahoma,74104
25,Mostly Cloudy,2016-08-26 03:53:00,70.0,,-,79,N/A,30.06,77.0,10:53 PM,,10.0,East,9.2,100,Tulsa,Oklahoma,74104
26,Clear,2016-08-26 04:53:00,70.0,,-,82,N/A,30.07,75.9,11:53 PM,,10.0,Calm,Calm,0,Tulsa,Oklahoma,74104
0,Partly Cloudy,2016-08-26 05:53:00,70.0,,-,82,N/A,30.07,75.9,12:53 AM,,10.0,ESE,3.5,120,Tulsa,Oklahoma,74104
1,Scattered Clouds,2016-08-26 06:53:00,71.1,,-,93,N/A,30.08,73.0,1:53 AM,,10.0,Calm,Calm,0,Tulsa,Oklahoma,74104
2,Scattered Clouds,2016-08-26 07:53:00,71.1,,-,93,N/A,30.08,73.0,2:53 AM,,10.0,Calm,Calm,0,Tulsa,Oklahoma,74104
3,Clear,2016-08-26 08:53:00,71.1,,-,91,N/A,30.06,73.9,3:53 AM,,10.0,Calm,Calm,0,Tulsa,Oklahoma,74104
4,Clear,2016-08-26 09:53:00,71.1,,-,97,N/A,30.06,72.0,4:53 AM,,10.0,Calm,Calm,0,Tulsa,Oklahoma,74104
5,Scattered Clouds,2016-08-26 10:53:00,71.1,,-,93,N/A,30.07,73.0,5:53 AM,,10.0,Calm,Calm,0,Tulsa,Oklahoma,74104
6,Clear,2016-08-26 11:53:00,71.1,,-,97,N/A,30.08,72.0,6:53 AM,,10.0,Calm,Calm,0,Tulsa,Oklahoma,74104
7,Mostly Cloudy,2016-08-26 12:53:00,71.1,,-,87,N/A,30.09,75.0,7:53 AM,,10.0,ESE,5.8,120,Tulsa,Oklahoma,74104
8,Clear,2016-08-26 13:53:00,72.0,,-,81,N/A,30.09,78.1,8:53 AM,,10.0,Variable,4.6,0,Tulsa,Oklahoma,74104
9,Clear,2016-08-26 14:53:00,73.0,,-,77,N/A,30.08,81.0,9:53 AM,,10.0,South,8.1,170,Tulsa,Oklahoma,74104
10,Mostly Cloudy,2016-08-26 15:53:00,73.0,,-,72,N/A,30.09,82.9,10:53 AM,,10.0,North,-9999.0,0,Tulsa,Oklahoma,74104
11,Mostly Cloudy,2016-08-26 16:53:00,73.9,,-,72,N/A,30.08,84.0,11:53 AM,,10.0,South,5.8,170,Tulsa,Oklahoma,74104
12,Partly Cloudy,2016-08-26 17:13:00,73.9,,-,69,N/A,30.06,84.9,12:13 PM,,10.0,Variable,4.6,0,Tulsa,Oklahoma,74104
13,Mostly Cloudy,2016-08-26 17:53:00,73.9,,-,65,N/A,30.06,87.1,12:53 PM,,10.0,ESE,5.8,110,Tulsa,Oklahoma,74104
14,Clear,2016-08-26 18:53:00,75.9,,-,65,N/A,30.04,89.1,1:53 PM,,10.0,ESE,11.5,120,Tulsa,Oklahoma,74104
15,Partly Cloudy,2016-08-26 19:53:00,75.0,,-,70,N/A,30.01,86.0,2:53 PM,,10.0,ESE,13.8,120,Tulsa,Oklahoma,74104
16,Clear,2016-08-26 20:53:00,73.9,,-,72,N/A,30.00,84.0,3:53 PM,,10.0,ESE,12.7,110,Tulsa,Oklahoma,74104
17,Clear,2016-08-26 21:15:00,73.0,Thunderstorm,-,69,N/A,29.99,84.0,4:15 PM,,10.0,ESE,11.5,120,Tulsa,Oklahoma,74104
18,Clear,2016-08-26 21:30:00,73.9,,-,74,N/A,29.99,82.9,4:30 PM,,10.0,ESE,10.4,110,Tulsa,Oklahoma,74104
19,Clear,2016-08-26 21:53:00,73.9,,-,74,N/A,29.99,82.9,4:53 PM,,10.0,ESE,10.4,110,Tulsa,Oklahoma,74104
20,Clear,2016-08-26 22:53:00,73.9,,-,74,N/A,29.99,82.9,5:53 PM,,10.0,ESE,5.8,110,Tulsa,Oklahoma,74104
21,Clear,2016-08-26 23:16:00,73.9,Thunderstorm,-,74,N/A,30.00,82.9,6:16 PM,,10.0,SSE,4.6,160,Tulsa,Oklahoma,74104
22,Clear,2016-08-26 23:31:00,73.9,,-,74,N/A,30.00,82.9,6:31 PM,,10.0,South,5.8,170,Tulsa,Oklahoma,74104
23,Mostly Cloudy,2016-08-26 23:53:00,73.9,,-,72,N/A,30.02,84.0,6:53 PM,,10.0,South,8.1,170,Tulsa,Oklahoma,74104
24,Mostly Cloudy,2016-08-27 00:03:00,73.9,,-,72,N/A,30.00,84.0,7:03 PM,,10.0,South,10.4,170,Tulsa,Oklahoma,74104
25,Clear,2016-08-27 00:53:00,73.0,,-,74,N/A,30.00,82.0,7:53 PM,,10.0,SSW,5.8,210,Tulsa,Oklahoma,74104
26,Clear,2016-08-27 01:53:00,73.0,,-,77,N/A,30.02,81.0,8:53 PM,,10.0,South,6.9,170,Tulsa,Oklahoma,74104
27,Clear,2016-08-27 02:53:00,73.0,,-,79,N/A,30.02,80.1,9:53 PM,,10.0,South,6.9,170,Tulsa,Oklahoma,74104
28,Clear,2016-08-27 03:53:00,73.0,,-,88,N/A,30.03,77.0,10:53 PM,,10.0,South,3.5,170,Tulsa,Oklahoma,74104
29,Clear,2016-08-27 04:53:00,73.0,,-,94,N/A,30.02,75.0,11:53 PM,,10.0,South,3.5,170,Tulsa,Oklahoma,74104
0,Clear,2016-08-27 05:53:00,73.0,,-,97,N/A,30.03,73.9,12:53 AM,,10.0,South,3.5,170,Tulsa,Oklahoma,74104
1,Clear,2016-08-27 06:53:00,72.0,,-,100,N/A,30.02,72.0,1:53 AM,,6.0,Calm,Calm,0,Tulsa,Oklahoma,74104
2,Clear,2016-08-27 07:53:00,71.1,,-,100,N/A,30.01,71.1,2:53 AM,,7.0,Calm,Calm,0,Tulsa,Oklahoma,74104
3,Clear,2016-08-27 08:08:00,71.1,,-,100,N/A,30.00,71.1,3:08 AM,,1.8,Calm,Calm,0,Tulsa,Oklahoma,74104
4,Clear,2016-08-27 08:17:00,71.1,,-,100,N/A,30.00,71.1,3:17 AM,,3.0,Calm,Calm,0,Tulsa,Oklahoma,74104
5,Clear,2016-08-27 08:53:00,72.0,,-,96,N/A,30.01,73.0,3:53 AM,,10.0,Calm,Calm,0,Tulsa,Oklahoma,74104
6,Clear,2016-08-27 09:53:00,71.1,,-,100,N/A,30.02,71.1,4:53 AM,,4.0,Calm,Calm,0,Tulsa,Oklahoma,74104
7,Clear,2016-08-27 10:53:00,72.0,,-,96,N/A,30.04,73.0,5:53 AM,,10.0,Calm,Calm,0,Tulsa,Oklahoma,74104
8,Clear,2016-08-27 11:53:00,72.0,,-,96,N/A,30.05,73.0,6:53 AM,,10.0,Calm,Calm,0,Tulsa,Oklahoma,74104
9,Clear,2016-08-27 12:53:00,72.0,,-,93,N/A,30.06,73.9,7:53 AM,,10.0,South,4.6,170,Tulsa,Oklahoma,74104
10,Clear,2016-08-27 13:53:00,72.0,,-,84,N/A,30.06,77.0,8:53 AM,,10.0,South,4.6,190,Tulsa,Oklahoma,74104
11,Clear,2016-08-27 14:53:00,73.0,,-,79,N/A,30.06,80.1,9:53 AM,,10.0,South,4.6,190,Tulsa,Oklahoma,74104
12,Clear,2016-08-27 15:53:00,73.0,,-,69,N/A,30.06,84.0,10:53 AM,,10.0,Calm,Calm,0,Tulsa,Oklahoma,74104
13,Clear,2016-08-27 16:53:00,70.0,,-,57,N/A,30.05,87.1,11:53 AM,,10.0,South,5.8,190,Tulsa,Oklahoma,74104
14,Clear,2016-08-27 17:53:00,71.1,,-,55,N/A,30.03,89.1,12:53 PM,,10.0,Variable,3.5,0,Tulsa,Oklahoma,74104
15,Clear,2016-08-27 18:53:00,71.1,,-,50,N/A,30.01,91.9,1:53 PM,,10.0,Variable,6.9,0,Tulsa,Oklahoma,74104
16,Mostly Cloudy,2016-08-27 19:53:00,71.1,,-,50,N/A,29.99,91.9,2:53 PM,,10.0,ESE,9.2,120,Tulsa,Oklahoma,74104
17,Partly Cloudy,2016-08-27 20:53:00,70.0,,-,46,N/A,29.96,93.9,3:53 PM,,10.0,ESE,9.2,120,Tulsa,Oklahoma,74104
18,Clear,2016-08-27 21:53:00,70.0,,-,48,N/A,29.96,91.9,4:53 PM,,10.0,ESE,10.4,110,Tulsa,Oklahoma,74104
19,Clear,2016-08-27 22:53:00,69.1,,-,47,N/A,29.95,91.9,5:53 PM,,10.0,SE,6.9,130,Tulsa,Oklahoma,74104
20,Clear,2016-08-27 23:53:00,69.1,,-,48,N/A,29.96,91.0,6:53 PM,,10.0,SSE,5.8,150,Tulsa,Oklahoma,74104
21,Clear,2016-08-28 00:53:00,70.0,,-,55,N/A,29.98,88.0,7:53 PM,,10.0,SSE,3.5,160,Tulsa,Oklahoma,74104
22,Clear,2016-08-28 01:53:00,73.9,,-,69,N/A,30.01,84.9,8:53 PM,,10.0,SE,8.1,140,Tulsa,Oklahoma,74104
23,Partly Cloudy,2016-08-28 02:53:00,73.9,,-,74,N/A,30.03,82.9,9:53 PM,,10.0,SSE,6.9,160,Tulsa,Oklahoma,74104
24,Clear,2016-08-28 03:53:00,73.9,,-,76,N/A,30.05,82.0,10:53 PM,,10.0,SSE,5.8,160,Tulsa,Oklahoma,74104
25,Clear,2016-08-28 04:53:00,73.9,,-,81,N/A,30.06,80.1,11:53 PM,,10.0,SSE,4.6,160,Tulsa,Oklahoma,74104
0,Clear,2016-08-28 05:53:00,73.9,,-,90,N/A,30.06,77.0,12:53 AM,,10.0,Calm,Calm,0,Tulsa,Oklahoma,74104
1,Clear,2016-08-28 06:53:00,73.0,,-,94,N/A,30.04,75.0,1:53 AM,,10.0,Calm,Calm,0,Tulsa,Oklahoma,74104
2,Clear,2016-08-28 07:53:00,73.0,,-,94,N/A,30.05,75.0,2:53 AM,,10.0,Calm,Calm,0,Tulsa,Oklahoma,74104
3,Clear,2016-08-28 08:53:00,73.9,,-,90,N/A,30.04,77.0,3:53 AM,,10.0,South,3.5,170,Tulsa,Oklahoma,74104
4,Clear,2016-08-28 09:53:00,73.0,,-,97,N/A,30.06,73.9,4:53 AM,,10.0,SW,3.5,230,Tulsa,Oklahoma,74104
5,Clear,2016-08-28 10:53:00,73.9,,-,94,N/A,30.07,75.9,5:53 AM,,10.0,South,3.5,170,Tulsa,Oklahoma,74104
6,Clear,2016-08-28 11:53:00,73.9,,-,100,N/A,30.09,73.9,6:53 AM,,10.0,Calm,Calm,0,Tulsa,Oklahoma,74104
7,Clear,2016-08-28 12:53:00,75.0,,-,94,N/A,30.11,77.0,7:53 AM,,10.0,South,3.5,170,Tulsa,Oklahoma,74104
8,Clear,2016-08-28 13:53:00,73.9,,-,81,N/A,30.11,80.1,8:53 AM,,10.0,SSE,5.8,160,Tulsa,Oklahoma,74104
9,Clear,2016-08-28 14:53:00,75.0,,-,77,N/A,30.12,82.9,9:53 AM,,10.0,SSW,4.6,210,Tulsa,Oklahoma,74104
10,Clear,2016-08-28 15:53:00,75.0,,-,70,N/A,30.12,86.0,10:53 AM,,10.0,Variable,3.5,0,Tulsa,Oklahoma,74104
11,Scattered Clouds,2016-08-28 16:53:00,73.9,,-,65,N/A,30.11,87.1,11:53 AM,,10.0,Calm,Calm,0,Tulsa,Oklahoma,74104
12,Mostly Cloudy,2016-08-28 17:53:00,72.0,,-,55,N/A,30.09,90.0,12:53 PM,,10.0,Variable,4.6,0,Tulsa,Oklahoma,74104
13,Clear,2016-08-28 18:53:00,68.0,,-,45,N/A,30.08,91.9,1:53 PM,,10.0,East,6.9,80,Tulsa,Oklahoma,74104
14,Clear,2016-08-28 19:53:00,69.1,,-,45,N/A,30.05,93.0,2:53 PM,,10.0,Variable,5.8,0,Tulsa,Oklahoma,74104
15,Clear,2016-08-28 20:53:00,66.9,,-,41,N/A,30.01,93.9,3:53 PM,,10.0,SE,8.1,140,Tulsa,Oklahoma,74104
16,Clear,2016-08-28 21:53:00,68.0,,-,41,N/A,30.00,95.0,4:53 PM,,10.0,Variable,6.9,0,Tulsa,Oklahoma,74104
17,Clear,2016-08-28 22:53:00,68.0,,-,44,N/A,29.99,93.0,5:53 PM,,10.0,SSE,8.1,160,Tulsa,Oklahoma,74104
18,Clear,2016-08-28 23:53:00,66.9,,-,44,N/A,30.00,91.9,6:53 PM,,10.0,SSE,8.1,160,Tulsa,Oklahoma,74104
19,Clear,2016-08-29 00:53:00,70.0,,-,57,N/A,30.04,87.1,7:53 PM,,10.0,SE,6.9,130,Tulsa,Oklahoma,74104
20,Partly Cloudy,2016-08-29 01:53:00,71.1,,-,61,N/A,30.06,86.0,8:53 PM,,10.0,South,4.6,170,Tulsa,Oklahoma,74104
21,Clear,2016-08-29 02:53:00,71.1,,-,65,N/A,30.07,84.0,9:53 PM,,10.0,SSE,4.6,150,Tulsa,Oklahoma,74104
22,Clear,2016-08-29 03:53:00,70.0,,-,67,N/A,30.09,82.0,10:53 PM,,10.0,South,5.8,170,Tulsa,Oklahoma,74104
23,Clear,2016-08-29 04:53:00,71.1,,-,77,N/A,30.09,79.0,11:53 PM,,10.0,South,3.5,170,Tulsa,Oklahoma,74104
0,Clear,2016-08-29 05:53:00,72.0,,-,90,N/A,30.09,75.0,12:53 AM,,10.0,Calm,Calm,0,Tulsa,Oklahoma,74104
1,Clear,2016-08-29 06:53:00,72.0,,-,90,N/A,30.08,75.0,1:53 AM,,10.0,Calm,Calm,0,Tulsa,Oklahoma,74104
2,Scattered Clouds,2016-08-29 07:53:00,73.0,,-,94,N/A,30.08,75.0,2:53 AM,,10.0,Calm,Calm,0,Tulsa,Oklahoma,74104
3,Partly Cloudy,2016-08-29 08:53:00,73.0,,-,94,N/A,30.08,75.0,3:53 AM,,10.0,Calm,Calm,0,Tulsa,Oklahoma,74104
4,Clear,2016-08-29 09:53:00,73.0,,-,94,N/A,30.08,75.0,4:53 AM,,10.0,Calm,Calm,0,Tulsa,Oklahoma,74104
5,Clear,2016-08-29 10:53:00,72.0,,-,90,N/A,30.10,75.0,5:53 AM,,10.0,Calm,Calm,0,Tulsa,Oklahoma,74104
6,Clear,2016-08-29 11:53:00,73.0,,-,97,N/A,30.12,73.9,6:53 AM,,10.0,Calm,Calm,0,Tulsa,Oklahoma,74104
7,Clear,2016-08-29 12:53:00,73.9,,-,94,N/A,30.13,75.9,7:53 AM,,10.0,Calm,Calm,0,Tulsa,Oklahoma,74104
8,Clear,2016-08-29 13:53:00,73.9,,-,79,N/A,30.14,81.0,8:53 AM,,10.0,SE,5.8,130,Tulsa,Oklahoma,74104
9,Clear,2016-08-29 14:53:00,75.0,,-,70,N/A,30.14,86.0,9:53 AM,,10.0,Calm,Calm,0,Tulsa,Oklahoma,74104
10,Clear,2016-08-29 15:53:00,73.9,,-,63,N/A,30.15,88.0,10:53 AM,,10.0,Variable,4.6,0,Tulsa,Oklahoma,74104
11,Mostly Cloudy,2016-08-29 16:53:00,75.0,Thunderstorm,-,74,N/A,30.14,84.0,11:53 AM,,10.0,NNE,9.2,20,Tulsa,Oklahoma,74104
12,Heavy Thunderstorms and Rain,2016-08-29 17:03:00,77.0,Rain-Thunderstorm,-,88,0.07,30.14,81.0,12:03 PM,,2.5,Variable,6.9,0,Tulsa,Oklahoma,74104
13,Light Thunderstorms and Rain,2016-08-29 17:11:00,77.0,Rain-Thunderstorm,-,90,0.08,30.14,80.1,12:11 PM,,3.0,Variable,6.9,0,Tulsa,Oklahoma,74104
14,Rain,2016-08-29 17:21:00,75.0,Rain-Thunderstorm,-,90,0.10,30.14,78.1,12:21 PM,,3.0,Variable,5.8,0,Tulsa,Oklahoma,74104
15,Thunderstorm,2016-08-29 17:33:00,73.0,Thunderstorm,-,91,0.11,30.14,75.9,12:33 PM,,10.0,NW,8.1,310,Tulsa,Oklahoma,74104
16,Light Thunderstorms and Rain,2016-08-29 17:37:00,73.0,Rain-Thunderstorm,-,91,0.19,30.15,75.9,12:37 PM,,2.0,Variable,4.6,0,Tulsa,Oklahoma,74104
17,Light Thunderstorms and Rain,2016-08-29 17:44:00,73.9,Rain-Thunderstorm,-,96,0.20,30.16,75.0,12:44 PM,,1.5,Variable,6.9,0,Tulsa,Oklahoma,74104
18,Light Rain,2016-08-29 17:47:00,73.4,Rain-Thunderstorm,-,94,0.20,30.16,75.2,12:47 PM,,3.0,Variable,6.9,0,Tulsa,Oklahoma,74104
19,Light Thunderstorms and Rain,2016-08-29 17:53:00,73.9,Rain-Thunderstorm,-,96,0.20,30.17,75.0,12:53 PM,,10.0,Variable,6.9,0,Tulsa,Oklahoma,74104
20,Thunderstorm,2016-08-29 18:11:00,73.9,Thunderstorm,-,96,0.01,30.14,75.0,1:11 PM,,10.0,NW,6.9,320,Tulsa,Oklahoma,74104
21,Scattered Clouds,2016-08-29 18:19:00,73.9,Thunderstorm,-,96,0.01,30.14,75.0,1:19 PM,,10.0,Variable,5.8,0,Tulsa,Oklahoma,74104
22,Light Rain,2016-08-29 18:53:00,75.0,Rain-Thunderstorm,-,88,0.01,30.14,79.0,1:53 PM,,10.0,NNW,4.6,340,Tulsa,Oklahoma,74104
23,Scattered Clouds,2016-08-29 19:49:00,77.0,,-,89,0.00,30.09,80.6,2:49 PM,,10.0,North,6.9,350,Tulsa,Oklahoma,74104
24,Partly Cloudy,2016-08-29 19:53:00,75.9,,-,85,0.00,30.10,81.0,2:53 PM,,10.0,Variable,5.8,0,Tulsa,Oklahoma,74104
25,Clear,2016-08-29 20:53:00,75.9,,-,72,N/A,30.08,86.0,3:53 PM,,10.0,North,8.1,360,Tulsa,Oklahoma,74104
26,Clear,2016-08-29 21:53:00,75.9,,-,67,N/A,30.06,88.0,4:53 PM,,10.0,North,5.8,10,Tulsa,Oklahoma,74104
27,Clear,2016-08-29 22:53:00,75.9,,-,67,N/A,30.05,88.0,5:53 PM,,10.0,North,6.9,10,Tulsa,Oklahoma,74104
28,Clear,2016-08-29 23:53:00,75.9,,-,72,N/A,30.04,86.0,6:53 PM,,10.0,North,4.6,360,Tulsa,Oklahoma,74104
29,Clear,2016-08-30 00:53:00,77.0,,-,85,N/A,30.06,82.0,7:53 PM,,10.0,Calm,Calm,0,Tulsa,Oklahoma,74104
30,Partly Cloudy,2016-08-30 01:25:00,75.0,Thunderstorm,-,77,N/A,30.07,82.9,8:25 PM,,10.0,Calm,Calm,0,Tulsa,Oklahoma,74104
31,Thunderstorm,2016-08-30 01:33:00,75.0,Thunderstorm,-,77,N/A,30.08,82.9,8:33 PM,,10.0,East,6.9,90,Tulsa,Oklahoma,74104
32,Heavy Thunderstorms and Rain,2016-08-30 01:53:00,69.1,Rain-Thunderstorm,23.0,87,0.43,30.11,73.0,8:53 PM,,1.2,WNW,5.8,290,Tulsa,Oklahoma,74104
33,Thunderstorms and Rain,2016-08-30 02:03:00,70.0,Rain-Thunderstorm,-,93,0.08,30.09,72.0,9:03 PM,,3.0,NW,8.1,310,Tulsa,Oklahoma,74104
34,Light Rain,2016-08-30 02:33:00,72.0,Rain-Thunderstorm,-,96,0.10,30.10,73.0,9:33 PM,,10.0,Calm,Calm,0,Tulsa,Oklahoma,74104
35,Clear,2016-08-30 02:46:00,72.0,,-,100,0.10,30.11,72.0,9:46 PM,,10.0,Calm,Calm,0,Tulsa,Oklahoma,74104
36,Clear,2016-08-30 02:53:00,72.0,,-,100,0.10,30.12,72.0,9:53 PM,,7.0,North,4.6,10,Tulsa,Oklahoma,74104
37,Clear,2016-08-30 03:53:00,73.0,,-,100,N/A,30.13,73.0,10:53 PM,,9.0,Calm,Calm,0,Tulsa,Oklahoma,74104
38,Clear,2016-08-30 04:53:00,73.0,,-,100,N/A,30.12,73.0,11:53 PM,,7.0,Calm,Calm,0,Tulsa,Oklahoma,74104
0,Clear,2016-08-30 05:53:00,73.0,,-,100,N/A,30.12,73.0,12:53 AM,,5.0,Calm,Calm,0,Tulsa,Oklahoma,74104
1,Clear,2016-08-30 06:53:00,72.0,,-,100,N/A,30.12,72.0,1:53 AM,,5.0,Calm,Calm,0,Tulsa,Oklahoma,74104
2,Clear,2016-08-30 07:53:00,72.0,,-,100,N/A,30.11,72.0,2:53 AM,,4.0,Calm,Calm,0,Tulsa,Oklahoma,74104
3,Clear,2016-08-30 08:53:00,71.1,,-,100,N/A,30.10,71.1,3:53 AM,,4.0,Calm,Calm,0,Tulsa,Oklahoma,74104
4,Clear,2016-08-30 09:25:00,71.1,,-,100,N/A,30.09,71.1,4:25 AM,,2.5,Calm,Calm,0,Tulsa,Oklahoma,74104
5,Clear,2016-08-30 09:35:00,71.1,,-,100,N/A,30.09,71.1,4:35 AM,,3.0,Calm,Calm,0,Tulsa,Oklahoma,74104
6,Clear,2016-08-30 09:53:00,71.1,,-,100,N/A,30.09,71.1,4:53 AM,,3.0,Calm,Calm,0,Tulsa,Oklahoma,74104
7,Clear,2016-08-30 10:12:00,71.1,,-,100,N/A,30.08,71.1,5:12 AM,,1.8,Calm,Calm,0,Tulsa,Oklahoma,74104
8,Clear,2016-08-30 10:24:00,71.1,,-,100,N/A,30.08,71.1,5:24 AM,,3.0,Calm,Calm,0,Tulsa,Oklahoma,74104
9,Clear,2016-08-30 10:53:00,71.1,,-,100,N/A,30.10,71.1,5:53 AM,,4.0,Calm,Calm,0,Tulsa,Oklahoma,74104
10,Clear,2016-08-30 11:53:00,71.1,,-,100,N/A,30.12,71.1,6:53 AM,,10.0,Calm,Calm,0,Tulsa,Oklahoma,74104
11,Clear,2016-08-30 12:53:00,73.0,,-,97,N/A,30.13,73.9,7:53 AM,,9.0,Calm,Calm,0,Tulsa,Oklahoma,74104
12,Clear,2016-08-30 13:53:00,73.9,,-,87,N/A,30.14,78.1,8:53 AM,,10.0,Calm,Calm,0,Tulsa,Oklahoma,74104
13,Clear,2016-08-30 14:53:00,75.0,,-,77,N/A,30.13,82.9,9:53 AM,,10.0,East,3.5,80,Tulsa,Oklahoma,74104
14,Clear,2016-08-30 15:53:00,75.9,,-,72,N/A,30.13,86.0,10:53 AM,,10.0,Calm,Calm,0,Tulsa,Oklahoma,74104
15,Clear,2016-08-30 16:53:00,75.0,,-,63,N/A,30.13,89.1,11:53 AM,,10.0,Calm,Calm,0,Tulsa,Oklahoma,74104
16,Clear,2016-08-30 17:53:00,73.9,,-,57,N/A,30.10,91.0,12:53 PM,,10.0,NE,5.8,50,Tulsa,Oklahoma,74104
17,Clear,2016-08-30 18:53:00,73.9,,-,55,N/A,30.08,91.9,1:53 PM,,10.0,North,5.8,350,Tulsa,Oklahoma,74104
18,Clear,2016-08-30 19:53:00,73.0,,-,51,N/A,30.04,93.9,2:53 PM,,10.0,Calm,Calm,0,Tulsa,Oklahoma,74104
19,Partly Cloudy,2016-08-30 20:53:00,73.0,,-,51,N/A,30.01,93.9,3:53 PM,,10.0,ESE,5.8,110,Tulsa,Oklahoma,74104
20,Scattered Clouds,2016-08-30 21:22:00,73.9,Thunderstorm,-,50,N/A,30.00,95.0,4:22 PM,,10.0,ENE,8.1,70,Tulsa,Oklahoma,74104
21,Partly Cloudy,2016-08-30 21:53:00,73.0,Thunderstorm,-,54,N/A,30.00,91.9,4:53 PM,,10.0,East,5.8,100,Tulsa,Oklahoma,74104
22,Thunderstorm,2016-08-30 22:10:00,73.9,Thunderstorm,29.9,54,N/A,30.00,93.0,5:10 PM,,10.0,East,18.4,100,Tulsa,Oklahoma,74104
23,Thunderstorms and Rain,2016-08-30 22:47:00,71.6,Rain-Thunderstorm,35.7,83,0.07,30.02,77.0,5:47 PM,,2.5,ENE,17.3,70,Tulsa,Oklahoma,74104
24,Thunderstorms and Rain,2016-08-30 22:53:00,73.0,Rain-Thunderstorm,24.2,94,0.09,30.03,75.0,5:53 PM,,2.5,ENE,11.5,60,Tulsa,Oklahoma,74104
25,Light Thunderstorms and Rain,2016-08-30 23:01:00,73.0,Rain-Thunderstorm,-,91,0.00,30.02,75.9,6:01 PM,,10.0,Variable,4.6,0,Tulsa,Oklahoma,74104
26,Overcast,2016-08-30 23:13:00,73.9,Thunderstorm,-,96,0.00,30.01,75.0,6:13 PM,,10.0,Variable,3.5,0,Tulsa,Oklahoma,74104
27,Clear,2016-08-30 23:53:00,75.0,,-,97,0.00,30.03,75.9,6:53 PM,,10.0,NW,3.5,320,Tulsa,Oklahoma,74104
28,Clear,2016-08-31 00:53:00,75.9,,-,100,N/A,30.02,75.9,7:53 PM,,9.0,Calm,Calm,0,Tulsa,Oklahoma,74104
29,Clear,2016-08-31 01:53:00,75.9,,-,100,N/A,30.05,75.9,8:53 PM,,9.0,Calm,Calm,0,Tulsa,Oklahoma,74104
30,Clear,2016-08-31 02:53:00,75.0,,-,100,N/A,30.05,75.0,9:53 PM,,5.0,Calm,Calm,0,Tulsa,Oklahoma,74104
31,Clear,2016-08-31 03:53:00,75.0,,-,100,N/A,30.06,75.0,10:53 PM,,5.0,Calm,Calm,0,Tulsa,Oklahoma,74104
32,Clear,2016-08-31 04:53:00,73.0,,-,88,N/A,30.07,77.0,11:53 PM,,10.0,North,5.8,10,Tulsa,Oklahoma,74104
0,Clear,2016-08-31 05:53:00,73.0,,-,97,N/A,30.07,73.9,12:53 AM,,10.0,North,3.5,360,Tulsa,Oklahoma,74104
1,Clear,2016-08-31 06:53:00,73.0,,-,94,N/A,30.07,75.0,1:53 AM,,10.0,North,4.6,10,Tulsa,Oklahoma,74104
2,Clear,2016-08-31 07:53:00,73.0,,-,94,N/A,30.06,75.0,2:53 AM,,10.0,North,5.8,10,Tulsa,Oklahoma,74104
3,Clear,2016-08-31 08:53:00,73.0,,-,100,N/A,30.06,73.0,3:53 AM,,10.0,Calm,Calm,0,Tulsa,Oklahoma,74104
4,Clear,2016-08-31 09:53:00,72.0,,-,100,N/A,30.06,72.0,4:53 AM,,8.0,Calm,Calm,0,Tulsa,Oklahoma,74104
5,Scattered Clouds,2016-08-31 10:53:00,73.0,,-,100,N/A,30.06,73.0,5:53 AM,,10.0,Calm,Calm,0,Tulsa,Oklahoma,74104
6,Clear,2016-08-31 11:53:00,73.0,,-,100,N/A,30.06,73.0,6:53 AM,,10.0,Calm,Calm,0,Tulsa,Oklahoma,74104
7,Clear,2016-08-31 12:53:00,73.0,,-,97,N/A,30.07,73.9,7:53 AM,,10.0,Calm,Calm,0,Tulsa,Oklahoma,74104
8,Clear,2016-08-31 13:53:00,73.0,,-,97,N/A,30.07,73.9,8:53 AM,,10.0,NNE,5.8,20,Tulsa,Oklahoma,74104
9,Clear,2016-08-31 14:53:00,75.0,,-,88,N/A,30.08,79.0,9:53 AM,,10.0,NNE,4.6,20,Tulsa,Oklahoma,74104
10,Partly Cloudy,2016-08-31 15:53:00,75.0,,-,79,N/A,30.09,82.0,10:53 AM,,10.0,NE,11.5,50,Tulsa,Oklahoma,74104
11,Mostly Cloudy,2016-08-31 16:30:00,77.0,,-,82,N/A,30.08,82.9,11:30 AM,,10.0,NE,8.1,50,Tulsa,Oklahoma,74104
12,Mostly Cloudy,2016-08-31 16:53:00,77.0,,-,77,N/A,30.08,84.9,11:53 AM,,10.0,NE,8.1,40,Tulsa,Oklahoma,74104
13,Scattered Clouds,2016-08-31 17:20:00,77.0,,-,77,N/A,30.06,84.9,12:20 PM,,10.0,NE,10.4,50,Tulsa,Oklahoma,74104
14,Clear,2016-08-31 17:53:00,75.9,,-,74,N/A,30.05,84.9,12:53 PM,,10.0,ENE,5.8,70,Tulsa,Oklahoma,74104
15,Clear,2016-08-31 18:53:00,75.0,,-,65,N/A,30.03,88.0,1:53 PM,,10.0,Calm,Calm,0,Tulsa,Oklahoma,74104
16,Clear,2016-08-31 19:53:00,75.0,,-,63,N/A,30.01,89.1,2:53 PM,,10.0,WSW,3.5,250,Tulsa,Oklahoma,74104
17,Partly Cloudy,2016-08-31 20:53:00,72.0,Thunderstorm,21.9,81,N/A,30.03,78.1,3:53 PM,,10.0,NNE,16.1,20,Tulsa,Oklahoma,74104
18,Clear,2016-08-31 21:24:00,72.0,,19.6,81,N/A,30.03,78.1,4:24 PM,,10.0,NNE,11.5,30,Tulsa,Oklahoma,74104
19,Scattered Clouds,2016-08-31 21:53:00,72.0,,-,84,N/A,30.04,77.0,4:53 PM,,10.0,North,4.6,350,Tulsa,Oklahoma,74104
20,Clear,2016-08-31 22:08:00,71.1,Thunderstorm,-,82,N/A,30.01,77.0,5:08 PM,,10.0,North,6.9,10,Tulsa,Oklahoma,74104
21,Light Rain,2016-08-31 22:38:00,72.0,Rain,-,87,0.00,30.02,75.9,5:38 PM,,10.0,Calm,Calm,0,Tulsa,Oklahoma,74104
22,Light Rain,2016-08-31 22:53:00,73.0,Rain,-,94,0.01,30.04,75.0,5:53 PM,,8.0,NNW,3.5,340,Tulsa,Oklahoma,74104
23,Clear,2016-08-31 23:53:00,73.9,,-,96,0.01,30.02,75.0,6:53 PM,,10.0,NNW,3.5,340,Tulsa,Oklahoma,74104
24,Clear,2016-09-01 00:53:00,73.9,,-,96,N/A,30.02,75.0,7:53 PM,,10.0,NW,3.5,320,Tulsa,Oklahoma,74104
25,Clear,2016-09-01 01:53:00,75.0,,-,100,N/A,30.04,75.0,8:53 PM,,10.0,NNW,3.5,330,Tulsa,Oklahoma,74104
26,Clear,2016-09-01 02:53:00,75.0,,-,97,N/A,30.05,75.9,9:53 PM,,10.0,Variable,3.5,0,Tulsa,Oklahoma,74104
27,Clear,2016-09-01 03:53:00,75.9,,-,96,N/A,30.06,77.0,10:53 PM,,10.0,North,4.6,10,Tulsa,Oklahoma,74104
28,Clear,2016-09-01 04:53:00,75.0,,-,97,N/A,30.06,75.9,11:53 PM,,10.0,North,5.8,10,Tulsa,Oklahoma,74104
0,Mostly Cloudy,2016-09-01 05:53:00,73.9,,-,96,N/A,30.06,75.0,12:53 AM,,10.0,North,4.6,360,Tulsa,Oklahoma,74104
1,Clear,2016-09-01 06:53:00,73.0,,-,97,N/A,30.05,73.9,1:53 AM,,10.0,NNE,5.8,20,Tulsa,Oklahoma,74104
2,Clear,2016-09-01 07:53:00,72.0,,-,96,N/A,30.05,73.0,2:53 AM,,10.0,NNE,5.8,20,Tulsa,Oklahoma,74104
3,Clear,2016-09-01 08:53:00,72.0,,-,96,N/A,30.04,73.0,3:53 AM,,10.0,NNE,6.9,30,Tulsa,Oklahoma,74104
4,Clear,2016-09-01 09:53:00,71.1,,-,93,N/A,30.04,73.0,4:53 AM,,10.0,North,5.8,10,Tulsa,Oklahoma,74104
5,Clear,2016-09-01 10:53:00,72.0,,-,96,N/A,30.04,73.0,5:53 AM,,10.0,NNE,4.6,20,Tulsa,Oklahoma,74104
6,Scattered Clouds,2016-09-01 11:36:00,72.0,,-,96,N/A,30.04,73.0,6:36 AM,,10.0,NNE,6.9,30,Tulsa,Oklahoma,74104
7,Scattered Clouds,2016-09-01 11:53:00,72.0,,-,96,N/A,30.05,73.0,6:53 AM,,10.0,North,5.8,10,Tulsa,Oklahoma,74104
8,Mostly Cloudy,2016-09-01 12:42:00,69.1,,-,87,N/A,30.06,73.0,7:42 AM,,10.0,NNE,10.4,30,Tulsa,Oklahoma,74104
9,Mostly Cloudy,2016-09-01 12:53:00,69.1,,-,87,N/A,30.07,73.0,7:53 AM,,10.0,NE,10.4,40,Tulsa,Oklahoma,74104
10,Overcast,2016-09-01 13:53:00,69.1,,-,85,N/A,30.08,73.9,8:53 AM,,10.0,NNE,11.5,30,Tulsa,Oklahoma,74104
11,Overcast,2016-09-01 14:53:00,69.1,,-,82,N/A,30.09,75.0,9:53 AM,,10.0,NE,9.2,40,Tulsa,Oklahoma,74104
12,Overcast,2016-09-01 15:37:00,70.0,,-,82,N/A,30.09,75.9,10:37 AM,,10.0,NE,6.9,50,Tulsa,Oklahoma,74104
13,Overcast,2016-09-01 15:53:00,70.0,,-,82,N/A,30.10,75.9,10:53 AM,,10.0,NE,9.2,40,Tulsa,Oklahoma,74104
14,Light Rain,2016-09-01 16:53:00,70.0,Rain,-,76,0.00,30.09,78.1,11:53 AM,,10.0,ENE,5.8,60,Tulsa,Oklahoma,74104
15,Overcast,2016-09-01 17:53:00,69.1,,-,69,0.00,30.08,80.1,12:53 PM,,10.0,NE,6.9,50,Tulsa,Oklahoma,74104
16,Overcast,2016-09-01 18:28:00,69.1,,-,63,N/A,30.06,82.9,1:28 PM,,10.0,ENE,6.9,70,Tulsa,Oklahoma,74104
17,Mostly Cloudy,2016-09-01 18:53:00,69.1,,-,63,N/A,30.05,82.9,1:53 PM,,10.0,East,6.9,80,Tulsa,Oklahoma,74104
18,Rain,2016-09-01 19:53:00,70.0,Rain,-,82,0.01,30.06,75.9,2:53 PM,,4.0,NE,8.1,50,Tulsa,Oklahoma,74104
19,Overcast,2016-09-01 20:53:00,72.0,,-,79,0.02,30.04,79.0,3:53 PM,,10.0,East,6.9,90,Tulsa,Oklahoma,74104
20,Clear,2016-09-01 21:53:00,72.0,,-,79,N/A,30.03,79.0,4:53 PM,,10.0,ESE,6.9,120,Tulsa,Oklahoma,74104
21,Mostly Cloudy,2016-09-01 22:53:00,71.1,,-,77,N/A,30.04,79.0,5:53 PM,,10.0,SE,4.6,130,Tulsa,Oklahoma,74104
22,Overcast,2016-09-01 23:53:00,69.1,,-,74,N/A,30.04,78.1,6:53 PM,,10.0,SE,4.6,130,Tulsa,Oklahoma,74104
23,Partly Cloudy,2016-09-02 00:53:00,70.0,,-,84,N/A,30.04,75.0,7:53 PM,,10.0,North,3.5,360,Tulsa,Oklahoma,74104
24,Clear,2016-09-02 01:53:00,70.0,,-,87,N/A,30.05,73.9,8:53 PM,,10.0,North,4.6,360,Tulsa,Oklahoma,74104
25,Overcast,2016-09-02 02:53:00,64.0,,-,67,N/A,30.07,75.9,9:53 PM,,10.0,NNE,9.2,20,Tulsa,Oklahoma,74104
26,Overcast,2016-09-02 03:53:00,63.0,,-,64,N/A,30.09,75.9,10:53 PM,,10.0,NNE,11.5,30,Tulsa,Oklahoma,74104
27,Mostly Cloudy,2016-09-02 04:53:00,61.0,,-,66,N/A,30.09,73.0,11:53 PM,,10.0,NNE,6.9,20,Tulsa,Oklahoma,74104
0,Overcast,2016-09-02 05:53:00,61.0,,-,68,N/A,30.09,72.0,12:53 AM,,10.0,NE,6.9,40,Tulsa,Oklahoma,74104
1,Clear,2016-09-02 06:53:00,61.0,,-,70,N/A,30.09,71.1,1:53 AM,,10.0,NE,9.2,40,Tulsa,Oklahoma,74104
2,Clear,2016-09-02 07:53:00,60.1,,-,73,N/A,30.10,69.1,2:53 AM,,10.0,NE,8.1,40,Tulsa,Oklahoma,74104
3,Clear,2016-09-02 08:53:00,60.1,,-,76,N/A,30.10,68.0,3:53 AM,,10.0,NE,8.1,40,Tulsa,Oklahoma,74104
4,Clear,2016-09-02 09:53:00,60.1,,-,81,N/A,30.11,66.0,4:53 AM,,10.0,NNE,6.9,20,Tulsa,Oklahoma,74104
5,Clear,2016-09-02 10:53:00,60.1,,-,81,N/A,30.12,66.0,5:53 AM,,10.0,NE,6.9,40,Tulsa,Oklahoma,74104
6,Mostly Cloudy,2016-09-02 11:53:00,60.1,,-,84,N/A,30.13,64.9,6:53 AM,,10.0,NNE,3.5,20,Tulsa,Oklahoma,74104
7,Partly Cloudy,2016-09-02 12:53:00,61.0,,-,81,N/A,30.15,66.9,7:53 AM,,10.0,NNE,3.5,30,Tulsa,Oklahoma,74104
8,Clear,2016-09-02 13:53:00,61.0,,-,70,N/A,30.15,71.1,8:53 AM,,10.0,ENE,5.8,70,Tulsa,Oklahoma,74104
9,Clear,2016-09-02 14:53:00,61.0,,-,64,N/A,30.15,73.9,9:53 AM,,10.0,East,5.8,80,Tulsa,Oklahoma,74104
10,Clear,2016-09-02 15:53:00,61.0,,-,58,N/A,30.16,77.0,10:53 AM,,10.0,ESE,9.2,120,Tulsa,Oklahoma,74104
11,Clear,2016-09-02 16:53:00,60.1,,-,52,N/A,30.16,79.0,11:53 AM,,10.0,East,5.8,80,Tulsa,Oklahoma,74104
12,Clear,2016-09-02 17:53:00,60.1,,-,49,N/A,30.14,81.0,12:53 PM,,10.0,North,5.8,350,Tulsa,Oklahoma,74104
13,Clear,2016-09-02 18:53:00,59.0,,-,47,N/A,30.12,81.0,1:53 PM,,10.0,ENE,6.9,60,Tulsa,Oklahoma,74104
14,Clear,2016-09-02 19:53:00,59.0,,-,44,N/A,30.09,82.9,2:53 PM,,10.0,ENE,10.4,70,Tulsa,Oklahoma,74104
15,Clear,2016-09-02 20:53:00,57.0,,-,40,N/A,30.07,84.0,3:53 PM,,10.0,Calm,Calm,0,Tulsa,Oklahoma,74104
16,Clear,2016-09-02 21:53:00,57.9,,-,41,N/A,30.05,84.0,4:53 PM,,10.0,NE,6.9,40,Tulsa,Oklahoma,74104
17,Clear,2016-09-02 22:53:00,55.9,,-,39,N/A,30.04,82.9,5:53 PM,,10.0,ENE,4.6,60,Tulsa,Oklahoma,74104
18,Clear,2016-09-02 23:53:00,53.1,,-,38,N/A,30.04,81.0,6:53 PM,,10.0,NE,9.2,50,Tulsa,Oklahoma,74104
19,Clear,2016-09-03 00:53:00,53.1,,-,43,N/A,30.04,77.0,7:53 PM,,10.0,NE,5.8,50,Tulsa,Oklahoma,74104
20,Clear,2016-09-03 01:53:00,59.0,,-,73,N/A,30.05,68.0,8:53 PM,,10.0,Calm,Calm,0,Tulsa,Oklahoma,74104
21,Clear,2016-09-03 02:53:00,57.9,,-,70,N/A,30.06,68.0,9:53 PM,,10.0,NE,4.6,40,Tulsa,Oklahoma,74104
22,Clear,2016-09-03 03:53:00,57.9,,-,70,N/A,30.09,68.0,10:53 PM,,10.0,North,4.6,10,Tulsa,Oklahoma,74104
23,Clear,2016-09-03 04:53:00,57.0,,-,65,N/A,30.09,69.1,11:53 PM,,10.0,NE,6.9,50,Tulsa,Oklahoma,74104
0,Clear,2016-09-03 05:53:00,55.9,,-,63,N/A,30.09,69.1,12:53 AM,,10.0,ESE,3.5,110,Tulsa,Oklahoma,74104
1,Clear,2016-09-03 06:53:00,57.0,,-,70,N/A,30.10,66.9,1:53 AM,,10.0,East,4.6,100,Tulsa,Oklahoma,74104
2,Clear,2016-09-03 07:53:00,57.9,,-,84,N/A,30.09,63.0,2:53 AM,,10.0,ESE,3.5,120,Tulsa,Oklahoma,74104
3,Clear,2016-09-03 08:53:00,59.0,,-,90,N/A,30.09,62.1,3:53 AM,,10.0,Calm,Calm,0,Tulsa,Oklahoma,74104
4,Clear,2016-09-03 09:53:00,59.0,,-,93,N/A,30.09,61.0,4:53 AM,,10.0,Calm,Calm,0,Tulsa,Oklahoma,74104
5,Clear,2016-09-03 10:53:00,57.9,,-,90,N/A,30.09,61.0,5:53 AM,,10.0,Calm,Calm,0,Tulsa,Oklahoma,74104
6,Clear,2016-09-03 11:53:00,57.0,,-,90,N/A,30.09,60.1,6:53 AM,,10.0,Calm,Calm,0,Tulsa,Oklahoma,74104
7,Clear,2016-09-03 12:53:00,60.1,,-,87,N/A,30.10,64.0,7:53 AM,,10.0,Calm,Calm,0,Tulsa,Oklahoma,74104
8,Clear,2016-09-03 13:53:00,60.1,,-,76,N/A,30.12,68.0,8:53 AM,,10.0,SE,5.8,140,Tulsa,Oklahoma,74104
9,Clear,2016-09-03 14:53:00,59.0,,-,64,N/A,30.12,72.0,9:53 AM,,10.0,SE,5.8,140,Tulsa,Oklahoma,74104
10,Clear,2016-09-03 15:53:00,57.9,,-,52,N/A,30.13,77.0,10:53 AM,,10.0,South,9.2,180,Tulsa,Oklahoma,74104
11,Clear,2016-09-03 16:53:00,60.1,,-,50,N/A,30.11,80.1,11:53 AM,,10.0,ESE,8.1,120,Tulsa,Oklahoma,74104
12,Clear,2016-09-03 17:53:00,60.1,,-,49,N/A,30.09,81.0,12:53 PM,,10.0,East,8.1,100,Tulsa,Oklahoma,74104
13,Clear,2016-09-03 18:53:00,60.1,,-,47,N/A,30.07,82.0,1:53 PM,,10.0,SSE,8.1,150,Tulsa,Oklahoma,74104
14,Clear,2016-09-03 19:53:00,59.0,,-,43,N/A,30.05,84.0,2:53 PM,,10.0,East,8.1,90,Tulsa,Oklahoma,74104
15,Clear,2016-09-03 20:53:00,59.0,,-,43,N/A,30.02,84.0,3:53 PM,,10.0,ESE,8.1,110,Tulsa,Oklahoma,74104
16,Clear,2016-09-03 21:53:00,57.0,,-,38,N/A,30.01,84.9,4:53 PM,,10.0,SE,6.9,130,Tulsa,Oklahoma,74104
17,Clear,2016-09-03 22:53:00,57.0,,-,40,N/A,30.01,84.0,5:53 PM,,10.0,East,9.2,100,Tulsa,Oklahoma,74104
18,Clear,2016-09-03 23:53:00,57.0,,-,42,N/A,30.01,82.0,6:53 PM,,10.0,East,9.2,100,Tulsa,Oklahoma,74104
19,Clear,2016-09-04 00:53:00,60.1,,-,64,N/A,29.99,73.0,7:53 PM,,10.0,Calm,Calm,0,Tulsa,Oklahoma,74104
20,Clear,2016-09-04 01:53:00,57.9,,-,50,N/A,29.99,78.1,8:53 PM,,10.0,SSE,8.1,150,Tulsa,Oklahoma,74104
21,Clear,2016-09-04 02:53:00,57.9,,-,54,N/A,30.00,75.9,9:53 PM,,10.0,SSE,5.8,150,Tulsa,Oklahoma,74104
22,Clear,2016-09-04 03:53:00,59.0,,-,59,N/A,30.01,73.9,10:53 PM,,10.0,SSE,4.6,160,Tulsa,Oklahoma,74104
23,Clear,2016-09-04 04:53:00,61.0,,-,70,N/A,30.03,71.1,11:53 PM,,10.0,Calm,Calm,0,Tulsa,Oklahoma,74104
0,Clear,2016-09-04 05:53:00,60.1,,-,76,N/A,30.04,68.0,12:53 AM,,10.0,Calm,Calm,0,Tulsa,Oklahoma,74104
1,Clear,2016-09-04 06:53:00,60.1,,-,79,N/A,30.03,66.9,1:53 AM,,10.0,South,3.5,180,Tulsa,Oklahoma,74104
2,Clear,2016-09-04 07:53:00,60.1,,-,71,N/A,30.02,70.0,2:53 AM,,10.0,South,4.6,170,Tulsa,Oklahoma,74104
3,Clear,2016-09-04 08:53:00,61.0,,-,81,N/A,30.03,66.9,3:53 AM,,10.0,Calm,Calm,0,Tulsa,Oklahoma,74104
4,Clear,2016-09-04 09:53:00,61.0,,-,90,N/A,30.02,64.0,4:53 AM,,10.0,Calm,Calm,0,Tulsa,Oklahoma,74104
5,Clear,2016-09-04 10:53:00,61.0,,-,93,N/A,30.02,63.0,5:53 AM,,10.0,Calm,Calm,0,Tulsa,Oklahoma,74104
6,Clear,2016-09-04 11:53:00,61.0,,-,84,N/A,30.04,66.0,6:53 AM,,10.0,South,3.5,180,Tulsa,Oklahoma,74104
7,Clear,2016-09-04 12:53:00,62.1,,-,81,N/A,30.06,68.0,7:53 AM,,10.0,SSE,4.6,150,Tulsa,Oklahoma,74104
8,Clear,2016-09-04 13:53:00,62.1,,-,71,N/A,30.07,72.0,8:53 AM,,10.0,Variable,5.8,0,Tulsa,Oklahoma,74104
9,Clear,2016-09-04 14:53:00,62.1,,-,62,N/A,30.07,75.9,9:53 AM,,10.0,South,11.5,170,Tulsa,Oklahoma,74104
10,Clear,2016-09-04 15:53:00,64.0,,-,58,N/A,30.07,80.1,10:53 AM,,10.0,South,8.1,170,Tulsa,Oklahoma,74104
11,Clear,2016-09-04 16:53:00,64.0,,-,51,N/A,30.05,84.0,11:53 AM,,10.0,Variable,6.9,0,Tulsa,Oklahoma,74104
12,Scattered Clouds,2016-09-04 17:53:00,64.0,,-,46,N/A,30.03,87.1,12:53 PM,,10.0,SSE,10.4,160,Tulsa,Oklahoma,74104
13,Mostly Cloudy,2016-09-04 18:53:00,64.0,,-,46,N/A,30.01,87.1,1:53 PM,,10.0,SSW,9.2,200,Tulsa,Oklahoma,74104
14,Scattered Clouds,2016-09-04 19:53:00,64.9,,19.6,43,N/A,29.99,90.0,2:53 PM,,10.0,South,12.7,170,Tulsa,Oklahoma,74104
15,Clear,2016-09-04 20:53:00,64.9,,-,42,N/A,29.96,91.0,3:53 PM,,10.0,South,12.7,170,Tulsa,Oklahoma,74104
16,Partly Cloudy,2016-09-04 21:53:00,64.9,,18.4,43,N/A,29.95,90.0,4:53 PM,,10.0,SSE,12.7,150,Tulsa,Oklahoma,74104
17,Clear,2016-09-04 22:53:00,64.9,,-,43,N/A,29.94,90.0,5:53 PM,,10.0,South,12.7,170,Tulsa,Oklahoma,74104
18,Clear,2016-09-04 23:53:00,64.0,,-,45,N/A,29.94,88.0,6:53 PM,,10.0,SSE,9.2,150,Tulsa,Oklahoma,74104
19,Clear,2016-09-05 00:53:00,64.9,,-,51,N/A,29.94,84.9,7:53 PM,,10.0,SSE,6.9,160,Tulsa,Oklahoma,74104
20,Clear,2016-09-05 01:53:00,63.0,,18.4,51,N/A,29.96,82.9,8:53 PM,,10.0,SSE,9.2,160,Tulsa,Oklahoma,74104
21,Clear,2016-09-05 02:53:00,63.0,,18.4,52,N/A,29.99,82.0,9:53 PM,,10.0,SSE,11.5,160,Tulsa,Oklahoma,74104
22,Clear,2016-09-05 03:53:00,64.0,,-,58,N/A,30.00,80.1,10:53 PM,,10.0,South,9.2,170,Tulsa,Oklahoma,74104
23,Clear,2016-09-05 04:53:00,64.0,,-,62,N/A,30.01,78.1,11:53 PM,,10.0,South,6.9,170,Tulsa,Oklahoma,74104
0,Clear,2016-09-05 05:53:00,64.0,,-,67,N/A,30.01,75.9,12:53 AM,,10.0,South,4.6,170,Tulsa,Oklahoma,74104
1,Clear,2016-09-05 06:53:00,64.9,,-,71,N/A,29.99,75.0,1:53 AM,,10.0,South,5.8,180,Tulsa,Oklahoma,74104
2,Clear,2016-09-05 07:53:00,64.9,,-,73,N/A,29.98,73.9,2:53 AM,,10.0,South,6.9,180,Tulsa,Oklahoma,74104
3,Clear,2016-09-05 08:53:00,66.0,,-,76,N/A,29.99,73.9,3:53 AM,,10.0,South,3.5,170,Tulsa,Oklahoma,74104
4,Clear,2016-09-05 09:53:00,66.0,,-,79,N/A,29.99,73.0,4:53 AM,,10.0,Variable,3.5,0,Tulsa,Oklahoma,74104
5,Clear,2016-09-05 10:53:00,66.0,,-,79,N/A,30.01,73.0,5:53 AM,,10.0,SSE,4.6,160,Tulsa,Oklahoma,74104
6,Clear,2016-09-05 11:53:00,66.0,,-,79,N/A,30.02,73.0,6:53 AM,,10.0,South,4.6,170,Tulsa,Oklahoma,74104
7,Clear,2016-09-05 12:53:00,66.9,,-,81,N/A,30.04,73.0,7:53 AM,,10.0,South,5.8,170,Tulsa,Oklahoma,74104
8,Clear,2016-09-05 13:53:00,68.0,,-,74,N/A,30.05,77.0,8:53 AM,,10.0,South,8.1,170,Tulsa,Oklahoma,74104
9,Clear,2016-09-05 14:53:00,70.0,,-,67,N/A,30.05,82.0,9:53 AM,,10.0,South,10.4,180,Tulsa,Oklahoma,74104
10,Clear,2016-09-05 15:53:00,71.1,,-,61,N/A,30.04,86.0,10:53 AM,,10.0,South,13.8,180,Tulsa,Oklahoma,74104
11,Scattered Clouds,2016-09-05 16:53:00,70.0,,21.9,52,N/A,30.03,90.0,11:53 AM,,10.0,SSW,13.8,200,Tulsa,Oklahoma,74104
12,Scattered Clouds,2016-09-05 17:53:00,71.1,,-,50,N/A,30.01,91.9,12:53 PM,,10.0,SSW,12.7,200,Tulsa,Oklahoma,74104
13,Mostly Cloudy,2016-09-05 18:53:00,69.1,,20.7,44,N/A,30.00,93.9,1:53 PM,,10.0,South,12.7,190,Tulsa,Oklahoma,74104
14,Partly Cloudy,2016-09-05 19:53:00,66.9,,-,40,N/A,29.97,95.0,2:53 PM,,10.0,SW,12.7,220,Tulsa,Oklahoma,74104
15,Clear,2016-09-05 20:53:00,68.0,,-,39,N/A,29.95,97.0,3:53 PM,,10.0,South,12.7,190,Tulsa,Oklahoma,74104
16,Clear,2016-09-05 21:53:00,66.9,,-,40,N/A,29.94,95.0,4:53 PM,,10.0,South,13.8,190,Tulsa,Oklahoma,74104
17,Clear,2016-09-05 22:53:00,64.9,,-,36,N/A,29.94,96.1,5:53 PM,,10.0,South,11.5,190,Tulsa,Oklahoma,74104
18,Clear,2016-09-05 23:53:00,64.9,,21.9,38,N/A,29.94,93.9,6:53 PM,,10.0,South,13.8,190,Tulsa,Oklahoma,74104
19,Clear,2016-09-06 00:53:00,64.9,,-,42,N/A,29.96,91.0,7:53 PM,,10.0,South,8.1,180,Tulsa,Oklahoma,74104
20,Clear,2016-09-06 01:53:00,68.0,,-,50,N/A,29.99,89.1,8:53 PM,,10.0,South,12.7,180,Tulsa,Oklahoma,74104
21,Clear,2016-09-06 02:53:00,69.1,,-,55,N/A,30.00,87.1,9:53 PM,,10.0,South,10.4,180,Tulsa,Oklahoma,74104
22,Clear,2016-09-06 03:53:00,69.1,,-,59,N/A,30.01,84.9,10:53 PM,,10.0,South,10.4,170,Tulsa,Oklahoma,74104
23,Clear,2016-09-06 04:53:00,69.1,,-,63,N/A,30.02,82.9,11:53 PM,,10.0,SSE,5.8,160,Tulsa,Oklahoma,74104
0,Clear,2016-09-06 05:53:00,70.0,,-,71,N/A,30.02,80.1,12:53 AM,,10.0,South,4.6,170,Tulsa,Oklahoma,74104
1,Clear,2016-09-06 06:53:00,70.0,,-,74,N/A,30.01,79.0,1:53 AM,,10.0,South,5.8,170,Tulsa,Oklahoma,74104
2,Clear,2016-09-06 07:53:00,70.0,,-,84,N/A,30.01,75.0,2:53 AM,,10.0,Calm,Calm,0,Tulsa,Oklahoma,74104
3,Clear,2016-09-06 08:53:00,70.0,,-,90,N/A,30.02,73.0,3:53 AM,,10.0,Calm,Calm,0,Tulsa,Oklahoma,74104
4,Clear,2016-09-06 09:53:00,70.0,,-,84,N/A,30.04,75.0,4:53 AM,,10.0,SSE,3.5,150,Tulsa,Oklahoma,74104
5,Clear,2016-09-06 10:53:00,71.1,,-,85,N/A,30.05,75.9,5:53 AM,,10.0,South,3.5,170,Tulsa,Oklahoma,74104
6,Clear,2016-09-06 11:53:00,70.0,,-,90,N/A,30.07,73.0,6:53 AM,,10.0,Calm,Calm,0,Tulsa,Oklahoma,74104
7,Clear,2016-09-06 12:53:00,70.0,,-,82,N/A,30.09,75.9,7:53 AM,,10.0,SSE,3.5,160,Tulsa,Oklahoma,74104
8,Partly Cloudy,2016-09-06 13:53:00,72.0,,-,76,N/A,30.11,80.1,8:53 AM,,10.0,South,8.1,190,Tulsa,Oklahoma,74104
9,Mostly Cloudy,2016-09-06 14:16:00,72.0,,-,74,N/A,30.11,81.0,9:16 AM,,10.0,South,11.5,180,Tulsa,Oklahoma,74104
10,Mostly Cloudy,2016-09-06 14:53:00,71.1,,20.7,67,N/A,30.12,82.9,9:53 AM,,10.0,South,12.7,190,Tulsa,Oklahoma,74104
11,Partly Cloudy,2016-09-06 15:00:00,71.1,,20.7,67,N/A,30.11,82.9,10:00 AM,,10.0,SSW,15.0,200,Tulsa,Oklahoma,74104
12,Clear,2016-09-06 15:53:00,71.1,,-,61,N/A,30.12,86.0,10:53 AM,,10.0,SSW,10.4,200,Tulsa,Oklahoma,74104
13,Clear,2016-09-06 16:53:00,69.1,,20.7,52,N/A,30.09,89.1,11:53 AM,,10.0,SSW,11.5,200,Tulsa,Oklahoma,74104
14,Clear,2016-09-06 17:53:00,68.0,,-,45,N/A,30.07,91.9,12:53 PM,,10.0,South,13.8,190,Tulsa,Oklahoma,74104
15,Partly Cloudy,2016-09-06 18:53:00,68.0,,21.9,44,N/A,30.06,93.0,1:53 PM,,10.0,SSW,10.4,210,Tulsa,Oklahoma,74104
16,Scattered Clouds,2016-09-06 19:53:00,66.0,,-,38,N/A,30.04,95.0,2:53 PM,,10.0,SSW,10.4,200,Tulsa,Oklahoma,74104
17,Partly Cloudy,2016-09-06 20:53:00,66.9,,-,41,N/A,30.03,93.9,3:53 PM,,10.0,SSW,12.7,200,Tulsa,Oklahoma,74104
18,Partly Cloudy,2016-09-06 21:53:00,66.9,,20.7,40,N/A,30.01,95.0,4:53 PM,,10.0,South,11.5,190,Tulsa,Oklahoma,74104
19,Mostly Cloudy,2016-09-06 22:53:00,66.9,,-,40,N/A,30.00,95.0,5:53 PM,,10.0,South,15.0,190,Tulsa,Oklahoma,74104
20,Partly Cloudy,2016-09-06 23:53:00,66.9,,-,44,N/A,29.99,91.9,6:53 PM,,10.0,South,11.5,170,Tulsa,Oklahoma,74104
21,Clear,2016-09-07 00:53:00,66.9,,-,46,N/A,30.00,90.0,7:53 PM,,10.0,South,9.2,170,Tulsa,Oklahoma,74104
22,Clear,2016-09-07 01:53:00,69.1,,-,55,N/A,30.02,87.1,8:53 PM,,10.0,South,9.2,170,Tulsa,Oklahoma,74104
23,Clear,2016-09-07 02:53:00,68.0,,-,57,N/A,30.03,84.9,9:53 PM,,10.0,South,8.1,170,Tulsa,Oklahoma,74104
24,Clear,2016-09-07 03:53:00,68.0,,-,60,N/A,30.05,82.9,10:53 PM,,10.0,South,8.1,170,Tulsa,Oklahoma,74104
25,Clear,2016-09-07 04:53:00,69.1,,-,67,N/A,30.06,81.0,11:53 PM,,10.0,South,8.1,180,Tulsa,Oklahoma,74104
0,Clear,2016-09-07 05:53:00,70.0,,-,71,N/A,30.06,80.1,12:53 AM,,10.0,South,6.9,170,Tulsa,Oklahoma,74104
1,Clear,2016-09-07 06:53:00,70.0,,-,74,N/A,30.07,79.0,1:53 AM,,10.0,South,5.8,170,Tulsa,Oklahoma,74104
2,Clear,2016-09-07 07:53:00,70.0,,-,76,N/A,30.09,78.1,2:53 AM,,10.0,South,3.5,190,Tulsa,Oklahoma,74104
3,Clear,2016-09-07 08:53:00,69.1,,-,72,N/A,30.08,79.0,3:53 AM,,10.0,South,5.8,180,Tulsa,Oklahoma,74104
4,Clear,2016-09-07 09:53:00,70.0,,-,79,N/A,30.06,77.0,4:53 AM,,10.0,South,3.5,170,Tulsa,Oklahoma,74104
5,Clear,2016-09-07 10:53:00,70.0,,-,82,N/A,30.05,75.9,5:53 AM,,10.0,SSE,4.6,160,Tulsa,Oklahoma,74104
6,Clear,2016-09-07 11:53:00,69.1,,-,79,N/A,30.06,75.9,6:53 AM,,10.0,SE,3.5,130,Tulsa,Oklahoma,74104
7,Clear,2016-09-07 12:53:00,70.0,,-,76,N/A,30.07,78.1,7:53 AM,,10.0,South,4.6,180,Tulsa,Oklahoma,74104
8,Clear,2016-09-07 13:53:00,71.1,,-,72,N/A,30.07,81.0,8:53 AM,,10.0,South,10.4,190,Tulsa,Oklahoma,74104
9,Clear,2016-09-07 14:53:00,71.1,,21.9,61,N/A,30.08,86.0,9:53 AM,,10.0,SSW,15.0,200,Tulsa,Oklahoma,74104
10,Clear,2016-09-07 15:53:00,71.1,,24.2,55,N/A,30.08,89.1,10:53 AM,,10.0,South,13.8,190,Tulsa,Oklahoma,74104
11,Clear,2016-09-07 16:53:00,71.1,,19.6,52,N/A,30.07,91.0,11:53 AM,,10.0,South,15.0,190,Tulsa,Oklahoma,74104
12,Clear,2016-09-07 17:53:00,70.0,,20.7,48,N/A,30.06,91.9,12:53 PM,,10.0,SSW,8.1,210,Tulsa,Oklahoma,74104
13,Clear,2016-09-07 18:53:00,70.0,,18.4,48,N/A,30.04,91.9,1:53 PM,,10.0,SSW,9.2,210,Tulsa,Oklahoma,74104
14,Partly Cloudy,2016-09-07 19:53:00,70.0,,19.6,47,N/A,30.00,93.0,2:53 PM,,10.0,SSW,11.5,200,Tulsa,Oklahoma,74104
15,Clear,2016-09-07 20:53:00,69.1,,19.6,43,N/A,29.98,95.0,3:53 PM,,10.0,SSW,13.8,200,Tulsa,Oklahoma,74104
16,Scattered Clouds,2016-09-07 21:53:00,68.0,,-,41,N/A,29.96,95.0,4:53 PM,,10.0,SSW,12.7,210,Tulsa,Oklahoma,74104
17,Clear,2016-09-07 22:53:00,69.1,,-,43,N/A,29.95,95.0,5:53 PM,,10.0,South,11.5,190,Tulsa,Oklahoma,74104
18,Partly Cloudy,2016-09-07 23:53:00,68.0,,-,43,N/A,29.94,93.9,6:53 PM,,10.0,South,12.7,190,Tulsa,Oklahoma,74104
19,Clear,2016-09-08 00:53:00,68.0,,-,47,N/A,29.95,91.0,7:53 PM,,10.0,SSW,9.2,200,Tulsa,Oklahoma,74104
20,Clear,2016-09-08 01:53:00,70.0,,-,53,N/A,29.96,89.1,8:53 PM,,10.0,South,11.5,170,Tulsa,Oklahoma,74104
21,Clear,2016-09-08 02:53:00,70.0,,-,57,N/A,29.97,87.1,9:53 PM,,10.0,South,10.4,180,Tulsa,Oklahoma,74104
22,Clear,2016-09-08 03:53:00,70.0,,-,59,N/A,29.97,86.0,10:53 PM,,10.0,South,11.5,180,Tulsa,Oklahoma,74104
23,Clear,2016-09-08 04:53:00,70.0,,-,61,N/A,29.97,84.9,11:53 PM,,10.0,South,11.5,180,Tulsa,Oklahoma,74104
0,Clear,2016-09-08 05:53:00,70.0,,-,63,N/A,29.96,84.0,12:53 AM,,10.0,South,12.7,180,Tulsa,Oklahoma,74104
1,Clear,2016-09-08 06:53:00,70.0,,-,65,N/A,29.96,82.9,1:53 AM,,10.0,South,10.4,190,Tulsa,Oklahoma,74104
2,Clear,2016-09-08 07:53:00,70.0,,-,67,N/A,29.95,82.0,2:53 AM,,10.0,South,9.2,190,Tulsa,Oklahoma,74104
3,Clear,2016-09-08 08:53:00,71.1,,-,72,N/A,29.94,81.0,3:53 AM,,10.0,South,6.9,180,Tulsa,Oklahoma,74104
4,Clear,2016-09-08 09:53:00,71.1,,-,69,N/A,29.94,82.0,4:53 AM,,10.0,South,11.5,190,Tulsa,Oklahoma,74104
5,Clear,2016-09-08 10:53:00,72.0,,-,74,N/A,29.95,81.0,5:53 AM,,10.0,South,9.2,190,Tulsa,Oklahoma,74104
6,Clear,2016-09-08 11:53:00,72.0,,-,76,N/A,29.94,80.1,6:53 AM,,10.0,South,8.1,190,Tulsa,Oklahoma,74104
7,Clear,2016-09-08 12:53:00,72.0,,-,74,N/A,29.95,81.0,7:53 AM,,10.0,SSW,6.9,200,Tulsa,Oklahoma,74104
8,Scattered Clouds,2016-09-08 13:53:00,73.0,,-,72,N/A,29.96,82.9,8:53 AM,,10.0,SSW,9.2,200,Tulsa,Oklahoma,74104
9,Partly Cloudy,2016-09-08 14:53:00,72.0,,17.3,61,N/A,29.96,87.1,9:53 AM,,10.0,SSW,13.8,210,Tulsa,Oklahoma,74104
10,Mostly Cloudy,2016-09-08 15:53:00,72.0,,19.6,59,N/A,29.96,88.0,10:53 AM,,10.0,SSW,9.2,210,Tulsa,Oklahoma,74104
11,Mostly Cloudy,2016-09-08 16:53:00,72.0,,-,53,N/A,29.95,91.0,11:53 AM,,10.0,SSW,5.8,210,Tulsa,Oklahoma,74104
12,Clear,2016-09-08 17:53:00,71.1,,-,47,N/A,29.92,93.9,12:53 PM,,10.0,Variable,6.9,0,Tulsa,Oklahoma,74104
13,Scattered Clouds,2016-09-08 18:53:00,72.0,,-,46,N/A,29.90,96.1,1:53 PM,,10.0,SSW,8.1,210,Tulsa,Oklahoma,74104
14,Mostly Cloudy,2016-09-08 19:53:00,71.1,,20.7,47,N/A,29.87,93.9,2:53 PM,,10.0,SW,5.8,230,Tulsa,Oklahoma,74104
15,Mostly Cloudy,2016-09-08 20:53:00,72.0,,-,49,0.00,29.84,93.9,3:53 PM,,10.0,SSW,6.9,210,Tulsa,Oklahoma,74104
16,Thunderstorm,2016-09-08 21:30:00,71.1,Thunderstorm,-,42,N/A,29.83,98.1,4:30 PM,,10.0,SSW,8.1,210,Tulsa,Oklahoma,74104
17,Mostly Cloudy,2016-09-08 21:45:00,68.0,,-,37,N/A,29.82,98.1,4:45 PM,,10.0,SSW,9.2,200,Tulsa,Oklahoma,74104
18,Scattered Clouds,2016-09-08 21:53:00,69.1,,-,39,N/A,29.82,98.1,4:53 PM,,10.0,South,11.5,190,Tulsa,Oklahoma,74104
19,Partly Cloudy,2016-09-08 22:53:00,68.0,,-,37,N/A,29.81,98.1,5:53 PM,,10.0,South,10.4,190,Tulsa,Oklahoma,74104
20,Partly Cloudy,2016-09-08 23:53:00,70.0,,-,46,N/A,29.81,93.9,6:53 PM,,10.0,SSW,8.1,200,Tulsa,Oklahoma,74104
21,Scattered Clouds,2016-09-09 00:53:00,69.1,,-,45,N/A,29.82,93.0,7:53 PM,,10.0,South,8.1,190,Tulsa,Oklahoma,74104
22,Overcast,2016-09-09 01:53:00,69.1,,-,48,N/A,29.85,91.0,8:53 PM,,10.0,South,11.5,180,Tulsa,Oklahoma,74104
23,Partly Cloudy,2016-09-09 02:53:00,69.1,,20.7,52,N/A,29.87,89.1,9:53 PM,,10.0,South,13.8,180,Tulsa,Oklahoma,74104
24,Mostly Cloudy,2016-09-09 03:53:00,68.0,,-,51,N/A,29.88,88.0,10:53 PM,,10.0,South,12.7,180,Tulsa,Oklahoma,74104
25,Clear,2016-09-09 04:53:00,69.1,,-,59,N/A,29.86,84.9,11:53 PM,,10.0,SSE,9.2,160,Tulsa,Oklahoma,74104
0,Scattered Clouds,2016-09-09 05:53:00,69.1,,-,61,N/A,29.86,84.0,12:53 AM,,10.0,South,9.2,170,Tulsa,Oklahoma,74104
1,Haze,2016-09-09 06:53:00,68.0,,-,60,N/A,29.86,82.9,1:53 AM,,3.0,South,9.2,180,Tulsa,Oklahoma,74104
2,Scattered Clouds,2016-09-09 07:53:00,68.0,,-,60,N/A,29.86,82.9,2:53 AM,,10.0,South,8.1,180,Tulsa,Oklahoma,74104
3,Mostly Cloudy,2016-09-09 08:53:00,68.0,,-,62,N/A,29.87,82.0,3:53 AM,,10.0,SSW,6.9,200,Tulsa,Oklahoma,74104
4,Light Rain,2016-09-09 09:24:00,68.0,Rain-Thunderstorm,-,65,0.00,29.87,81.0,4:24 AM,,9.0,SSW,3.5,210,Tulsa,Oklahoma,74104
5,Light Thunderstorms and Rain,2016-09-09 09:40:00,71.1,Rain-Thunderstorm,-,82,0.02,29.87,77.0,4:40 AM,,10.0,South,5.8,170,Tulsa,Oklahoma,74104
6,Thunderstorm,2016-09-09 09:53:00,71.1,Thunderstorm,-,79,0.02,29.87,78.1,4:53 AM,,10.0,South,4.6,180,Tulsa,Oklahoma,74104
7,Light Rain,2016-09-09 10:14:00,71.1,Rain-Thunderstorm,-,85,0.00,29.87,75.9,5:14 AM,,10.0,Calm,Calm,0,Tulsa,Oklahoma,74104
8,Light Thunderstorms and Rain,2016-09-09 10:33:00,71.1,Rain-Thunderstorm,-,82,0.03,29.87,77.0,5:33 AM,,10.0,Calm,Calm,0,Tulsa,Oklahoma,74104
9,Overcast,2016-09-09 10:48:00,71.6,Thunderstorm,-,89,0.03,29.88,75.2,5:48 AM,,10.0,North,5.8,350,Tulsa,Oklahoma,74104
10,Overcast,2016-09-09 10:53:00,71.1,Thunderstorm,-,85,0.03,29.89,75.9,5:53 AM,,10.0,North,6.9,360,Tulsa,Oklahoma,74104
11,Overcast,2016-09-09 11:39:00,72.0,,-,87,N/A,29.91,75.9,6:39 AM,,10.0,NNE,6.9,20,Tulsa,Oklahoma,74104
12,Light Rain,2016-09-09 11:53:00,71.1,Rain,-,85,0.00,29.92,75.9,6:53 AM,,10.0,NE,10.4,50,Tulsa,Oklahoma,74104
13,Overcast,2016-09-09 12:05:00,72.0,Thunderstorm,-,87,0.00,29.93,75.9,7:05 AM,,10.0,Variable,4.6,0,Tulsa,Oklahoma,74104
14,Heavy Rain,2016-09-09 12:27:00,72.0,Rain-Thunderstorm,-,90,0.08,29.95,75.0,7:27 AM,,1.8,Variable,3.5,0,Tulsa,Oklahoma,74104
15,Heavy Thunderstorms and Rain,2016-09-09 12:33:00,72.0,Rain-Thunderstorm,-,90,0.14,29.93,75.0,7:33 AM,,2.0,North,6.9,10,Tulsa,Oklahoma,74104
16,Heavy Rain,2016-09-09 12:44:00,72.0,Rain-Thunderstorm,-,93,0.19,29.93,73.9,7:44 AM,,3.0,NNE,6.9,30,Tulsa,Oklahoma,74104
17,Light Rain,2016-09-09 12:53:00,72.0,Rain-Thunderstorm,-,93,0.19,29.94,73.9,7:53 AM,,7.0,NNE,4.6,30,Tulsa,Oklahoma,74104
18,Thunderstorms and Rain,2016-09-09 13:38:00,72.0,Rain-Thunderstorm,-,90,0.06,29.95,75.0,8:38 AM,,6.0,South,6.9,180,Tulsa,Oklahoma,74104
19,Heavy Thunderstorms and Rain,2016-09-09 13:50:00,71.6,Rain-Thunderstorm,-,94,0.13,29.92,73.4,8:50 AM,,1.8,SSE,6.9,150,Tulsa,Oklahoma,74104
20,Heavy Thunderstorms and Rain,2016-09-09 13:53:00,72.0,Rain-Thunderstorm,-,93,0.15,29.94,73.9,8:53 AM,,1.5,SSE,8.1,160,Tulsa,Oklahoma,74104
21,Thunderstorms and Rain,2016-09-09 14:00:00,72.0,Rain-Thunderstorm,-,93,0.01,29.93,73.9,9:00 AM,,3.0,SSE,3.5,150,Tulsa,Oklahoma,74104
22,Light Rain,2016-09-09 14:12:00,72.0,Rain,-,93,0.02,29.93,73.9,9:12 AM,,6.0,SSE,3.5,160,Tulsa,Oklahoma,74104
23,Light Rain,2016-09-09 14:20:00,72.0,Rain-Thunderstorm,-,93,0.02,29.93,73.9,9:20 AM,,8.0,Calm,Calm,0,Tulsa,Oklahoma,74104
24,Scattered Clouds,2016-09-09 14:53:00,72.0,Thunderstorm,-,90,0.02,29.94,75.0,9:53 AM,,10.0,SSE,3.5,160,Tulsa,Oklahoma,74104
25,Partly Cloudy,2016-09-09 15:10:00,72.0,,-,87,N/A,29.93,75.9,10:10 AM,,10.0,SE,3.5,140,Tulsa,Oklahoma,74104
26,Clear,2016-09-09 15:53:00,72.0,,-,81,N/A,29.93,78.1,10:53 AM,,10.0,South,5.8,170,Tulsa,Oklahoma,74104
27,Clear,2016-09-09 16:53:00,73.9,,-,76,N/A,29.91,82.0,11:53 AM,,10.0,SSE,9.2,160,Tulsa,Oklahoma,74104
28,Clear,2016-09-09 17:53:00,72.0,,-,59,N/A,29.88,88.0,12:53 PM,,10.0,South,9.2,170,Tulsa,Oklahoma,74104
29,Clear,2016-09-09 18:53:00,71.1,,25.3,52,N/A,29.87,91.0,1:53 PM,,10.0,SSW,16.1,200,Tulsa,Oklahoma,74104
30,Clear,2016-09-09 19:53:00,70.0,,24.2,48,N/A,29.85,91.9,2:53 PM,,10.0,SSW,16.1,210,Tulsa,Oklahoma,74104
31,Clear,2016-09-09 20:53:00,69.1,,-,45,N/A,29.83,93.0,3:53 PM,,10.0,SW,9.2,220,Tulsa,Oklahoma,74104
32,Clear,2016-09-09 21:53:00,69.1,,17.3,47,N/A,29.82,91.9,4:53 PM,,10.0,South,11.5,190,Tulsa,Oklahoma,74104
33,Clear,2016-09-09 22:53:00,68.0,,-,44,N/A,29.83,93.0,5:53 PM,,10.0,SSW,9.2,200,Tulsa,Oklahoma,74104
34,Clear,2016-09-09 23:53:00,68.0,,-,45,N/A,29.84,91.9,6:53 PM,,10.0,South,10.4,180,Tulsa,Oklahoma,74104
35,Clear,2016-09-10 00:53:00,69.1,,-,53,N/A,29.84,88.0,7:53 PM,,10.0,South,6.9,170,Tulsa,Oklahoma,74104
36,Clear,2016-09-10 01:53:00,69.1,,-,57,N/A,29.84,86.0,8:53 PM,,10.0,South,8.1,170,Tulsa,Oklahoma,74104
37,Partly Cloudy,2016-09-10 02:53:00,70.0,,-,65,N/A,29.89,82.9,9:53 PM,,10.0,South,3.5,190,Tulsa,Oklahoma,74104
38,Clear,2016-09-10 03:53:00,70.0,,-,63,N/A,29.90,84.0,10:53 PM,,10.0,South,8.1,180,Tulsa,Oklahoma,74104
39,Rain,2016-09-10 04:53:00,66.9,Rain-Thunderstorm,28.8,79,0.02,29.98,73.9,11:53 PM,,6.0,NNW,11.5,330,Tulsa,Oklahoma,74104
0,Light Thunderstorms and Rain,2016-09-10 05:02:00,66.9,Rain-Thunderstorm,31.1,81,0.00,29.98,73.0,12:02 AM,,10.0,NNW,19.6,340,Tulsa,Oklahoma,74104
1,Light Rain,2016-09-10 05:38:00,66.9,Rain-Thunderstorm,-,87,0.02,30.01,71.1,12:38 AM,,10.0,Variable,5.8,0,Tulsa,Oklahoma,74104
2,Light Rain,2016-09-10 05:51:00,66.2,Rain,-,83,0.02,30.03,71.6,12:51 AM,,10.0,NNW,5.8,340,Tulsa,Oklahoma,74104
3,Light Rain,2016-09-10 05:53:00,66.9,Rain,-,87,0.02,30.04,71.1,12:53 AM,,10.0,NNW,8.1,340,Tulsa,Oklahoma,74104
4,Rain,2016-09-10 06:10:00,66.9,Rain,-,87,0.02,30.05,71.1,1:10 AM,,6.0,Variable,4.6,0,Tulsa,Oklahoma,74104
5,Light Rain,2016-09-10 06:20:00,68.0,Rain,-,90,0.05,30.05,71.1,1:20 AM,,5.0,Calm,Calm,0,Tulsa,Oklahoma,74104
6,Rain,2016-09-10 06:53:00,68.0,Rain,-,90,0.07,30.07,71.1,1:53 AM,,7.0,North,3.5,10,Tulsa,Oklahoma,74104
7,Rain,2016-09-10 07:53:00,66.9,Rain,-,90,0.12,30.07,70.0,2:53 AM,,10.0,ENE,5.8,60,Tulsa,Oklahoma,74104
8,Light Rain,2016-09-10 08:18:00,66.9,Rain,-,90,0.03,30.05,70.0,3:18 AM,,10.0,East,6.9,90,Tulsa,Oklahoma,74104
9,Light Rain,2016-09-10 08:26:00,66.9,Rain,-,90,0.04,30.06,70.0,3:26 AM,,10.0,Calm,Calm,0,Tulsa,Oklahoma,74104
10,Light Rain,2016-09-10 08:53:00,66.9,Rain,-,90,0.07,30.07,70.0,3:53 AM,,7.0,Variable,3.5,0,Tulsa,Oklahoma,74104
11,Light Rain,2016-09-10 09:16:00,68.0,Rain,-,93,0.01,30.07,70.0,4:16 AM,,10.0,Calm,Calm,0,Tulsa,Oklahoma,74104
12,Rain,2016-09-10 09:53:00,68.0,Rain,-,93,0.04,30.09,70.0,4:53 AM,,2.5,Calm,Calm,0,Tulsa,Oklahoma,74104
13,Light Rain,2016-09-10 10:00:00,68.0,Rain,-,93,0.00,30.09,70.0,5:00 AM,,7.0,Calm,Calm,0,Tulsa,Oklahoma,74104
14,Light Rain,2016-09-10 10:13:00,68.0,Rain,-,93,0.00,30.10,70.0,5:13 AM,,9.0,North,9.2,350,Tulsa,Oklahoma,74104
15,Mostly Cloudy,2016-09-10 10:50:00,62.6,,20.7,88,0.00,30.11,66.2,5:50 AM,,10.0,North,11.5,360,Tulsa,Oklahoma,74104
16,Mostly Cloudy,2016-09-10 10:53:00,62.1,,20.7,84,0.00,30.13,66.9,5:53 AM,,10.0,North,9.2,350,Tulsa,Oklahoma,74104
17,Mostly Cloudy,2016-09-10 11:00:00,62.1,,18.4,84,N/A,30.12,66.9,6:00 AM,,10.0,North,8.1,360,Tulsa,Oklahoma,74104
18,Mostly Cloudy,2016-09-10 11:10:00,60.1,,16.1,79,N/A,30.12,66.9,6:10 AM,,10.0,North,9.2,360,Tulsa,Oklahoma,74104
19,Clear,2016-09-10 11:53:00,57.0,,17.3,73,N/A,30.15,66.0,6:53 AM,,10.0,North,6.9,350,Tulsa,Oklahoma,74104
20,Clear,2016-09-10 12:53:00,55.9,,-,73,N/A,30.18,64.9,7:53 AM,,10.0,NNW,4.6,340,Tulsa,Oklahoma,74104
21,Mostly Cloudy,2016-09-10 13:53:00,55.9,,-,70,N/A,30.22,66.0,8:53 AM,,10.0,NNW,5.8,340,Tulsa,Oklahoma,74104
22,Partly Cloudy,2016-09-10 14:53:00,55.0,,-,63,N/A,30.24,68.0,9:53 AM,,10.0,North,6.9,360,Tulsa,Oklahoma,74104
23,Clear,2016-09-10 15:53:00,54.0,,-,61,N/A,30.25,68.0,10:53 AM,,10.0,Variable,5.8,0,Tulsa,Oklahoma,74104
24,Clear,2016-09-10 16:53:00,54.0,,-,51,N/A,30.25,73.0,11:53 AM,,10.0,Variable,6.9,0,Tulsa,Oklahoma,74104
25,Clear,2016-09-10 17:53:00,50.0,,17.3,40,N/A,30.23,75.9,12:53 PM,,10.0,NNE,13.8,20,Tulsa,Oklahoma,74104
26,Clear,2016-09-10 18:53:00,51.1,,-,38,N/A,30.22,79.0,1:53 PM,,10.0,Variable,5.8,0,Tulsa,Oklahoma,74104
27,Clear,2016-09-10 19:53:00,51.1,,16.1,36,N/A,30.19,80.1,2:53 PM,,10.0,North,12.7,350,Tulsa,Oklahoma,74104
28,Clear,2016-09-10 20:53:00,50.0,,18.4,34,N/A,30.19,81.0,3:53 PM,,10.0,North,12.7,10,Tulsa,Oklahoma,74104
29,Clear,2016-09-10 21:53:00,48.0,,20.7,32,N/A,30.18,80.1,4:53 PM,,10.0,North,9.2,360,Tulsa,Oklahoma,74104
30,Clear,2016-09-10 22:53:00,48.0,,-,32,N/A,30.17,80.1,5:53 PM,,10.0,North,9.2,10,Tulsa,Oklahoma,74104
31,Clear,2016-09-10 23:53:00,48.9,,-,37,N/A,30.17,77.0,6:53 PM,,10.0,North,5.8,350,Tulsa,Oklahoma,74104
32,Clear,2016-09-11 00:53:00,51.1,,-,48,N/A,30.19,72.0,7:53 PM,,10.0,North,4.6,360,Tulsa,Oklahoma,74104
33,Clear,2016-09-11 01:53:00,55.9,,-,75,N/A,30.22,64.0,8:53 PM,,10.0,Calm,Calm,0,Tulsa,Oklahoma,74104
34,Clear,2016-09-11 02:53:00,55.9,,-,80,N/A,30.23,62.1,9:53 PM,,10.0,Calm,Calm,0,Tulsa,Oklahoma,74104
35,Clear,2016-09-11 03:53:00,55.9,,-,83,N/A,30.24,61.0,10:53 PM,,10.0,Calm,Calm,0,Tulsa,Oklahoma,74104
36,Clear,2016-09-11 04:53:00,55.9,,-,90,N/A,30.24,59.0,11:53 PM,,10.0,Calm,Calm,0,Tulsa,Oklahoma,74104
0,Clear,2016-09-11 05:53:00,55.9,,-,93,N/A,30.24,57.9,12:53 AM,,10.0,Calm,Calm,0,Tulsa,Oklahoma,74104
1,Clear,2016-09-11 06:53:00,55.0,,-,90,N/A,30.22,57.9,1:53 AM,,10.0,Calm,Calm,0,Tulsa,Oklahoma,74104
2,Clear,2016-09-11 07:53:00,54.0,,-,93,N/A,30.23,55.9,2:53 AM,,10.0,Calm,Calm,0,Tulsa,Oklahoma,74104
3,Clear,2016-09-11 08:53:00,54.0,,-,93,N/A,30.22,55.9,3:53 AM,,10.0,Calm,Calm,0,Tulsa,Oklahoma,74104
4,Clear,2016-09-11 09:53:00,54.0,,-,93,N/A,30.23,55.9,4:53 AM,,9.0,Calm,Calm,0,Tulsa,Oklahoma,74104
5,Clear,2016-09-11 10:53:00,53.1,,-,93,N/A,30.23,55.0,5:53 AM,,8.0,Calm,Calm,0,Tulsa,Oklahoma,74104
6,Clear,2016-09-11 11:53:00,53.1,,-,93,N/A,30.24,55.0,6:53 AM,,9.0,Calm,Calm,0,Tulsa,Oklahoma,74104
7,Clear,2016-09-11 12:53:00,55.0,,-,93,N/A,30.25,57.0,7:53 AM,,10.0,Calm,Calm,0,Tulsa,Oklahoma,74104
8,Clear,2016-09-11 13:53:00,57.9,,-,84,N/A,30.25,63.0,8:53 AM,,10.0,Calm,Calm,0,Tulsa,Oklahoma,74104
9,Clear,2016-09-11 14:53:00,57.0,,-,65,N/A,30.25,69.1,9:53 AM,,10.0,SSE,6.9,150,Tulsa,Oklahoma,74104
10,Clear,2016-09-11 15:53:00,55.9,,-,55,N/A,30.24,73.0,10:53 AM,,10.0,SSE,6.9,150,Tulsa,Oklahoma,74104
11,Clear,2016-09-11 16:53:00,53.1,,-,43,N/A,30.22,77.0,11:53 AM,,10.0,South,10.4,170,Tulsa,Oklahoma,74104
12,Clear,2016-09-11 17:53:00,52.0,,-,39,N/A,30.18,79.0,12:53 PM,,10.0,South,4.6,180,Tulsa,Oklahoma,74104
13,Clear,2016-09-11 18:53:00,48.9,,-,31,N/A,30.15,82.0,1:53 PM,,10.0,SSW,6.9,210,Tulsa,Oklahoma,74104
14,Clear,2016-09-11 19:53:00,48.9,,-,31,N/A,30.11,82.9,2:53 PM,,10.0,South,9.2,170,Tulsa,Oklahoma,74104
15,Clear,2016-09-11 20:53:00,48.9,,-,29,N/A,30.08,84.9,3:53 PM,,10.0,South,8.1,180,Tulsa,Oklahoma,74104
16,Clear,2016-09-11 21:53:00,51.1,,-,30,N/A,30.06,86.0,4:53 PM,,10.0,ESE,8.1,120,Tulsa,Oklahoma,74104
17,Clear,2016-09-11 22:53:00,48.0,,-,27,N/A,30.04,86.0,5:53 PM,,10.0,SE,6.9,140,Tulsa,Oklahoma,74104
18,Clear,2016-09-11 23:53:00,51.1,,-,33,N/A,30.02,82.9,6:53 PM,,10.0,SE,8.1,130,Tulsa,Oklahoma,74104
19,Clear,2016-09-12 00:53:00,54.0,,-,42,N/A,30.01,79.0,7:53 PM,,10.0,SE,4.6,140,Tulsa,Oklahoma,74104
20,Clear,2016-09-12 01:53:00,52.0,,-,42,N/A,30.01,77.0,8:53 PM,,10.0,SSE,5.8,150,Tulsa,Oklahoma,74104
21,Clear,2016-09-12 02:53:00,53.1,,-,46,N/A,30.03,75.0,9:53 PM,,10.0,SSE,6.9,150,Tulsa,Oklahoma,74104
22,Clear,2016-09-12 03:53:00,53.1,,-,48,N/A,30.04,73.9,10:53 PM,,10.0,SSE,4.6,160,Tulsa,Oklahoma,74104
23,Clear,2016-09-12 04:53:00,55.0,,-,53,N/A,30.04,73.0,11:53 PM,,10.0,South,6.9,180,Tulsa,Oklahoma,74104
0,Clear,2016-09-12 05:53:00,57.0,,-,61,N/A,30.04,71.1,12:53 AM,,10.0,South,4.6,190,Tulsa,Oklahoma,74104
1,Clear,2016-09-12 06:53:00,57.9,,-,75,N/A,30.02,66.0,1:53 AM,,10.0,South,3.5,170,Tulsa,Oklahoma,74104
2,Clear,2016-09-12 07:53:00,57.9,,-,84,N/A,30.03,63.0,2:53 AM,,10.0,Calm,Calm,0,Tulsa,Oklahoma,74104
3,Clear,2016-09-12 08:53:00,57.9,,-,90,N/A,30.02,61.0,3:53 AM,,10.0,Calm,Calm,0,Tulsa,Oklahoma,74104
4,Clear,2016-09-12 09:53:00,57.9,,-,93,N/A,30.01,60.1,4:53 AM,,10.0,Calm,Calm,0,Tulsa,Oklahoma,74104
5,Clear,2016-09-12 10:53:00,57.0,,-,87,N/A,30.01,61.0,5:53 AM,,10.0,SE,3.5,140,Tulsa,Oklahoma,74104
6,Clear,2016-09-12 11:53:00,57.0,,-,75,N/A,30.01,64.9,6:53 AM,,10.0,South,5.8,170,Tulsa,Oklahoma,74104
7,Clear,2016-09-12 12:53:00,57.0,,-,73,N/A,30.03,66.0,7:53 AM,,10.0,South,4.6,170,Tulsa,Oklahoma,74104
8,Clear,2016-09-12 13:53:00,59.0,,-,68,N/A,30.02,70.0,8:53 AM,,10.0,South,10.4,170,Tulsa,Oklahoma,74104
9,Clear,2016-09-12 14:53:00,62.1,,-,64,N/A,30.02,75.0,9:53 AM,,10.0,South,10.4,170,Tulsa,Oklahoma,74104
10,Clear,2016-09-12 15:53:00,64.0,,-,58,N/A,30.02,80.1,10:53 AM,,10.0,South,11.5,170,Tulsa,Oklahoma,74104
11,Clear,2016-09-12 16:53:00,64.9,,20.7,53,N/A,29.99,84.0,11:53 AM,,10.0,South,13.8,190,Tulsa,Oklahoma,74104
12,Clear,2016-09-12 17:53:00,63.0,,23.0,44,N/A,29.99,87.1,12:53 PM,,10.0,South,15.0,180,Tulsa,Oklahoma,74104
13,Clear,2016-09-12 18:53:00,62.1,,19.6,42,N/A,29.96,88.0,1:53 PM,,10.0,South,9.2,180,Tulsa,Oklahoma,74104
14,Clear,2016-09-12 19:53:00,59.0,,18.4,33,N/A,29.94,91.9,2:53 PM,,10.0,South,11.5,170,Tulsa,Oklahoma,74104
15,Clear,2016-09-12 20:53:00,57.0,,20.7,32,N/A,29.92,91.0,3:53 PM,,10.0,SSE,11.5,160,Tulsa,Oklahoma,74104
16,Clear,2016-09-12 21:53:00,55.0,,-,29,N/A,29.91,91.0,4:53 PM,,10.0,South,15.0,180,Tulsa,Oklahoma,74104
17,Clear,2016-09-12 22:53:00,54.0,,-,30,N/A,29.90,89.1,5:53 PM,,10.0,South,10.4,180,Tulsa,Oklahoma,74104
18,Clear,2016-09-12 23:53:00,55.9,,-,35,N/A,29.90,87.1,6:53 PM,,10.0,South,8.1,170,Tulsa,Oklahoma,74104
19,Clear,2016-09-13 00:53:00,57.9,,-,45,N/A,29.92,81.0,7:53 PM,,10.0,SE,3.5,140,Tulsa,Oklahoma,74104
20,Clear,2016-09-13 01:53:00,61.0,,-,52,N/A,29.95,80.1,8:53 PM,,10.0,SSE,3.5,160,Tulsa,Oklahoma,74104
21,Clear,2016-09-13 02:53:00,63.0,,-,58,N/A,29.96,79.0,9:53 PM,,10.0,SSE,5.8,150,Tulsa,Oklahoma,74104
22,Clear,2016-09-13 03:53:00,63.0,,-,62,N/A,29.98,77.0,10:53 PM,,10.0,SSE,6.9,160,Tulsa,Oklahoma,74104
23,Clear,2016-09-13 04:53:00,64.0,,-,69,N/A,29.99,75.0,11:53 PM,,10.0,South,6.9,180,Tulsa,Oklahoma,74104
0,Clear,2016-09-13 05:53:00,64.0,,-,73,N/A,29.99,73.0,12:53 AM,,10.0,South,3.5,180,Tulsa,Oklahoma,74104
1,Clear,2016-09-13 06:53:00,64.9,,-,81,N/A,30.00,71.1,1:53 AM,,10.0,Calm,Calm,0,Tulsa,Oklahoma,74104
2,Clear,2016-09-13 07:53:00,64.9,,-,90,N/A,29.99,68.0,2:53 AM,,10.0,Calm,Calm,0,Tulsa,Oklahoma,74104
3,Clear,2016-09-13 08:53:00,64.9,,-,90,N/A,30.00,68.0,3:53 AM,,10.0,Calm,Calm,0,Tulsa,Oklahoma,74104
4,Clear,2016-09-13 09:53:00,64.9,,-,90,N/A,30.00,68.0,4:53 AM,,10.0,Calm,Calm,0,Tulsa,Oklahoma,74104
5,Clear,2016-09-13 10:53:00,64.9,,-,96,N/A,30.01,66.0,5:53 AM,,7.0,Calm,Calm,0,Tulsa,Oklahoma,74104
6,Clear,2016-09-13 11:53:00,64.0,,-,93,N/A,30.03,66.0,6:53 AM,,5.0,Calm,Calm,0,Tulsa,Oklahoma,74104
7,Clear,2016-09-13 12:53:00,68.0,,-,87,N/A,30.05,72.0,7:53 AM,,10.0,South,4.6,170,Tulsa,Oklahoma,74104
8,Clear,2016-09-13 13:53:00,69.1,,-,79,N/A,30.06,75.9,8:53 AM,,9.0,South,5.8,180,Tulsa,Oklahoma,74104
9,Clear,2016-09-13 14:53:00,70.0,,-,71,N/A,30.07,80.1,9:53 AM,,10.0,South,6.9,180,Tulsa,Oklahoma,74104
10,Clear,2016-09-13 15:53:00,70.0,,-,63,N/A,30.07,84.0,10:53 AM,,10.0,South,10.4,190,Tulsa,Oklahoma,74104
11,Scattered Clouds,2016-09-13 16:53:00,69.1,,-,59,N/A,30.07,84.9,11:53 AM,,10.0,South,10.4,180,Tulsa,Oklahoma,74104
12,Partly Cloudy,2016-09-13 17:53:00,69.1,,-,55,N/A,30.07,87.1,12:53 PM,,10.0,South,6.9,170,Tulsa,Oklahoma,74104
13,Partly Cloudy,2016-09-13 18:53:00,68.0,,-,50,N/A,30.05,89.1,1:53 PM,,10.0,SE,6.9,140,Tulsa,Oklahoma,74104
14,Clear,2016-09-13 19:53:00,66.0,,-,46,N/A,30.03,89.1,2:53 PM,,10.0,ESE,4.6,120,Tulsa,Oklahoma,74104
15,Clear,2016-09-13 20:53:00,64.9,,-,43,N/A,30.01,90.0,3:53 PM,,10.0,Variable,5.8,0,Tulsa,Oklahoma,74104
16,Clear,2016-09-13 21:53:00,66.0,,-,46,N/A,30.00,89.1,4:53 PM,,10.0,Variable,4.6,0,Tulsa,Oklahoma,74104
17,Clear,2016-09-13 22:53:00,64.0,,-,41,N/A,29.99,91.0,5:53 PM,,10.0,East,8.1,100,Tulsa,Oklahoma,74104
18,Clear,2016-09-13 23:53:00,64.0,,-,46,N/A,30.00,87.1,6:53 PM,,10.0,SE,5.8,130,Tulsa,Oklahoma,74104
19,Clear,2016-09-14 00:53:00,66.9,,-,68,N/A,30.01,78.1,7:53 PM,,10.0,Calm,Calm,0,Tulsa,Oklahoma,74104
20,Clear,2016-09-14 01:53:00,68.0,,-,79,N/A,30.04,75.0,8:53 PM,,10.0,Calm,Calm,0,Tulsa,Oklahoma,74104
21,Clear,2016-09-14 02:53:00,68.0,,-,82,N/A,30.06,73.9,9:53 PM,,10.0,Calm,Calm,0,Tulsa,Oklahoma,74104
22,Scattered Clouds,2016-09-14 03:53:00,68.0,,-,82,N/A,30.08,73.9,10:53 PM,,10.0,Calm,Calm,0,Tulsa,Oklahoma,74104
23,Partly Cloudy,2016-09-14 04:53:00,69.1,,-,85,N/A,30.10,73.9,11:53 PM,,10.0,Calm,Calm,0,Tulsa,Oklahoma,74104
0,Mostly Cloudy,2016-09-14 05:53:00,69.1,,-,85,N/A,30.09,73.9,12:53 AM,,10.0,Calm,Calm,0,Tulsa,Oklahoma,74104
1,Overcast,2016-09-14 06:53:00,69.1,,-,85,N/A,30.09,73.9,1:53 AM,,10.0,Calm,Calm,0,Tulsa,Oklahoma,74104
2,Clear,2016-09-14 07:53:00,69.1,,-,87,N/A,30.09,73.0,2:53 AM,,10.0,Calm,Calm,0,Tulsa,Oklahoma,74104
3,Partly Cloudy,2016-09-14 08:53:00,69.1,,-,91,N/A,30.11,72.0,3:53 AM,,10.0,Calm,Calm,0,Tulsa,Oklahoma,74104
4,Partly Cloudy,2016-09-14 09:53:00,69.1,,-,91,N/A,30.10,72.0,4:53 AM,,10.0,Calm,Calm,0,Tulsa,Oklahoma,74104
5,Partly Cloudy,2016-09-14 10:53:00,68.0,,-,90,N/A,30.10,71.1,5:53 AM,,9.0,Calm,Calm,0,Tulsa,Oklahoma,74104
6,Clear,2016-09-14 11:53:00,68.0,,-,93,N/A,30.12,70.0,6:53 AM,,7.0,Calm,Calm,0,Tulsa,Oklahoma,74104
7,Clear,2016-09-14 12:53:00,69.1,,-,87,N/A,30.14,73.0,7:53 AM,,10.0,Calm,Calm,0,Tulsa,Oklahoma,74104
8,Overcast,2016-09-14 13:53:00,69.1,,-,82,N/A,30.16,75.0,8:53 AM,,10.0,WSW,3.5,240,Tulsa,Oklahoma,74104
9,Clear,2016-09-14 14:53:00,69.1,,-,79,N/A,30.18,75.9,9:53 AM,,10.0,Variable,3.5,0,Tulsa,Oklahoma,74104
10,Clear,2016-09-14 15:53:00,69.1,,-,74,N/A,30.19,78.1,10:53 AM,,10.0,Variable,4.6,0,Tulsa,Oklahoma,74104
11,Mostly Cloudy,2016-09-14 16:53:00,69.1,,-,69,N/A,30.19,80.1,11:53 AM,,10.0,Variable,4.6,0,Tulsa,Oklahoma,74104
12,Clear,2016-09-14 17:53:00,69.1,,-,72,N/A,30.18,79.0,12:53 PM,,10.0,Variable,4.6,0,Tulsa,Oklahoma,74104
13,Clear,2016-09-14 18:53:00,70.0,,-,65,N/A,30.14,82.9,1:53 PM,,10.0,Variable,3.5,0,Tulsa,Oklahoma,74104
14,Clear,2016-09-14 19:53:00,70.0,,-,61,N/A,30.09,84.9,2:53 PM,,10.0,North,6.9,10,Tulsa,Oklahoma,74104
15,Clear,2016-09-14 20:53:00,70.0,,-,59,N/A,30.08,86.0,3:53 PM,,10.0,NNW,4.6,340,Tulsa,Oklahoma,74104
16,Clear,2016-09-14 21:53:00,70.0,,-,61,N/A,30.09,84.9,4:53 PM,,10.0,Calm,Calm,0,Tulsa,Oklahoma,74104
17,Scattered Clouds,2016-09-14 22:53:00,66.9,,-,64,N/A,30.10,80.1,5:53 PM,,10.0,SE,10.4,140,Tulsa,Oklahoma,74104
18,Clear,2016-09-14 23:53:00,66.0,,-,62,N/A,30.09,80.1,6:53 PM,,10.0,ESE,4.6,110,Tulsa,Oklahoma,74104
19,Clear,2016-09-15 00:53:00,68.0,,-,84,N/A,30.09,73.0,7:53 PM,,10.0,Calm,Calm,0,Tulsa,Oklahoma,74104
20,Clear,2016-09-15 01:53:00,68.0,,-,84,N/A,30.11,73.0,8:53 PM,,10.0,Calm,Calm,0,Tulsa,Oklahoma,74104
21,Clear,2016-09-15 02:53:00,68.0,,-,87,N/A,30.12,72.0,9:53 PM,,10.0,Calm,Calm,0,Tulsa,Oklahoma,74104
22,Clear,2016-09-15 03:53:00,66.9,,-,84,N/A,30.12,72.0,10:53 PM,,10.0,ESE,4.6,110,Tulsa,Oklahoma,74104
23,Clear,2016-09-15 04:53:00,66.9,,-,93,N/A,30.12,69.1,11:53 PM,,10.0,Calm,Calm,0,Tulsa,Oklahoma,74104
0,Clear,2016-09-15 05:53:00,66.9,,-,93,N/A,30.11,69.1,12:53 AM,,10.0,Calm,Calm,0,Tulsa,Oklahoma,74104
1,Clear,2016-09-15 06:53:00,66.9,,-,93,N/A,30.10,69.1,1:53 AM,,10.0,East,3.5,80,Tulsa,Oklahoma,74104
2,Clear,2016-09-15 07:53:00,66.9,,-,93,N/A,30.09,69.1,2:53 AM,,8.0,Calm,Calm,0,Tulsa,Oklahoma,74104
3,Clear,2016-09-15 08:53:00,66.0,,-,93,N/A,30.09,68.0,3:53 AM,,7.0,Calm,Calm,0,Tulsa,Oklahoma,74104
4,Clear,2016-09-15 09:53:00,66.0,,-,93,N/A,30.09,68.0,4:53 AM,,7.0,Calm,Calm,0,Tulsa,Oklahoma,74104
5,Clear,2016-09-15 10:53:00,66.0,,-,97,N/A,30.09,66.9,5:53 AM,,6.0,Calm,Calm,0,Tulsa,Oklahoma,74104
6,Scattered Clouds,2016-09-15 11:53:00,66.0,,-,93,N/A,30.10,68.0,6:53 AM,,8.0,Calm,Calm,0,Tulsa,Oklahoma,74104
7,Clear,2016-09-15 12:53:00,66.9,,-,93,N/A,30.12,69.1,7:53 AM,,8.0,Calm,Calm,0,Tulsa,Oklahoma,74104
8,Clear,2016-09-15 13:53:00,69.1,,-,87,N/A,30.11,73.0,8:53 AM,,10.0,SE,3.5,140,Tulsa,Oklahoma,74104
9,Mostly Cloudy,2016-09-15 14:53:00,69.1,,-,79,N/A,30.12,75.9,9:53 AM,,10.0,ESE,3.5,120,Tulsa,Oklahoma,74104
10,Mostly Cloudy,2016-09-15 15:53:00,70.0,,-,74,N/A,30.11,79.0,10:53 AM,,10.0,SSE,3.5,150,Tulsa,Oklahoma,74104
11,Mostly Cloudy,2016-09-15 16:53:00,71.1,,-,67,N/A,30.10,82.9,11:53 AM,,10.0,South,4.6,180,Tulsa,Oklahoma,74104
12,Partly Cloudy,2016-09-15 17:53:00,71.1,,-,63,N/A,30.07,84.9,12:53 PM,,10.0,Variable,3.5,0,Tulsa,Oklahoma,74104
13,Partly Cloudy,2016-09-15 18:53:00,71.1,,-,61,N/A,30.04,86.0,1:53 PM,,10.0,SSE,8.1,150,Tulsa,Oklahoma,74104
14,Thunderstorm,2016-09-15 19:22:00,71.1,Thunderstorm,-,59,N/A,30.01,87.1,2:22 PM,,10.0,South,6.9,170,Tulsa,Oklahoma,74104
15,Partly Cloudy,2016-09-15 19:50:00,71.6,Thunderstorm,19.6,62,N/A,30.00,86.0,2:50 PM,,10.0,SSE,12.7,150,Tulsa,Oklahoma,74104
16,Partly Cloudy,2016-09-15 19:53:00,72.0,Thunderstorm,19.6,65,N/A,30.01,84.9,2:53 PM,,10.0,South,13.8,170,Tulsa,Oklahoma,74104
17,Mostly Cloudy,2016-09-15 20:22:00,69.1,,-,63,N/A,30.00,82.9,3:22 PM,,10.0,SSE,9.2,160,Tulsa,Oklahoma,74104
18,Scattered Clouds,2016-09-15 20:29:00,70.0,Thunderstorm,-,67,N/A,30.00,82.0,3:29 PM,,10.0,SSE,10.4,150,Tulsa,Oklahoma,74104
19,Thunderstorm,2016-09-15 20:41:00,71.1,Thunderstorm,-,72,N/A,30.00,81.0,3:41 PM,,10.0,SE,9.2,140,Tulsa,Oklahoma,74104
20,Scattered Clouds,2016-09-15 20:53:00,69.1,Thunderstorm,-,67,N/A,30.01,81.0,3:53 PM,,10.0,SE,9.2,140,Tulsa,Oklahoma,74104
21,Light Rain,2016-09-15 21:42:00,72.0,Rain,-,84,0.00,29.99,77.0,4:42 PM,,10.0,SSW,3.5,210,Tulsa,Oklahoma,74104
22,Light Rain,2016-09-15 21:53:00,73.0,Rain,-,82,0.00,30.00,79.0,4:53 PM,,10.0,SSE,4.6,160,Tulsa,Oklahoma,74104
23,Clear,2016-09-15 22:53:00,72.0,,-,81,0.00,29.99,78.1,5:53 PM,,10.0,SSW,3.5,200,Tulsa,Oklahoma,74104
24,Clear,2016-09-15 23:53:00,70.0,,-,76,N/A,29.96,78.1,6:53 PM,,10.0,South,10.4,170,Tulsa,Oklahoma,74104
25,Clear,2016-09-16 00:53:00,70.0,,-,84,N/A,29.99,75.0,7:53 PM,,10.0,Calm,Calm,0,Tulsa,Oklahoma,74104
26,Clear,2016-09-16 01:53:00,70.0,,-,90,N/A,30.00,73.0,8:53 PM,,10.0,Calm,Calm,0,Tulsa,Oklahoma,74104
27,Clear,2016-09-16 02:53:00,69.1,,-,91,N/A,30.00,72.0,9:53 PM,,10.0,Calm,Calm,0,Tulsa,Oklahoma,74104
28,Clear,2016-09-16 03:53:00,69.1,,-,85,N/A,29.99,73.9,10:53 PM,,10.0,Calm,Calm,0,Tulsa,Oklahoma,74104
29,Clear,2016-09-16 04:53:00,69.1,,-,93,N/A,30.00,71.1,11:53 PM,,10.0,Calm,Calm,0,Tulsa,Oklahoma,74104
0,Clear,2016-09-16 05:53:00,68.0,,-,90,N/A,29.99,71.1,12:53 AM,,8.0,Calm,Calm,0,Tulsa,Oklahoma,74104
1,Clear,2016-09-16 06:53:00,68.0,,-,93,N/A,29.97,70.0,1:53 AM,,6.0,Calm,Calm,0,Tulsa,Oklahoma,74104
2,Clear,2016-09-16 07:53:00,68.0,,-,93,N/A,29.98,70.0,2:53 AM,,5.0,Calm,Calm,0,Tulsa,Oklahoma,74104
3,Clear,2016-09-16 08:53:00,66.9,,-,93,N/A,29.97,69.1,3:53 AM,,5.0,Calm,Calm,0,Tulsa,Oklahoma,74104
4,Clear,2016-09-16 09:45:00,66.9,,-,93,N/A,29.96,69.1,4:45 AM,,2.0,Calm,Calm,0,Tulsa,Oklahoma,74104
5,Clear,2016-09-16 09:53:00,66.9,,-,93,N/A,29.97,69.1,4:53 AM,,4.0,Calm,Calm,0,Tulsa,Oklahoma,74104
6,Clear,2016-09-16 10:53:00,68.0,,-,93,N/A,29.97,70.0,5:53 AM,,6.0,Calm,Calm,0,Tulsa,Oklahoma,74104
7,Clear,2016-09-16 11:53:00,69.1,,-,87,N/A,29.98,73.0,6:53 AM,,10.0,South,4.6,170,Tulsa,Oklahoma,74104
8,Clear,2016-09-16 12:53:00,70.0,,-,87,N/A,29.99,73.9,7:53 AM,,10.0,South,4.6,170,Tulsa,Oklahoma,74104
9,Clear,2016-09-16 13:53:00,70.0,,-,82,N/A,29.98,75.9,8:53 AM,,10.0,South,5.8,170,Tulsa,Oklahoma,74104
10,Clear,2016-09-16 14:53:00,71.1,,-,77,N/A,29.98,79.0,9:53 AM,,10.0,South,6.9,190,Tulsa,Oklahoma,74104
11,Mostly Cloudy,2016-09-16 15:53:00,71.1,,-,79,N/A,30.00,78.1,10:53 AM,,10.0,SSW,8.1,200,Tulsa,Oklahoma,74104
12,Light Rain,2016-09-16 16:17:00,72.0,Rain-Thunderstorm,-,87,0.00,29.98,75.9,11:17 AM,,7.0,Variable,5.8,0,Tulsa,Oklahoma,74104
13,Rain,2016-09-16 16:34:00,72.0,Rain,-,90,0.02,29.97,75.0,11:34 AM,,5.0,SW,5.8,220,Tulsa,Oklahoma,74104
14,Light Rain,2016-09-16 16:53:00,72.0,Rain,-,90,0.05,29.98,75.0,11:53 AM,,6.0,WSW,5.8,240,Tulsa,Oklahoma,74104
15,Light Rain,2016-09-16 17:06:00,72.0,Rain,-,87,0.00,29.97,75.9,12:06 PM,,7.0,WSW,3.5,240,Tulsa,Oklahoma,74104
16,Mostly Cloudy,2016-09-16 17:53:00,71.1,,-,82,0.00,29.98,77.0,12:53 PM,,10.0,Variable,4.6,0,Tulsa,Oklahoma,74104
17,Overcast,2016-09-16 18:53:00,69.1,,-,69,0.00,29.97,80.1,1:53 PM,,10.0,Variable,4.6,0,Tulsa,Oklahoma,74104
18,Overcast,2016-09-16 19:53:00,66.0,,-,64,N/A,29.96,79.0,2:53 PM,,10.0,NNE,4.6,20,Tulsa,Oklahoma,74104
19,Light Rain,2016-09-16 20:53:00,68.0,Rain,18.4,82,0.00,29.95,73.9,3:53 PM,,10.0,North,9.2,350,Tulsa,Oklahoma,74104
20,Overcast,2016-09-16 21:53:00,66.9,,19.6,81,0.00,29.96,73.0,4:53 PM,,10.0,North,13.8,10,Tulsa,Oklahoma,74104
21,Overcast,2016-09-16 22:32:00,66.9,,21.9,81,0.00,29.96,73.0,5:32 PM,,10.0,NE,16.1,40,Tulsa,Oklahoma,74104
22,Mostly Cloudy,2016-09-16 22:51:00,66.2,,23.0,78,0.00,29.96,73.4,5:51 PM,,10.0,NE,13.8,40,Tulsa,Oklahoma,74104
23,Mostly Cloudy,2016-09-16 22:53:00,66.0,,-,73,0.00,29.97,75.0,5:53 PM,,10.0,NE,10.4,50,Tulsa,Oklahoma,74104
24,Mostly Cloudy,2016-09-16 23:53:00,63.0,,-,75,N/A,29.99,71.1,6:53 PM,,10.0,ENE,13.8,60,Tulsa,Oklahoma,74104
25,Clear,2016-09-17 00:53:00,63.0,,-,81,N/A,29.99,69.1,7:53 PM,,10.0,ENE,8.1,70,Tulsa,Oklahoma,74104
26,Clear,2016-09-17 01:53:00,62.1,,-,81,N/A,30.00,68.0,8:53 PM,,10.0,ESE,5.8,110,Tulsa,Oklahoma,74104
27,Clear,2016-09-17 02:53:00,62.1,,-,87,N/A,30.01,66.0,9:53 PM,,10.0,Calm,Calm,0,Tulsa,Oklahoma,74104
28,Clear,2016-09-17 03:53:00,62.1,,-,93,N/A,30.01,64.0,10:53 PM,,10.0,Calm,Calm,0,Tulsa,Oklahoma,74104
29,Clear,2016-09-17 04:53:00,62.1,,-,93,N/A,30.01,64.0,11:53 PM,,10.0,Calm,Calm,0,Tulsa,Oklahoma,74104
0,Clear,2016-09-17 05:53:00,61.0,,-,93,N/A,30.03,63.0,12:53 AM,,10.0,Calm,Calm,0,Tulsa,Oklahoma,74104
1,Clear,2016-09-17 06:53:00,62.1,,-,90,N/A,30.04,64.9,1:53 AM,,10.0,Calm,Calm,0,Tulsa,Oklahoma,74104
2,Clear,2016-09-17 07:53:00,62.1,,-,93,N/A,30.03,64.0,2:53 AM,,10.0,NNE,5.8,30,Tulsa,Oklahoma,74104
3,Clear,2016-09-17 08:53:00,62.1,,-,93,N/A,30.03,64.0,3:53 AM,,10.0,Calm,Calm,0,Tulsa,Oklahoma,74104
4,Partly Cloudy,2016-09-17 09:48:00,60.8,,-,94,N/A,30.01,62.6,4:48 AM,,10.0,Calm,Calm,0,Tulsa,Oklahoma,74104
5,Partly Cloudy,2016-09-17 09:53:00,61.0,,-,93,N/A,30.03,63.0,4:53 AM,,10.0,Calm,Calm,0,Tulsa,Oklahoma,74104
6,Mostly Cloudy,2016-09-17 10:53:00,61.0,,-,93,N/A,30.04,63.0,5:53 AM,,10.0,North,3.5,10,Tulsa,Oklahoma,74104
7,Overcast,2016-09-17 11:14:00,62.1,,-,93,N/A,30.02,64.0,6:14 AM,,7.0,NNE,3.5,20,Tulsa,Oklahoma,74104
8,Overcast,2016-09-17 11:53:00,63.0,,-,96,N/A,30.05,64.0,6:53 AM,,5.0,NNE,5.8,20,Tulsa,Oklahoma,74104
9,Overcast,2016-09-17 12:53:00,62.1,,-,93,N/A,30.08,64.0,7:53 AM,,8.0,NNE,4.6,30,Tulsa,Oklahoma,74104
10,Mostly Cloudy,2016-09-17 13:43:00,63.0,,-,90,N/A,30.06,66.0,8:43 AM,,8.0,NNE,6.9,30,Tulsa,Oklahoma,74104
11,Scattered Clouds,2016-09-17 13:53:00,64.0,,-,90,N/A,30.08,66.9,8:53 AM,,10.0,NNE,5.8,30,Tulsa,Oklahoma,74104
12,Clear,2016-09-17 14:53:00,64.0,,-,76,N/A,30.09,72.0,9:53 AM,,10.0,North,5.8,360,Tulsa,Oklahoma,74104
13,Clear,2016-09-17 15:53:00,64.0,,-,64,N/A,30.09,77.0,10:53 AM,,10.0,Calm,Calm,0,Tulsa,Oklahoma,74104
14,Clear,2016-09-17 16:53:00,63.0,,-,54,N/A,30.08,81.0,11:53 AM,,10.0,Calm,Calm,0,Tulsa,Oklahoma,74104
15,Clear,2016-09-17 17:53:00,61.0,,-,47,N/A,30.07,82.9,12:53 PM,,10.0,Calm,Calm,0,Tulsa,Oklahoma,74104
16,Clear,2016-09-17 18:53:00,63.0,,-,48,N/A,30.05,84.9,1:53 PM,,10.0,NNE,6.9,30,Tulsa,Oklahoma,74104
17,Clear,2016-09-17 19:53:00,64.0,,-,46,N/A,30.02,87.1,2:53 PM,,10.0,Variable,4.6,0,Tulsa,Oklahoma,74104
18,Clear,2016-09-17 20:53:00,64.9,,-,48,N/A,30.00,87.1,3:53 PM,,10.0,Variable,3.5,0,Tulsa,Oklahoma,74104
19,Scattered Clouds,2016-09-17 21:53:00,64.0,,-,48,N/A,29.99,86.0,4:53 PM,,10.0,ESE,3.5,120,Tulsa,Oklahoma,74104
20,Partly Cloudy,2016-09-17 22:53:00,68.0,,-,65,N/A,29.98,81.0,5:53 PM,,10.0,Calm,Calm,0,Tulsa,Oklahoma,74104
21,Clear,2016-09-17 23:53:00,66.0,,-,62,N/A,30.00,80.1,6:53 PM,,10.0,North,4.6,360,Tulsa,Oklahoma,74104
22,Light Rain,2016-09-18 00:53:00,66.9,Rain,-,74,0.00,30.03,75.9,7:53 PM,,10.0,NW,3.5,310,Tulsa,Oklahoma,74104
23,Partly Cloudy,2016-09-18 01:53:00,70.0,,-,90,0.01,30.00,73.0,8:53 PM,,10.0,Calm,Calm,0,Tulsa,Oklahoma,74104
24,Clear,2016-09-18 02:53:00,68.0,,-,76,N/A,30.01,75.9,9:53 PM,,10.0,South,4.6,170,Tulsa,Oklahoma,74104
25,Clear,2016-09-18 03:53:00,68.0,,-,93,N/A,30.02,70.0,10:53 PM,,10.0,Calm,Calm,0,Tulsa,Oklahoma,74104
26,Clear,2016-09-18 04:53:00,66.0,,-,93,N/A,30.03,68.0,11:53 PM,,10.0,Calm,Calm,0,Tulsa,Oklahoma,74104
0,Clear,2016-09-18 05:53:00,64.9,,-,93,N/A,30.01,66.9,12:53 AM,,9.0,Calm,Calm,0,Tulsa,Oklahoma,74104
1,Clear,2016-09-18 06:53:00,64.9,,-,93,N/A,29.99,66.9,1:53 AM,,7.0,Calm,Calm,0,Tulsa,Oklahoma,74104
2,Clear,2016-09-18 07:53:00,64.9,,-,93,N/A,29.98,66.9,2:53 AM,,9.0,Calm,Calm,0,Tulsa,Oklahoma,74104
3,Clear,2016-09-18 08:53:00,64.9,,-,93,N/A,29.97,66.9,3:53 AM,,7.0,Calm,Calm,0,Tulsa,Oklahoma,74104
4,Partly Cloudy,2016-09-18 09:53:00,66.0,,-,93,N/A,29.98,68.0,4:53 AM,,10.0,SW,6.9,230,Tulsa,Oklahoma,74104
5,Light Rain,2016-09-18 10:53:00,66.0,Rain,18.4,87,0.00,29.96,70.0,5:53 AM,,10.0,NNE,8.1,20,Tulsa,Oklahoma,74104
6,Light Rain,2016-09-18 11:12:00,66.0,Rain,-,84,0.00,29.93,71.1,6:12 AM,,10.0,ENE,8.1,60,Tulsa,Oklahoma,74104
7,Clear,2016-09-18 11:53:00,66.0,,-,87,0.00,29.95,70.0,6:53 AM,,10.0,North,4.6,10,Tulsa,Oklahoma,74104
8,Clear,2016-09-18 12:53:00,66.0,,-,93,N/A,29.98,68.0,7:53 AM,,10.0,Calm,Calm,0,Tulsa,Oklahoma,74104
9,Clear,2016-09-18 13:53:00,66.9,,-,84,N/A,30.01,72.0,8:53 AM,,10.0,Calm,Calm,0,Tulsa,Oklahoma,74104
10,Clear,2016-09-18 14:53:00,64.0,,-,64,N/A,30.01,77.0,9:53 AM,,10.0,Calm,Calm,0,Tulsa,Oklahoma,74104
11,Clear,2016-09-18 15:53:00,62.1,,-,56,N/A,30.02,79.0,10:53 AM,,10.0,South,5.8,190,Tulsa,Oklahoma,74104
12,Clear,2016-09-18 16:53:00,62.1,,-,49,N/A,30.01,82.9,11:53 AM,,10.0,SSW,6.9,200,Tulsa,Oklahoma,74104
13,Clear,2016-09-18 17:53:00,63.0,,-,48,N/A,29.98,84.9,12:53 PM,,10.0,South,6.9,170,Tulsa,Oklahoma,74104
14,Partly Cloudy,2016-09-18 18:53:00,64.0,,-,45,N/A,29.96,88.0,1:53 PM,,10.0,Variable,6.9,0,Tulsa,Oklahoma,74104
15,Clear,2016-09-18 19:53:00,62.1,,-,39,N/A,29.94,90.0,2:53 PM,,10.0,South,5.8,170,Tulsa,Oklahoma,74104
16,Mostly Cloudy,2016-09-18 20:53:00,63.0,,-,39,N/A,29.92,91.0,3:53 PM,,10.0,SSW,8.1,210,Tulsa,Oklahoma,74104
17,Clear,2016-09-18 21:53:00,63.0,,-,39,N/A,29.91,91.0,4:53 PM,,10.0,Calm,Calm,0,Tulsa,Oklahoma,74104
18,Clear,2016-09-18 22:53:00,64.0,,-,42,N/A,29.90,90.0,5:53 PM,,10.0,SW,4.6,220,Tulsa,Oklahoma,74104
19,Clear,2016-09-18 23:53:00,66.9,,-,64,N/A,29.91,80.1,6:53 PM,,10.0,SSW,3.5,210,Tulsa,Oklahoma,74104
20,Clear,2016-09-19 00:53:00,68.0,,-,74,N/A,29.92,77.0,7:53 PM,,10.0,Calm,Calm,0,Tulsa,Oklahoma,74104
21,Clear,2016-09-19 01:53:00,68.0,,-,82,N/A,29.94,73.9,8:53 PM,,10.0,Calm,Calm,0,Tulsa,Oklahoma,74104
22,Clear,2016-09-19 02:53:00,68.0,,-,84,N/A,29.97,73.0,9:53 PM,,10.0,Calm,Calm,0,Tulsa,Oklahoma,74104
23,Clear,2016-09-19 03:53:00,68.0,,-,84,N/A,29.97,73.0,10:53 PM,,10.0,Calm,Calm,0,Tulsa,Oklahoma,74104
24,Overcast,2016-09-19 04:53:00,66.9,,-,68,N/A,29.98,78.1,11:53 PM,,10.0,Calm,Calm,0,Tulsa,Oklahoma,74104
0,Partly Cloudy,2016-09-19 05:53:00,68.0,,-,87,N/A,29.99,72.0,12:53 AM,,10.0,Calm,Calm,0,Tulsa,Oklahoma,74104
1,Scattered Clouds,2016-09-19 06:53:00,68.0,,-,87,N/A,29.98,72.0,1:53 AM,,10.0,SE,3.5,140,Tulsa,Oklahoma,74104
2,Clear,2016-09-19 07:53:00,69.1,,-,82,N/A,29.98,75.0,2:53 AM,,10.0,South,4.6,170,Tulsa,Oklahoma,74104
3,Clear,2016-09-19 08:53:00,68.0,,-,90,N/A,29.99,71.1,3:53 AM,,10.0,Calm,Calm,0,Tulsa,Oklahoma,74104
4,Clear,2016-09-19 09:53:00,68.0,,-,84,N/A,29.99,73.0,4:53 AM,,10.0,South,4.6,170,Tulsa,Oklahoma,74104
5,Clear,2016-09-19 10:53:00,66.9,,-,93,N/A,30.00,69.1,5:53 AM,,10.0,Calm,Calm,0,Tulsa,Oklahoma,74104
6,Clear,2016-09-19 11:53:00,68.0,,-,87,N/A,30.01,72.0,6:53 AM,,10.0,Variable,3.5,0,Tulsa,Oklahoma,74104
7,Clear,2016-09-19 12:53:00,69.1,,-,87,N/A,30.03,73.0,7:53 AM,,10.0,South,3.5,170,Tulsa,Oklahoma,74104
8,Clear,2016-09-19 13:53:00,70.0,,-,79,N/A,30.04,77.0,8:53 AM,,10.0,South,8.1,170,Tulsa,Oklahoma,74104
9,Clear,2016-09-19 14:53:00,71.1,,-,72,N/A,30.04,81.0,9:53 AM,,10.0,South,8.1,180,Tulsa,Oklahoma,74104
10,Clear,2016-09-19 15:53:00,72.0,,-,63,N/A,30.04,86.0,10:53 AM,,10.0,South,8.1,180,Tulsa,Oklahoma,74104
11,Clear,2016-09-19 16:53:00,73.0,,-,57,N/A,30.02,90.0,11:53 AM,,10.0,South,8.1,170,Tulsa,Oklahoma,74104
12,Clear,2016-09-19 17:53:00,72.0,,-,50,N/A,30.01,93.0,12:53 PM,,10.0,South,6.9,180,Tulsa,Oklahoma,74104
13,Clear,2016-09-19 18:53:00,71.1,,-,46,N/A,30.00,95.0,1:53 PM,,10.0,SSW,4.6,200,Tulsa,Oklahoma,74104
14,Clear,2016-09-19 19:53:00,70.0,,-,43,N/A,29.98,96.1,2:53 PM,,10.0,SW,5.8,230,Tulsa,Oklahoma,74104
15,Clear,2016-09-19 20:53:00,70.0,,-,41,N/A,29.97,97.0,3:53 PM,,10.0,Variable,4.6,0,Tulsa,Oklahoma,74104
16,Clear,2016-09-19 21:53:00,73.9,,-,61,N/A,29.97,89.1,4:53 PM,,10.0,Calm,Calm,0,Tulsa,Oklahoma,74104
17,Clear,2016-09-19 22:53:00,71.1,,-,49,N/A,29.97,93.0,5:53 PM,,10.0,ESE,9.2,120,Tulsa,Oklahoma,74104
18,Clear,2016-09-19 23:53:00,70.0,,-,48,N/A,29.98,91.9,6:53 PM,,10.0,SE,9.2,130,Tulsa,Oklahoma,74104
19,Clear,2016-09-20 00:53:00,70.0,,-,53,N/A,29.99,89.1,7:53 PM,,10.0,SSE,3.5,150,Tulsa,Oklahoma,74104
20,Clear,2016-09-20 01:53:00,72.0,,-,61,N/A,30.00,87.1,8:53 PM,,10.0,SSE,4.6,160,Tulsa,Oklahoma,74104
21,Clear,2016-09-20 02:53:00,73.0,,-,77,N/A,30.02,81.0,9:53 PM,,10.0,South,3.5,170,Tulsa,Oklahoma,74104
22,Clear,2016-09-20 03:53:00,73.0,,-,72,N/A,30.04,82.9,10:53 PM,,10.0,South,4.6,180,Tulsa,Oklahoma,74104
23,Clear,2016-09-20 04:53:00,73.0,,-,72,N/A,30.05,82.9,11:53 PM,,10.0,South,4.6,170,Tulsa,Oklahoma,74104
0,Clear,2016-09-20 05:53:00,73.0,,-,74,N/A,30.05,82.0,12:53 AM,,10.0,South,5.8,170,Tulsa,Oklahoma,74104
1,Clear,2016-09-20 06:53:00,73.9,,-,79,N/A,30.06,81.0,1:53 AM,,10.0,SSE,4.6,160,Tulsa,Oklahoma,74104
2,Clear,2016-09-20 07:53:00,73.9,,-,81,N/A,30.06,80.1,2:53 AM,,10.0,South,3.5,170,Tulsa,Oklahoma,74104
3,Clear,2016-09-20 08:53:00,73.9,,-,90,N/A,30.06,77.0,3:53 AM,,10.0,South,3.5,170,Tulsa,Oklahoma,74104
4,Clear,2016-09-20 09:53:00,72.0,,-,93,N/A,30.08,73.9,4:53 AM,,3.0,Calm,Calm,0,Tulsa,Oklahoma,74104
5,Clear,2016-09-20 10:18:00,72.0,,-,93,N/A,30.08,73.9,5:18 AM,,2.5,Calm,Calm,0,Tulsa,Oklahoma,74104
6,Clear,2016-09-20 10:28:00,72.0,,-,93,N/A,30.08,73.9,5:28 AM,,6.0,Calm,Calm,0,Tulsa,Oklahoma,74104
7,Clear,2016-09-20 10:53:00,73.9,,-,90,N/A,30.10,77.0,5:53 AM,,9.0,SSE,3.5,150,Tulsa,Oklahoma,74104
8,Clear,2016-09-20 11:53:00,73.0,,-,94,N/A,30.09,75.0,6:53 AM,,4.0,Calm,Calm,0,Tulsa,Oklahoma,74104
9,Clear,2016-09-20 12:12:00,72.0,,-,93,N/A,30.09,73.9,7:12 AM,,1.8,Calm,Calm,0,Tulsa,Oklahoma,74104
10,Clear,2016-09-20 12:29:00,73.0,,-,94,N/A,30.09,75.0,7:29 AM,,4.0,Calm,Calm,0,Tulsa,Oklahoma,74104
11,Clear,2016-09-20 12:53:00,73.9,,-,90,N/A,30.11,77.0,7:53 AM,,6.0,South,3.5,170,Tulsa,Oklahoma,74104
12,Clear,2016-09-20 14:53:00,75.0,,-,74,N/A,30.12,84.0,9:53 AM,,10.0,South,6.9,180,Tulsa,Oklahoma,74104
13,Clear,2016-09-20 15:53:00,75.0,,-,67,N/A,30.12,87.1,10:53 AM,,10.0,Variable,3.5,0,Tulsa,Oklahoma,74104
14,Clear,2016-09-20 16:53:00,73.9,,-,57,N/A,30.10,91.0,11:53 AM,,10.0,SSW,8.1,200,Tulsa,Oklahoma,74104
15,Clear,2016-09-20 17:53:00,72.0,,-,49,N/A,30.08,93.9,12:53 PM,,10.0,South,8.1,190,Tulsa,Oklahoma,74104
16,Clear,2016-09-20 18:53:00,70.0,,-,44,N/A,30.06,95.0,1:53 PM,,10.0,South,6.9,190,Tulsa,Oklahoma,74104
17,Partly Cloudy,2016-09-20 19:53:00,69.1,,-,39,N/A,30.03,98.1,2:53 PM,,10.0,Variable,4.6,0,Tulsa,Oklahoma,74104
18,Clear,2016-09-20 20:53:00,66.9,,-,38,N/A,30.02,96.1,3:53 PM,,10.0,South,6.9,180,Tulsa,Oklahoma,74104
19,Clear,2016-09-20 21:53:00,66.9,,-,37,N/A,30.01,97.0,4:53 PM,,10.0,South,6.9,170,Tulsa,Oklahoma,74104
20,Clear,2016-09-20 22:53:00,68.0,,-,40,N/A,30.01,96.1,5:53 PM,,10.0,South,6.9,170,Tulsa,Oklahoma,74104
21,Partly Cloudy,2016-09-20 23:53:00,68.0,,-,44,N/A,30.01,93.0,6:53 PM,,10.0,South,5.8,170,Tulsa,Oklahoma,74104
22,Clear,2016-09-21 00:53:00,70.0,,-,52,N/A,30.01,90.0,7:53 PM,,10.0,SSE,4.6,150,Tulsa,Oklahoma,74104
23,Clear,2016-09-21 01:53:00,71.1,,-,59,N/A,30.03,87.1,8:53 PM,,10.0,SSE,5.8,150,Tulsa,Oklahoma,74104
24,Clear,2016-09-21 02:53:00,71.1,,-,61,N/A,30.06,86.0,9:53 PM,,10.0,SSE,5.8,160,Tulsa,Oklahoma,74104
25,Clear,2016-09-21 03:53:00,71.1,,-,65,N/A,30.06,84.0,10:53 PM,,10.0,South,4.6,170,Tulsa,Oklahoma,74104
26,Clear,2016-09-21 04:53:00,71.1,,-,67,N/A,30.06,82.9,11:53 PM,,10.0,South,6.9,170,Tulsa,Oklahoma,74104
0,Clear,2016-09-21 05:53:00,71.1,,-,69,N/A,30.06,82.0,12:53 AM,,10.0,South,4.6,170,Tulsa,Oklahoma,74104
1,Clear,2016-09-21 06:53:00,72.0,,-,76,N/A,30.06,80.1,1:53 AM,,10.0,Variable,3.5,0,Tulsa,Oklahoma,74104
2,Clear,2016-09-21 07:53:00,71.1,,-,87,N/A,30.06,75.0,2:53 AM,,10.0,Calm,Calm,0,Tulsa,Oklahoma,74104
3,Clear,2016-09-21 08:53:00,72.0,,-,84,N/A,30.07,77.0,3:53 AM,,10.0,Calm,Calm,0,Tulsa,Oklahoma,74104
4,Clear,2016-09-21 09:53:00,71.1,,-,93,N/A,30.07,73.0,4:53 AM,,6.0,Calm,Calm,0,Tulsa,Oklahoma,74104
5,Clear,2016-09-21 10:53:00,72.0,,-,87,N/A,30.08,75.9,5:53 AM,,9.0,South,4.6,180,Tulsa,Oklahoma,74104
6,Clear,2016-09-21 11:53:00,71.1,,-,87,N/A,30.08,75.0,6:53 AM,,8.0,SSE,3.5,160,Tulsa,Oklahoma,74104
7,Clear,2016-09-21 12:30:00,69.1,,-,93,N/A,30.08,71.1,7:30 AM,,2.5,Calm,Calm,0,Tulsa,Oklahoma,74104
8,Clear,2016-09-21 12:42:00,70.0,,-,93,N/A,30.08,72.0,7:42 AM,,3.0,Calm,Calm,0,Tulsa,Oklahoma,74104
9,Clear,2016-09-21 12:53:00,70.0,,-,90,N/A,30.09,73.0,7:53 AM,,4.0,South,3.5,170,Tulsa,Oklahoma,74104
10,Clear,2016-09-21 13:53:00,70.0,,-,79,N/A,30.10,77.0,8:53 AM,,10.0,South,6.9,170,Tulsa,Oklahoma,74104
11,Clear,2016-09-21 14:53:00,69.1,,-,67,N/A,30.10,81.0,9:53 AM,,10.0,South,10.4,190,Tulsa,Oklahoma,74104
12,Clear,2016-09-21 15:53:00,66.9,,-,55,N/A,30.10,84.9,10:53 AM,,10.0,South,11.5,180,Tulsa,Oklahoma,74104
13,Clear,2016-09-21 16:53:00,66.9,,-,51,N/A,30.09,87.1,11:53 AM,,10.0,SW,9.2,220,Tulsa,Oklahoma,74104
14,Clear,2016-09-21 17:53:00,66.0,,-,45,N/A,30.07,90.0,12:53 PM,,10.0,SSE,9.2,160,Tulsa,Oklahoma,74104
15,Clear,2016-09-21 18:53:00,64.0,,-,42,N/A,30.06,90.0,1:53 PM,,10.0,SSW,4.6,210,Tulsa,Oklahoma,74104
16,Clear,2016-09-21 19:53:00,64.0,,-,38,N/A,30.03,93.0,2:53 PM,,10.0,South,9.2,170,Tulsa,Oklahoma,74104
17,Clear,2016-09-21 20:53:00,63.0,,-,38,N/A,30.02,91.9,3:53 PM,,10.0,Variable,3.5,0,Tulsa,Oklahoma,74104
18,Clear,2016-09-21 21:53:00,62.1,,-,36,N/A,30.01,93.0,4:53 PM,,10.0,SSE,9.2,150,Tulsa,Oklahoma,74104
19,Clear,2016-09-21 22:53:00,62.1,,-,37,N/A,30.00,91.9,5:53 PM,,10.0,South,9.2,170,Tulsa,Oklahoma,74104
20,Clear,2016-09-21 23:53:00,61.0,,-,39,N/A,30.01,89.1,6:53 PM,,10.0,South,6.9,170,Tulsa,Oklahoma,74104
21,Clear,2016-09-22 00:53:00,62.1,,-,46,N/A,30.02,84.9,7:53 PM,,10.0,SSE,4.6,160,Tulsa,Oklahoma,74104
22,Clear,2016-09-22 01:53:00,64.0,,-,53,N/A,30.02,82.9,8:53 PM,,10.0,SSE,3.5,160,Tulsa,Oklahoma,74104
23,Clear,2016-09-22 02:53:00,66.0,,-,81,N/A,30.04,72.0,9:53 PM,,10.0,Calm,Calm,0,Tulsa,Oklahoma,74104
24,Clear,2016-09-22 03:53:00,66.0,,-,87,N/A,30.02,70.0,10:53 PM,,10.0,Calm,Calm,0,Tulsa,Oklahoma,74104
25,Clear,2016-09-22 04:53:00,66.0,,-,84,N/A,30.02,71.1,11:53 PM,,10.0,South,3.5,180,Tulsa,Oklahoma,74104
0,Clear,2016-09-22 05:53:00,64.9,,-,87,N/A,30.02,69.1,12:53 AM,,10.0,Calm,Calm,0,Tulsa,Oklahoma,74104
1,Clear,2016-09-22 06:53:00,64.9,,-,90,N/A,30.02,68.0,1:53 AM,,10.0,Calm,Calm,0,Tulsa,Oklahoma,74104
2,Clear,2016-09-22 07:53:00,64.9,,-,93,N/A,30.01,66.9,2:53 AM,,8.0,Calm,Calm,0,Tulsa,Oklahoma,74104
3,Clear,2016-09-22 08:53:00,66.0,,-,97,N/A,30.02,66.9,3:53 AM,,7.0,Calm,Calm,0,Tulsa,Oklahoma,74104
4,Clear,2016-09-22 09:53:00,64.0,,-,93,N/A,30.02,66.0,4:53 AM,,5.0,Calm,Calm,0,Tulsa,Oklahoma,74104
5,Clear,2016-09-22 10:53:00,64.9,,-,96,N/A,30.02,66.0,5:53 AM,,4.0,Calm,Calm,0,Tulsa,Oklahoma,74104
6,Clear,2016-09-22 11:53:00,64.0,,-,93,N/A,30.03,66.0,6:53 AM,,4.0,Calm,Calm,0,Tulsa,Oklahoma,74104
7,Clear,2016-09-22 12:09:00,64.0,,-,97,N/A,30.02,64.9,7:09 AM,,2.0,Calm,Calm,0,Tulsa,Oklahoma,74104
8,Clear,2016-09-22 12:23:00,64.0,,-,97,N/A,30.03,64.9,7:23 AM,,10.0,Calm,Calm,0,Tulsa,Oklahoma,74104
9,Clear,2016-09-22 12:53:00,64.9,,-,93,N/A,30.04,66.9,7:53 AM,,10.0,Calm,Calm,0,Tulsa,Oklahoma,74104
10,Clear,2016-09-22 13:53:00,66.0,,-,79,N/A,30.05,73.0,8:53 AM,,10.0,SW,3.5,220,Tulsa,Oklahoma,74104
11,Clear,2016-09-22 14:53:00,64.0,,-,58,N/A,30.05,80.1,9:53 AM,,10.0,South,9.2,190,Tulsa,Oklahoma,74104
12,Clear,2016-09-22 15:53:00,63.0,,-,48,N/A,30.05,84.9,10:53 AM,,10.0,South,9.2,180,Tulsa,Oklahoma,74104
13,Clear,2016-09-22 16:53:00,63.0,,-,43,N/A,30.04,88.0,11:53 AM,,10.0,South,11.5,190,Tulsa,Oklahoma,74104
14,Clear,2016-09-22 17:53:00,63.0,,-,40,N/A,30.02,90.0,12:53 PM,,10.0,SW,10.4,230,Tulsa,Oklahoma,74104
15,Clear,2016-09-22 18:53:00,61.0,,-,35,N/A,30.00,91.9,1:53 PM,,10.0,South,6.9,180,Tulsa,Oklahoma,74104
16,Clear,2016-09-22 19:53:00,61.0,,-,34,N/A,29.98,93.0,2:53 PM,,10.0,SSW,9.2,200,Tulsa,Oklahoma,74104
17,Clear,2016-09-22 20:53:00,61.0,,16.1,34,N/A,29.96,93.0,3:53 PM,,10.0,SSW,6.9,200,Tulsa,Oklahoma,74104
18,Clear,2016-09-22 21:53:00,60.1,,-,34,N/A,29.94,91.9,4:53 PM,,10.0,Variable,6.9,0,Tulsa,Oklahoma,74104
19,Clear,2016-09-22 22:53:00,55.9,,-,30,N/A,29.94,91.9,5:53 PM,,10.0,South,9.2,170,Tulsa,Oklahoma,74104
20,Clear,2016-09-22 23:53:00,57.0,,-,34,N/A,29.94,89.1,6:53 PM,,10.0,South,8.1,170,Tulsa,Oklahoma,74104
21,Clear,2016-09-23 00:53:00,61.0,,-,44,N/A,29.95,84.9,7:53 PM,,10.0,SSE,6.9,150,Tulsa,Oklahoma,74104
22,Clear,2016-09-23 01:53:00,63.0,,-,52,N/A,29.96,82.0,8:53 PM,,10.0,SSE,5.8,160,Tulsa,Oklahoma,74104
23,Clear,2016-09-23 02:53:00,64.0,,-,67,N/A,29.97,75.9,9:53 PM,,10.0,South,5.8,180,Tulsa,Oklahoma,74104
24,Clear,2016-09-23 03:53:00,64.0,,-,71,N/A,29.98,73.9,10:53 PM,,10.0,SSW,3.5,200,Tulsa,Oklahoma,74104
25,Clear,2016-09-23 04:53:00,64.0,,-,73,N/A,29.99,73.0,11:53 PM,,10.0,Calm,Calm,0,Tulsa,Oklahoma,74104
0,Clear,2016-09-23 05:53:00,64.0,,-,84,N/A,29.99,69.1,12:53 AM,,10.0,Calm,Calm,0,Tulsa,Oklahoma,74104
1,Clear,2016-09-23 06:53:00,64.0,,-,87,N/A,29.99,68.0,1:53 AM,,10.0,Calm,Calm,0,Tulsa,Oklahoma,74104
2,Clear,2016-09-23 07:53:00,64.9,,-,90,N/A,30.00,68.0,2:53 AM,,10.0,Calm,Calm,0,Tulsa,Oklahoma,74104
3,Clear,2016-09-23 08:53:00,64.0,,-,90,N/A,29.99,66.9,3:53 AM,,8.0,Calm,Calm,0,Tulsa,Oklahoma,74104
4,Clear,2016-09-23 09:53:00,63.0,,-,90,N/A,30.01,66.0,4:53 AM,,7.0,Calm,Calm,0,Tulsa,Oklahoma,74104
5,Clear,2016-09-23 10:53:00,63.0,,-,93,N/A,30.02,64.9,5:53 AM,,6.0,Calm,Calm,0,Tulsa,Oklahoma,74104
6,Clear,2016-09-23 11:53:00,63.0,,-,90,N/A,30.03,66.0,6:53 AM,,8.0,Calm,Calm,0,Tulsa,Oklahoma,74104
7,Clear,2016-09-23 12:53:00,64.9,,-,93,N/A,30.04,66.9,7:53 AM,,6.0,Calm,Calm,0,Tulsa,Oklahoma,74104
8,Clear,2016-09-23 13:53:00,66.0,,-,79,N/A,30.04,73.0,8:53 AM,,10.0,South,5.8,180,Tulsa,Oklahoma,74104
9,Clear,2016-09-23 14:53:00,64.9,,-,62,N/A,30.05,79.0,9:53 AM,,10.0,South,6.9,180,Tulsa,Oklahoma,74104
10,Clear,2016-09-23 15:53:00,66.0,,-,55,N/A,30.05,84.0,10:53 AM,,10.0,South,5.8,190,Tulsa,Oklahoma,74104
11,Clear,2016-09-23 16:53:00,68.0,,-,53,N/A,30.03,87.1,11:53 AM,,10.0,South,8.1,180,Tulsa,Oklahoma,74104
12,Scattered Clouds,2016-09-23 17:53:00,64.0,,18.4,43,N/A,30.01,89.1,12:53 PM,,10.0,South,11.5,170,Tulsa,Oklahoma,74104
13,Scattered Clouds,2016-09-23 18:53:00,64.9,,18.4,39,N/A,29.99,93.0,1:53 PM,,10.0,SSE,11.5,160,Tulsa,Oklahoma,74104
14,Scattered Clouds,2016-09-23 19:53:00,62.1,,-,38,N/A,29.95,91.0,2:53 PM,,10.0,SSE,9.2,150,Tulsa,Oklahoma,74104
15,Mostly Cloudy,2016-09-23 20:53:00,64.9,,17.3,41,N/A,29.94,91.9,3:53 PM,,10.0,South,11.5,170,Tulsa,Oklahoma,74104
16,Scattered Clouds,2016-09-23 21:53:00,66.0,,-,42,N/A,29.93,91.9,4:53 PM,,10.0,South,13.8,170,Tulsa,Oklahoma,74104
17,Scattered Clouds,2016-09-23 22:53:00,66.0,,19.6,45,N/A,29.93,90.0,5:53 PM,,10.0,SSE,10.4,160,Tulsa,Oklahoma,74104
18,Clear,2016-09-23 23:53:00,66.9,,-,48,N/A,29.93,89.1,6:53 PM,,10.0,SSE,6.9,160,Tulsa,Oklahoma,74104
19,Clear,2016-09-24 00:53:00,66.0,,-,49,N/A,29.94,87.1,7:53 PM,,10.0,SSE,6.9,160,Tulsa,Oklahoma,74104
20,Partly Cloudy,2016-09-24 01:53:00,66.0,,-,55,N/A,29.96,84.0,8:53 PM,,10.0,SSE,3.5,150,Tulsa,Oklahoma,74104
21,Clear,2016-09-24 02:53:00,68.0,,-,62,N/A,29.96,82.0,9:53 PM,,10.0,Variable,3.5,0,Tulsa,Oklahoma,74104
22,Clear,2016-09-24 03:53:00,68.0,,-,65,N/A,29.96,81.0,10:53 PM,,10.0,SSE,5.8,160,Tulsa,Oklahoma,74104
23,Clear,2016-09-24 04:53:00,69.1,,-,69,N/A,29.97,80.1,11:53 PM,,10.0,SSE,5.8,160,Tulsa,Oklahoma,74104
0,Clear,2016-09-24 05:53:00,69.1,,-,72,N/A,29.97,79.0,12:53 AM,,10.0,South,4.6,170,Tulsa,Oklahoma,74104
1,Clear,2016-09-24 06:53:00,69.1,,-,74,N/A,29.97,78.1,1:53 AM,,10.0,South,5.8,180,Tulsa,Oklahoma,74104
2,Clear,2016-09-24 07:53:00,69.1,,-,76,N/A,29.98,77.0,2:53 AM,,10.0,South,3.5,190,Tulsa,Oklahoma,74104
3,Clear,2016-09-24 08:53:00,70.0,,-,82,N/A,29.98,75.9,3:53 AM,,10.0,South,4.6,170,Tulsa,Oklahoma,74104
4,Clear,2016-09-24 09:53:00,70.0,,-,82,N/A,29.99,75.9,4:53 AM,,10.0,South,4.6,170,Tulsa,Oklahoma,74104
5,Clear,2016-09-24 10:53:00,70.0,,-,84,N/A,30.00,75.0,5:53 AM,,10.0,SSE,5.8,160,Tulsa,Oklahoma,74104
6,Clear,2016-09-24 11:53:00,69.1,,-,82,N/A,30.01,75.0,6:53 AM,,10.0,South,4.6,180,Tulsa,Oklahoma,74104
7,Clear,2016-09-24 12:53:00,70.0,,-,82,N/A,30.03,75.9,7:53 AM,,10.0,SSE,5.8,160,Tulsa,Oklahoma,74104
8,Clear,2016-09-24 13:53:00,70.0,,-,76,N/A,30.03,78.1,8:53 AM,,10.0,South,6.9,170,Tulsa,Oklahoma,74104
9,Partly Cloudy,2016-09-24 14:53:00,71.1,,-,67,N/A,30.03,82.9,9:53 AM,,10.0,South,9.2,180,Tulsa,Oklahoma,74104
10,Partly Cloudy,2016-09-24 15:53:00,70.0,,-,59,N/A,30.03,86.0,10:53 AM,,10.0,SSW,12.7,200,Tulsa,Oklahoma,74104
11,Partly Cloudy,2016-09-24 16:53:00,69.1,,20.7,52,N/A,30.02,89.1,11:53 AM,,10.0,South,15.0,170,Tulsa,Oklahoma,74104
12,Scattered Clouds,2016-09-24 17:53:00,68.0,,21.9,48,N/A,30.01,90.0,12:53 PM,,10.0,South,16.1,190,Tulsa,Oklahoma,74104
13,Mostly Cloudy,2016-09-24 18:53:00,68.0,,21.9,45,N/A,29.98,91.9,1:53 PM,,10.0,South,12.7,170,Tulsa,Oklahoma,74104
14,Mostly Cloudy,2016-09-24 19:53:00,66.9,,23.0,44,N/A,29.95,91.9,2:53 PM,,10.0,South,13.8,180,Tulsa,Oklahoma,74104
15,Scattered Clouds,2016-09-24 20:53:00,66.0,,24.2,42,N/A,29.92,91.9,3:53 PM,,10.0,South,18.4,170,Tulsa,Oklahoma,74104
16,Clear,2016-09-24 21:53:00,66.0,,24.2,44,N/A,29.90,91.0,4:53 PM,,10.0,South,17.3,170,Tulsa,Oklahoma,74104
17,Clear,2016-09-24 22:53:00,64.9,,23.0,42,N/A,29.89,91.0,5:53 PM,,10.0,South,11.5,170,Tulsa,Oklahoma,74104
18,Clear,2016-09-24 23:53:00,64.9,,18.4,45,N/A,29.92,89.1,6:53 PM,,10.0,SSE,9.2,160,Tulsa,Oklahoma,74104
19,Clear,2016-09-25 00:53:00,66.9,,-,53,N/A,29.95,86.0,7:53 PM,,10.0,South,5.8,170,Tulsa,Oklahoma,74104
20,Partly Cloudy,2016-09-25 01:53:00,66.9,,-,56,N/A,29.98,84.0,8:53 PM,,10.0,South,5.8,170,Tulsa,Oklahoma,74104
21,Scattered Clouds,2016-09-25 02:53:00,66.0,,-,55,N/A,29.98,84.0,9:53 PM,,10.0,SSE,4.6,160,Tulsa,Oklahoma,74104
22,Overcast,2016-09-25 03:53:00,66.0,,-,69,N/A,30.01,77.0,10:53 PM,,10.0,NNW,9.2,340,Tulsa,Oklahoma,74104
23,Overcast,2016-09-25 04:53:00,66.0,,-,76,N/A,30.02,73.9,11:53 PM,,10.0,North,5.8,10,Tulsa,Oklahoma,74104
0,Clear,2016-09-25 05:53:00,66.0,,-,79,N/A,30.01,73.0,12:53 AM,,10.0,NNE,5.8,30,Tulsa,Oklahoma,74104
1,Clear,2016-09-25 06:53:00,64.9,,-,76,N/A,30.01,73.0,1:53 AM,,10.0,NE,6.9,50,Tulsa,Oklahoma,74104
2,Scattered Clouds,2016-09-25 07:53:00,64.9,,-,76,N/A,30.01,73.0,2:53 AM,,10.0,ENE,4.6,60,Tulsa,Oklahoma,74104
3,Mostly Cloudy,2016-09-25 08:53:00,64.9,,-,76,N/A,30.01,73.0,3:53 AM,,10.0,Calm,Calm,0,Tulsa,Oklahoma,74104
4,Partly Cloudy,2016-09-25 09:53:00,66.0,,-,87,N/A,30.02,70.0,4:53 AM,,10.0,Calm,Calm,0,Tulsa,Oklahoma,74104
5,Clear,2016-09-25 10:53:00,66.0,,-,87,N/A,30.04,70.0,5:53 AM,,10.0,WSW,3.5,250,Tulsa,Oklahoma,74104
6,Light Rain,2016-09-25 11:53:00,66.9,Rain,-,87,0.00,30.06,71.1,6:53 AM,,10.0,Calm,Calm,0,Tulsa,Oklahoma,74104
7,Light Rain,2016-09-25 12:53:00,66.9,Rain,-,87,0.00,30.07,71.1,7:53 AM,,10.0,North,3.5,350,Tulsa,Oklahoma,74104
8,Partly Cloudy,2016-09-25 13:53:00,66.9,,-,81,0.00,30.07,73.0,8:53 AM,,10.0,NNE,4.6,20,Tulsa,Oklahoma,74104
9,Mostly Cloudy,2016-09-25 14:53:00,66.9,,-,76,N/A,30.08,75.0,9:53 AM,,10.0,Calm,Calm,0,Tulsa,Oklahoma,74104
10,Overcast,2016-09-25 15:53:00,66.9,,-,74,N/A,30.11,75.9,10:53 AM,,10.0,North,4.6,350,Tulsa,Oklahoma,74104
11,Overcast,2016-09-25 16:53:00,66.9,,-,74,N/A,30.12,75.9,11:53 AM,,10.0,NNE,3.5,20,Tulsa,Oklahoma,74104
12,Overcast,2016-09-25 17:53:00,68.0,,-,76,0.00,30.11,75.9,12:53 PM,,10.0,NNE,8.1,20,Tulsa,Oklahoma,74104
13,Overcast,2016-09-25 18:11:00,68.0,,-,82,N/A,30.10,73.9,1:11 PM,,10.0,NW,5.8,320,Tulsa,Oklahoma,74104
14,Light Rain,2016-09-25 18:23:00,69.1,Rain,-,87,0.00,30.10,73.0,1:23 PM,,7.0,NNW,5.8,340,Tulsa,Oklahoma,74104
15,Overcast,2016-09-25 18:53:00,69.1,,-,91,0.00,30.11,72.0,1:53 PM,,10.0,North,3.5,360,Tulsa,Oklahoma,74104
16,Rain,2016-09-25 19:15:00,69.1,Rain,-,91,0.04,30.09,72.0,2:15 PM,,2.5,North,8.1,360,Tulsa,Oklahoma,74104
17,Rain,2016-09-25 19:25:00,69.1,Rain,-,91,0.06,30.09,72.0,2:25 PM,,3.0,North,5.8,350,Tulsa,Oklahoma,74104
18,Heavy Rain,2016-09-25 19:31:00,69.1,Rain,-,91,0.10,30.09,72.0,2:31 PM,,1.8,North,3.5,10,Tulsa,Oklahoma,74104
19,Heavy Rain,2016-09-25 19:53:00,68.0,Rain,19.6,90,0.21,30.11,71.1,2:53 PM,,1.5,North,9.2,350,Tulsa,Oklahoma,74104
20,Heavy Rain,2016-09-25 20:02:00,66.0,Rain,-,93,0.04,30.09,68.0,3:02 PM,,1.5,North,10.4,360,Tulsa,Oklahoma,74104
21,Rain,2016-09-25 20:10:00,64.9,Rain,20.7,90,0.06,30.09,68.0,3:10 PM,,2.0,North,8.1,350,Tulsa,Oklahoma,74104
22,Rain,2016-09-25 20:20:00,64.9,Rain,-,90,0.08,30.10,68.0,3:20 PM,,4.0,North,9.2,360,Tulsa,Oklahoma,74104
23,Light Rain,2016-09-25 20:37:00,64.0,Rain,20.7,90,0.09,30.10,66.9,3:37 PM,,4.0,North,10.4,10,Tulsa,Oklahoma,74104
24,Rain,2016-09-25 20:45:00,64.0,Rain,21.9,90,0.11,30.10,66.9,3:45 PM,,4.0,North,12.7,10,Tulsa,Oklahoma,74104
25,Light Rain,2016-09-25 20:53:00,64.0,Rain,21.9,90,0.12,30.12,66.9,3:53 PM,,5.0,North,8.1,10,Tulsa,Oklahoma,74104
26,Rain,2016-09-25 21:21:00,64.0,Rain,-,90,0.04,30.11,66.9,4:21 PM,,3.0,North,8.1,10,Tulsa,Oklahoma,74104
27,Rain,2016-09-25 21:37:00,64.9,Rain,-,93,0.07,30.11,66.9,4:37 PM,,3.0,NNE,6.9,20,Tulsa,Oklahoma,74104
28,Heavy Rain,2016-09-25 21:44:00,64.9,Rain,-,93,0.10,30.11,66.9,4:44 PM,,1.8,NNE,6.9,20,Tulsa,Oklahoma,74104
29,Rain,2016-09-25 21:53:00,64.0,Rain,-,90,0.12,30.12,66.9,4:53 PM,,2.5,NNE,11.5,20,Tulsa,Oklahoma,74104
30,Heavy Rain,2016-09-25 22:06:00,64.0,Rain,-,93,0.04,30.11,66.0,5:06 PM,,1.8,North,6.9,360,Tulsa,Oklahoma,74104
31,Rain,2016-09-25 22:12:00,64.0,Rain,-,93,0.05,30.11,66.0,5:12 PM,,3.0,North,6.9,360,Tulsa,Oklahoma,74104
32,Light Rain,2016-09-25 22:35:00,64.0,Rain,-,93,0.08,30.13,66.0,5:35 PM,,6.0,North,8.1,360,Tulsa,Oklahoma,74104
33,Light Rain,2016-09-25 22:45:00,64.0,Rain,-,93,0.09,30.13,66.0,5:45 PM,,9.0,North,5.8,360,Tulsa,Oklahoma,74104
34,Light Rain,2016-09-25 22:53:00,64.0,Rain,-,93,0.09,30.15,66.0,5:53 PM,,10.0,North,8.1,350,Tulsa,Oklahoma,74104
35,Light Rain,2016-09-25 23:53:00,61.0,Rain,-,93,0.01,30.17,63.0,6:53 PM,,10.0,North,6.9,360,Tulsa,Oklahoma,74104
36,Light Rain,2016-09-26 00:11:00,60.1,Rain,-,90,0.00,30.15,63.0,7:11 PM,,10.0,Variable,6.9,0,Tulsa,Oklahoma,74104
37,Overcast,2016-09-26 00:53:00,57.0,,-,81,0.00,30.18,63.0,7:53 PM,,10.0,North,10.4,360,Tulsa,Oklahoma,74104
38,Overcast,2016-09-26 01:53:00,57.9,,-,84,N/A,30.19,63.0,8:53 PM,,10.0,North,4.6,10,Tulsa,Oklahoma,74104
39,Mostly Cloudy,2016-09-26 02:53:00,57.9,,-,84,N/A,30.21,63.0,9:53 PM,,10.0,North,8.1,10,Tulsa,Oklahoma,74104
40,Mostly Cloudy,2016-09-26 03:34:00,57.0,,-,75,N/A,30.20,64.9,10:34 PM,,10.0,North,5.8,360,Tulsa,Oklahoma,74104
41,Overcast,2016-09-26 03:42:00,57.0,,-,75,N/A,30.20,64.9,10:42 PM,,10.0,North,6.9,350,Tulsa,Oklahoma,74104
42,Overcast,2016-09-26 03:53:00,57.0,,-,78,N/A,30.21,64.0,10:53 PM,,10.0,North,6.9,10,Tulsa,Oklahoma,74104
43,Mostly Cloudy,2016-09-26 04:53:00,57.9,,-,80,N/A,30.22,64.0,11:53 PM,,10.0,North,8.1,10,Tulsa,Oklahoma,74104
0,Scattered Clouds,2016-09-26 05:53:00,57.9,,-,80,N/A,30.22,64.0,12:53 AM,,10.0,North,5.8,10,Tulsa,Oklahoma,74104
1,Scattered Clouds,2016-09-26 06:53:00,57.9,,-,80,N/A,30.22,64.0,1:53 AM,,10.0,North,5.8,10,Tulsa,Oklahoma,74104
2,Clear,2016-09-26 07:53:00,57.9,,-,80,N/A,30.23,64.0,2:53 AM,,10.0,NNE,4.6,20,Tulsa,Oklahoma,74104
3,Clear,2016-09-26 08:53:00,57.0,,-,81,N/A,30.23,63.0,3:53 AM,,10.0,Calm,Calm,0,Tulsa,Oklahoma,74104
4,Clear,2016-09-26 09:53:00,57.0,,-,87,N/A,30.23,61.0,4:53 AM,,10.0,Calm,Calm,0,Tulsa,Oklahoma,74104
5,Clear,2016-09-26 10:53:00,57.0,,-,97,N/A,30.25,57.9,5:53 AM,,10.0,Calm,Calm,0,Tulsa,Oklahoma,74104
6,Clear,2016-09-26 11:53:00,57.0,,-,90,N/A,30.26,60.1,6:53 AM,,10.0,North,3.5,360,Tulsa,Oklahoma,74104
7,Clear,2016-09-26 12:53:00,55.9,,-,86,N/A,30.27,60.1,7:53 AM,,10.0,North,5.8,360,Tulsa,Oklahoma,74104
8,Clear,2016-09-26 13:53:00,55.0,,-,78,N/A,30.28,62.1,8:53 AM,,10.0,North,11.5,10,Tulsa,Oklahoma,74104
9,Unknown,2016-09-26 14:53:00,55.0,,-,68,N/A,30.30,66.0,9:53 AM,,10.0,NNE,10.4,20,Tulsa,Oklahoma,74104
10,Clear,2016-09-26 15:53:00,51.1,,-,51,N/A,30.30,70.0,10:53 AM,,10.0,NNE,10.4,20,Tulsa,Oklahoma,74104
11,Clear,2016-09-26 16:53:00,46.9,,-,39,N/A,30.28,73.0,11:53 AM,,10.0,North,9.2,10,Tulsa,Oklahoma,74104
12,Clear,2016-09-26 17:53:00,41.0,,20.7,29,N/A,30.27,75.0,12:53 PM,,10.0,North,9.2,360,Tulsa,Oklahoma,74104
13,Clear,2016-09-26 18:53:00,39.0,,17.3,26,N/A,30.25,75.9,1:53 PM,,10.0,North,12.7,360,Tulsa,Oklahoma,74104
14,Clear,2016-09-26 19:53:00,39.0,,18.4,26,N/A,30.22,75.9,2:53 PM,,10.0,NE,11.5,40,Tulsa,Oklahoma,74104
15,Clear,2016-09-26 20:53:00,37.9,,-,24,N/A,30.20,77.0,3:53 PM,,10.0,NNE,11.5,30,Tulsa,Oklahoma,74104
16,Clear,2016-09-26 21:53:00,39.0,,-,26,N/A,30.19,75.9,4:53 PM,,10.0,North,8.1,360,Tulsa,Oklahoma,74104
17,Clear,2016-09-26 22:53:00,37.9,,-,26,N/A,30.18,75.0,5:53 PM,,10.0,North,4.6,10,Tulsa,Oklahoma,74104
18,Clear,2016-09-26 23:53:00,44.1,,-,45,N/A,30.17,66.0,6:53 PM,,10.0,North,3.5,360,Tulsa,Oklahoma,74104
19,Clear,2016-09-27 00:53:00,48.9,,-,67,N/A,30.19,60.1,7:53 PM,,10.0,Calm,Calm,0,Tulsa,Oklahoma,74104
20,Clear,2016-09-27 01:53:00,48.9,,-,74,N/A,30.20,57.0,8:53 PM,,10.0,Calm,Calm,0,Tulsa,Oklahoma,74104
21,Clear,2016-09-27 02:53:00,48.9,,-,77,N/A,30.20,55.9,9:53 PM,,10.0,Calm,Calm,0,Tulsa,Oklahoma,74104
22,Clear,2016-09-27 03:53:00,48.9,,-,80,N/A,30.20,55.0,10:53 PM,,10.0,Calm,Calm,0,Tulsa,Oklahoma,74104
23,Clear,2016-09-27 04:53:00,50.0,,-,86,N/A,30.21,54.0,11:53 PM,,10.0,Calm,Calm,0,Tulsa,Oklahoma,74104
0,Clear,2016-09-27 05:53:00,48.9,,-,86,N/A,30.19,53.1,12:53 AM,,10.0,Calm,Calm,0,Tulsa,Oklahoma,74104
1,Clear,2016-09-27 06:22:00,48.9,,-,89,N/A,30.16,52.0,1:22 AM,,1.8,Calm,Calm,0,Tulsa,Oklahoma,74104
2,Clear,2016-09-27 06:27:00,48.9,,-,89,N/A,30.16,52.0,1:27 AM,,3.0,Calm,Calm,0,Tulsa,Oklahoma,74104
3,Clear,2016-09-27 06:53:00,48.9,,-,89,N/A,30.18,52.0,1:53 AM,,4.0,Calm,Calm,0,Tulsa,Oklahoma,74104
4,Clear,2016-09-27 07:02:00,48.9,,-,89,N/A,30.15,52.0,2:02 AM,,2.0,Calm,Calm,0,Tulsa,Oklahoma,74104
5,Clear,2016-09-27 07:24:00,48.0,,-,89,N/A,30.15,51.1,2:24 AM,,3.0,Calm,Calm,0,Tulsa,Oklahoma,74104
6,Clear,2016-09-27 07:38:00,48.9,,-,92,N/A,30.15,51.1,2:38 AM,,2.0,Calm,Calm,0,Tulsa,Oklahoma,74104
7,Clear,2016-09-27 07:53:00,48.9,,-,92,N/A,30.17,51.1,2:53 AM,,1.2,Calm,Calm,0,Tulsa,Oklahoma,74104
8,Clear,2016-09-27 08:01:00,48.0,,-,89,N/A,30.15,51.1,3:01 AM,,3.0,Calm,Calm,0,Tulsa,Oklahoma,74104
9,Clear,2016-09-27 08:17:00,48.9,,-,92,N/A,30.15,51.1,3:17 AM,,1.8,Calm,Calm,0,Tulsa,Oklahoma,74104
10,Clear,2016-09-27 08:30:00,48.0,,-,89,N/A,30.14,51.1,3:30 AM,,3.0,Calm,Calm,0,Tulsa,Oklahoma,74104
11,Clear,2016-09-27 08:37:00,48.0,,-,89,N/A,30.14,51.1,3:37 AM,,1.8,Calm,Calm,0,Tulsa,Oklahoma,74104
12,Clear,2016-09-27 08:53:00,48.0,,-,93,N/A,30.16,50.0,3:53 AM,,1.5,Calm,Calm,0,Tulsa,Oklahoma,74104
13,Clear,2016-09-27 09:45:00,48.0,,-,93,N/A,30.13,50.0,4:45 AM,,3.0,Calm,Calm,0,Tulsa,Oklahoma,74104
14,Clear,2016-09-27 09:50:00,48.2,,-,94,N/A,30.13,50.0,4:50 AM,,1.8,Calm,Calm,0,Tulsa,Oklahoma,74104
15,Clear,2016-09-27 09:53:00,48.0,,-,93,N/A,30.15,50.0,4:53 AM,,1.8,Calm,Calm,0,Tulsa,Oklahoma,74104
16,Clear,2016-09-27 09:59:00,48.0,,-,93,N/A,30.13,50.0,4:59 AM,,3.0,SW,3.5,220,Tulsa,Oklahoma,74104
17,Clear,2016-09-27 10:04:00,48.0,,-,93,N/A,30.13,50.0,5:04 AM,,1.8,Calm,Calm,0,Tulsa,Oklahoma,74104
18,Clear,2016-09-27 10:14:00,46.9,,-,93,N/A,30.13,48.9,5:14 AM,,3.0,Calm,Calm,0,Tulsa,Oklahoma,74104
19,Clear,2016-09-27 10:53:00,46.9,,-,93,N/A,30.16,48.9,5:53 AM,,8.0,Calm,Calm,0,Tulsa,Oklahoma,74104
20,Clear,2016-09-27 11:53:00,46.0,,-,90,N/A,30.17,48.9,6:53 AM,,8.0,Calm,Calm,0,Tulsa,Oklahoma,74104
21,Clear,2016-09-27 12:53:00,48.0,,-,89,N/A,30.17,51.1,7:53 AM,,10.0,Calm,Calm,0,Tulsa,Oklahoma,74104
22,Clear,2016-09-27 13:53:00,50.0,,-,75,N/A,30.17,57.9,8:53 AM,,10.0,Calm,Calm,0,Tulsa,Oklahoma,74104
23,Clear,2016-09-27 14:53:00,48.9,,-,56,N/A,30.17,64.9,9:53 AM,,10.0,SW,4.6,230,Tulsa,Oklahoma,74104
24,Clear,2016-09-27 15:53:00,46.0,,-,40,N/A,30.15,72.0,10:53 AM,,10.0,SW,5.8,220,Tulsa,Oklahoma,74104
25,Clear,2016-09-27 16:53:00,44.1,,-,33,N/A,30.12,75.0,11:53 AM,,10.0,SW,4.6,220,Tulsa,Oklahoma,74104
26,Clear,2016-09-27 17:53:00,46.0,,-,32,N/A,30.09,78.1,12:53 PM,,10.0,Variable,5.8,0,Tulsa,Oklahoma,74104
27,Clear,2016-09-27 18:53:00,45.0,,-,29,N/A,30.06,80.1,1:53 PM,,10.0,Variable,4.6,0,Tulsa,Oklahoma,74104
28,Clear,2016-09-27 19:53:00,46.0,,-,28,N/A,30.02,82.0,2:53 PM,,9.0,Variable,4.6,0,Tulsa,Oklahoma,74104
29,Clear,2016-09-27 20:53:00,45.0,,-,26,N/A,30.01,82.9,3:53 PM,,10.0,Variable,4.6,0,Tulsa,Oklahoma,74104
30,Clear,2016-09-27 21:53:00,46.0,,-,27,N/A,29.98,82.9,4:53 PM,,10.0,South,8.1,190,Tulsa,Oklahoma,74104
31,Clear,2016-09-27 22:53:00,48.0,,-,31,N/A,29.98,81.0,5:53 PM,,10.0,SW,5.8,220,Tulsa,Oklahoma,74104
32,Clear,2016-09-27 23:53:00,50.0,,-,43,N/A,29.98,73.9,6:53 PM,,10.0,SW,4.6,220,Tulsa,Oklahoma,74104
33,Clear,2016-09-28 00:53:00,51.1,,-,53,N/A,29.99,69.1,7:53 PM,,10.0,SW,3.5,220,Tulsa,Oklahoma,74104
34,Clear,2016-09-28 01:53:00,52.0,,-,65,N/A,29.99,64.0,8:53 PM,,10.0,Calm,Calm,0,Tulsa,Oklahoma,74104
35,Clear,2016-09-28 02:53:00,53.1,,-,72,N/A,30.00,62.1,9:53 PM,,10.0,Calm,Calm,0,Tulsa,Oklahoma,74104
36,Clear,2016-09-28 03:53:00,53.1,,-,75,N/A,29.99,61.0,10:53 PM,,10.0,Calm,Calm,0,Tulsa,Oklahoma,74104
37,Clear,2016-09-28 04:53:00,53.1,,-,81,N/A,29.99,59.0,11:53 PM,,10.0,WSW,3.5,240,Tulsa,Oklahoma,74104
0,Clear,2016-09-28 05:53:00,52.0,,-,81,N/A,29.99,57.9,12:53 AM,,10.0,Calm,Calm,0,Tulsa,Oklahoma,74104
1,Clear,2016-09-28 06:53:00,52.0,,-,83,N/A,29.98,57.0,1:53 AM,,10.0,Calm,Calm,0,Tulsa,Oklahoma,74104
2,Clear,2016-09-28 07:53:00,52.0,,-,83,N/A,29.97,57.0,2:53 AM,,10.0,Calm,Calm,0,Tulsa,Oklahoma,74104
3,Clear,2016-09-28 08:53:00,51.1,,-,84,N/A,29.97,55.9,3:53 AM,,10.0,Calm,Calm,0,Tulsa,Oklahoma,74104
4,Clear,2016-09-28 09:53:00,51.1,,-,86,N/A,29.96,55.0,4:53 AM,,10.0,Calm,Calm,0,Tulsa,Oklahoma,74104
5,Clear,2016-09-28 10:53:00,51.1,,-,90,N/A,29.97,54.0,5:53 AM,,10.0,Calm,Calm,0,Tulsa,Oklahoma,74104
6,Clear,2016-09-28 11:53:00,50.0,,-,83,N/A,29.97,55.0,6:53 AM,,10.0,SSW,3.5,200,Tulsa,Oklahoma,74104
7,Clear,2016-09-28 12:53:00,52.0,,-,83,N/A,29.98,57.0,7:53 AM,,10.0,Calm,Calm,0,Tulsa,Oklahoma,74104
8,Clear,2016-09-28 13:53:00,52.0,,-,63,N/A,29.99,64.9,8:53 AM,,10.0,Calm,Calm,0,Tulsa,Oklahoma,74104
9,Clear,2016-09-28 14:53:00,52.0,,-,48,N/A,30.01,73.0,9:53 AM,,10.0,Calm,Calm,0,Tulsa,Oklahoma,74104
10,Clear,2016-09-28 15:53:00,54.0,,-,42,N/A,30.02,79.0,10:53 AM,,10.0,NNE,8.1,20,Tulsa,Oklahoma,74104
11,Clear,2016-09-28 16:53:00,54.0,,17.3,39,N/A,30.03,81.0,11:53 AM,,10.0,North,9.2,360,Tulsa,Oklahoma,74104
12,Clear,2016-09-28 17:53:00,51.1,,21.9,32,N/A,30.04,84.0,12:53 PM,,10.0,NNE,13.8,30,Tulsa,Oklahoma,74104
13,Clear,2016-09-28 18:53:00,52.0,,-,33,N/A,30.05,84.0,1:53 PM,,10.0,North,13.8,10,Tulsa,Oklahoma,74104
14,Clear,2016-09-28 19:53:00,48.9,,19.6,29,N/A,30.05,84.0,2:53 PM,,10.0,North,13.8,360,Tulsa,Oklahoma,74104
15,Clear,2016-09-28 20:53:00,46.9,,-,28,N/A,30.05,82.9,3:53 PM,,10.0,North,11.5,10,Tulsa,Oklahoma,74104
16,Clear,2016-09-28 21:53:00,45.0,,20.7,26,N/A,30.06,82.9,4:53 PM,,10.0,North,12.7,10,Tulsa,Oklahoma,74104
17,Clear,2016-09-28 22:53:00,37.9,,19.6,22,N/A,30.08,80.1,5:53 PM,,10.0,North,10.4,10,Tulsa,Oklahoma,74104
18,Clear,2016-09-28 23:53:00,45.0,,-,35,N/A,30.11,73.9,6:53 PM,,10.0,North,10.4,10,Tulsa,Oklahoma,74104
19,Clear,2016-09-29 00:53:00,46.9,,-,42,N/A,30.13,71.1,7:53 PM,,10.0,NNE,9.2,20,Tulsa,Oklahoma,74104
20,Clear,2016-09-29 01:53:00,46.9,,-,45,N/A,30.17,69.1,8:53 PM,,10.0,NNE,9.2,20,Tulsa,Oklahoma,74104
21,Clear,2016-09-29 02:53:00,46.9,,19.6,50,N/A,30.19,66.0,9:53 PM,,10.0,NNE,9.2,20,Tulsa,Oklahoma,74104
22,Clear,2016-09-29 03:53:00,48.0,,-,56,N/A,30.22,64.0,10:53 PM,,10.0,North,9.2,10,Tulsa,Oklahoma,74104
23,Clear,2016-09-29 04:53:00,48.0,,-,62,N/A,30.24,61.0,11:53 PM,,10.0,NNE,5.8,20,Tulsa,Oklahoma,74104
0,Clear,2016-09-29 05:53:00,48.9,,-,67,N/A,30.25,60.1,12:53 AM,,10.0,North,5.8,10,Tulsa,Oklahoma,74104
1,Clear,2016-09-29 06:53:00,48.9,,-,69,N/A,30.25,59.0,1:53 AM,,10.0,North,5.8,360,Tulsa,Oklahoma,74104
2,Clear,2016-09-29 07:53:00,48.9,,-,74,N/A,30.27,57.0,2:53 AM,,10.0,North,5.8,10,Tulsa,Oklahoma,74104
3,Clear,2016-09-29 08:53:00,48.9,,-,77,N/A,30.27,55.9,3:53 AM,,10.0,North,5.8,10,Tulsa,Oklahoma,74104
4,Clear,2016-09-29 09:53:00,48.9,,-,83,N/A,30.29,54.0,4:53 AM,,10.0,North,5.8,10,Tulsa,Oklahoma,74104
5,Clear,2016-09-29 10:53:00,48.0,,-,80,N/A,30.31,54.0,5:53 AM,,10.0,North,5.8,10,Tulsa,Oklahoma,74104
6,Clear,2016-09-29 11:53:00,48.0,,-,83,N/A,30.34,53.1,6:53 AM,,10.0,North,5.8,360,Tulsa,Oklahoma,74104
7,Clear,2016-09-29 12:53:00,48.0,,-,80,N/A,30.35,54.0,7:53 AM,,10.0,North,5.8,360,Tulsa,Oklahoma,74104
8,Clear,2016-09-29 13:53:00,48.9,,-,74,N/A,30.37,57.0,8:53 AM,,10.0,NNE,8.1,20,Tulsa,Oklahoma,74104
9,Clear,2016-09-29 14:53:00,50.0,,-,67,N/A,30.39,61.0,9:53 AM,,10.0,North,8.1,360,Tulsa,Oklahoma,74104
10,Clear,2016-09-29 15:53:00,50.0,,-,60,N/A,30.40,64.0,10:53 AM,,10.0,North,9.2,10,Tulsa,Oklahoma,74104
11,Clear,2016-09-29 16:53:00,48.9,,17.3,49,N/A,30.38,69.1,11:53 AM,,10.0,NNE,11.5,20,Tulsa,Oklahoma,74104
12,Clear,2016-09-29 17:53:00,48.9,,-,45,N/A,30.37,71.1,12:53 PM,,10.0,North,9.2,360,Tulsa,Oklahoma,74104
13,Clear,2016-09-29 18:53:00,48.0,,-,43,N/A,30.34,72.0,1:53 PM,,10.0,North,8.1,10,Tulsa,Oklahoma,74104
14,Clear,2016-09-29 19:53:00,46.9,,-,38,N/A,30.31,73.9,2:53 PM,,10.0,NNE,10.4,20,Tulsa,Oklahoma,74104
15,Clear,2016-09-29 20:53:00,46.9,,-,38,N/A,30.29,73.9,3:53 PM,,10.0,North,10.4,10,Tulsa,Oklahoma,74104
16,Clear,2016-09-29 21:53:00,46.9,,-,38,N/A,30.28,73.9,4:53 PM,,10.0,North,9.2,10,Tulsa,Oklahoma,74104
17,Clear,2016-09-29 22:53:00,46.9,,-,38,N/A,30.27,73.9,5:53 PM,,10.0,North,4.6,350,Tulsa,Oklahoma,74104
18,Clear,2016-09-29 23:53:00,48.0,,-,47,N/A,30.28,69.1,6:53 PM,,10.0,NNE,8.1,20,Tulsa,Oklahoma,74104
19,Clear,2016-09-30 00:53:00,48.9,,-,60,N/A,30.27,63.0,7:53 PM,,10.0,North,3.5,350,Tulsa,Oklahoma,74104
20,Clear,2016-09-30 01:53:00,51.1,,-,72,N/A,30.29,60.1,8:53 PM,,10.0,Calm,Calm,0,Tulsa,Oklahoma,74104
21,Clear,2016-09-30 02:53:00,51.1,,-,81,N/A,30.30,57.0,9:53 PM,,10.0,Calm,Calm,0,Tulsa,Oklahoma,74104
22,Clear,2016-09-30 03:53:00,50.0,,-,77,N/A,30.30,57.0,10:53 PM,,10.0,Calm,Calm,0,Tulsa,Oklahoma,74104
23,Clear,2016-09-30 04:53:00,50.0,,-,77,N/A,30.30,57.0,11:53 PM,,10.0,North,3.5,10,Tulsa,Oklahoma,74104
0,Clear,2016-09-30 05:53:00,48.9,,-,77,N/A,30.28,55.9,12:53 AM,,10.0,NNE,4.6,20,Tulsa,Oklahoma,74104
1,Clear,2016-09-30 06:53:00,48.9,,-,86,N/A,30.27,53.1,1:53 AM,,10.0,Calm,Calm,0,Tulsa,Oklahoma,74104
2,Clear,2016-09-30 07:53:00,48.0,,-,86,N/A,30.27,52.0,2:53 AM,,10.0,Calm,Calm,0,Tulsa,Oklahoma,74104
3,Clear,2016-09-30 08:53:00,48.0,,-,89,N/A,30.25,51.1,3:53 AM,,10.0,Calm,Calm,0,Tulsa,Oklahoma,74104
4,Clear,2016-09-30 09:53:00,46.9,,-,89,N/A,30.25,50.0,4:53 AM,,10.0,Calm,Calm,0,Tulsa,Oklahoma,74104
5,Clear,2016-09-30 10:53:00,46.9,,-,89,N/A,30.25,50.0,5:53 AM,,10.0,Calm,Calm,0,Tulsa,Oklahoma,74104
6,Clear,2016-09-30 11:53:00,46.9,,-,93,N/A,30.27,48.9,6:53 AM,,10.0,Calm,Calm,0,Tulsa,Oklahoma,74104
7,Clear,2016-09-30 12:53:00,48.9,,-,92,N/A,30.28,51.1,7:53 AM,,10.0,NW,3.5,310,Tulsa,Oklahoma,74104
8,Clear,2016-09-30 13:53:00,52.0,,-,75,N/A,30.27,60.1,8:53 AM,,10.0,Calm,Calm,0,Tulsa,Oklahoma,74104
9,Clear,2016-09-30 14:53:00,51.1,,-,61,N/A,30.27,64.9,9:53 AM,,10.0,NE,5.8,40,Tulsa,Oklahoma,74104
10,Clear,2016-09-30 15:53:00,50.0,,-,49,N/A,30.26,70.0,10:53 AM,,10.0,North,3.5,10,Tulsa,Oklahoma,74104
11,Clear,2016-09-30 16:53:00,48.9,,-,42,N/A,30.24,73.0,11:53 AM,,10.0,ENE,6.9,60,Tulsa,Oklahoma,74104
12,Clear,2016-09-30 17:53:00,48.0,,-,38,N/A,30.22,75.0,12:53 PM,,10.0,NNE,8.1,20,Tulsa,Oklahoma,74104
13,Clear,2016-09-30 18:53:00,48.0,,-,36,N/A,30.19,77.0,1:53 PM,,10.0,Variable,5.8,0,Tulsa,Oklahoma,74104
14,Clear,2016-09-30 19:53:00,48.0,,-,35,N/A,30.16,78.1,2:53 PM,,10.0,Variable,5.8,0,Tulsa,Oklahoma,74104
15,Clear,2016-09-30 20:53:00,46.9,,-,32,N/A,30.13,79.0,3:53 PM,,10.0,NE,8.1,40,Tulsa,Oklahoma,74104
16,Clear,2016-09-30 21:53:00,46.0,,-,32,N/A,30.12,78.1,4:53 PM,,10.0,Calm,Calm,0,Tulsa,Oklahoma,74104
17,Clear,2016-09-30 22:53:00,48.0,,-,37,N/A,30.12,75.9,5:53 PM,,10.0,NNE,3.5,20,Tulsa,Oklahoma,74104
18,Clear,2016-09-30 23:53:00,54.0,,-,65,N/A,30.12,66.0,6:53 PM,,10.0,Calm,Calm,0,Tulsa,Oklahoma,74104
19,Clear,2016-10-01 00:53:00,52.0,,-,67,N/A,30.12,63.0,7:53 PM,,10.0,Calm,Calm,0,Tulsa,Oklahoma,74104
20,Clear,2016-10-01 01:53:00,52.0,,-,78,N/A,30.12,59.0,8:53 PM,,10.0,Calm,Calm,0,Tulsa,Oklahoma,74104
21,Clear,2016-10-01 02:53:00,52.0,,-,81,N/A,30.12,57.9,9:53 PM,,10.0,Calm,Calm,0,Tulsa,Oklahoma,74104
22,Clear,2016-10-01 03:53:00,53.1,,-,87,N/A,30.12,57.0,10:53 PM,,10.0,Calm,Calm,0,Tulsa,Oklahoma,74104
23,Clear,2016-10-01 04:53:00,53.1,,-,90,N/A,30.13,55.9,11:53 PM,,10.0,Calm,Calm,0,Tulsa,Oklahoma,74104
0,Clear,2016-10-01 05:53:00,52.0,,-,93,N/A,30.12,54.0,12:53 AM,,10.0,Calm,Calm,0,Tulsa,Oklahoma,74104
1,Clear,2016-10-01 06:53:00,51.1,,-,93,N/A,30.13,53.1,1:53 AM,,10.0,Calm,Calm,0,Tulsa,Oklahoma,74104
2,Clear,2016-10-01 07:53:00,51.1,,-,93,N/A,30.13,53.1,2:53 AM,,9.0,Calm,Calm,0,Tulsa,Oklahoma,74104
3,Clear,2016-10-01 08:53:00,50.0,,-,96,N/A,30.13,51.1,3:53 AM,,8.0,Calm,Calm,0,Tulsa,Oklahoma,74104
4,Clear,2016-10-01 09:44:00,48.9,,-,92,N/A,30.11,51.1,4:44 AM,,2.0,Calm,Calm,0,Tulsa,Oklahoma,74104
5,Clear,2016-10-01 09:53:00,48.9,,-,92,N/A,30.13,51.1,4:53 AM,,9.0,Calm,Calm,0,Tulsa,Oklahoma,74104
6,Clear,2016-10-01 10:53:00,50.0,,-,93,N/A,30.12,52.0,5:53 AM,,10.0,Calm,Calm,0,Tulsa,Oklahoma,74104
7,Clear,2016-10-01 11:53:00,51.1,,-,93,N/A,30.13,53.1,6:53 AM,,10.0,Calm,Calm,0,Tulsa,Oklahoma,74104
8,Clear,2016-10-01 12:53:00,52.0,,-,93,N/A,30.14,54.0,7:53 AM,,10.0,Calm,Calm,0,Tulsa,Oklahoma,74104
9,Clear,2016-10-01 13:53:00,55.0,,-,90,N/A,30.15,57.9,8:53 AM,,10.0,SW,4.6,230,Tulsa,Oklahoma,74104
10,Clear,2016-10-01 14:53:00,55.0,,-,75,N/A,30.15,63.0,9:53 AM,,10.0,Calm,Calm,0,Tulsa,Oklahoma,74104
11,Clear,2016-10-01 15:53:00,55.0,,-,61,N/A,30.15,69.1,10:53 AM,,10.0,Calm,Calm,0,Tulsa,Oklahoma,74104
12,Clear,2016-10-01 16:53:00,55.0,,-,52,N/A,30.14,73.9,11:53 AM,,10.0,Variable,3.5,0,Tulsa,Oklahoma,74104
13,Clear,2016-10-01 17:53:00,52.0,,-,40,N/A,30.12,78.1,12:53 PM,,10.0,SSW,6.9,210,Tulsa,Oklahoma,74104
14,Clear,2016-10-01 18:53:00,51.1,,-,38,N/A,30.08,79.0,1:53 PM,,10.0,Variable,6.9,0,Tulsa,Oklahoma,74104
15,Clear,2016-10-01 19:53:00,50.0,,-,35,N/A,30.06,80.1,2:53 PM,,10.0,ENE,6.9,60,Tulsa,Oklahoma,74104
16,Clear,2016-10-01 20:53:00,50.0,,-,34,N/A,30.05,81.0,3:53 PM,,10.0,Variable,6.9,0,Tulsa,Oklahoma,74104
17,Clear,2016-10-01 21:53:00,48.9,,-,34,N/A,30.03,80.1,4:53 PM,,10.0,East,5.8,100,Tulsa,Oklahoma,74104
18,Clear,2016-10-01 22:53:00,48.9,,-,34,N/A,30.03,80.1,5:53 PM,,10.0,ENE,5.8,70,Tulsa,Oklahoma,74104
19,Clear,2016-10-01 23:53:00,50.0,,-,41,N/A,30.03,75.0,6:53 PM,,10.0,SE,4.6,130,Tulsa,Oklahoma,74104
20,Clear,2016-10-02 00:53:00,55.0,,-,70,N/A,30.04,64.9,7:53 PM,,10.0,Calm,Calm,0,Tulsa,Oklahoma,74104
21,Clear,2016-10-02 01:53:00,55.0,,-,73,N/A,30.06,64.0,8:53 PM,,10.0,Calm,Calm,0,Tulsa,Oklahoma,74104
22,Clear,2016-10-02 02:53:00,55.0,,-,75,N/A,30.06,63.0,9:53 PM,,10.0,Calm,Calm,0,Tulsa,Oklahoma,74104
23,Clear,2016-10-02 03:53:00,55.0,,-,81,N/A,30.06,61.0,10:53 PM,,10.0,Calm,Calm,0,Tulsa,Oklahoma,74104
24,Mostly Cloudy,2016-10-02 04:53:00,54.0,,-,80,N/A,30.07,60.1,11:53 PM,,10.0,Calm,Calm,0,Tulsa,Oklahoma,74104
0,Mostly Cloudy,2016-10-02 05:53:00,54.0,,-,80,N/A,30.06,60.1,12:53 AM,,10.0,Calm,Calm,0,Tulsa,Oklahoma,74104
1,Overcast,2016-10-02 06:53:00,55.0,,-,81,N/A,30.06,61.0,1:53 AM,,10.0,Calm,Calm,0,Tulsa,Oklahoma,74104
2,Mostly Cloudy,2016-10-02 07:53:00,55.0,,-,87,N/A,30.06,59.0,2:53 AM,,10.0,Calm,Calm,0,Tulsa,Oklahoma,74104
3,Clear,2016-10-02 08:53:00,54.0,,-,87,N/A,30.06,57.9,3:53 AM,,10.0,Calm,Calm,0,Tulsa,Oklahoma,74104
4,Clear,2016-10-02 09:53:00,54.0,,-,89,N/A,30.06,57.0,4:53 AM,,10.0,Calm,Calm,0,Tulsa,Oklahoma,74104
5,Mostly Cloudy,2016-10-02 10:53:00,55.0,,-,93,N/A,30.08,57.0,5:53 AM,,10.0,Calm,Calm,0,Tulsa,Oklahoma,74104
6,Mostly Cloudy,2016-10-02 11:53:00,55.0,,-,93,N/A,30.09,57.0,6:53 AM,,10.0,Calm,Calm,0,Tulsa,Oklahoma,74104
7,Clear,2016-10-02 12:53:00,54.0,,-,89,N/A,30.12,57.0,7:53 AM,,10.0,Calm,Calm,0,Tulsa,Oklahoma,74104
8,Partly Cloudy,2016-10-02 13:53:00,55.9,,-,75,N/A,30.12,64.0,8:53 AM,,10.0,SE,3.5,140,Tulsa,Oklahoma,74104
9,Partly Cloudy,2016-10-02 14:53:00,55.0,,-,61,N/A,30.12,69.1,9:53 AM,,10.0,SE,5.8,130,Tulsa,Oklahoma,74104
10,Overcast,2016-10-02 15:53:00,55.0,,-,53,N/A,30.12,73.0,10:53 AM,,10.0,Variable,4.6,0,Tulsa,Oklahoma,74104
11,Mostly Cloudy,2016-10-02 16:53:00,55.9,,-,50,N/A,30.12,75.9,11:53 AM,,10.0,Variable,5.8,0,Tulsa,Oklahoma,74104
12,Clear,2016-10-02 17:53:00,54.0,,-,40,N/A,30.09,80.1,12:53 PM,,10.0,SSE,4.6,150,Tulsa,Oklahoma,74104
13,Clear,2016-10-02 18:53:00,51.1,,-,34,N/A,30.07,82.0,1:53 PM,,10.0,South,5.8,170,Tulsa,Oklahoma,74104
14,Clear,2016-10-02 19:53:00,52.0,,-,33,N/A,30.04,84.0,2:53 PM,,10.0,South,6.9,180,Tulsa,Oklahoma,74104
15,Clear,2016-10-02 20:53:00,52.0,,-,34,N/A,30.02,82.9,3:53 PM,,10.0,North,-9999.0,0,Tulsa,Oklahoma,74104
16,Clear,2016-10-02 21:53:00,52.0,,-,33,N/A,30.01,84.0,4:53 PM,,10.0,East,5.8,80,Tulsa,Oklahoma,74104
17,Clear,2016-10-02 22:53:00,53.1,,-,36,N/A,30.00,82.9,5:53 PM,,10.0,East,6.9,80,Tulsa,Oklahoma,74104
18,Clear,2016-10-02 23:53:00,53.1,,-,40,N/A,30.01,79.0,6:53 PM,,10.0,ESE,6.9,120,Tulsa,Oklahoma,74104
19,Clear,2016-10-03 00:53:00,57.0,,-,65,N/A,30.03,69.1,7:53 PM,,10.0,Calm,Calm,0,Tulsa,Oklahoma,74104
20,Clear,2016-10-03 01:53:00,57.9,,-,75,N/A,30.04,66.0,8:53 PM,,10.0,Calm,Calm,0,Tulsa,Oklahoma,74104
21,Clear,2016-10-03 02:53:00,57.0,,-,75,N/A,30.05,64.9,9:53 PM,,10.0,Calm,Calm,0,Tulsa,Oklahoma,74104
22,Clear,2016-10-03 03:53:00,55.9,,-,78,N/A,30.05,63.0,10:53 PM,,10.0,Calm,Calm,0,Tulsa,Oklahoma,74104
23,Clear,2016-10-03 04:53:00,55.9,,-,83,N/A,30.04,61.0,11:53 PM,,10.0,Calm,Calm,0,Tulsa,Oklahoma,74104
0,Clear,2016-10-03 05:53:00,55.9,,-,86,N/A,30.03,60.1,12:53 AM,,10.0,Calm,Calm,0,Tulsa,Oklahoma,74104
1,Clear,2016-10-03 06:53:00,55.9,,-,86,N/A,30.03,60.1,1:53 AM,,10.0,Calm,Calm,0,Tulsa,Oklahoma,74104
2,Clear,2016-10-03 07:53:00,55.9,,-,90,N/A,30.02,59.0,2:53 AM,,10.0,Calm,Calm,0,Tulsa,Oklahoma,74104
3,Clear,2016-10-03 08:53:00,55.9,,-,93,N/A,30.01,57.9,3:53 AM,,10.0,Calm,Calm,0,Tulsa,Oklahoma,74104
4,Clear,2016-10-03 09:53:00,55.0,,-,93,N/A,30.01,57.0,4:53 AM,,9.0,Calm,Calm,0,Tulsa,Oklahoma,74104
5,Clear,2016-10-03 10:53:00,55.0,,-,93,N/A,30.01,57.0,5:53 AM,,9.0,Calm,Calm,0,Tulsa,Oklahoma,74104
6,Clear,2016-10-03 11:53:00,55.9,,-,93,N/A,30.02,57.9,6:53 AM,,7.0,Calm,Calm,0,Tulsa,Oklahoma,74104
7,Clear,2016-10-03 12:53:00,55.9,,-,93,N/A,30.03,57.9,7:53 AM,,7.0,Calm,Calm,0,Tulsa,Oklahoma,74104
8,Clear,2016-10-03 13:53:00,57.0,,-,78,N/A,30.04,64.0,8:53 AM,,10.0,Calm,Calm,0,Tulsa,Oklahoma,74104
9,Clear,2016-10-03 14:53:00,57.0,,-,61,N/A,30.04,71.1,9:53 AM,,10.0,South,6.9,180,Tulsa,Oklahoma,74104
10,Clear,2016-10-03 15:53:00,57.9,,-,54,N/A,30.02,75.9,10:53 AM,,10.0,South,8.1,170,Tulsa,Oklahoma,74104
11,Clear,2016-10-03 16:53:00,55.9,,-,43,N/A,30.00,80.1,11:53 AM,,10.0,South,11.5,170,Tulsa,Oklahoma,74104
12,Clear,2016-10-03 17:53:00,55.0,,-,39,N/A,29.96,82.0,12:53 PM,,10.0,South,12.7,180,Tulsa,Oklahoma,74104
13,Clear,2016-10-03 18:53:00,54.0,,-,35,N/A,29.93,84.0,1:53 PM,,10.0,South,11.5,170,Tulsa,Oklahoma,74104
14,Clear,2016-10-03 19:53:00,54.0,,20.7,34,N/A,29.90,84.9,2:53 PM,,10.0,SE,15.0,140,Tulsa,Oklahoma,74104
15,Clear,2016-10-03 20:53:00,55.0,,20.7,36,N/A,29.87,84.9,3:53 PM,,10.0,South,15.0,170,Tulsa,Oklahoma,74104
16,Clear,2016-10-03 21:53:00,54.0,,21.9,34,N/A,29.85,84.9,4:53 PM,,10.0,South,12.7,170,Tulsa,Oklahoma,74104
17,Clear,2016-10-03 22:53:00,55.0,,-,38,N/A,29.84,82.9,5:53 PM,,10.0,South,12.7,170,Tulsa,Oklahoma,74104
18,Clear,2016-10-03 23:53:00,55.0,,-,41,N/A,29.83,81.0,6:53 PM,,10.0,South,8.1,170,Tulsa,Oklahoma,74104
19,Clear,2016-10-04 00:53:00,55.0,,-,45,N/A,29.84,78.1,7:53 PM,,10.0,South,5.8,170,Tulsa,Oklahoma,74104
20,Clear,2016-10-04 01:53:00,55.9,,-,50,N/A,29.85,75.9,8:53 PM,,10.0,South,9.2,170,Tulsa,Oklahoma,74104
21,Clear,2016-10-04 02:53:00,57.0,,-,55,N/A,29.84,73.9,9:53 PM,,10.0,SSE,6.9,160,Tulsa,Oklahoma,74104
22,Clear,2016-10-04 03:53:00,57.0,,-,57,N/A,29.85,73.0,10:53 PM,,10.0,South,9.2,170,Tulsa,Oklahoma,74104
23,Clear,2016-10-04 04:53:00,55.9,,-,59,N/A,29.84,71.1,11:53 PM,,10.0,SSE,8.1,160,Tulsa,Oklahoma,74104
